{"type":"Feature","properties":{"GID_2":"RUS.28.5_1","GID_0":"RUS","country":"Russia","GID_1":"RUS.28_1","province":"Khabarovsk","NL_NAME_1":"Хабаровскийкрай","county":"Bikinskiyrayon","VARNAME_2":"NA","NL_NAME_2":"Бикинскийрайон","TYPE_2":"Raion","ENGTYPE_2":"District","CC_2":"R67090","HASC_2":"RU.KH.BR","name":"Bikinskiyrayon.county"},
"geometry":{"type": "MultiPolygon","coordinates": [[[[134.0179,46.6637,60.2113],[134.0375,46.6632,107.1808],[134.0875,46.679,531.9553],[134.1804,46.6827,520.6926],[134.2684,46.6994,174.4592],[134.3514,46.7088,62.9103],[134.4192,46.7126,289.6627],[134.4681,46.7328,134.0913],[134.5023,46.7627,92.0465],[134.5136,46.8106,92.4191],[134.4882,46.852,127.5252],[134.5057,46.9149,385.5957],[134.4598,46.9651,371.0633],[134.4707,47.0161,274.0361],[134.517,47.0098,206.6552],[134.5642,46.9744,276.9121],[134.6069,46.9725,193.872],[134.6135,47.0407,427.537],[134.6576,47.069,507.0014],[134.6722,47.1095,568.2192],[134.6904,47.1427,599.3277],[134.7283,47.1487,542.6212],[134.7622,47.149,535.3193],[134.8233,47.1421,566.877],[134.8615,47.1716,492.133],[134.8579,47.2321,386.1846],[134.8368,47.2546,385.7225],[134.8503,47.3081,567.4389],[134.7707,47.2819,593.2254],[134.6693,47.2773,739.7201],[134.5631,47.2888,793.8552],[134.4933,47.2946,206.0367],[134.4468,47.2886,146.5733],[134.3767,47.2432,162.616],[134.3124,47.2336,140.3104],[134.2757,47.28,97.0834],[134.2052,47.2098,41.5],[134.2154,47.1965,44.019],[134.2226,47.1807,41.5],[134.2243,47.1573,41.5],[134.2214,47.1186,41.5],[134.2132,47.1038,41.5],[134.187,47.0947,43.5273],[134.1454,47.092,45.581],[134.1346,47.0878,41.5],[134.1142,47.0624,41.5],[134.113,47.0529,41.5],[134.1141,47.0371,42.7367],[134.0955,47.0004,67.5691],[134.0661,46.9721,100.0373],[134.0692,46.9545,43.7118],[134.0739,46.942,49.2504],[134.0722,46.9267,113.1913],[134.0651,46.9094,65.2823],[134.0497,46.893,48.7207],[134.0441,46.8807,49.3705],[134.0401,46.8477,45.2287],[134.0297,46.8384,48.2849],[134.0207,46.8223,48.9545],[134.0234,46.8116,50.025],[134.0386,46.7931,49.5972],[134.0492,46.774,45.2729],[134.0481,46.763,45.1326],[134.0332,46.7482,45.5589],[134.024,46.7324,51.7083],[134.0258,46.7085,45.2728],[134.0248,46.6838,46.6061],[134.0179,46.6637,60.2113]],
[[134.3295,46.8396,248.1997],[134.3166,46.8355,251.8547],[134.2957,46.8436,243.8417],[134.2913,46.8544,175.2982],[134.3243,46.8672,253.6616],[134.3395,46.858,410.5429],[134.3295,46.8396,248.1997]]]]}}