{"type":"Feature","properties":{"GID_2":"RUS.2.57_1","GID_0":"RUS","country":"Russia","GID_1":"RUS.2_1","province":"Altay","NL_NAME_1":"Алтайскийкрай","county":"Tselinnyyrayon","VARNAME_2":"NA","NL_NAME_2":"Целинныйрайон","TYPE_2":"Raion","ENGTYPE_2":"District","CC_2":"R53095","HASC_2":"RU.AL.TS","name":"Tselinnyyrayon.county"},
"geometry":{"type": "MultiPolygon","coordinates": [[[[86.1451,52.8221,306.0976],[86.2593,52.8678,345.1261],[86.3336,52.9131,428.8169],[86.3991,52.9572,389.5941],[86.3785,53.0249,316.711],[86.3621,53.0672,361.36],[86.3366,53.1131,357.8759],[86.3113,53.1183,330.7673],[86.2062,53.1016,199.9362],[86.1305,53.1209,287.5188],[86.0142,53.0962,297.0484],[85.9289,53.0938,326.6642],[85.8993,53.1067,369.4225],[85.8481,53.2002,223.1025],[85.8058,53.2429,196.6095],[85.7075,53.2369,216.3526],[85.6557,53.2367,237.9004],[85.6313,53.2132,233.9316],[85.5734,53.2085,276.5083],[85.5179,53.2097,275.451],[85.4725,53.2177,282.0256],[85.3938,53.2222,288.4148],[85.3966,53.1939,270.5511],[85.3828,53.1763,274.7269],[85.3786,53.1498,267.0764],[85.3829,53.13,294.5511],[85.3965,53.0938,318.7326],[85.4342,53.0978,319.5226],[85.4816,53.0799,290.5333],[85.4662,53.0288,324.1326],[85.4296,53.0055,345.1884],[85.3685,53.0141,316.7701],[85.3118,53.015,340.0928],[85.2682,53.0185,353.5406],[85.2156,53.0087,363.0473],[85.1872,52.9929,340.2019],[85.1738,52.9623,349.9238],[85.1485,52.9385,355.1386],[85.1273,52.9245,332.0935],[85.1625,52.9181,347.6201],[85.1904,52.9311,336.3525],[85.2145,52.9538,341.8755],[85.2317,52.9747,337.1741],[85.2603,52.9692,321.4215],[85.2788,52.9494,306.0319],[85.2825,52.9147,307.162],[85.2643,52.8844,288.0803],[85.2883,52.8663,314.3569],[85.3286,52.8503,290.7356],[85.3421,52.8187,303.0546],[85.3042,52.7663,250.6844],[85.3193,52.7303,264.5762],[85.3643,52.714,253.9034],[85.3566,52.6685,253.8373],[85.3592,52.6493,253.4226],[85.4164,52.6662,258.9656],[85.4906,52.7001,260.9951],[85.593,52.734,273.8783],[85.6509,52.7582,276.3401],[85.648,52.8079,305.2672],[85.6419,52.8413,298.5314],[85.6918,52.858,303.7599],[85.7175,52.8688,343.4484],[85.7437,52.8313,323.7479],[85.7751,52.7965,297.4842],[85.8089,52.7804,288.5439],[85.9225,52.7885,273.0294],[86.0352,52.7991,303.4724],[86.1451,52.8221,306.0976]]]]}}