{"type":"Feature","properties":{"GID_3":"RUS.30.1.1_1","GID_0":"RUS","country":"Russia","GID_1":"RUS.30_1","province":"Khanty-Mansiy","NL_NAME_1":"Ханты-МансийскийАОк","GID_2":"RUS.30.1_1","county":"Beloyarskiyrayon","NL_NAME_2":"Белоярскийрайон","city":"NA","VARNAME_3":"NA","NL_NAME_3":"NA","TYPE_3":"NA","ENGTYPE_3":"NA","CC_3":"NA","HASC_3":"NA","name":"N_A.city"},
"geometry":{"type": "MultiPolygon","coordinates": [[[[68.9519,64.4023,102.9405],[68.98,64.3586,103.7459],[69.047,64.3183,92.3149],[69.0066,64.2881,85.667],[68.9578,64.2571,96.1855],[68.9738,64.1997,92.1862],[68.9478,64.1696,74.6114],[68.7743,64.2017,106.063],[68.6506,64.2355,97.3428],[68.5712,64.2658,94.1932],[68.5133,64.2723,94.0137],[68.3777,64.2227,76.0038],[68.2367,64.1738,98.1252],[68.1888,64.1446,105.197],[68.1453,64.1256,84.9272],[68.0341,64.1056,98.032],[67.9283,64.0733,115.2359],[67.8691,64.0342,121.3905],[67.8074,64.0283,136.3375],[67.7645,64.0728,110.8895],[67.7374,64.0851,114.3079],[67.6686,64.0693,138.0113],[67.549,64.0716,141.941],[67.3899,64.0708,101.0686],[67.2807,64.0567,151.5337],[67.2648,64.0942,147.5852],[67.2282,64.1291,191.2156],[67.1309,64.1436,145.5812],[66.9748,64.1588,167.98],[66.8786,64.2025,175.3887],[66.8399,64.2558,161.6348],[66.8668,64.3182,106.8078],[66.9234,64.3802,109.1348],[66.957,64.413,124.464],[66.9476,64.4451,99.8351],[66.896,64.482,84.6797],[66.8251,64.5072,58.8496],[66.7334,64.5067,25.1727],[66.4759,64.4535,32.2862],[66.4027,64.4499,10.4027],[66.3546,64.4741,16.3714],[66.2571,64.5118,33.4285],[66.1791,64.5268,35.8581],[65.9736,64.5178,11.9833],[65.7868,64.5056,10.1075],[65.7257,64.5001,11.3103],[65.8483,64.4215,14.7972],[65.9129,64.374,13.3009],[65.8871,64.3342,10.2527],[65.801,64.2997,10.7574],[65.7598,64.2719,10.8525],[65.7629,64.2232,12.1758],[65.7877,64.1672,12.4036],[65.8097,64.1096,11.973],[65.7964,64.0718,15.2222],[65.7417,64.0343,12.2623],[65.6814,63.9975,13.7379],[65.6324,63.9541,11.3713],[65.5889,63.8993,12.0737],[65.5295,63.8459,13.1159],[65.4274,63.7996,11.7174],[65.3715,63.771,14.2057],[65.3458,63.7416,7.9713],[65.3736,63.6951,13.8288],[65.4292,63.6493,13.0686],[65.4563,63.6069,13.6111],[65.4092,63.5649,14.1495],[65.3682,63.5201,14.0083],[65.35,63.4851,13.6547],[65.3649,63.4575,13.3991],[65.3649,63.4437,13.3326],[65.5767,63.4262,65.9197],[65.7868,63.3757,78.1029],[65.915,63.3349,127.21],[65.9876,63.3042,123.8479],[66.0087,63.2731,71.7254],[65.9601,63.2652,66.7302],[65.8876,63.2575,60.0651],[65.8477,63.2319,84.3492],[65.8433,63.208,125.2324],[65.9237,63.1637,134.7287],[66.0856,63.1213,119.4253],[66.2131,63.1074,119.4957],[66.3054,63.088,123.5533],[66.3753,63.0547,150.2426],[66.4184,63.0168,127.2542],[66.3451,62.9697,141.308],[66.3368,62.9449,118.6113],[66.4277,62.889,114.1371],[66.5899,62.82,185.706],[66.7583,62.7526,153.905],[67.0091,62.69,100.803],[67.1894,62.6695,147.3132],[67.3064,62.6633,172.7442],[67.3766,62.6732,179.9312],[67.4072,62.6878,167.3612],[67.4187,62.7028,160.5763],[67.482,62.6824,153.3631],[67.4927,62.6563,161.269],[67.5363,62.6311,137.1021],[67.6076,62.6687,159.8205],[67.7292,62.6755,153.7723],[67.9244,62.7182,114.8906],[68.1459,62.7737,112.4537],[68.2493,62.8215,128.6933],[68.2749,62.862,127.4921],[68.26,62.8982,131.0866],[68.2875,62.9117,140.4113],[68.3252,62.9165,134.4387],[68.37,62.9036,143.3642],[68.4739,62.9359,143.315],[68.5082,62.9357,149.2809],[68.5799,62.9289,138.869],[68.6719,62.9756,122.3662],[68.739,63.0143,105.715],[68.8204,63.0208,122.9593],[68.8567,62.9714,115.4715],[68.9126,62.9346,103.328],[68.9159,62.8899,114.5572],[68.9227,62.856,117.6612],[68.9619,62.8256,127.9799],[69.1082,62.7843,113.2491],[69.154,62.7897,114.8908],[69.2365,62.8407,119.9825],[69.4557,62.9093,117.8194],[69.7538,62.9809,118.1851],[69.9229,63.0182,124.2581],[70.1358,63.0839,136.0998],[70.2906,63.1244,130.9232],[70.3993,63.1659,129.8749],[70.4805,63.1704,128.7694],[70.7015,63.1627,127.687],[71.1185,63.165,136.6206],[71.3542,63.1784,133.2388],[71.5374,63.1925,138.6451],[71.6789,63.1968,135.7927],[71.6449,63.2751,127.8452],[71.594,63.35,117.491],[71.5665,63.4108,114.4642],[71.5783,63.4946,113.1645],[71.5572,63.5686,105.5],[71.4347,63.6648,107.7474],[71.3595,63.6882,110.3461],[71.1365,63.6803,112.9335],[70.9856,63.682,118.2098],[70.9362,63.6937,118.8331],[70.89,63.8058,100.1772],[70.8051,63.879,95.9382],[70.6928,63.9576,99.0],[70.6518,64.0051,100.5],[70.7373,64.0288,105.9029],[70.7731,64.0532,107.5472],[70.8133,64.0885,106.1058],[70.8001,64.1447,107.4912],[70.7538,64.1822,109.0],[70.6377,64.2023,112.0229],[70.5034,64.2427,114.5],[70.4089,64.2994,120.0719],[70.3361,64.3325,120.5033],[70.1868,64.3145,120.4373],[69.9846,64.3033,127.164],[69.8775,64.3019,133.2497],[69.83,64.3595,121.0996],[69.7295,64.3665,106.5012],[69.5794,64.3609,105.0634],[69.4673,64.3531,103.2728],[69.4151,64.3733,98.6616],[69.3409,64.4142,97.7004],[69.2543,64.4291,97.7725],[69.1201,64.4256,96.6801],[68.9519,64.4023,102.9405]],
[[66.7397,63.6542,23.1104],[66.6816,63.6412,22.4922],[66.6422,63.6612,20.3897],[66.6395,63.6785,21.5218],[66.7112,63.6865,21.6289],[66.7462,63.6761,25.3764],[66.7543,63.665,26.6686],[66.7397,63.6542,23.1104]]]]}}