{"type":"Feature","properties":{"GID_3":"RUS.30.18.1_1","GID_0":"RUS","country":"Russia","GID_1":"RUS.30_1","province":"Khanty-Mansiy","NL_NAME_1":"Ханты-МансийскийАОк","GID_2":"RUS.30.18_1","county":"Raduga","NL_NAME_2":"NA","city":"NA","VARNAME_3":"NA","NL_NAME_3":"NA","TYPE_3":"NA","ENGTYPE_3":"NA","CC_3":"NA","HASC_3":"NA","name":"N_A.city"},
"geometry":{"type": "MultiPolygon","coordinates": [[[[77.5023,62.0912,68.0049],[77.527,62.1064,69.1051],[77.4833,62.1503,65.6018],[77.3953,62.1364,68.3736],[77.3734,62.0995,67.22],[77.4364,62.0807,66.4478],[77.5023,62.0912,68.0049]]]]}}