{"type":"Feature","properties":{"GID_3":"RUS.9.18.1_1","GID_0":"RUS","country":"Russia","GID_1":"RUS.9_1","province":"Buryat","NL_NAME_1":"РеспубликаБурятия","GID_2":"RUS.9.18_1","county":"Severobaykal'skiy","NL_NAME_2":"Северобайкалрайон","city":"NA","VARNAME_3":"NA","NL_NAME_3":"NA","TYPE_3":"NA","ENGTYPE_3":"NA","CC_3":"NA","HASC_3":"NA","name":"N_A.city"},
"geometry":{"type": "MultiPolygon","coordinates": [[[[109.9187,54.1053,1794.924],[109.9458,54.1231,1278.6644],[109.9531,54.1518,1980.2383],[109.9833,54.1941,1501.184],[110.0749,54.2686,2427.7749],[110.0534,54.3128,1313.0347],[110.0305,54.3837,1544.6807],[110.0713,54.4462,1835.7],[110.1432,54.4985,2360.4031],[110.2177,54.535,1432.1663],[110.2834,54.5528,1652.8511],[110.3851,54.5711,1940.3098],[110.4207,54.611,1873.9685],[110.4323,54.711,2175.771],[110.4628,54.8378,1508.5907],[110.5129,54.8994,1955.3376],[110.5867,54.9477,2247.6597],[110.6438,55.0096,1748.3743],[110.6994,55.1736,1817.7054],[110.7795,55.2277,1766.8973],[110.8112,55.28,1851.054],[110.9493,55.3009,1769.9316],[111.0287,55.3523,1603.8921],[111.0794,55.4165,1515.8633],[111.1507,55.4391,1149.9546],[111.1853,55.4763,1588.1427],[111.2427,55.5656,1883.5311],[111.3222,55.5902,1132.5481],[111.366,55.5831,1017.481],[111.389,55.5505,1229.8514],[111.3977,55.5146,1716.0774],[111.4074,55.4924,1580.3145],[111.4708,55.4834,1290.7405],[111.5896,55.4716,1606.8317],[111.7343,55.4275,1730.3064],[111.8156,55.3574,1558.4218],[111.8823,55.3533,1592.0913],[111.9859,55.3814,1391.9629],[112.021,55.3621,1597.2725],[112.0183,55.3106,1636.7257],[112.0929,55.2988,2122.7141],[112.2015,55.3433,1868.0886],[112.315,55.3975,1574.0216],[112.4729,55.437,1677.6404],[112.5667,55.3877,1347.6421],[112.6653,55.3679,1469.7715],[112.7542,55.3038,1540.4891],[112.8775,55.3235,1681.5142],[112.9367,55.3679,1670.3965],[113.07,55.4123,1453.4146],[113.0946,55.4716,1758.4741],[113.0897,55.5554,1756.4619],[113.1144,55.5801,2117.761],[113.0897,55.7183,788.5187],[112.9121,55.8515,2100.4836],[112.7542,55.9058,1900.4823],[112.6308,55.9157,1792.9541],[112.6209,55.9502,1313.092],[112.7048,56.0933,1163.3699],[112.6407,56.1476,1452.0435],[112.6604,56.2167,573.2999],[112.7887,56.2315,696.2977],[112.8035,56.2808,953.6891],[113.0897,56.3104,1150.5691],[113.1539,56.3696,681.5901],[113.2427,56.3696,1544.7794],[113.3512,56.4486,1355.4625],[113.4598,56.4733,1270.6606],[113.6374,56.5818,1107.0511],[113.7016,56.6016,1635.693],[113.7337,56.6296,1916.8787],[113.6589,56.6483,1751.5713],[113.6235,56.6681,1800.4877],[113.5681,56.6799,1585.3499],[113.4815,56.6749,1580.2491],[113.4157,56.6638,1638.1134],[113.3363,56.6431,1631.2595],[113.2409,56.6454,1333.0881],[113.1633,56.654,1465.9447],[113.0928,56.6765,1599.0298],[112.8803,56.7144,1259.1901],[112.8009,56.7414,1515.7007],[112.7259,56.7817,1514.5952],[112.6916,56.8158,1472.1786],[112.6768,56.8654,1569.9347],[112.6842,56.9007,1387.6582],[112.707,56.9213,1336.5385],[112.7013,56.9441,1342.2205],[112.6801,56.9556,1452.6836],[112.5972,56.9606,1215.4896],[112.5498,56.9397,1319.777],[112.4248,56.8549,1342.27],[112.3558,56.874,1214.8467],[112.2122,56.8758,1124.1017],[112.0828,56.9452,965.637],[111.9075,56.959,941.119],[111.8523,56.9211,1389.7388],[111.7995,56.9282,1328.3193],[111.6027,57.0838,1171.4536],[111.6011,57.1107,1213.6403],[111.5336,57.1264,1229.7932],[111.3854,57.0549,1089.1907],[111.37,57.0121,1230.2651],[111.2952,56.962,1117.9248],[111.3044,56.9151,1193.1929],[111.2817,56.8988,1510.9622],[111.2112,56.8769,1830.2397],[111.1192,56.8201,1588.5671],[111.0769,56.8213,1563.7419],[110.9835,56.8622,877.8594],[110.9152,56.8537,1047.6653],[110.815,56.8518,1093.7164],[110.7246,56.8737,1367.1729],[110.6408,56.8537,1306.9432],[110.556,56.8437,1332.0298],[110.5191,56.859,988.7979],[110.4265,56.9048,1029.5641],[110.3664,56.9294,980.4155],[110.3001,56.937,802.594],[110.1885,56.9429,1044.1797],[110.0621,56.9739,1262.9094],[109.9869,56.9692,1232.0347],[109.9565,56.9525,1161.5051],[109.9363,56.9184,1281.9718],[109.8936,56.9008,1504.3137],[109.8734,56.8712,1382.9114],[109.8579,56.8293,1268.6744],[109.8572,56.7844,1352.0779],[109.7904,56.7467,1395.1001],[109.7428,56.7249,1234.2137],[109.6818,56.7006,1304.3159],[109.6278,56.7078,1201.4672],[109.5596,56.7198,1267.8175],[109.4804,56.7234,1208.2815],[109.3988,56.707,1254.5204],[109.3116,56.6791,1315.4332],[109.2019,56.6629,1222.3289],[109.1387,56.6679,1226.8981],[109.0819,56.6668,1647.2268],[109.0544,56.6451,1224.3953],[109.0056,56.6213,1092.5007],[108.9648,56.6218,1234.5514],[108.9263,56.5825,1223.2823],[108.895,56.5803,1370.4727],[108.8461,56.5804,1086.594],[108.8106,56.5693,1006.918],[108.7828,56.565,1125.9656],[108.7291,56.5672,1135.8702],[108.6896,56.5647,1285.0247],[108.6609,56.5393,1010.0522],[108.6914,56.5324,1182.929],[108.714,56.5206,1045.4006],[108.7136,56.5051,1090.2014],[108.7046,56.47,715.0363],[108.6907,56.4481,529.0745],[108.6414,56.4399,772.8668],[108.5679,56.3738,1170.2268],[108.5532,56.3392,1544.614],[108.5778,56.3162,1354.8672],[108.6279,56.2804,1228.9041],[108.6862,56.2512,1204.2708],[108.7499,56.2428,1337.6047],[108.8282,56.2203,1613.1844],[108.8652,56.1863,1612.215],[108.8904,56.1531,1490.8148],[108.8826,56.1097,1299.7874],[108.8892,56.0871,1349.1958],[108.9346,56.0698,1654.5536],[108.9642,56.0529,1532.5723],[108.9599,56.0239,1555.3899],[108.9919,56.0168,1580.5016],[109.0327,56.0274,1532.5732],[109.0772,56.012,1652.1897],[109.1136,55.9907,1546.2725],[109.1898,55.9865,1951.9279],[109.2082,55.9676,1656.9819],[109.1955,55.9512,1564.9055],[109.1545,55.9205,1703.6483],[109.0915,55.9218,1673.8262],[108.981,55.9332,1522.7378],[108.9245,55.9284,1500.9575],[108.8778,55.9146,1465.818],[108.8397,55.8818,1480.153],[108.8091,55.83,1377.4803],[108.7864,55.7776,1434.6755],[108.7768,55.7196,1109.8527],[108.7552,55.6571,1235.9775],[108.7281,55.6133,1640.2705],[108.6973,55.6074,1783.8186],[108.6601,55.5845,1317.5354],[108.6574,55.5581,1703.0211],[108.6838,55.5167,1418.8225],[108.6522,55.4953,1832.3551],[108.6249,55.4634,1359.1296],[108.6258,55.4304,1623.4216],[108.6468,55.394,1227.4601],[108.652,55.3477,1593.7048],[108.6362,55.3004,1620.719],[108.6507,55.2644,1464.6282],[108.7346,55.2324,1654.0569],[108.7305,55.1805,1135.0433],[108.701,55.104,1620.1875],[108.6726,55.0658,1914.9941],[108.6696,54.969,1750.2598],[108.7017,54.9464,1108.3335],[108.6952,54.9111,1670.4937],[108.6637,54.8788,1031.5552],[108.6611,54.7636,1178.6604],[108.6735,54.6784,1150.7083],[108.6388,54.6591,1470.2048],[108.6054,54.6461,1179.4862],[108.5702,54.5774,1187.7659],[108.5267,54.5404,1507.7915],[108.598,54.5423,1414.2828],[108.6217,54.5698,1097.7142],[108.6757,54.616,1380.364],[108.7098,54.6326,945.5531],[108.703,54.645,1388.1263],[108.7107,54.671,1603.6646],[108.724,54.6992,1550.1826],[108.7446,54.7205,1357.7013],[108.7629,54.7512,1303.7903],[108.7733,54.7806,942.2689],[108.7962,54.7971,1104.5266],[108.794,54.8156,1431.7085],[108.8029,54.847,1220.52],[108.823,54.8564,922.4701],[108.8931,54.9059,511.0635],[108.865,54.9374,593.4131],[108.8708,54.9626,1365.4954],[108.9347,54.9841,625.9512],[108.9479,55.0051,768.0212],[108.9746,55.0286,693.9292],[109.0648,55.0462,509.386],[109.1,55.0507,472.4932],[109.0973,55.072,469.8418],[109.0912,55.0927,801.5907],[109.1005,55.124,1005.8105],[109.1278,55.1438,1067.4279],[109.1234,55.1634,1027.7107],[109.1359,55.1835,996.604],[109.1563,55.2259,761.0342],[109.1635,55.2748,896.5284],[109.1661,55.3186,464.0716],[109.1957,55.3768,580.4453],[109.2207,55.3968,485.0418],[109.2102,55.4206,455.0],[109.1869,55.4454,455.0],[109.1538,55.4728,464.8374],[109.1752,55.4913,479.0414],[109.1855,55.5069,480.3533],[109.1835,55.5309,455.0],[109.1712,55.5558,774.8907],[109.2054,55.565,520.5494],[109.206,55.5805,586.2684],[109.2282,55.5916,514.2144],[109.2797,55.5856,455.0],[109.3054,55.5945,455.5547],[109.3201,55.6145,466.129],[109.3542,55.6493,507.4539],[109.4294,55.678,455.0],[109.4331,55.6979,772.0497],[109.4434,55.7127,718.6926],[109.4946,55.7443,681.1674],[109.5259,55.7748,734.6536],[109.56,55.7949,764.7225],[109.622,55.8164,457.9793],[109.6267,55.7912,455.2841],[109.6671,55.7924,454.9307],[109.7012,55.7767,455.2759],[109.7347,55.7766,456.0302],[109.7785,55.7858,455.3814],[109.8234,55.7618,455.0217],[109.8785,55.7488,456.4686],[109.9049,55.7071,455.6562],[109.9273,55.6923,455.0],[109.9714,55.683,507.6346],[109.9663,55.6466,688.324],[109.9133,55.6218,462.6655],[109.8947,55.6032,455.0],[109.8662,55.5643,608.325],[109.8033,55.5412,455.0],[109.8216,55.5286,455.0],[109.8435,55.5249,455.0],[109.8405,55.5059,455.0],[109.8313,55.4856,455.0],[109.8917,55.4694,857.6166],[109.8792,55.4493,461.4804],[109.8489,55.4327,535.8105],[109.8369,55.4015,487.6854],[109.8434,55.3642,584.6246],[109.8151,55.3198,659.8624],[109.7621,55.2876,576.7614],[109.7923,55.2713,499.688],[109.7946,55.2427,483.1765],[109.7861,55.2168,455.0],[109.77,55.1943,591.1323],[109.744,55.1763,485.3393],[109.7004,55.1598,455.0],[109.7359,55.1393,477.4361],[109.7527,55.1214,455.9158],[109.7326,55.1084,461.4584],[109.7361,55.0787,455.0],[109.7441,55.0395,455.0],[109.7215,54.9983,503.2463],[109.6879,54.9874,455.0],[109.6741,54.9528,455.0],[109.6986,54.892,736.7493],[109.6496,54.8705,455.0],[109.6472,54.8505,455.0],[109.6379,54.8082,458.607],[109.5957,54.7824,455.0],[109.6169,54.7568,455.0],[109.6193,54.7409,455.0],[109.6098,54.7051,455.0],[109.5968,54.6676,490.7237],[109.5629,54.654,488.9385],[109.5142,54.627,462.9347],[109.5074,54.5936,472.0102],[109.4888,54.5456,455.0],[109.4877,54.4971,455.0],[109.4741,54.4487,455.0],[109.4529,54.4028,455.0],[109.4792,54.3465,455.0],[109.4542,54.311,455.0],[109.5036,54.2591,478.5894],[109.5258,54.2104,476.9633],[109.5296,54.1559,455.0],[109.5184,54.1302,455.0],[109.4934,54.0993,455.0],[109.4805,54.0793,455.0],[109.5309,54.0832,992.3969],[109.5843,54.0759,1773.54],[109.6464,54.0705,1856.8363],[109.7133,54.072,1311.429],[109.8355,54.0842,1581.6405],[109.9187,54.1053,1794.924]],
[[109.3161,55.6188,467.089],[109.3033,55.614,475.2495],[109.2831,55.6163,503.0113],[109.2784,55.6392,479.2727],[109.3087,55.6412,521.543],[109.318,55.6368,516.1233],[109.3238,55.6291,500.586],[109.3161,55.6188,467.089]]]]}}