{"type":"Feature","properties":{"GID_2":"RUS.60.34_1","GID_0":"RUS","country":"Russia","GID_1":"RUS.60_1","province":"Sakha","NL_NAME_1":"РеспубликаСаха","county":"Verkhoyanskiyrayon","VARNAME_2":"NA","NL_NAME_2":"Верхоянскийрайон","TYPE_2":"Raion","ENGTYPE_2":"District","CC_2":"R65000","HASC_2":"RU.SK.VE","name":"Verkhoyanskiyrayon.county"},
"geometry":{"type": "MultiPolygon","coordinates": [[[[133.214,69.5758,297.4003],[133.5993,69.2805,304.7762],[133.4784,67.4876,563.3297],[132.5108,66.2709,472.0724],[131.7566,65.7587,409.2467],[131.6417,65.6956,736.4826],[131.692,65.6673,433.2543],[131.6833,65.6232,445.7639],[131.5449,65.546,650.5665],[131.4668,65.5123,817.3243],[131.4263,65.4496,540.5148],[131.4566,65.3946,578.6793],[131.5787,65.3835,978.4171],[131.7098,65.3347,917.0293],[131.7763,65.2506,726.8334],[131.8985,65.1832,911.6891],[131.9426,65.1179,792.1812],[131.9767,65.0487,964.4141],[132.0665,64.9665,1112.6105],[132.2207,64.8774,839.1931],[132.31,64.8226,866.7748],[132.3361,64.761,919.2621],[132.2901,64.7048,1253.6075],[132.2277,64.6665,1132.8513],[132.2189,64.6227,1414.3085],[132.2572,64.5879,800.0065],[132.3067,64.5609,1650.3453],[132.3993,64.5539,1178.5234],[132.5562,64.548,1809.4946],[132.7001,64.503,1361.9485],[132.7478,64.474,1579.0569],[132.8271,64.4758,1767.5763],[132.8637,64.4799,1771.1119],[132.9811,64.5405,1500.3333],[133.075,64.5584,1329.1157],[133.1806,64.5655,1287.8115],[133.2236,64.5978,1072.4164],[133.1961,64.6368,1111.3279],[133.0824,64.6908,908.1904],[132.9678,64.7429,991.7283],[132.8095,64.8105,937.4088],[132.7633,64.8645,973.4457],[132.8096,64.93,842.9573],[132.8799,64.981,795.707],[132.8857,65.0278,862.5612],[132.912,65.0947,675.7665],[132.97,65.1168,604.2763],[133.04,65.1219,641.5608],[133.1352,65.1625,836.0539],[133.2027,65.1979,1029.0693],[133.3177,65.2065,821.2545],[133.4073,65.2022,736.5363],[133.5372,65.1817,685.4421],[133.6755,65.1921,868.1647],[133.7871,65.2053,912.1996],[133.9002,65.2399,1007.5936],[133.9937,65.2541,1130.0441],[134.093,65.2846,847.8921],[134.1506,65.3358,1108.6582],[134.2167,65.382,851.1841],[134.3006,65.3808,927.5595],[134.3816,65.3677,924.2024],[134.4131,65.4062,863.7526],[134.4453,65.4571,815.1341],[134.5927,65.557,887.9438],[134.6937,65.6352,901.9354],[134.7794,65.7076,862.3294],[134.8673,65.7379,955.2701],[135.0885,65.7639,1153.9299],[135.2189,65.7759,1173.0682],[135.3201,65.7967,1002.2067],[135.4483,65.8344,902.1061],[135.568,65.873,887.5726],[135.6875,65.8715,1152.4362],[135.7749,65.8912,1043.754],[135.8305,65.9172,938.6223],[135.9638,65.9716,889.8514],[136.0884,66.0344,893.522],[136.1591,66.0739,1082.9625],[136.261,66.0784,1163.3278],[136.3832,66.1068,829.8579],[136.5186,66.1501,868.6373],[136.6426,66.1875,773.0538],[136.8135,66.1881,451.516],[137.0339,66.1798,686.851],[137.317,66.1333,1009.9887],[137.5901,66.1024,779.5942],[137.8841,66.0721,1071.1914],[138.1587,66.0503,1378.2225],[138.2737,66.0621,949.5578],[138.3596,66.0424,1348.2935],[138.5668,65.9686,903.3255],[138.7211,65.9786,1366.9539],[138.9244,66.0093,1003.2573],[139.1257,66.047,1172.8157],[139.2963,66.0544,1664.0964],[139.4328,66.0226,1209.8588],[139.5354,65.9647,981.9849],[139.6434,65.9084,1083.541],[139.7664,65.872,1088.0638],[139.8934,65.876,1167.7866],[139.9432,65.9151,1564.2384],[140.0192,65.9285,2032.1716],[140.0454,65.9511,1544.6483],[140.0827,66.0212,1655.9503],[139.9775,66.0772,1738.9391],[139.8066,66.133,1951.2214],[139.6382,66.1835,1762.0598],[139.6121,66.2408,1460.3661],[139.6644,66.2937,1652.3412],[139.8154,66.3391,1694.9832],[140.1259,66.4143,1624.2316],[140.2283,66.4231,1274.5444],[140.3409,66.4148,1183.5581],[140.429,66.4406,1250.3695],[140.4926,66.5205,1063.9122],[140.4904,66.5487,1444.9136],[140.4248,66.562,1431.6854],[140.3471,66.563,1527.5012],[140.2747,66.566,1544.368],[140.2212,66.6045,1183.5151],[140.0295,66.6479,1589.2322],[139.9576,66.679,1899.782],[139.9047,66.7324,1355.5559],[139.8521,66.7803,1139.573],[139.7729,66.8021,1438.8966],[139.6733,66.804,1349.5455],[139.5607,66.8092,1846.8457],[139.4693,66.8394,1520.902],[139.4534,66.8862,1154.8365],[139.4247,66.9482,962.5897],[139.3031,67.023,1244.3268],[139.1768,67.0453,848.8879],[139.002,67.0656,1120.5995],[138.8869,67.1053,1163.7382],[138.8387,67.1663,1531.3727],[138.8694,67.2119,1791.1445],[138.938,67.2557,1490.1572],[139.027,67.3009,748.4109],[139.0266,67.3587,608.2532],[138.9342,67.4284,1217.5359],[138.8548,67.4731,1149.9139],[138.7623,67.5154,1399.6621],[138.7141,67.5457,1466.9655],[138.6501,67.6145,1633.0674],[138.6588,67.6568,1215.1047],[138.7338,67.696,796.3369],[138.7984,67.7539,1016.5552],[138.879,67.8177,899.963],[138.8678,67.8812,1012.8608],[138.9078,67.9527,1354.9192],[138.888,68.0408,1283.082],[138.836,68.0707,910.7567],[138.6828,68.1021,1332.46],[138.6226,68.1273,1169.0823],[138.6334,68.1755,818.8661],[138.7168,68.1933,854.7447],[138.8726,68.1949,1689.5702],[138.9695,68.2256,1258.5975],[138.9571,68.2632,1107.4528],[138.8539,68.2771,1799.6567],[138.8619,68.3055,1372.6331],[138.7984,68.3304,1292.3446],[138.6397,68.3508,1298.73],[138.4648,68.3759,1450.2001],[138.2867,68.4413,1078.5096],[138.205,68.4968,1124.9362],[138.2168,68.5692,1199.092],[138.2716,68.6597,1071.8468],[138.2507,68.7365,649.8043],[138.1886,68.7991,627.5352],[138.0877,68.8838,629.3716],[137.9148,68.9854,592.545],[137.8304,69.0467,533.3136],[137.6857,69.0702,610.1674],[137.5818,69.0515,411.7377],[137.4465,69.0355,308.7464],[137.3045,69.0325,261.2624],[137.1023,69.0625,243.71],[136.8981,69.0895,236.2866],[136.8582,69.1149,221.9547],[136.8426,69.1636,315.9671],[136.7891,69.1866,356.6812],[136.7217,69.2125,398.6217],[136.7699,69.2603,383.8218],[136.8028,69.3093,498.7473],[136.7199,69.3436,503.5538],[136.6674,69.38,845.0243],[136.6871,69.4233,906.5954],[136.7421,69.4645,578.6281],[136.6395,69.5029,673.4599],[136.5651,69.5447,430.9037],[136.5836,69.5798,398.3535],[136.5929,69.6137,378.4687],[136.5445,69.6459,388.1367],[136.5548,69.686,429.7535],[136.6487,69.7224,472.3558],[136.7327,69.7641,678.8527],[136.7366,69.8002,751.7457],[136.689,69.8364,632.3954],[136.6362,69.8642,729.5226],[136.5134,69.8725,432.6996],[136.3525,69.8433,451.2912],[136.0866,69.8069,360.0747],[135.7223,69.7628,114.2127],[135.5445,69.7596,183.4491],[135.3411,69.7644,275.4969],[135.2151,69.7297,103.3466],[135.0959,69.7104,171.858],[134.9828,69.7388,107.1648],[134.9017,69.8035,109.2759],[134.7787,69.8813,166.1532],[134.6434,69.9426,282.921],[134.5464,69.9591,351.4628],[134.4924,70.0005,516.6228],[134.3774,69.9963,874.7957],[134.2964,69.9536,718.8069],[134.197,69.8637,767.1975],[134.0572,69.8248,837.3079],[133.8284,69.7686,374.351],[133.6572,69.7387,581.2542],[133.6291,69.6945,399.4528],[133.4703,69.6509,526.438],[133.3003,69.6577,399.9349],[133.2649,69.5923,486.7334],[133.214,69.5758,297.4003]]]]}}