{"type":"Feature","properties":{"GID_3":"RUS.35.28.1_1","GID_0":"RUS","country":"Russia","GID_1":"RUS.35_1","province":"Krasnoyarsk","NL_NAME_1":"Красноярскийкрай","GID_2":"RUS.35.28_1","county":"Kazachinskiyrayon","NL_NAME_2":"Казачинскийрайон","city":"NA","VARNAME_3":"NA","NL_NAME_3":"NA","TYPE_3":"NA","ENGTYPE_3":"NA","CC_3":"NA","HASC_3":"NA","name":"N_A.city"},
"geometry":{"type": "MultiPolygon","coordinates": [[[[93.7326,57.3071,201.7812],[93.6931,57.3388,191.6184],[93.5988,57.3574,177.8954],[93.6371,57.4263,150.5963],[93.7216,57.5307,182.4495],[93.77,57.6028,149.827],[93.8134,57.6728,218.548],[93.8998,57.7478,177.4102],[94.002,57.8199,198.8369],[94.113,57.9069,137.3484],[94.0157,57.9157,144.8276],[93.8475,57.9071,229.1964],[93.7225,57.9426,218.242],[93.565,57.967,224.4335],[93.3652,57.9853,181.1858],[93.1998,57.9777,95.7948],[93.0803,57.9909,89.3666],[93.0309,58.0036,76.5],[92.9702,57.9523,214.2608],[92.9958,57.9217,231.2872],[93.0513,57.8829,192.1673],[93.0321,57.8597,181.1146],[92.956,57.8405,208.7951],[92.8173,57.8331,202.0926],[92.6982,57.8771,222.0807],[92.5222,57.8578,164.9884],[92.5506,57.8256,163.0787],[92.5872,57.7784,186.749],[92.5203,57.732,219.2359],[92.4902,57.72,208.9123],[92.4421,57.7095,197.7175],[92.3884,57.6813,164.239],[92.4116,57.6571,177.1917],[92.4498,57.6632,196.4813],[92.5086,57.6376,206.86],[92.4987,57.5755,193.0522],[92.4712,57.5315,214.7417],[92.4329,57.5116,239.1496],[92.376,57.5144,240.1796],[92.3146,57.4828,257.3506],[92.3216,57.4374,252.9045],[92.3334,57.4097,265.6159],[92.3199,57.3794,250.9967],[92.2708,57.3551,263.1797],[92.2791,57.2832,307.7993],[92.3668,57.289,272.738],[92.4463,57.3043,263.7379],[92.4904,57.2906,273.3175],[92.5425,57.2958,278.1729],[92.6207,57.3174,252.8549],[92.693,57.3073,252.2852],[92.7296,57.2811,246.1143],[92.7991,57.28,232.1483],[92.8292,57.3002,207.7336],[92.8553,57.3046,210.38],[92.9068,57.2867,234.5887],[93.001,57.2934,243.3966],[93.0288,57.3216,237.7083],[93.0627,57.3731,238.4348],[93.1225,57.3941,253.8096],[93.1954,57.3975,228.1516],[93.2769,57.3913,250.1791],[93.3548,57.3931,240.1308],[93.3684,57.3508,233.4272],[93.3321,57.313,229.815],[93.3944,57.29,227.6375],[93.4276,57.2434,119.9112],[93.5041,57.2258,254.0953],[93.587,57.2598,211.413],[93.6336,57.2761,262.1441],[93.7326,57.3071,201.7812]]]]}}