{"type":"Feature","properties":{"GID_2":"RUS.83.31_1","GID_0":"RUS","country":"Russia","GID_1":"RUS.83_1","province":"Zabaykal'ye","NL_NAME_1":"Забайкальскийкрай","county":"Sretenskiyrayon","VARNAME_2":"NA","NL_NAME_2":"Сретенскийрайон","TYPE_2":"Raion","ENGTYPE_2":"District","CC_2":"R64092","HASC_2":"RU.CT.SR","name":"Sretenskiyrayon.county"},
"geometry":{"type": "MultiPolygon","coordinates": [[[[117.2764,51.9303,1133.4438],[117.3254,51.9767,1041.2347],[117.4102,51.9975,1144.7705],[117.4682,52.0386,717.2809],[117.5422,52.0771,863.172],[117.6133,52.098,925.538],[117.7069,52.0866,643.5674],[117.8023,52.0644,863.2682],[117.9482,52.0118,772.6357],[118.0097,52.0016,833.9634],[118.0236,51.9678,909.2231],[118.1079,51.9327,823.5114],[118.1778,51.9105,819.4749],[118.2513,51.8895,919.4753],[118.27,51.9341,955.2786],[118.2943,51.9825,1070.8304],[118.3692,52.0013,847.623],[118.4195,52.0223,848.8937],[118.4457,52.0588,886.381],[118.5024,52.0893,883.479],[118.5604,52.1041,1038.7834],[118.6339,52.102,1120.0574],[118.7169,52.1488,1012.7648],[118.7723,52.1993,770.2034],[118.8853,52.3381,1136.5709],[118.9297,52.3609,1173.601],[118.9891,52.3544,906.1414],[119.0148,52.3203,969.2286],[119.0002,52.277,854.2418],[119.012,52.2501,897.8394],[119.0916,52.237,737.3359],[119.1421,52.2214,661.8126],[119.1734,52.2082,597.1029],[119.2272,52.2197,771.6999],[119.2667,52.2528,712.4061],[119.2742,52.2935,693.4389],[119.3021,52.3344,711.7025],[119.3601,52.391,937.3355],[119.3819,52.4674,909.6569],[119.3621,52.5273,599.2112],[119.3191,52.5617,639.4164],[119.258,52.5935,699.7501],[119.1567,52.6133,916.0038],[119.0934,52.632,848.4326],[119.0569,52.6508,830.4182],[119.0406,52.6984,834.9589],[119.0462,52.749,571.2672],[119.0899,52.8033,859.384],[119.1347,52.8299,984.3887],[119.2067,52.8478,823.8861],[119.3158,52.8506,812.1301],[119.3945,52.9036,892.2135],[119.4204,52.9562,999.6062],[119.4679,52.9813,831.2922],[119.5349,53.0009,936.9259],[119.5964,53.0157,877.2289],[119.6408,53.0403,694.5252],[119.6882,53.0834,695.2248],[119.7325,53.1012,762.4788],[119.8005,53.1033,691.8973],[119.8684,53.114,620.7867],[119.9137,53.1536,726.9832],[119.9394,53.1881,815.262],[119.8506,53.209,1100.691],[119.7839,53.264,642.5864],[119.6828,53.3241,544.0179],[119.5287,53.3562,490.003],[119.4106,53.374,761.1733],[119.3392,53.3464,735.5359],[119.2839,53.3655,764.1255],[119.2484,53.345,701.3495],[119.2462,53.3082,828.5535],[119.1654,53.2907,689.4647],[119.1292,53.3112,762.0573],[119.0804,53.2643,698.5818],[119.0433,53.2412,587.6931],[118.9711,53.2593,702.2912],[118.9026,53.2576,822.9383],[118.7484,53.2085,642.697],[118.6616,53.1746,438.7838],[118.6214,53.1337,507.4117],[118.5173,53.1388,786.2531],[118.4974,53.087,678.7992],[118.46,53.0608,646.4197],[118.438,53.0179,730.2892],[118.4007,52.969,752.4034],[118.3907,52.9098,686.4606],[118.3397,52.8851,690.6205],[118.3026,52.8294,688.0107],[118.2738,52.7943,825.6339],[118.1902,52.8052,753.9928],[118.1598,52.7798,943.3385],[118.1264,52.7587,883.7637],[118.0518,52.751,780.4713],[118.0143,52.778,651.9065],[117.9522,52.7909,735.9997],[117.8924,52.7731,801.6176],[117.8499,52.7866,795.0879],[117.8175,52.788,686.1713],[117.8001,52.7633,814.6724],[117.7672,52.7402,819.5861],[117.7242,52.7565,801.5991],[117.6751,52.7483,827.3198],[117.6402,52.6912,923.1764],[117.5929,52.6618,914.4747],[117.5518,52.6617,911.712],[117.5108,52.6644,844.9812],[117.447,52.6129,946.7209],[117.2753,52.4209,726.0553],[117.2797,52.3774,783.7314],[117.3228,52.345,604.6437],[117.2889,52.3058,638.1749],[117.1827,52.2892,688.9875],[117.1372,52.2736,622.6295],[117.0374,52.2218,712.4605],[116.9483,52.1616,574.9912],[116.8791,52.1115,649.6714],[116.883,52.0919,619.0133],[116.8746,52.0438,626.2598],[116.9145,51.9958,501.2207],[116.9798,51.9618,807.5369],[117.0709,51.9428,901.5998],[117.172,51.9173,1018.3673],[117.2242,51.9195,969.2366],[117.2764,51.9303,1133.4438]]]]}}