{"type":"Feature","properties":{"GID_2":"RUS.35.39_1","GID_0":"RUS","country":"Russia","GID_1":"RUS.35_1","province":"Krasnoyarsk","NL_NAME_1":"Красноярскийкрай","county":"Nazarovskiyrayon","VARNAME_2":"NA","NL_NAME_2":"Назаровскийрайон","TYPE_2":"Raion","ENGTYPE_2":"District","CC_2":"R62092","HASC_2":"RU.KY.NR","name":"Nazarovskiyrayon.county"},
"geometry":{"type": "MultiPolygon","coordinates": [[[[89.2147,55.7006,310.2687],[89.2482,55.6948,322.2494],[89.2963,55.6773,349.6762],[89.3623,55.6567,320.6932],[89.4158,55.6267,316.8411],[89.4788,55.5976,405.6145],[89.5142,55.5503,419.2208],[89.5368,55.5579,359.1202],[89.5702,55.5821,303.0],[89.5932,55.5832,303.0],[89.6459,55.5807,329.1763],[89.6909,55.5912,318.0412],[89.7481,55.6193,349.0871],[89.8403,55.6239,359.6336],[89.8671,55.5877,324.7451],[89.9191,55.5822,313.4985],[90.0109,55.583,297.4817],[90.1124,55.5597,322.8743],[90.1572,55.5223,285.0093],[90.2814,55.522,286.0468],[90.3181,55.5472,309.3194],[90.3977,55.5494,282.0391],[90.4462,55.5214,381.8643],[90.5544,55.5424,406.217],[90.5847,55.5633,535.4835],[90.5993,55.5947,530.2325],[90.6313,55.591,494.4493],[90.6508,55.5853,451.1053],[90.6635,55.5552,542.9525],[90.6029,55.5245,528.9244],[90.6013,55.5078,567.2599],[90.6019,55.4492,540.6635],[90.6496,55.4285,423.2336],[90.7151,55.4751,455.397],[90.7853,55.512,409.931],[90.8347,55.5234,398.2649],[90.8754,55.5542,364.5054],[90.9532,55.587,375.226],[91.0284,55.6123,309.2275],[91.0685,55.6145,311.4023],[91.0694,55.6485,315.3396],[91.0524,55.7342,349.7845],[90.9809,55.7725,398.9261],[90.9356,55.8193,313.1309],[90.9484,55.9092,309.3723],[90.9291,55.9572,294.9729],[90.8803,55.9753,290.7539],[90.8049,55.9793,306.0838],[90.7383,55.9592,307.9214],[90.6487,55.9675,249.9552],[90.5031,56.0225,243.1132],[90.427,56.0281,238.7249],[90.3139,56.0011,283.4093],[90.2149,56.0184,255.6865],[90.1497,56.0505,246.373],[90.1254,56.0815,238.0611],[90.0467,56.0554,257.2763],[89.9493,56.0378,286.723],[89.9245,56.0375,260.2631],[89.8103,56.0486,228.4825],[89.7415,56.0388,262.575],[89.6745,56.0025,237.8766],[89.5838,55.9778,233.3881],[89.5411,55.9555,250.4292],[89.3749,55.9137,255.081],[89.3623,55.883,224.2334],[89.3571,55.8761,227.1007],[89.3876,55.8705,224.5336],[89.4392,55.8531,258.5371],[89.4153,55.8317,279.5806],[89.4098,55.8101,301.2231],[89.4231,55.7801,268.0009],[89.3084,55.7478,281.1989],[89.2645,55.7392,246.6794],[89.2147,55.7006,310.2687]]]]}}