{"type":"Feature","properties":{"GID_3":"RUS.35.47.1_1","GID_0":"RUS","country":"Russia","GID_1":"RUS.35_1","province":"Krasnoyarsk","NL_NAME_1":"Красноярскийкрай","GID_2":"RUS.35.47_1","county":"Sharypovskiyrayon","NL_NAME_2":"Шарыповскийрайон","city":"NA","VARNAME_3":"NA","NL_NAME_3":"NA","TYPE_3":"NA","ENGTYPE_3":"NA","CC_3":"NA","HASC_3":"NA","name":"N_A.city"},
"geometry":{"type": "MultiPolygon","coordinates": [[[[88.6361,55.4248,507.9701],[88.6909,55.411,584.6063],[88.7598,55.3441,765.8907],[88.8222,55.3475,737.3295],[88.8769,55.3096,697.9452],[88.9502,55.2891,771.7612],[88.9698,55.2312,865.1392],[88.9661,55.1848,779.4556],[89.0671,55.1321,616.0819],[89.0379,55.0842,668.3099],[89.1474,55.0764,802.6345],[89.2008,54.9904,779.6971],[89.3467,54.9998,603.7051],[89.3917,54.9737,667.4496],[89.4254,54.9861,676.237],[89.4472,55.0386,465.4489],[89.55,55.0464,598.9489],[89.5672,55.0581,564.2807],[89.6271,55.0315,592.7283],[89.6578,55.0031,423.8656],[89.648,55.0601,574.863],[89.6306,55.098,514.5979],[89.5627,55.1303,479.1245],[89.5034,55.1771,588.3182],[89.555,55.1948,509.3171],[89.6017,55.1954,421.8606],[89.5953,55.2187,440.0651],[89.554,55.2819,554.5911],[89.4762,55.3088,464.5586],[89.3792,55.3328,654.217],[89.2491,55.3205,484.4399],[89.2475,55.3526,509.7477],[89.2768,55.3857,528.1662],[89.3308,55.4184,535.5156],[89.4071,55.4531,597.8348],[89.478,55.479,482.2523],[89.5399,55.5076,491.0502],[89.5368,55.5579,359.1202],[89.5142,55.5503,419.2208],[89.4788,55.5976,405.6145],[89.4158,55.6267,316.8411],[89.3623,55.6567,320.6932],[89.2963,55.6773,349.6762],[89.2482,55.6948,322.2494],[89.2147,55.7006,310.2687],[89.1933,55.6841,316.5623],[89.1206,55.6673,255.8071],[89.023,55.6556,291.1341],[88.9611,55.6535,268.6779],[88.9177,55.6329,290.2885],[88.8653,55.5968,294.5517],[88.7662,55.5093,345.4738],[88.7113,55.4784,356.6502],[88.6361,55.4248,507.9701]]]]}}