{"type":"Feature","properties":{"GID_3":"RUS.28.1.1_1","GID_0":"RUS","country":"Russia","GID_1":"RUS.28_1","province":"Khabarovsk","NL_NAME_1":"Хабаровскийкрай","GID_2":"RUS.28.1_1","county":"Amursk","NL_NAME_2":"Аму́рск","city":"NA","VARNAME_3":"NA","NL_NAME_3":"NA","TYPE_3":"NA","ENGTYPE_3":"NA","CC_3":"NA","HASC_3":"NA","name":"N_A.city"},
"geometry":{"type": "MultiPolygon","coordinates": [[[[136.9158,50.2384,86.2325],[136.9227,50.2525,76.5561],[136.9158,50.2645,128.0237],[136.9023,50.2698,103.0342],[136.872,50.2656,46.2496],[136.8647,50.2441,55.286],[136.8725,50.2343,25.9396],[136.8997,50.2312,50.0967],[136.9158,50.2384,86.2325]]]]}}