{"type":"Feature","properties":{"GID_2":"RUS.2.14_1","GID_0":"RUS","country":"Russia","GID_1":"RUS.2_1","province":"Altay","NL_NAME_1":"Алтайскийкрай","county":"El'tsovskiyrayon","VARNAME_2":"NA","NL_NAME_2":"Ельцовскийрайон","TYPE_2":"Raion","ENGTYPE_2":"District","CC_2":"R53091","HASC_2":"RU.AL.EL","name":"El'tsovskiyrayon.county"},
"geometry":{"type": "MultiPolygon","coordinates": [[[[86.917,53.069,396.3893],[86.8429,53.0945,252.8367],[86.6982,53.1614,335.0993],[86.6279,53.2249,301.9771],[86.6501,53.2562,233.9647],[86.7211,53.2729,245.9728],[86.8018,53.2889,297.5275],[86.8471,53.3127,321.0096],[86.8768,53.3457,348.0889],[86.9029,53.3893,410.4703],[86.9155,53.4359,375.2818],[86.9041,53.4696,460.5735],[86.8635,53.464,342.8397],[86.7642,53.4689,290.9887],[86.7042,53.4877,331.2383],[86.6215,53.4853,432.3949],[86.6484,53.4488,335.6003],[86.6009,53.4173,422.4542],[86.5229,53.4016,426.7585],[86.487799999999993,53.4029,407.7555],[86.4807,53.4371,357.4359],[86.4202,53.4704,320.8874],[86.372,53.4461,350.4263],[86.3461,53.4301,293.4674],[86.3117,53.3844,260.4782],[86.25,53.3676,314.8405],[86.2519,53.3401,276.588],[86.2826,53.3245,356.7162],[86.2865,53.3,291.8799],[86.1846,53.2903,319.6726],[86.0823,53.2776,301.3492],[85.9474,53.2552,200.0173],[85.8597,53.246,207.5447],[85.8058,53.2429,196.6095],[85.8481,53.2002,223.1025],[85.8993,53.1067,369.4225],[85.9289,53.0938,326.6642],[86.0142,53.0962,297.0484],[86.1305,53.1209,287.5188],[86.2062,53.1016,199.9362],[86.3113,53.1183,330.7673],[86.3366,53.1131,357.8759],[86.3621,53.0672,361.36],[86.3785,53.0249,316.711],[86.3991,52.9572,389.5941],[86.4612,52.9934,287.41],[86.5233,53.0212,320.4872],[86.5771,53.0278,301.9922],[86.6371,53.0257,261.8422],[86.7032,53.0327,310.8853],[86.7826,53.0514,280.8553],[86.917,53.069,396.3893]]]]}}