{"type":"Feature","properties":{"GID_2":"RUS.30.6_1","GID_0":"RUS","country":"Russia","GID_1":"RUS.30_1","province":"Khanty-Mansiy","NL_NAME_1":"Ханты-МансийскийАОк","county":"Kogalym","VARNAME_2":"OzeroKogolymlor","NL_NAME_2":"Когалым","TYPE_2":"Gorsovet","ENGTYPE_2":"District","CC_2":"NA","HASC_2":"RU.KM.KO","name":"Kogalym.county"},
"geometry":{"type": "MultiPolygon","coordinates": [[[[73.9851,62.4782,77.0],[73.9975,62.4812,77.0],[73.9958,62.4871,77.0],[73.9884,62.4919,77.0],[73.9656,62.4892,77.0],[73.9613,62.4846,77.0],[73.9652,62.4799,77.0],[73.9739,62.4776,77.0],[73.9851,62.4782,77.0]]]]}}