{"type":"Feature","properties":{"GID_2":"RUS.71.7_1","GID_0":"RUS","country":"Russia","GID_1":"RUS.71_1","province":"Tuva","NL_NAME_1":"РеспубликаТыва","county":"Kaa-Khemskiyrayon","VARNAME_2":"NA","NL_NAME_2":"Каа-Хемскийрайон","TYPE_2":"Raion","ENGTYPE_2":"District","CC_2":"R61000","HASC_2":"RU.TU.KA","name":"Kaa-Khemskiyrayon.county"},
"geometry":{"type": "MultiPolygon","coordinates": [[[[98.9891,52.1236,2352.4478],[98.9801,52.1536,2356.5237],[98.9897,52.1861,1951.4617],[98.9712,52.2165,1890.2657],[98.9356,52.2284,2164.5811],[98.8959,52.2042,2896.541],[98.8331,52.2076,2435.5381],[98.8001,52.2277,2135.7646],[98.8243,52.2565,2572.0793],[98.8177,52.2934,2105.1704],[98.7471,52.2958,2453.7036],[98.6479,52.2785,2484.9658],[98.6289,52.3126,1944.6259],[98.5253,52.2468,1906.6262],[98.4785,52.2563,1876.4272],[98.4221,52.2425,2117.9614],[98.4209,52.2036,1868.8042],[98.3413,52.1875,1768.4315],[98.2986,52.2108,2189.6113],[98.2437,52.2302,1942.7549],[98.1851,52.2172,1639.0874],[98.1635,52.1687,1768.9763],[98.1665,52.1197,2175.543],[98.1583,52.0491,1969.1309],[98.1183,51.9964,1755.2102],[98.0516,51.9655,2023.9266],[97.9597,51.9619,1768.2919],[97.8633,51.9655,1744.4424],[97.789,51.9491,2014.0375],[97.72,51.8641,1957.9055],[97.6473,51.8439,1838.4514],[97.6557,51.7809,1773.377],[97.6868,51.7332,1661.7229],[97.626,51.6937,1949.9314],[97.5515,51.6399,2238.5625],[97.503,51.6397,1854.636],[97.4514,51.6589,2175.7107],[97.4167,51.7241,1824.959],[97.3173,51.7272,1839.1804],[97.1865,51.7238,1982.1088],[97.158,51.6924,2069.4607],[97.0914,51.6599,2108.9448],[97.0511,51.6727,1920.2876],[97.0359,51.6984,2083.8589],[97.0323,51.7642,1478.894],[96.9825,51.7786,1820.3434],[96.9312,51.7725,1757.2471],[96.8182,51.7478,1662.2811],[96.635,51.7254,1988.219],[96.5242,51.7255,1750.7253],[96.4998,51.7526,1718.2594],[96.4487,51.8001,1701.126],[96.3463,51.8318,1679.5917],[96.1514,51.8814,1935.2566],[96.0372,51.9272,1921.1375],[95.9525,51.974,2005.3838],[95.9274,52.0526,1745.146],[95.8707,52.03,1897.6473],[95.6728,52.0156,2055.6089],[95.5742,51.9828,1711.3792],[95.4239,51.993899999999996,2292.9065],[95.3634,51.9811,2221.5906],[95.2934,51.9261,1388.8898],[95.2207,51.895,1458.9181],[95.0943,51.8706,1547.4553],[95.005,51.8756,1163.6813],[94.8851,51.8374,1691.09],[94.7759,51.8079,1512.4119],[94.6581,51.7703,1147.8743],[94.6681,51.6864,638.3861],[94.7084,51.6579,847.898],[94.7315,51.6182,907.2604],[94.7408,51.5686,941.4106],[94.7625,51.5306,923.9474],[94.8177,51.5046,725.6872],[94.8447,51.4464,760.2438],[94.9081,51.4141,816.3345],[95.0128,51.4062,1081.8571],[95.0695,51.3455,1039.9131],[95.0942,51.2815,1064.9099],[95.0399,51.2388,954.2898],[95.1386,51.1781,1081.425],[95.207,51.1085,977.4105],[95.2818,51.0455,903.1992],[95.3534,50.9551,1179.5133],[95.3814,50.8917,1140.1537],[95.3922,50.8585,1223.6467],[95.3922,50.8294,1159.1516],[95.429,50.7963,1493.4868],[95.4605,50.7639,1510.8279],[95.5024,50.746,1431.6046],[95.5156,50.7268,1312.9519],[95.4903,50.6948,1501.2019],[95.5053,50.6738,1743.4087],[95.6415,50.6371,1928.2722],[95.8592,50.6006,2229.0957],[96.0496,50.5776,2444.3],[96.1503,50.5878,2124.5962],[96.1966,50.6167,2035.6931],[96.1932,50.6552,2150.8799],[96.2399,50.6643,2228.5425],[96.2703,50.6428,2490.4294],[96.3927,50.63,2411.4949],[96.4466,50.5771,2478.8442],[96.4392,50.5203,2776.0723],[96.5313,50.5741,2701.2581],[96.6138,50.7095,1965.8701],[96.7993,50.8072,1780.6963],[96.8302,50.8823,1703.1177],[96.8941,50.9405,1626.6226],[96.9508,51.0228,1092.4692],[97.0432,51.0215,1492.1757],[97.0746,51.0487,1470.215],[97.2028,51.0408,1805.3167],[97.2959,51.0562,1569.6693],[97.3188,51.1056,1807.2408],[97.4586,51.1174,1583.2428],[97.5269,51.1442,1609.5137],[97.5788,51.1791,2108.8662],[97.6424,51.1871,2065.78],[97.6857,51.2142,1821.5273],[97.7229,51.1785,2202.9565],[97.7934,51.1631,2188.8254],[97.8764,51.1853,1318.4066],[97.8974,51.2026,1274.0255],[97.9027,51.2402,1387.2208],[97.8998,51.3029,1479.6835],[97.8736,51.3613,1605.2609],[97.9588,51.4321,1782.019],[98.0293,51.425,1141.6626],[98.046,51.4329,1223.8512],[98.0482,51.4379,1240.3999],[98.0791,51.4519,1572.6658],[98.1001,51.4584,1532.2815],[98.1205,51.4595,1649.3285],[98.1925,51.4524,1604.2151],[98.2149,51.4542,1325.5374],[98.2259,51.4573,1318.9607],[98.2343,51.4623,1463.2687],[98.241,51.4752,1848.4609],[98.2443,51.4936,2054.0295],[98.2495,51.5053,2196.7461],[98.2603,51.5147,2059.1843],[98.2629,51.5208,2293.4495],[98.2584,51.5348,2477.5122],[98.2448,51.5518,2166.042],[98.2405,51.5666,2310.8521],[98.2432,51.5721,2304.2139],[98.2671,51.6005,2520.3999],[98.2765,51.6183,2521.4192],[98.2728,51.623,2664.8672],[98.2801,51.6281,2522.677],[98.295,51.6481,2239.5247],[98.2992,51.6572,2184.4907],[98.3028,51.6985,2136.541],[98.3085,51.7111,2207.1128],[98.3153,51.7179,2208.6421],[98.3457,51.7359,2075.249],[98.3677,51.7451,2096.6392],[98.4104,51.7542,1792.6716],[98.4951,51.7657,2074.3767],[98.5193,51.7793,1762.1367],[98.5479,51.7887,1717.9633],[98.6213,51.7961,1830.282],[98.6531,51.8051,1781.1006],[98.6599,51.8057,1835.6877],[98.6963,51.8204,1834.9762],[98.7107,51.8297,2029.7594],[98.7295,51.8497,1891.4564],[98.7431,51.8743,2001.8668],[98.7591,51.8965,2090.2122],[98.7667,51.9139,1980.6907],[98.7983,51.9629,2260.9316],[98.8189,52.0135,2557.4636],[98.8261,52.0214,2252.2251],[98.8527,52.0411,2339.1238],[98.8569,52.049,2453.8223],[98.8614,52.0633,2384.3267],[98.8667,52.1153,2302.9429],[98.8715,52.1292,2388.0986],[98.8803,52.1401,2338.8408],[98.8936,52.1495,2131.8345],[98.9205,52.1543,2589.96],[98.9416,52.1519,2086.7834],[98.9537,52.1479,2260.696],[98.9679,52.1395,2785.3936],[98.9891,52.1236,2352.4478]]]]}}