{"type":"Feature","properties":{"GID_3":"RUS.2.51.1_1","GID_0":"RUS","country":"Russia","GID_1":"RUS.2_1","province":"Altay","NL_NAME_1":"Алтайскийкрай","GID_2":"RUS.2.51_1","county":"Tabunskiyrayon","NL_NAME_2":"Табунскийрайон","city":"NA","VARNAME_3":"NA","NL_NAME_3":"NA","TYPE_3":"NA","ENGTYPE_3":"NA","CC_3":"NA","HASC_3":"NA","name":"N_A.city"},
"geometry":{"type": "MultiPolygon","coordinates": [[[[78.6349,52.5232,138.7127],[78.7138,52.5481,139.4501],[78.7084,52.5662,137.6736],[78.7158,52.5839,135.9723],[78.7352,52.6002,135.2188],[78.8235,52.6205,132.1201],[78.871,52.629,133.2103],[78.9719,52.6526,130.6113],[78.9875,52.6757,127.8857],[78.9956,52.7184,125.3017],[79.008,52.7332,125.491],[79.0491,52.7565,123.1853],[79.0811,52.7675,122.0166],[79.1198,52.7664,123.1248],[79.1546,52.7493,123.4169],[79.1759,52.7248,124.4331],[79.2029,52.7043,127.3962],[79.2516,52.7108,119.7281],[79.3251,52.724,118.9321],[79.3879,52.757,113.9668],[79.4145,52.784,105.491],[79.455,52.8145,104.7716],[79.5022,52.8416,106.6678],[79.5359,52.8527,98.0],[79.4874,52.8778,98.0],[79.4401,52.9098,98.0],[79.3807,52.9633,98.0],[79.368,52.978,98.3575],[79.3601,53.0041,112.0354],[79.2994,52.9868,120.8004],[79.2183,52.9894,121.9771],[79.22,53.0241,115.3096],[79.1929,53.0532,113.1531],[79.129,53.0647,99.0],[79.0674,53.0548,109.7415],[78.8702,52.9699,115.836],[78.7978,52.9424,125.6673],[78.7737,52.9596,126.2545],[78.747,52.9362,127.0925],[78.7731,52.8783,129.5074],[78.7665,52.8617,128.4856],[78.7196,52.8487,109.4011],[78.6978,52.8252,105.7462],[78.6625,52.8058,114.5764],[78.5469,52.7963,133.1776],[78.5155,52.7872,131.0536],[78.5013,52.7757,135.4528],[78.4561,52.7935,135.6311],[78.4097,52.8053,134.7861],[78.3851,52.8094,133.1626],[78.4338,52.7567,135.0202],[78.4373,52.7487,133.8858],[78.4446,52.7532,135.2094],[78.534,52.6457,130.6078],[78.5577,52.6196,132.0132],[78.5496,52.6162,131.3947],[78.6349,52.5232,138.7127]]]]}}