{"type":"Feature","properties":{"GID_2":"RUS.2.43_1","GID_0":"RUS","country":"Russia","GID_1":"RUS.2_1","province":"Altay","NL_NAME_1":"Алтайскийкрай","county":"Shipunovskiyrayon","VARNAME_2":"NA","NL_NAME_2":"Шипуновскийрайон","TYPE_2":"Raion","ENGTYPE_2":"District","CC_2":"R53095","HASC_2":"RU.AL.SP","name":"Shipunovskiyrayon.county"},
"geometry":{"type": "MultiPolygon","coordinates": [[[[82.0347,52.6243,231.1123],[81.8747,52.5499,237.5997],[81.5998,52.3852,219.7438],[81.6734,52.3017,272.1906],[81.7397,52.3055,276.1863],[81.8039,52.2447,248.1113],[81.8291,52.2142,243.1796],[81.9502,52.1131,238.8019],[81.9461,52.0955,232.5675],[81.9388,52.0848,233.5814],[81.9551,52.0498,202.6845],[82.0023,52.0211,176.9232],[82.0682,51.9615,207.5808],[82.0883,51.9281,197.5883],[82.1321,51.9393,202.5072],[82.1828,51.962,194.8802],[82.2178,51.9358,227.0753],[82.2023,51.9031,221.0739],[82.2904,51.9075,193.9809],[82.3191,51.8915,190.805],[82.3871,51.9133,184.1928],[82.421,51.8991,186.6521],[82.4114,51.8598,190.6276],[82.4186,51.8205,196.2251],[82.4158,51.7965,201.9809],[82.4564,51.7438,206.3962],[82.5006,51.7304,247.3416],[82.5152,51.7385,247.0125],[82.5349,51.7587,273.0533],[82.5456,51.7822,323.5167],[82.588,51.793,353.3784],[82.6361,51.8009,332.8148],[82.7064,51.8209,259.0354],[82.7776,51.8457,359.4354],[82.8094,51.8669,367.2526],[82.7872,51.8962,285.4582],[82.7707,51.9471,245.1892],[82.814,51.9871,223.9845],[82.8764,52.0122,193.8394],[82.9389,52.0091,205.7015],[82.9919,52.0138,185.5344],[83.0213,52.0307,172.5605],[83.0308,52.051,157.2883],[83.0203,52.0822,185.1304],[82.9964,52.0981,196.6375],[82.9626,52.1124,193.4023],[82.9219,52.1388,177.4955],[82.8537,52.1748,167.6662],[82.8167,52.2065,192.7935],[82.8046,52.227,220.6294],[82.7306,52.2273,235.1072],[82.6254,52.2009,232.0805],[82.5477,52.1958,265.1252],[82.5219,52.2188,232.0104],[82.4394,52.272,166.6931],[82.3798,52.3149,212.6154],[82.3137,52.3586,221.3596],[82.2603,52.4043,238.7961],[82.2243,52.4388,255.0593],[82.1696,52.4297,230.7291],[82.1286,52.438,272.583],[82.1045,52.4669,278.8277],[82.0813,52.5035,273.236],[82.0987,52.56,244.3593],[82.0826,52.5847,230.545],[82.0347,52.6243,231.1123]]]]}}