{"type":"Feature","properties":{"GID_2":"RUS.9.13_1","GID_0":"RUS","country":"Russia","GID_1":"RUS.9_1","province":"Buryat","NL_NAME_1":"РеспубликаБурятия","county":"Muyskiy","VARNAME_2":"NA","NL_NAME_2":"Муйскийрайон","TYPE_2":"Raion","ENGTYPE_2":"District","CC_2":"R60001","HASC_2":"RU.BU.MY","name":"Muyskiy.county"},
"geometry":{"type": "MultiPolygon","coordinates": [[[[115.8546,55.7824,714.0546],[115.8476,55.8356,652.3878],[115.8833,55.9055,587.7169],[115.8416,55.9522,830.317],[115.7992,56.0103,887.0383],[115.7995,56.0503,1065.8214],[115.8129,56.0803,1068.8732],[115.8639,56.1275,892.1626],[115.8571,56.162,1236.1281],[115.8356,56.1985,981.7019],[115.7923,56.2426,483.7227],[115.7139,56.3505,476.0068],[115.7145,56.4125,471.3016],[115.7536,56.4236,475.4011],[115.7993,56.4255,463.5],[115.7869,56.4598,470.0533],[115.7372,56.4785,501.6737],[115.7099,56.5101,542.7703],[115.715,56.5411,469.2169],[115.6902,56.5677,461.5598],[115.5242,56.5998,493.8718],[115.462,56.6349,1105.458],[115.4685,56.6583,992.2353],[115.525,56.6657,647.4092],[115.5643,56.6849,831.0426],[115.5961,56.6964,995.1086],[115.6255,56.7263,1277.9895],[115.6234,56.7735,693.6987],[115.5938,56.8235,452.3629],[115.596,56.869,474.7821],[115.6543,56.8976,825.672],[115.7271,56.9213,1124.8356],[115.7539,56.9502,895.0875],[115.7581,56.9508,923.161],[115.7648,56.9604,566.4534],[115.8174,56.9706,1312.5566],[115.8405,56.9796,1228.7339],[115.8657,57.0053,522.2032],[115.9181,57.0314,440.9282],[115.9367,57.038,588.2592],[115.9811,57.0447,404.1138],[116.0756,57.0993,924.4146],[116.1222,57.1201,888.9406],[116.1706,57.1201,443.1603],[116.242,57.1451,607.6035],[116.1551,57.2155,1855.4985],[116.1045,57.2372,1417.2614],[116.0404,57.2242,1395.8174],[116.0175,57.2319,1495.5662],[115.909,57.236,1519.9812],[115.8094,57.2286,1304.6906],[115.7149,57.167,1422.2319],[115.6824,57.1482,1614.0732],[115.6272,57.1228,1446.9402],[115.5503,57.1306,1265.4276],[115.4788,57.1285,1231.288],[115.3973,57.1114,1534.217],[115.3193,57.1111,1247.7749],[115.1694,57.132,1362.286],[115.0759,57.1175,1661.0831],[115.0843,57.0915,1194.8016],[115.0591,57.0398,1182.0459],[115.075,57.0127,1052.7188],[115.0476,56.978,1349.7805],[114.986,56.9551,1240.3519],[114.9257,56.8948,1593.0634],[114.8766,56.8494,1423.7828],[114.8428,56.7945,1683.2716],[114.8208,56.7432,2092.2529],[114.7655,56.7168,1530.2249],[114.6906,56.7225,1658.6206],[114.6478,56.7155,1107.9973],[114.5988,56.7141,1366.4283],[114.5441,56.7152,1183.9479],[114.5008,56.6796,1486.5879],[114.4558,56.6758,1301.6875],[114.3779,56.6871,1362.0641],[114.2453,56.6993,1354.1409],[114.1571,56.7015,2054.0742],[114.0645,56.6373,1807.3292],[114.0172,56.6216,1420.064],[113.999,56.5969,1629.0314],[113.9799,56.5574,1977.1871],[113.9243,56.55,1828.7283],[113.8605,56.5528,1618.3435],[113.806,56.5629,1861.0363],[113.7677,56.6201,1891.6611],[113.7337,56.6296,1916.8787],[113.7016,56.6016,1635.693],[113.6374,56.5818,1107.0511],[113.4598,56.4733,1270.6606],[113.3512,56.4486,1355.4625],[113.2427,56.3696,1544.7794],[113.1539,56.3696,681.5901],[113.0897,56.3104,1150.5691],[112.8035,56.2808,953.6891],[112.7887,56.2315,696.2977],[112.6604,56.2167,573.2999],[112.6407,56.1476,1452.0435],[112.7048,56.0933,1163.3699],[112.6209,55.9502,1313.092],[112.6308,55.9157,1792.9541],[112.7542,55.9058,1900.4823],[112.9121,55.8515,2100.4836],[113.0897,55.7183,788.5187],[113.1041,55.6376,1150.546],[113.297,55.6443,1402.1283],[113.598,55.6393,1433.5878],[113.8102,55.6443,1509.2355],[114.126,55.585,1386.9912],[114.4023,55.7874,2242.9263],[114.7971,55.817,1697.162],[115.4681,55.7824,1018.1921],[115.8546,55.7824,714.0546]]]]}}