{"type":"Feature","properties":{"GID_3":"RUS.60.10.1_1","GID_0":"RUS","country":"Russia","GID_1":"RUS.60_1","province":"Sakha","NL_NAME_1":"РеспубликаСаха","GID_2":"RUS.60.10_1","county":"Khangalasskiy(Ordzhonikidzkiy)","NL_NAME_2":"Хангаласскийрайон","city":"NA","VARNAME_3":"NA","NL_NAME_3":"NA","TYPE_3":"NA","ENGTYPE_3":"NA","CC_3":"NA","HASC_3":"NA","name":"N_A.city"},
"geometry":{"type": "MultiPolygon","coordinates": [[[[128.961,60.9286,350.8004],[129.0461,60.9297,382.1331],[129.2117,60.9128,417.2543],[129.6425,60.8448,337.1651],[129.7923,60.8108,263.9615],[129.8453,60.7878,319.181],[129.8421,60.746,380.4745],[129.8551,60.7203,383.1108],[129.9572,60.7226,363.1863],[130.0193,60.7449,406.0801],[130.1394,60.729,321.5594],[130.1951,60.7369,345.8367],[130.2613,60.7682,395.594],[130.2942,60.8032,340.345],[130.3447,60.8351,311.079],[130.3582,60.8597,284.0933],[130.3563,60.9048,249.5758],[130.3491,60.98,265.307],[130.3242,61.0701,287.8023],[130.3609,61.1222,276.5677],[130.3447,61.2204,258.9867],[130.3411,61.2749,241.3748],[130.2612,61.346,180.795],[130.1279,61.3943,179.4037],[130.0237,61.4229,202.7568],[129.9465,61.4225,212.7115],[129.9143,61.4506,179.422],[129.8662,61.4822,202.5988],[129.7842,61.4966,174.8511],[129.6993,61.5057,192.7866],[129.6348,61.5537,140.3591],[129.5856,61.6062,138.4744],[129.5921,61.6543,89.0],[129.6712,61.7321,93.3971],[129.6545,61.7567,89.0],[129.5602,61.7923,167.79],[129.4897,61.8305,238.9691],[129.3542,61.8679,257.5763],[129.2462,61.8812,271.1139],[129.1492,61.897,277.9365],[129.0385,61.9057,269.7211],[128.9584,61.894,256.8566],[128.87,61.887,259.9676],[128.8122,61.91,247.475],[128.8228,61.9255,225.4414],[128.8836,61.9551,228.1979],[128.9313,61.9915,227.4007],[128.9327,62.0257,195.1491],[128.898,62.033,204.4756],[128.7683,62.0107,268.8882],[128.4782,61.983,268.0691],[128.3007,61.9703,286.9836],[128.1463,61.98,245.94],[128.0242,61.99,273.4985],[127.819,62.028,330.0385],[127.749,62.0107,301.5852],[127.6693,61.9681,282.4818],[127.6263,61.9162,283.8287],[127.624,61.8767,300.4732],[127.7013,61.8536,290.9217],[127.7288,61.8247,292.7734],[127.6902,61.7925,304.9687],[127.6091,61.7872,311.176],[127.5545,61.7621,295.4842],[127.4989,61.7293,256.557],[127.3986,61.6977,281.3293],[127.2757,61.719,294.2324],[127.0926,61.6677,307.6056],[127.0367,61.6185,314.7756],[127.0772,61.5816,310.5212],[127.1029,61.5552,346.0153],[127.0726,61.5301,302.1404],[127.014,61.5116,293.9306],[126.9211,61.5066,289.7173],[126.8057,61.5213,216.9877],[126.697,61.5094,231.5544],[126.5495,61.5012,193.8184],[126.4454,61.5018,157.3055],[126.3773,61.5225,178.8872],[126.1669,61.4989,314.8587],[126.0839,61.5068,293.4827],[126.0723,61.5331,234.2786],[126.0692,61.5587,227.2998],[125.9838,61.5766,249.0127],[125.9057,61.5739,301.3626],[125.8549,61.5526,337.9352],[125.8266,61.5137,323.1111],[125.8101,61.4869,315.6826],[125.7906,61.4656,303.1554],[125.7052,61.4574,344.2079],[125.679,61.4238,339.9847],[125.6628,61.3894,362.8519],[125.6287,61.3698,347.7664],[125.5558,61.3775,369.9089],[125.4979,61.3806,384.8359],[125.456,61.3623,369.6032],[125.4254,61.3267,373.4026],[125.404,61.3105,355.4482],[125.3152,61.3134,411.7195],[125.2822,61.2878,390.1007],[125.3508,61.2551,372.255],[125.322,61.2326,380.4836],[125.218,61.2133,382.4297],[125.1296,61.2112,394.9609],[125.0122,61.2488,359.4727],[124.938,61.2565,366.3435],[124.9034,61.2293,386.6983],[124.8835,61.2012,355.1838],[124.8367,61.1829,384.7279],[124.7395,61.1898,383.8736],[124.7194,61.2145,405.261],[124.6336,61.2174,411.5342],[124.55,61.218,403.9243],[124.5075,61.1844,427.6013],[124.5317,61.1524,404.8299],[124.5919,61.1015,417.2981],[124.7224,61.0379,436.8013],[124.7153,60.9817,455.8014],[124.7768,60.9486,405.9338],[124.9526,60.9292,381.5903],[125.0037,60.9036,333.0675],[125.0328,60.8705,338.1555],[125.0115,60.8283,330.0719],[124.9467,60.7491,262.321],[125.0699,60.694,381.6931],[125.1603,60.6801,206.8392],[125.2405,60.6615,370.8058],[125.3558,60.5623,468.1109],[125.4439,60.5419,544.5095],[125.5652,60.5672,537.6876],[125.6399,60.5915,519.5209],[125.6431,60.6409,517.3087],[125.6345,60.6877,471.0056],[125.6333,60.7465,461.9671],[125.6921,60.7922,440.6565],[125.7583,60.8152,352.4495],[125.8226,60.8242,387.8379],[125.9142,60.8318,468.9316],[125.9708,60.8575,441.5149],[126.0469,60.8959,442.4046],[126.1231,60.9429,406.5854],[126.185,60.958,447.2925],[126.2297,60.9456,353.6007],[126.2465,60.9163,398.1043],[126.2848,60.9109,351.1532],[126.3481,60.9121,382.2454],[126.4122,60.9498,434.8033],[126.5036,60.9706,378.0333],[126.7549,60.9986,400.7624],[126.9886,61.0355,294.8203],[127.0738,61.0359,298.0844],[127.0977,61.0127,246.2983],[127.1697,61.0128,256.4015],[127.3978,61.0289,284.8226],[127.5834,61.0445,373.2287],[127.8027,61.0432,322.7146],[127.9199,61.0228,148.7198],[128.0002,60.9963,289.9102],[128.0929,60.9817,311.6581],[128.2091,61.0022,296.6837],[128.3625,60.9785,350.0064],[128.5914,60.9501,328.3803],[128.7818,60.9442,376.6972],[128.961,60.9286,350.8004]]]]}}