{"type":"Feature","properties":{"GID_3":"RUS.9.16.1_1","GID_0":"RUS","country":"Russia","GID_1":"RUS.9_1","province":"Buryat","NL_NAME_1":"РеспубликаБурятия","GID_2":"RUS.9.16_1","county":"Selenginskiyrayon","NL_NAME_2":"Селенгинскийрайон","city":"NA","VARNAME_3":"NA","NL_NAME_3":"NA","TYPE_3":"NA","ENGTYPE_3":"NA","CC_3":"NA","HASC_3":"NA","name":"N_A.city"},
"geometry":{"type": "MultiPolygon","coordinates": [[[[106.9481,50.8723,683.6099],[106.9457,50.9147,750.5485],[106.972,50.9339,657.4442],[107.0453,50.9613,580.1497],[107.0438,50.9987,572.4857],[107.0656,51.0144,548.4739],[107.055,51.0688,543.6682],[107.0268,51.0889,541.1364],[106.9828,51.1044,596.6038],[106.9589,51.1328,715.7811],[106.9103,51.1553,831.1043],[106.8492,51.1634,876.4824],[106.8279,51.2011,650.5084],[106.846,51.2294,573.4692],[106.8916,51.252,636.4103],[106.9392,51.2831,583.3909],[106.9541,51.3258,703.1309],[106.9134,51.342,800.6594],[106.8079,51.3083,846.8385],[106.7536,51.3262,819.2977],[106.7601,51.3724,872.8458],[106.8376,51.4014,996.0581],[106.8728,51.4275,1053.384],[106.8749,51.4739,725.7858],[106.8249,51.4981,562.8137],[106.7753,51.5148,594.9803],[106.7172,51.5054,670.3031],[106.641,51.4876,751.9239],[106.5734,51.5054,1157.4207],[106.5431,51.5263,1050.0128],[106.4937,51.5304,1248.7264],[106.4097,51.5216,1045.0061],[106.2935,51.5308,1036.2307],[106.2402,51.5209,1268.8138],[106.1871,51.5194,1204.261],[106.1501,51.4904,1171.9937],[106.1302,51.4205,1119.4941],[106.1214,51.4011,1046.009],[106.101,51.3853,1041.2748],[106.0628,51.3933,1329.1307],[106.0321,51.4199,1202.1846],[105.988,51.4472,1219.8856],[105.9409,51.4585,1196.1433],[105.8781,51.4499,1279.9287],[105.8185,51.4269,1158.4003],[105.7855,51.3909,1137.8569],[105.7485,51.3589,1208.7747],[105.6841,51.3418,1505.155],[105.6323,51.3352,1560.1046],[105.591,51.3044,1395.6813],[105.5492,51.2783,1130.7732],[105.4947,51.2557,1148.5723],[105.2845,51.254,1621.6705],[105.2206,51.2461,1749.9563],[105.2483,51.2066,1329.3177],[105.2572,51.1652,966.3505],[105.3007,51.1124,1579.7803],[105.3433,51.0739,1273.1488],[105.3504,51.0334,1608.6604],[105.3375,50.9845,1329.3079],[105.3226,50.9596,1059.6721],[105.3458,50.9192,1011.3091],[105.4049,50.9082,1212.7878],[105.4292,50.8973,1285.2708],[105.4419,50.8736,1283.8395],[105.497,50.8666,1045.687],[105.6309,50.832,1073.2957],[105.6633,50.7985,966.0417],[105.702,50.7704,959.6385],[105.7519,50.7722,999.8463],[105.7731,50.7881,847.9713],[105.7559,50.8074,799.9404],[105.7394,50.8352,847.1418],[105.7589,50.8551,905.5529],[105.8174,50.8132,745.2369],[105.8615,50.7722,707.7838],[105.8963,50.726,820.1388],[105.8973,50.6875,838.4402],[105.9065,50.6466,780.2023],[105.9181,50.6219,612.6913],[105.9717,50.6301,593.0447],[105.996,50.6583,848.7501],[106.0065,50.7047,844.0789],[106.0251,50.74,946.7567],[106.0632,50.7501,854.9191],[106.0822,50.7364,707.4328],[106.1073,50.7108,636.8621],[106.1584,50.7057,577.847],[106.2022,50.6942,573.1627],[106.2305,50.6462,572.0887],[106.2037,50.6067,574.4128],[106.2481,50.5884,731.1957],[106.3441,50.6119,831.2579],[106.4137,50.6544,1016.5161],[106.4645,50.7173,775.1014],[106.5185,50.7781,768.2944],[106.5728,50.809,815.778],[106.6718,50.8118,564.4664],[106.7167,50.803,554.1582],[106.7903,50.8085,598.8361],[106.8871,50.8085,751.0183],[106.9102,50.8395,740.1608],[106.9481,50.8723,683.6099]],
[[106.5902,51.2831,727.1222],[106.5741,51.2761,773.4565],[106.5598,51.2806,704.4006],[106.552,51.2977,614.0513],[106.5773,51.3041,638.6046],[106.5916,51.2917,736.2988],[106.5902,51.2831,727.1222]]]]}}