{"type":"Feature","properties":{"GID_3":"RUS.35.3.1_1","GID_0":"RUS","country":"Russia","GID_1":"RUS.35_1","province":"Krasnoyarsk","NL_NAME_1":"Красноярскийкрай","GID_2":"RUS.35.3_1","county":"Balakhtinskiyrayon","NL_NAME_2":"Балахтинскийрайон","city":"NA","VARNAME_3":"NA","NL_NAME_3":"NA","TYPE_3":"NA","ENGTYPE_3":"NA","CC_3":"NA","HASC_3":"NA","name":"N_A.city"},
"geometry":{"type": "MultiPolygon","coordinates": [[[[91.0685,55.6145,311.4023],[91.0284,55.6123,309.2275],[90.9532,55.587,375.226],[90.8754,55.5542,364.5054],[90.8347,55.5234,398.2649],[90.7853,55.512,409.931],[90.7151,55.4751,455.397],[90.6496,55.4285,423.2336],[90.7047,55.4111,418.9832],[90.69,55.3411,369.4601],[90.6679,55.3036,417.2191],[90.6733,55.2509,441.3303],[90.6993,55.1898,363.3695],[90.7061,55.1492,328.1534],[90.7289,55.0879,386.1047],[90.7857,55.067,411.2719],[90.8364,55.0446,460.3998],[90.9342,55.0453,480.8228],[90.9836,55.0786,404.808],[91.0159,55.1087,366.4521],[91.0307,55.1401,315.0875],[91.1617,55.1689,322.1724],[91.2403,55.144,470.5436],[91.2647,55.1157,447.0497],[91.4703,55.1637,444.066],[91.53,55.1363,232.0],[91.5348,55.0955,232.0],[91.5697,55.0818,232.0],[91.5857,55.0272,360.7888],[91.6054,54.993,294.4908],[91.5246,54.9631,354.3795],[91.5897,54.9014,508.324],[91.6507,54.8951,295.1594],[91.7032,54.8807,659.0192],[91.7327,54.8354,473.5847],[91.7934,54.8355,451.9217],[91.915,54.86,696.7065],[92.0069,54.8467,646.0312],[92.074,54.846,538.639],[92.1764,54.8571,467.4764],[92.1691,54.883,394.991],[92.1322,54.9205,484.3795],[92.1519,54.9412,350.7553],[92.2134,54.9738,559.2932],[92.2235,54.9928,456.2493],[92.2737,55.01,703.166],[92.4191,54.9426,582.786],[92.5041,54.932,677.2603],[92.614,54.9413,719.6849],[92.6891,54.961,670.9746],[92.759,54.9556,677.1078],[92.7996,54.9683,556.7035],[92.8545,54.9555,925.429],[92.9352,54.9425,636.564],[93.0017,54.9048,804.7961],[93.0725,54.8765,769.0555],[93.1602,54.883,902.649],[93.1157,54.9868,725.2809],[93.08,55.0566,841.0201],[93.0251,55.1398,738.6564],[93.0205,55.1879,602.0458],[93.0257,55.2411,434.1442],[92.9855,55.2349,532.5623],[92.9507,55.2473,518.0405],[92.9232,55.2884,618.4475],[92.8778,55.3155,661.2711],[92.7986,55.3496,691.4364],[92.7606,55.338,545.9739],[92.7028,55.3369,554.6759],[92.6366,55.3718,385.4517],[92.6255,55.4021,467.3628],[92.6382,55.4249,520.2914],[92.6412,55.4707,546.8239],[92.6366,55.5161,528.0246],[92.6271,55.5766,508.1712],[92.6352,55.6319,675.5251],[92.5406,55.7115,495.9405],[92.5387,55.7433,543.4591],[92.4712,55.7671,565.4586],[92.3915,55.7535,232.0],[92.3047,55.7338,463.4142],[92.2376,55.7063,604.3896],[92.0078,55.7166,574.9629],[91.9769,55.7016,617.2155],[91.9358,55.695,708.5023],[91.8435,55.701,663.3768],[91.7861,55.695,667.3825],[91.6959,55.6774,732.9211],[91.6127,55.6913,715.9019],[91.5516,55.6565,390.9045],[91.4679,55.6502,443.1958],[91.3811,55.6271,330.4507],[91.305,55.591,288.2774],[91.1797,55.5867,284.5025],[91.1216,55.6114,393.2817],[91.0685,55.6145,311.4023]]]]}}