{"type":"Feature","properties":{"GID_3":"RUS.12.7.1_1","GID_0":"RUS","country":"Russia","GID_1":"RUS.12_1","province":"Chukot","NL_NAME_1":"ЧукотскийАОк","GID_2":"RUS.12.7_1","county":"Providenskiyrayon","NL_NAME_2":"Провиденскийрайон","city":"NA","VARNAME_3":"NA","NL_NAME_3":"NA","TYPE_3":"NA","ENGTYPE_3":"NA","CC_3":"NA","HASC_3":"NA","name":"N_A.city"},
"geometry":{"type": "MultiPolygon","coordinates": [[[[-173.1943,64.2568,0.0],[-173.1943,64.2578,0.0],[-173.1974,64.2578,0.0],[-173.1974,64.2568,0.0],[-173.1943,64.2568,0.0]]],
[[[-172.9714,64.4453,0.0],[-172.975,64.4458,0.0],[-172.9766,64.4443,41.3571],[-172.9729,64.4437,78.9191],[-172.9714,64.4453,0.0]]],
[[[-172.9609,64.4464,0.0],[-172.9609,64.4474,0.0],[-172.9641,64.4474,0.0],[-172.9641,64.4464,0.0],[-172.9609,64.4464,0.0]]],
[[[-172.9318,64.4547,0.0],[-172.9318,64.4557,0.0],[-172.9349,64.4557,0.0],[-172.9349,64.4547,0.0],[-172.9318,64.4547,0.0]]],
[[[-173.3068,64.313,1.5],[-173.3068,64.3141,1.5],[-173.3099,64.3141,1.5],[-173.3099,64.313,1.5],[-173.3068,64.313,1.5]]],
[[[-174.7604,64.7688,-0.1973],[-174.7729,64.7729,28.6224],[-174.7828,64.7703,1.8409],[-174.7792,64.7667,20.605],[-174.7807,64.7609,0.0],[-174.7734,64.7599,8.7227],[-174.7672,64.7557,161.2075],[-174.7682,64.7505,0.0],[-174.7667,64.75,0.0],[-174.7479,64.7458,0.0],[-174.7401,64.7484,0.5],[-174.7391,64.7516,1.5278],[-174.7276,64.7547,-0.4015],[-174.7464,64.7662,60.6611],[-174.7604,64.7688,-0.1973]]],
[[[-174.8109,64.7714,3.9247],[-174.8109,64.7724,1.098],[-174.8141,64.7724,1.6983],[-174.8141,64.7714,4.5427],[-174.8109,64.7714,3.9247]]],
[[[-174.8338,64.7755,3.7395],[-174.8338,64.7766,2.8636],[-174.837,64.7766,2.9119],[-174.837,64.7755,5.1729],[-174.8338,64.7755,3.7395]]],
[[[-172.9417,64.4563,0.0],[-172.9401,64.4578,0.0],[-172.95,64.4604,0.0],[-172.9578,64.4599,0.0],[-172.9547,64.4578,0.0],[-172.9557,64.4547,0.0],[-172.9542,64.4542,0.0],[-172.9479,64.4542,0.0],[-172.9417,64.4563,0.0]]],
[[[-172.8917,64.4792,33.6687],[-172.8958,64.4792,16.6869],[-172.8974,64.4776,12.2792],[-172.888,64.4776,16.4598],[-172.8917,64.4792,33.6687]]],
[[[-172.9792,64.8229,0.0],[-172.9693,64.8234,0.0],[-172.9651,64.8297,0.0],[-172.9682,64.8318,0.0],[-172.9672,64.8349,0.0],[-172.9766,64.8349,0.0],[-172.9787,64.8328,0.0],[-172.9755,64.8307,0.0],[-172.9771,64.8292,0.0],[-172.9937,64.8292,0.0],[-172.9974,64.8266,0.0],[-172.9833,64.8208,0.0],[-172.9792,64.8229,0.0]]],
[[[-172.8562,64.8313,0.0],[-172.8604,64.8313,0.0],[-172.862,64.8297,0.0],[-172.8526,64.8297,0.0],[-172.8562,64.8313,0.0]]],
[[[-172.8167,64.8354,19.8836],[-172.8203,64.8339,5.1191],[-172.8109,64.8339,13.4835],[-172.8125,64.8354,13.3158],[-172.8167,64.8354,19.8836]]],
[[[-172.887,64.8391,0.0],[-172.8891,64.8349,0.0],[-172.8875,64.8333,0.0],[-172.8693,64.8339,0.0],[-172.8792,64.8396,0.0],[-172.887,64.8391,0.0]]],
[[[-172.8922,64.838,0.0],[-172.8922,64.8391,0.0],[-172.8953,64.8391,0.0],[-172.8953,64.838,0.0],[-172.8922,64.838,0.0]]],
[[[-172.2797,64.4193,2.0416],[-172.2797,64.4203,2.1739],[-172.2828,64.4203,2.3066],[-172.2828,64.4193,2.2478],[-172.2797,64.4193,2.0416]]],
[[[-172.363,64.4745,2.2681],[-172.3667,64.475,2.8666],[-172.3682,64.4734,1.6606],[-172.3646,64.4729,2.2929],[-172.363,64.4745,2.2681]]],
[[[-172.6667,64.6375,-0.5],[-172.6766,64.6401,5.9629],[-172.6797,64.6432,0.0],[-172.687,64.6464,95.0188],[-172.6859,64.6495,27.2253],[-172.6917,64.6521,102.7878],[-172.6995,64.6495,108.3235],[-172.7026,64.6464,108.0639],[-172.7078,64.6453,117.709],[-172.7088,64.6422,137.1147],[-172.7109,64.6401,160.4963],[-172.7161,64.6391,76.2038],[-172.7214,64.6318,74.7329],[-172.7266,64.6307,0.0],[-172.7234,64.6276,102.1692],[-172.7255,64.6255,75.6973],[-172.7307,64.6245,22.2531],[-172.7312,64.6229,28.3756],[-172.7287,64.6193,0.0],[-172.7229,64.6167,0.0],[-172.7187,64.6188,12.9031],[-172.6917,64.6188,0.0],[-172.6859,64.6203,-0.0175],[-172.6776,64.6162,5.0158],[-172.6807,64.6109,0.0],[-172.6776,64.6099,5.7535],[-172.6792,64.6062,0.0],[-172.6766,64.6005,8.1349],[-172.6708,64.5979,0.0],[-172.6625,64.5979,0.0],[-172.6583,64.5958,0.0],[-172.6542,64.5979,0.0],[-172.6479,64.5979,0.0],[-172.6438,64.5958,0.0],[-172.6,64.5958,42.8119],[-172.5958,64.5938,0.0],[-172.5813,64.5938,0.0],[-172.5771,64.5958,23.3389],[-172.5667,64.5958,0.0],[-172.5625,64.5979,0.0],[-172.5417,64.5979,4.2373],[-172.5333,64.5938,0.0],[-172.5208,64.5917,9.6263],[-172.5172,64.5943,0.0],[-172.5203,64.5974,3.9731],[-172.5125,64.5979,0.0],[-172.5036,64.5922,63.7872],[-172.4958,64.5917,56.3239],[-172.4859,64.5964,0.0],[-172.4891,64.5995,0.8839],[-172.475,64.6042,17.4905],[-172.4687,64.6021,0.0],[-172.4661,64.6057,0.0],[-172.4547,64.6068,0.0],[-172.4516,64.612,31.8087],[-172.4463,64.613,17.7103],[-172.4495,64.6151,39.1094],[-172.4463,64.6193,0.0],[-172.4495,64.6214,38.6646],[-172.4484,64.6245,0.0],[-172.4583,64.6292,89.5155],[-172.4641,64.6297,151.2883],[-172.463,64.6328,99.0284],[-172.4687,64.6354,83.8502],[-172.4745,64.6359,97.9055],[-172.4734,64.6391,48.9279],[-172.4875,64.6438,10.3341],[-172.4937,64.6417,72.3744],[-172.5063,64.6458,51.4319],[-172.5167,64.6458,1.6266],[-172.5333,64.6396,111.1799],[-172.5437,64.6396,37.4125],[-172.5479,64.6417,0.0],[-172.5505,64.638,64.9365],[-172.5708,64.6312,222.8447],[-172.5875,64.6312,103.6646],[-172.5917,64.6333,8.7266],[-172.6042,64.6333,12.3372],[-172.6151,64.6391,35.9492],[-172.625,64.6417,0.0],[-172.6354,64.6375,38.3482],[-172.6417,64.6396,0.0],[-172.6479,64.6354,23.991],[-172.6521,64.6354,15.5639],[-172.6562,64.6375,0.8807],[-172.6667,64.6375,-0.5]]],
[[[-172.5505,64.6859,0.2341],[-172.5505,64.687,0.0258],[-172.5536,64.687,-0.0746],[-172.5536,64.6859,-0.2183],[-172.5505,64.6859,0.2341]]],
[[[-172.5375,64.6875,1.1023],[-172.5417,64.6875,1.0563],[-172.5432,64.6859,0.0],[-172.5359,64.6859,0.0],[-172.5375,64.6875,1.1023]]],
[[[-172.3833,64.8313,316.3082],[-172.3938,64.8313,281.7446],[-172.3979,64.8333,195.7701],[-172.4042,64.8333,93.2618],[-172.4146,64.8292,78.7939],[-172.4208,64.8292,19.5153],[-172.4286,64.8266,56.6988],[-172.4318,64.8234,75.8219],[-172.4396,64.8208,47.9761],[-172.4474,64.8203,13.7569],[-172.4505,64.8172,4.6345],[-172.4583,64.8146,9.7505],[-172.4792,64.8146,0.2993],[-172.4833,64.8125,6.613],[-172.4875,64.8146,8.5848],[-172.4937,64.8146,0.0],[-172.5016,64.812,35.1244],[-172.5078,64.8037,9.7471],[-172.5047,64.8005,26.6379],[-172.5068,64.7984,33.2971],[-172.512,64.7974,5.9914],[-172.513,64.7943,14.1099],[-172.5182,64.7932,0.0],[-172.5234,64.788,6.3379],[-172.5286,64.787,0.0],[-172.5255,64.7839,16.0567],[-172.5432,64.7786,11.925],[-172.5443,64.7755,18.5739],[-172.5557,64.7724,1.8445],[-172.5547,64.7693,20.2707],[-172.5599,64.7682,0.0],[-172.563,64.763,28.9987],[-172.5745,64.7599,0.0],[-172.5713,64.7578,19.4075],[-172.5734,64.7547,18.44],[-172.5849,64.7516,0.0],[-172.5974,64.7328,10.6621],[-172.5964,64.7255,32.8953],[-172.5984,64.7234,26.1369],[-172.6037,64.7224,15.9469],[-172.6068,64.7193,15.622],[-172.612,64.7182,8.6498],[-172.6172,64.7109,11.3929],[-172.6286,64.7078,0.0],[-172.6318,64.7005,23.042],[-172.6349,64.6974,30.662],[-172.6318,64.6943,64.4985],[-172.637,64.6922,47.8295],[-172.5979,64.6896,82.951],[-172.588,64.687,0.224],[-172.5818,64.6828,0.692],[-172.587,64.6807,0.0],[-172.5854,64.6792,1.3088],[-172.5646,64.6792,0.0],[-172.5568,64.6818,0.7676],[-172.5562,64.6833,0.1217],[-172.5568,64.6849,0.0247],[-172.5641,64.6859,12.5442],[-172.5661,64.6891,-0.3947],[-172.5583,64.6917,-1.241],[-172.5479,64.6917,-1.2858],[-172.5437,64.6937,11.4302],[-172.5229,64.6937,-1.2099],[-172.5213,64.6932,-0.3478],[-172.5224,64.688,0.351],[-172.5167,64.6875,0.0],[-172.5099,64.6932,26.1214],[-172.5021,64.6958,14.4619],[-172.4958,64.6958,0.0],[-172.4812,64.7,11.6484],[-172.4438,64.7021,0.0],[-172.4396,64.7042,11.9597],[-172.4333,64.7042,14.5972],[-172.4292,64.7021,0.0],[-172.4187,64.7021,0.0],[-172.4146,64.7042,16.3634],[-172.4083,64.7042,27.1692],[-172.4042,64.7021,0.0],[-172.3542,64.7021,0.0],[-172.3437,64.7063,23.4128],[-172.3396,64.7042,0.0],[-172.3167,64.7125,33.6126],[-172.3104,64.7104,0.0],[-172.3026,64.713,0.0],[-172.2995,64.7161,6.4232],[-172.2755,64.7234,0.0],[-172.2745,64.7266,3.6729],[-172.263,64.7297,1.8171],[-172.2599,64.7328,6.4527],[-172.2505,64.7318,0.0],[-172.2474,64.737,0.0788],[-172.2422,64.738,-0.1115],[-172.2375,64.7417,2.3615],[-172.2333,64.7396,1.8467],[-172.2292,64.7417,2.0208],[-172.2208,64.7417,0.0],[-172.2167,64.7438,1.5119],[-172.2021,64.7438,5.3507999999999996],[-172.1979,64.7417,0.0],[-172.1938,64.7438,7.7348],[-172.1708,64.7438,0.0],[-172.1562,64.7479,1.2611],[-172.125,64.7479,0.0],[-172.1214,64.7516,1.0],[-172.1286,64.7557,3.2238],[-172.125,64.7583,1.0],[-172.1104,64.7583,2.8032],[-172.1062,64.7542,11.4697],[-172.0813,64.7542,0.0],[-172.0771,64.7562,20.1223],[-172.0708,64.7542,0.0],[-172.063,64.7568,0.0],[-172.0776,64.7662,4.5161],[-172.0849,64.7672,45.7847],[-172.0859,64.7703,3.8853],[-172.0896,64.7729,0.0],[-172.0937,64.7729,51.1585],[-172.0979,64.775,40.9137],[-172.1083,64.775,37.0281],[-172.1292,64.7813,2.6001],[-172.1333,64.7813,14.9454],[-172.138,64.7849,0.0],[-172.1521,64.7875,31.77],[-172.1604,64.7917,0.0],[-172.1708,64.7917,24.6166],[-172.1771,64.7958,0.0],[-172.1917,64.7958,10.4494],[-172.2208,64.8042,1.0303],[-172.2292,64.8042,0.1794],[-172.2359,64.8078,1.1644],[-172.2432,64.8089,6.0003],[-172.2443,64.812,2.2996],[-172.2516,64.813,10.9502],[-172.2505,64.8161,0.0],[-172.2578,64.8172,4.9169],[-172.263,64.8203,0.0],[-172.2703,64.8214,21.4261],[-172.2734,64.8245,23.2032],[-172.2833,64.8271,0.0],[-172.2896,64.8271,61.9761],[-172.2937,64.825,131.3499],[-172.3,64.8271,12.5687],[-172.3042,64.825,43.5001],[-172.3104,64.8271,0.0],[-172.3146,64.825,8.2499],[-172.3292,64.825,23.3129],[-172.3375,64.8292,0.0],[-172.3479,64.8271,49.806],[-172.3521,64.8292,49.1119],[-172.3562,64.8271,73.9895],[-172.3604,64.8292,56.4652],[-172.3833,64.8313,316.3082]]],
[[[-172.7609,64.8214,41.5276],[-172.7609,64.8224,43.272],[-172.7641,64.8224,50.8827],[-172.7641,64.8214,53.3202],[-172.7609,64.8214,41.5276]]],
[[[-172.538,64.9016,0.3663],[-172.5412,64.9016,0.2511],[-172.5412,64.9005,0.6832],[-172.538,64.9005,1.4438],[-172.538,64.9016,0.3663]]],
[[[-172.2547,64.4141,4.6535],[-172.2568,64.4161,4.9705],[-172.2641,64.4172,4.81],[-172.2708,64.4208,5.496],[-172.2786,64.4182,1.8113],[-172.2734,64.413,0.5],[-172.2786,64.412,0.5],[-172.2812,64.4083,0.5],[-172.2771,64.4042,4.083],[-172.2583,64.4042,4.2358],[-172.2542,64.4021,0.0],[-172.25,64.4042,4.2187],[-172.2437,64.4042,4.0809],[-172.238,64.4026,2.2883],[-172.2401,64.4078,4.5347],[-172.2453,64.4089,4.3232],[-172.2547,64.4141,4.6535]]],
[[[-172.1557,65.1245,0.0],[-172.15,65.1208,0.1752],[-172.1443,65.1214,1.503],[-172.1479,65.125,1.448],[-172.1557,65.1245,0.0]]],
[[[-172.2464,65.2151,4.5296],[-172.2464,65.2161,8.3871],[-172.2495,65.2161,9.1296],[-172.2495,65.2151,6.723],[-172.2464,65.2151,4.5296]]],
[[[-172.2245,65.2266,0.0],[-172.2266,65.2214,0.3244],[-172.2083,65.2208,2.6795],[-172.2026,65.2286,0.0],[-172.2057,65.2297,4.3832],[-172.2083,65.2333,15.9285],[-172.212,65.2307,10.0485],[-172.213,65.2276,12.1529],[-172.2245,65.2266,0.0]]],
[[[-172.6568,65.2203,8.3219],[-172.6599,65.2203,5.7506],[-172.6599,65.2193,0.0],[-172.6568,65.2193,6.3411],[-172.6568,65.2203,8.3219]]],
[[[-172.3068,65.4161,0.5861],[-172.3104,65.4167,0.9719],[-172.312,65.4151,0.5932],[-172.3083,65.4146,0.481],[-172.3068,65.4161,0.5861]]],
[[[-172.2958,65.4167,0.5875],[-172.3,65.4167,0.7872],[-172.3016,65.4151,0.499],[-172.2922,65.4151,0.0],[-172.2958,65.4167,0.5875]]],
[[[-172.2021,65.4146,2.5466],[-172.2036,65.413,2.4872],[-172.1984,65.413,3.8639],[-172.1984,65.4141,2.8067],[-172.2021,65.4146,2.5466]]],
[[[-172.2464,65.4234,1.1606],[-172.2474,65.4213,0.9768],[-172.2458,65.4208,0.6615],[-172.2354,65.4208,0.0],[-172.2318,65.4245,0.914],[-172.2437,65.425,0.8554],[-172.2464,65.4234,1.1606]]],
[[[-172.1151,65.4568,1.78],[-172.1161,65.4547,2.5786],[-172.1109,65.4547,2.4431],[-172.1078,65.462,2.7527],[-172.1005,65.463,1.3083],[-172.0932,65.4766,1.8421],[-172.088,65.4776,0.0],[-172.0838,65.4828,1.2995],[-172.0932,65.4828,1.977],[-172.0901,65.4797,1.6195],[-172.0953,65.4786,2.232],[-172.1047,65.4672,1.9784],[-172.1099,65.4661,1.7231],[-172.1109,65.463,1.8331],[-172.1161,65.462,0.9118],[-172.1151,65.4568,1.78]]],
[[[-172.238,65.4755,34.8122],[-172.2391,65.4734,2.8541],[-172.2375,65.4729,0.0],[-172.2234,65.4776,7.0803],[-172.2245,65.4807,10.9073],[-172.213,65.4849,0.0],[-172.2161,65.4859,23.0554],[-172.2151,65.4891,24.2443],[-172.2182,65.4901,33.0288],[-172.2214,65.4953,10.3481],[-172.237,65.4932,0.0],[-172.2391,65.4912,14.7331],[-172.2391,65.488,5.2165],[-172.2339,65.4838,12.2513],[-172.238,65.4755,34.8122]]],
[[[-174.838,64.7849,6.7889],[-174.8411,64.7849,6.8525],[-174.8411,64.7839,6.9465],[-174.838,64.7839,6.8215],[-174.838,64.7849,6.7889]]],
[[[-174.9588,64.8141,0.0],[-174.962,64.8141,0.0],[-174.962,64.813,0.0],[-174.9588,64.813,0.0],[-174.9588,64.8141,0.0]]],
[[[-175.4771,64.8792,0.9234],[-175.4807,64.8776,2.7067],[-175.4734,64.8776,0.0859],[-175.4734,64.8786,0.2522],[-175.4771,64.8792,0.9234]]],
[[[-175.9417,65.3333,-0.258],[-175.9432,65.3328,-0.0993],[-175.9432,65.3318,0.1015],[-175.9401,65.3318,0.2947],[-175.9417,65.3333,-0.258]]],
[[[-176.0172,65.3917,1.7556],[-176.0229,65.3917,1.011],[-176.0271,65.3938,1.4408],[-176.0328,65.3932,2.2699],[-176.0297,65.3912,2.721],[-176.0307,65.388,2.6414],[-176.0182,65.3818,3.728],[-176.0109,65.3807,3.5957],[-176.0078,65.3734,0.0],[-176.0021,65.3708,0.0],[-175.9964,65.3703,3.6627],[-175.9953,65.3672,4.0035],[-175.9922,65.3662,4.0923],[-175.9932,65.363,0.0],[-175.9854,65.3646,3.1278],[-175.9839,65.3641,2.7435],[-175.9849,65.3588,3.8728],[-175.9792,65.3562,3.4907],[-175.9714,65.3568,0.0],[-175.9745,65.3588,0.8909],[-175.9755,65.362,1.8269],[-175.9787,65.363,1.8918],[-175.9734,65.3651,0.0],[-175.9708,65.3688,0.0],[-175.9745,65.3714,0.0],[-175.9734,65.3745,0.0],[-175.9766,65.3755,0.0],[-175.9776,65.3786,0.0],[-175.9833,65.3792,1.2474],[-175.9901,65.3828,2.4464],[-175.9974,65.3839,2.7855],[-176.0068,65.3891,1.4741],[-176.0172,65.3917,1.7556]]],
[[[-174.9612,66.5091,31.162],[-174.9505,66.5363,6.0785],[-174.9656,66.6327,2.2401],[-174.9645,66.6607,0.6836],[-174.9607,66.6614,0.6919],[-174.975,66.6667,0.1843],[-174.9812,66.6667,0.294],[-174.9979,66.6604,0.2522],[-175.0016,66.662,0.1167],[-174.9995,66.6641,0.0122],[-174.9729,66.6729,0.3583],[-174.9687,66.6708,0.4028],[-174.9521,66.6708,0.9443],[-174.9479,66.6687,0.0],[-174.9354,66.6687,0.3668],[-174.9312,66.6729,0.132],[-174.9172,66.6734,0.2462],[-174.9151,66.6766,0.3878],[-174.9193,66.6787,0.2055],[-174.9375,66.6813,0.0529],[-174.9391,66.6828,0.1941],[-174.9292,66.6833,0.366],[-174.925,66.6813,0.2113],[-174.9208,66.6833,0.0],[-174.9109,66.6839,0.0],[-174.9141,66.6859,0.0],[-174.913,66.6911,0.0],[-174.9162,66.6932,14.6033],[-174.9068,66.6943,0.0],[-174.9036,66.6974,0.0],[-174.8984,66.6984,0.0],[-174.8974,66.7016,13.642],[-174.8896,66.7042,1.7941],[-174.8708,66.7063,7.3042],[-174.8667,66.7042,0.0],[-174.8604,66.7042,0.0],[-174.8562,66.7063,22.7856],[-174.8484,66.7068,0.0],[-174.8411,66.7182,0.0],[-174.8359,66.7193,0.0],[-174.8328,66.7245,0.0],[-174.8276,66.7255,0.0],[-174.8245,66.7307,0.0],[-174.8193,66.7318,0.0],[-174.8182,66.7349,3.5737],[-174.813,66.7359,0.0],[-174.8083,66.7417,0.0646],[-174.8,66.7417,0.0],[-174.7958,66.7438,2.5123],[-174.7771,66.7438,0.0],[-174.7724,66.7495,0.0],[-174.7672,66.7505,0.0],[-174.7646,66.7542,1.3299],[-174.7333,66.7521,0.2322],[-174.7292,66.75,0.0],[-174.7167,66.75,1.9705],[-174.7125,66.7479,1.4109],[-174.7047,66.7484,0.0],[-174.7078,66.7516,1.1176],[-174.7026,66.7526,0.0],[-174.7042,66.7542,0.7982],[-174.7167,66.7542,1.4749],[-174.7208,66.7521,3.3112],[-174.7271,66.7521,2.3014],[-174.737,66.7568,0.1017],[-174.7375,66.7583,0.1884],[-174.7354,66.7604,0.1944],[-174.7271,66.7604,0.124],[-174.7229,66.7625,2.1052],[-174.7187,66.7604,-0.0976],[-174.7063,66.7604,2.2909],[-174.7026,66.763,0.7321],[-174.7026,66.7662,1.2876],[-174.7057,66.7682,2.9343],[-174.7005,66.7703,0.0],[-174.7036,66.7714,1.4133],[-174.7021,66.775,0.0],[-174.7057,66.7776,1.5985],[-174.7047,66.7807,0.0],[-174.7099,66.7818,7.0914],[-174.7088,66.7849,0.0],[-174.712,66.7859,15.4957],[-174.7109,66.7911,0.0],[-174.7146,66.7937,15.039],[-174.713,66.7995,0.0],[-174.7162,66.8006,19.8559],[-174.7161,66.7969,14.0537],[-174.7135,66.7899,15.1834],[-174.7463,66.7963,30.0587],[-174.7984,66.7803,33.6103],[-174.9771,66.7803,143.8634],[-175.0357,66.8049,63.8714],[-175.0886,66.8357,95.5195],[-175.2133,66.8249,211.1954],[-175.2575,66.7557,75.9641],[-175.2946,66.6681,107.0251],[-175.2995,66.6143,62.7794],[-175.4209,66.5791,213.352],[-175.4797,66.5201,239.5962],[-175.4829,66.4259,195.4328],[-175.488,66.3811,189.1577],[-175.5971,66.3511,192.0972],[-175.6442,66.2915,123.9433],[-175.6942,66.2211,284.7901],[-175.7628,66.1791,111.736],[-175.9026,66.1803,282.9916],[-176.0041,66.2123,222.5624],[-176.0728,66.2415,226.8321],[-176.0493,66.2855,254.626],[-176.0497,66.3339,302.2345],[-176.1467,66.3663,275.2755],[-176.1469,66.4167,312.4527],[-176.1573,66.4415,280.5697],[-176.2284,66.4229,270.3356],[-176.3756,66.4053,285.5859],[-176.4375,66.3865,372.4086],[-176.5113,66.3235,198.4845],[-176.5856,66.3095,188.3278],[-176.7387,66.3091,299.6694],[-176.8847,66.3125,338.9972],[-177.0334,66.3345,389.2876],[-177.0328,66.3013,295.6642],[-176.977,66.2803,328.0857],[-176.8767,66.2593,221.3865],[-176.8349,66.2015,468.3854],[-176.8264,66.1369,219.0022],[-176.8501,66.0687,129.472],[-176.7986,66.0463,104.2897],[-176.7477,66.0339,126.85],[-176.6687,66.0505,267.0148],[-176.6094,66.0337,212.4178],[-176.614,66.0139,223.6154],[-176.5212,66.0035,135.2349],[-176.4948,65.9759,195.4616],[-176.4267,65.9547,304.5114],[-176.4157,65.9225,261.4707],[-176.4082,65.8691,151.0756],[-176.3279,65.8401,397.319],[-176.3167,65.7919,389.2093],[-176.3756,65.7607,302.4976],[-176.3786,65.7253,129.294],[-176.3153,65.6907,292.7246],[-176.3106,65.6481,269.0363],[-176.3629,65.6227,202.8463],[-176.3899,65.5451,46.8684],[-176.4051,65.5153,14.4479],[-176.4151,65.5152,15.9146],[-176.4172,65.513,12.2663],[-176.4224,65.512,3.2644],[-176.4224,65.5089,5.9449],[-176.4042,65.5042,0.0],[-176.3938,65.5042,8.156],[-176.387,65.5005,0.0],[-176.3771,65.4979,0.0],[-176.3708,65.4979,0.0],[-176.35,65.4917,0.0],[-176.3396,65.4917,3.4827],[-176.3354,65.4896,0.0],[-176.3292,65.4896,6.7608],[-176.3083,65.4833,0.0],[-176.2833,65.4812,5.3441],[-176.275,65.4771,0.0],[-176.2708,65.4792,12.4994],[-176.2563,65.475,0.0],[-176.2229,65.4729,3.7051],[-176.2146,65.4688,0.0],[-176.2,65.4688,9.5721],[-176.1958,65.4667,0.0],[-176.1854,65.4667,2.3797],[-176.1729,65.4625,0.0],[-176.1667,65.4646,8.6838],[-176.1625,65.4625,0.0],[-176.1479,65.4625,4.5807],[-176.1438,65.4604,0.0],[-176.1333,65.4604,5.929],[-176.1292,65.4583,0.0],[-176.1187,65.4583,6.8776],[-176.1146,65.4563,0.0],[-176.1,65.4563,11.2535],[-176.0958,65.4542,0.0],[-176.0896,65.4542,0.0],[-176.0854,65.4583,17.3456],[-176.0792,65.4563,0.0],[-176.0688,65.4604,10.8842],[-176.0375,65.4604,0.9493],[-176.0312,65.4625,0.8558],[-176.0266,65.4589,0.0],[-176.0188,65.4583,0.5911],[-176.0172,65.4568,0.0],[-176.0208,65.4542,36.6277],[-176.0312,65.4542,24.9799],[-176.0391,65.4516,9.9063],[-176.0359,65.4495,9.1468],[-176.037,65.4464,1.8694],[-176.0328,65.4443,2.5206],[-176.0229,65.4417,0.0],[-176.0125,65.4417,25.5476],[-176.0083,65.4396,9.1871],[-175.9979,65.4396,38.1492],[-175.9896,65.4354,0.0],[-175.9755,65.4328,10.3202],[-175.9646,65.4271,0.0],[-175.9333,65.4208,2.83],[-175.9276,65.4182,1.9947],[-175.9266,65.4151,0.0],[-175.9193,65.412,3.6629],[-175.9162,65.4089,0.0],[-175.9047,65.4036,72.7909],[-175.9099,65.4005,0.0],[-175.9026,65.3974,88.9645],[-175.9005,65.3922,113.6268],[-175.9036,65.3901,0.0],[-175.8984,65.387,15.9142],[-175.8974,65.3839,3.9185],[-175.8943,65.3828,22.9981],[-175.8974,65.3755,0.0],[-175.8901,65.3724,47.3302],[-175.8911,65.3651,0.0],[-175.8838,65.3641,55.8274],[-175.887,65.3568,5.6086],[-175.8792,65.3562,191.4464],[-175.8776,65.3547,279.3463],[-175.8797,65.3526,291.9995],[-175.8849,65.3516,192.3777],[-175.888,65.3443,295.2627],[-175.9016,65.3391,89.7379],[-175.8984,65.337,165.7781],[-175.8984,65.3339,163.1349],[-175.9078,65.3349,132.3546],[-175.9099,65.3328,184.1542],[-175.9099,65.3297,47.382],[-175.8974,65.3234,0.0],[-175.8901,65.3224,23.6258],[-175.8859,65.3203,23.7597],[-175.887,65.3172,0.0],[-175.8776,65.3161,12.2084],[-175.8703,65.3109,0.0],[-175.8589,65.3057,39.0635],[-175.8562,65.3,44.6535],[-175.8578,65.2963,17.217],[-175.8505,65.2911,139.5624],[-175.8526,65.2859,106.7948],[-175.8547,65.2839,73.5098],[-175.8599,65.2828,0.0],[-175.863,65.2776,46.3497],[-175.875,65.2771,1.7784],[-175.8792,65.2792,0.0],[-175.887,65.2786,2.1302],[-175.8833,65.275,1.7808],[-175.8849,65.2714,1.9553],[-175.8755,65.2724,105.5878],[-175.8766,65.2693,269.2842],[-175.8734,65.2672,405.5402],[-175.8828,65.2662,306.5078],[-175.8859,65.2609,261.3793],[-175.8911,65.2589,12.3237],[-175.888,65.2578,14.7121],[-175.887,65.2547,0.0],[-175.8797,65.2536,10.6547],[-175.8807,65.2505,0.0],[-175.8714,65.2495,11.4134],[-175.8724,65.2464,2.1068],[-175.8568,65.2391,6.0986],[-175.8505,65.2349,0.7293],[-175.8495,65.2318,0.7359],[-175.8417,65.2333,3.5832],[-175.8401,65.2328,3.0761],[-175.8411,65.2297,0.8656],[-175.8338,65.2286,2.1168],[-175.8328,65.2255,1.1339],[-175.8297,65.2234,1.0376],[-175.837,65.2193,0.0],[-175.8292,65.2188,1.8699],[-175.8245,65.2151,1.5682],[-175.8167,65.2146,1.5711],[-175.8083,65.2104,1.2049],[-175.8042,65.2125,2.7365],[-175.7979,65.2125,2.8673],[-175.7854,65.2083,1.2946],[-175.7792,65.2104,5.9197],[-175.7693,65.2057,7.2308],[-175.7703,65.2026,4.7659],[-175.7672,65.2005,5.8337],[-175.7693,65.1964,6.4886],[-175.7979,65.1958,4.5366],[-175.7995,65.1953,8.5553],[-175.7995,65.1922,0.0],[-175.7958,65.1896,0.0],[-175.7896,65.1896,15.3879],[-175.7839,65.187,34.4167],[-175.7807,65.1818,0.0],[-175.7661,65.1734,0.0],[-175.7568,65.1724,39.9581],[-175.7542,65.1687,47.9355],[-175.7557,65.1651,0.0],[-175.7479,65.1646,27.0484],[-175.7422,65.162,11.1432],[-175.7474,65.1589,0.0],[-175.7318,65.1536,5.9861],[-175.7349,65.1464,10.5593],[-175.7318,65.1453,12.6805],[-175.7328,65.1422,8.3459],[-175.7292,65.1396,11.1179],[-175.7318,65.1339,7.137],[-175.737,65.1328,1.4761],[-175.7391,65.1307,2.1642],[-175.7422,65.1234,6.9018],[-175.7474,65.1224,1.1545],[-175.7443,65.1193,0.9521],[-175.762,65.1141,3.0468],[-175.7641,65.1088,1.0119],[-175.7609,65.1068,7.823],[-175.763,65.1047,9.5568],[-175.7708,65.1042,1.2525],[-175.7849,65.0995,0.0],[-175.7849,65.0964,13.9283],[-175.7818,65.0953,6.3727],[-175.7828,65.0922,8.7155],[-175.7797,65.0901,17.8126],[-175.7818,65.0859,17.5385],[-175.7891,65.0807,16.2778],[-175.7912,65.0755,13.6272],[-175.7839,65.0724,1.5846],[-175.7849,65.0693,1.762],[-175.7818,65.0682,2.2052],[-175.787,65.0661,16.3729],[-175.7833,65.0625,26.3063],[-175.787,65.0568,0.0],[-175.7797,65.0516,36.5],[-175.7812,65.0479,36.0298],[-175.7792,65.0437,39.0833],[-175.7818,65.0401,33.3062],[-175.7912,65.037,0.0],[-175.788,65.0349,43.7178],[-175.7891,65.0318,48.0949],[-175.7859,65.0297,51.622],[-175.7937,65.0271,46.6999],[-175.8016,65.0266,0.0],[-175.7984,65.0234,47.2541],[-175.8099,65.0224,0.0],[-175.8109,65.0193,80.371],[-175.8146,65.0167,156.4315],[-175.8208,65.0167,57.6829],[-175.825,65.0146,15.5104],[-175.8375,65.0146,1.3561],[-175.8458,65.0104,133.7172],[-175.8521,65.0104,93.0071],[-175.8583,65.0125,-9.0],[-175.8599,65.0109,13.6929],[-175.8568,65.0089,130.6843],[-175.862,65.0078,179.7708],[-175.863,65.0047,342.1649],[-175.8667,65.0042,348.1995],[-175.8708,65.0062,169.8544],[-175.8734,65.0026,352.4829],[-175.8786,65.0005,204.1673],[-175.8729,64.9979,0.0],[-175.863,64.9974,211.1455],[-175.8641,64.9922,0.0],[-175.8542,64.9896,0.0],[-175.8437,64.9896,96.9752],[-175.8313,64.9854,0.0],[-175.8083,64.9833,204.6894],[-175.8,64.9792,31.7999],[-175.7943,64.9786,61.6535],[-175.7849,64.9734,0.0],[-175.7776,64.9724,26.0896],[-175.7651,64.9661,148.2213],[-175.7693,64.9568,343.5543],[-175.7745,64.9547,221.3361],[-175.763,64.9537,493.5093],[-175.763,64.9505,491.7114],[-175.787,64.9495,315.655],[-175.7833,64.9458,26.4386],[-175.7771,64.9458,176.12],[-175.7729,64.9437,0.0],[-175.7604,64.9437,86.0994],[-175.7563,64.9417,0.0],[-175.7417,64.9417,24.4682],[-175.7375,64.9396,0.0],[-175.7271,64.9396,34.5082],[-175.7229,64.9375,0.0],[-175.7042,64.9375,37.2979],[-175.6917,64.9333,0.0],[-175.6771,64.9333,84.709],[-175.6729,64.9313,12.4084],[-175.6667,64.9313,64.1289],[-175.6625,64.9292,0.0],[-175.65,64.9271,1.698],[-175.6443,64.9245,113.1082],[-175.6453,64.9213,79.0143],[-175.6396,64.9187,0.0],[-175.6354,64.9187,50.5561],[-175.6313,64.9167,0.0],[-175.6208,64.9167,150.8965],[-175.6125,64.9125,0.0],[-175.6021,64.9146,140.7713],[-175.5838,64.9099,147.3626],[-175.5729,64.9042,0.0],[-175.563,64.9036,188.57],[-175.5604,64.9,0.0],[-175.5422,64.8974,368.2841],[-175.5412,64.8943,0.0],[-175.537,64.8922,0.0],[-175.5312,64.8917,210.5093],[-175.5255,64.8891,235.0699],[-175.5349,64.8859,108.2781],[-175.5229,64.8792,0.0],[-175.5167,64.8792,0.0],[-175.5063,64.8833,0.0],[-175.4958,64.8812,0.0],[-175.4943,64.8828,3.2354],[-175.4974,64.8839,1.6882],[-175.4974,64.887,0.7187],[-175.4896,64.8896,-0.3034],[-175.4859,64.8891,1.3865],[-175.4828,64.8859,0.4694],[-175.4703,64.8797,0.6554],[-175.4547,64.8766,58.7077],[-175.4599,64.8745,43.4344],[-175.4609,64.8714,78.591],[-175.4687,64.8708,33.1447],[-175.4766,64.8682,6.0382],[-175.4708,64.8625,282.0273],[-175.4745,64.8557,165.4935],[-175.4714,64.8526,305.3272],[-175.4766,64.8505,34.8871],[-175.4651,64.8453,217.2051],[-175.4661,64.8422,171.6515],[-175.4563,64.8375,0.0],[-175.4167,64.8375,0.0],[-175.4141,64.8411,0.0],[-175.4089,64.8422,0.0],[-175.4068,64.8443,0.0],[-175.4099,64.8474,70.6427],[-175.4021,64.85,0.0],[-175.3771,64.85,17.5397],[-175.3729,64.8479,1.3113],[-175.3687,64.85,7.0906],[-175.3562,64.85,0.0],[-175.3521,64.8521,8.0727],[-175.3458,64.8521,3.3988],[-175.3443,64.8516,0.5178],[-175.3453,64.8484,0.0],[-175.3338,64.8432,1.2276],[-175.3359,64.8401,0.4683],[-175.3411,64.8391,0.1453],[-175.3453,64.8307,0.0],[-175.3422,64.8276,37.6829],[-175.3516,64.8287,0.0],[-175.3505,64.8234,33.5755],[-175.3599,64.8203,2.8059],[-175.363,64.8172,0.0],[-175.375,64.8167,3.6709],[-175.3766,64.8172,6.6328],[-175.3755,64.8203,0.0],[-175.3833,64.8208,30.3298],[-175.4036,64.8141,72.4739],[-175.4026,64.8089,64.6185],[-175.4146,64.8042,64.9798],[-175.4271,64.8042,0.0],[-175.4375,64.8,73.7613],[-175.4417,64.8021,112.5294],[-175.4495,64.8016,119.168],[-175.4479,64.8,41.9142],[-175.4422,64.7995,96.5198],[-175.4396,64.7958,0.0],[-175.4297,64.7953,44.1251],[-175.4271,64.7896,111.7633],[-175.4307,64.7818,50.1853],[-175.4276,64.7807,116.5538],[-175.4245,64.7755,0.0],[-175.4089,64.7776,0.0],[-175.4005,64.7839,41.7517],[-175.3974,64.7891,92.3335],[-175.3896,64.7917,19.0579],[-175.3833,64.7917,0.0],[-175.3786,64.7953,3.2348],[-175.3729,64.7958,3.1868],[-175.3687,64.7937,4.1372],[-175.3583,64.7937,5.856],[-175.35,64.7896,0.0],[-175.3443,64.7891,0.0],[-175.338,64.7849,94.0255],[-175.337,64.7818,38.462],[-175.3229,64.7771,0.0],[-175.3188,64.7792,22.9765],[-175.3062,64.7792,0.0],[-175.3021,64.7813,26.2985],[-175.2917,64.7813,33.4566],[-175.2875,64.7792,0.0],[-175.2688,64.7792,16.9372],[-175.2646,64.7771,0.0],[-175.2583,64.7792,94.9915],[-175.2542,64.7771,0.0],[-175.2458,64.7771,48.6346],[-175.2417,64.775,0.0],[-175.2312,64.775,0.0],[-175.2229,64.7708,0.0],[-175.2187,64.7708,0.0],[-175.2146,64.7688,0.0],[-175.2063,64.7688,5.17],[-175.2021,64.7667,0.0],[-175.188,64.7693,0.0],[-175.1911,64.7724,63.6018],[-175.1833,64.775,26.5717],[-175.1438,64.775,87.9749],[-175.1396,64.7729,0.0],[-175.1208,64.7729,26.7108],[-175.1167,64.7708,0.0],[-175.1021,64.7708,66.327],[-175.0979,64.7688,0.0],[-175.0896,64.7688,59.4223],[-175.0854,64.7667,0.0],[-175.0646,64.7667,203.628],[-175.063,64.7662,195.2962],[-175.0641,64.763,0.0],[-175.0625,64.7625,0.0],[-175.0562,64.7625,0.0],[-175.0521,64.7646,293.5967],[-175.0417,64.7646,2.8382],[-175.0375,64.7667,102.2992],[-175.0312,64.7646,0.0],[-175.0208,64.7688,45.3892],[-175.0063,64.7688,110.0844],[-175.0,64.7667,0.0],[-174.9974,64.7703,6.4456],[-174.9896,64.7708,0.0],[-174.9833,64.775,209.5461],[-174.9771,64.775,0.0],[-174.9693,64.7776,0.0],[-174.9667,64.7813,0.0],[-174.9682,64.7849,19.3043],[-174.9588,64.788,2.7104],[-174.9604,64.7896,1.9919],[-174.9661,64.7901,1.3893],[-174.9724,64.7943,48.2307],[-174.9714,64.8016,0.4936],[-174.9766,64.8047,40.7122],[-174.9755,64.8099,16.4819],[-174.9787,64.8109,40.1383],[-174.9776,64.8141,0.0],[-174.9812,64.8167,0.0],[-174.9776,64.8234,0.0],[-174.9807,64.8255,0.0],[-174.9787,64.8307,11.5561],[-174.9734,64.8318,1.4728],[-174.9714,64.8339,0.0],[-174.9745,64.8359,0.0],[-174.9734,64.8391,0.0],[-174.9849,64.8443,30.7822],[-174.9797,64.8464,3.8265],[-174.9828,64.8495,3.0549],[-174.9776,64.8505,0.7098],[-174.9807,64.8526,0.8611],[-174.9787,64.8578,3.6839],[-174.975,64.8604,1.5701],[-174.9563,64.8625,0.0],[-174.9521,64.8646,1.0167],[-174.9417,64.8646,0.3006],[-174.9375,64.8667,1.5281],[-174.9255,64.8641,49.609],[-174.9307,64.862,5.5643],[-174.9255,64.8578,19.3827],[-174.9307,64.8547,0.0],[-174.9271,64.8521,18.6261],[-174.9292,64.8479,0.0],[-174.9271,64.8438,0.0],[-174.9286,64.8401,0.0],[-174.9255,64.838,4.2314],[-174.9307,64.8339,0.0],[-174.9245,64.8297,1.5359],[-174.9187,64.8292,6.6747],[-174.9089,64.8245,70.9748],[-174.9104,64.8208,6.049],[-174.9068,64.8172,16.6615],[-174.9146,64.8146,12.1646],[-174.9245,64.8141,0.539],[-174.9286,64.812,0.1559],[-174.9276,64.8089,1.2257],[-174.9292,64.8083,0.5475],[-174.9438,64.8104,2.0066],[-174.9516,64.8078,1.7338],[-174.9484,64.8047,0.0],[-174.9521,64.7979,1.9427],[-174.95,64.7937,4.1757],[-174.9516,64.7901,3.8093],[-174.9125,64.7875,6.0846],[-174.9,64.7833,0.0],[-174.8896,64.7833,6.3241],[-174.8854,64.7813,1.9063],[-174.8667,64.7813,5.1404],[-174.8625,64.7792,4.6732],[-174.8562,64.7792,4.699],[-174.8547,64.7797,2.5343],[-174.8526,64.7849,2.6956],[-174.8687,64.7854,5.8439],[-174.8786,64.788,5.1439],[-174.8818,64.7953,1.5479],[-174.9125,64.7958,2.1943],[-174.9162,64.7995,1.8576],[-174.913,64.8005,-0.7546],[-174.9078,64.8057,0.7708],[-174.9021,64.8063,1.9359],[-174.8896,64.8021,-0.7703],[-174.8792,64.8021,6.4407],[-174.875,64.8,-0.4283],[-174.8604,64.8,7.8427],[-174.8521,64.7958,-0.0189],[-174.8479,64.7979,35.3798],[-174.8401,64.7984,0.6527],[-174.837,64.8037,44.5472],[-174.8229,64.8083,12.1292],[-174.8167,64.8083,1.1383],[-174.8125,64.8063,1.4549],[-174.7979,64.8063,6.4487],[-174.7875,64.8,0.0178],[-174.7667,64.8,0.0001],[-174.7625,64.8021,17.7686],[-174.7547,64.8026,-0.2908],[-174.75,64.8063,130.2989],[-174.7437,64.8063,35.0912],[-174.7359,64.8089,-0.1314],[-174.7328,64.8141,14.2604],[-174.7187,64.8187,1.9545],[-174.7109,64.8193,0.3433],[-174.7026,64.8318,-0.4184],[-174.7026,64.8349,1.5776],[-174.7057,64.8359,136.4917],[-174.7036,64.8411,153.4618],[-174.6984,64.8422,9.8133],[-174.6943,64.8484,0.1342],[-174.7016,64.8536,140.7964],[-174.6963,64.8547,75.8093],[-174.6943,64.8568,18.1394],[-174.6974,64.8588,9.5564],[-174.6963,64.862,7.2863],[-174.6995,64.8641,36.3163],[-174.6953,64.8703,47.0999],[-174.6901,64.8714,-0.1916],[-174.6932,64.8734,7.1114],[-174.6932,64.8766,39.0459],[-174.688,64.8776,8.2705],[-174.6807,64.8891,0.8366],[-174.6755,64.8901,-0.3907],[-174.6729,64.8938,2.2529],[-174.675,64.8958,2.5239],[-174.6849,64.8964,6.2959],[-174.7016,64.9047,7.7742],[-174.7083,64.9104,1.173],[-174.7063,64.9125,5.2018],[-174.6854,64.9125,17.2211],[-174.6786,64.9089,0.2015],[-174.6729,64.9083,2.6531],[-174.6672,64.9057,2.7762],[-174.6682,64.9026,1.547],[-174.6604,64.9021,2.4073],[-174.6297,64.8932,1.2108],[-174.6318,64.8901,3.7475],[-174.637,64.8891,3.7726],[-174.6391,64.8818,-0.4581],[-174.6292,64.8812,5.7283],[-174.6266,64.8776,-0.4188],[-174.6167,64.8771,10.0215],[-174.6109,64.8745,9.0839],[-174.612,64.8693,2.2772],[-174.6068,64.8662,9.5085],[-174.6047,64.8609,12.1264],[-174.612,64.8557,3.142],[-174.612,64.8526,2.3034],[-174.6026,64.8474,5.675],[-174.5995,64.8422,0.5572],[-174.5922,64.8391,26.7758],[-174.5943,64.8359,9.5853],[-174.5995,64.8349,-0.3796],[-174.5964,64.8318,25.5714],[-174.6078,64.8287,3.9887],[-174.6099,64.8234,1.3842],[-174.6068,64.8224,9.4197],[-174.6068,64.8193,10.9771],[-174.6109,64.8151,-0.4424],[-174.6161,64.8141,-0.5226],[-174.6068,64.8109,36.9476],[-174.6328,64.8016,8.4332],[-174.6359,64.7963,2.995],[-174.6453,64.7953,1.7525],[-174.6422,64.7932,2.1544],[-174.6432,64.7901,3.9379],[-174.6401,64.7891,32.6968],[-174.6422,64.7839,29.1912],[-174.6443,64.7818,14.7291],[-174.6495,64.7807,12.0275],[-174.6463,64.7776,82.4245],[-174.6578,64.7745,18.5193],[-174.6505,64.7703,102.7833],[-174.6557,64.7682,27.2798],[-174.6583,64.7646,3.858],[-174.6526,64.7599,33.5096],[-174.6526,64.7568,25.6003],[-174.6641,64.7536,3.9341],[-174.6662,64.7516,3.2669],[-174.6589,64.7474,18.1355],[-174.6641,64.737,19.7722],[-174.6609,64.7338,42.3484],[-174.6729,64.7354,0.6913],[-174.6766,64.7318,4.6794],[-174.6708,64.7292,0.0],[-174.6609,64.7286,56.2844],[-174.6599,64.7255,112.4489],[-174.6536,64.7214,65.6279],[-174.6479,64.7188,245.5078],[-174.6422,64.7182,391.4717],[-174.6432,64.7109,138.7625],[-174.6359,64.7099,305.0529],[-174.637,64.7068,25.3273],[-174.6313,64.7042,0.0],[-174.6042,64.7,10.6305],[-174.5917,64.6958,12.1128],[-174.5833,64.6958,171.0283],[-174.5734,64.6932,119.0582],[-174.5667,64.6896,0.0],[-174.5625,64.6896,35.3716],[-174.5333,64.6813,0.0],[-174.5229,64.6813,142.0119],[-174.5213,64.6807,102.6726],[-174.5224,64.6776,0.0],[-174.5208,64.6771,0.0],[-174.513,64.6787,4.7024],[-174.5141,64.6755,0.0],[-174.5125,64.675,0.0],[-174.4979,64.675,58.026],[-174.4646,64.6646,0.0],[-174.4542,64.6646,81.7185],[-174.4417,64.6604,0.0],[-174.4333,64.6604,2.558],[-174.425,64.6563,20.5991],[-174.4193,64.6557,46.0034],[-174.4245,64.6526,0.0],[-174.4146,64.6521,43.6013],[-174.412,64.6484,0.0],[-174.4021,64.6479,0.0],[-174.3938,64.6438,0.0],[-174.388,64.6432,48.0898],[-174.3708,64.6333,0.0],[-174.3604,64.6333,66.5528],[-174.3562,64.6312,0.0],[-174.3313,64.6312,1.4289],[-174.3266,64.637,1.3511],[-174.3083,64.6375,0.9215],[-174.3042,64.6417,0.7604],[-174.2729,64.6417,1.2054],[-174.2625,64.6458,2.8249],[-174.2484,64.6464,0.2158],[-174.2474,64.6495,5.8102],[-174.2437,64.6521,8.7554],[-174.2276,64.6495,8.5858],[-174.2297,64.6464,8.0445],[-174.2349,64.6453,0.188],[-174.2318,64.6422,4.544],[-174.2391,64.638,1.7206],[-174.2333,64.6354,0.7935],[-174.2146,64.6354,1.4491],[-174.213,64.6349,2.6551],[-174.2109,64.6297,27.4104],[-174.2187,64.6271,8.3123],[-174.225,64.6271,0.8442],[-174.2354,64.6229,3.8094],[-174.2458,64.6229,1.6477],[-174.25,64.6208,1.8211],[-174.2604,64.6229,2.0195],[-174.2641,64.6203,2.1296],[-174.2609,64.6172,3.1267],[-174.2661,64.6151,3.6743],[-174.2604,64.6125,0.0],[-174.2521,64.6125,5.3448],[-174.2437,64.6083,0.0],[-174.2297,64.6057,48.8343],[-174.2307,64.6005,0.0],[-174.2234,64.5995,60.054],[-174.2245,64.5964,19.7724],[-174.2146,64.5917,54.3146],[-174.2088,64.5911,62.7831],[-174.2016,64.5859,0.0],[-174.1875,64.5833,20.8804],[-174.1792,64.5792,0.0],[-174.1672,64.5787,135.8211],[-174.1599,64.5734,0.0],[-174.1542,64.5729,0.0],[-174.1432,64.5672,50.8374],[-174.1359,64.5661,45.8683],[-174.1328,64.563,0.0],[-174.1193,64.562,60.4345],[-174.112,64.5568,0.0],[-174.1062,64.5563,132.0207],[-174.0953,64.5505,12.1645],[-174.088,64.5495,139.2076],[-174.0792,64.5437,0.0],[-174.0729,64.5458,39.7702],[-174.0599,64.538,19.135],[-174.05,64.5354,5.7476],[-174.0453,64.5391,7.621],[-174.0359,64.5411,4.3623],[-174.0359,64.538,2.939],[-174.038,64.5359,0.9829],[-174.0432,64.5349,0.3385],[-174.0432,64.5318,2.2287],[-174.0412,64.5297,0.0],[-174.0339,64.5286,3.3578],[-174.0391,64.5255,0.0],[-174.0276,64.5193,8.7751],[-174.0328,64.5182,2.4491],[-174.0312,64.5146,5.4105],[-174.0333,64.5104,0.0],[-174.0318,64.5068,52.3381],[-174.037,64.5057,10.6152],[-174.0432,64.4943,0.0],[-174.0396,64.4938,0.0],[-174.0354,64.4958,205.6687],[-174.0297,64.4922,250.7086],[-174.0349,64.4912,61.9808],[-174.0375,64.4875,81.9539],[-174.0359,64.4838,298.1999],[-174.0412,64.4828,218.1052],[-174.0412,64.4797,71.7444],[-174.0354,64.4792,274.4453],[-174.0339,64.4776,292.9408],[-174.0412,64.4734,0.0],[-174.0276,64.4724,311.6002],[-174.0286,64.4672,0.0],[-174.0234,64.4641,94.4249],[-174.0266,64.4568,0.0],[-174.0208,64.4542,0.0],[-174.0151,64.4537,162.247],[-174.0203,64.4505,0.0],[-174.0109,64.4453,0.0],[-174.0078,64.4401,0.0],[-173.9995,64.4359,0.0],[-173.9922,64.4349,47.6001],[-173.9891,64.4297,34.0224],[-173.9797,64.4245,163.4447],[-173.9818,64.4213,248.7041],[-173.987,64.4203,101.9562],[-173.9891,64.4151,0.0],[-173.9818,64.4141,57.9648],[-173.9708,64.4083,0.0],[-173.9583,64.4083,21.6832],[-173.9542,64.4063,0.0],[-173.9438,64.4063,19.4793],[-173.9396,64.4042,3.3076],[-173.9354,64.4042,4.0938],[-173.9255,64.4016,19.8327],[-173.9266,64.3984,0.0],[-173.9167,64.3979,86.4611],[-173.9042,64.3917,92.805],[-173.8958,64.3917,160.5576],[-173.8917,64.3896,40.7052],[-173.8771,64.3896,60.478],[-173.8729,64.3875,0.0],[-173.8583,64.3875,4.6119],[-173.8568,64.3891,0.0],[-173.8599,64.3912,0.0],[-173.8578,64.3932,12.5716],[-173.8526,64.3943,0.0],[-173.8432,64.4016,0.0],[-173.8297,64.4068,0.0],[-173.8266,64.412,19.6057],[-173.8213,64.413,0.0],[-173.8203,64.4161,9.7708],[-173.7984,64.4213,7.9028],[-173.7943,64.4255,30.0184],[-173.7849,64.4432,1.5775],[-173.7771,64.4437,0.0],[-173.7713,64.4422,0.0],[-173.7724,64.4453,4.4165],[-173.7646,64.4458,0.0],[-173.7568,64.4484,0.0],[-173.7599,64.4516,9.8778],[-173.7557,64.4578,0.0],[-173.7417,64.4625,2.2414],[-173.7375,64.4604,0.0],[-173.7339,64.4609,0.0],[-173.7328,64.4641,0.0],[-173.7292,64.4667,0.0],[-173.7187,64.4667,3.3872],[-173.7172,64.4651,3.7038],[-173.7271,64.4646,0.0],[-173.7292,64.4625,0.0],[-173.7234,64.4578,0.0],[-173.7203,64.4526,0.0],[-173.7172,64.4516,5.864],[-173.7193,64.4464,20.9839],[-173.7271,64.4458,8.636],[-173.7349,64.4432,0.0],[-173.7401,64.4359,47.0026],[-173.7516,64.4328,0.0],[-173.7536,64.4297,0.0],[-173.7505,64.4276,26.9377],[-173.7599,64.4266,0.0],[-173.7641,64.4203,0.0],[-173.7609,64.4172,84.6783],[-173.7661,64.4161,29.4944],[-173.7651,64.413,72.7273],[-173.7708,64.4104,87.6312],[-173.7807,64.4099,0.0],[-173.7776,64.4068,20.1826],[-173.7828,64.4057,2.4726],[-173.7901,64.3943,56.3868],[-173.7922,64.3922,34.5724],[-173.7974,64.3912,40.854],[-173.7901,64.3859,377.2164],[-173.7979,64.3854,185.4474],[-173.8021,64.3875,31.221],[-173.8068,64.3839,33.0043],[-173.812,64.3828,8.9089],[-173.8104,64.3771,41.1558],[-173.812,64.3734,59.3093],[-173.7974,64.3651,0.0],[-173.7901,64.3641,52.1986],[-173.7833,64.3604,0.0],[-173.7729,64.3604,0.0],[-173.7688,64.3625,40.535],[-173.7646,64.3604,0.0],[-173.75,64.3604,121.8111],[-173.7437,64.3562,0.0],[-173.7292,64.3562,26.9721],[-173.7026,64.3495,50.1964],[-173.6984,64.3474,145.4659],[-173.6995,64.3443,0.0],[-173.6917,64.3396,0.0],[-173.6812,64.3396,26.3805],[-173.6604,64.3333,0.0],[-173.6562,64.3333,0.0],[-173.6417,64.325,0.0],[-173.6271,64.325,0.0],[-173.6229,64.3271,131.2574],[-173.6167,64.3271,0.0],[-173.5937,64.3354,0.0],[-173.5813,64.3354,0.0],[-173.5771,64.3375,51.4474],[-173.5729,64.3375,48.0328],[-173.5688,64.3354,0.0],[-173.5479,64.3354,2.2371],[-173.5432,64.3411,7.5513],[-173.5354,64.3438,7.3636],[-173.5297,64.3411,4.361],[-173.537,64.337,4.6598],[-173.5312,64.3333,49.2323],[-173.5208,64.3375,60.296],[-173.5125,64.3375,0.0],[-173.5109,64.3391,0.0],[-173.5141,64.3401,41.5812],[-173.5151,64.3432,6.6915],[-173.5292,64.3438,0.292],[-173.5307,64.3453,12.7222],[-173.5271,64.3479,0.4958],[-173.5229,64.3458,0.2544],[-173.5021,64.3521,5.6889],[-173.4833,64.3542,0.0],[-173.4729,64.3583,67.22],[-173.4687,64.3562,0.0],[-173.4625,64.3562,0.0],[-173.4599,64.3599,67.127],[-173.4521,64.3625,21.1499],[-173.4443,64.363,0.0],[-173.4328,64.3703,0.0],[-173.425,64.3708,0.0],[-173.4172,64.3734,0.0],[-173.4203,64.3766,21.2235],[-173.4125,64.3771,0.0],[-173.4078,64.3807,0.0],[-173.3838,64.388,0.0],[-173.3807,64.3932,56.2866],[-173.3755,64.3943,0.0],[-173.3724,64.3995,76.1543],[-173.3609,64.4005,0.0],[-173.3578,64.4078,0.0],[-173.3526,64.4089,0.0],[-173.3474,64.4161,0.0],[-173.3333,64.4208,0.0],[-173.3255,64.4213,0.0],[-173.3203,64.4266,12.7233],[-173.3151,64.4276,0.0],[-173.3141,64.4307,14.2379],[-173.3089,64.4318,0.0],[-173.3057,64.437,25.5473],[-173.3005,64.438,0.0],[-173.2984,64.4411,0.0],[-173.3042,64.4417,33.8444],[-173.3057,64.4432,17.9188],[-173.3005,64.4453,0.0],[-173.3078,64.4464,20.8525],[-173.3042,64.4542,29.3208],[-173.3057,64.4599,125.9191],[-173.2943,64.4609,0.0],[-173.2953,64.4682,99.6996],[-173.2901,64.4693,0.0],[-173.2854,64.475,48.802],[-173.2776,64.4745,0.0],[-173.2828,64.4714,0.0],[-173.2713,64.4703,0.0],[-173.2713,64.4672,0.0],[-173.2766,64.4661,0.0],[-173.2734,64.4641,0.0],[-173.2745,64.4609,0.0],[-173.2667,64.4625,0.0],[-173.2588,64.4578,0.0],[-173.2604,64.4563,0.0],[-173.2667,64.4563,0.0],[-173.2724,64.4578,0.0],[-173.2786,64.4484,0.0],[-173.2542,64.4458,0.0],[-173.2484,64.4432,82.5407],[-173.2495,64.438,60.1049],[-173.2443,64.4339,263.7089],[-173.2495,64.4328,80.9895],[-173.2464,64.4297,241.9118],[-173.2557,64.4245,0.0],[-173.2526,64.4213,138.4804],[-173.2578,64.4203,0.0],[-173.2563,64.4187,11.7088],[-173.2354,64.4187,0.0],[-173.225,64.4229,3.3888],[-173.2172,64.4234,0.0],[-173.2141,64.4287,0.0],[-173.2088,64.4297,0.0],[-173.2036,64.437,19.7234],[-173.1922,64.4401,0.0],[-173.1875,64.4437,0.0],[-173.1589,64.4411,0.5979],[-173.1547,64.438,3.112],[-173.1583,64.4354,21.3827],[-173.1662,64.4349,7.4467],[-173.1687,64.4313,0.0],[-173.1662,64.4276,119.7511],[-173.1604,64.4271,185.24],[-173.1589,64.4255,265.6795],[-173.1724,64.4245,140.1583],[-173.1714,64.4213,257.3352],[-173.1729,64.4208,244.2903],[-173.1891,64.4203,7.5768],[-173.1953,64.412,10.4617],[-173.1922,64.4089,47.501],[-173.1974,64.4078,19.735],[-173.2005,64.4047,33.2329],[-173.2083,64.4021,19.9968],[-173.2203,64.4016,5.2765],[-173.2271,64.3958,10.939],[-173.2391,64.3953,0.0],[-173.238,64.3922,3.9095],[-173.2432,64.3891,0.2918],[-173.2401,64.3859,12.1416],[-173.2437,64.3854,6.3391],[-173.2536,64.388,10.036],[-173.2464,64.3922,-0.0873],[-173.2495,64.3943,4.7599],[-173.2484,64.3974,0.5094],[-173.2516,64.3984,8.8991],[-173.2505,64.4016,0.0],[-173.2646,64.4,81.4638],[-173.2724,64.3974,74.0706],[-173.2797,64.3859,334.3413],[-173.2849,64.3849,220.3729],[-173.288,64.3818,312.2194],[-173.3057,64.3807,6.1327],[-173.3047,64.3776,103.9938],[-173.3099,64.3766,37.1772],[-173.312,64.3724,92.6065],[-173.3089,64.3693,241.1567],[-173.3125,64.3688,311.8927],[-173.3167,64.3708,131.195],[-173.3193,64.3672,264.3371],[-173.3307,64.3662,43.1136],[-173.3328,64.3609,196.912],[-173.3297,64.3599,230.357],[-173.3276,64.3568,466.903],[-173.3307,64.3568,430.5971],[-173.3375,64.3604,79.6857],[-173.3458,64.3604,0.9445],[-173.35,64.3625,0.8087],[-173.3578,64.3599,3.4035],[-173.3557,64.3568,2.3761],[-173.3526,64.3557,0.9846],[-173.3537,64.3505,17.0612],[-173.3505,64.3495,210.1102],[-173.3516,64.3464,50.3219],[-173.3484,64.3443,244.9026],[-173.3557,64.3349,144.4833],[-173.3589,64.3276,116.7619],[-173.3641,64.3266,16.2758],[-173.3682,64.3224,168.0045],[-173.3667,64.3167,232.3949],[-173.3687,64.3125,135.0813],[-173.3667,64.3083,114.4316],[-173.3708,64.3021,12.9788],[-173.3661,64.2922,25.6413],[-173.3625,64.2896,0.0],[-173.3297,64.2901,1.2135],[-173.337,64.2943,16.4964],[-173.3354,64.2958,33.4783],[-173.3255,64.2963,1.5],[-173.3271,64.2979,1.5],[-173.3328,64.2984,1.5],[-173.3328,64.3016,27.7749],[-173.3276,64.3026,1.5],[-173.3245,64.3078,11.515],[-173.3193,64.3089,1.5],[-173.3141,64.3161,54.9508],[-173.3047,64.3172,1.5],[-173.3,64.3229,1.5],[-173.3016,64.3287,68.064],[-173.2979,64.3292,3.2328],[-173.2937,64.3271,1.5],[-173.2901,64.3297,1.5],[-173.288,64.3349,1.5],[-173.2912,64.337,11.2877],[-173.2891,64.3391,14.7801],[-173.2839,64.3401,4.3683],[-173.2776,64.3505,1.5],[-173.2807,64.3536,47.51],[-173.2672,64.3588,1.5],[-173.262,64.3682,1.5],[-173.25,64.3688,4.7291],[-173.2443,64.3651,3.1138],[-173.2464,64.363,7.2129],[-173.2516,64.362,1.5],[-173.2557,64.3547,3.2729],[-173.2484,64.3516,4.2106],[-173.2495,64.3484,1.5],[-173.2422,64.3474,7.6776],[-173.2458,64.3396,6.0856],[-173.2443,64.3339,40.7155],[-173.2495,64.3328,9.9059],[-173.2536,64.3287,3.6421],[-173.2505,64.3255,57.5667],[-173.2547,64.3193,83.3223],[-173.262,64.3203,3.1086],[-173.2609,64.3151,24.0106],[-173.2724,64.312,7.313],[-173.2766,64.3078,1.5],[-173.275,64.3021,6.5251],[-173.2786,64.2943,12.3503],[-173.2755,64.2922,27.4064],[-173.287,64.2911,1.5],[-173.2912,64.2839,4.7847],[-173.2479,64.2729,0.0],[-173.2229,64.275,1.3642],[-173.2172,64.2724,4.6872],[-173.2151,64.2693,0.0085],[-173.2229,64.2688,4.3848],[-173.2245,64.2672,0.0],[-173.1922,64.2599,24.4417],[-173.1859,64.2557,29.9766],[-173.1849,64.2526,0.0],[-173.1776,64.2516,59.8423],[-173.1786,64.2484,0.0],[-173.1771,64.2479,0.0],[-173.1708,64.2479,0.0],[-173.1667,64.25,80.4029],[-173.1625,64.2479,0.0],[-173.1542,64.2479,0.0],[-173.15,64.2458,0.0],[-173.1313,64.2458,0.0],[-173.1271,64.2438,0.0],[-173.1187,64.2438,10.0151],[-173.1146,64.2417,0.0],[-173.0979,64.2417,0.0],[-173.0937,64.2438,29.9053],[-173.0755,64.2464,0.0],[-173.0724,64.2495,0.0],[-173.0672,64.2505,0.0],[-173.0646,64.2542,27.7513],[-173.0521,64.2542,0.0],[-173.0312,64.2604,0.7866],[-173.0208,64.2604,5.2793],[-173.0167,64.2583,0.0],[-172.9771,64.2583,0.0],[-172.9729,64.2604,0.0],[-172.9359,64.2609,0.0],[-172.9339,64.2662,10.4299],[-172.937,64.2682,10.504],[-172.9328,64.2724,6.4117],[-172.9276,64.2745,4.428],[-172.9349,64.2776,8.1316],[-172.9339,64.2807,0.8843],[-172.9411,64.2818,16.9997],[-172.9401,64.2849,-0.5],[-172.9474,64.2859,12.6351],[-172.9526,64.2974,-0.5],[-172.9599,64.2984,43.2667],[-172.9588,64.3016,23.4901],[-172.9641,64.3047,46.2654],[-172.9687,64.3146,4.9536],[-172.963,64.3234,-0.5],[-172.9661,64.3266,4.5097],[-172.9563,64.3417,-0.5],[-172.9583,64.3458,1.0528],[-172.9568,64.3495,-0.5],[-172.9599,64.3516,7.0152],[-172.9547,64.3526,-0.5],[-172.9505,64.3568,-0.5],[-172.9536,64.3599,6.487],[-172.9484,64.3672,3.2519],[-172.9557,64.3714,5.8891],[-172.9526,64.3786,-0.5],[-172.9557,64.3807,3.4871],[-172.9505,64.3818,-0.5],[-172.9432,64.3912,8.142],[-172.9297,64.3964,-0.5],[-172.9266,64.4036,5.9875],[-172.9229,64.4063,0.1707],[-172.9151,64.4057,0.5603],[-172.9125,64.4021,59.3915],[-172.9193,64.3922,28.4778],[-172.9245,64.3912,1.4013],[-172.9292,64.3833,4.1483],[-172.9266,64.3797,0.4412],[-172.9193,64.3766,11.6816],[-172.9203,64.3734,-0.5],[-172.9172,64.3724,2.491],[-172.9182,64.3693,-0.5],[-172.9151,64.3672,2.2629],[-172.9214,64.3588,9.6202],[-172.9266,64.3578,-0.5],[-172.9255,64.3505,12.4914],[-172.937,64.3349,1.251],[-172.9297,64.3318,15.5942],[-172.9349,64.3297,0.4641],[-172.9276,64.3287,8.6321],[-172.9266,64.3255,-0.5],[-172.9193,64.3245,48.3779],[-172.9203,64.3214,-0.5],[-172.9141,64.3172,-0.5],[-172.9068,64.3161,30.5747],[-172.8859,64.3037,21.4583],[-172.8859,64.3005,4.7016],[-172.8901,64.2963,0.9863],[-172.9016,64.2932,-0.5],[-172.9,64.2917,-0.5],[-172.8729,64.2937,0.0],[-172.8583,64.2979,30.0701],[-172.8521,64.2958,0.0],[-172.838,64.3005,16.6757],[-172.8359,64.3057,0.0],[-172.8391,64.3078,10.2309],[-172.8338,64.3089,0.0],[-172.8354,64.3125,19.5456],[-172.8313,64.3187,0.0],[-172.837,64.3245,34.529],[-172.8318,64.3255,0.0],[-172.8297,64.3276,0.0],[-172.8266,64.3349,0.0],[-172.8193,64.3443,0.8973],[-172.8203,64.3516,1.0819],[-172.8151,64.3526,1.5602],[-172.8104,64.3583,2.9884],[-172.813,64.362,2.0426],[-172.8213,64.3662,1.2253],[-172.8286,64.3672,0.0],[-172.8276,64.3703,0.0],[-172.8307,64.3714,27.5011],[-172.8255,64.3734,0.0],[-172.8271,64.3771,17.3017],[-172.8229,64.3833,0.0],[-172.825,64.3875,16.5199],[-172.8193,64.3964,0.0],[-172.8266,64.4016,156.2609],[-172.8151,64.4047,0.0],[-172.8203,64.4099,77.6993],[-172.8089,64.413,0.0],[-172.8057,64.4182,9.0617],[-172.8005,64.4193,0.0],[-172.8026,64.4245,22.1712],[-172.8057,64.4255,45.4307],[-172.8047,64.4287,47.9098],[-172.8078,64.4297,83.0727],[-172.8047,64.4349,0.0],[-172.812,64.4359,99.513],[-172.8146,64.4417,56.8012],[-172.813,64.4453,18.0938],[-172.8203,64.4464,263.584],[-172.8193,64.4516,113.98779999999999],[-172.825,64.4521,195.2229],[-172.8313,64.45,265.3977],[-172.8437,64.4542,0.5058],[-172.8562,64.4542,0.1289],[-172.8646,64.4583,50.0496],[-172.8724,64.4578,18.5711],[-172.8734,64.4547,65.6728],[-172.8771,64.4521,111.4633],[-172.8938,64.4521,0.0],[-172.8979,64.45,11.5583],[-172.9021,64.45,12.989],[-172.9036,64.4516,-1.0],[-172.8984,64.4526,0.3267],[-172.9016,64.4547,0.0],[-172.9005,64.4578,0.0],[-172.9083,64.4583,50.0912],[-172.9125,64.4563,52.2965],[-172.9203,64.4557,0.0],[-172.9193,64.4526,36.0192],[-172.9245,64.4516,0.0],[-172.9255,64.4484,16.3208],[-172.9307,64.4474,0.0],[-172.9354,64.4437,29.0983],[-172.9417,64.4437,19.6857],[-172.9458,64.4458,0.0],[-172.95,64.4437,16.373],[-172.9667,64.4437,23.3815],[-172.9708,64.4417,83.6886],[-172.9812,64.4417,95.491],[-172.9854,64.4437,0.0],[-172.9932,64.4411,3.7368],[-172.9964,64.4359,164.0084],[-173.0042,64.4333,185.9715],[-173.0286,64.438,1.5673],[-173.0266,64.4411,0.4176],[-173.0188,64.4417,6.5035],[-173.0109,64.4453,22.5258],[-173.0312,64.4458,1.5408],[-173.037,64.4484,45.8699],[-173.0318,64.4505,1.8912],[-173.0333,64.4542,7.2611],[-173.0307,64.4578,41.1867],[-173.0255,64.4589,0.0],[-173.0161,64.4661,9.7398],[-173.0083,64.4688,19.9518],[-173.0021,64.4688,5.929],[-172.9917,64.4729,0.0],[-172.9833,64.4729,0.0],[-172.9755,64.4755,21.1882],[-172.9766,64.4828,2.3098],[-172.9729,64.4854,4.3383],[-172.9651,64.4859,0.0],[-172.9604,64.4917,0.0],[-172.9375,64.4917,0.0],[-172.9333,64.4938,14.1578],[-172.9292,64.4917,0.0],[-172.9229,64.4917,0.0],[-172.9125,64.4958,1.7692],[-172.8979,64.4958,0.0],[-172.8938,64.4979,10.6719],[-172.8875,64.4958,0.0],[-172.8833,64.4979,0.8161],[-172.8771,64.4979,9.0924],[-172.8729,64.4958,0.0],[-172.8542,64.4958,1.9249],[-172.85,64.4979,1.6975],[-172.8417,64.4979,0.0],[-172.8375,64.5,-0.0268],[-172.8188,64.5,8.2986],[-172.8146,64.4979,0.0],[-172.7937,64.4979,0.0],[-172.7922,64.4995,0.0],[-172.7953,64.5016,64.3736],[-172.7901,64.5026,0.0],[-172.7854,64.5083,2.133],[-172.7729,64.5083,0.0],[-172.7688,64.5104,-0.2128],[-172.7646,64.5083,0.0],[-172.7604,64.5083,7.8828],[-172.7588,64.5078,11.3172],[-172.7563,64.5021,1.0261],[-172.7641,64.4943,0.0],[-172.7568,64.4932,118.9488],[-172.7578,64.4901,3.688],[-172.7547,64.4891,144.0561],[-172.7557,64.4859,84.2099],[-172.7505,64.4828,264.3488],[-172.7557,64.4807,93.8755],[-172.7526,64.4786,210.2772],[-172.7557,64.4714,73.6695],[-172.7526,64.4693,139.5203],[-172.7557,64.4651,25.3756],[-172.7526,64.4641,111.6721],[-172.7536,64.4609,8.8248],[-172.7505,64.4599,49.1002],[-172.7516,64.4568,0.0],[-172.738,64.4557,77.6714],[-172.7245,64.4464,7.6008],[-172.7172,64.4432,25.9579],[-172.7182,64.4401,0.0],[-172.7088,64.4349,38.4968],[-172.7141,64.4245,0.0],[-172.7109,64.4213,102.4471],[-172.7193,64.4089,126.6314],[-172.7245,64.4078,0.0],[-172.7229,64.4042,0.0],[-172.7266,64.3984,0.0],[-172.7104,64.3979,29.8864],[-172.7063,64.3958,0.0],[-172.6917,64.3958,7.5462],[-172.6875,64.3938,6.1661],[-172.6792,64.3938,29.7971],[-172.675,64.3917,0.0],[-172.6625,64.3917,177.9432],[-172.6562,64.3854,0.0],[-172.6521,64.3854,38.4011],[-172.6479,64.3833,0.0],[-172.6375,64.3833,74.9306],[-172.6333,64.3812,8.5406],[-172.625,64.3812,42.9565],[-172.6151,64.3786,13.5994],[-172.6083,64.375,7.8172],[-172.6,64.375,65.4547],[-172.5958,64.3729,0.0],[-172.5854,64.3729,0.0],[-172.5688,64.3792,32.4851],[-172.5583,64.3792,0.0],[-172.5542,64.3812,0.0],[-172.5313,64.3812,0.0],[-172.5271,64.3833,12.5349],[-172.5229,64.3812,0.0],[-172.5188,64.3833,13.1299],[-172.5,64.3854,0.0],[-172.4958,64.3875,30.2195],[-172.4917,64.3854,0.0],[-172.4812,64.3896,9.4189],[-172.4714,64.3901,0.0],[-172.4703,64.3932,7.2622],[-172.4651,64.3943,0.0],[-172.462,64.3974,8.0562],[-172.4526,64.3984,0.0],[-172.4536,64.4016,8.5662],[-172.4521,64.4021,8.3207],[-172.4417,64.4021,1.9321],[-172.4375,64.4042,2.2718],[-172.4276,64.4047,2.2019],[-172.4234,64.4068,2.1907],[-172.4245,64.4099,1.9922],[-172.4224,64.4141,3.2445],[-172.4172,64.4151,0.5],[-172.4104,64.425,0.5],[-172.413,64.4307,0.5],[-172.4182,64.4339,6.29],[-172.4151,64.4411,0.5],[-172.4182,64.4432,5.8531],[-172.413,64.4443,0.5],[-172.4099,64.4474,1.2537],[-172.4021,64.45,1.4823],[-172.3943,64.4505,0.9999],[-172.3958,64.4542,0.5],[-172.3938,64.4563,3.306],[-172.3714,64.4557,4.5143],[-172.3672,64.4537,3.2371],[-172.3682,64.4505,3.2177],[-172.3521,64.4417,0.5],[-172.3474,64.4453,6.0118],[-172.3396,64.4458,0.5],[-172.3318,64.4484,1.7455],[-172.3349,64.4505,-1.3712],[-172.3338,64.4537,1.9683],[-172.337,64.4547,1.6264],[-172.3359,64.4578,0.0],[-172.3417,64.4604,2.7358],[-172.3474,64.4609,1.6288],[-172.3464,64.4641,0.0],[-172.3505,64.4661,0.0],[-172.3578,64.4672,1.7278],[-172.3625,64.4708,2.1574],[-172.3813,64.4708,3.9164],[-172.3911,64.4734,4.5614],[-172.3979,64.4771,1.3179],[-172.4036,64.4776,9.96],[-172.4016,64.4828,9.288],[-172.4,64.4833,5.6594],[-172.3938,64.4833,6.4179],[-172.3896,64.4812,-0.556],[-172.3792,64.4812,1.3169],[-172.3755,64.4849,0.0],[-172.3917,64.4854,13.2947],[-172.3974,64.488,3.9778],[-172.3943,64.4932,-0.3207],[-172.3974,64.4943,7.1967],[-172.3963,64.4974,2.104],[-172.3995,64.4984,5.1241],[-172.3984,64.5016,2.7943],[-172.4057,64.5047,5.9482],[-172.4047,64.5078,0.0],[-172.4104,64.5104,4.9453],[-172.4162,64.5109,69.113],[-172.413,64.5151,3.1217],[-172.413,64.5182,0.0],[-172.4187,64.5188,56.2678],[-172.4203,64.5203,116.5248],[-172.4182,64.5224,75.3365],[-172.413,64.5234,0.0],[-172.4109,64.5266,0.0],[-172.4141,64.5276,107.2835],[-172.413,64.5307,0.0],[-172.4162,64.5318,139.5025],[-172.4146,64.5354,81.4863],[-172.4172,64.5391,22.3507],[-172.4375,64.5396,87.5597],[-172.4438,64.5417,0.0],[-172.4479,64.5375,58.2675],[-172.4646,64.5375,106.8204],[-172.4687,64.5396,0.0],[-172.4792,64.5396,0.0],[-172.4833,64.5375,11.4483],[-172.4932,64.5401,40.2112],[-172.4922,64.5432,0.0],[-172.4937,64.5437,0.0],[-172.5042,64.5437,43.9336],[-172.5083,64.5458,43.6778],[-172.5167,64.5458,99.4963],[-172.5208,64.5479,157.1013],[-172.5542,64.5479,26.5218],[-172.5583,64.55,0.5643],[-172.5729,64.55,52.3569],[-172.5792,64.5542,0.0],[-172.5911,64.5547,0.7426],[-172.5943,64.5599,0.0],[-172.6016,64.5609,2.2372],[-172.6005,64.5641,2.0251],[-172.6037,64.5651,2.9643],[-172.6026,64.5682,0.0],[-172.6057,64.5693,1.7657],[-172.6026,64.5745,3.0822],[-172.6083,64.5771,1.1346],[-172.6141,64.5776,12.8087],[-172.6208,64.5813,0.0],[-172.625,64.5792,1.8155],[-172.6354,64.5792,0.0486],[-172.6479,64.5833,0.0],[-172.6625,64.5813,53.8946],[-172.6687,64.5833,28.0693],[-172.6833,64.5792,83.6458],[-172.6896,64.5792,41.5418],[-172.6938,64.5813,0.5627],[-172.7021,64.5813,0.8268],[-172.712,64.5839,13.3799],[-172.7161,64.5859,18.9524],[-172.7151,64.5891,0.0],[-172.7182,64.5901,8.4344],[-172.7172,64.5932,0.0],[-172.7203,64.5943,5.0737],[-172.7172,64.5984,1.6935],[-172.7172,64.6016,0.7576],[-172.7229,64.6042,0.0273],[-172.7333,64.6042,0.0],[-172.7375,64.6021,48.7832],[-172.7417,64.6021,111.8648],[-172.7599,64.6068,15.2053],[-172.7667,64.6104,0.0],[-172.775,64.6104,11.9975],[-172.7792,64.6125,0.0],[-172.7854,64.6104,18.1647],[-172.8042,64.6104,10.7237],[-172.8104,64.6125,1.5452],[-172.8146,64.6104,16.41],[-172.8313,64.6104,12.0205],[-172.8354,64.6083,20.1718],[-172.8458,64.6083,0.0],[-172.8474,64.6068,0.0],[-172.8443,64.6047,41.1728],[-172.8458,64.6042,45.0467],[-172.8542,64.6042,0.0],[-172.8646,64.6,0.0],[-172.8813,64.6,0.0],[-172.8891,64.5974,0.0],[-172.8859,64.5943,0.0],[-172.8922,64.5859,0.0],[-172.9062,64.5813,0.0],[-172.9141,64.5807,0.0],[-172.9042,64.575,0.0],[-172.8922,64.5755,0.0],[-172.8911,64.5787,0.0],[-172.8875,64.5813,0.0],[-172.8849,64.5776,0.0],[-172.8776,64.5766,64.689],[-172.8849,64.5724,0.0],[-172.8818,64.5693,8.0352],[-172.8854,64.5667,5.1791],[-172.9062,64.5667,0.0],[-172.9104,64.5646,21.3905],[-172.9229,64.5646,10.1103],[-172.9333,64.5604,8.6629],[-172.9396,64.5604,12.9775],[-172.9438,64.5625,0.0],[-172.9563,64.5625,5.81],[-172.9745,64.5672,-1.0],[-172.9745,64.5703,-1.0],[-172.9724,64.5724,0.0],[-172.9646,64.575,0.0],[-172.9583,64.575,0.0],[-172.9536,64.5787,0.0],[-172.9271,64.5875,2.9355],[-172.9193,64.588,0.0],[-172.9089,64.6026,0.0],[-172.9099,64.6078,0.0],[-172.9068,64.6088,0.0],[-172.9016,64.6141,0.0],[-172.8938,64.6167,-0.3924],[-172.8818,64.6172,-0.3337],[-172.8776,64.6214,0.0],[-172.8724,64.6307,21.4871],[-172.8672,64.6318,0.0],[-172.8641,64.637,15.4525],[-172.8589,64.638,0.0],[-172.8537,64.6432,23.0674],[-172.8458,64.6458,11.6006],[-172.838,64.6464,0.0],[-172.8338,64.6536,27.5685],[-172.8542,64.6542,88.7076],[-172.8583,64.6563,0.0],[-172.8813,64.6583,64.3252],[-172.888,64.662,10.0254],[-172.8953,64.663,45.1007],[-172.8943,64.6661,0.0],[-172.8984,64.6682,0.8075],[-172.9125,64.6708,-0.5],[-172.9203,64.6682,4.0442],[-172.9255,64.663,17.3107],[-172.9307,64.662,3.3792],[-172.9359,64.6547,0.0],[-172.9438,64.65,86.4089],[-172.9516,64.6505,18.3951],[-172.9505,64.6536,0.0],[-172.9578,64.6547,-0.0905],[-172.9687,64.6604,0.2971],[-172.9729,64.6583,1.9571],[-172.9807,64.6578,5.8199],[-172.9797,64.6547,10.1214],[-172.9812,64.6542,11.8881],[-172.9854,64.6563,4.8834],[-172.9958,64.6521,9.5653],[-173.0036,64.6516,0.0],[-173.0083,64.6479,2.5454],[-173.0161,64.6474,0.0],[-173.0213,64.6422,17.2282],[-173.0266,64.6412,63.1396],[-173.0234,64.6391,194.9471],[-173.025,64.6375,270.2034],[-173.0312,64.6375,217.9303],[-173.0354,64.6396,34.2328],[-173.0458,64.6396,0.0],[-173.05,64.6375,57.6888],[-173.0599,64.6401,0.8152],[-173.0667,64.6438,0.5273],[-173.0708,64.6417,3.6758],[-173.0807,64.6474,-0.3586],[-173.0693,64.6505,0.0],[-173.0661,64.6557,11.4618],[-173.0521,64.6604,0.0],[-173.0422,64.6609,0.0],[-173.0412,64.6641,46.0591],[-173.0208,64.6667,0.0],[-173.012,64.6724,6.8357],[-172.9917,64.675,0.0],[-172.987,64.6787,7.7688],[-172.9792,64.6813,40.4878],[-172.9625,64.6813,0.0],[-172.9479,64.6854,0.0],[-172.9312,64.6854,0.0],[-172.9271,64.6875,0.0],[-172.9062,64.6875,0.0],[-172.9021,64.6896,3.9453],[-172.8813,64.6896,14.8659],[-172.8687,64.6854,0.0],[-172.8625,64.6854,0.0],[-172.838,64.6922,0.0],[-172.8313,64.7021,0.0],[-172.8338,64.7078,0.0],[-172.837,64.7089,4.2888],[-172.8359,64.712,6.6797],[-172.8391,64.713,7.1605],[-172.838,64.7161,0.0],[-172.8453,64.7172,11.8621],[-172.8401,64.7193,0.0],[-172.8432,64.7224,3.7754],[-172.8391,64.7286,0.0],[-172.8297,64.7297,0.0],[-172.825,64.7333,3.1255],[-172.8021,64.7271,0.0],[-172.7979,64.7292,5.7073],[-172.7937,64.7271,0.0],[-172.7755,64.7276,0.0],[-172.7734,64.7328,62.7857],[-172.7766,64.7338,75.4854],[-172.7755,64.737,10.819],[-172.7833,64.7375,-0.5],[-172.7875,64.7354,10.9557],[-172.7937,64.7354,-0.5],[-172.7953,64.737,1.5914],[-172.7917,64.7396,10.8019],[-172.7708,64.7396,0.9312],[-172.763,64.7422,0.0],[-172.7599,64.7453,18.2889],[-172.7547,64.7464,0.0],[-172.7526,64.7484,0.0],[-172.7557,64.7505,26.6191],[-172.7536,64.7557,75.954],[-172.7484,64.7568,5.8513],[-172.7443,64.7609,8.6596],[-172.7479,64.7646,33.2727],[-172.7464,64.7682,0.0],[-172.7568,64.7745,8.9127],[-172.7667,64.775,23.0543],[-172.7708,64.7771,0.0],[-172.7812,64.7771,16.3881],[-172.7896,64.7813,2.7896],[-172.8036,64.7839,23.3573],[-172.8068,64.7891,0.0],[-172.8141,64.7901,6.7244],[-172.8172,64.7932,0.0],[-172.8307,64.7943,302.9756],[-172.8292,64.7958,183.3272],[-172.8109,64.7963,0.0],[-172.8151,64.7995,0.0],[-172.8375,64.8021,20.0305],[-172.8458,64.8063,0.3008],[-172.8578,64.8068,54.7558],[-172.8609,64.8099,0.0],[-172.8682,64.813,46.1452],[-172.8651,64.8172,0.0],[-172.8667,64.8187,0.0],[-172.8771,64.8187,176.8642],[-172.8813,64.8208,29.842],[-172.8875,64.8208,25.9611],[-172.8917,64.8187,103.2916],[-172.8958,64.8208,11.0225],[-172.9021,64.8208,0.0],[-172.9062,64.8167,23.9101],[-172.9203,64.8151,0.0],[-172.9162,64.8224,77.3396],[-172.9047,64.8255,0.0],[-172.9026,64.8287,67.8839],[-172.9057,64.8307,126.6559],[-172.9005,64.8328,0.0],[-172.9333,64.8333,21.6378],[-172.9375,64.8313,29.1146],[-172.9453,64.8307,0.0],[-172.9479,64.8271,0.0],[-172.9443,64.8234,16.0275],[-172.9463,64.8214,12.9347],[-172.9516,64.8203,0.0],[-172.9547,64.8151,28.4482],[-172.975,64.8083,3.8427],[-172.9833,64.8083,0.0],[-173.0099,64.7995,0.0],[-173.0109,64.7963,5.5957],[-173.0161,64.7953,0.0],[-173.013,64.7922,25.645],[-173.0266,64.787,21.6254],[-173.0297,64.7818,68.0043],[-173.0432,64.7766,12.2179],[-173.0464,64.7714,79.7505],[-173.0542,64.7708,45.3585],[-173.0583,64.7688,35.8215],[-173.0708,64.7688,20.3315],[-173.0755,64.7651,118.3917],[-173.0937,64.7625,55.3489],[-173.0984,64.7589,18.3198],[-173.1062,64.7562,33.0917],[-173.1208,64.7562,2.8136],[-173.1292,64.7604,32.4432],[-173.1438,64.7604,60.5006],[-173.1667,64.7521,81.3564],[-173.1771,64.7521,0.0],[-173.1818,64.7578,0.0],[-173.1849,64.7589,0.6493],[-173.1839,64.7641,2.0443],[-173.187,64.7662,8.2132],[-173.1839,64.7703,0.5975],[-173.187,64.7724,2.0793],[-173.1833,64.775,10.7415],[-173.1521,64.775,0.0],[-173.1375,64.7813,3.5914],[-173.125,64.7813,18.4656],[-173.1208,64.7792,0.0],[-173.1062,64.7833,36.4649],[-173.0979,64.7833,0.0],[-173.0937,64.7854,0.0],[-173.0859,64.7859,0.0],[-173.0849,64.7891,20.2371],[-173.0609,64.7963,0.0],[-173.0562,64.8021,33.2496],[-173.0589,64.8057,5.8524],[-173.062,64.8068,26.5633],[-173.063,64.8099,4.9674],[-173.0729,64.8125,0.0],[-173.0771,64.8104,2.7975],[-173.0911,64.8151,0.1286],[-173.0859,64.8172,0.4788],[-173.0891,64.8203,0.131],[-173.0828,64.8307,0.0],[-173.075,64.8333,12.37],[-173.0479,64.8333,0.0],[-173.0443,64.8359,0.3942],[-173.0412,64.8411,4.0713],[-173.0333,64.8438,13.6726],[-173.0255,64.8443,0.0],[-173.0208,64.8479,26.4908],[-173.0,64.8479,0.0],[-172.9964,64.8505,0.6639],[-172.9995,64.8536,4.1325],[-172.9792,64.8604,2.9665],[-172.9729,64.8583,0.0],[-172.9703,64.862,3.4168],[-172.9604,64.8625,0.0],[-172.9563,64.8646,19.7624],[-172.9458,64.8646,17.3749],[-172.9417,64.8625,0.0],[-172.9333,64.8625,0.0],[-172.9292,64.8604,0.0],[-172.9229,64.8604,0.0],[-172.9187,64.8625,0.6189],[-172.9042,64.8625,31.2915],[-172.8479,64.8479,1.8449],[-172.825,64.8479,24.021],[-172.8208,64.8458,0.0],[-172.8021,64.8458,0.0],[-172.7922,64.8432,0.0],[-172.7854,64.8396,0.0],[-172.775,64.8396,0.0],[-172.7688,64.8417,0.0],[-172.7672,64.8411,0.0],[-172.7682,64.838,0.0],[-172.7542,64.8333,0.0],[-172.7495,64.837,12.6012],[-172.7443,64.838,0.0],[-172.7417,64.8417,3.427],[-172.7187,64.8438,0.0],[-172.7141,64.8474,11.5965],[-172.7088,64.8484,0.0],[-172.7057,64.8516,65.0984],[-172.6979,64.8521,20.9699],[-172.6901,64.8547,0.0],[-172.687,64.8578,17.8482],[-172.6818,64.8588,0.0],[-172.6766,64.8682,25.9066],[-172.6714,64.8693,0.0],[-172.6682,64.8724,3.1629],[-172.6604,64.875,-0.2313],[-172.6542,64.875,0.0],[-172.6271,64.8833,12.4736],[-172.6187,64.8833,0.0],[-172.6146,64.8854,0.0],[-172.5979,64.8854,0.0],[-172.5776,64.8922,2.6324],[-172.5729,64.8958,17.6014],[-172.5651,64.8964,0.0],[-172.562,64.8995,7.0735],[-172.5505,64.9026,0.0],[-172.5495,64.9057,28.5656],[-172.5354,64.9104,12.5299],[-172.5292,64.9083,0.0],[-172.525,64.9104,0.0],[-172.5104,64.9104,0.0],[-172.5042,64.9083,0.3193],[-172.4964,64.9109,17.5508],[-172.5063,64.9146,0.0],[-172.5167,64.9146,13.7478],[-172.5224,64.9172,15.2588],[-172.5213,64.9203,0.0],[-172.5245,64.9224,2.7352],[-172.5151,64.9213,0.033],[-172.5125,64.925,0.9934],[-172.5146,64.9271,0.0],[-172.5188,64.9271,4.5788],[-172.5229,64.9292,0.0],[-172.5271,64.9271,7.8234],[-172.5313,64.9292,0.0],[-172.5417,64.9292,12.4583],[-172.5458,64.9313,0.0],[-172.5792,64.9313,2.7228],[-172.5891,64.9339,0.0],[-172.5875,64.9354,0.0],[-172.575,64.9354,0.0],[-172.5646,64.9396,0.2202],[-172.5547,64.937,1.3344],[-172.5557,64.9339,0.0],[-172.5542,64.9333,0.0],[-172.5479,64.9333,0.209],[-172.5437,64.9354,0.5117],[-172.5375,64.9333,0.2463],[-172.5333,64.9354,0.0],[-172.5188,64.9354,4.809],[-172.512,64.9318,0.0],[-172.4937,64.9271,0.3551],[-172.4833,64.9271,10.0056],[-172.4792,64.925,7.3582],[-172.475,64.925,13.4454],[-172.4734,64.9245,11.5285],[-172.4745,64.9213,0.0],[-172.4563,64.9167,0.0],[-172.4375,64.9167,29.7305],[-172.4333,64.9146,0.0],[-172.4271,64.9167,36.8126],[-172.4208,64.9167,0.0],[-172.4167,64.9187,14.736],[-172.4104,64.9187,0.0],[-172.4,64.9229,0.0],[-172.3917,64.9229,0.0],[-172.3813,64.9271,27.4661],[-172.375,64.9271,0.0],[-172.3714,64.9297,0.0],[-172.3703,64.9328,8.0018],[-172.3651,64.9339,1.4105],[-172.362,64.937,10.5436],[-172.338,64.9443,0.0],[-172.3349,64.9474,19.1478],[-172.3208,64.9521,7.4139],[-172.3083,64.9521,0.0],[-172.2979,64.9563,12.8774],[-172.2875,64.9563,0.0],[-172.2828,64.9599,27.8511],[-172.275,64.9604,0.0],[-172.2672,64.963,7.3758],[-172.2641,64.9661,8.2837],[-172.2526,64.9693,0.0],[-172.2557,64.9724,20.5764],[-172.2505,64.9734,0.0],[-172.2453,64.9807,20.4959],[-172.2401,64.9818,0.0],[-172.2349,64.9891,31.6074],[-172.2297,64.9901,0.0],[-172.2276,64.9922,0.0],[-172.2245,64.9974,29.2634],[-172.2193,64.9984,0.0],[-172.2161,65.0016,7.8423],[-172.2109,65.0026,0.0],[-172.2088,65.0047,0.0],[-172.2068,65.0099,0.0],[-172.2099,65.012,12.8551],[-172.2078,65.0141,10.5274],[-172.1964,65.0172,0.0],[-172.1917,65.0208,0.0],[-172.1854,65.0208,0.0],[-172.1651,65.0276,0.0],[-172.162,65.0328,21.4475],[-172.1505,65.0359,0.0],[-172.1474,65.0391,19.3727],[-172.1359,65.0422,0.0],[-172.1328,65.0453,7.8226],[-172.125,65.0458,0.0],[-172.1172,65.0484,6.2417],[-172.1141,65.0537,32.8384],[-172.1089,65.0547,25.8391],[-172.1068,65.0568,21.9005],[-172.1037,65.062,11.4016],[-172.0984,65.063,22.2638],[-172.0995,65.0661,25.5648],[-172.0943,65.0672,24.5667],[-172.0974,65.0703,35.828],[-172.0953,65.0724,38.6747],[-172.0901,65.0734,13.9749],[-172.0859,65.0797,0.0],[-172.0891,65.0828,24.7809],[-172.0838,65.0849,0.0],[-172.0896,65.0875,31.3377],[-172.0974,65.0849,33.5826],[-172.1005,65.0797,34.5787],[-172.112,65.0787,3.8981],[-172.1141,65.0755,0.2432],[-172.1104,65.0729,4.8934],[-172.1125,65.0708,3.5005],[-172.1187,65.0729,3.819],[-172.125,65.0729,2.5369],[-172.1417,65.0667,0.3218],[-172.1562,65.0667,0.0],[-172.1646,65.0708,0.0],[-172.1703,65.0714,0.0],[-172.1651,65.0734,0.0],[-172.1625,65.0771,1.2865],[-172.163,65.0787,1.2109],[-172.1703,65.0797,0.5108],[-172.1651,65.0818,0.0],[-172.1672,65.0849,0.3594],[-172.1787,65.0901,1.953],[-172.175,65.0958,0.0],[-172.1776,65.0995,1.7958],[-172.1807,65.1005,2.5987],[-172.1797,65.1036,0.0],[-172.188,65.1078,2.3183],[-172.1953,65.1088,2.556],[-172.1943,65.112,0.0],[-172.2,65.1146,0.4619],[-172.2057,65.1151,1.6826],[-172.2047,65.1182,0.0],[-172.2125,65.1188,0.2682],[-172.2141,65.1203,0.2256],[-172.2088,65.1214,0.0],[-172.2099,65.1266,0.0],[-172.2057,65.1307,2.0897],[-172.1943,65.1339,0.0],[-172.1891,65.1412,4.5553],[-172.1771,65.1417,1.2586],[-172.1687,65.1375,0.3417],[-172.1646,65.1396,0.9331],[-172.1583,65.1396,0.64],[-172.1542,65.1375,0.7055],[-172.1505,65.1401,1.2543],[-172.1536,65.1422,1.9423],[-172.1526,65.1453,0.0],[-172.1703,65.1547,2.2492],[-172.1693,65.1578,0.0],[-172.1766,65.1609,2.6302],[-172.1755,65.1641,0.0],[-172.1849,65.1693,2.6047],[-172.1839,65.1745,0.0],[-172.1911,65.1755,2.5704],[-172.1901,65.1807,0.0],[-172.1953,65.1839,1.7553],[-172.1943,65.1891,0.0],[-172.1974,65.1901,2.7133],[-172.1964,65.1932,0.0],[-172.1995,65.1943,2.601],[-172.1984,65.1974,0.0],[-172.2125,65.2021,0.5395],[-172.2229,65.2021,12.4019],[-172.2328,65.2047,7.9731],[-172.2359,65.2099,10.0074],[-172.2417,65.2125,4.2812],[-172.2521,65.2104,6.352],[-172.2536,65.2109,3.93],[-172.2526,65.2141,6.4658],[-172.2542,65.2146,4.989],[-172.2646,65.2146,0.0],[-172.2688,65.2125,7.8717],[-172.3062,65.2125,9.6002],[-172.3208,65.2083,13.3608],[-172.3292,65.2083,0.0],[-172.3333,65.2063,6.0264],[-172.3604,65.2063,0.0],[-172.3646,65.2042,21.6225],[-172.3687,65.2042,24.3813],[-172.3729,65.2063,0.0],[-172.3875,65.2063,1.5332],[-172.3917,65.2083,0.0],[-172.4021,65.2083,4.5472],[-172.4062,65.2104,7.7766],[-172.4208,65.2104,2.054],[-172.4271,65.2083,17.4255],[-172.4312,65.2104,10.1853],[-172.45,65.2104,5.4033],[-172.4542,65.2125,0.0],[-172.475,65.2125,19.8206],[-172.4896,65.2083,25.335],[-172.5083,65.2083,4.5255],[-172.5109,65.2047,8.5727],[-172.525,65.2,13.0294],[-172.5313,65.2021,0.0],[-172.5354,65.2,6.5381],[-172.5417,65.2,6.3481],[-172.5542,65.2042,0.4562],[-172.5688,65.2021,1.1853],[-172.5729,65.2042,0.0],[-172.5833,65.2042,9.9009],[-172.5901,65.2078,0.0],[-172.5958,65.2083,0.0],[-172.6016,65.2109,14.1224],[-172.6047,65.2141,3.8104],[-172.612,65.2172,11.1833],[-172.6109,65.2203,0.0],[-172.6167,65.2208,22.8935],[-172.625,65.225,10.3185],[-172.6557,65.2182,7.1375],[-172.6625,65.2125,10.3101],[-172.6833,65.2125,1.6018],[-172.687,65.2151,0.0],[-172.688,65.2182,0.0569],[-172.6953,65.2193,0.0],[-172.6839,65.2234,0.3394],[-172.6932,65.2297,0.547],[-172.688,65.2318,0.0],[-172.6911,65.2338,0.9325],[-172.6896,65.2375,0.0],[-172.6917,65.2417,-0.1915],[-172.6891,65.2453,-1.2534],[-172.6797,65.2464,0.0],[-172.6745,65.2516,4.1499],[-172.6604,65.2562,6.4054],[-172.65,65.2562,0.0],[-172.6453,65.2599,4.4729],[-172.6271,65.2646,4.9523],[-172.6,65.2646,0.0],[-172.5896,65.2583,5.0173],[-172.5688,65.2583,3.2262],[-172.5646,65.2562,0.2978],[-172.5562,65.2562,0.0],[-172.538,65.2516,32.2838],[-172.537,65.2484,11.8401],[-172.5339,65.2474,15.8354],[-172.5391,65.2453,0.0],[-172.5375,65.2438,0.0],[-172.5229,65.2438,6.2378],[-172.5125,65.2479,4.5363],[-172.4896,65.25,0.0],[-172.4854,65.2521,7.6242],[-172.4771,65.2521,0.0],[-172.4729,65.2542,3.6216],[-172.4625,65.2542,5.6721],[-172.4542,65.25,0.0],[-172.4396,65.25,0.0],[-172.4349,65.2536,-0.0301],[-172.4146,65.2604,0.0],[-172.3792,65.2604,0.0],[-172.375,65.2583,0.0],[-172.3583,65.2583,0.0],[-172.3542,65.2604,4.9236],[-172.35,65.2583,0.0],[-172.3396,65.2583,-0.1422],[-172.3354,65.2604,4.7894],[-172.3125,65.2604,0.0],[-172.3083,65.2625,11.5041],[-172.2937,65.2625,0.0],[-172.2896,65.2604,0.0],[-172.2646,65.2604,10.7847],[-172.2521,65.2542,0.0],[-172.2333,65.2542,0.0],[-172.2266,65.2505,0.0],[-172.2167,65.2479,0.0],[-172.2125,65.25,5.1314],[-172.2042,65.25,-0.5],[-172.1964,65.2526,0.0],[-172.1932,65.2578,0.0],[-172.1818,65.2609,45.4261],[-172.1849,65.263,47.4993],[-172.1839,65.2662,0.0],[-172.1896,65.2667,33.5774],[-172.1917,65.2688,32.9056],[-172.1776,65.2911,29.7529],[-172.1807,65.2922,71.3148],[-172.1797,65.2953,18.1463],[-172.188,65.2995,21.1539],[-172.2063,65.3021,10.9348],[-172.2088,65.3057,0.0],[-172.2161,65.3068,12.3184],[-172.213,65.3141,0.0],[-172.2161,65.3151,10.3491],[-172.2151,65.3182,1.61],[-172.2182,65.3203,8.1857],[-172.213,65.3287,1.6927],[-172.2161,65.3307,6.779],[-172.212,65.337,6.1281],[-172.2068,65.338,0.0],[-172.2099,65.3411,9.5444],[-172.2036,65.3516,11.662],[-172.1984,65.3526,0.0],[-172.1943,65.3568,0.0],[-172.1974,65.3599,20.1542],[-172.1943,65.3651,5.7379],[-172.1943,65.3682,17.4727],[-172.2,65.3688,18.0326],[-172.2016,65.3703,17.6106],[-172.1901,65.3714,12.8879],[-172.1818,65.3839,0.0],[-172.1849,65.387,13.3687],[-172.1797,65.388,5.1513],[-172.1776,65.3901,3.4545],[-172.1734,65.3984,4.4087],[-172.1766,65.4016,8.2427],[-172.1651,65.4047,0.0],[-172.163,65.4078,0.0],[-172.1662,65.4099,7.7992],[-172.1609,65.4109,4.3379],[-172.1568,65.4151,0.0],[-172.1599,65.4182,4.0585],[-172.1547,65.4193,3.8958],[-172.1526,65.4213,9.4239],[-172.1526,65.4245,1.6055],[-172.1625,65.425,4.0843],[-172.175,65.4313,0.0],[-172.1911,65.4307,0.1293],[-172.1891,65.4276,0.0],[-172.1833,65.4271,4.0481],[-172.1776,65.4245,4.0715],[-172.1776,65.4213,4.0096],[-172.1828,65.4203,1.9884],[-172.1875,65.4167,2.8953],[-172.1958,65.4167,1.103],[-172.1974,65.4151,2.4052],[-172.1891,65.4109,3.5341],[-172.1818,65.4099,2.0459],[-172.1776,65.4068,4.3731],[-172.1797,65.4026,5.6762],[-172.1911,65.4016,2.6405],[-172.1938,65.3979,17.957],[-172.2057,65.4005,6.0472],[-172.2125,65.4042,3.2704],[-172.2182,65.4047,3.8336],[-172.2161,65.4078,3.2621],[-172.2109,65.4089,2.3064],[-172.2109,65.412,2.6566],[-172.2125,65.4125,1.8937],[-172.2182,65.412,2.1623],[-172.2214,65.4089,2.185],[-172.2292,65.4063,1.5],[-172.2328,65.4068,3.0883],[-172.2375,65.4104,2.5207],[-172.2542,65.4104,1.6077],[-172.2583,65.4083,2.97],[-172.2708,65.4083,0.0],[-172.275,65.4063,3.207],[-172.2812,65.4063,3.3511],[-172.2854,65.4083,0.0],[-172.2937,65.4083,2.8012],[-172.3021,65.4125,0.0019],[-172.3125,65.4125,2.8771],[-172.3188,65.4083,4.9578],[-172.3292,65.4083,2.2945],[-172.3333,65.4104,0.8729],[-172.3375,65.4104,6.7726],[-172.3391,65.4109,8.5644],[-172.338,65.4161,0.7826],[-172.3422,65.4182,0.7363],[-172.3646,65.4229,17.0643],[-172.3729,65.4271,8.5933],[-172.3786,65.4276,4.6377],[-172.3828,65.4297,3.7426],[-172.3818,65.4328,0.0],[-172.3875,65.4333,4.1439],[-172.3932,65.4359,2.6924],[-172.3979,65.4458,-0.5],[-172.3963,65.4495,0.0],[-172.3995,65.4505,0.3172],[-172.3984,65.4537,0.1587],[-172.4021,65.4542,0.0719],[-172.4062,65.4521,0.0],[-172.4146,65.4563,0.2014],[-172.4245,65.4568,0.1411],[-172.4354,65.4625,0.0],[-172.4458,65.4625,0.0],[-172.4474,65.4641,0.3311],[-172.4438,65.4667,-0.0016],[-172.4312,65.4667,0.2545],[-172.4266,65.4724,4.1216],[-172.4187,65.475,0.0],[-172.4104,65.475,0.0],[-172.4062,65.4771,1.1103],[-172.3917,65.4771,6.8044],[-172.3875,65.475,0.0],[-172.3771,65.475,2.9558],[-172.3729,65.4729,0.0],[-172.3479,65.4729,0.0],[-172.3417,65.475,10.1583],[-172.3318,65.4724,13.5197],[-172.325,65.4688,12.7698],[-172.3104,65.4688,0.0],[-172.3026,65.4714,0.0],[-172.2984,65.4755,0.0],[-172.3057,65.4797,17.5537],[-172.3047,65.4828,0.0],[-172.312,65.4838,18.3919],[-172.313,65.487,13.9412],[-172.3193,65.4912,0.0],[-172.3286,65.4922,51.365],[-172.3276,65.4953,10.8672],[-172.3495,65.5068,33.3666],[-172.3484,65.5099,0.0],[-172.362,65.5109,137.8338],[-172.3651,65.5162,0.0],[-172.3708,65.5167,144.3138],[-172.3766,65.5193,155.9834],[-172.3755,65.5224,17.7848],[-172.3813,65.525,20.1962],[-172.387,65.5255,41.6521],[-172.3953,65.5297,16.8779],[-172.4016,65.5339,0.0],[-172.4036,65.538,12.8423],[-172.4036,65.5411,11.186],[-172.4018,65.543,7.2569],[-172.4117,65.5399,17.7092],[-172.468,65.5131,163.1848],[-172.5017,65.5347,78.3272],[-172.6339,65.4899,72.2107],[-172.877,65.4331,115.3011],[-172.9248,65.3769,149.9598],[-173.0064,65.3093,251.1445],[-173.1523,65.2567,262.5868],[-173.2304,65.2429,376.9701],[-173.3108,65.2325,499.9261],[-173.3644,65.2143,398.2763],[-173.3746,65.1791,308.6271],[-173.4215,65.1313,281.4967],[-173.4675,65.1213,209.5358],[-173.5417,65.1529,227.4086],[-173.5402,65.1999,322.755],[-173.5663,65.2441,311.1319],[-173.4819,65.3009,129.8433],[-173.5187,65.3639,272.6904],[-173.4488,65.4325,264.6608],[-173.4715,65.4651,390.2885],[-173.5095,65.4497,353.095],[-173.5333,65.4223,433.8303],[-173.5695,65.4175,215.4513],[-173.5862,65.4451,138.4994],[-173.5507,65.4999,199.9042],[-173.5308,65.5669,147.1635],[-173.5044,65.6347,137.9516],[-173.5238,65.6899,115.6844],[-173.5939,65.7093,186.8467],[-173.7213,65.6737,138.748],[-173.8011,65.7217,33.7292],[-173.7652,65.7759,45.6433],[-173.8196,65.8233,24.5105],[-173.9253,65.8367,28.5891],[-173.9604,65.8555,21.2957],[-173.9377,65.9265,85.5794],[-173.9028,66.0135,7.9807],[-173.9423,66.0793,11.4739],[-173.9862,66.0683,3.6646],[-174.0421,66.0305,38.3142],[-174.1767,66.0049,141.1499],[-174.2304,65.9809,206.5015],[-174.2173,65.9057,67.1644],[-174.2235,65.8429,106.3453],[-174.3195,65.7807,241.2615],[-174.3895,65.7491,244.3483],[-174.3541,65.7059,226.3952],[-174.2914,65.6969,697.778],[-174.2057,65.6983,335.5664],[-174.2553,65.6529,265.5397],[-174.3672,65.6251,158.8541],[-174.4995,65.6113,135.0048],[-174.5726,65.5729,189.0327],[-174.6039,65.5307,308.4065],[-174.6852,65.4873,245.2698],[-174.7486,65.4873,418.2458],[-174.7843,65.5241,253.5197],[-174.8927,65.5331,162.124],[-174.869,65.5729,203.8654],[-174.9452,65.5989,289.3162],[-174.923,65.6455,339.8817],[-174.9469,65.6775,290.9686],[-175.0483,65.6727,250.8229],[-175.099,65.6737,252.8707],[-175.1245,65.7055,335.3062],[-175.2288,65.7359,190.9419],[-175.2629,65.7765,212.658],[-175.1719,65.8333,155.9374],[-175.1538,65.9091,197.6538],[-175.2126,65.9225,294.0688],[-175.2704,65.9413,251.6898],[-175.2865,65.9721,161.2013],[-175.3485,65.9791,160.74],[-175.4357,65.9651,335.2887],[-175.3699,66.0109,107.9585],[-175.3342,66.0927,167.1308],[-175.1734,66.1407,159.4587],[-175.0352,66.1747,157.3421],[-175.0121,66.2159,118.7436],[-175.0302,66.3263,114.6618],[-175.058,66.4027,40.9561],[-175.0329,66.4399,105.4573],[-174.9684,66.4909,65.6102],[-174.9612,66.5091,31.162]]],
[[[-174.9104,66.6792,0.2461],[-174.9141,66.6787,0.2665],[-174.9141,66.6776,0.1987],[-174.9089,66.6776,0.0],[-174.9104,66.6792,0.2461]]]]}}