{"type":"Feature","properties":{"GID_2":"RUS.35.11_1","GID_0":"RUS","country":"Russia","GID_1":"RUS.35_1","province":"Krasnoyarsk","NL_NAME_1":"Красноярскийкрай","county":"Bol'sheuluyskiyrayon","VARNAME_2":"NA","NL_NAME_2":"Большеулуйскийрайон","TYPE_2":"Raion","ENGTYPE_2":"District","CC_2":"R62090","HASC_2":"RU.KY.BL","name":"Bol'sheuluyskiyrayon.county"},
"geometry":{"type": "MultiPolygon","coordinates": [[[[91.2371,56.5201,337.0728],[91.2957,56.5447,339.5767],[91.3299,56.5666,327.3886],[91.3924,56.6107,325.7864],[91.3988,56.6618,293.9294],[91.3704,56.7193,275.8531],[91.3752,56.7666,290.2094],[91.3242,56.7995,282.1575],[91.2304,56.8117,223.8616],[91.1338,56.8135,225.0965],[91.0458,56.8004,274.142],[90.9642,56.7912,271.9208],[90.8517,56.8073,215.7812],[90.7532,56.8455,204.0129],[90.6958,56.8575,185.1158],[90.6543,56.8596,180.3247],[90.591,56.8343,179.6973],[90.3996,56.7819,216.695],[90.3282,56.7437,237.9383],[90.2907,56.6992,247.9535],[90.3046,56.6525,220.0791],[90.308,56.6169,209.7493],[90.2709,56.588,222.8425],[90.198,56.58,217.3902],[90.1355,56.5913,248.4594],[90.1046,56.6228,238.3433],[90.0937,56.6578,262.8371],[90.1383,56.7232,242.5825],[90.1426,56.7476,235.841],[90.0951,56.7546,221.2901],[90.0184,56.7444,214.1028],[89.9783,56.6875,230.2857],[89.9578,56.6434,235.558],[89.9509,56.6124,240.6484],[89.9481,56.5762,270.5534],[89.9568,56.542,278.7789],[89.9717,56.5046,271.2909],[89.9523,56.4614,249.883],[90.0285,56.4781,262.6185],[90.1221,56.4944,265.498],[90.2476,56.5133,227.0371],[90.3457,56.516,198.2361],[90.3783,56.4966,193.5088],[90.4289,56.4723,199.0854],[90.4238,56.4332,189.9734],[90.4478,56.3846,194.489],[90.5018,56.3707,296.0263],[90.6055,56.3755,279.4521],[90.6254,56.3927,280.0137],[90.6644,56.4217,286.6553],[90.7145,56.4496,249.0053],[90.779,56.4704,233.7138],[90.8655,56.4911,226.9178],[91.0708,56.5109,302.2348],[91.1534,56.5136,333.1544],[91.2371,56.5201,337.0728]]]]}}