{"type":"Feature","properties":{"GID_2":"RUS.35.29_1","GID_0":"RUS","country":"Russia","GID_1":"RUS.35_1","province":"Krasnoyarsk","NL_NAME_1":"Красноярскийкрай","county":"Kezhemskiyrayon","VARNAME_2":"NA","NL_NAME_2":"Кежемскийрайон","TYPE_2":"Raion","ENGTYPE_2":"District","CC_2":"R62092","HASC_2":"RU.KY.KE","name":"Kezhemskiyrayon.county"},
"geometry":{"type": "MultiPolygon","coordinates": [[[[100.792,57.4818,349.0939],[100.8276,57.477,333.574],[100.8729,57.5015,313.1263],[100.8488,57.5739,350.2174],[100.7671,57.6007,364.2634],[100.7171,57.6814,357.1748],[100.7304,57.7207,273.4242],[100.7743,57.7827,306.2669],[100.7218,57.8314,241.1586],[100.7144,57.8863,283.1029],[100.7774,57.8925,478.8267],[100.8566,57.8703,429.0418],[100.9743,57.8789,396.189],[100.9596,57.9101,344.941],[100.9776,57.9384,396.8391],[101.0465,57.9691,428.9112],[101.148,58.0463,425.9195],[101.0653,58.0733,431.0565],[101.0772,58.1163,377.2514],[101.1759,58.1422,334.7106],[101.2477,58.1985,389.8532],[101.3416,58.2325,315.0101],[101.4699,58.247,329.5645],[101.5485,58.314,346.3801],[101.5792,58.3732,307.4857],[101.6186,58.4231,336.3709],[101.7013,58.4626,335.3537],[101.8127,58.4668,278.5357],[101.9421,58.4808,260.6681],[102.0785,58.5129,293.0345],[102.1598,58.5521,310.2144],[102.2094,58.6026,250.205],[102.2595,58.6412,308.9908],[102.3266,58.6585,218.6868],[102.4318,58.6907,263.023],[102.4961,58.7518,247.7379],[102.4913,58.8259,190.0733],[102.4708,58.8884,330.9506],[102.4179,58.924,323.2102],[102.3609,58.9724,303.045],[102.3209,59.0443,300.0088],[102.3526,59.1188,404.2247],[102.4009,59.1673,415.3103],[102.3256,59.195,415.8817],[102.2959,59.2365,444.4897],[102.4092,59.3059,405.9319],[102.363,59.3459,349.0258],[102.386,59.3857,379.3672],[102.4353,59.3949,380.175],[102.5204,59.3953,394.1399],[102.5549,59.4157,410.9471],[102.5743,59.461,406.0118],[102.399,59.5204,391.3806],[102.3652,59.5774,370.1488],[102.4205,59.6139,387.7089],[102.4163,59.6622,403.3995],[102.3146,59.6611,365.7056],[102.2012,59.6655,362.918],[102.1193,59.6047,388.1873],[102.0355,59.6104,347.8287],[101.9605,59.6405,402.1641],[101.853,59.6737,370.4429],[101.7549,59.683,384.502],[101.7228,59.727,349.3073],[101.6611,59.734,336.1909],[101.5405,59.7451,378.3355],[101.4138,59.7362,365.5107],[101.3399,59.7131,384.7575],[101.2517,59.7065,362.991],[101.0769,59.7157,345.6456],[100.8541,59.7367,319.7028],[100.8018,59.775,350.3327],[100.7201,59.7953,373.0124],[100.6226,59.7691,360.3218],[100.5866,59.8055,369.5089],[100.4615,59.7983,335.4332],[100.4218,59.8401,329.0213],[100.158,59.8608,341.0124],[99.9945,59.9012,346.2393],[99.9781,59.9674,304.7805],[99.9411,60.0089,365.1805],[99.8801,60.0214,357.4339],[99.8044,60.0329,357.3931],[99.8488,59.9896,335.0836],[99.8562,59.9415,303.2173],[99.8417,59.8943,282.6052],[99.7889,59.8804,332.7856],[99.6458,59.8324,272.4582],[99.5947,59.8058,263.3831],[99.5654,59.7792,277.4785],[99.5825,59.7284,300.007],[99.623,59.6959,290.4448],[99.7239,59.6874,293.4103],[99.8059,59.6869,285.1294],[99.8722,59.6463,236.664],[99.8851,59.6127,292.4838],[99.9052,59.5845,275.6552],[99.9561,59.5592,317.2368],[99.9903,59.5038,267.6059],[100.0213,59.3854,315.2733],[100.0217,59.3097,302.4916],[100.0433,59.2195,283.7076],[100.0173,59.1208,325.8852],[99.9421,59.0329,325.9194],[99.8349,58.985,326.3495],[99.7245,58.9415,324.3987],[99.62,58.8971,358.985],[99.3391,58.8413,296.6875],[99.155,58.793,462.4176],[99.0838,58.7823,298.7916],[99.0113,58.7678,299.4305],[98.8889,58.718,217.4738],[98.8975,58.6642,134.5],[98.9328,58.6235,295.5243],[98.982,58.5792,327.6959],[99.0303,58.5423,311.0229],[99.081,58.5153,258.3568],[99.1152,58.4727,299.1855],[99.125,58.4381,325.6782],[99.114,58.4041,298.8063],[99.0474,58.3769,414.3517],[99.0135,58.3537,403.2403],[98.9863,58.3077,325.2636],[99.0375,58.246,274.8975],[99.0884,58.22,249.8998],[99.1557,58.1932,313.4515],[99.219,58.192,338.3185],[99.3176,58.2212,358.8438],[99.3945,58.2346,347.154],[99.4332,58.223,340.1874],[99.4542,58.1884,361.0995],[99.4884,58.1456,311.7034],[99.5217,58.1092,291.9813],[99.5624,58.0738,279.19],[99.6982,58.0901,338.7234],[99.7421,58.0666,332.4548],[99.8031,58.0614,345.3362],[99.9314,58.0902,297.5626],[99.9909,58.0657,323.8442],[100.0448,58.0301,294.1966],[99.9905,57.987,289.9598],[99.9685,57.9485,390.7212],[100.0167,57.8992,280.962],[100.0049,57.8635,324.964],[100.0578,57.838,326.8517],[100.1531,57.8346,329.311],[100.2571,57.8155,367.9125],[100.2464,57.7761,319.8983],[100.3233,57.7405,340.9905],[100.2865,57.6837,347.0408],[100.3658,57.6389,391.8964],[100.3206,57.6051,354.5406],[100.3439,57.584,328.5909],[100.3441,57.5502,351.5444],[100.4633,57.5008,436.2519],[100.5501,57.4869,425.216],[100.5972,57.4274,370.3608],[100.6625,57.4254,364.6001],[100.6816,57.4628,362.0167],[100.7369,57.4892,337.5908],[100.792,57.4818,349.0939]]]]}}