{"type":"Feature","properties":{"GID_3":"RUS.35.6.1_1","GID_0":"RUS","country":"Russia","GID_1":"RUS.35_1","province":"Krasnoyarsk","NL_NAME_1":"Красноярскийкрай","GID_2":"RUS.35.6_1","county":"Birilyusskiyrayon","NL_NAME_2":"Бирилюсскийрайон","city":"NA","VARNAME_3":"NA","NL_NAME_3":"NA","TYPE_3":"NA","ENGTYPE_3":"NA","CC_3":"NA","HASC_3":"NA","name":"N_A.city"},
"geometry":{"type": "MultiPolygon","coordinates": [[[[91.6981,57.0125,211.6569],[91.6112,57.009,212.9516],[91.504,57.049,212.5168],[91.4307,57.1107,246.5862],[91.4028,57.1914,256.2576],[91.439,57.2345,245.7348],[91.5274,57.2694,236.477],[91.5694,57.323,227.8129],[91.5625,57.3832,219.9732],[91.6054,57.423,218.7486],[91.6411,57.4458,225.6678],[91.6346,57.4692,204.5194],[91.5747,57.4833,221.8332],[91.4892,57.4799,218.612],[91.4036,57.493,203.8528],[91.3355,57.5091,185.4812],[91.2964,57.5394,190.9288],[91.2629,57.5737,194.2781],[91.2755,57.6169,182.8387],[91.3021,57.6538,221.0437],[91.3147,57.6842,200.5033],[91.2753,57.7015,212.1259],[91.2109,57.7097,186.9178],[91.1772,57.6998,168.2766],[91.1175,57.6898,178.891],[91.0576,57.6936,183.2722],[91.0293,57.7071,192.6298],[90.9857,57.7318,179.6269],[90.9226,57.699,191.3578],[90.849,57.7026,201.5527],[90.7636,57.637,216.5489],[90.6165,57.6172,178.8833],[90.5293,57.6545,161.7646],[90.5126,57.7352,162.7226],[90.5066,57.8047,166.8521],[90.5712,57.8633,191.3905],[90.6102,57.9281,183.8038],[90.5621,57.9611,184.1733],[90.4815,57.9603,156.2315],[90.3209,57.9345,168.7021],[90.175,57.9043,163.6332],[89.9879,57.8805,179.0809],[89.7892,57.8389,181.8109],[89.7636,57.8053,164.727],[89.6959,57.7654,164.4809],[89.6737,57.7146,176.7858],[89.6776,57.6485,195.7599],[89.7051,57.5881,213.6752],[89.7418,57.5331,169.3998],[89.7742,57.4741,156.5193],[89.7851,57.4113,173.7852],[89.7712,57.3585,180.8665],[89.7783,57.2788,198.4355],[89.7791,57.2226,218.6846],[89.7746,57.1614,187.2246],[89.7219,57.1162,222.2075],[89.6608,57.0813,210.4705],[89.6015,57.0586,218.5273],[89.582,57.0274,205.9082],[89.6362,56.9805,182.6342],[89.7122,56.9503,204.9344],[89.7771,56.9448,195.3314],[89.8395,56.9254,202.1607],[89.9101,56.878,207.514],[89.9593,56.8158,221.8319],[89.9945,56.7783,233.6482],[90.0184,56.7444,214.1028],[90.0951,56.7546,221.2901],[90.1426,56.7476,235.841],[90.1383,56.7232,242.5825],[90.0937,56.6578,262.8371],[90.1046,56.6228,238.3433],[90.1355,56.5913,248.4594],[90.198,56.58,217.3902],[90.2709,56.588,222.8425],[90.308,56.6169,209.7493],[90.3046,56.6525,220.0791],[90.2907,56.6992,247.9535],[90.3282,56.7437,237.9383],[90.3996,56.7819,216.695],[90.591,56.8343,179.6973],[90.6543,56.8596,180.3247],[90.6958,56.8575,185.1158],[90.7532,56.8455,204.0129],[90.8517,56.8073,215.7812],[90.9642,56.7912,271.9208],[91.0458,56.8004,274.142],[91.1338,56.8135,225.0965],[91.2304,56.8117,223.8616],[91.3242,56.7995,282.1575],[91.3752,56.7666,290.2094],[91.3704,56.7193,275.8531],[91.3988,56.6618,293.9294],[91.4599,56.6535,315.5618],[91.5104,56.659,314.4653],[91.5598,56.6765,302.9909],[91.6734,56.6839,322.8232],[91.7513,56.6748,271.7884],[91.7967,56.6872,255.7569],[91.8096,56.7028,252.3448],[91.7862,56.7425,252.2037],[91.7265,56.7859,287.3452],[91.7315,56.8203,284.3771],[91.6961,56.8618,278.5032],[91.6936,56.9185,241.3728],[91.6772,56.9559,225.5144],[91.6981,57.0125,211.6569]]]]}}