{"type":"Feature","properties":{"GID_3":"RUS.2.3.1_1","GID_0":"RUS","country":"Russia","GID_1":"RUS.2_1","province":"Altay","NL_NAME_1":"Алтайскийкрай","GID_2":"RUS.2.3_1","county":"Altayskiyrayon","NL_NAME_2":"Алтайскийрайон","city":"NA","VARNAME_3":"NA","NL_NAME_3":"NA","TYPE_3":"NA","ENGTYPE_3":"NA","CC_3":"NA","HASC_3":"NA","name":"N_A.city"},
"geometry":{"type": "MultiPolygon","coordinates": [[[[84.7675,51.7116,731.6099],[84.7715,51.6598,772.9755],[84.7627,51.6249,800.1997],[84.7422,51.6079,892.3708],[84.7921,51.5664,987.3848],[84.7947,51.5218,1131.6492],[84.8169,51.481,1111.0222],[84.8276,51.4311,1286.0205],[84.8969,51.4391,1179.3669],[84.9561,51.4765,1300.9009],[85.0274,51.495,915.4175],[85.0983,51.5069,1138.8621],[85.1543,51.5026,1517.2498],[85.2319,51.5087,1062.8386],[85.3202,51.5424,887.6478],[85.3918,51.5644,1175.2122],[85.4848,51.5743,859.0617],[85.4615,51.6355,1027.6431],[85.5255,51.6824,1172.7837],[85.5929,51.7205,745.7278],[85.6462,51.736,1008.1911],[85.6791,51.7413,716.2548],[85.7187,51.7653,550.7825],[85.752,51.7939,588.48],[85.7491,51.8345,321.3655],[85.7527,51.8573,299.2475],[85.7985,51.8773,277.2229],[85.8509,51.8879,285.5194],[85.8296,51.9289,265.4188],[85.8298,51.982,263.2456],[85.8077,52.0126,315.5028],[85.7844,52.0384,368.7087],[85.733,52.0288,535.9167],[85.671,52.0067,422.1913],[85.598,52.01,461.9745],[85.5654,52.0643,358.7552],[85.5284,52.1096,294.9922],[85.4576,52.1346,218.0441],[85.4172,52.1161,221.7125],[85.3864,52.1166,239.9943],[85.3502,52.1229,232.3926],[85.2813,52.1266,285.1659],[85.2478,52.1183,215.9788],[85.2017,52.0906,237.4704],[85.1686,52.0852,251.5292],[85.1171,52.0874,281.029],[85.0128,52.0562,229.9716],[84.9939,52.034,236.553],[84.9838,52.013,253.7291],[85.0163,51.969,523.9976],[85.0205,51.9388,755.1868],[85.0046,51.9132,646.2642],[85.0299,51.8757,868.9501],[85.0407,51.852,739.0244],[85.0328,51.8295,705.1002],[84.9773,51.7965,646.5265],[84.8383,51.7516,879.7396],[84.7986,51.7404,692.9198],[84.7675,51.7116,731.6099]]]]}}