{"type":"Feature","properties":{"GID_2":"RUS.35.15_1","GID_0":"RUS","country":"Russia","GID_1":"RUS.35_1","province":"Krasnoyarsk","NL_NAME_1":"Красноярскийкрай","county":"Dudinkagorsovet","VARNAME_2":"Dudinka","NL_NAME_2":"Дудинка(горсовет)","TYPE_2":"Gorsovet","ENGTYPE_2":"District","CC_2":"R62020","HASC_2":"RU.TM.DU","name":"Dudinkagorsovet.county"},
"geometry":{"type": "MultiPolygon","coordinates": [[[[85.7536,72.3881,29.962],[85.9609,72.4028,34.0378],[86.0674,72.4216,45.8066],[86.171,72.4592,44.681],[86.2963,72.4735,54.7148],[86.656,72.4553,41.2276],[86.9428,72.4997,74.9667],[87.1175,72.4185,111.2805],[87.4619,72.4622,88.1825],[87.6868,72.4687,44.4254],[87.8232,72.4422,48.1386],[87.8895,72.4086,45.4784],[88.0413,72.4121,46.8275],[88.1678,72.3661,48.1052],[88.3635,72.3457,52.2763],[88.4842,72.3424,60.1989],[88.5974,72.2803,99.3242],[88.7477,72.2383,95.0645],[88.8204,72.0849,42.8031],[88.9041,71.9726,39.3544],[88.8486,71.9151,19.3815],[88.7524,71.8853,17.8372],[88.6081,71.8854,29.8294],[88.5318,71.8565,46.2746],[88.4875,71.7772,40.4037],[88.5429,71.6878,21.2716],[88.6951,71.6303,34.9081],[88.8518,71.5899,38.7982],[88.9764,71.550299999999993,55.1333],[88.9976,71.5208,35.7036],[88.9121,71.4794,18.9651],[88.8061,71.4705,17.0996],[88.696,71.4734,18.5536],[88.5867,71.4465,18.9599],[88.4766,71.369,36.8962],[88.4208,71.3058,44.9348],[88.3312,71.2687,49.3885],[88.2648,71.2357,23.0088],[88.1773,71.2173,29.4396],[88.1969,71.1662,24.8112],[88.3512,71.1206,46.9516],[88.5053,71.0964,38.725],[88.6041,71.0016,46.8677],[88.6361,70.9681,38.139],[88.7276,70.9223,106.4015],[88.7991,70.8707,79.3672],[88.9261,70.8093,79.2906],[88.8458,70.7562,74.8487],[88.7119,70.7343,73.4535],[88.6668,70.6683,90.8605],[88.5512,70.6269,69.2347],[88.3404,70.6,80.8621],[88.1873,70.5719,73.6528],[88.0971,70.5308,76.8005],[88.0289,70.4911,66.4515],[87.9958,70.4676,72.7669],[87.9047,70.4626,36.5428],[87.7895,70.4934,50.3022],[87.6904,70.5121,40.0485],[87.4595,70.5081,153.0214],[87.2731,70.4938,93.9334],[87.1674,70.5286,83.5003],[87.0299,70.5697,71.4585],[87.0134,70.6161,46.4056],[86.9731,70.6516,101.4526],[86.8362,70.6628,129.0154],[86.7367,70.6633,68.5666],[86.6091,70.6675,48.2695],[86.6149,70.7043,46.1853],[86.4554,70.7107,112.265],[86.3036,70.7045,65.9923],[86.1584,70.7015,41.8002],[86.0194,70.7024,43.4434],[85.9048,70.6902,47.3847],[85.8042,70.6733,32.6621],[85.865,70.6218,39.1829],[86.0461,70.5894,36.5309],[86.1694,70.5434,36.5156],[86.234,70.4874,36.138],[86.235,70.4247,31.4388],[86.1864,70.3838,39.4202],[86.1587,70.349,37.9672],[86.2938,70.2811,42.5761],[86.3221,70.2045,46.3387],[86.2801,70.1301,44.8855],[86.1299,70.0747,49.868],[85.845,70.0198,45.4266],[85.5395,69.9776,44.0425],[85.3179,69.95,62.8249],[85.1261,69.934,69.895],[84.9676,69.9075,80.217],[84.6598,69.8763,90.2821],[84.7599,69.8312,97.2969],[84.8883,69.7792,-0.2636],[84.9492,69.7109,30.5993],[84.9609,69.6328,49.945],[84.8971,69.5671,62.7583],[84.7888,69.5003,55.2686],[84.6845,69.4488,5.8666],[84.6465,69.4229,40.5804],[84.6682,69.3975,31.3992],[84.7439,69.3552,26.6898],[84.7754,69.3062,19.1495],[84.7205,69.2845,10.0283],[84.6345,69.2365,26.1761],[84.5633,69.1595,28.8762],[84.5213,69.0523,24.7757],[84.523,68.8776,48.803],[84.5006,68.7393,53.0404],[84.4571,68.6676,25.8446],[84.3835,68.6072,87.287],[84.1773,68.573,90.7092],[83.9952,68.5455,32.8747],[83.8415,68.5374,11.0449],[83.7837,68.5055,57.0162],[83.8748,68.4568,92.0949],[83.8609,68.4084,81.1817],[83.7736,68.399,74.5709],[83.623,68.4023,91.8083],[83.5394,68.4393,111.9948],[83.4319,68.4815,22.9439],[83.3126,68.498,32.4667],[83.173,68.5001,94.9562],[82.9809,68.4968,37.0549],[82.8407,68.5166,94.0572],[82.7714,68.5322,91.0879],[82.7212,68.5506,85.98],[82.7287,68.5005,100.4346],[82.7508,68.4593,128.4698],[82.7815,68.4172,114.286],[82.7846,68.3873,85.3134],[82.7543,68.3523,107.5752],[82.8588,68.3014,45.7143],[82.9541,68.2731,81.3738],[83.0665,68.2484,48.8182],[83.1056,68.2089,54.1526],[83.101,68.1538,60.4795],[83.132,68.1418,34.4451],[83.2164,68.1397,17.3544],[83.2766,68.0787,53.7336],[83.069,67.9781,69.5117],[83.1334,67.927,82.225],[83.2454,67.9381,68.8568],[83.3232,67.8883,60.1666],[83.4395,67.8809,32.3659],[83.4287,67.8244,55.609],[83.5562,67.7691,47.064],[83.642,67.6881,68.2547],[83.6566,67.619,53.8556],[83.9698,67.622,48.2414],[84.1927,67.5436,49.5081],[84.2644,67.4659,48.8018],[84.3782,67.4438,51.0448],[84.3862,67.3414,63.7924],[84.5716,67.3137,68.2224],[84.6619,67.2097,81.0942],[84.8208,67.2121,87.2621],[84.9358,67.2806,95.6117],[85.0488,67.317,91.3199],[85.0055,67.3365,118.2269],[84.916,67.3537,125.5364],[84.9666,67.4257,78.7145],[85.0535,67.4559,100.6756],[85.059,67.4817,75.4173],[85.2312,67.5138,73.2124],[85.3084,67.5757,92.0621],[85.1834,67.6526,101.5067],[85.2504,67.7371,73.7269],[85.2695,67.7827,108.0001],[85.3852,67.7833,74.9106],[85.3875,67.848,113.6063],[85.5177,67.8722,103.7296],[85.6042,68.0197,144.3727],[85.7605,68.0393,110.1435],[86.1512,68.0451,44.5264],[86.3319,68.0809,46.6715],[86.4977,68.0651,42.5139],[86.5975,67.9612,50.2919],[86.7062,67.8384,46.1223],[86.8313,67.7159,72.2037],[86.9478,67.5956,77.3457],[87.1949,67.499,93.7205],[87.363,67.3871,76.4105],[87.5114,67.3386,72.2827],[87.5994,67.3628,87.1368],[87.7781,67.3544,138.957],[87.9029,67.4098,143.9899],[88.0212,67.4164,268.9616],[88.1144,67.3738,210.1674],[88.307,67.389,487.0809],[88.3878,67.4158,495.2149],[88.4958,67.3768,528.0375],[88.6249,67.4142,578.3463],[88.7039,67.4278,546.5286],[88.8158,67.3852,533.918],[89.014,67.3768,587.0565],[89.1638,67.4077,584.3981],[89.1992,67.4904,592.4626],[89.301,67.5134,586.9347],[89.3366,67.4555,541.2622],[89.506,67.4225,608.783],[89.6471,67.4597,521.2911],[89.8345,67.4478,624.9646],[89.9763,67.4894,500.5917],[90.0443,67.486,541.8212],[90.1746,67.4537,422.8553],[90.3664,67.4304,344.9843],[90.6182,67.4028,93.8804],[90.9044,67.4117,105.8254],[91.0505,67.4258,129.1528],[91.1893,67.4523,114.1485],[91.3082,67.4463,129.0626],[91.5459,67.5041,235.6139],[91.8233,67.6443,201.7432],[91.972,67.7716,264.5633],[92.029,67.8707,106.9989],[92.2693,67.9732,106.9809],[92.7788,68.1617,113.0451],[92.8694,68.2808,837.0788],[92.9558,68.3658,106.6333],[93.1295,68.4376,346.5602],[93.3393,68.4601,155.6241],[93.6104,68.4516,1009.9353],[93.7851,68.4211,348.9059],[93.9234,68.4149,958.9221],[94.0561,68.3818,893.4283],[94.2211,68.4037,273.9967],[94.2986,68.4647,414.4793],[94.2919,68.502,363.3324],[94.2218,68.5364,419.8225],[94.2224,68.568,556.5154],[94.146,68.5956,447.5017],[94.1182,68.633,651.0752],[94.1157,68.6869,476.1352],[94.1083,68.7407,455.6725],[94.0301,68.8129,913.7979],[93.9038,68.8514,970.1887],[93.711,68.8873,1115.6611],[93.4407,68.9155,984.7024],[93.2261,68.9337,1125.1547],[93.0353,68.9581,900.7271],[92.8353,68.9911,1126.5194],[92.6399,69.0425,1172.8307],[92.5459,69.1081,1166.0564],[92.4925,69.1655,985.842],[92.3615,69.2507,1366.4406],[92.2757,69.2763,1184.1689],[92.1177,69.2958,1029.7218],[92.0087,69.3396,913.3574],[91.9264,69.4213,600.1804],[91.905,69.4718,1193.9943],[91.9379,69.5166,1032.2195],[92.0115,69.5567,950.1703],[92.0997,69.5938,1218.2491],[92.1218,69.6554,926.4035],[92.0344,69.7003,927.9716],[91.9421,69.7551,1062.5503],[91.8666,69.8216,1504.8192],[91.8411,69.8812,1063.9093],[91.9583,69.9151,978.0553],[92.1588,69.9608,1005.3631],[92.422,70.0025,880.9251],[92.6281,70.0304,1017.478],[92.769,70.0306,1045.2484],[92.8695,70.0329,1031.637],[93.0568,70.0503,999.8525],[93.1968,70.0309,925.0565],[93.4302,70.0388,971.4673],[93.5306,70.1078,775.3015],[93.5228,70.1488,897.0873],[93.5014,70.1894,723.9686],[93.5525,70.2235,682.7449],[93.5766,70.263,734.0084],[93.5294,70.3082,699.7322],[93.4729,70.3586,650.9846],[93.482,70.405,591.0103],[93.5676,70.432,498.4326],[93.5534,70.472,518.2039],[93.4716,70.4754,518.4195],[93.4552,70.5154,406.3992],[93.3345,70.5764,390.6273],[93.2879,70.6632,55.8589],[93.3752,70.6645,50.3641],[93.45,70.6838,42.6789],[93.639,70.7892,41.3934],[93.7601,70.8856,26.6719],[93.748,70.971,51.5294],[93.6722,71.0321,74.7372],[93.5891,71.1225,149.7652],[93.5462,71.231,49.9966],[93.5693,71.3317,44.47],[93.5289,71.3655,34.8172],[93.4123,71.3716,40.8897],[93.3444,71.4201,30.2927],[93.3741,71.448,27.2822],[93.4131,71.4781,30.9946],[93.4582,71.5195,34.7709],[93.4998,71.5775,34.015],[93.4818,71.6603,56.5658],[93.1617,71.9097,93.0804],[93.0407,72.0707,38.9493],[93.0571,72.1327,28.2625],[92.9906,72.1786,25.8791],[92.64,72.2001,20.4766],[92.3231,72.2065,29.7523],[92.2875,72.2302,15.7821],[92.2621,72.2571,25.8726],[92.1336,72.3209,28.1669],[91.977,72.3258,27.4074],[91.9529,72.3537,26.5866],[91.864,72.3715,16.1349],[91.8558,72.4103,8.8849],[91.949,72.4272,28.4573],[91.9409,72.4828,10.3679],[91.7789,72.5433,23.6911],[91.7064,72.6149,29.5566],[91.652,72.6864,7.1532],[91.4323,72.7491,19.3944],[91.2427,72.8474,9.723],[91.1412,72.9598,14.6142],[91.0779,73.0767,5.9763],[90.9693,73.1907,17.3611],[90.7164,73.27,2.5296],[90.4781,73.2715,30.9853],[90.3135,73.2545,9.4823],[90.1249,73.2269,25.698],[89.9466,73.2249,35.2436],[89.6235,73.2446,2.6735],[89.3502,73.2354,7.1352],[89.0904,73.2341,39.5789],[88.8589,73.2377,20.8889],[88.6159,73.2264,9.6024],[88.3867,73.2015,5.7821],[88.2012,73.1674,70.7769],[87.8846,73.0633,7.9641],[87.6366,73.0165,7.1846],[87.2339,72.989,6.4662],[86.9478,72.9719,57.4874],[86.7347,72.9818,40.0473],[86.4973,72.9654,94.9534],[86.3919,72.9375,-0.8068],[86.1265,72.951,5.9109],[85.8577,72.9525,121.355],[85.6278,72.9621,67.0893],[85.4941,72.9594,150.6681],[85.3519,72.9141,78.9715],[85.2481,72.8514,32.6206],[85.2266,72.7823,17.7141],[85.3372,72.6905,39.5646],[85.4135,72.6428,35.3402],[85.4897,72.5608,29.2957],[85.5908,72.5007,59.3978],[85.6962,72.4323,77.5207],[85.7536,72.3881,29.962]]]]}}