{"type":"Feature","properties":{"GID_3":"RUS.29.3.1_1","GID_0":"RUS","country":"Russia","GID_1":"RUS.29_1","province":"Khakass","NL_NAME_1":"РеспубликаХакасия","GID_2":"RUS.29.3_1","county":"Askizskiyrayon","NL_NAME_2":"Аскизскийрайон","city":"NA","VARNAME_3":"NA","NL_NAME_3":"NA","TYPE_3":"NA","ENGTYPE_3":"NA","CC_3":"NA","HASC_3":"NA","name":"N_A.city"},
"geometry":{"type": "MultiPolygon","coordinates": [[[[88.9743,53.6577,721.1315],[88.9361,53.618,648.4093],[88.83,53.5636,877.545],[88.8125,53.5471,791.2199],[88.8315,53.5031,848.3251],[88.8491,53.4746,987.4382],[88.8203,53.4442,1133.7635],[88.7747,53.3754,1035.2572],[88.7719,53.3421,1121.9443],[88.7868,53.3123,800.8401],[88.8303,53.3286,853.4674],[88.8759,53.3652,752.4064],[88.9161,53.3114,956.3345],[89.0014,53.2518,820.6827],[89.031,53.2088,871.3707],[89.0041,53.1933,962.0511],[88.9522,53.1863,855.3126],[88.9791,53.1568,893.9949],[89.0472,53.1415,974.5164],[89.0561,53.0973,1053.7108],[89.0198,53.0896,1334.2966],[89.0612,53.0797,1010.7402],[89.0912,53.0513,1185.2079],[89.1547,53.0365,1233.0487],[89.267,53.0405,914.5681],[89.3371,52.9903,781.5746],[89.3803,52.9226,709.1702],[89.3538,52.8627,640.3386],[89.4164,52.8209,599.7266],[89.538,52.7999,518.4973],[89.6844,52.8477,655.3853],[89.7396,52.8632,865.9489],[89.8117,52.861,810.5557],[89.9795,52.8707,536.169],[90.0646,52.8042,486.4077],[90.1029,52.7525,971.0812],[90.1697,52.7533,843.3928],[90.2169,52.7578,648.5811],[90.2108,52.8309,642.4024],[90.2412,52.9056,391.7995],[90.3057,52.9475,385.0009],[90.4138,52.9832,429.9568],[90.4984,53.0084,380.9798],[90.5333,53.0806,355.8732],[90.6476,53.1276,462.4889],[90.727,53.1714,353.8274],[90.8384,53.2492,315.1815],[90.8595,53.2758,311.5247],[90.8317,53.3331,481.64],[90.7919,53.3912,411.5177],[90.708,53.4316,626.2842],[90.6228,53.4315,561.0237],[90.5048,53.4182,582.0101],[90.4131,53.41,782.6497],[90.3538,53.4239,900.9199],[90.4318,53.4622,817.7122],[90.5298,53.4829,474.1672],[90.5847,53.5016,787.7524],[90.5962,53.5522,583.6075],[90.5088,53.55,590.238],[90.4659,53.5838,569.2538],[90.3684,53.5603,621.833],[90.3011,53.501,688.0145],[90.2141,53.4902,968.6918],[90.138,53.4446,987.5248],[90.0278,53.4242,1017.1459],[89.9533,53.4366,1236.6399],[89.929,53.496,1165.5215],[89.8819,53.4998,924.6014],[89.8466,53.5424,1049.6631],[89.7902,53.5665,1212.4771],[89.6475,53.5584,970.2471],[89.5477,53.5441,672.4459],[89.4663,53.5353,918.5306],[89.3756,53.5641,649.2933],[89.3008,53.5843,1071.2919],[89.209,53.5789,1412.8884],[89.1454,53.5984,1117.918],[89.1864,53.6283,1236.317],[89.2657,53.65,1417.869],[89.2948,53.6786,1629.6802],[89.3846,53.6921,1361.525],[89.4174,53.7238,1637.7484],[89.365,53.7739,1306.4329],[89.2594,53.7654,1421.4441],[89.2239,53.7723,1159.9396],[89.1795,53.7626,853.3271],[89.1217,53.7561,788.9332],[89.0831,53.7543,1158.8445],[89.0294,53.7445,1710.0277],[88.98,53.6636,859.0835],[88.9743,53.6577,721.1315]]]]}}