{"type":"Feature","properties":{"GID_3":"RUS.2.65.1_1","GID_0":"RUS","country":"Russia","GID_1":"RUS.2_1","province":"Altay","NL_NAME_1":"Алтайскийкрай","GID_2":"RUS.2.65_1","county":"Zarinskiyrayon","NL_NAME_2":"Заринскийрайон","city":"NA","VARNAME_3":"NA","NL_NAME_3":"NA","TYPE_3":"NA","ENGTYPE_3":"NA","CC_3":"NA","HASC_3":"NA","name":"N_A.city"},
"geometry":{"type": "MultiPolygon","coordinates": [[[[84.9133,53.4801,285.0083],[84.9608,53.4967,253.5565],[85.0069,53.5251,222.7619],[85.0566,53.5605,227.8962],[85.3086,53.7037,276.5068],[85.3579,53.6953,254.1515],[85.4277,53.7043,231.102],[85.4746,53.7362,261.522],[85.5431,53.7275,213.5683],[85.5736,53.7526,228.4753],[85.6391,53.7776,385.9096],[85.7208,53.7934,404.8566],[85.8351,53.7902,430.8203],[85.8931,53.7799,342.9984],[85.8887,53.7396,370.568],[85.8966,53.7091,323.5822],[85.9451,53.7022,312.0926],[86.0576,53.7032,273.5724],[86.114,53.7009,332.7465],[86.1474,53.6874,274.0291],[86.1737,53.6713,365.6011],[86.2492,53.6731,401.1367],[86.3375,53.6653,395.0722],[86.2711,53.7948,454.6028],[86.1859,53.8196,390.9453],[86.1798,53.8677,444.0062],[86.1606,53.9171,502.6865],[86.1098,53.9607,526.8325],[86.004,54.0014,549.899],[85.9141,54.0153,435.9817],[85.9016,54.0451,553.4193],[85.8101,54.067,454.8324],[85.7623,54.1313,451.3469],[85.6528,54.1491,407.6079],[85.602,54.1815,394.9002],[85.517,54.2106,453.8192],[85.4257,54.2004,321.1624],[85.3833,54.189,333.9562],[85.3298,54.1563,392.3135],[85.2439,54.1156,319.6828],[85.1966,54.0882,362.5114],[85.1515,54.0426,333.1367],[85.1542,53.9984,244.666],[85.1232,53.9333,288.2027],[84.9726,53.8922,215.2219],[84.814,53.86,243.4388],[84.7797,53.8248,267.7076],[84.747,53.8065,165.9628],[84.6657,53.802,167.6708],[84.6151,53.8165,168.3697],[84.5532,53.8193,166.593],[84.4812,53.7992,224.2804],[84.3922,53.7703,272.0477],[84.3877,53.738,241.7694],[84.416,53.676,284.5771],[84.4029,53.6491,252.0342],[84.3518,53.6495,245.043],[84.3043,53.6448,250.4855],[84.2823,53.6166,230.6344],[84.2679,53.5774,226.2739],[84.2769,53.5359,195.5787],[84.3395,53.4991,180.5361],[84.4005,53.5132,240.6152],[84.4978,53.5081,208.945],[84.5585,53.5071,258.1506],[84.7399,53.5542,270.9122],[84.800299999999993,53.5744,229.7084],[84.8404,53.5733,259.0883],[84.8507,53.5635,269.9755],[84.8443,53.5108,278.3751],[84.8772,53.4873,263.2478],[84.9133,53.4801,285.0083]]]]}}