{"type":"Feature","properties":{"GID_3":"RUS.60.15.1_1","GID_0":"RUS","country":"Russia","GID_1":"RUS.60_1","province":"Sakha","NL_NAME_1":"РеспубликаСаха","GID_2":"RUS.60.15_1","county":"Mirnyy","NL_NAME_2":"Мирный","city":"NA","VARNAME_3":"NA","NL_NAME_3":"NA","TYPE_3":"NA","ENGTYPE_3":"NA","CC_3":"NA","HASC_3":"NA","name":"N_A.city"},
"geometry":{"type": "MultiPolygon","coordinates": [[[[113.8946,62.493899999999996,343.1437],[113.904,62.504,352.0375],[113.8884,62.5224,327.9558],[113.8469,62.5263,305.3173],[113.8192,62.5114,341.899],[113.8195,62.4945,343.2562],[113.8801,62.4902,358.7588],[113.8946,62.493899999999996,343.1437]]]]}}