{"type":"Feature","properties":{"GID_2":"RUS.35.19_1","GID_0":"RUS","country":"Russia","GID_1":"RUS.35_1","province":"Krasnoyarsk","NL_NAME_1":"Красноярскийкрай","county":"Ermakovskiyrayon","VARNAME_2":"NA","NL_NAME_2":"Ермаковскийрайон","TYPE_2":"Raion","ENGTYPE_2":"District","CC_2":"R62091","HASC_2":"RU.KY.EK","name":"Ermakovskiyrayon.county"},
"geometry":{"type": "MultiPolygon","coordinates": [[[[92.1684,51.7925,1154.9852],[92.2012,51.7954,1199.5276],[92.2547,51.8152,1679.3818],[92.3262,51.8178,1798.3081],[92.3877,51.7964,1872.4119],[92.5635,51.8352,1631.8857],[92.6448,51.8577,1726.9144],[92.7601,51.8612,1562.741],[92.8262,51.852,1778.0728],[92.8986,51.9143,1563.3967],[92.9796,51.9624,1060.5698],[93.0305,51.964,1035.8412],[93.1297,52.0431,1523.5552],[93.1779,52.0469,1545.0664],[93.2493,52.1098,1282.2205],[93.3244,52.1451,1152.1525],[93.3659,52.1542,1202.9781],[93.415,52.1841,1140.4788],[93.5953,52.2057,1017.1472],[93.6365,52.3345,1332.2802],[93.7432,52.3834,1945.441],[93.7463,52.4877,1432.0684],[93.8513,52.5611,1672.1951],[93.8996,52.5787,1633.7446],[93.9066,52.6536,1373.5828],[93.9874,52.6813,1650.7639],[94.0427,52.7911,1738.1055],[94.0639,52.8123,1634.5745],[94.0055,52.8256,1641.022],[93.9565,52.866,1545.7825],[93.9303,52.9057,1590.2563],[93.8887,52.9106,1549.9258],[93.8186,52.9138,1695.0157],[93.7551,52.8953,1473.6436],[93.6871,52.8894,1321.5413],[93.6168,52.9007,1451.2585],[93.5452,52.9055,1497.9946],[93.5005,52.9036,1441.4279],[93.4866,52.8872,1021.6804],[93.4795,52.8518,1717.5452],[93.4347,52.8233,1717.306],[93.3712,52.8266,1810.5055],[93.325,52.8475,1511.1869],[93.2995,52.8799,1096.937],[93.295,52.9181,800.3183],[93.2691,52.9688,686.3768],[93.2436,53.0405,904.1758],[93.1892,53.1112,469.2521],[93.185,53.1439,392.3913],[93.2201,53.1673,401.197],[93.2464,53.1955,379.1456],[93.2508,53.2215,364.2318],[93.2157,53.2549,391.6392],[93.1555,53.2822,427.7273],[93.0145,53.2775,389.9571],[92.9546,53.2963,384.3654],[92.8881,53.3075,433.493],[92.7925,53.3028,304.5134],[92.7287,53.2938,350.0522],[92.6691,53.3254,305.3434],[92.6344,53.3752,445.7534],[92.5892,53.4315,442.8825],[92.5372,53.4819,488.294],[92.4716,53.5321,469.8954],[92.4072,53.5449,482.4719],[92.3445,53.5377,495.8521],[92.3462,53.5085,487.9836],[92.3079,53.4865,430.9596],[92.2061,53.4653,448.1271],[92.1054,53.456,402.5435],[92.0571,53.445,412.7535],[92.0252,53.3968,270.9257],[91.9933,53.3403,286.0782],[91.9694,53.2807,294.795],[91.9581,53.2084,312.8124],[91.9725,53.1379,406.6815],[91.9958,53.0736,459.6326],[92.0506,52.8794,849.3126],[92.0915,52.8219,1274.7256],[92.1167,52.7613,1003.7957],[92.1191,52.6805,1141.5334],[92.1047,52.6371,1159.0759],[92.1006,52.6138,779.2101],[92.1064,52.5167,946.5826],[92.1292,52.4466,1356.4214],[92.1537,52.3793,1900.7061],[92.143,52.3389,1577.8314],[92.0892,52.2831,1933.9058],[92.0054,52.2241,2163.4893],[91.8408,52.1928,1817.1438],[91.6355,52.1616,2119.9912],[91.5686,52.1617,1912.5634],[91.4383,52.127,2074.8586],[91.2991,52.0803,1823.9126],[91.2076,52.0457,2255.5674],[91.1457,52.0062,2119.019],[91.0732,51.9751,1842.7957],[91.041,51.9686,2302.1479],[91.0105,51.9246,2320.5449],[91.0607,51.9166,2142.7166],[91.1197,51.8672,1619.4146],[91.2259,51.8735,1687.0564],[91.3835,51.8923,2070.3154],[91.4619,51.8859,1925.5571],[91.5544,51.8472,1595.537],[91.6087,51.835,1154.8921],[91.7483,51.8574,1585.2644],[91.8202,51.8252,1587.1023],[91.8485,51.7765,1045.9813],[91.9503,51.7595,1367.2427],[92.0748,51.7692,1414.0393],[92.1391,51.7898,539.7947],[92.1684,51.7925,1154.9852]]]]}}