{"type":"Feature","properties":{"GID_2":"RUS.35.40_1","GID_0":"RUS","country":"Russia","GID_1":"RUS.35_1","province":"Krasnoyarsk","NL_NAME_1":"Красноярскийкрай","county":"Nizhneingashskiyrayon","VARNAME_2":"NA","NL_NAME_2":"Нижнеингашскийрайон","TYPE_2":"Raion","ENGTYPE_2":"District","CC_2":"R62092","HASC_2":"RU.KY.NI","name":"Nizhneingashskiyrayon.county"},
"geometry":{"type": "MultiPolygon","coordinates": [[[[97.4321,56.8086,257.3502],[97.3453,56.8048,289.1137],[97.3165,56.7495,262.0698],[97.2969,56.7025,288.2945],[97.2336,56.6809,274.6747],[97.1602,56.6536,333.1637],[97.0494,56.629,310.467],[96.912,56.6318,311.7912],[96.892,56.5984,298.0589],[96.831,56.5767,265.3144],[96.7234,56.551,305.8159],[96.639,56.5431,288.0853],[96.5434,56.5367,312.9552],[96.4382,56.5545,308.7772],[96.3237,56.5665,317.6434],[96.2618,56.5573,306.0298],[96.2135,56.5256,300.3758],[96.1824,56.4918,295.4761],[96.2576,56.4614,291.5285],[96.3429,56.4386,271.2027],[96.3615,56.4036,266.4269],[96.3512,56.3641,297.983],[96.3157,56.3366,284.9568],[96.1965,56.3255,345.4477],[96.1159,56.3074,290.3878],[96.1494,56.2748,315.4023],[96.2184,56.2788,305.4716],[96.2858,56.2682,348.8138],[96.2783,56.2289,349.325],[96.1693,56.2044,299.9679],[96.1368,56.1705,325.641],[96.1308,56.1248,302.7358],[96.165,56.084,289.0703],[96.2493,56.0631,310.9052],[96.2992,56.0547,304.3599],[96.3185,56.0189,284.6147],[96.2989,55.9846,305.3205],[96.2717,55.9492,316.2979],[96.2652,55.9199,295.513],[96.2882,55.8788,367.722],[96.3318,55.782,454.7633],[96.3936,55.7666,461.0846],[96.4752,55.7646,383.6971],[96.5307,55.7799,441.2929],[96.6238,55.7781,374.2144],[96.676,55.7888,369.0895],[96.7503,55.83,446.5938],[96.859,55.8839,405.6117],[96.8981,56.0213,385.3521],[97.0269,56.0302,447.9778],[97.0655,56.1076,333.5631],[97.1079,56.0959,323.1239],[97.1898,56.0979,336.5125],[97.2458,56.0602,399.6194],[97.2953,56.0786,325.2261],[97.3602,56.1247,387.0437],[97.3574,56.1956,260.2529],[97.3738,56.2205,298.0867],[97.4797,56.2156,365.0148],[97.4583,56.2789,349.7303],[97.4629,56.3855,215.653],[97.5404,56.3953,268.9111],[97.6604,56.4034,290.9648],[97.8157,56.411,302.5065],[97.791,56.4834,240.0659],[97.8331,56.5534,296.8444],[97.8147,56.5759,309.5547],[97.7604,56.5657,271.786],[97.6791,56.5869,284.2961],[97.7026,56.6594,235.4008],[97.7228,56.7984,216.5483],[97.6198,56.8109,282.3165],[97.5373,56.7918,335.1385],[97.4321,56.8086,257.3502]]]]}}