{"type":"Feature","properties":{"GID_3":"RUS.80.3.1_1","GID_0":"RUS","country":"Russia","GID_1":"RUS.80_1","province":"Yamal-Nenets","NL_NAME_1":"Ямало-НенецкийАОк","GID_2":"RUS.80.3_1","county":"Nadym","NL_NAME_2":"Надым","city":"NA","VARNAME_3":"NA","NL_NAME_3":"NA","TYPE_3":"NA","ENGTYPE_3":"NA","CC_3":"NA","HASC_3":"NA","name":"N_A.city"},
"geometry":{"type": "MultiPolygon","coordinates": [[[[72.536,65.4904,57.9276],[72.5935,65.5007,13.2172],[72.6391,65.5205,10.1973],[72.6198,65.5389,9.5344],[72.5612,65.5566,20.1623],[72.47,65.5404,15.4376],[72.4677,65.5173,14.8762],[72.492,65.4943,60.5815],[72.536,65.4904,57.9276]]]]}}