{"type":"Feature","properties":{"GID_3":"RUS.35.42.1_1","GID_0":"RUS","country":"Russia","GID_1":"RUS.35_1","province":"Krasnoyarsk","NL_NAME_1":"Красноярскийкрай","GID_2":"RUS.35.42_1","county":"Partizanskiyrayon","NL_NAME_2":"Партизанскийрайон","city":"NA","VARNAME_3":"NA","NL_NAME_3":"NA","TYPE_3":"NA","ENGTYPE_3":"NA","CC_3":"NA","HASC_3":"NA","name":"N_A.city"},
"geometry":{"type": "MultiPolygon","coordinates": [[[[94.6962,54.4824,1406.3608],[94.7855,54.5277,1085.7795],[94.7948,54.5791,1246.0208],[94.8556,54.5947,1145.947],[94.8713,54.6245,1542.9158],[94.8145,54.6765,1084.0215],[94.7709,54.6844,1145.0385],[94.7424,54.7249,919.4337],[94.7054,54.7385,1015.9844],[94.622,54.7645,1052.6287],[94.6075,54.8075,908.929],[94.6802,54.8419,1265.6873],[94.6734,54.8835,986.2643],[94.6208,54.8955,818.5389],[94.5608,54.8725,1339.3527],[94.4834,54.8814,1364.03],[94.4637,54.9241,1026.3022],[94.433,54.948,1160.0337],[94.3705,54.9694,895.9646],[94.2891,54.9706,796.5724],[94.2455,55.0512,900.178],[94.2922,55.0956,934.5032],[94.2183,55.099,991.3667],[94.1473,55.0734,1014.2534],[94.1065,55.1185,573.654],[94.1065,55.181399999999996,523.3203],[94.1566,55.236,544.8172],[94.2182,55.2593,526.5598],[94.2727,55.2312,609.6923],[94.351,55.2252,505.3296],[94.4397,55.2506,497.045],[94.5855,55.3089,453.3263],[94.6389,55.347,480.5405],[94.6413,55.3863,437.0875],[94.6254,55.4465,431.5271],[94.6064,55.4839,363.4937],[94.5587,55.5089,352.1692],[94.5424,55.5318,373.128],[94.5565,55.5526,364.7363],[94.568,55.5914,437.9307],[94.5528,55.6363,385.8334],[94.4883,55.6358,371.0344],[94.3566,55.6101,436.1806],[94.2383,55.6095,433.8478],[94.1775,55.5981,449.822],[94.087,55.5878,472.7845],[94.0003,55.6014,423.0992],[93.8447,55.4952,565.6458],[93.8578,55.4595,634.7394],[93.9285,55.4488,706.1301],[93.9413,55.4139,575.9773],[93.8935,55.3839,552.7614],[93.9026,55.3516,468.4534],[93.9664,55.3242,441.7527],[94.0189,55.2833,439.9279],[94.0476,55.2475,560.6721],[94.0554,55.2187,758.1107],[94.0144,55.1983,695.2068],[93.9742,55.1614,729.136],[93.9802,55.1171,564.8231],[93.9598,55.0805,636.3442],[93.9113,55.045,884.764],[93.8494,55.026,744.0233],[93.8051,54.978,750.6819],[93.7577,54.9416,779.1754],[93.6983,54.9099,974.2827],[93.6312,54.8933,901.5016],[93.5416,54.8807,880.0443],[93.5117,54.8461,813.3331],[93.4775,54.8158,952.4044],[93.4411,54.7909,1027.7771],[93.4782,54.743899999999996,1031.4363],[93.5506,54.7282,947.4517],[93.5985,54.6836,1074.8606],[93.6506,54.6466,1139.6039],[93.7045,54.6278,979.3201],[93.7874,54.6518,1111.6289],[93.9281,54.6406,1067.4668],[94.0319,54.66,1017.7218],[94.1207,54.6321,1061.3779],[94.2133,54.6161,1419.6614],[94.2297,54.556,1351.9182],[94.2829,54.5388,1467.3822],[94.3244,54.5528,1424.3298],[94.3812,54.6003,1272.6536],[94.4908,54.5977,1116.1158],[94.5533,54.5518,1259.397],[94.631,54.5365,1178.8163],[94.6589,54.5079,1473.9683],[94.6962,54.4824,1406.3608]]]]}}