{"type":"Feature","properties":{"GID_2":"RUS.2.13_1","GID_0":"RUS","country":"Russia","GID_1":"RUS.2_1","province":"Altay","NL_NAME_1":"Алтайскийкрай","county":"Egor'evskiyrayon","VARNAME_2":"NA","NL_NAME_2":"Егорьевскийрайон","TYPE_2":"Raion","ENGTYPE_2":"District","CC_2":"R53090","HASC_2":"RU.AL.EG","name":"Egor'evskiyrayon.county"},
"geometry":{"type": "MultiPolygon","coordinates": [[[[80.5343,51.4983,238.5753],[80.6006,51.4602,227.9427],[80.676,51.4524,234.4987],[80.7449,51.4425,238.9719],[80.806,51.4357,227.9885],[80.8254,51.4241,232.7317],[80.8308,51.4071,226.3204],[80.819,51.3697,224.6035],[80.8588,51.3504,223.3063],[80.8616,51.311,228.4857],[80.8955,51.304,223.9698],[80.9557,51.3046,224.2705],[80.9791,51.3156,224.2478],[80.9827,51.339,222.9588],[80.971,51.3844,221.1546],[80.9725,51.4094,221.0306],[81.0404,51.4256,220.6755],[81.059,51.4433,220.7104],[81.0436,51.4717,219.7264],[81.0273,51.5144,227.1477],[81.0498,51.5897,232.6446],[81.0927,51.642,239.2807],[81.1469,51.631,225.8309],[81.1999,51.6566,221.8797],[81.2646,51.6616,215.2367],[81.2975,51.6883,213.0199],[81.3173,51.7232,212.7386],[81.3138,51.7557,221.7212],[81.2886,51.7919,247.8172],[81.2493,51.8162,277.6793],[81.2546,51.8399,289.3058],[81.2655,51.8617,293.4844],[81.2666,51.9035,299.2533],[81.2321,51.9305,285.0804],[81.2022,51.9602,268.427],[81.2159,51.9986,259.4846],[81.187,52.0295,249.7217],[81.1333,52.0512,220.5],[81.0846,52.0781,233.0166],[81.0567,52.0535,231.8008],[81.0086,52.0259,233.9984],[80.9844,52.0311,248.964],[80.9019,52.0172,258.6905],[80.8372,51.977,261.9097],[80.7831,51.9339,251.3679],[80.7161,51.8894,234.2628],[80.6862,51.8725,240.0365],[80.6608,51.8374,218.1363],[80.6301,51.8127,221.3058],[80.5616,51.7963,187.8344],[80.5383,51.7301,198.7032],[80.5537,51.7511,200.5251],[80.6231,51.7259,225.317],[80.6008,51.6971,220.8941],[80.6475,51.662,228.9431],[80.6769,51.6551,229.8363],[80.6827,51.6191,228.7364],[80.6099,51.5542,235.4498],[80.5343,51.4983,238.5753]]]]}}