{"type":"Feature","properties":{"GID_3":"RUS.71.15.1_1","GID_0":"RUS","country":"Russia","GID_1":"RUS.71_1","province":"Tuva","NL_NAME_1":"РеспубликаТыва","GID_2":"RUS.71.15_1","county":"Tes-Khemskiyrayon","NL_NAME_2":"Тес-Хемскийрайон","city":"NA","VARNAME_3":"NA","NL_NAME_3":"NA","TYPE_3":"NA","ENGTYPE_3":"NA","CC_3":"NA","HASC_3":"NA","name":"N_A.city"},
"geometry":{"type": "MultiPolygon","coordinates": [[[[94.3566,50.4166,938.9662],[94.3666,50.3556,954.2306],[94.3772,50.3213,1008.6218],[94.3976,50.2394,1015.8368],[94.5095,50.2673,1288.0885],[94.62,50.3399,1311.1801],[94.7471,50.3539,1106.4113],[94.7908,50.3815,1065.1658],[94.8831,50.434,1057.3707],[95.0139,50.4986,1488.2788],[95.1546,50.539,1559.9968],[95.2205,50.5232,1718.1765],[95.2825,50.4987,1768.1117],[95.3913,50.5223,1784.0955],[95.4286,50.5643,1956.1516],[95.4651,50.5715,2190.1646],[95.5365,50.6112,1948.6235],[95.5523,50.6612,1824.4767],[95.5053,50.6738,1743.4087],[95.4903,50.6948,1501.2019],[95.5156,50.7268,1312.9519],[95.5024,50.746,1431.6046],[95.4605,50.7639,1510.8279],[95.429,50.7963,1493.4868],[95.3922,50.8294,1159.1516],[95.3232,50.8048,1126.4994],[95.2017,50.805,1370.8557],[95.1275,50.7876,1900.3596],[95.1,50.7525,1918.3743],[95.0626,50.7151,1804.9089],[95.006,50.72,1754.351],[94.9764,50.742,1999.5762],[94.9292,50.8054,2122.2305],[94.8621,50.8162,2019.0647],[94.7463,50.831,2073.1333],[94.6815,50.8933,1958.7782],[94.5357,50.852,2067.3208],[94.3491,50.8701,1928.9211],[94.2842,50.9152,2021.7958],[94.2138,51.0001,2049.687],[94.1663,51.0218,2053.1921],[94.1151,50.9862,2103.532],[94.0984,50.902,1978.5225],[94.0634,50.8748,1719.2056],[93.9334,50.8298,1717.1898],[93.8724,50.8393,1790.3892],[93.8041,50.8549,1956.3679],[93.7491,50.8413,1882.1689],[93.654,50.9131,2139.7981],[93.5491,50.916,2089.5608],[93.4688,50.9418,1735.1366],[93.3664,50.9838,2054.3333],[93.2703,50.9664,1655.5168],[93.1491,50.9771,2073.8914],[93.0724,50.9458,1803.151],[93.0121,50.9119,1850.9822],[93.026,50.8895,1655.0704],[93.056,50.8195,1446.0522],[93.0994,50.7897,1457.1968],[93.1093,50.7557,1085.6775],[93.0983,50.7166,880.2389],[93.1316,50.6964,849.5483],[93.177,50.6891,818.1872],[93.2657,50.6083,775.2302],[93.303,50.5763,778.3147],[93.4029,50.5855,785.2204],[93.4323,50.5925,787.6022],[93.4583,50.6007,789.6152],[93.4697,50.6019,790.2662],[93.4776,50.6005,790.9126],[93.487,50.5962,791.7947],[93.5105,50.5824,793.2402],[93.5221,50.5817,794.1039],[93.5901,50.5813,799.9446],[93.6163,50.5851,802.5403],[93.6381,50.5859,804.7995],[93.6697,50.5778,807.8081],[93.7813,50.5836,817.0323],[93.8387,50.5898,822.9708],[93.8817,50.5914,827.6235],[93.9568,50.5912,837.3346],[94.0038,50.5881,842.9694],[94.1065,50.5882,858.0428],[94.141,50.584,863.8837],[94.1777,50.5823,870.0969],[94.2237,50.5827,878.4631],[94.2763,50.5753,887.7802],[94.2881,50.5701,890.4122],[94.2954,50.5642,891.5895],[94.3035,50.5521,892.4263],[94.3087,50.5301,894.0688],[94.3073,50.5141,901.8966],[94.3119,50.4991,905.5846],[94.3214,50.4906,906.9066],[94.3364,50.4816,911.0311],[94.3487,50.4648,914.819],[94.3566,50.4166,938.9662]]]]}}