{"type":"Feature","properties":{"ISO3166-1-Alpha-3":"RUS","country":"Russia","name":"Chukchi Autonomous Okrug"},
"geometry":{"type": "MultiPolygon","coordinates": [[[[187.32118,64.64594,1.0],[187.30397,64.65253,1.0],[187.27971,64.64435,1.0],[187.27495,64.62645,1.0],[187.29237,64.62002,1.0],[187.3058,64.6197,1.0],[187.31446,64.61591,1.0],[187.31752,64.60895,1.0],[187.32215,64.60358,1.0],[187.3296,64.60114,1.0],[187.4345,64.59553,1.0],[187.4568,64.59219,1.0],[187.4806,64.593,1.0],[187.54151,64.61103,1.0],[187.54664,64.62352,1.0],[187.5346,64.63719,1.0],[187.52471,64.64183,1.0],[187.34405,64.64118,1.0],[187.32118,64.64594,1.0]]],
[[[187.72127,64.71352,1.0],[187.82039,64.73822,1.0],[187.95664,64.75118,1.0],[187.88744,64.7905,1.0],[187.7569,64.81594,1.0],[187.67092,64.83123,1.0],[187.59948,64.8367,1.0],[187.53866,64.82759,1.0],[187.51543,64.81495,1.0],[187.47652,64.78797,1.0],[187.42255,64.7595,1.0],[187.39125,64.73083,1.0],[187.36681,64.68444,1.0],[187.4532,64.68539,1.0],[187.4991,64.70429,1.0],[187.61528,64.69848,1.0],[187.72127,64.71352,1.0]]],
[[[187.37269,64.86437,1.0],[187.39597,64.86864,1.0],[187.47995,64.90298,1.0],[187.47405,64.90327,1.0],[187.38299,64.88142,1.0],[187.37867,64.87934,1.0],[187.37831,64.87389,1.0],[187.37001,64.87006,1.0],[187.3497,64.86644,1.0],[187.34787,64.86404,1.0],[187.35247,64.86233,1.0],[187.37269,64.86437,1.0]]],
[[[190.94862,65.75788,1.0],[190.97246,65.77391,1.0],[190.99224,65.79572,1.0],[191.00538,65.81586,1.0],[190.95867,65.82734,1.0],[190.93678,65.82819,1.0],[190.91664,65.81586,1.0],[190.90663,65.79906,1.0],[190.90191,65.77888,1.0],[190.9063,65.76195,1.0],[190.92347,65.75507,1.0],[190.94862,65.75788,1.0]]],
[[[185.30665,67.01642,1.0],[185.31894,67.02114,1.0],[185.32529,67.03034,1.0],[185.32667,67.05402,1.0],[185.32598,67.05907,1.0],[185.3154,67.07612,1.0],[185.29982,67.09341,1.0],[185.28903,67.10069,1.0],[185.27931,67.10175,1.0],[185.27247,67.0976,1.0],[185.26657,67.09101,1.0],[185.26787,67.0858,1.0],[185.2763,67.07351,1.0],[185.29286,67.0585,1.0],[185.27329,67.02253,1.0],[185.28736,67.01333,1.0],[185.30665,67.01642,1.0]]],
[[[185.40996,67.45201,1.0],[185.40935,67.46353,1.0],[185.39047,67.47256,1.0],[185.37062,67.47671,1.0],[185.35613,67.47814,1.0],[185.35511,67.47537,1.0],[185.37192,67.45828,1.0],[185.39153,67.449,1.0],[185.40996,67.45201,1.0]]],
[[[180.28728,68.91791,1.0],[180.00001,68.98237,0.0],[180.0,68.98237,0.0],[180.0,68.55956,133.455],[180.0,68.06094,344.1967],[180.0,67.56233,212.4727],[180.0,67.06371,317.832],[180.0,66.5651,462.7528],[180.0,66.06648,128.3698],[180.0,65.56787,50.8741],[180.0,65.06925,22.709],[180.0,65.06623,20.1183],[180.00001,65.06623,20.1183],[180.0638,65.06568,1.0],[180.10068,65.073,1.0],[180.12332,65.07981,1.0],[180.16899,65.09143,1.0],[180.19453,65.10839,1.0],[180.2245,65.12749,1.0],[180.26,65.14276,1.0],[180.30798,65.14232,1.0],[180.33691,65.14126,1.0],[180.37505,65.16863,1.0],[180.41218,65.20197,1.0],[180.47579,65.23536,1.0],[180.47807,65.2779,1.0],[180.48724,65.30851,1.0],[180.47858,65.33043,1.0],[180.51384,65.34972,1.0],[180.51105,65.36577,1.0],[180.501,65.39571,1.0],[180.536,65.41699,1.0],[180.5855,65.43871,1.0],[180.59788,65.45119,1.0],[180.63852,65.46858,1.0],[180.70111,65.50084,1.0],[180.73949,65.53218,1.0],[180.67873,65.57452,1.0],[180.69688,65.58322,1.0],[180.69279,65.60724,1.0],[180.72296,65.63026,1.0],[180.60951,65.65884,1.0],[180.54274,65.67451,1.0],[180.27674,65.78148,1.0],[180.25013,65.79914,1.0],[180.23333,65.81981,1.0],[180.17311,65.93431,1.0],[180.17128,65.94684,1.0],[180.18251,65.98412,1.0],[180.18434,65.99775,1.0],[180.18873,66.00324,1.0],[180.19829,66.0113,1.0],[180.2079,66.02131,1.0],[180.21221,66.03254,1.0],[180.21974,66.07591,1.0],[180.23174,66.10293,1.0],[180.29107,66.16226,1.0],[180.30702,66.18391,1.0],[180.31768,66.18773,1.0],[180.36988,66.16938,1.0],[180.41835,66.15851,1.0],[180.41961,66.14859,1.0],[180.40882,66.14444,1.0],[180.31865,66.14484,1.0],[180.30865,66.14167,1.0],[180.31922,66.13459,1.0],[180.33888,66.12751,1.0],[180.42542,66.1113,1.0],[180.57821,66.11906,1.0],[180.6907,66.12553,1.0],[180.74805,66.14517,1.0],[180.78205,66.1822,1.0],[180.71038,66.23017,1.0],[180.68983,66.25104,1.0],[180.67469,66.27546,1.0],[180.66395,66.28303,1.0],[180.62501,66.28937,1.0],[180.60951,66.29564,1.0],[180.57598,66.34406,1.0],[180.6764,66.32465,1.0],[180.7107,66.29971,1.0],[180.75323,66.29206,1.0],[180.82854,66.28946,1.0],[180.82244,66.31558,1.0],[180.82276,66.34439,1.0],[180.81927,66.37324,1.0],[180.80189,66.39932,1.0],[180.8357,66.41437,1.0],[180.87383,66.38906,1.0],[180.90504,66.34561,1.0],[180.91798,66.30622,1.0],[180.91057,66.29214,1.0],[180.87818,66.27045,1.0],[180.87078,66.25161,1.0],[180.88233,66.24266,1.0],[180.93621,66.21247,1.0],[180.95277,66.19945,1.0],[181.01756,66.15895,1.0],[181.10422,66.14971,1.0],[181.21487,66.16724,1.0],[181.24759,66.19099,1.0],[181.2771,66.20975,1.0],[181.33447,66.25868,1.0],[181.3776,66.29578,1.0],[181.38798,66.31109,1.0],[181.38917,66.3238,1.0],[181.39396,66.33407,1.0],[181.39521,66.34678,1.0],[181.39628,66.36076,1.0],[181.43524,66.35408,1.0],[181.46083,66.35215,1.0],[181.45953,66.361,1.0],[181.47993,66.37289,1.0],[181.49778,66.38092,1.0],[181.52288,66.38276,1.0],[181.5377,66.36789,1.0],[181.48711,66.33381,1.0],[181.49073,66.32461,1.0],[181.49757,66.31684,1.0],[181.50172,66.30891,1.0],[181.49708,66.29938,1.0],[181.47938,66.28148,1.0],[181.46998,66.27387,1.0],[181.45985,66.26838,1.0],[181.47783,66.24608,1.0],[181.47063,66.22468,1.0],[181.49599,66.21983,1.0],[181.50671,66.21122,1.0],[181.49395,66.19062,1.0],[181.47162,66.17106,1.0],[181.48633,66.15619,1.0],[181.50432,66.14013,1.0],[181.47287,66.11908,1.0],[181.44071,66.10307,1.0],[181.38376,66.10675,1.0],[181.31756,66.10187,1.0],[181.30128,66.0764,1.0],[181.33058,66.04729,1.0],[181.31574,66.01257,1.0],[181.27467,65.99193,1.0],[181.2011,65.99409,1.0],[181.18519,65.99775,1.0],[181.16619,66.00556,1.0],[181.10357,66.02192,1.0],[181.06414,66.04116,1.0],[181.04326,66.04829,1.0],[181.02162,66.04926,1.0],[181.10487,65.97724,1.0],[181.13115,65.93818,1.0],[181.09673,65.91958,1.0],[181.12749,65.89395,1.0],[181.23329,65.84687,1.0],[181.2481,65.83698,1.0],[181.2953,65.79613,1.0],[181.30116,65.78962,1.0],[181.30763,65.78449,1.0],[181.31617,65.78238,1.0],[181.34185,65.7827,1.0],[181.35332,65.78067,1.0],[181.36427,65.77489,1.0],[181.34954,65.76972,1.0],[181.37178,65.7295,1.0],[181.4113,65.73047,1.0],[181.48646,65.76264,1.0],[181.52809,65.74824,1.0],[181.57577,65.71288,1.0],[181.58891,65.68177,1.0],[181.55631,65.66288,1.0],[181.53871,65.64192,1.0],[181.54175,65.62024,1.0],[181.50601,65.60368,1.0],[181.49798,65.5781,1.0],[181.50612,65.56138,1.0],[181.48811,65.54403,1.0],[181.4804,65.53659,1.0],[181.46772,65.52299,1.0],[181.4712,65.51118,1.0],[181.49506,65.49465,1.0],[181.5389,65.47274,1.0],[181.71601,65.44435,1.0],[181.97973,65.44084,1.0],[182.24831,65.44162,1.0],[182.58407,65.44075,1.0],[182.69137,65.48904,1.0],[182.75401,65.53886,1.0],[182.83561,65.56803,1.0],[182.92924,65.59036,1.0],[183.02345,65.60806,1.0],[183.37373,65.54241,1.0],[183.65077,65.50019,1.0],[183.81723,65.46344,1.0],[183.91241,65.45602,1.0],[183.95594,65.45209,1.0],[184.02296,65.43496,1.0],[184.04261,65.42292,1.0],[184.09116,65.40295,1.0],[184.1086,65.37512,1.0],[184.11197,65.33621,1.0],[184.13749,65.29919,1.0],[184.12744,65.28504,1.0],[184.11845,65.25845,1.0],[184.2033,65.18293,1.0],[184.25189,65.17157,1.0],[184.26496,65.14685,1.0],[184.25932,65.12344,1.0],[184.21995,65.10424,1.0],[184.1895,65.08723,1.0],[184.18775,65.076,1.0],[184.2268,65.06388,1.0],[184.23254,65.0375,1.0],[184.15304,65.0146,1.0],[184.13526,64.99921,1.0],[184.1493,64.99038,1.0],[184.21167,64.97186,1.0],[184.22748,64.95807,1.0],[184.22521,64.93936,1.0],[184.29955,64.93107,1.0],[184.3687,64.9206,1.0],[184.37721,64.91478,1.0],[184.41896,64.90463,1.0],[184.43828,64.89224,1.0],[184.45403,64.88422,1.0],[184.45977,64.87613,1.0],[184.5052,64.87613,1.0],[184.51706,64.86226,1.0],[184.51821,64.84359,1.0],[184.56281,64.83323,1.0],[184.59895,64.84145,1.0],[184.63164,64.84651,1.0],[184.64747,64.82646,1.0],[184.58638,64.80705,1.0],[184.54316,64.79722,1.0],[184.58855,64.77126,1.0],[184.63512,64.78739,1.0],[184.698,64.77409,1.0],[184.83711,64.7662,1.0],[184.94322,64.75941,1.0],[185.0122,64.76626,1.0],[185.02236,64.78347,1.0],[185.03239,64.80379,1.0],[185.0314,64.82557,1.0],[185.03041,64.84735,1.0],[185.04807,64.8615,1.0],[185.08125,64.85554,1.0],[185.08599,64.83069,1.0],[185.10202,64.79814,1.0],[185.15299,64.80165,1.0],[185.20403,64.80359,1.0],[185.27692,64.80721,1.0],[185.30876,64.83544,1.0],[185.29649,64.87113,1.0],[185.31737,64.90082,1.0],[185.34678,64.8979,1.0],[185.39207,64.85775,1.0],[185.40803,64.8174,1.0],[185.36169,64.78443,1.0],[185.34813,64.75476,1.0],[185.34133,64.74071,1.0],[185.34771,64.72533,1.0],[185.53338,64.67048,1.0],[185.57158,64.66572,1.0],[185.6515,64.66962,1.0],[185.6941,64.66616,1.0],[185.71526,64.65143,1.0],[185.69903,64.6518,1.0],[185.65321,64.64399,1.0],[185.67543,64.62543,1.0],[185.71522,64.60798,1.0],[185.75831,64.59504,1.0],[185.82268,64.58466,1.0],[185.85418,64.56989,1.0],[185.92755,64.54911,1.0],[185.95771,64.52826,1.0],[185.96163,64.49604,1.0],[185.973,64.47028,1.0],[185.97678,64.44285,1.0],[186.01067,64.41235,1.0],[186.13006,64.39448,1.0],[186.16651,64.3808,1.0],[186.31593,64.34886,1.0],[186.36457,64.33223,1.0],[186.40175,64.33063,1.0],[186.49492,64.34353,1.0],[186.5436,64.36448,1.0],[186.61482,64.39504,1.0],[186.63401,64.42247,1.0],[186.62306,64.46035,1.0],[186.64324,64.48021,1.0],[186.6469,64.50747,1.0],[186.63054,64.53368,1.0],[186.60365,64.56476,1.0],[186.58302,64.59634,1.0],[186.58546,64.61664,1.0],[186.60194,64.60395,1.0],[186.61146,64.59882,1.0],[186.64015,64.59553,1.0],[186.64588,64.5915,1.0],[186.64784,64.58495,1.0],[186.65846,64.5666,1.0],[186.65984,64.55777,1.0],[186.66509,64.55109,1.0],[186.68108,64.54841,1.0],[186.69081,64.54548,1.0],[186.7,64.53828,1.0],[186.71583,64.52114,1.0],[186.70012,64.50218,1.0],[186.69658,64.48493,1.0],[186.69569,64.46849,1.0],[186.68788,64.45222,1.0],[186.69972,64.45083,1.0],[186.72425,64.45124,1.0],[186.73634,64.44599,1.0],[186.72552,64.4311,1.0],[186.69292,64.39006,1.0],[186.63662,64.36595,1.0],[186.63619,64.34175,1.0],[186.62096,64.31443,1.0],[186.63175,64.28548,1.0],[186.72942,64.2884,1.0],[186.77776,64.2696,1.0],[186.89374,64.24098,1.0],[186.99056,64.25999,1.0],[187.0759,64.26443,1.0],[187.0693,64.29031,1.0],[187.0477,64.31141,1.0],[187.04854,64.33884,1.0],[187.08195,64.33866,1.0],[187.1142,64.30299,1.0],[187.12526,64.30131,1.0],[187.15132,64.30439,1.0],[187.17783,64.32036,1.0],[187.18221,64.33969,1.0],[187.18298,64.36226,1.0],[187.1842,64.39771,1.0],[187.21094,64.41693,1.0],[187.21168,64.43786,1.0],[187.16379,64.45421,1.0],[187.08541,64.44981,1.0],[187.02177,64.43889,1.0],[186.98695,64.46157,1.0],[187.06781,64.48371,1.0],[187.11665,64.49471,1.0],[187.1578,64.4977,1.0],[187.18474,64.50406,1.0],[187.19813,64.49604,1.0],[187.21534,64.48908,1.0],[187.23028,64.48094,1.0],[187.23658,64.46931,1.0],[187.23146,64.45848,1.0],[187.26429,64.45046,1.0],[187.2864,64.4439,1.0],[187.28543,64.41816,1.0],[187.28846,64.40035,1.0],[187.31853,64.40278,1.0],[187.34596,64.39301,1.0],[187.35979,64.39077,1.0],[187.40993,64.37042,1.0],[187.45477,64.3765,1.0],[187.51472,64.38728,1.0],[187.55991,64.3998,1.0],[187.61234,64.40736,1.0],[187.67573,64.40996,1.0],[187.77976,64.40734,1.0],[187.58937,64.48916,1.0],[187.55873,64.51496,1.0],[187.54888,64.53335,1.0],[187.54432,64.54833,1.0],[187.53492,64.55842,1.0],[187.37786,64.57754,1.0],[187.34645,64.59003,1.0],[187.32915,64.5939,1.0],[187.27752,64.59687,1.0],[187.25233,64.60244,1.0],[187.21757,64.6051,1.0],[187.18409,64.61173,1.0],[187.15354,64.59423,1.0],[187.1343,64.57826,1.0],[187.10018,64.56397,1.0],[187.03281,64.56114,1.0],[187.03314,64.5724,1.0],[187.08992,64.59458,1.0],[187.12843,64.62812,1.0],[187.15537,64.64887,1.0],[187.13709,64.66344,1.0],[187.10715,64.66523,1.0],[187.02435,64.65446,1.0],[186.96052,64.64681,1.0],[186.95713,64.65968,1.0],[186.99126,64.67555,1.0],[187.05159,64.68805,1.0],[187.10809,64.69416,1.0],[187.14203,64.69878,1.0],[187.16871,64.70988,1.0],[187.18809,64.72585,1.0],[187.24469,64.73347,1.0],[187.24953,64.76237,1.0],[187.2199,64.79255,1.0],[187.19427,64.80337,1.0],[187.13356,64.8159,1.0],[187.07834,64.82123,1.0],[187.02523,64.81345,1.0],[186.99439,64.79588,1.0],[186.94108,64.76889,1.0],[186.83953,64.75977,1.0],[186.83588,64.7646,1.0],[186.91883,64.78183,1.0],[186.93834,64.81062,1.0],[186.94279,64.83788,1.0],[186.99987,64.85527,1.0],[187.09839,64.85804,1.0],[187.19222,64.84779,1.0],[187.23715,64.83787,1.0],[187.27959,64.86168,1.0],[187.2991,64.8776,1.0],[187.34117,64.89014,1.0],[187.37371,64.8985,1.0],[187.39324,64.90323,1.0],[187.44203,64.9252,1.0],[187.46367,64.92634,1.0],[187.50367,64.91739,1.0],[187.52788,64.92078,1.0],[187.677,64.94834,1.0],[187.78137,64.98425,1.0],[187.82504,65.01751,1.0],[187.90691,65.05036,1.0],[187.91991,65.0759,1.0],[187.91339,65.09364,1.0],[187.84608,65.10395,1.0],[187.82915,65.09878,1.0],[187.81752,65.0893,1.0],[187.80482,65.08373,1.0],[187.78468,65.09028,1.0],[187.77324,65.09976,1.0],[187.75685,65.1232,1.0],[187.74627,65.13516,1.0],[187.7437,65.13744,1.0],[187.77296,65.13223,1.0],[187.79628,65.13223,1.0],[187.82914,65.15233,1.0],[187.83448,65.17797,1.0],[187.79847,65.21687,1.0],[187.71929,65.21064,1.0],[187.6891,65.21996,1.0],[187.63453,65.20842,1.0],[187.54298,65.21939,1.0],[187.44936,65.20603,1.0],[187.33265,65.22822,1.0],[187.3167,65.23041,1.0],[187.30348,65.23603,1.0],[187.29802,65.24763,1.0],[187.30059,65.25975,1.0],[187.30779,65.26838,1.0],[187.31849,65.2735,1.0],[187.33184,65.27521,1.0],[187.3637,65.26911,1.0],[187.42254,65.24771,1.0],[187.44915,65.25072,1.0],[187.46876,65.25764,1.0],[187.48854,65.26057,1.0],[187.55397,65.26325,1.0],[187.59974,65.27302,1.0],[187.62322,65.27521,1.0],[187.6585,65.27359,1.0],[187.69207,65.26732,1.0],[187.72307,65.25471,1.0],[187.7505,65.23363,1.0],[187.78443,65.23949,1.0],[187.81146,65.24245,1.0],[187.82045,65.26485,1.0],[187.81479,65.29868,1.0],[187.79705,65.32454,1.0],[187.81024,65.35178,1.0],[187.83751,65.42069,1.0],[187.9066,65.48357,1.0],[187.87862,65.48398,1.0],[187.83075,65.44477,1.0],[187.7359,65.41821,1.0],[187.64465,65.42352,1.0],[187.61139,65.43224,1.0],[187.60952,65.44404,1.0],[187.60208,65.45709,1.0],[187.57424,65.46336,1.0],[187.57197,65.47046,1.0],[187.58378,65.47618,1.0],[187.61523,65.47928,1.0],[187.68031,65.46525,1.0],[187.67482,65.48749,1.0],[187.6524,65.50161,1.0],[187.60188,65.52745,1.0],[187.61118,65.54383,1.0],[187.62076,65.56351,1.0],[187.61028,65.58182,1.0],[187.5163,65.60622,1.0],[187.4208,65.61242,1.0],[187.35721,65.61818,1.0],[187.32558,65.62352,1.0],[187.31621,65.65323,1.0],[187.33037,65.66307,1.0],[187.339,65.67251,1.0],[187.23076,65.66486,1.0],[187.17543,65.67154,1.0],[187.14039,65.69986,1.0],[187.17449,65.69111,1.0],[187.20928,65.68769,1.0],[187.24444,65.68985,1.0],[187.31617,65.70425,1.0],[187.53334,65.68651,1.0],[187.57027,65.67976,1.0],[187.59844,65.68102,1.0],[187.6349,65.67585,1.0],[187.64808,65.67251,1.0],[187.66032,65.65372,1.0],[187.70952,65.66617,1.0],[187.72795,65.64775,1.0],[187.70279,65.63494,1.0],[187.67765,65.62211,1.0],[187.73262,65.60974,1.0],[187.77137,65.59596,1.0],[187.79397,65.58077,1.0],[187.76489,65.568,1.0],[187.73597,65.55688,1.0],[187.73992,65.54523,1.0],[187.80208,65.53773,1.0],[187.82907,65.52741,1.0],[187.85383,65.53693,1.0],[187.88659,65.54632,1.0],[187.90667,65.56802,1.0],[187.92803,65.56265,1.0],[187.93535,65.55756,1.0],[187.97451,65.54821,1.0],[188.00939,65.53772,1.0],[188.04238,65.51655,1.0],[188.13886,65.51845,1.0],[188.2223,65.51217,1.0],[188.25638,65.49966,1.0],[188.1916,65.48933,1.0],[187.9658,65.47444,1.0],[188.09626,65.46077,1.0],[188.44434,65.51008,1.0],[188.59705,65.52093,1.0],[188.74911,65.52199,1.0],[188.80885,65.49687,1.0],[188.84002,65.4794,1.0],[188.96135,65.46699,1.0],[188.99103,65.4891,1.0],[189.02467,65.51114,1.0],[189.02924,65.55146,1.0],[189.01819,65.59205,1.0],[188.97637,65.58316,1.0],[188.96734,65.59854,1.0],[188.95503,65.6222,1.0],[188.91716,65.63413,1.0],[188.85406,65.64179,1.0],[188.83318,65.64745,1.0],[188.75445,65.65135,1.0],[188.73614,65.65559,1.0],[188.69646,65.68618,1.0],[188.65667,65.70002,1.0],[188.6397,65.70966,1.0],[188.62818,65.72773,1.0],[188.65642,65.72724,1.0],[188.66985,65.72895,1.0],[188.68214,65.73395,1.0],[188.61085,65.74608,1.0],[188.5997,65.75688,1.0],[188.58189,65.77543,1.0],[188.56433,65.79565,1.0],[188.53918,65.81934,1.0],[188.53673,65.83259,1.0],[188.61488,65.81757,1.0],[188.73392,65.77201,1.0],[188.79162,65.75094,1.0],[188.83102,65.71368,1.0],[188.85269,65.695,1.0],[188.94829,65.68574,1.0],[189.10052,65.64826,1.0],[189.10743,65.62946,1.0],[189.12456,65.62336,1.0],[189.33264,65.59955,1.0],[189.41183,65.60457,1.0],[189.46472,65.61815,1.0],[189.47977,65.64217,1.0],[189.51123,65.67076,1.0],[189.46978,65.67935,1.0],[189.46949,65.68598,1.0],[189.46453,65.69107,1.0],[189.45904,65.69538,1.0],[189.4568,65.69986,1.0],[189.45912,65.70474,1.0],[189.46978,65.72028,1.0],[189.46302,65.73176,1.0],[189.42884,65.76122,1.0],[189.47722,65.81684,1.0],[189.48406,65.83015,1.0],[189.46758,65.85273,1.0],[189.43421,65.85322,1.0],[189.39833,65.84732,1.0],[189.3742,65.85065,1.0],[189.39369,65.86131,1.0],[189.49025,65.86994,1.0],[189.57309,65.90743,1.0],[189.6247,65.92589,1.0],[189.65888,65.93654,1.0],[189.76344,65.95517,1.0],[189.85697,66.00383,1.0],[189.94553,66.02115,1.0],[190.01848,66.03901,1.0],[190.10855,66.04285,1.0],[190.13338,66.02224,1.0],[190.17499,66.00443,1.0],[190.22428,66.00624,1.0],[190.28139,66.00613,1.0],[190.30479,66.02197,1.0],[190.32011,66.03806,1.0],[190.34388,66.05554,1.0],[190.35862,66.06833,1.0],[190.3455,66.0853,1.0],[190.31983,66.10101,1.0],[190.3001,66.11498,1.0],[190.30018,66.12263,1.0],[190.29908,66.12865,1.0],[190.29253,66.13117,1.0],[190.2815,66.1328,1.0],[190.18841,66.15717,1.0],[190.09327,66.16962,1.0],[190.0479,66.18378,1.0],[190.00908,66.19013,1.0],[189.95643,66.1933,1.0],[189.98548,66.18891,1.0],[190.02894,66.18016,1.0],[190.06743,66.17154,1.0],[190.08355,66.16405,1.0],[190.07732,66.1503,1.0],[190.05262,66.14484,1.0],[190.02508,66.1457,1.0],[189.95529,66.16979,1.0],[189.91417,66.16929,1.0],[189.88586,66.14856,1.0],[189.86373,66.13924,1.0],[189.77642,66.14814,1.0],[189.66163,66.18578,1.0],[189.71116,66.17988,1.0],[189.73969,66.1791,1.0],[189.76527,66.18578,1.0],[189.79617,66.17423,1.0],[189.83777,66.17804,1.0],[189.87102,66.18043,1.0],[189.8938,66.19305,1.0],[189.85814,66.22384,1.0],[189.84614,66.24902,1.0],[189.816,66.26477,1.0],[189.78495,66.27555,1.0],[189.72574,66.2904,1.0],[189.68504,66.29315,1.0],[189.64788,66.29248,1.0],[189.60965,66.28521,1.0],[189.57063,66.27298,1.0],[189.53958,66.25889,1.0],[189.51239,66.24304,1.0],[189.48906,66.22543,1.0],[189.40472,66.22444,1.0],[189.37432,66.23481,1.0],[189.34693,66.24848,1.0],[189.40886,66.23736,1.0],[189.46177,66.2344,1.0],[189.47742,66.25552,1.0],[189.47978,66.27035,1.0],[189.48597,66.28344,1.0],[189.51649,66.29424,1.0],[189.56727,66.30287,1.0],[189.59678,66.30707,1.0],[189.61481,66.31653,1.0],[189.50518,66.34406,1.0],[189.43474,66.35358,1.0],[189.4192,66.36083,1.0],[189.36756,66.39932,1.0],[189.33424,66.41804,1.0],[189.29457,66.43138,1.0],[189.27162,66.45478,1.0],[189.25786,66.46015,1.0],[189.24012,66.46442,1.0],[189.20611,66.48314,1.0],[189.17132,66.49185,1.0],[189.14027,66.51105,1.0],[189.12407,66.51537,1.0],[189.09127,66.51607,1.0],[189.01578,66.54163,1.0],[188.92176,66.56721,1.0],[188.72687,66.64064,1.0],[188.63664,66.67483,1.0],[188.61192,66.71518,1.0],[188.62505,66.73545,1.0],[188.6691,66.74498,1.0],[188.6466,66.77185,1.0],[188.60871,66.77938,1.0],[188.57373,66.77485,1.0],[188.43747,66.8089,1.0],[188.36997,66.83006,1.0],[188.32881,66.85047,1.0],[188.30583,66.87957,1.0],[188.33186,66.89703,1.0],[188.37033,66.90831,1.0],[188.35978,66.92981,1.0],[188.28148,66.95078,1.0],[188.21406,66.95276,1.0],[188.17894,66.95077,1.0],[188.11031,66.96126,1.0],[188.10481,66.97073,1.0],[188.06646,66.97901,1.0],[188.05712,66.97319,1.0],[188.07159,66.96613,1.0],[188.01862,66.9593,1.0],[187.94363,66.95021,1.0],[187.8053,66.96073,1.0],[187.59212,66.98665,1.0],[187.35891,67.01336,1.0],[187.2637,67.02381,1.0],[187.2119,67.03205,1.0],[187.01366,67.03918,1.0],[186.97415,67.03527,1.0],[186.96476,67.02341,1.0],[186.97512,67.01395,1.0],[187.00541,67.01027,1.0],[187.04296,67.01845,1.0],[187.07152,67.02157,1.0],[187.15149,67.00968,1.0],[187.34254,66.99144,1.0],[187.50215,66.97842,1.0],[187.63751,66.93321,1.0],[187.58831,66.91682,1.0],[187.49616,66.90439,1.0],[187.44873,66.90838,1.0],[187.43015,66.92053,1.0],[187.38466,66.92192,1.0],[187.3944,66.90733,1.0],[187.38451,66.89127,1.0],[187.33417,66.88504,1.0],[187.21767,66.894,1.0],[187.11415,66.90359,1.0],[187.00428,66.91743,1.0],[186.94881,66.93411,1.0],[186.93463,66.95212,1.0],[186.92245,66.96755,1.0],[186.93167,66.97684,1.0],[186.93677,66.99043,1.0],[186.92604,66.99307,1.0],[186.91678,66.98293,1.0],[186.87927,66.97302,1.0],[186.84646,66.96989,1.0],[186.83726,66.96147,1.0],[186.83884,66.95039,1.0],[186.84666,66.93415,1.0],[186.83909,66.91549,1.0],[186.79352,66.91843,1.0],[186.77352,66.91094,1.0],[186.78618,66.90317,1.0],[186.82529,66.90199,1.0],[186.82705,66.89431,1.0],[186.82432,66.88412,1.0],[186.82363,66.87135,1.0],[186.83846,66.86442,1.0],[186.87503,66.85815,1.0],[186.90076,66.85282,1.0],[186.91342,66.84675,1.0],[186.89772,66.83752,1.0],[186.85795,66.82424,1.0],[186.81682,66.82543,1.0],[186.75846,66.82845,1.0],[186.69746,66.82211,1.0],[186.68056,66.8316,1.0],[186.68116,66.84437,1.0],[186.67983,66.86227,1.0],[186.70415,66.87145,1.0],[186.73271,66.87805,1.0],[186.70952,66.89271,1.0],[186.69266,66.90391,1.0],[186.69093,66.91329,1.0],[186.70213,66.92002,1.0],[186.70915,66.93018,1.0],[186.70073,66.93621,1.0],[186.69053,66.95077,1.0],[186.69567,66.96691,1.0],[186.70504,66.98133,1.0],[186.73158,66.98879,1.0],[186.76217,66.98853,1.0],[186.7993,66.98821,1.0],[186.82963,66.98283,1.0],[186.85379,66.98602,1.0],[186.85663,66.99965,1.0],[186.85473,67.00563,1.0],[186.80486,67.01462,1.0],[186.77213,67.01661,1.0],[186.74212,67.02188,1.0],[186.7378,67.03053,1.0],[186.73597,67.03823,1.0],[186.72538,67.04599,1.0],[186.72784,67.05195,1.0],[186.75414,67.05258,1.0],[186.76277,67.04995,1.0],[186.79289,67.03947,1.0],[186.84952,67.03385,1.0],[186.8999,67.03595,1.0],[186.91969,67.03834,1.0],[186.92874,67.04423,1.0],[186.85698,67.05256,1.0],[186.71319,67.06742,1.0],[186.6106,67.07846,1.0],[186.58854,67.07521,1.0],[186.56832,67.06255,1.0],[186.57212,67.04716,1.0],[186.56941,67.03352,1.0],[186.53642,67.02949,1.0],[186.50626,67.0442,1.0],[186.50471,67.063,1.0],[186.51809,67.06888,1.0],[186.54444,67.06955,1.0],[186.55341,67.07461,1.0],[186.52065,67.07913,1.0],[186.45292,67.09068,1.0],[186.39262,67.10604,1.0],[186.35353,67.11561,1.0],[186.34595,67.08835,1.0],[186.24916,67.07343,1.0],[186.09413,67.08085,1.0],[185.80336,67.08072,1.0],[185.42507,67.07677,1.0],[185.388,67.06141,1.0],[185.38379,67.04096,1.0],[185.44279,67.03502,1.0],[185.60218,67.06225,1.0],[185.64369,67.06136,1.0],[185.50395,67.02139,1.0],[185.52577,67.01883,1.0],[185.5912,67.02732,1.0],[185.71787,67.04676,1.0],[185.76578,67.03475,1.0],[185.80931,67.02702,1.0],[185.81564,67.00912,1.0],[185.79584,66.99214,1.0],[185.74997,66.97606,1.0],[185.76081,66.97179,1.0],[185.80876,66.97936,1.0],[185.83924,66.981,1.0],[185.8914,66.97664,1.0],[185.93925,66.97567,1.0],[185.97379,66.96111,1.0],[185.98222,66.94747,1.0],[185.98406,66.92959,1.0],[185.98158,66.91343,1.0],[185.977,66.90068,1.0],[185.99404,66.88446,1.0],[186.01966,66.86567,1.0],[186.03441,66.84605,1.0],[186.04267,66.82816,1.0],[186.05525,66.81025,1.0],[186.0527,66.79154,1.0],[186.06541,66.78044,1.0],[186.06509,66.76598,1.0],[186.07124,66.75149,1.0],[186.06454,66.74045,1.0],[186.06422,66.72513,1.0],[186.06596,66.70554,1.0],[186.0763,66.68678,1.0],[186.06945,66.66763,1.0],[186.03036,66.64817,1.0],[185.9732,66.6268,1.0],[185.91861,66.61415,1.0],[185.80324,66.58941,1.0],[185.73605,66.56588,1.0],[185.78564,66.56143,1.0],[185.84156,66.53279,1.0],[185.87355,66.54612,1.0],[185.89907,66.5372,1.0],[185.93895,66.52954,1.0],[185.97247,66.52823,1.0],[186.02196,66.52943,1.0],[186.05058,66.51858,1.0],[186.08567,66.51788,1.0],[186.12393,66.51525,1.0],[186.16686,66.50625,1.0],[186.19207,66.48839,1.0],[186.1886,66.4706,1.0],[186.27109,66.45701,1.0],[186.28672,66.44362,1.0],[186.30887,66.4391,1.0],[186.30697,66.42449,1.0],[186.28607,66.41121,1.0],[186.28105,66.39852,1.0],[186.29474,66.37052,1.0],[186.26115,66.35346,1.0],[186.22778,66.34533,1.0],[186.17902,66.34382,1.0],[186.1409,66.34481,1.0],[186.10464,66.33644,1.0],[186.11271,66.31767,1.0],[186.15295,66.31838,1.0],[186.20346,66.30799,1.0],[186.18407,66.29445,1.0],[186.11614,66.28275,1.0],[186.0713,66.26331,1.0],[186.04348,66.24722,1.0],[186.02832,66.22853,1.0],[186.00069,66.21925,1.0],[185.98381,66.22016,1.0],[185.96931,66.23639,1.0],[185.96748,66.25258,1.0],[185.97834,66.26874,1.0],[185.97015,66.28495,1.0],[185.98109,66.30537,1.0],[185.99617,66.31894,1.0],[186.02392,66.32906,1.0],[186.04743,66.33835,1.0],[186.07081,66.34082,1.0],[186.06684,66.3536,1.0],[186.06711,66.36637,1.0],[186.04834,66.38347,1.0],[186.03578,66.39374,1.0],[186.02113,66.40571,1.0],[186.0279,66.42525,1.0],[186.04749,66.44559,1.0],[186.02869,66.46352,1.0],[185.98409,66.47217,1.0],[185.92009,66.46724,1.0],[185.8667,66.45801,1.0],[185.83477,66.45892,1.0],[185.79444,66.47261,1.0],[185.77506,66.45223,1.0],[185.77711,66.44457,1.0],[185.83675,66.44701,1.0],[185.84718,66.43083,1.0],[185.83636,66.41554,1.0],[185.83403,66.39938,1.0],[185.76378,66.38842,1.0],[185.72752,66.37145,1.0],[185.70404,66.35445,1.0],[185.63181,66.33749,1.0],[185.70394,66.34253,1.0],[185.70382,66.32635,1.0],[185.69517,66.30253,1.0],[185.64632,66.27702,1.0],[185.58713,66.27115,1.0],[185.5365,66.27975,1.0],[185.5619,66.3112,1.0],[185.54288,66.32398,1.0],[185.56192,66.34352,1.0],[185.58524,66.34775,1.0],[185.61062,66.33751,1.0],[185.60857,66.35538,1.0],[185.56548,66.35635,1.0],[185.54396,66.37141,1.0],[185.53432,66.40136,1.0],[185.54073,66.41923,1.0],[185.53865,66.44647,1.0],[185.53869,66.45923,1.0],[185.58343,66.47538,1.0],[185.60476,66.47452,1.0],[185.5707,66.50261,1.0],[185.56434,66.53154,1.0],[185.53229,66.54006,1.0],[185.4724,66.54601,1.0],[185.39306,66.57491,1.0],[185.3007,66.60035,1.0],[185.19356,66.59252,1.0],[185.13972,66.60942,1.0],[185.13941,66.62221,1.0],[185.12634,66.62816,1.0],[185.09801,66.64344,1.0],[185.07415,66.65275,1.0],[185.02867,66.66541,1.0],[185.02589,66.68211,1.0],[185.05799,66.68671,1.0],[185.09286,66.68519,1.0],[185.10992,66.6963,1.0],[185.14439,66.69893,1.0],[185.16578,66.70835,1.0],[185.17849,66.72371,1.0],[185.187,66.7314,1.0],[185.20196,66.73996,1.0],[185.22561,66.74597,1.0],[185.2363,66.75366,1.0],[185.28825,66.74604,1.0],[185.2929,66.71791,1.0],[185.31218,66.73242,1.0],[185.31397,66.76228,1.0],[185.30123,66.77948,1.0],[185.29242,66.79904,1.0],[185.2922,66.82203,1.0],[185.27687,66.84243,1.0],[185.27013,66.86285,1.0],[185.26565,66.87646,1.0],[185.24597,66.88835,1.0],[185.23714,66.8994,1.0],[185.24136,66.90878,1.0],[185.27391,66.91309,1.0],[185.29998,66.91652,1.0],[185.20961,66.93968,1.0],[185.19018,66.9666,1.0],[185.14771,66.97836,1.0],[185.12927,66.99962,1.0],[185.13919,67.01226,1.0],[185.11276,67.02561,1.0],[185.09239,67.03738,1.0],[185.10225,67.05396,1.0],[185.09597,67.06813,1.0],[185.08757,67.08781,1.0],[185.09542,67.10438,1.0],[185.10935,67.12096,1.0],[185.11318,67.13672,1.0],[185.11494,67.15563,1.0],[185.11457,67.18085,1.0],[185.1225,67.19504,1.0],[185.11007,67.21156,1.0],[185.11807,67.22104,1.0],[185.11999,67.22971,1.0],[185.1362,67.23526,1.0],[185.12385,67.24469,1.0],[185.14616,67.25262,1.0],[185.14405,67.25813,1.0],[185.1399,67.26364,1.0],[185.13975,67.27546,1.0],[185.16211,67.28181,1.0],[185.15793,67.28968,1.0],[185.18237,67.29525,1.0],[185.20228,67.29804,1.0],[185.24356,67.30324,1.0],[185.2229,67.32844,1.0],[185.19389,67.36467,1.0],[185.15288,67.38557,1.0],[185.11986,67.38582,1.0],[185.08508,67.381,1.0],[185.07865,67.39914,1.0],[185.08664,67.41338,1.0],[185.07097,67.4265,1.0],[185.03606,67.44526,1.0],[184.92018,67.48115,1.0],[184.9439,67.46015,1.0],[184.97918,67.45297,1.0],[185.01436,67.43967,1.0],[185.03105,67.42475,1.0],[185.00659,67.41602,1.0],[185.00885,67.40499,1.0],[184.98856,67.39391,1.0],[184.98462,67.38602,1.0],[184.97666,67.37418,1.0],[184.95023,67.36544,1.0],[184.92586,67.3567,1.0],[184.89535,67.34871,1.0],[184.86892,67.34231,1.0],[184.84041,67.33748,1.0],[184.81172,67.33972,1.0],[184.77284,67.34034,1.0],[184.74003,67.34335,1.0],[184.70932,67.34399,1.0],[184.68883,67.34468,1.0],[184.63312,67.35779,1.0],[184.64955,67.38251,1.0],[184.75078,67.39541,1.0],[184.75867,67.40568,1.0],[184.75835,67.41671,1.0],[184.76626,67.42699,1.0],[184.78876,67.42945,1.0],[184.81539,67.43113,1.0],[184.8276,67.43511,1.0],[184.81093,67.4445,1.0],[184.81061,67.45632,1.0],[184.81224,67.47208,1.0],[184.80378,67.48072,1.0],[184.80958,67.49413,1.0],[184.79487,67.5051,1.0],[184.7862,67.52004,1.0],[184.77347,67.53259,1.0],[184.78167,67.5342,1.0],[184.85675,67.50062,1.0],[184.87323,67.49989,1.0],[184.77515,67.54521,1.0],[184.75204,67.55929,1.0],[184.75984,67.5743,1.0],[184.74502,67.58606,1.0],[184.70923,67.60562,1.0],[184.70048,67.62055,1.0],[184.68764,67.63465,1.0],[184.70388,67.6442,1.0],[184.73901,67.64596,1.0],[184.73447,67.65856,1.0],[184.7135,67.66711,1.0],[184.61854,67.6872,1.0],[184.4848,67.72281,1.0],[184.17597,67.81296,1.0],[184.1783,67.79747,1.0],[184.16616,67.77834,1.0],[184.14684,67.76833,1.0],[184.0794,67.7474,1.0],[183.98803,67.72735,1.0],[183.99285,67.72279,1.0],[184.05053,67.72554,1.0],[184.11301,67.71915,1.0],[184.1514,67.70456,1.0],[184.12732,67.6827,1.0],[184.11288,67.6654,1.0],[184.10326,67.64991,1.0],[184.1272,67.64444,1.0],[184.16795,67.6517,1.0],[184.23265,67.65165,1.0],[184.27327,67.63976,1.0],[184.28988,67.62424,1.0],[184.32811,67.61872,1.0],[184.33034,67.60505,1.0],[184.31821,67.58958,1.0],[184.28705,67.57961,1.0],[184.27501,67.5696,1.0],[184.26079,67.58238,1.0],[184.22972,67.57968,1.0],[184.13179,67.58431,1.0],[184.0864,67.58797,1.0],[184.08882,67.60345,1.0],[184.11514,67.61256,1.0],[184.11758,67.62895,1.0],[184.0745,67.63899,1.0],[184.0266,67.63899,1.0],[183.97873,67.63077,1.0],[183.87821,67.62705,1.0],[183.79421,67.64515,1.0],[183.73158,67.66873,1.0],[183.71684,67.69239,1.0],[183.65913,67.6959,1.0],[183.67332,67.70961,1.0],[183.69954,67.72424,1.0],[183.76687,67.72529,1.0],[183.82213,67.72993,1.0],[183.90628,67.73003,1.0],[183.93034,67.72731,1.0],[183.95194,67.73553,1.0],[183.93504,67.74827,1.0],[183.89887,67.76009,1.0],[183.86262,67.77736,1.0],[183.88409,67.80654,1.0],[183.91529,67.83208,1.0],[183.95142,67.85215,1.0],[183.99491,67.854,1.0],[184.07225,67.84671,1.0],[184.07927,67.85102,1.0],[184.0169,67.86083,1.0],[183.91441,67.88399,1.0],[183.72572,67.92853,1.0],[183.60029,67.96771,1.0],[183.46668,68.00296,1.0],[183.46922,67.99053,1.0],[183.51156,67.97906,1.0],[183.57379,67.96598,1.0],[183.64275,67.94294,1.0],[183.71153,67.92236,1.0],[183.79121,67.90177,1.0],[183.76039,67.89757,1.0],[183.61719,67.89311,1.0],[183.59292,67.8947,1.0],[183.50048,67.8886,1.0],[183.46063,67.8951,1.0],[183.44462,67.9166,1.0],[183.4268,67.92234,1.0],[183.3381,67.93442,1.0],[183.29789,67.94918,1.0],[183.2177,67.96787,1.0],[183.21066,67.97862,1.0],[183.22562,67.9928,1.0],[183.22086,68.0019,1.0],[183.24694,68.01531,1.0],[183.28201,68.02627,1.0],[183.27496,68.03785,1.0],[183.40677,68.00606,1.0],[183.43546,68.01032,1.0],[183.38178,68.0267,1.0],[183.17994,68.08657,1.0],[183.06335,68.12072,1.0],[182.92457,68.16425,1.0],[182.89177,68.16706,1.0],[182.90126,68.16185,1.0],[182.93275,68.15278,1.0],[182.83375,68.1374,1.0],[182.78126,68.13955,1.0],[182.75518,68.16706,1.0],[182.76149,68.16795,1.0],[182.77508,68.17329,1.0],[182.74647,68.19111,1.0],[182.73548,68.20185,1.0],[182.7409,68.21113,1.0],[182.76189,68.20742,1.0],[182.80909,68.19746,1.0],[182.82647,68.19868,1.0],[182.79668,68.2049,1.0],[182.66192,68.24457,1.0],[182.60597,68.24958,1.0],[182.53846,68.24628,1.0],[182.39153,68.19676,1.0],[182.37782,68.19432,1.0],[182.36529,68.1953,1.0],[182.36016,68.1988,1.0],[182.3639,68.20506,1.0],[182.37782,68.21426,1.0],[182.36085,68.22549,1.0],[182.32293,68.2298,1.0],[182.28924,68.24836,1.0],[182.2516,68.25336,1.0],[182.23443,68.26264,1.0],[182.37098,68.28315,1.0],[182.36915,68.28779,1.0],[182.36634,68.2989,1.0],[182.36354,68.30419,1.0],[182.3982,68.30805,1.0],[182.50774,68.29173,1.0],[182.50367,68.29295,1.0],[182.33416,68.33539,1.0],[182.28911,68.36294,1.0],[181.95702,68.46019,1.0],[181.62493,68.55744,1.0],[181.6325,68.55288,1.0],[181.63799,68.54629,1.0],[181.64418,68.53701,1.0],[181.65484,68.53441,1.0],[181.68035,68.53107,1.0],[181.70436,68.51874,1.0],[181.75416,68.50519,1.0],[181.79188,68.49966,1.0],[182.04359,68.42211,1.0],[182.2953,68.34455,1.0],[182.26763,68.32612,1.0],[182.17762,68.3277,1.0],[182.14137,68.31415,1.0],[182.12562,68.30484,1.0],[182.10926,68.30329,1.0],[182.09291,68.30427,1.0],[182.0442,68.29548,1.0],[182.03521,68.29059,1.0],[182.03191,68.28417,1.0],[182.03106,68.27631,1.0],[182.0324,68.27033,1.0],[182.03521,68.26948,1.0],[182.01979,68.26044,1.0],[182.00294,68.25654,1.0],[181.9391,68.25642,1.0],[181.92632,68.25926,1.0],[181.92579,68.26557,1.0],[181.93963,68.27692,1.0],[182.00103,68.30419,1.0],[182.03386,68.33023,1.0],[182.04949,68.33771,1.0],[182.02971,68.34003,1.0],[182.00929,68.35285,1.0],[181.9933,68.37084,1.0],[181.97865,68.41596,1.0],[181.95818,68.42768,1.0],[181.80913,68.45417,1.0],[181.7516,68.47602,1.0],[181.72377,68.47842,1.0],[181.66188,68.47492,1.0],[181.63136,68.47956,1.0],[181.57329,68.5019,1.0],[181.54176,68.50967,1.0],[181.38136,68.52509,1.0],[181.32948,68.53701,1.0],[181.30007,68.54319,1.0],[181.29849,68.55162,1.0],[181.28855,68.56831,1.0],[181.28034,68.58306,1.0],[181.28617,68.59566,1.0],[181.28112,68.60799,1.0],[181.28804,68.62212,1.0],[181.27917,68.63287,1.0],[181.28083,68.64587,1.0],[181.27411,68.65967,1.0],[181.26384,68.6704,1.0],[181.27538,68.67569,1.0],[181.3124,68.66066,1.0],[181.34821,68.6446,1.0],[181.3631,68.63798,1.0],[181.45354,68.59211,1.0],[181.48577,68.58637,1.0],[181.51507,68.59154,1.0],[181.48287,68.60296,1.0],[181.4015,68.64338,1.0],[181.32264,68.67934,1.0],[181.15519,68.75236,1.0],[181.06426,68.77171,1.0],[180.92639,68.78927,1.0],[180.8717,68.78731,1.0],[180.83339,68.79924,1.0],[180.82731,68.80855,1.0],[180.79673,68.80971,1.0],[180.73886,68.80312,1.0],[180.68047,68.81195,1.0],[180.6722,68.82468,1.0],[180.64263,68.82781,1.0],[180.64467,68.83735,1.0],[180.64586,68.84438,1.0],[180.63657,68.8551,1.0],[180.65123,68.85752,1.0],[180.66622,68.85844,1.0],[180.6455,68.87085,1.0],[180.61739,68.87904,1.0],[180.58184,68.89639,1.0],[180.56202,68.90323,1.0],[180.55034,68.91291,1.0],[180.52898,68.93993,1.0],[180.51421,68.95132,1.0],[180.49846,68.95832,1.0],[180.47722,68.96454,1.0],[180.45904,68.96328,1.0],[180.45244,68.9479,1.0],[180.45655,68.93928,1.0],[180.46538,68.93228,1.0],[180.48597,68.92113,1.0],[180.45838,68.91022,1.0],[180.4201,68.90864,1.0],[180.28728,68.91791,1.0]]]]}}