{"type":"Feature","properties":{"ISO3166-1-Alpha-3":"RUS","country":"Russia","fill":"#FF0","id":"2321","name":"Chukchi Autonomous Okrug"},
"geometry":{"type": "MultiPolygon","coordinates": [[[[169.41228,69.77025,0.0],[169.40846,69.78482,9.1639],[169.41538,69.79218,9.3077],[169.42774,69.79711,6.6036],[169.43963,69.80439,6.0088],[169.45143,69.81867,0.0],[169.45265,69.82624,0.0],[169.44899,69.83405,0.0],[169.44646,69.84911,0.0],[169.42384,69.87299,0.0871],[169.37233,69.88475,0.0],[169.2767,69.89558,0.0],[169.22771,69.90729,0.0],[168.82984,69.93989,10.2238],[168.76808,69.96271,0.3415],[168.6836,69.97085,2.1774],[168.63787,69.98603,14.0296],[168.26466,70.02412,0.0],[168.25318,70.02204,0.0],[168.23414,70.01264,0.0],[168.2234,70.01048,0.0],[168.1941,70.00898,0.0],[167.99106,69.9571,0.0],[167.82252,69.88101,0.0],[167.78566,69.8583,0.0],[167.75375,69.83234,0.0],[167.79086,69.80834,0.0],[167.88233,69.79824,15.9678],[167.96909,69.77558,24.6397],[168.05991,69.76366,22.8572],[168.09986,69.73957,0.0],[168.13364,69.7132,5.8352],[168.17254,69.69522,2.9315],[168.52353,69.63154,9.7024],[168.87452,69.56786,19.0106],[169.03932,69.57787,31.6486],[169.14015,69.57197,47.6945],[169.18946,69.57518,55.6762],[169.23471,69.59211,51.4891],[169.27898,69.62401,14.4563],[169.30055,69.64533,0.0],[169.30991,69.66446,0.0],[169.30047,69.68773,0.0],[169.28386,69.70392,0.0],[169.27849,69.71996,0.0],[169.3025,69.74299,0.0],[169.28256,69.75043,0.0],[169.2776,69.75951,0.0],[169.28566,69.76708,1.0064],[169.30592,69.77025,5.7997],[169.41228,69.76341,0.0],[169.41228,69.77025,0.0]]],
[[[172.32081,69.98229,0.0],[171.99448,69.99307,0.0],[171.94646,70.00556,0.0],[171.54754,70.03856,0.0],[171.31625,70.07319,0.0],[171.0381,70.08076,1.6548],[170.61085,70.11628,0.0],[170.53419,70.13963,0.0],[170.48162,70.14204,0.0],[170.43247,70.1341,0.0],[170.40675,70.11286,0.0],[170.52996,70.10554,353.4473],[170.55681,70.09243,164.0289],[170.55934,70.07697,0.0],[170.55291,70.05781,0.0],[170.54127,70.04043,0.0],[170.52898,70.03034,0.0],[170.53875,70.00707,0.0],[170.53549,69.98542,0.0],[170.52735,69.9632,0.0],[170.52272,69.93846,0.0],[170.52931,69.92512,0.0],[170.55649,69.89785,5.1557],[170.56031,69.89037,0.0],[170.55616,69.88105,0.0],[170.55681,69.8454,0.0],[170.55104,69.83015,0.0],[170.54623,69.82563,0.0],[170.54542,69.82071,0.0],[170.55006,69.80439,0.0],[170.55494,69.79841,0.0],[170.56251,69.79507,0.0],[170.56886,69.79125,0.0],[170.57057,69.78388,0.0],[170.59178,69.76472,0.0],[170.55998,69.75385,0.0],[170.50043,69.74029,0.0],[170.43316,69.73766,0.0],[170.35407,69.72407,0.0],[170.30265,69.71181,0.0],[170.23155,69.68859,0.0],[170.18822,69.64073,42.4934],[170.16073,69.61337,147.6304],[170.18041,69.58464,0.0],[170.28635,69.57912,0.0],[170.46699,69.59532,0.0],[170.51027,69.60209,9.9926],[170.58416,69.59955,13.3082],[170.60613,69.58979,17.3298],[170.63836,69.56684,0.0],[170.66765,69.54043,0.0],[170.68043,69.52017,0.0],[170.67872,69.50731,0.0],[170.67644,69.49811,0.0],[170.67774,69.48876,0.0],[170.68719,69.47606,0.0],[170.7024,69.46613,51.0561],[170.71795,69.46223,0.0],[170.73178,69.45653,0.0],[170.74244,69.44135,0.0],[170.74399,69.43293,0.0],[170.74244,69.40412,0.0],[170.74855,69.39118,0.0],[170.76303,69.38483,1.3022],[170.79705,69.37641,0.5331],[170.85865,69.34683,5.4044],[170.88941,69.32758,5.1188],[170.9131,69.30414,5.7441],[170.92612,69.25975,0.0],[170.92742,69.24897,0.0],[170.92945,69.24164,0.0],[170.92986,69.23404,0.0],[170.92612,69.22215,0.0],[170.91847,69.21284,0.0],[170.89666,69.19404,0.0],[170.8921,69.18439,0.0],[170.90008,69.17121,4.1279],[170.91944,69.16498,45.1718],[170.96095,69.15705,33.8079],[170.98024,69.14435,66.0189],[170.99562,69.12653,0.0],[171.00571,69.10505,0.0],[171.00929,69.08161,0.0],[171.0276,69.05475,0.9235],[171.07057,69.04511,1.7305],[171.15943,69.04409,2.1477],[171.15943,69.03726,1.9717],[171.0503,69.02774,2.1727],[171.01547,69.03726,0.0],[170.99204,69.0528,0.9946],[170.97926,69.05585,0.0],[170.96095,69.05028,0.0],[170.95533,69.04515,0.0],[170.94044,69.02363,0.3948],[170.91928,69.00609,0.3853],[170.89438,68.99323,0.2384],[170.75929,68.9538,0.0],[170.68043,68.94038,0.0],[170.68735,68.9311,0.8081],[170.70973,68.91743,0.7924],[170.71453,68.91035,0.937],[170.71339,68.90135,1.0752],[170.70875,68.88548,0.2258],[170.70769,68.87588,0.0338],[170.71453,68.85944,2.1155],[170.72576,68.83975,1.5778],[170.72804,68.82197,2.8066],[170.72202,68.82494,0.6971],[170.70875,68.82836,-0.4904],[170.69899,68.83698,-0.7618],[170.69361,68.84805,-0.1666],[170.69402,68.85847,0.5409],[170.66041,68.87767,-0.5861],[170.65252,68.88581,-0.1381],[170.65309,68.89208,-0.5314],[170.66196,68.90717,-0.6658],[170.65984,68.91376,0.0893],[170.63307,68.91816,0.3572],[170.59457,68.909,0.8831],[170.52898,68.88581,0.0],[170.47608,68.87495,0.0],[170.44923,68.86347,0.0],[170.4402,68.84545,0.7377],[170.45867,68.83173,1.7836],[170.56373,68.82494,1.2363],[170.55177,68.81489,1.728],[170.54575,68.81232,-1.098],[170.53639,68.81127,-0.7571],[170.54933,68.79304,0.9213],[170.62517,68.7486,-0.5453],[170.60955,68.75235,2.6467],[170.58473,68.76227,1.7962],[170.55152,68.77196,-0.7667],[170.49391,68.8002,0.1267],[170.42286,68.80707,-0.3727],[170.39967,68.81232,-0.2106],[170.3781,68.82123,0.4663],[170.35108,68.82807,0.319],[169.98829,68.80266,0.0],[169.6255,68.77725,0.0],[169.52394,68.80532,0.0],[169.48414,68.82168,0.0],[169.45387,68.84545,0.0],[169.43458,68.8867,0.0],[169.43312,68.97431,0.0],[169.41977,69.02363,0.0],[169.37127,69.07656,0.0],[169.30421,69.09772,0.0],[169.15235,69.10554,0.0],[169.11443,69.11424,0.0],[169.03956,69.14134,0.0],[168.96461,69.15192,0.0],[168.8506,69.18806,0.0],[168.65805,69.21357,0.0],[168.37184,69.22114,0.0],[168.32862,69.22948,0.0],[168.28826,69.24266,0.0],[168.26661,69.25544,0.0],[168.24366,69.27595,2.643],[168.23113,69.29877,2.8152],[168.24041,69.31843,0.0],[168.23268,69.33637,0.0],[168.22088,69.35187,4.3452],[168.19207,69.37987,10.6055],[168.23219,69.44147,4.3004],[168.24041,69.46182,3.3323],[168.24138,69.47175,10.398],[168.23943,69.49287,7.1654],[168.24041,69.50275,6.4117],[168.24643,69.5152,13.93],[168.2531,69.52342,12.393],[168.2566,69.53168,2.5056],[168.25408,69.54434,1.5292],[168.24098,69.55829,0.0],[168.21974,69.56786,0.0],[168.10328,69.60578,0.0],[167.96551,69.63434,0.8254],[167.92644,69.6542,0.9404],[167.97788,69.68325,1.6404],[167.99098,69.68773,0.9745],[168.01401,69.68976,1.4332],[168.08334,69.70881,0.0],[168.05909,69.71955,0.0],[168.03614,69.72053,0.0],[167.98715,69.71503,0.0],[167.96258,69.71699,2.1091],[167.93824,69.72224,0.0],[167.89161,69.73957,1.0616],[167.84816,69.76374,0.0],[167.8296,69.77025,0.0],[167.80201,69.77521,0.0],[167.71648,69.77709,0.0],[167.67408,69.77188,0.0],[167.58692,69.74079,0.0],[167.535,69.71385,0.0],[167.50953,69.69526,0.0],[167.22413,69.59868,0.0],[166.93873,69.5021,0.0],[166.89381,69.49592,0.0],[166.67823,69.49592,0.0],[166.69842,69.50674,0.6644],[166.69256,69.5148,0.0],[166.62965,69.53368,0.0],[166.35243,69.52847,0.0],[166.07521,69.52326,25.142],[166.03199,69.52969,18.6299],[165.94606,69.55781,0.0],[165.78924,69.58466,0.0],[165.73316,69.58291,0.0],[165.67473,69.59598,0.0],[165.26947,69.59795,0.0],[164.83426,69.5674,0.0],[164.53793,69.60391,0.0],[164.43914,69.62075,0.0],[164.31398,69.66787,0.0],[164.23707,69.6826,0.0],[164.13608,69.72557,351.3716],[164.13038,69.7307,157.5499],[164.12525,69.74555,55.8956],[164.1194,69.75288,0.0],[164.10825,69.75934,0.0],[164.07276,69.7685,0.0],[164.02703,69.77383,0.0],[163.98227,69.76459,0.0],[163.89276,69.73888,0.0],[163.77303,69.6944,0.0],[163.58481,69.68407,0.0],[163.47788,69.68773,0.0],[163.46119,69.69135,0.0],[163.41635,69.70881,0.0],[163.39625,69.71044,0.0],[163.35377,69.70742,0.0],[163.30405,69.72028,0.0],[163.16505,69.72089,0.0],[163.08912,69.70881,0.0],[163.02312,69.68549,0.0],[162.76881,69.6542,0.0],[162.73024,69.65851,0.0],[162.65756,69.67723,0.0],[162.62135,69.68155,0.0],[162.43177,69.67713,0.0],[162.43177,69.67709,0.0],[162.43125,69.66965,0.0],[162.43239,69.66086,0.0],[162.43456,69.65683,0.0],[162.43807,69.65182,29.2645],[162.442,69.64743,10.3843],[162.44459,69.6434,13.5448],[162.44552,69.64027,13.5718],[162.44211,69.6364,14.1455],[162.43187,69.63187,19.0248],[162.36149,69.62226,34.8093],[162.34929,69.61839,33.1198],[162.33968,69.6097,49.3908],[162.33989,69.60361,74.7442],[162.34433,69.59823,112.579],[162.37772,69.57699,133.9963],[162.37885,69.57255,121.9067],[162.37276,69.56857,115.6666],[162.34185,69.5618,120.1276],[162.32821,69.55637,175.9965],[162.3154,69.54679,213.1286],[162.31136,69.53984,131.0585],[162.31105,69.53359,130.837],[162.31757,69.52408,133.6102],[162.32728,69.51503,127.7947],[162.40717,69.46873,161.8111],[162.41172,69.46418,183.6132],[162.41379,69.45938,205.5152],[162.41286,69.45406,227.6935],[162.40821,69.44842,250.4189],[162.40097,69.44258,194.1187],[162.36614,69.42274,297.4729],[162.36811,69.41742,333.9037],[162.37834,69.41349,311.0781],[162.47384,69.39597,349.1214],[162.49492,69.38832,483.0633],[162.50742,69.37974,573.8565],[162.51042,69.37499,590.316],[162.51228,69.37003,524.5848],[162.51197,69.36486,467.5863],[162.51104,69.35954,472.5284],[162.51073,69.35442,527.1127],[162.51239,69.34424,606.1735],[162.52065,69.32471,790.6827],[162.52396,69.32001,732.4766],[162.52841,69.31541,576.1664],[162.5405,69.30673,488.7755],[162.55724,69.29861,565.3114],[162.64809,69.26934,405.2122],[162.77418,69.20337,425.3798],[162.77873,69.19883,428.3668],[162.78048,69.19386,476.7837],[162.77883,69.18854,521.3707],[162.76725,69.18234,654.7599],[162.74772,69.17526,541.0689],[162.70886,69.16586,407.8663],[162.6853,69.15671,412.4046],[162.67289,69.14963,447.1245],[162.66545,69.14426,421.2229],[162.65646,69.14084,391.183],[162.61915,69.14183,332.7746],[162.59548,69.13929,329.6663],[162.52375,69.1178,574.8973],[162.5098,69.10922,639.7175],[162.50401,69.10219,567.3145],[162.50546,69.09718,517.1699],[162.50339,69.0918,464.5553],[162.49678,69.08059,534.6777],[162.4974,69.07558,514.1041],[162.5006,69.07082,598.2878],[162.50835,69.06674,691.9327],[162.54505,69.05708,559.5694],[162.55094,69.05284,604.0535],[162.55228,69.04783,692.0296],[162.55063,69.0424,650.9631],[162.5438,69.03114,693.5307],[162.53833,69.02535,551.5942],[162.53492,69.01972,446.6884],[162.53213,69.01419,386.2295],[162.53171,69.00907,393.8615],[162.53213,69.00468,399.218],[162.53574,69.00062,536.0588],[162.55414,68.99129,617.1573],[162.70204,68.94334,462.4672],[162.76136,68.93145,401.4654],[162.7719,68.92789,348.0721],[162.77625,68.92339,322.4861],[162.77749,68.91915,309.5612],[162.77232,68.90463,411.742],[162.77294,68.89962,368.7626],[162.7747,68.89466,339.7256],[162.78007,68.89029,319.7712],[162.78989,68.88649,301.7664],[162.83412,68.87776,310.4874],[162.84322,68.87396,325.391],[162.84694,68.86928,319.433],[162.84622,68.86401,319.6743],[162.84322,68.85864,329.8183],[162.83474,68.85259,379.1677],[162.79144,68.83197,316.5821],[162.78307,68.82567,393.1674],[162.77097,68.81384,320.8363],[162.75526,68.80221,309.0798],[162.74173,68.79753,253.8937],[162.72395,68.79394,213.0154],[162.69108,68.79226,179.5862],[162.64912,68.79552,214.3223],[162.60985,68.80438,223.9603],[162.60044,68.80503,222.9436],[162.5961,68.80056,246.1596],[162.59434,68.79565,286.6534],[162.59434,68.79022,370.6913],[162.59496,68.7851,406.4921],[162.59527,68.76449,393.0518],[162.59796,68.75446,457.389],[162.59869,68.74945,429.3396],[162.59993,68.74443,372.6922],[162.60075,68.73942,359.9443],[162.60365,68.7295,416.6639],[162.60447,68.72444,385.7371],[162.60582,68.71942,351.3545],[162.60644,68.71441,346.3179],[162.60819,68.7094,386.5331],[162.61047,68.70449,414.9395],[162.61408,68.69984,434.3259],[162.6206,68.6956,401.1038],[162.62938,68.69167,371.2853],[162.6699,68.68154,367.8793],[162.67858,68.67757,334.377],[162.68509,68.67333,329.3474],[162.6884,68.66868,377.9482],[162.69057,68.66372,450.5653],[162.6915,68.6587,460.2254],[162.69325,68.65377,442.7253],[162.69542,68.64888,441.2833],[162.69821,68.64413,461.4629],[162.7194,68.62119,405.9319],[162.72374,68.61235,448.8831],[162.72374,68.60873,443.0144],[162.72323,68.60517,437.0249],[162.72064,68.60041,446.6955],[162.71713,68.59512,432.957],[162.71165,68.58946,355.1226],[162.69615,68.57809,414.6677],[162.64251,68.55339,630.7391],[162.63238,68.5476,565.0814],[162.62752,68.54238,554.0967],[162.61967,68.53173,568.2014],[162.61253,68.52641,434.9356],[162.58711,68.51168,346.0163],[162.58225,68.50641,349.2644],[162.58091,68.50125,500.5492],[162.58184,68.49628,521.9249],[162.58525,68.48631,517.2147],[162.58618,68.48135,449.1189],[162.58907,68.47132,415.1096],[162.59,68.46631,356.557],[162.59155,68.46135,313.841],[162.59248,68.45639,301.5135],[162.59186,68.45112,307.1991],[162.58907,68.44559,279.9024],[162.58401,68.4398,237.1211],[162.53915,68.40564,167.3515],[162.53605,68.40177,168.848],[162.53357,68.39784,181.3373],[162.5314,68.39303,182.8827],[162.52954,68.38782,178.392],[162.52923,68.3826,170.0747],[162.53047,68.37764,182.2142],[162.5343,68.36777,173.3901],[162.53543,68.36278,179.4259],[162.5345,68.35766,183.8535],[162.52861,68.35218,187.2558],[162.51662,68.34715,160.8407],[162.46681,68.33505,102.5033],[162.45658,68.33151,88.3804],[162.448,68.32715,105.5446],[162.44242,68.32185,108.9863],[162.43901,68.3164,105.337],[162.43125,68.3119,120.8415],[162.41761,68.30906,102.2444],[162.38392,68.31066,85.7933],[162.2201,68.34131,42.1018],[162.20243,68.34908,46.9161],[162.19189,68.35247,54.7089],[162.17814,68.35459,56.309],[161.71068,68.3734,61.6459],[161.6959,68.37593,55.8264],[161.65218,68.39017,50.5083],[161.4062,68.41185,16.8929],[161.37964,68.40996,32.6863],[161.22554,68.38378,5.2337],[161.11092,68.33531,5.1626],[161.0454,68.32182,3.7974],[161.01966,68.30901,9.917],[160.99703,68.301,-0.5671],[159.85012,68.27743,59.7591],[159.83462,68.27449,80.0854],[159.81663,68.26723,59.8951],[159.80826,68.26095,61.3018],[159.80433,68.2549,73.8058],[159.80299,68.24948,56.4425],[159.80247,68.22845,55.0328],[159.80113,68.22292,49.6319],[159.79896,68.21739,55.0508],[159.79245,68.21245,68.2073],[159.78139,68.20907,60.551],[159.75886,68.20927,67.6886],[159.74553,68.21181,57.7292],[159.73612,68.21589,44.2616],[159.71245,68.23304,36.9942],[159.7047,68.23656,40.7119],[159.69323,68.23868,30.0689],[159.55288,68.23919,21.7843],[159.51484,68.23441,41.8596],[159.461,68.22255,50.0907],[159.11104,68.19067,83.9779],[159.01327,68.17217,62.4074],[158.98537,68.16354,65.4681],[158.96738,68.15569,75.4364],[158.96097,68.15016,82.3292],[158.95167,68.14602,92.7648],[158.9339,68.14364,99.1141],[158.63262,68.14163,68.1967],[158.41941,68.11099,45.4456],[158.27657,68.076,82.2942],[158.25642,68.06851,63.1721],[158.23978,68.05218,62.1735],[158.23213,68.00303,69.561],[158.22593,67.99569,77.7232],[158.21911,67.98536,70.135],[158.19823,67.96128,71.4163],[158.19162,67.95523,69.0737],[158.18448,67.94986,72.287],[158.1757,67.94528,70.3882],[158.16588,67.94169,73.0907],[158.07328,67.92464,148.0889],[158.06584,67.92097,116.5953],[158.06222,67.9158,98.061],[158.0647,67.90952,93.6386],[158.06191,67.90397,85.5689],[158.05695,67.89921,75.7163],[158.05281,67.89281,121.3736],[158.05157,67.88506,185.8671],[158.05312,67.86345,197.4874],[158.05715,67.85545,131.9797],[158.06687,67.84707,156.6982],[158.07886,67.84258,169.2088],[158.09333,67.84041,173.9793],[158.20422,67.84139,206.8884],[158.2342,67.83834,184.7009],[158.25766,67.83193,228.793],[158.26448,67.82782,275.7386],[158.26985,67.82341,304.5163],[158.28939,67.79126,235.8301],[158.29683,67.78263,236.3436],[158.30468,67.77599,237.2897],[158.31843,67.76734,263.174],[158.32401,67.76289,259.3569],[158.32804,67.7584,264.0774],[158.32918,67.75359,273.7096],[158.32546,67.74868,260.3181],[158.31864,67.74411,231.5406],[158.30902,67.74057,192.6376],[158.29828,67.73778,165.5894],[158.24949,67.73152,171.5399],[158.19565,67.72948,248.7756],[158.151,67.72,188.3645],[158.13808,67.71964,190.7991],[158.12464,67.72103,221.8056],[158.07834,67.73344,206.9741],[158.06408,67.73556,196.7258],[157.92373,67.73615,206.4312],[157.8059,67.70548,220.3337],[157.79846,67.69974,233.5477],[157.79536,67.69194,299.1288],[157.79226,67.67856,340.5357],[157.78461,67.67192,297.6396],[157.7749,67.66734,263.1779],[157.76353,67.66517,235.9581],[157.7533,67.66207,237.5336],[157.7443,67.65807,263.1985],[157.73759,67.65256,257.4335],[157.73283,67.64662,228.432],[157.71805,67.62264,196.3382],[157.71805,67.61683,224.1715],[157.72136,67.61117,263.1827],[157.73139,67.60507,329.8908],[157.7381,67.60016,367.4572],[157.74131,67.59556,365.2776],[157.73686,67.59099,334.3141],[157.72239,67.58102,267.8398],[157.7164,67.57515,259.5526],[157.69201,67.54549,300.4387],[157.69108,67.53947,329.8836],[157.69449,67.53386,342.9831],[157.70524,67.52787,344.2626],[157.73976,67.51655,520.8878],[157.74751,67.51257,500.336],[157.75319,67.50756,623.1246],[157.7566,67.50193,460.6784],[157.75598,67.49405,315.7079],[157.75237,67.4872,302.9001],[157.75082,67.48064,366.2799],[157.75319,67.47477,314.7969],[157.76684,67.46927,322.0904],[157.86254,67.45265,277.3471],[157.87298,67.44911,282.5027],[157.88042,67.4441,325.5745],[157.88476,67.43774,401.9949],[157.88486,67.42744,401.4441],[157.88176,67.41992,318.1462],[157.87618,67.41284,318.2609],[157.86905,67.40751,285.2364],[157.84528,67.39315,291.3396],[157.83246,67.38214,332.2242],[157.79257,67.3579,488.6763],[157.78606,67.35253,648.9061],[157.78337,67.34617,585.6632],[157.78544,67.33873,386.4692],[157.79629,67.32785,589.2324],[157.82451,67.30742,451.4865],[157.85293,67.27827,482.8703],[157.86037,67.27197,429.2091],[157.86926,67.26732,364.7925],[157.88042,67.26424,457.1114],[157.89293,67.26241,467.8165],[157.94667,67.2607,449.6992],[157.95845,67.25814,469.6729],[158.06584,67.21879,384.4066],[158.1665,67.19383,571.6787],[158.17415,67.1898,521.3547],[158.19885,67.17022,551.2413],[158.21063,67.1652,448.3634],[158.29869,67.14768,534.9817],[158.30737,67.14394,542.3864],[158.33755,67.12169,464.0383],[158.35212,67.11683,537.2951],[158.3667,67.11446,711.952],[158.44225,67.11924,437.3471],[158.46798,67.11544,402.1404],[158.70259,67.05524,374.9694],[158.71086,67.05089,380.3419],[158.71727,67.04526,376.6237],[158.72388,67.03767,440.8573],[158.72946,67.02986,460.1236],[158.73494,67.02407,498.9403],[158.7459,67.01488,490.1432],[158.79509,66.98625,429.4665],[158.80057,66.98134,390.6749],[158.80367,66.97524,393.4656],[158.80336,66.96692,419.2101],[158.78879,66.95041,372.3412],[158.78321,66.94276,379.398],[158.78259,66.93279,494.5648],[158.78424,66.9261,481.8101],[158.78724,66.92031,436.3216],[158.79478,66.9109,439.3262],[158.79964,66.90641,448.4344],[158.80533,66.90212,405.3723],[158.81246,66.89809,385.7165],[158.84987,66.88346,336.0161],[158.85597,66.87917,353.3343],[158.86031,66.87457,404.5475],[158.86403,66.8646,465.4583],[158.86444,66.85887,497.8682],[158.86382,66.85256,498.7985],[158.86413,66.84476,517.8743],[158.86682,66.83912,526.949],[158.87261,66.83422,423.1173],[158.88573,66.82592,404.4867],[158.89131,66.82155,430.5616],[158.90062,66.81256,480.7596],[158.90341,66.80781,600.8124],[158.90516,66.80274,745.4606],[158.9033,66.79696,746.738],[158.89876,66.79081,683.2433],[158.88852,66.78357,513.0652],[158.80553,66.74668,351.6188],[158.76285,66.73691,472.3674],[158.71582,66.73086,355.7432],[158.70156,66.71978,384.5671],[158.68575,66.70089,398.3582],[158.63665,66.61914,348.1276],[158.63014,66.61304,300.1924],[158.61547,66.60229,330.4827],[158.59945,66.59281,294.2226],[158.58064,66.58555,338.5782],[158.5487,66.57842,432.7964],[158.53929,66.57485,401.8354],[158.5302,66.56912,342.0233],[158.52245,66.56095,352.1221],[158.51366,66.54793,386.0396],[158.50509,66.54038,428.9631],[158.48152,66.52498,320.1405],[158.47718,66.51945,324.7544],[158.47501,66.51398,336.7018],[158.47377,66.49956,398.0508],[158.47036,66.48803,480.681],[158.4624,66.4824,394.993],[158.45186,66.47894,564.4479],[158.38561,66.46669,496.4575],[158.36752,66.45912,481.5108],[158.3606,66.45388,439.5105],[158.35894,66.44773,590.2216],[158.36556,66.44075,468.5566],[158.39729,66.43228,545.2362],[158.4131,66.42649,410.4957],[158.42819,66.41822,452.2203],[158.47873,66.38298,468.9181],[158.52896,66.35939,489.0323],[158.54364,66.35714,480.7705],[158.60492,66.35768,374.7799],[158.61857,66.35611,446.0226],[158.64161,66.35006,581.1816],[158.75613,66.29079,601.2717],[158.77587,66.28376,570.6374],[158.88821,66.26373,599.6108],[158.99177,66.26056,397.1543],[159.16644,66.23405,150.058],[159.18039,66.2296,149.3588],[159.19114,66.21958,150.3546],[159.19765,66.21136,150.5975],[159.20241,66.20206,151.3488],[159.20489,66.19307,152.7237],[159.20551,66.18015,150.3282],[159.20478,66.17141,152.5586],[159.20292,66.16387,151.3024],[159.19951,66.15762,151.2619],[159.19486,66.15152,154.8311],[159.18928,66.14527,153.6619],[159.16489,66.12811,160.3198],[159.1405,66.10434,159.3232],[159.12613,66.09318,159.3594],[159.11776,66.08821,160.4535],[159.09089,66.07695,160.8495],[159.0758,66.06765,161.6042],[159.05244,66.04801,162.4815],[159.04314,66.03597,163.5191],[159.03229,66.01747,164.741],[159.0296,66.01116,166.4635],[159.02381,66.00166,171.9424],[159.02216,65.99949,167.4713],[159.00945,65.98698,166.9518],[159.00511,65.98078,165.5193],[158.99839,65.96641,168.4494],[158.99394,65.94182,168.8271],[158.99157,65.93577,168.4471],[158.9865,65.92972,171.195],[158.97823,65.92419,169.1759],[158.94268,65.9083,173.7174],[158.93369,65.90257,173.6788],[158.92873,65.89582,175.0144],[158.92697,65.88841,175.433],[158.92728,65.87856,176.6062],[158.92687,65.87097,183.3013],[158.92728,65.85691,178.104],[158.92573,65.84296,178.4593],[158.92956,65.83422,180.659],[158.9401,65.82187,180.6715],[158.93865,65.81371,179.9281],[158.93121,65.80704,182.9937],[158.89535,65.79115,180.6139],[158.89038,65.78503,183.7072],[158.89276,65.77823,196.1266],[158.89896,65.77097,193.924],[158.90361,65.76389,193.236],[158.91012,65.75004,186.4251],[158.9217,65.74302,199.0408],[159.25057,65.66834,204.3205],[159.37656,65.6577,439.0473],[159.73839,65.56287,216.0903],[159.79121,65.53988,219.0954],[159.8342,65.52851,222.3114],[159.90355,65.52272,220.9294],[159.96866,65.5251,226.4535],[159.99709,65.52334,227.8118],[160.02737,65.51486,245.0674],[160.08184,65.48613,232.565],[160.14002,65.46686,245.1781],[160.1578,65.45828,236.8139],[160.17,65.45053,310.2271],[160.18188,65.43885,237.0794],[160.1856,65.43389,246.4601],[160.18798,65.42766,236.8559],[160.18715,65.42195,240.5301],[160.17258,65.40361,240.3834],[160.16938,65.39487,243.8754],[160.16845,65.39032,243.4124],[160.16814,65.38562,242.4947],[160.16948,65.38206,243.905],[160.17382,65.37606,242.1892],[160.20906,65.34782,243.188],[160.28616,65.32123,248.0259],[160.3028,65.31296,249.8124],[160.34673,65.28418,257.8593],[160.41825,65.25147,256.9637],[160.42631,65.24542,257.2858],[160.42828,65.23938,257.3398],[160.42786,65.23297,258.6789],[160.43003,65.22641,259.0197],[160.43561,65.22021,258.2481],[160.4476,65.21359,257.8761],[160.48274,65.19907,262.5998],[160.49256,65.19266,269.0147],[160.49794,65.18801,261.1606],[160.50424,65.17814,260.1923],[160.50744,65.17403,260.5008],[160.5123,65.16923,264.6566],[160.51954,65.16553,262.6935],[160.53659,65.16197,264.1257],[160.68759,65.14912,273.3564],[161.00995,65.16982,302.4519],[161.28114,65.14068,331.9421],[161.34801,65.12264,342.4143],[161.36662,65.1152,346.1434],[161.37685,65.10848,348.205],[161.38026,65.10383,349.1624],[161.38243,65.09918,350.888],[161.38574,65.09458,351.9296],[161.38853,65.08993,353.3205],[161.39607,65.08073,356.3891],[161.40186,65.07644,357.7541],[161.40868,65.07236,359.8264],[161.41736,65.06874,361.8041],[161.64484,65.01309,401.6279],[161.6899,64.99417,412.7724],[161.70231,64.98575,417.108],[161.70737,64.98136,419.1718],[161.71068,64.97673,420.8187],[161.71843,64.96229,428.4469],[161.71998,64.95229,500.3482],[161.71843,64.9471,482.4622],[161.71512,64.93097,682.6808],[161.71605,64.92596,619.4142],[161.71812,64.92105,503.0129],[161.72091,64.91635,524.3412],[161.72494,64.91165,485.8231],[161.73951,64.89811,548.2055],[161.76576,64.88157,555.5137],[161.77114,64.87728,621.0893],[161.77476,64.87263,650.7843],[161.77548,64.86757,727.9761],[161.77538,64.85728,849.3969],[161.77765,64.84757,582.8813],[161.78034,64.84271,548.9811],[161.78447,64.83808,549.4716],[161.79915,64.82994,596.4235],[161.80938,64.82653,529.0282],[161.86726,64.81271,913.7842],[162.21204,64.77057,613.3593],[162.2263,64.76685,712.2514],[162.25039,64.75517,947.7446],[162.29286,64.74235,858.1154],[162.32976,64.74101,610.8619],[162.51022,64.75197,608.7543],[162.55404,64.74672,629.5888],[162.60768,64.73424,698.5447],[162.62649,64.7269,732.4005],[162.63352,64.72277,714.7368],[162.64447,64.71393,759.6082],[162.65088,64.70447,748.6547],[162.65274,64.69957,811.0372],[162.65615,64.69497,700.474],[162.66049,64.69039,766.9959],[162.66669,64.68618,742.2287],[162.67424,64.68225,709.2017],[162.71072,64.66732,721.8746],[162.73573,64.66122,729.7704],[162.9969,64.64866,794.5183],[163.0338,64.65202,939.8639],[163.04393,64.65445,948.7809],[163.08362,64.66975,817.0779],[163.10088,64.679,830.1531],[163.10925,64.68489,851.948],[163.11731,64.69326,955.9409],[163.12599,64.71476,1074.7462],[163.13695,64.77021,1363.3385],[163.10925,64.77574,1210.8535],[163.10532,64.77943,1100.2659],[163.10253,64.78457,1134.1012],[163.10491,64.79002,1289.4028],[163.10956,64.79548,1367.9943],[163.11648,64.80054,1511.6378],[163.13405,64.80803,1217.9374],[163.17405,64.81956,1169.228],[163.20247,64.82395,1285.2587],[163.21519,64.82312,993.0054],[163.22573,64.82054,1208.7295],[163.24144,64.81315,1005.2075],[163.25188,64.81093,951.7754],[163.3452,64.81847,1398.1786],[163.35595,64.8223,1141.4208],[163.40587,64.85227,994.9932],[163.42923,64.87082,921.1075],[163.44173,64.87625,925.6288],[163.46406,64.88302,957.5149],[163.47357,64.88849,894.4355],[163.47853,64.89408,854.3669],[163.47946,64.90469,878.6951],[163.48225,64.91128,968.9917],[163.48866,64.91842,941.6761],[163.50333,64.92829,1007.7048],[163.52028,64.93144,986.1252],[163.5671,64.93335,908.8227],[163.58498,64.93232,1222.9102],[163.59914,64.92973,1188.2085],[163.60886,64.92611,1191.5264],[163.61619,64.92208,1099.0417],[163.62208999999999,64.9179,1295.2454],[163.63139,64.90901,1170.4792],[163.63707,64.90472,1102.9735],[163.644,64.90059,1055.427],[163.65278,64.89702,965.7167],[163.66415,64.89413,1016.4028],[163.68926,64.89128,1210.5946],[163.77815,64.89475,982.2202],[163.792,64.8932,1253.2175],[163.80037,64.88989,1069.9036],[163.80719,64.88586,1127.2628],[163.82414,64.87307,998.4126],[163.83375,64.86917,962.9963],[163.8475,64.86612,916.5767],[163.87282,64.8654,912.2127],[163.93721,64.8747,752.9297],[164.00594,64.87307,872.2787],[164.02196,64.87516,691.8262],[164.03281,64.87883,721.5911],[164.04025,64.88932,770.8006],[164.04614,64.8948,758.2555],[164.05813,64.90012,798.892],[164.07002,64.90252,731.7032],[164.09399,64.90438,797.5478],[164.11818,64.90219,728.4649],[164.12965,64.89945,685.4895],[164.13565,64.90105,656.2036],[164.13833,64.90482,709.0221],[164.1405,64.91524,822.1566],[164.14577,64.92157,760.1669],[164.15477,64.92769,844.8027],[164.1743,64.93425,709.6464],[164.18784,64.93412,672.8204],[164.19807,64.9318,676.0171],[164.21636,64.9249,680.0187],[164.46017,64.87651,855.0927],[164.46989,64.87315,876.4615],[164.47692,64.86917,954.1655],[164.48684,64.86038,985.4103],[164.49862,64.8472,1013.0185],[164.50482,64.84292,992.1855],[164.51319,64.83909,1123.8158],[164.53614,64.83299,1047.5784],[164.57324,64.82653,1101.1654],[164.59402,64.8194,1182.9359],[164.60911,64.8162,937.4108],[164.65148,64.81165,1123.549],[164.6645,64.80899,1109.4344],[164.67132,64.80511,1175.8881],[164.68083,64.79605,1242.0514],[164.68703,64.79186,1359.1687],[164.69551,64.78804,1294.041],[164.70688,64.78493,1187.6654],[164.79793,64.7716,1014.0634],[164.80661,64.76778,1075.1184],[164.80847,64.76292,1010.8774],[164.80971,64.75775,1049.26],[164.81188,64.75274,881.6557],[164.8186,64.7485,896.7304],[164.84868,64.73755,780.3664],[164.85415,64.73326,808.1852],[164.85415,64.72814,931.2599],[164.85178,64.72266,914.5795],[164.84806,64.71698,844.8635],[164.84558,64.71145,859.5251],[164.84465,64.70613,898.2943],[164.84496,64.70101,947.5687],[164.85074,64.6959,1043.9618],[164.86098,64.69091,1132.7983],[164.88196,64.68592,1069.6996],[164.93188,64.68494,1014.0298],[165.00371,64.6899,1075.2084],[165.0188,64.69404,949.0692],[165.02252,64.69889,978.424],[165.02407,64.70401,923.1662],[165.02376,64.70913,949.548],[165.02469,64.71941,954.1446],[165.02572,64.72463,1095.3463],[165.02934,64.73509,1054.3547],[165.03006,64.74021,1049.4297],[165.02975,64.7453,1034.8527],[165.02665,64.75,1148.6993],[165.0098,64.76292,987.6889],[165.00588,64.76757,902.9694],[165.00402,64.77279,878.0906],[165.00371,64.77819,797.9995],[165.00464,64.78359,832.6251],[165.01208,64.80514,790.7637],[165.01456,64.81579,718.996],[165.01642,64.82111,727.3364],[165.01766,64.82628,799.1569],[165.01942,64.83144,893.5845],[165.02035,64.83666,1045.6566],[165.02841,64.8424,1019.8495],[165.04463,64.84788,810.6478],[165.12442,64.85687,934.8638],[165.26271,64.85062,790.1266],[165.28317,64.84591,871.6356],[165.34136,64.80783,813.879],[165.34384,64.80178,760.111],[165.34353,64.79449,771.1323],[165.33537,64.79093,865.9394],[165.32823,64.78685,820.1663],[165.32472,64.78214,830.8019],[165.32947,64.77548,1026.5475],[165.33661,64.77,910.0003],[165.34787,64.76416,833.4709],[165.35934,64.76132,856.8898],[165.37082,64.76065,773.743],[165.4041,64.76204,740.9256],[165.41433,64.76041,709.3978],[165.42301,64.75607,717.1952],[165.43365,64.7485,842.9091],[165.44564,64.74483,778.8651],[165.45856,64.7422,823.8228],[165.47065,64.7421,777.0105],[165.4814,64.74328,786.6204],[165.48936,64.74757,820.3434],[165.49567,64.75279,1050.1692],[165.51055,64.76917,895.4231],[165.51716,64.77256,740.5829],[165.52729,64.77016,693.3008],[165.55726,64.75651,751.5625],[165.57101,64.75331,757.5179],[165.58372,64.75259,818.0279],[165.64274,64.76018,735.421],[165.66258,64.76023,801.5854],[165.67374,64.7576,737.3101],[165.68398,64.75398,676.6996],[165.73648,64.72726,713.5568],[165.74423,64.72124,791.8464],[165.7464,64.71595,872.4448],[165.74516,64.71068,766.1596],[165.7403,64.69982,747.3524],[165.73813,64.68928,772.7279],[165.73865,64.68432,791.6368],[165.74299,64.67879,904.3813],[165.83001,64.63595,857.3593],[165.89006,64.61735,621.5512],[165.8913,64.6129,699.3878],[165.88613,64.60934,702.622],[165.81978,64.59001,807.9704],[165.81833,64.58391,769.6828],[165.82764,64.57544,780.1047],[165.8542,64.55968,738.2649],[165.87146,64.55466,812.5635],[165.88582,64.55319,912.96],[165.95135,64.56092,694.3945],[166.03455,64.55947,849.7455],[166.05687,64.56159,977.9343],[166.067,64.56381,993.8096],[166.07641,64.56676,879.0164],[166.08292,64.57094,835.3416],[166.08808,64.57549,856.5118],[166.09377,64.57947,896.0442],[166.10266,64.58174,966.3717],[166.12395,64.58461,982.1503],[166.13387,64.58691,839.1311],[166.14203,64.59073,773.8261],[166.14824,64.59585,698.0013],[166.1534,64.60138,710.2465],[166.16023,64.60673,759.2589],[166.17562,64.60949,912.5403],[166.19857,64.60898,940.1584],[166.29076,64.59549,746.6615],[166.30192,64.59652,891.6629],[166.31215,64.59864,857.7114],[166.32177,64.60185,767.4225],[166.3321,64.60427,708.3182],[166.34812,64.60546,647.4629],[166.406,64.60066,697.168],[166.61084,64.55255,802.9139],[166.72133,64.55337,644.4907],[166.7359,64.55141,737.6956],[166.75016,64.54712,664.4528],[166.7821,64.53441,648.528],[166.79554,64.5327,659.6916],[166.8068,64.53293,717.1373],[166.84545,64.54438,753.4139],[166.85899,64.5466,779.4318],[167.00028,64.54976,813.2775],[167.00793,64.55115,788.9333],[167.05381,64.56707,597.7394],[167.0625,64.57151,583.4191],[167.07748,64.58267,655.0513],[167.09019,64.59427,751.5961],[167.09805,64.59947,710.2205],[167.10704,64.60252,797.0236],[167.12761,64.6067,742.7166],[167.15613,64.61864,709.0875],[167.23696,64.62365,774.8979],[167.24553,64.62086,808.8613],[167.25049,64.61665,832.7747],[167.2536,64.612,708.6611],[167.25742,64.60748,676.8077],[167.27571,64.59456,908.1806],[167.28026,64.5898,827.7455],[167.28243,64.585,786.1234],[167.28439,64.57541,829.7802],[167.28739,64.57089,839.2628],[167.29442,64.56691,800.5839],[167.3153,64.56009,673.9122],[167.32367,64.55621,679.2017],[167.33039,64.55203,798.8811],[167.34062,64.54324,648.3622],[167.3523,64.52945,865.1609],[167.35488,64.52449,745.3462],[167.36222,64.50495,801.5711],[167.36573,64.49953,647.4554],[167.37255,64.49379,790.8019],[167.38733,64.48656,620.0327],[167.40046,64.4833,698.8337],[167.41369,64.4817,748.8262],[167.49782,64.48103,541.1151],[167.50836,64.47762,651.0268],[167.5128,64.47322,616.8509],[167.51218,64.46805,525.5831],[167.5127,64.46309,450.1431],[167.51642,64.45855,466.2653],[167.52407,64.45441,579.1205],[167.59125,64.42713,849.163],[167.59807,64.42284,801.2684],[167.60272,64.41845,707.0499],[167.60592,64.41379,802.3024],[167.6081,64.40904,1000.996],[167.60872,64.40408,1031.7224],[167.60996,64.39912,961.7228],[167.61244,64.39436,863.3777],[167.61822,64.38997,775.783],[167.63528,64.38212,663.71],[167.64758,64.37344,630.6142],[167.65264,64.36881,666.0029],[167.65853,64.3645,680.463],[167.6731,64.35612,732.1555],[167.69553,64.34667,596.0044],[167.71414,64.34072,727.9337],[167.72716,64.33985,661.6831],[167.73925,64.34047,750.2438],[167.78266,64.34879,629.6494],[167.81542,64.3508,993.181],[167.82503,64.34811,830.7277],[167.82865,64.3439,789.049],[167.82844,64.33881,739.7245],[167.84415,64.33018,753.1556],[167.87506,64.31928,565.0989],[168.02574,64.286,1035.349],[168.08269,64.28977,566.7415],[168.11814,64.28745,598.2217],[168.13757,64.2882,656.7302],[168.15183,64.29099,636.9905],[168.16021,64.29579,586.4157],[168.16734,64.30124,716.4269],[168.17261,64.30685,697.501],[168.17602,64.31215,565.3293],[168.18067,64.323,523.7789],[168.1846,64.32843,528.6968],[168.19018,64.33375,571.199],[168.19814,64.33866,706.3301],[168.2094,64.34282,850.3287],[168.22304,64.34594,724.4575],[168.24403,64.34713,669.4376],[168.25984,64.34538,736.8528],[168.27338,64.34233,549.3579],[168.33043,64.32377,588.5736],[168.34552,64.32132,533.2335],[168.35833,64.32104,569.4056],[168.40629,64.32615,459.0226],[168.46096,64.32396,569.709],[168.49869,64.31737,696.9749],[168.50892,64.31365,792.7028],[168.52391,64.30538,820.856],[168.54509,64.28755,473.1861],[168.59563,64.23298,460.598],[168.60979,64.22197,395.848],[168.62498,64.21443,477.8249],[168.63832,64.21102,531.1215],[168.7457,64.19722,377.5138],[168.76358,64.19314,395.6787],[168.77237,64.18895,412.8954],[168.77795,64.18451,345.6087],[168.78012,64.17965,328.3235],[168.77908,64.17448,302.3627],[168.77082,64.1634,270.8472],[168.76761,64.15794,253.4406],[168.76678,64.15288,249.5158],[168.76895,64.14813,247.7749],[168.7733,64.14363,241.812],[168.77908,64.13924,226.127],[168.80079,64.12673,391.4555],[168.80585,64.12229,358.9337],[168.80937,64.11759,263.3622],[168.81412,64.10787,244.698],[168.82115,64.09872,264.999],[168.83913,64.08121,496.6084],[168.84254,64.07658,615.1519],[168.84544,64.07188,666.2862],[168.84781,64.06705,611.7737],[168.84905,64.06214,476.3938],[168.84967,64.05728,302.6089],[168.84905,64.04214,278.4482],[168.84978,64.03713,307.8337],[168.85195,64.03209,333.875],[168.8597,64.02658,441.956],[168.87355,64.02072,614.9305],[169.07932,63.95873,578.0495],[169.11209,63.95248,412.5394],[169.15953,63.94915,412.8612],[169.18206,63.9499,299.0352],[169.22567,63.95542,242.7751],[169.24872,63.95519,229.658],[169.2976,63.95021,223.8364],[169.32479,63.95129,210.6681],[169.34442,63.9499,174.3135],[169.35352,63.94633,235.7455],[169.35641,63.94163,295.3798],[169.35321,63.93651,267.5663],[169.34153,63.92638,201.9541],[169.3405,63.92158,192.1184],[169.34391,63.91713,184.938],[169.35755,63.90881,178.5704],[169.36323,63.90447,177.7189],[169.3654,63.89992,173.1769],[169.36561,63.89499,167.7552],[169.36313,63.88974,158.903],[169.36251,63.88463,160.7561],[169.36437,63.87982,157.8716],[169.37047,63.87445,152.2427],[169.37946,63.86913,150.641],[169.39476,63.86251,149.4814],[169.40768,63.86008,176.6498],[169.46028,63.85654,147.1474],[169.47496,63.85326,157.3568],[169.48684,63.84954,226.6973],[169.53056,63.82799,153.9699],[169.54069,63.82153,139.607],[169.547,63.81574,129.5921],[169.54937,63.81099,122.174],[169.55041,63.80618,120.512],[169.55072,63.80122,118.0645],[169.54968,63.79605,116.2223],[169.54793,63.79089,118.2739],[169.54534,63.78556,128.7871],[169.5411,63.77502,130.8321],[169.5411,63.77001,174.1664],[169.54193,63.76505,168.849],[169.54689,63.75539,142.4861],[169.5627,63.73704,222.7582],[169.56467,63.73223,261.0137],[169.56498,63.72727,307.4577],[169.5627,63.722,232.8172],[169.55289,63.70578,269.2148],[169.5532,63.69942,283.1913],[169.55619,63.69234,217.0521],[169.59454,63.66557,324.5648],[169.59764,63.66087,297.7791],[169.59836,63.65606,365.4352],[169.59609,63.65121,318.4361],[169.5904,63.64681,412.145],[169.58224,63.6434,436.7706],[169.57211,63.6417,435.7726],[169.53945,63.63948,269.4249],[169.52953,63.6371,248.0712],[169.52064,63.63322,229.7503],[169.51289,63.62857,242.2685],[169.5071,63.62325,232.7541],[169.50307,63.61782,231.2465],[169.49832,63.60733,248.323],[169.49801,63.60232,278.127],[169.50049,63.59764,287.471],[169.50493,63.59317,307.226],[169.50855,63.58852,307.9605],[169.50917,63.58361,368.723],[169.50617,63.57824,393.8548],[169.50059,63.57297,447.7192],[169.49222,63.56832,489.7886],[169.48281,63.56537,515.4028],[169.42773,63.56284,423.453],[169.40747,63.55881,354.8552],[169.38856,63.55263,392.7578],[169.35259,63.53721,494.5741],[169.34298,63.53442,515.6565],[169.33243,63.53312,525.7059],[169.32096,63.53302,599.7266],[169.28427,63.53617,410.0829],[169.26277,63.53431,372.9543],[169.24221,63.52951,471.9452],[169.20521,63.51571,834.0643],[169.14619,63.48269,500.6822],[169.13234,63.47225,575.4828],[169.12697,63.46682,448.5163],[169.11839,63.45587,355.9142],[169.11302,63.45034,359.4515],[169.09855,63.43995,398.9655],[169.00563,63.39241,363.7891],[168.9462,63.37422,216.6846],[168.93732,63.37014,228.8417],[168.92894,63.36528,246.6934],[168.91437,63.35391,229.2137],[168.89794,63.33714,198.0623],[168.88244,63.32732,193.6675],[168.86445,63.31988,223.0715],[168.79562,63.30309,279.9942],[168.78756,63.2996,266.4436],[168.78291,63.29495,278.2367],[168.78249,63.29014,236.0272],[168.79118,63.27603,265.5984],[168.79335,63.27123,246.3532],[168.79407,63.26627,310.9098],[168.79273,63.25573,296.6014],[168.79035,63.2504,338.4943],[168.78539,63.24534,331.1912],[168.77784,63.24126,429.7681],[168.76833,63.23924,391.5424],[168.75769,63.23955,379.1652],[168.72555,63.24704,415.5022],[168.71438,63.24772,318.6176],[168.70395,63.24704,268.6466],[168.69444,63.24425,222.0385],[168.68669,63.24033,238.0461],[168.68172,63.23485,244.5538],[168.68266,63.22839,275.4055],[168.69103,63.21997,438.3327],[168.70984,63.21113,274.7872],[168.72152,63.20322,271.4059],[168.72524,63.19712,307.1791],[168.72224,63.19201,305.6936],[168.715,63.18793,298.6443],[168.7057,63.1857,308.7571],[168.69506,63.18462,321.5793],[168.61424,63.1903,303.9504],[168.60462,63.18875,306.6689],[168.59708,63.18524,288.0762],[168.59253,63.18033,312.4042],[168.58995,63.1749,358.592],[168.58416,63.15896,333.7301],[168.57424,63.14767,349.9126],[168.56091,63.13625,463.0237],[168.54447,63.12648,413.5177],[168.46375,63.09364,364.1022],[168.46034,63.08773,451.0396],[168.46375,63.07822,437.9274],[168.51016,63.05408,333.2086],[168.61475,63.02489,274.0691],[168.6378,63.02375,279.7766],[168.64855,63.02458,280.2188],[168.66498,63.02236,254.991],[168.68514,63.01672,242.1454],[168.79562,62.97492,250.5765],[168.87872,62.95817,360.7728],[168.90879,62.94735,301.0284],[168.92574,62.94381,355.0154],[168.93918,62.94376,327.2175],[168.95675,62.95109,367.8405],[168.96605,62.95404,354.5536],[168.97649,62.95574,345.8307],[168.99633,62.95714,350.852],[169.00191,62.95807,352.3618],[169.00977,62.96024,348.7039],[169.0353,62.97166,316.7264],[169.0446,62.97455,324.572],[169.08749,62.97662,484.8179],[169.11209,62.97523,456.8068],[169.12666,62.97254,499.5018],[169.13565,62.96789,446.2028],[169.15446,62.95378,334.4008],[169.1802,62.94241,396.3948],[169.21647,62.9198,317.6871],[169.22753,62.91482,323.3383],[169.2511,62.90934,327.5625],[169.27456,62.90696,337.3716],[169.30587,62.89921,354.6693],[169.37894,62.87399,457.3021],[169.38597,62.86939,391.7415],[169.38814,62.86438,371.6554],[169.38845,62.85849,399.1239],[169.39073,62.85195,385.6781],[169.39899,62.8435,380.1426],[169.40985,62.83916,386.7832],[169.42152,62.83673,393.7561],[169.44457,62.83451,403.1629],[169.47558,62.8279,426.5608],[169.51444,62.81353,446.6764],[169.58131,62.77576,580.126],[169.58699,62.77095,679.5042],[169.5903,62.7663,664.9722],[169.59061,62.76129,770.311],[169.5903,62.75622,618.9423],[169.59102,62.75131,606.0577],[169.5965,62.74449,633.3398],[169.62988,62.72206,552.3745],[169.65686,62.70889,601.9506],[169.66668,62.7062,624.7795],[169.69241,62.70444,633.0517],[169.71474,62.70036,735.9265],[169.84248,62.65535,935.3973],[169.85375,62.6537,1162.2378],[169.86253,62.65488,1171.5272],[169.8707,62.65762,943.6992],[169.87721,62.6616,932.3071],[169.88589,62.66429,798.7709],[169.89581,62.66532,900.9557],[169.94346,62.65824,1239.1019],[169.95452,62.65819,1203.2427],[169.96444,62.66031,1107.2111],[169.97384,62.66382,1366.8622],[169.99038,62.67225,1046.8671],[169.99751,62.67519,1260.9292],[170.00226,62.67646,1346.4435],[170.00991,62.67739,1362.714],[170.0311,62.67524,1355.3461],[170.06035,62.66775,1132.7784],[170.07833,62.66129,875.5627],[170.07864,62.65747,1020.3505],[170.07347,62.65406,962.652],[170.04547,62.64636,716.1627],[170.03792,62.64295,677.7935],[170.03441,62.63866,648.2126],[170.03482,62.63385,665.3256],[170.04071,62.62494,863.0898],[170.04278,62.62026,946.2429],[170.04268,62.6153,913.5798],[170.03968,62.60985,863.9561],[169.99017,62.55908,818.7787],[169.98645,62.55228,863.7771],[169.98614,62.54502,1023.0668],[169.99441,62.53448,1051.1136],[170.00061,62.53003,974.0953],[170.01033,62.52688,1108.4557],[170.03472,62.52492,1084.3108],[170.04433,62.52042,1106.255],[170.08639,62.49195,976.79],[170.09073,62.48737,924.861],[170.0929,62.4827,1035.8102],[170.09228,62.47769,1244.5823],[170.08949,62.47283,1128.1118],[170.0834,62.46859,1124.6675],[170.07492,62.46562,1145.7976],[170.04578,62.46053,1310.7936],[170.03854,62.45782,1086.0027],[170.03689,62.45304,1103.1327],[170.04061,62.44712,1165.8715],[170.05105,62.43836,986.1824],[170.06097,62.43304,1129.2937],[170.07203,62.42903,1342.4171],[170.11213,62.41919,1085.0527],[170.11988,62.41469,1066.5193],[170.12267,62.40973,1266.6345],[170.11833,62.39412,1044.2756],[170.11823,62.38823,1128.6044],[170.12081,62.38157,1299.6047],[170.12691,62.37252,1310.3049],[170.136,62.36694,1369.2327],[170.15574,62.35888,1490.0438],[170.15667,62.35374,1391.5757],[170.15636,62.34808,1303.1414],[170.15936,62.34183,1089.9745],[170.16753,62.33912,1197.9467],[170.1883,62.33764,1519.4833],[170.21424,62.33309,1439.8555],[170.24277,62.29865,1498.2148],[170.26158,62.2854,1401.7927],[170.27171,62.28168,1069.6409],[170.28297,62.27889,1336.3042],[170.29413,62.27765,1471.1299],[170.30457,62.27842,1421.2186],[170.31418,62.28075,1334.1725],[170.33206,62.28767,1416.3406],[170.35666,62.30142,1378.1322],[170.36813,62.30648,1042.2916],[170.38198,62.31113,1048.9902],[170.40699,62.31405,1188.9941],[170.42322,62.31372,1021.7141],[170.43676,62.3118,946.8733],[170.4811,62.29896,1091.5632],[170.4936,62.30075,945.2073],[170.5704,62.30255,907.361],[170.74434,62.28204,1212.2614],[170.77503,62.27082,1280.9941],[170.81255,62.26126,1408.8317],[170.83167,62.25269,1569.2494],[170.84769,62.24829,1536.421],[170.85885,62.24928,1373.6893],[170.86764,62.25307,1206.0192],[170.8849,62.26964,989.876],[170.89234,62.27496,1187.3778],[170.90061,62.27935,1238.0027],[170.92117,62.28219,1012.3008],[171.06969,62.28679,1186.2245],[171.07827,62.28932,1098.0839],[171.08385,62.29289,1067.3792],[171.08354,62.29713,939.3572],[171.07713,62.30126,1008.4196],[171.03693,62.32167,1096.1913],[171.03156,62.32607,1214.0229],[171.02825,62.33072,1056.7],[171.03187,62.33609,904.7916],[171.039,62.34136,1108.6539],[171.05181,62.34596,760.5343],[171.06349,62.34725,760.2995],[171.14132,62.33971,1489.3092],[171.15754,62.34129,1174.6215],[171.1687,62.34545,1059.6249],[171.18328,62.35604,1071.4481],[171.19289,62.3609,1322.4456],[171.20364,62.36503,1022.2378],[171.21759,62.36854,1060.5096],[171.22958,62.3687,1286.051],[171.24043,62.36674,960.4928],[171.24736,62.36296,820.8591],[171.25139,62.35855,703.4142],[171.2517,62.35356,858.3429],[171.2488,62.34818,850.101],[171.24384,62.34255,857.0382],[171.24147,62.33648,731.889],[171.24353,62.33103,865.3572],[171.25966,62.32602,904.1011],[171.27154,62.3256,913.1346],[171.28343,62.32674,954.9372],[171.29314,62.32917,829.8893],[171.31164,62.33671,648.9659],[171.33004,62.34718,678.6495],[171.34141,62.35216,714.6951],[171.35805,62.3565,741.1035],[171.36704,62.35588,812.9491],[171.37293,62.34767,843.4876],[171.36993,62.33304,714.3627],[171.37283,62.32881,678.3373],[171.37882,62.32403,614.6639],[171.38885,62.32136,587.8879],[171.46957,62.31201,774.4806],[171.48558,62.31165,736.4742],[171.49706,62.31392,660.7073],[171.50688,62.31816,661.3536],[171.51494,62.32343,758.2191],[171.53044,62.3286,643.2288],[171.55214,62.33299,661.3759],[171.61498,62.33958,668.5356],[171.62542,62.34392,768.5827],[171.62707,62.34875,640.3802],[171.63545,62.3547,832.2741],[171.65188,62.3609,894.1575],[171.69642,62.36942,661.1329],[171.83605,62.378,766.7196],[171.85672,62.38141,619.7387],[171.86541,62.3858,780.529],[171.85641,62.39474,493.3657],[171.85352,62.3994,497.4594],[171.85703,62.40539,581.2008],[171.86892,62.41226,776.1567],[171.90179,62.42252,660.2335],[171.92163,62.42642,713.1619],[171.93951,62.42828,575.9222],[171.95543,62.42826,515.702],[171.96628,62.4304,700.507],[171.97331,62.43448,649.9825],[171.98013,62.44534,487.0891],[171.98674,62.45174,640.7843],[172.00824,62.46063,569.903],[172.02695,62.4644,503.22],[172.05475,62.46652,660.1888],[172.08596,62.46327,605.6222],[172.09743,62.46079,635.3253],[172.18621,62.45456,440.7337],[172.20864,62.4503,530.9329],[172.21753,62.44668,438.1361],[172.22445,62.44265,400.2682],[172.24637,62.42518,503.1694],[172.25122,62.42048,604.3354],[172.25649,62.41604,648.952],[172.26404,62.41144,450.9019],[172.27479,62.40715,540.3999],[172.29391,62.40337,485.663],[172.30724,62.40286,546.9008],[172.31882,62.40399,570.9683],[172.41679,62.43154,355.0103],[172.46826,62.44038,373.0656],[172.48718,62.44007,415.7664],[172.50134,62.43748,338.645],[172.53947,62.42058,309.386],[172.70505,62.40239,556.2305],[172.71982,62.39371,406.8297],[172.787,62.34514,332.7039],[172.79755,62.34059,340.9174],[172.8115,62.3363,344.0858],[172.83713,62.33175,276.1164],[172.85253,62.33149,281.1431],[172.86473,62.3334,274.9098],[172.87217,62.33663,276.8196],[172.87713,62.34141,264.3036],[172.87981,62.34638,295.987],[172.88106,62.35619,364.7607],[172.87961,62.36581,351.3904],[172.87806,62.37066,347.9022],[172.87775,62.37557,352.0472],[172.88012,62.38115,330.874],[172.88705,62.38653,324.3931],[172.90317,62.39273,265.6641],[172.9163,62.39464,310.9746],[172.9287,62.39449,306.3528],[172.93904,62.39232,303.4017],[172.97356,62.37973,291.8708],[172.99805,62.37516,355.7264],[173.01355,62.37438,379.8398],[173.02658,62.37537,396.0621],[173.0367,62.37759,503.4569],[173.04549,62.38126,649.2987],[173.0705,62.39676,412.5217],[173.08404,62.40115,434.2261],[173.09624,62.40208,465.8781],[173.15773,62.39418,521.973],[173.17148,62.39526,462.1465],[173.18223,62.39816,534.0536],[173.18739,62.40281,463.821],[173.19029,62.40772,497.6715],[173.19401,62.41805,424.85],[173.19742,62.4233,440.9128],[173.20145,62.42826,508.9542],[173.20734,62.43304,685.6505],[173.21385,62.43624,655.2026],[173.22408,62.44022,655.7307],[173.41859,62.49071,711.087],[173.43689,62.49789,695.6208],[173.45373,62.50719,632.2664],[173.47595,62.52396,517.9061],[173.48701,62.52926,628.2729],[173.50386,62.53409,836.0837],[173.51709,62.53334,614.1086],[173.52794,62.53045,642.2618],[173.54685,62.52228,580.3195],[173.5605,62.51872,651.8515],[173.57714,62.51618,945.1566],[173.60339,62.51531,562.9951],[173.61868,62.51732,488.3844],[173.65475,62.53081,714.1586],[173.67367,62.53487,549.2053],[173.68762,62.53468,419.4267],[173.79759,62.51789,623.4813],[173.80637,62.5136,503.5975],[173.8073,62.50879,463.2747],[173.80431,62.5036,368.5733],[173.80048,62.49841,398.2949],[173.79914,62.49329,433.8868],[173.80389,62.48874,420.7186],[173.85009,62.46766,180.4367],[173.85702,62.46332,183.6788],[173.86063,62.45867,192.5634],[173.86084,62.44864,185.7316],[173.86301,62.44394,174.9673],[173.87242,62.44053,195.7796],[173.88502,62.4412,234.1292],[173.90404,62.44456,310.04],[173.91934,62.44528,339.0315],[173.93422,62.44425,367.6932],[173.95076,62.44162,334.9015],[173.96357,62.44156,287.0776],[174.04636,62.45133,221.1929],[174.06703,62.45009,198.1171],[174.07985,62.44704,210.3161],[174.08295,62.44234,229.1406],[174.08501,62.43764,212.3097],[174.08842,62.4233,212.0091],[174.08863,62.41867,213.1196],[174.08966,62.41381,210.0694],[174.09018,62.40911,215.8806],[174.09142,62.4043,213.8088],[174.09214,62.39945,213.9698],[174.09452,62.38978,207.4829],[174.09421,62.35966,221.0447],[174.09493,62.3548,227.2929],[174.09514,62.34989,236.1884],[174.09483,62.34493,241.0418],[174.09338,62.33981,239.0371],[174.08925,62.33516,249.2928],[174.08253,62.33134,339.8718],[174.05277,62.3285,301.8873],[174.04408,62.32493,392.1991],[174.03664,62.31997,440.5117],[174.02662,62.30938,570.6091],[174.01608,62.29382,651.614],[174.0107,62.28343,486.3121],[174.01039,62.27847,520.4269],[174.01143,62.27393,441.3029],[174.01546,62.26927,517.2688],[174.05039,62.2424,345.0191],[174.05897,62.23341,231.0869],[174.07643,62.21031,377.4526],[174.08264,62.20589,263.7719],[174.1001,62.19755,446.6268],[174.10734,62.19316,556.2114],[174.11219,62.1885,373.3299],[174.11281,62.18344,543.7241],[174.11095,62.17827,668.5424],[174.09824,62.1575,554.4474],[174.09731,62.15254,722.553],[174.09762,62.14752,659.5162],[174.09948,62.14272,608.9435],[174.10269,62.13809,601.1952],[174.11095,62.12892,469.5676],[174.11592,62.12453,322.2834],[174.12346,62.1152,213.976],[174.12532,62.11047,205.3766],[174.12553,62.10551,164.7592],[174.12243,62.1004,117.6635],[174.11168,62.08952,158.0817],[174.10816,62.0837,291.9766],[174.10734,62.07849,236.4619],[174.11654,62.07383,243.6669],[174.22702,62.06603,346.7073],[174.23673,62.0681,556.2432],[174.24604,62.0713,531.0454],[174.28159,62.09161,579.9141],[174.29296,62.09543,338.2656],[174.30753,62.09794,555.802],[174.31931,62.09655,383.9366],[174.32913,62.09316,373.726],[174.33513,62.08867,197.2045],[174.33905,62.08401,176.5595],[174.34102,62.07926,188.9647],[174.34153,62.0743,330.554],[174.3404,62.05936,529.5779],[174.34164,62.05466,401.6],[174.3437,62.04996,321.4536],[174.34753,62.04531,315.4853],[174.35311,62.04097,277.2454],[174.362,62.03673,289.4644],[174.39486,62.02588,133.0672],[174.40251,62.0218,374.5858],[174.42411,62.00495,384.5402],[174.43073,62.00097,271.8221],[174.46194,61.988,205.2466],[174.46783,61.98361,180.867],[174.46845,61.9788,329.8427],[174.46483,61.97384,244.4639],[174.4545,61.96314,165.9282],[174.44251,61.94738,109.998],[174.44127,61.94232,165.3179],[174.44158,61.9371,69.9913],[174.45026,61.91317,168.5934],[174.45274,61.90868,242.0405],[174.45791,61.90485,127.5471],[174.46814,61.90294,222.752],[174.4854,61.90219,202.6394],[174.49532,61.89922,244.3144],[174.50163,61.89524,200.7088],[174.50525,61.89067,203.3245],[174.51217,61.87653,261.9776],[174.51238,61.87162,182.0123],[174.51114,61.86703,110.7436],[174.50628,61.86281,154.7263],[174.49822,61.86046,230.3951],[174.48861,61.85938,78.7401],[174.4577,61.85907,161.7467],[174.44954,61.85746,64.2042],[174.4453,61.85362,222.8531],[174.4452,61.84915,371.6434],[174.44654,61.84439,258.1479],[174.44902,61.83961,174.8105],[174.45016,61.83488,182.9476],[174.45181,61.82997,315.1766],[174.45419,61.82,375.1122],[174.45357,61.81581,277.07],[174.45357,61.81481,252.8165],[174.45362,61.81481,252.8165],[174.48976,61.81464,115.3026],[174.69011,61.86127,121.9103],[174.70281,61.86787,317.5126],[174.7269,61.8863,237.9258],[174.72967,61.89606,4.8677],[174.71925,61.90449,6.2234],[174.70427,61.91234,27.3204],[174.67058,61.9361,88.576],[174.64357,61.94648,204.5658],[174.61793,61.96003,83.0397],[174.59995,61.98501,12.9629],[174.6255,61.98286,1.4304],[174.67433,61.96308,0.0],[174.69939,61.95832,0.0],[174.75636,61.96125,21.1417],[174.78541,61.95759,16.7034],[174.80486,61.94404,0.0],[174.78102,61.93268,0.0],[174.77149,61.92666,0.0],[174.76515,61.91669,0.0],[174.81511,61.94701,0.0],[175.17449,62.02192,227.5539],[175.23032,62.04393,40.8857],[175.25099,62.06574,126.1771],[175.2562,62.09398,24.6302],[175.25115,62.16063,16.329],[175.25807,62.16877,0.0],[175.27361,62.15257,1.6261],[175.29884,62.1166,1.7995],[175.31837,62.11001,2.1285],[175.3436,62.11083,2.6958],[175.39519,62.12275,2.4629],[175.38087,62.10627,0.0],[175.35524,62.09488,0.0],[175.32667,62.08491,0.0],[175.30641,62.07494,0.0],[175.3379,62.08283,0.0],[175.47486,62.14118,1.9677],[175.55543,62.15949,45.7258],[175.63347,62.19131,21.601],[175.95639,62.2542,4.8293],[176.27931,62.31708,13.1553],[176.32057,62.33503,113.1225],[176.3934,62.39509,13.2495],[176.41619,62.40396,11.9227],[176.43165,62.40656,9.5518],[176.55958,62.44888,26.6912],[176.59588,62.45405,4.0721],[176.6421,62.47224,0.0],[176.6421,62.47842,0.0],[176.61052,62.47215,30.6041],[176.59767,62.4737,6.2797],[176.59425,62.48583,16.7926],[176.59962,62.49238,9.3393],[176.61069,62.49604,4.3539],[176.63526,62.49958,2.7266],[176.63592,62.52216,1.9345],[176.66188,62.53461,-0.5],[176.69654,62.53998,4.0835],[176.72397,62.54108,4.5682],[176.71697,62.52863,3.6415],[176.70411,62.52367,0.0],[176.69093,62.52045,0.0],[176.68312,62.51317,0.0],[176.68832,62.50047,0.0],[176.70899,62.49921,0.0],[176.86052,62.51935,4.9802],[177.0149,62.55048,8.3392],[177.23927,62.56977,0.0],[177.26588,62.58832,0.0],[177.17595,62.59577,0.0],[177.09425,62.58332,0.0],[177.06723,62.5821,0.0],[177.05006,62.58421,21.9916],[177.03468,62.58967,32.9206],[177.02361,62.59984,27.1293],[177.01954,62.6162,13.158],[177.01149,62.62348,2.7574],[176.95802,62.64354,40.8346],[176.92791,62.67292,38.6195],[176.931,62.6944,76.5745],[176.95427,62.71092,12.7129],[177.02442,62.74824,275.9118],[177.0359,62.75654,222.7374],[177.04225,62.7687,378.1353],[177.03102,62.77798,320.6156],[177.01295,62.78596,103.4811],[176.9983,62.79438,270.6986],[177.00587,62.80121,53.8494],[176.99301,62.81708,209.1413],[176.97926,62.84101,93.1369],[176.97527,62.86201,165.8478],[176.9922,62.86945,101.6679],[176.99928,62.86961,7.2468],[177.00953,62.86725,0.655],[177.01954,62.86323,0.3937],[177.02613,62.85749,0.1728],[177.02784,62.85155,0.0],[177.02833,62.8461,6.3024],[177.03191,62.84154,0.0],[177.04851,62.83442,0.0],[177.10133,62.82225,12.7312],[177.14796,62.79584,0.0],[177.15602,62.78693,0.0],[177.15333,62.77757,0.0],[177.12818,62.74592,0.0],[177.15545,62.71963,0.0],[177.18898,62.70966,-0.5],[177.26588,62.71247,46.3739],[177.25668,62.72785,190.6396],[177.25164,62.7329,158.2989],[177.27247,62.75991,13.4777],[177.30055,62.78653,30.2756],[177.33253,62.80679,9.9316],[177.36524,62.81485,24.6029],[177.44435,62.82221,313.8341],[177.45777,62.81485,11.8828],[177.45444,62.80854,7.0583],[177.44614,62.8037,4.0804],[177.43035,62.7978,0.0],[177.42433,62.79222,0.0],[177.42482,62.78604,0.0],[177.42791,62.77888,0.0],[177.4297,62.77045,0.0],[177.41798,62.77314,0.0],[177.34441,62.76704,0.0],[177.33872,62.76447,0.0],[177.32374,62.75145,0.0],[177.31983,62.74592,0.0],[177.31788,62.73566,0.0],[177.32032,62.73139,0.0],[177.32447,62.72773,0.0],[177.33326,62.69693,0.0],[177.33416,62.68818,0.0],[177.33107,62.68427,0.0],[177.3239,62.68037,0.0],[177.31691,62.6752,0.0],[177.30763,62.65518,0.0],[177.26588,62.61563,0.0],[177.30543,62.6057,0.0],[177.34108,62.58832,0.0],[177.32651,62.58641,0.0],[177.31666,62.58515,0.0],[177.30681,62.5821,0.0],[177.68035,62.57526,13.6283],[177.89381,62.56037,89.5586],[178.06105,62.54108,115.1647],[178.12867,62.52749,98.6251],[178.18881,62.503,367.7702],[178.26393,62.48871,341.1932],[178.30209,62.47455,121.5771],[178.37574,62.47224,51.2544],[178.48943,62.43684,164.3235],[178.73797,62.40355,48.9737],[178.81609,62.38133,141.9769],[178.93816,62.36603,314.5641],[178.97722,62.35297,131.8132],[179.03452,62.32616,0.0],[179.04103,62.32144,0.0],[179.04518,62.31513,0.0],[179.0547,62.29409,0.0],[179.07358,62.28718,0.0],[179.08953,62.28974,160.4488],[179.10328,62.29792,266.7012],[179.13673,62.32368,58.4669],[179.14568,62.33308,4.6794],[179.1504,62.34186,0.0],[179.14715,62.35244,16.4215],[179.13982,62.36591,24.7289],[179.13494,62.38028,11.227],[179.14959,62.41779,0.0],[179.11264,62.44831,0.0],[179.11606,62.47224,0.0],[179.14877,62.49604,0.0],[179.1902,62.50324,68.8463],[179.31105,62.50068,295.8681],[179.34913,62.5065,212.1985],[179.38364,62.52082,100.8633],[179.41041,62.54731,143.4711],[179.41928,62.5738,225.2427],[179.42262,62.59821,139.1617],[179.43344,62.61612,0.0],[179.46518,62.62303,0.0],[179.5547,62.62303,170.5513],[179.563,62.62474,249.6103],[179.56691,62.62934,326.1294],[179.56723,62.63597,319.4624],[179.56463,62.64387,153.2292],[179.55958,62.65375,2.0],[179.5586,62.65815,2.0],[179.56804,62.67084,317.0316],[179.57765,62.67902,264.4743],[179.59018,62.68545,159.6413],[179.60206,62.6933,98.0215],[179.60906,62.70563,20.6695],[179.60743,62.71552,20.4768],[179.59685,62.74787,169.7881],[179.58904,62.7624,12.0733],[179.58717,62.77033,0.0],[179.58448,62.77717,0.0],[179.57846,62.7801,0.0],[179.57032,62.78168,0.5],[179.56324,62.78587,0.5],[179.55128,62.7978,9.8454],[179.54672,62.80842,34.4431],[179.54493,62.83666,14.2721],[179.5407,62.84894,20.8823],[179.51173,62.8725,0.0],[179.47088,62.88471,0.0],[179.34571,62.89387,0.0],[179.31617,62.90615,10.9544],[179.29176,62.92748,120.0111],[179.24952,62.98469,3.5717],[179.24195,63.0065,2.7938],[179.24871,63.02582,1.596],[179.27361,63.04413,2.6329],[179.31121,63.06078,35.4499],[179.33139,63.06611,7.5966],[179.35231,63.06806,18.9975],[179.37062,63.06391,2.7578],[179.38771,63.05683,0.0],[179.40366,63.05541,0.0],[179.41782,63.06806,137.9864],[179.41961,63.07722,105.121],[179.41782,63.11652,38.561],[179.41334,63.13239,86.606],[179.4074,63.14134,7.2983],[179.38649,63.1612,0.0],[179.37599,63.16608,0.0],[179.36118,63.16975,243.426],[179.34791,63.17585,124.2587],[179.34205,63.18818,0.0],[179.33481,63.19648,0.0],[179.29957,63.21459,0.0],[179.23276,63.23941,0.0],[179.21168,63.24225,0.0],[179.19483,63.23945,0.0],[179.17905,63.23493,0.0],[179.1609,63.23261,17.9309],[179.13201,63.23835,47.4513],[179.0547,63.28099,0.0],[179.02931,63.28718,0.0],[178.93116,63.29401,1.0297],[178.9183,63.32518,0.0],[178.80934,63.35049,37.7712],[178.80714,63.3902,17.0134],[178.84816,63.4042,5.3309],[178.90366,63.37572,0.0],[178.96046,63.33735,0.0],[179.00554,63.32136,0.0],[178.8156,63.49116,0.0],[178.79998,63.51227,0.0],[178.79119,63.54418,0.0],[178.78191,63.56147,0.0],[178.77963,63.57148,0.0],[178.77947,63.5871,0.9989],[178.77703,63.59516,0.0],[178.77084,63.59394,0.0],[178.75929,63.58198,0.0],[178.75424,63.53828,0.0],[178.78614,63.49299,0.0],[178.82447,63.45551,0.0],[178.83839,63.43488,0.0],[178.81577,63.41966,0.0],[178.69899,63.38569,0.0],[178.66358,63.39037,0.0],[178.59547,63.41132,12.6916],[178.6032,63.41909,15.0347],[178.64324,63.43867,12.6695],[178.65154,63.44623,10.2332],[178.6561,63.45307,6.0194],[178.6631,63.45966,1.8931],[178.67791,63.46654,0.0],[178.70802,63.4711,7.0],[178.72023,63.47647,0.218],[178.72511,63.48949,9.978],[178.72926,63.49722,43.1257],[178.73585,63.50495,11.8324],[178.73512,63.51301,6.2899],[178.71762,63.52119,9.1014],[178.72901,63.5312,7.751],[178.72674,63.5362,8.1899],[178.71827,63.54059,0.0],[178.71144,63.54853,0.0],[178.7107,63.55972,10.3299],[178.71306,63.56582,0.0],[178.71127,63.57001,0.0],[178.69842,63.57518,0.0],[178.69304,63.57534,0.0],[178.68849,63.57274,0.0],[178.681,63.56493,0.0],[178.67547,63.56371,0.0],[178.50953,63.57852,0.0],[178.48219,63.57184,0.0],[178.42628,63.53852,0.0],[178.40024,63.52692,0.0],[178.37233,63.52237,0.0],[178.34148,63.52741,0.0],[178.29371,63.54873,17.6911],[178.26881,63.56542,16.4243],[178.25961,63.58198,19.2996],[178.2684,63.58845,22.8999],[178.31422,63.60248,22.9334],[178.32342,63.60969,8.4329],[178.33155,63.61823,18.1699],[178.34116,63.62588,11.4305],[178.35524,63.63044,0.5],[178.37192,63.63068,0.5],[178.43035,63.62299,29.9256],[178.45997,63.62299,16.431],[178.46453,63.61986,12.8328],[178.46461,63.61384,0.0],[178.46559,63.60639,0.0],[178.46795,63.59968,0.0],[178.47193,63.59565,0.0],[178.50229,63.59691,0.0],[178.52687,63.61371,5.1202],[178.5324,63.63166,0.0],[178.50603,63.63666,0.0],[178.5311,63.64362,2.8708],[178.56105,63.64142,17.5692],[178.5901,63.63272,0.0],[178.61215,63.61986,0.0],[178.61622,63.61416,0.0],[178.62086,63.59968,0.0],[178.62615,63.59252,0.0],[178.64145,63.58771,0.0],[178.66456,63.58828,25.8903],[178.70533,63.59565,8.6571],[178.73308,63.60834,9.6397],[178.72462,63.61677,10.6513],[178.69703,63.62153,0.0],[178.667,63.62299,19.6116],[178.6491,63.62861,7.3933],[178.62525,63.64199,14.4945],[178.60271,63.6579,10.2731],[178.58863,63.67137,1.6361],[178.60857,63.6765,0.8048],[178.63136,63.67105,0.0],[178.65512,63.6623,0.0],[178.67726,63.6577,0.0],[178.70151,63.65624,12.2992],[178.72283,63.65086,15.9868],[178.74195,63.64033,0.0],[178.75929,63.62299,0.0],[178.76287,63.64277,17.1871],[178.74024,63.73713,26.7905],[178.71681,63.78726,36.2235],[178.70834,63.82319,10.2963],[178.69467,63.84634,18.3554],[178.69109,63.85639,20.1543],[178.69174,63.86782,11.4625],[178.69809,63.88687,6.4188],[178.69842,63.89737,8.1258],[178.69386,63.91047,4.9181],[178.64324,64.00096,0.3421],[178.6364,63.99348,0.0],[178.64772,63.98652,0.0],[178.65235,63.97553,0.0],[178.65984,63.96312,0.0],[178.65691,63.94916,6.4712],[178.63941,63.94636,8.4108],[178.61606,63.94888,2.8697],[178.53321,63.97036,9.5273],[178.48894,63.97305,0.0],[178.40724,63.96723,9.1145],[178.38258,63.97305,1.8083],[178.38258,63.97923,1.7628],[178.46632,63.98017,2.0293],[178.49244,63.98672,0.0],[178.46827,63.99262,0.0],[178.38258,64.00096,1.2739],[178.39991,64.0351,0.9178],[178.41277,64.03742,6.5066],[178.42897,64.04336,10.8408],[178.44435,64.05097,8.4066],[178.45484,64.05874,4.0912],[178.48406,64.07087,5.5097],[178.51881,64.06171,5.3667],[178.55502,64.04515,0.0],[178.58863,64.0351,0.8912],[178.56471,64.06061,0.0],[178.44077,64.16519,8.2669],[178.43035,64.17853,11.6338],[178.40919,64.22993,6.7234],[178.39991,64.24335,6.4774],[178.22202,64.42943,0.0],[178.20004,64.44017,0.0],[178.20021,64.43114,0.0],[178.19361,64.42084,0.0],[178.18385,64.41128,0.0],[178.20216,64.42255,0.0],[178.21795,64.42683,0.0],[178.22779,64.41869,0.0],[178.24391,64.40009,0.0],[178.26629,64.37397,0.0],[178.27866,64.3653,0.0],[178.28256,64.35399,0.0],[178.26588,64.34296,0.0],[178.25066,64.32685,0.0],[178.23439,64.31391,0.0],[178.21664,64.30353,0.0],[178.19752,64.29523,0.0],[178.10255,64.27066,0.0],[178.07455,64.25422,0.0],[178.10084,64.23786,0.0],[178.18385,64.2132,1.9902],[178.18385,64.2058,1.2687],[178.00001,64.21035,0.0],[177.81332,64.25422,0.0],[177.73211,64.28828,2.1363],[177.68971,64.29735,2.0702],[177.66993,64.30512,1.9884],[177.62224,64.33295,0.0],[177.59474,64.34195,1.7331],[177.55388,64.37775,1.1057],[177.45362,64.42064,2.0917],[177.42661,64.44233,1.4969],[177.38738,64.49189,2.075],[177.3694,64.52167,14.9475],[177.3615,64.54841,27.6705],[177.36427,64.56322,27.6259],[177.37143,64.57144,26.2328],[177.38941,64.58259,31.8529],[177.39861,64.59406,36.9522],[177.41228,64.61762,44.0392],[177.42018,64.62759,99.2333],[177.44483,64.64301,42.2745],[177.45525,64.65217,26.0696],[177.45427,64.66201,23.417],[177.44947,64.67349,18.3689],[177.4524,64.68549,11.9183],[177.48015,64.7364,106.9947],[177.49187,64.76752,0.0],[177.33839,64.78148,0.0],[177.29282,64.77094,0.0],[177.21258,64.73867,0.0],[177.16944,64.72655,0.0],[177.12818,64.71971,0.0],[177.03354,64.71857,0.0],[176.98585,64.71113,0.0],[176.91969,64.67011,0.0],[176.85467,64.64265,0.0],[176.82838,64.62417,0.0],[176.82691,64.61913,0.0],[176.82993,64.61445,0.0],[176.8322,64.60932,0.0],[176.82838,64.60301,0.0],[176.81935,64.59748,0.0],[176.79298,64.59003,0.0],[176.75953,64.57388,0.0],[176.74293,64.57123,0.0],[176.72739,64.57917,1.9907],[176.70167,64.61811,0.0],[176.68995,64.62759,0.0],[176.58229,64.67373,0.0],[176.54176,64.68431,0.0],[176.45753,64.69245,0.0],[176.44223,64.68854,0.0],[176.42888,64.67894,0.4878],[176.40594,64.65485,0.0],[176.38917,64.64289,0.0],[176.36842,64.63426,0.0],[176.32667,64.62417,0.0],[176.28443,64.62141,0.0],[176.24627,64.62372,0.0],[176.20997,64.62006,2.344],[176.13396,64.57929,2.4772],[176.12135,64.56953,1.2608],[176.11834,64.55956,1.4403],[176.11793,64.548,0.0],[176.11427,64.54194,0.0],[176.10084,64.54841,1.1467],[176.10499,64.55634,0.8837],[176.11451,64.59003,14.3173],[176.11948,64.59789,2.2894],[176.14527,64.62759,16.227],[176.18238,64.64716,14.7622],[176.32667,64.66572,2.2225],[176.38396,64.68325,2.1666],[176.40252,64.69245,2.196],[176.4201,64.70352,0.0],[176.42368,64.70962,0.0],[176.41505,64.71475,0.0],[176.39568,64.72285,0.0],[176.38551,64.73045,0.0],[176.37566,64.74087,0.0],[176.36459,64.74995,0.0],[176.33302,64.75764,0.0],[176.31674,64.76748,0.0],[176.30323,64.78071,0.0],[176.29265,64.79487,0.0],[176.28045,64.8168,0.0],[176.27329,64.8249,0.0],[176.21013,64.87397,16.7208],[176.12672,64.90827,0.0],[176.08237,64.91893,0.0],[176.03875,64.92182,0.0],[176.00465,64.91535,31.9732],[175.98097,64.90095,24.1757],[175.93946,64.85663,0.6228],[175.92465,64.84829,0.0],[175.88705,64.83877,32.0772],[175.87143,64.82966,14.9281],[175.85768,64.819,33.8608],[175.84099,64.81045,38.0789],[175.71168,64.77473,49.1592],[175.65748,64.76765,48.4304],[175.62452,64.77473,36.466],[175.59051,64.78937,22.5803],[175.27849,64.75056,22.8666],[175.10719,64.7648,38.1325],[175.02247,64.75458,35.7107],[174.77174,64.68065,25.7133],[174.51905,64.6704,1.5251999999999999],[174.47706,64.67597,0.0],[174.44174,64.69245,0.0],[174.7269,64.68561,20.7719],[174.75034,64.68891,26.9089],[174.79575,64.70336,43.768],[174.86394,64.71479,46.137],[174.99041,64.77098,46.9307],[175.04078,64.77806,51.4244],[175.18621,64.77098,37.1764],[175.20802,64.77497,43.3304],[175.22389,64.78246,51.3188],[175.24073,64.78681,54.5537],[175.28924,64.77538,42.3712],[175.41391,64.78364,53.4423],[175.51246,64.80671,42.9409],[175.56275,64.81196,42.3746],[175.71461,64.79365,40.3317],[175.75473,64.80882,37.02],[175.7881,64.82648,35.8339],[175.86769,64.84504,21.8072],[175.89861,64.86376,22.5041],[175.93946,64.89789,29.5595],[175.94256,64.9029,33.915],[175.94337,64.91364,19.7257],[175.9463,64.91869,7.469],[175.95484,64.92495,35.5316],[175.98357,64.93549,58.0327],[176.02866,64.95881,68.5812],[176.04566,64.9628,57.6033],[176.0652,64.95864,55.2134],[176.09067,64.93163,0.0],[176.11109,64.9252,30.1068],[176.18873,64.92796,50.0769],[176.20688,64.92178,45.5783],[176.22413,64.90913,38.336],[176.24171,64.90107,49.5588],[176.39715,64.85993,12.5492],[176.42644,64.83954,0.0],[176.43279,64.826,0.0],[176.43181,64.81647,0.0],[176.4358,64.81094,0.0],[176.45753,64.80915,0.0],[176.47584,64.81122,17.8888],[176.51596,64.82062,2.2366],[176.53566,64.82274,1.6981],[176.56739,64.83649,1.9897],[176.59734,64.85383,2.3221],[176.61134,64.86498,15.8619],[176.62615,64.86791,17.6149],[176.84816,64.85008,7.8754],[176.88559,64.84211,17.9595],[176.95004,64.80366,0.0],[177.00082,64.79222,24.399],[177.01637,64.7792,0.0],[177.02565,64.77436,0.0],[177.03981,64.77277,0.0],[177.05372,64.77464,26.7845],[177.08033,64.7812,18.0705],[177.20379,64.79487,18.5287],[177.28468,64.81489,43.006],[177.30006,64.82274,24.8691],[177.2977,64.83845,0.7743],[177.27589,64.85,0.5719],[177.22429,64.86371,13.8218],[177.23341,64.87531,12.5422],[177.2378,64.87979,21.5801],[177.24537,64.88422,22.0958],[177.2308,64.90546,30.016],[177.22153,64.91462,17.7079],[177.21062,64.91836,24.083],[177.19386,64.92137,39.8517],[177.18442,64.92878,35.2546],[177.17791,64.93773,11.1794],[177.16969,64.94562,8.8439],[177.0809,64.97309,0.4513],[177.06723,64.99038,0.6762],[177.05323,64.99746,0.4905],[177.02263,65.00165,0.5646],[176.99187,65.01057,39.7349],[176.97779,65.03132,0.352],[176.95851,65.04658,0.3135],[176.91472,65.0493,0.0851],[176.54615,65.00092,0.0],[176.51344,65.00381,0.4051],[176.49855,65.008,0.4638],[176.48439,65.01459,0.612],[176.45493,65.03872,0.0],[176.44386,65.0419,0.0],[176.37184,65.03514,31.2827],[176.3357,65.03815,31.4639],[176.30633,65.05549,13.1825],[176.3711,65.05467,20.7385],[176.39479,65.06436,0.6048],[176.38136,65.09028,14.0174],[176.40626,65.09113,0.0],[176.41863,65.09024,1.7369],[176.42986,65.08657,7.1913],[176.43653,65.08161,5.912],[176.44304,65.07587,3.2429],[176.44972,65.07119,0.0],[176.45753,65.06916,2.066],[176.49822,65.06452,1.5327],[176.52101,65.05915,1.6247],[176.57081,65.03351,0.4674],[176.60841,65.03181,4.1113],[176.73048,65.04829,10.058],[176.813,65.0764,0.3741],[176.85499,65.08283,-0.3018],[176.93686,65.08283,2.4172],[176.95631,65.07856,3.3458],[176.99269,65.0598,0.156],[177.15113,65.03368,43.2238],[177.16969,65.02757,29.0547],[177.18865,65.00845,0.2367],[177.21941,64.95637,0.4391],[177.23829,64.94562,0.8958],[177.25758,64.94367,20.9189],[177.29811,64.93464,19.4582],[177.31983,64.9326,19.3648],[177.39991,64.93647,16.6274],[177.42351,64.9326,16.4861],[177.43295,64.92902,15.6858],[177.43979,64.92512,14.5932],[177.44549,64.91987,14.877],[177.45086,64.91218,0.5999],[177.45338,64.90502,0.989],[177.44955,64.8968,1.0362],[177.45086,64.89106,0.7538],[177.46022,64.87958,1.0261],[177.48276,64.86164,0.8967],[177.49187,64.85008,1.3351],[177.43824,64.84882,0.8519],[177.41261,64.84463,0.3895],[177.38941,64.83584,0.7706],[177.41049,64.82445,0.6234],[177.42709,64.82103,0.6377],[177.46795,64.82274,0.7962],[177.48845,64.82046,0.5515],[177.50115,64.81371,19.0593],[177.50343,64.80296,10.104],[177.49187,64.78864,0.0],[177.53517,64.78587,0.0],[177.55388,64.78156,0.0],[177.62469,64.75259,2.4223],[177.64259,64.74771,18.5452],[177.61118,64.73314,0.0],[177.60174,64.7259,0.0],[177.62501,64.72016,0.0],[177.67449,64.72175,11.9754],[177.71957,64.70897,23.5474],[177.74415,64.70637,30.7021],[177.92677,64.70734,349.3735],[177.93719,64.70555,289.301],[177.95118,64.69929,90.3983],[177.95802,64.69212,44.4034],[177.96258,64.68305,9.0363],[177.96795,64.67524,0.0],[177.97836,64.67194,0.0],[178.08432,64.68891,33.9114],[178.24057,64.68879,28.4042],[178.25961,64.68561,20.312],[178.27345,64.66934,13.9128],[178.26002,64.6645,8.9362],[178.2378,64.66328,12.5021],[178.21795,64.65827,0.0],[178.56804,64.67878,19.2901],[178.64259,64.69652,29.9985],[178.66774,64.69929,36.317],[178.7212,64.69684,17.3883],[178.75017,64.69172,7.9171],[178.75587,64.6822,1.8995],[178.73316,64.65815,0.0],[178.71876,64.64814,0.0],[178.70191,64.64399,0.0],[178.53972,64.62372,0.0],[178.48561,64.6105,0.0],[178.51417,64.59032,0.0],[178.56153,64.59154,0.0],[178.75799,64.64094,0.0],[178.91179,64.7154,5.9221],[179.03826,64.74885,22.1853],[179.17115,64.79267,13.0321],[179.2024,64.79597,10.5705],[179.25001,64.81122,8.5708],[179.29428,64.80915,1.129],[179.3899,64.82274,48.5982],[179.45639,64.81806,54.1728],[179.47869,64.82274,47.5008],[179.71266,64.95311,36.4514],[179.77955,65.01822,20.9333],[179.80502,65.02757,13.7239],[179.82862,65.0312,17.6583],[179.89633,65.05549,16.5706],[180.0,65.06619,20.1183],[180.0,65.06925,22.709],[180.0,65.56787,50.8741],[180.0,66.06648,128.3698],[180.0,66.5651,462.7528],[180.0,67.06371,317.832],[180.0,67.56233,212.4727],[180.0,68.06094,344.1967],[180.0,68.55956,133.455],[180.0,68.98105,0.0],[179.7741,68.98884,0.0],[179.75978,68.99323,0.0],[179.72999,69.00654,0.0],[179.69215,69.0161,3.4224],[179.67579,69.03205,2.963],[179.66326,69.05044,0.6633],[179.65056,69.0646,0.0],[179.62428,69.07705,0.0],[179.57203,69.09272,1.4673],[179.54811,69.11298,2.4677],[179.57691,69.11091,1.7662],[179.62818,69.09016,0.0],[179.67628,69.08128,4.2626],[179.84799,69.01016,0.0],[179.89959,68.99942,9.449],[179.95851,68.99567,0.0],[179.65956,69.1094,0.0],[179.36061,69.22313,1.311],[179.30592,69.25788,0.0],[179.26149,69.27216,0.0],[179.06772,69.29792,0.0],[178.98634,69.28315,0.0],[178.95786,69.28368,0.0],[178.86166,69.29792,0.0],[178.74562,69.28368,0.0],[178.70948,69.28742,0.9029],[178.67351,69.2978,8.7978],[178.65398,69.31745,7.5853],[178.67107,69.35712,1.675],[178.66944,69.36567,2.5319],[178.66432,69.3736,3.7542],[178.65748,69.37987,3.9357],[178.66619,69.38329,3.6411],[178.67335,69.3819,3.1293],[178.68019,69.37686,2.824],[178.68767,69.36961,2.8031],[178.70045,69.36579,2.277],[178.75587,69.37299,3.0918],[178.81056,69.37006,1.8148],[178.8379,69.36489,2.7246],[178.86232,69.35594,2.6908],[178.87957,69.34247,0.0],[178.88705,69.32998,0.0],[178.89747,69.32103,0.0],[178.92384,69.31843,0.0],[179.06772,69.32526,2.0967],[179.06772,69.33145,0.0],[179.04884,69.33637,0.0],[178.99269,69.35936,0.0],[178.92018,69.3745,0.0],[178.89633,69.38296,0.0],[178.87208,69.38801,0.0],[178.81072,69.3937,0.0],[178.77263,69.41523,0.0],[178.36492,69.4868,0.0],[178.29982,69.48737,0.0],[178.27735,69.47993,0.0],[178.29103,69.47358,0.0],[178.29998,69.46182,0.0],[178.24692,69.44392,4.2201],[178.2317,69.44135,4.7235],[178.21217,69.44343,10.925],[178.15602,69.46182,0.0],[177.89812,69.49917,0.0],[177.77125,69.5314,0.0],[177.74936,69.53327,0.0],[177.67856,69.53148,0.0],[177.60857,69.54434,13.6661],[177.62094,69.55703,29.7239],[177.64112,69.55891,0.0],[177.68295,69.55117,0.0],[177.64283,69.57001,0.0],[177.35792,69.61717,0.0],[177.16228,69.61636,0.0],[176.9769,69.63443,0.0],[176.82765,69.66828,0.0],[176.73455,69.67475,0.0],[176.68995,69.68773,0.0],[176.63917,69.71589,0.0],[176.62159,69.72248,0.0],[176.54859,69.73753,0.0],[176.50392,69.7541,0.0],[176.31316,69.77709,0.2909],[176.26726,69.77196,0.4278],[176.24204,69.77436,0.3257],[176.23121,69.78734,5.5579],[176.24301,69.79902,5.0693],[176.26629,69.7993,6.4214],[176.28224,69.8015,0.0],[176.27215,69.81867,0.0],[176.25408,69.83031,0.0],[176.17595,69.86274,0.0],[176.16375,69.8701,0.0],[176.14047,69.8876,0.0],[176.12761,69.89378,0.0],[176.08361,69.89409,0.0],[176.03758,69.88575,0.0],[175.94323,69.88077,0.0],[175.86693,69.88495,0.0],[175.78157,69.88528,0.0],[175.79023,69.87309,0.0],[175.8438,69.86127,0.0],[175.92014,69.8555,5.3132],[176.00671,69.85884,0.0],[176.09974,69.85845,0.0],[176.14579,69.83955,2.9844],[176.15767,69.82148,0.0],[176.15945,69.80269,1.2858],[176.14348,69.78209,0.4747],[176.07349,69.76893,0.0],[175.99718,69.76936,0.0],[175.9262,69.77569,0.0],[175.86323,69.78889,0.0],[175.82617,69.79348,0.0],[175.77066,69.82038,0.0],[175.69597,69.83538,0.0],[175.60174,69.84331,-0.5422],[175.52974,69.8563,0.1121],[175.62303,69.86305,-0.1333],[175.72479,69.87079,0.0],[175.71554,69.88145,0.0],[175.50011,69.8735,0.0],[175.41692,69.86674,0.0],[175.18238,69.84846,0.0],[175.08838,69.84575,0.0],[174.78549,69.85468,0.0],[174.37403,69.87641,0.0],[174.32911,69.88715,0.0],[174.25514,69.87824,0.0],[174.07081,69.88691,0.0],[174.02613,69.88398,0.0],[174.00408,69.87954,0.0],[173.98455,69.87173,0.2804],[173.9476,69.85147,0.0],[173.92848,69.8454,1.2641],[173.8838,69.85175,0.0],[173.8357,69.87108,0.0],[173.78785,69.88447,0.0],[173.74342,69.87328,0.0],[173.76124,69.86408,0.0],[173.7776,69.85285,0.5299],[173.7378,69.852,0.0],[173.72975,69.85969,0.0],[173.67457,69.87954,0.0],[173.68263,69.87983,0.0],[173.68881,69.88182,0.0],[173.69467,69.88459,0.0],[173.70191,69.88695,0.0],[173.46079,69.94855,0.0],[173.27858,69.94184,0.0],[173.23015,69.93427,0.0],[173.18865,69.92048,0.0],[173.17555,69.9145,0.0],[173.16554,69.90843,0.0],[173.1609,69.89997,0.0],[173.16407,69.88666,0.0],[173.1727,69.88117,0.0],[173.1836,69.8885,0.0],[173.19597,69.90095,0.0],[173.20851,69.91087,0.0],[173.25367,69.91869,0.0],[173.29908,69.90656,11.5325],[173.34352,69.88866,13.7845],[173.40268,69.87653,13.859],[173.44125,69.8605,9.8767],[173.47283,69.84227,3.7355],[173.47926,69.83576,2.3413],[173.47576,69.82917,0.2166],[173.46225,69.81867,0.0],[173.41863,69.79776,0.0],[173.36842,69.78998,0.0],[173.2671,69.79076,0.0],[173.22088,69.78339,0.0],[173.19801,69.78343,0.0],[173.17774,69.79418,7.5778],[173.18141,69.80199,27.141],[173.19947,69.81004,18.7158],[173.22145,69.81635,18.0727],[173.23634,69.81867,9.5993],[173.17937,69.84516,0.2293],[172.86069,69.90347,0.0],[172.79851,69.92853,0.0],[172.79078,69.96271,0.0],[172.76808,69.96629,0.0],[172.72535,69.98086,0.0],[172.70135,69.98314,0.0],[172.64715,69.9715,0.0],[172.32081,69.98229,0.0]]]]}}