{"type":"Feature","properties":{"GID_3":"RUS.56.26.1_1","GID_0":"RUS","country":"Russia","GID_1":"RUS.56_1","province":"Primor'ye","NL_NAME_1":"Приморскийкрай","GID_2":"RUS.56.26_1","county":"Pozharskiyrayon","NL_NAME_2":"Пожарскийрайон","city":"NA","VARNAME_3":"NA","NL_NAME_3":"NA","TYPE_3":"NA","ENGTYPE_3":"NA","CC_3":"NA","HASC_3":"NA","name":"N_A.city"},
"geometry":{"type": "MultiPolygon","coordinates": [[[[133.6942,46.115,51.5],[133.7204,46.1281,56.4372],[133.7414,46.1331,56.1922],[133.7725,46.1373,55.5647],[133.8067,46.1306,56.2886],[133.8477,46.1284,55.9488],[133.8862,46.1036,74.7879],[133.9616,46.0677,176.7426],[134.0219,46.0559,289.668],[134.0557,46.0573,157.9448],[134.0807,46.0816,104.3889],[134.1308,46.1096,124.1533],[134.2433,46.1187,170.0558],[134.2701,46.1474,233.3974],[134.3617,46.149,118.4513],[134.4251,46.1121,85.8842],[134.4617,46.1154,116.2142],[134.4961,46.1719,375.0252],[134.5723,46.1915,360.7525],[134.6043,46.252,350.502],[134.6562,46.2646,176.6173],[134.7276,46.2625,276.6832],[134.756,46.2421,243.6051],[134.7443,46.2035,186.8942],[134.772,46.1947,358.1974],[134.8822,46.2502,244.7476],[134.9722,46.2826,137.1869],[135.0992,46.2993,200.6365],[135.2259,46.2871,353.2544],[135.3248,46.3002,500.7882],[135.5408,46.4169,951.3054],[135.5842,46.4863,766.7046],[135.6417,46.5283,498.6542],[135.6931,46.579,358.0615],[135.6995,46.4925,458.3512],[135.7513,46.5109,370.3725],[135.7995,46.5401,419.4899],[135.9025,46.6362,295.0339],[135.9434,46.5853,401.9242],[135.9659,46.5688,452.4392],[136.0123,46.5394,1134.0798],[136.0159,46.5005,849.1652],[135.9984,46.438,1056.1892],[136.0418,46.4483,662.6284],[136.0849,46.4711,773.614],[136.1534,46.4532,1151.5769],[136.1966,46.4218,1118.1696],[136.2417,46.4271,1023.9722],[136.2944,46.4469,999.8738],[136.3503,46.436,1207.5972],[136.5,46.4193,1070.0194],[136.6191,46.3921,632.6588],[136.6434,46.3515,872.3635],[136.6982,46.3052,894.7573],[136.7373,46.298,1099.6764],[136.7379,46.2736,969.055],[136.7186,46.2337,1140.6169],[136.7719,46.1721,1395.9773],[136.8899,46.1844,1167.896],[136.9716,46.1408,1163.8643],[137.0419,46.1524,960.9133],[137.0654,46.1443,1371.4124],[137.1103,46.1459,724.752],[137.1484,46.1987,853.3074],[137.203,46.2023,812.6803],[137.263,46.1614,560.7474],[137.3179,46.1721,946.4679],[137.3363,46.2021,612.8185],[137.3095,46.2413,931.6615],[137.3332,46.2752,866.3288],[137.4585,46.3302,1004.4952],[137.5118,46.3353,746.9612],[137.5279,46.378,709.2657],[137.5432,46.4021,932.0502],[137.6042,46.3974,826.3838],[137.6869,46.432,577.8834],[137.7379,46.4965,853.6188],[137.78,46.5556,1161.6506],[137.8543,46.5343,589.7442],[137.9181,46.5816,867.5015],[137.8796,46.6211,461.3971],[137.9193,46.6791,889.3813],[137.9026,46.7152,922.2383],[137.8493,46.7452,928.9622],[137.8519,46.7994,920.1635],[137.8009,46.8442,961.0159],[137.826,46.913,737.1324],[137.8047,46.9596,850.7108],[137.7399,46.955,1471.9034],[137.7581,47.0386,1349.9554],[137.7976,47.0618,1090.4094],[137.7976,47.0895,952.656],[137.7307,47.0686,1169.9395],[137.6915,47.0665,1323.4285],[137.7087,47.1133,1026.0168],[137.6786,47.1348,1014.5709],[137.6676,47.181,1047.2125],[137.6311,47.201,1322.7419],[137.5916,47.2659,978.3906],[137.5611,47.2737,1329.9924],[137.52,47.2595,1153.1162],[137.4934,47.2539,1136.7511],[137.4707,47.2424,1311.2979],[137.4577,47.2226,1287.5237],[137.4158,47.2109,1344.8687],[137.3425,47.2242,1166.7354],[137.2958,47.2398,1065.4355],[137.2728,47.275,989.0734],[137.2215,47.2766,957.4829],[137.1456,47.2981,1344.1475],[137.0753,47.3204,1380.5105],[137.0439,47.3072,1310.4352],[137.0216,47.2491,1536.564],[136.98,47.1948,1183.4592],[136.9634,47.1513,1112.135],[136.9369,47.1034,1138.4788],[136.9813,47.051,1050.7552],[136.9919,47.0223,1175.7708],[136.9589,47.0056,1252.7458],[136.916,46.9763,1166.09],[136.9009,46.9606,1356.8127],[136.8617,46.9581,1044.9111],[136.7942,46.9192,1295.116],[136.7331,46.8965,1026.9131],[136.7061,46.8711,899.5104],[136.6713,46.85,1355.7905],[136.6004,46.8157,1060.2454],[136.5345,46.8191,993.1617],[136.4861,46.8288,697.934],[136.4558,46.8309,916.8651],[136.4139,46.8158,873.7403],[136.3858,46.7972,1258.5366],[136.3339,46.7852,683.3271],[136.2512,46.8005,587.3432],[136.1481,46.8335,467.399],[136.1219,46.8691,386.23],[136.0999,46.8885,353.0014],[136.0506,46.8858,387.6],[136.0265,46.8632,358.9163],[135.9962,46.8142,398.3266],[135.9694,46.8116,397.9253],[135.918,46.8262,432.4092],[135.845,46.8557,549.0069],[135.8221,46.892,530.3358],[135.7493,46.9233,532.5331],[135.777,46.9382,498.7836],[135.778,46.9678,586.1372],[135.7269,46.9801,579.9899],[135.6799,46.9729,513.5659],[135.6114,46.9753,280.5993],[135.6102,46.9976,257.4084],[135.5613,46.9974,345.4753],[135.5275,46.9714,300.488],[135.4924,46.9419,302.4683],[135.4403,46.9284,421.9077],[135.3971,46.9393,480.8139],[135.3771,46.9513,330.3132],[135.3846,46.9753,377.0966],[135.4223,47.011,306.5586],[135.4421,47.0353,348.2509],[135.4548,47.054,599.3118],[135.4357,47.0751,371.2646],[135.4028,47.089,294.492],[135.3629,47.0975,280.4815],[135.3403,47.1332,329.9318],[135.3544,47.1794,438.4536],[135.327,47.1942,362.1928],[135.2812,47.1863,357.5476],[135.2361,47.1822,454.4185],[135.2155,47.2016,268.1516],[135.1851,47.2165,269.3458],[135.1333,47.2253,390.1007],[135.0902,47.2286,484.6248],[135.0635,47.1966,447.9409],[135.0305,47.162,334.1633],[134.9885,47.1484,292.8031],[134.9493,47.1563,268.5461],[134.8875,47.174,509.8761],[134.8615,47.1716,492.133],[134.8233,47.1421,566.877],[134.7622,47.149,535.3193],[134.7283,47.1487,542.6212],[134.6904,47.1427,599.3277],[134.6722,47.1095,568.2192],[134.6576,47.069,507.0014],[134.6135,47.0407,427.537],[134.6069,46.9725,193.872],[134.5642,46.9744,276.9121],[134.517,47.0098,206.6552],[134.4707,47.0161,274.0361],[134.4598,46.9651,371.0633],[134.5057,46.9149,385.5957],[134.4882,46.852,127.5252],[134.5136,46.8106,92.4191],[134.5023,46.7627,92.0465],[134.4681,46.7328,134.0913],[134.4192,46.7126,289.6627],[134.3514,46.7088,62.9103],[134.2684,46.6994,174.4592],[134.1804,46.6827,520.6926],[134.0875,46.679,531.9553],[134.0375,46.6632,107.1808],[134.0179,46.6637,60.2113],[134.0147,46.6544,92.7662],[134.0032,46.6442,48.3391],[133.9424,46.6026,52.417],[133.9217,46.5908,65.3371],[133.913,46.5815,57.959],[133.8939,46.5238,78.1619],[133.8589,46.4908,49.3544],[133.8501,46.471,52.845],[133.8509,46.4607,46.6701],[133.8699,46.4439,49.3791],[133.9156,46.4345,51.7047],[133.9276,46.4246,51.8655],[133.9421,46.3934,47.4566],[133.9404,46.3784,52.1624],[133.929,46.369,90.1286],[133.8785,46.3555,51.8457],[133.8722,46.352,53.1133],[133.8684,46.3409,52.2059],[133.8758,46.3295,48.0],[133.889,46.3226,50.9573],[133.9155,46.3261,48.2247],[133.9203,46.3225,51.6201],[133.9171,46.3166,51.7476],[133.8958,46.3056,53.6735],[133.8916,46.2997,53.6977],[133.9085,46.2716,52.2667],[133.9099,46.2653,48.8994],[133.9057,46.2593,50.7444],[133.8934,46.2525,48.0],[133.8753,46.248,48.0],[133.8634,46.247,51.9083],[133.8599,46.2443,53.3234],[133.8612,46.2398,50.8712],[133.8708,46.2345,54.3683],[133.8749,46.2282,55.1234],[133.8635,46.2208,52.3798],[133.8559,46.2128,50.7594],[133.8494,46.2011,54.7744],[133.8405,46.1976,55.4165],[133.8311,46.1998,49.0],[133.8278,46.2073,49.5],[133.8272,46.215,49.5],[133.8229,46.2225,50.0],[133.8127,46.224,56.1503],[133.8046,46.2211,55.4993],[133.7917,46.1977,50.5],[133.7706,46.1739,54.6533],[133.7447,46.1633,54.3144],[133.7001,46.1578,52.9307],[133.6881,46.1465,52.967],[133.6877,46.1292,51.5],[133.6942,46.115,51.5]]]]}}