{"type":"Feature","properties":{"GID_2":"RUS.60.28_1","GID_0":"RUS","country":"Russia","GID_1":"RUS.60_1","province":"Sakha","NL_NAME_1":"РеспубликаСаха","county":"Tomponskiyrayon","VARNAME_2":"NA","NL_NAME_2":"Томпонскийрайон","TYPE_2":"Raion","ENGTYPE_2":"District","CC_2":"R65002","HASC_2":"RU.SK.TO","name":"Tomponskiyrayon.county"},
"geometry":{"type": "MultiPolygon","coordinates": [[[[132.2735,63.6977,323.9796],[132.3805,63.6846,266.8696],[132.5065,63.6539,337.6044],[132.6529,63.5949,316.7819],[132.7227,63.5167,183.1183],[132.7581,63.4432,134.3243],[132.8435,63.3396,92.0548],[132.9847,63.3417,102.5217],[133.0966,63.3593,97.5201],[133.3535,63.3282,105.7248],[133.5746,63.3349,191.669],[133.7547,63.3677,208.6428],[133.8888,63.4239,220.8691],[133.9665,63.4639,260.4018],[134.012,63.457,267.2696],[134.08,63.3859,232.552],[134.0859,63.3143,197.4515],[134.0557,63.2722,186.5473],[134.0896,63.1773,170.8693],[134.0348,63.0495,104.1313],[134.0364,62.909,131.2569],[134.015,62.7804,184.1471],[134.044,62.7022,220.2204],[134.2034,62.6512,239.9194],[134.4059,62.5964,240.0592],[134.4854,62.5826,189.9672],[134.5774,62.5956,209.0759],[134.9665,62.4904,132.2474],[135.097,62.4621,206.1974],[135.177,62.4342,234.6376],[135.2719,62.3619,234.7438],[135.4329,62.2702,296.6405],[135.6074,62.1579,300.5301],[135.72,62.0575,220.4691],[135.7749,61.9951,140.7882],[135.7191,61.9319,203.5782],[135.6185,61.8983,273.5644],[135.5621,61.8654,247.0026],[135.5345,61.8188,131.61],[135.4754,61.7909,139.5223],[135.407,61.7705,144.3897],[135.3604,61.7652,127.1735],[135.2986,61.7369,156.9919],[135.2503,61.6596,142.6049],[135.2615,61.6152,191.9941],[135.3157,61.592,213.5559],[135.4073,61.6026,134.5302],[135.4767,61.6225,152.0218],[135.5174,61.624,132.4308],[135.5536,61.6158,132.4944],[135.5889,61.6448,205.6161],[135.6512,61.6864,228.9149],[135.7276,61.745,227.6302],[135.9365,61.8079,247.9828],[136.1603,61.8071,284.1039],[136.2328,61.7834,245.4056],[136.2968,61.7264,321.8564],[136.416,61.6752,409.9225],[136.5851,61.6759,399.6602],[136.8549,61.6315,1056.3862],[136.9549,61.6382,577.0601],[137.012,61.6915,766.4653],[137.0635,61.698,579.6069],[137.1227,61.6908,634.384],[137.2155,61.6972,970.3268],[137.2839,61.7063,912.0129],[137.4845,61.6775,1132.9454],[137.6682,61.7305,1185.9899],[137.6952,61.7767,1146.5948],[137.677,61.8243,1308.6693],[137.7168,61.8595,1335.6879],[137.7793,61.8945,1298.6631],[137.8318,62.0576,954.4906],[137.7572,62.1213,597.5247],[137.7989,62.2589,742.1014],[137.8646,62.2764,432.1252],[137.9167,62.2403,692.772],[138.0076,62.2229,605.4509],[138.1872,62.2447,939.1935],[138.4122,62.3578,607.0568],[138.5411,62.439,546.2372],[138.712,62.506,586.1422],[138.8853,62.523,1163.524],[139.0064,62.5111,685.3387],[139.1317,62.4614,679.252],[139.2522,62.4451,659.5155],[139.4378,62.4352,744.7231],[139.5958,62.4473,954.4023],[139.8223,62.4755,1611.2267],[139.962,62.5536,1549.473],[139.956,62.6399,1430.1184],[139.8566,62.6682,1672.4539],[139.7698,62.7167,1734.7858],[139.7155,62.7587,1664.9429],[139.7017,62.8144,1680.3621],[139.7354,62.8713,1805.9852],[139.7382,62.9233,1630.1331],[139.6671,62.9765,1899.8702],[139.6477,63.0113,1856.2087],[139.7001,63.0724,1732.054],[139.7248,63.1514,2030.9135],[139.7307,63.224,1586.4353],[139.7946,63.2992,1695.3665],[139.8637,63.3212,1571.7163],[139.9352,63.3348,1279.8812],[140.0089,63.3381,1182.7438],[140.1413,63.4376,1503.6514],[140.278,63.4776,1169.6869],[140.413,63.505,1169.7527],[140.4962,63.5141,1105.7511],[140.573,63.5337,1118.412],[140.6423,63.5871,1230.1256],[140.6493,63.659,1560.7523],[140.6187,63.6951,1388.5237],[140.5426,63.7372,1196.0652],[140.4791,63.7953,1318.4584],[140.4919,63.8549,974.6273],[140.5338,63.9017,1180.4653],[140.6141,63.9625,1252.2861],[140.6825,64.0359,1078.0393],[140.6755,64.0921,830.6837],[140.5981,64.1294,1035.3921],[140.4753,64.1612,946.4326],[140.2695,64.1952,1188.9304],[140.2197,64.2306,1081.6332],[140.259,64.2796,1262.0281],[140.2966,64.317,1239.7036],[140.2632,64.3696,1198.2378],[140.2924,64.4315,938.1248],[140.4019,64.4889,849.0891],[140.4033,64.5424,778.619],[140.3336,64.5912,798.6775],[140.2471,64.6216,780.8098],[140.0917,64.6639,805.5239],[140.0375,64.7101,797.4114],[139.9915,64.7615,860.3021],[139.6168,64.8493,795.0274],[139.4532,64.8686,809.3108],[139.4023,64.9176,1046.3088],[139.4413,64.9853,1162.9436],[139.5478,65.099,1271.8838],[139.6593,65.2573,1014.0953],[139.7799,65.3588,1071.551],[139.9261,65.4534,1332.8904],[140.0574,65.5061,1620.6417],[140.2131,65.53,1562.8938],[140.3287,65.5606,2054.6555],[140.2128,65.6004,1931.0702],[140.1294,65.6345,1622.1583],[140.0989,65.6716,1681.855],[140.1848,65.7128,1409.7288],[140.2668,65.7386,1332.1927],[140.3375,65.7785,1555.0985],[140.3695,65.8193,1835.7366],[140.2444,65.8329,1824.7107],[140.1084,65.8845,1956.0015],[140.0192,65.9285,2032.1716],[139.9432,65.9151,1564.2384],[139.8934,65.876,1167.7866],[139.7664,65.872,1088.0638],[139.6434,65.9084,1083.541],[139.5354,65.9647,981.9849],[139.4328,66.0226,1209.8588],[139.2963,66.0544,1664.0964],[139.1257,66.047,1172.8157],[138.9244,66.0093,1003.2573],[138.7211,65.9786,1366.9539],[138.5668,65.9686,903.3255],[138.3596,66.0424,1348.2935],[138.2737,66.0621,949.5578],[138.1587,66.0503,1378.2225],[137.8841,66.0721,1071.1914],[137.5901,66.1024,779.5942],[137.317,66.1333,1009.9887],[137.0339,66.1798,686.851],[136.8135,66.1881,451.516],[136.6426,66.1875,773.0538],[136.5186,66.1501,868.6373],[136.3832,66.1068,829.8579],[136.261,66.0784,1163.3278],[136.1591,66.0739,1082.9625],[136.0884,66.0344,893.522],[135.9638,65.9716,889.8514],[135.8305,65.9172,938.6223],[135.7749,65.8912,1043.754],[135.6875,65.8715,1152.4362],[135.568,65.873,887.5726],[135.4483,65.8344,902.1061],[135.3201,65.7967,1002.2067],[135.2189,65.7759,1173.0682],[135.0885,65.7639,1153.9299],[134.8673,65.7379,955.2701],[134.7794,65.7076,862.3294],[134.6937,65.6352,901.9354],[134.5927,65.557,887.9438],[134.4453,65.4571,815.1341],[134.4131,65.4062,863.7526],[134.3816,65.3677,924.2024],[134.3006,65.3808,927.5595],[134.2167,65.382,851.1841],[134.1506,65.3358,1108.6582],[134.093,65.2846,847.8921],[133.9937,65.2541,1130.0441],[133.9002,65.2399,1007.5936],[133.7871,65.2053,912.1996],[133.6755,65.1921,868.1647],[133.5372,65.1817,685.4421],[133.4073,65.2022,736.5363],[133.3177,65.2065,821.2545],[133.2027,65.1979,1029.0693],[133.1352,65.1625,836.0539],[133.04,65.1219,641.5608],[132.97,65.1168,604.2763],[132.912,65.0947,675.7665],[132.8857,65.0278,862.5612],[132.8799,64.981,795.707],[132.8096,64.93,842.9573],[132.7633,64.8645,973.4457],[132.8095,64.8105,937.4088],[132.9678,64.7429,991.7283],[133.0824,64.6908,908.1904],[133.1961,64.6368,1111.3279],[133.2236,64.5978,1072.4164],[133.1806,64.5655,1287.8115],[133.075,64.5584,1329.1157],[132.9811,64.5405,1500.3333],[132.8637,64.4799,1771.1119],[132.8271,64.4758,1767.5763],[132.7478,64.474,1579.0569],[132.7569,64.4119,1700.3225],[132.7783,64.3653,1306.1125],[132.859,64.3309,1236.4032],[132.8827,64.295,1528.6482],[132.8332,64.2377,1207.3074],[132.7883,64.1999,1217.3461],[132.758,64.1669,1376.3503],[132.7786,64.148,859.7249],[132.7545,64.1178,775.7751],[132.6404,64.0823,1203.1921],[132.5897,64.0366,966.0804],[132.5978,63.986,747.3162],[132.5987,63.9379,510.9644],[132.4385,63.8276,541.4468],[132.3473,63.7831,511.8541],[132.2803,63.7393,402.9963],[132.2735,63.6977,323.9796]]]]}}