{"type":"Feature","properties":{"GID_2":"RUS.60.5_1","GID_0":"RUS","country":"Russia","GID_1":"RUS.60_1","province":"Sakha","NL_NAME_1":"РеспубликаСаха","county":"Anabarskiyrayon","VARNAME_2":"NA","NL_NAME_2":"Анабарскийрайон","TYPE_2":"Raion","ENGTYPE_2":"District","CC_2":"R65000","HASC_2":"RU.SK.AN","name":"Anabarskiyrayon.county"},
"geometry":{"type": "MultiPolygon","coordinates": [[[[111.23,73.8569,2.3945],[111.1096,73.838,2.0269],[111.0144,73.8161,7.2508],[110.9353,73.783,2.7125],[110.9238,73.7487,7.268],[110.915,73.7144,5.8711],[110.9044,73.7021,0.0],[110.9229,73.7021,0.56],[110.9271,73.7042,1.0629],[110.9391,73.7037,0.0],[110.9339,73.7016,0.0],[110.9328,73.6984,0.0],[110.925,73.6958,-0.2473],[110.9151,73.6953,-0.1073],[111.0736,73.6855,2.0928],[111.1528,73.6375,2.8394],[111.166,73.6125,12.7452],[111.1107,73.6,24.343],[110.9977,73.6212,33.307],[110.8977,73.6192,18.7602],[110.814,73.5299,22.7664],[110.6829,73.4408,30.6038],[110.1962,73.4388,32.626],[110.1348,73.4076,1.9811],[110.3304,73.3766,35.081],[110.549,73.3481,25.6429],[110.5693,73.2926,9.9803],[110.3623,73.2285,48.932],[110.4673,73.1806,45.4607],[110.6819,73.2047,53.0218],[110.8645,73.1897,66.4033],[110.9051,73.1652,62.004],[110.8408,73.1286,69.5041],[110.9269,73.0851,51.2177],[110.9162,73.0432,50.4339],[110.7848,73.0353,40.7156],[110.7123,72.9954,46.6683],[110.881,72.9856,30.4654],[110.848,72.9373,9.2073],[110.7624,72.8896,30.4322],[110.7583,72.8428,24.463],[110.719,72.808,21.2451],[110.7422,72.7298,37.3206],[110.7803,72.651,69.5784],[110.8705,72.6552,73.0786],[110.9398,72.6405,74.6993],[110.9145,72.5901,65.4965],[111.1131,72.5757,64.6575],[111.2161,72.5387,73.6233],[111.2132,72.4796,51.4798],[111.1123,72.4471,61.5803],[111.0625,72.4073,67.0427],[111.1462,72.3638,68.3536],[111.3487,72.3667,76.1967],[111.4296,72.3307,91.396],[111.5808,72.3322,187.6398],[111.6896,72.2899,176.5332],[111.692,72.2372,157.259],[111.6478,72.1917,155.626],[111.7584,72.1821,249.4195],[111.8241,72.142,288.4106],[111.953,72.1322,210.7848],[112.0149,72.1213,216.5802],[112.1535,72.1388,131.4885],[112.3598,72.1535,70.8767],[112.5583,72.1367,97.0995],[112.6942,72.127,54.3709],[112.8893,72.1353,60.6537],[113.0716,72.1593,50.1173],[113.1736,72.1616,52.9628],[113.2621,72.1506,75.9962],[113.2936,72.1167,48.7529],[113.2762,72.0219,183.3796],[113.3346,71.8963,182.6887],[113.3871,71.8443,182.9122],[113.3381,71.8024,180.846],[113.3219,71.7631,106.4088],[113.4003,71.7245,112.3839],[113.5155,71.6732,150.0162],[113.5262,71.6258,175.2623],[113.4349,71.595,233.9204],[113.4699,71.5367,253.8926],[113.5729,71.49,184.4743],[113.6264,71.4351,121.9649],[113.7088,71.4102,189.9631],[113.8896,71.419,100.2537],[113.9946,71.4588,199.7896],[114.1693,71.4621,235.3311],[114.2563,71.4216,256.0407],[114.3449,71.3931,244.4881],[114.6776,71.3833,111.8156],[114.7004,71.4182,102.339],[114.67,71.4748,85.4933],[114.8575,71.5085,27.0336],[114.9518,71.5817,21.2554],[115.0195,71.592,20.2024],[115.1746,71.611,28.9882],[115.2942,71.6748,52.7638],[115.314,71.7205,85.8023],[115.4613,71.7645,58.832],[115.6594,71.8037,68.5684],[115.7188,71.8513,103.6091],[115.789,71.8991,96.8923],[115.8683,71.9395,75.5418],[116.0584,71.9688,73.3504],[116.2284,72.0147,81.0005],[116.233,72.0893,65.0819],[116.3169,72.1019,73.9013],[116.4754,72.1097,86.7306],[116.5797,72.0959,91.2822],[116.6891,72.0702,49.2663],[116.8092,72.0941,76.0511],[116.8942,72.1149,74.2653],[117.0042,72.1023,68.3789],[117.1559,72.1111,70.687],[117.2116,72.1514,52.3553],[117.5611,72.1667,49.3537],[117.6203,72.2172,38.6313],[117.6887,72.2335,41.747],[117.7906,72.2394,36.816],[117.9149,72.2146,39.0306],[118.0327,72.1807,42.1001],[118.0944,72.1248,39.3034],[118.1525,72.0423,74.9455],[118.336,72.0245,80.1681],[118.4795,72.0406,57.3945],[118.6767,72.0702,68.8322],[118.8999,72.0876,63.0107],[119.1561,72.1144,39.9797],[119.3991,72.1613,40.4253],[119.5637,72.2318,20.2935],[119.7681,72.2851,13.6889],[120.063,72.3055,38.9679],[120.2456,72.3058,64.6036],[120.3103,72.2983,41.2638],[120.3572,72.3306,51.0752],[120.386,72.3743,55.7402],[120.4651,72.4558,60.2247],[120.2767,72.5506,82.553],[120.0205,72.6902,78.6744],[119.903,72.7516,61.8719],[119.7847,72.7761,28.1513],[119.5405,72.7789,41.5808],[119.3336,72.8034,93.3663],[119.2401,72.7933,75.0438],[118.9687,72.7699,85.2232],[118.7833,72.7977,92.4148],[118.632,72.862799999999993,85.4035],[118.3436,73.0011,86.0925],[117.9782,73.0573,89.0803],[117.7826,73.0385,151.035],[117.5731,73.0293,111.9326],[117.3881,73.0719,170.3724],[117.2425,73.0554,146.5273],[117.088,73.0597,115.3109],[117.1475,73.1127,83.1464],[117.224,73.1375,92.1321],[117.3868,73.1469,51.4436],[117.5525,73.1714,58.6897],[117.645,73.1978,69.6269],[117.8569,73.2193,15.4236],[118.0999,73.2758,9.3187],[118.1055,73.3226,6.1899],[118.1072,73.3649,3.4022],[118.2462,73.3729,1.3729],[118.293,73.3792,1.4633],[118.2839,73.3797,1.5905],[118.2854,73.3812,1.6452],[118.3038,73.3806,1.7888],[118.3922,73.3924,6.5424],[118.3938,73.3938,0.9693],[118.4042,73.3938,0.0],[118.4057,73.3953,0.0],[118.4,73.3958,0.4224],[118.3984,73.3974,4.4902],[118.412,73.3984,0.0],[118.413,73.4036,0.6424],[118.4182,73.4047,0.0],[118.4193,73.4078,0.0],[118.4266,73.4089,0.0],[118.4276,73.4141,3.3195],[118.4328,73.4151,0.0],[118.4339,73.4203,2.2884],[118.4391,73.4213,0.0],[118.4401,73.4266,5.4039],[118.4537,73.4276,0.0],[118.4547,73.4307,0.0],[118.4682,73.4339,0.0],[118.4693,73.437,6.6368],[118.4854,73.4417,0.0],[118.5,73.4375,0.0],[118.5104,73.4375,0.0],[118.5208,73.4417,4.7259],[118.5411,73.4464,0.0],[118.5422,73.4495,0.0],[118.5474,73.4505,0.0],[118.5422,73.4537,0.0],[118.5557,73.4568,0.0],[118.5537,73.462,0.0],[118.5484,73.463,0.8883],[118.5479,73.4646,0.0],[118.5484,73.4661,0.0],[118.5563,73.4688,0.0],[118.575,73.4688,1.1328],[118.5854,73.4646,0.0],[118.5911,73.4641,6.1521],[118.5938,73.4604,0.0],[118.6271,73.4604,3.2511],[118.6312,73.4583,0.0],[118.6479,73.4583,1.0467],[118.6495,73.4599,0.0],[118.6443,73.462,0.9832],[118.6563,73.4625,0.0],[118.6604,73.4646,0.8751],[118.6771,73.4646,0.6582],[118.687,73.462,0.7631],[118.6854,73.4604,0.5939],[118.6797,73.4599,0.0],[118.6792,73.4542,0.0],[118.6813,73.4521,0.0],[118.6917,73.4521,1.4261],[118.6958,73.4563,1.2052],[118.7146,73.4563,1.3044],[118.725,73.4604,0.8307],[118.7292,73.4604,0.031],[118.7307,73.4599,0.031],[118.7307,73.4568,0.9304],[118.725,73.4563,0.3041],[118.7234,73.4547,0.548],[118.7292,73.4542,1.1397],[118.7307,73.4526,1.282],[118.7172,73.4495,1.3828],[118.7172,73.4443,0.3543],[118.7292,73.4437,1.7076],[118.7391,73.4411,2.0464],[118.7401,73.4359,1.4697],[118.7453,73.4349,1.8791],[118.7464,73.4318,0.0],[118.7599,73.4307,2.2988],[118.7547,73.4287,0.0],[118.7562,73.4271,0.0],[118.775,73.4271,0.8604],[118.7792,73.425,0.0],[118.7854,73.4271,0.7788],[118.7958,73.4271,0.0],[118.7979,73.4292,0.5968],[118.7974,73.4328,0.4945],[118.7901,73.4339,0.7316],[118.7839,73.4359,0.6862],[118.7828,73.4391,0.0],[118.7755,73.4401,0.5905],[118.7828,73.4432,0.6148],[118.7771,73.4437,0.5197],[118.7755,73.4453,0.7746],[118.7854,73.4479,0.4076],[118.8,73.4437,0.4924],[118.8104,73.4458,0.6121],[118.8208,73.4417,0.5904],[118.8458,73.4417,0.6267],[118.8557,73.4443,0.6072],[118.8568,73.4474,0.7491],[118.8646,73.45,0.6434],[118.8688,73.45,0.7254],[118.8729,73.4479,0.2777],[118.8833,73.4479,0.4881],[118.8875,73.4458,0.2819],[118.8938,73.4479,0.7079],[118.9141,73.4484,0.5246],[118.9125,73.45,0.5245],[118.9068,73.4505,0.5722],[118.9042,73.4542,0.5858],[118.8979,73.4521,0.6135],[118.863,73.4526,0.8221],[118.8729,73.4563,0.5736],[118.8833,73.4563,0.4745],[118.9021,73.4625,0.7246],[118.9146,73.4625,0.5218],[118.9146,73.4604,0.6875],[118.9187,73.4604,0.3756],[118.9229,73.4625,0.574],[118.9271,73.4625,0.5953],[118.9287,73.462,0.5763],[118.9297,73.4568,0.7679],[118.9417,73.4563,0.5432],[118.9458,73.4542,0.5374],[118.9625,73.4542,0.5182],[118.9651,73.4578,0.7831],[118.9724,73.4589,0.4954],[118.9708,73.4604,0.7025],[118.9589,73.4609,0.8261],[118.9641,73.4641,0.0],[118.9563,73.4667,0.0],[118.9458,73.4667,0.0],[118.9417,73.4646,0.7005],[118.9375,73.4646,0.8238],[118.9333,73.4667,0.7771],[118.9146,73.4667,0.9196],[118.912,73.4703,0.6865],[118.8984,73.4734,0.9153],[118.8974,73.4786,0.8618],[118.8958,73.4792,0.7639],[118.8922,73.4786,0.9913],[118.8896,73.475,0.779],[118.8708,73.475,0.8277],[118.8646,73.4729,0.7782],[118.8458,73.4792,0.5233],[118.8401,73.4797,0.6586],[118.8401,73.4828,0.6836],[118.8417,73.4833,0.8656],[118.8536,73.4838,0.6052],[118.8521,73.4854,0.59],[118.8464,73.4859,0.6538],[118.8438,73.4896,0.6981],[118.8375,73.4875,0.8502],[118.8187,73.4875,0.876],[118.8125,73.4854,0.785],[118.8083,73.4875,0.9058],[118.7979,73.4875,0.7603],[118.788,73.4901,0.9108],[118.788,73.5036,0.8327],[118.8146,73.5042,0.787],[118.8167,73.5062,0.837],[118.8042,73.5062,0.9146],[118.788,73.5109,1.1181],[118.7932,73.513,1.0376],[118.7937,73.5167,1.2015],[118.7932,73.5182,1.1224],[118.788,73.5203,1.1966],[118.8021,73.5208,1.0348],[118.8021,73.5229,1.1903],[118.7943,73.5234,1.2415],[118.7932,73.5307,1.4882],[118.7859,73.5318,1.5068],[118.7932,73.5349,1.2148],[118.7813,73.5354,1.8286],[118.7786,73.5318,1.7503],[118.7667,73.5292,1.5346],[118.7651,73.5297,1.9081],[118.7641,73.5349,0.5],[118.7505,73.5359,2.3614],[118.7521,73.5375,1.7028],[118.7625,73.5375,1.419],[118.7667,73.5396,1.1661],[118.7849,73.5401,0.0],[118.7833,73.5417,0.8455],[118.7729,73.5417,0.8166],[118.7542,73.5479,0.0],[118.7292,73.55,10.2446],[118.725,73.5521,0.0],[118.7146,73.5521,0.0],[118.7104,73.5542,0.0],[118.6917,73.5542,21.2241],[118.6875,73.5563,0.0],[118.6771,73.5563,13.4506],[118.6729,73.5583,0.0],[118.6625,73.5583,6.6887],[118.6583,73.5604,0.0],[118.6333,73.5604,10.0525],[118.6292,73.5625,0.0],[118.5729,73.5625,4.9328],[118.5667,73.5646,0.0],[118.5625,73.5625,2.3968],[118.5,73.5625,3.7231],[118.4958,73.5646,0.0],[118.4563,73.5646,2.6047],[118.4521,73.5667,0.0],[118.4271,73.5667,0.0],[118.4229,73.5646,5.9555],[118.3958,73.5646,18.0082],[118.3896,73.5667,0.0],[118.3854,73.5646,1.3132],[118.3812,73.5646,2.1003],[118.3771,73.5667,0.0],[118.3667,73.5667,0.0],[118.3604,73.5646,10.2494],[118.3562,73.5667,0.0],[118.3146,73.5667,28.8696],[118.3104,73.5687,0.0],[118.3042,73.5667,23.9175],[118.3,73.5667,19.5622],[118.2958,73.5687,0.0],[118.2854,73.5687,0.0],[118.2813,73.5667,11.954],[118.2188,73.5667,20.0196],[118.2146,73.5687,0.0],[118.2042,73.5687,11.1304],[118.2,73.5708,0.0],[118.1833,73.5708,15.0261],[118.1792,73.5729,0.0],[118.1687,73.5729,3.0433],[118.1646,73.575,0.0],[118.1458,73.575,22.8599],[118.1417,73.5771,0.0],[118.1083,73.5771,2.7987],[118.1042,73.5792,0.0],[117.9688,73.5792,0.0],[117.9646,73.5771,5.4741],[117.9396,73.575,0.0],[117.9354,73.5708,6.3836],[117.9167,73.5708,3.8513],[117.9125,73.5729,0.0],[117.9021,73.5729,0.0],[117.8958,73.5708,8.9755],[117.8917,73.5729,0.0],[117.8875,73.5729,0.0],[117.8812,73.5708,0.0],[117.8771,73.5729,0.0],[117.8729,73.5729,0.0],[117.8688,73.5708,0.0],[117.8063,73.5708,0.0],[117.8021,73.5729,0.0],[117.7917,73.5729,0.0],[117.7854,73.5708,1.6371],[117.7813,73.5729,0.0],[117.7708,73.5729,0.0],[117.7583,73.5687,1.1981],[117.7333,73.5687,3.3447],[117.7292,73.5708,0.0],[117.7188,73.5708,3.0073],[117.7146,73.5729,0.0],[117.6958,73.5729,0.0],[117.6896,73.5708,6.7801],[117.6854,73.5729,0.0],[117.6813,73.5729,0.0],[117.675,73.5708,3.4191],[117.6708,73.5729,0.0],[117.6521,73.5729,1.4804],[117.6479,73.575,0.0],[117.6083,73.575,1.11],[117.6042,73.5729,14.4994],[117.6,73.5729,8.0059],[117.5938,73.575,1.241],[117.5896,73.5729,5.8694],[117.5646,73.5729,1.0329],[117.5604,73.5708,4.2201],[117.55,73.5708,1.5152],[117.5458,73.5729,1.1247],[117.5271,73.5729,0.9694],[117.5229,73.5708,0.8314],[117.4896,73.5708,0.9919],[117.4854,73.5687,1.2419],[117.475,73.5687,1.3754],[117.4688,73.5708,0.7408],[117.4646,73.5687,1.2886],[117.4458,73.5687,1.2396],[117.4417,73.5708,1.2272],[117.4021,73.5708,1.3675],[117.3979,73.5729,1.1716],[117.3729,73.5729,1.2331],[117.3688,73.5708,1.4077],[117.3646,73.5708,0.9399],[117.3604,73.5729,1.2581],[117.3354,73.5729,1.5259],[117.3339,73.5734,1.4756],[117.3328,73.5787,0.6903],[117.3229,73.5813,0.8594],[117.3125,73.5813,0.9302],[117.3083,73.5854,1.1376],[117.3042,73.5854,1.0269],[117.3,73.5875,0.6195],[117.2896,73.5875,0.9895],[117.2854,73.5896,0.0],[117.2667,73.5896,1.2286],[117.2568,73.5922,1.6613],[117.2542,73.5958,0.0],[117.2422,73.5964,1.996],[117.2396,73.6,0.0],[117.2354,73.6,0.0],[117.2312,73.6021,0.0],[117.2208,73.6021,0.0],[117.2083,73.6062,0.0],[117.1833,73.6062,27.2091],[117.1792,73.6083,0.0],[117.1604,73.6083,0.0],[117.1563,73.6104,0.0],[117.15,73.6083,5.3985],[117.1396,73.6083,14.1128],[117.1354,73.6104,5.9426],[117.1229,73.6104,1.7617],[117.1125,73.6146,0.0],[117.1,73.6146,8.6311],[117.0958,73.6167,0.0],[117.0708,73.6167,20.8313],[117.0667,73.6188,0.0],[117.0563,73.6167,9.191],[117.0521,73.6188,0.0],[117.0333,73.6188,18.6702],[117.0292,73.6208,0.0],[117.0188,73.6208,0.0],[117.0062,73.625,0.0],[117.0026,73.6245,0.0],[117.0,73.6208,6.1452],[116.9896,73.6208,15.5106],[116.9854,73.6229,0.0],[116.975,73.6229,6.2609],[116.9708,73.625,0.0],[116.9437,73.6271,1.2117],[116.925,73.6333,0.0],[116.9146,73.6333,10.4472],[116.9021,73.6375,0.0],[116.8833,73.6375,3.4398],[116.8792,73.6417,0.0],[116.8688,73.6417,2.2899],[116.8562,73.6458,0.0],[116.8146,73.6479,7.412],[116.8104,73.65,1.3589],[116.7708,73.65,8.6373],[116.7667,73.6521,2.0314],[116.7562,73.6521,1.241],[116.7521,73.6542,1.2767],[116.7396,73.6542,0.9426],[116.7333,73.6521,1.3002],[116.7292,73.6542,1.1565],[116.7188,73.6542,2.359],[116.7125,73.6583,1.1937],[116.6813,73.6583,1.2145],[116.6521,73.6667,1.2491],[116.6417,73.6667,1.2448],[116.6375,73.6687,1.0538],[116.6042,73.6687,9.003],[116.6,73.6708,0.0],[116.5896,73.6687,29.8277],[116.5854,73.6708,0.0],[116.5,73.6708,2.3251],[116.4958,73.6687,1.3796],[116.4854,73.6687,1.1627],[116.475,73.6646,1.2899],[116.45,73.6667,1.5103],[116.4458,73.6646,5.8459],[116.4354,73.6646,1.1639],[116.425,73.6604,20.4296],[116.4146,73.6604,3.4964],[116.4104,73.6583,4.8974],[116.3917,73.6583,0.926],[116.3875,73.6563,23.251],[116.3812,73.6583,0.7155],[116.3688,73.6583,0.6257],[116.3646,73.6563,6.3959],[116.2875,73.6563,1.6945],[116.2833,73.6583,0.6743],[116.2438,73.6583,19.7769],[116.2396,73.6604,0.823],[116.2292,73.6604,7.6502],[116.225,73.6625,0.0],[116.1979,73.6625,21.381],[116.1937,73.6646,0.0],[116.1687,73.6667,10.2342],[116.1646,73.6687,1.1727],[116.1521,73.6687,13.189],[116.125,73.6771,0.0],[116.0979,73.6792,8.1769],[116.0875,73.6833,0.0],[116.075,73.6833,12.39],[116.0708,73.6854,0.0],[116.0604,73.6854,15.5177],[116.0563,73.6875,0.0],[116.0375,73.6875,20.8391],[116.0333,73.6896,0.0],[116.0083,73.6896,0.0],[116.0042,73.6875,3.2698],[115.9854,73.6875,0.4114],[115.9812,73.6917,0.0],[115.9771,73.6917,0.9049],[115.9729,73.6937,0.0],[115.9625,73.6937,0.0],[115.9583,73.6958,0.0],[115.9479,73.6937,14.4563],[115.9437,73.6958,0.0],[115.8646,73.6958,0.0],[115.8542,73.7,0.0],[115.85,73.7,0.0],[115.8458,73.6979,0.0],[115.8417,73.6979,1.2592],[115.8375,73.7,0.0],[115.8208,73.7,0.0],[115.8167,73.6979,0.0],[115.8125,73.6979,0.0],[115.8,73.7021,0.0],[115.7896,73.7021,3.7824],[115.7854,73.7042,0.0],[115.7813,73.7042,0.0],[115.7771,73.7021,4.9611],[115.7604,73.7021,0.0],[115.7589,73.7016,0.0],[115.7578,73.6964,1.1197],[115.7542,73.6958,1.1458],[115.75,73.6979,0.0],[115.7312,73.6979,0.0],[115.7271,73.7,0.0],[115.7021,73.7,0.0],[115.6979,73.7021,0.0],[115.6854,73.7021,0.0],[115.6813,73.7063,0.0],[115.6542,73.7083,0.0],[115.65,73.7104,0.0],[115.6396,73.7104,0.0],[115.6354,73.7083,0.0],[115.5958,73.7083,2.1911],[115.5917,73.7104,0.0],[115.5354,73.7104,0.0],[115.5313,73.7125,0.0],[115.5271,73.7125,0.0],[115.5229,73.7104,5.6961],[115.4688,73.7104,2.0384],[115.4646,73.7125,0.0],[115.4542,73.7125,0.0],[115.4516,73.7089,0.0],[115.4464,73.7078,0.0],[115.4437,73.7042,0.7596],[115.4333,73.7042,0.0],[115.4229,73.7,0.0],[115.4187,73.7,0.0],[115.4146,73.7021,0.0],[115.4042,73.7021,0.0],[115.3964,73.6995,0.0],[115.3938,73.6958,0.0],[115.3896,73.6958,0.0],[115.3854,73.6979,0.0],[115.375,73.6979,3.7711],[115.3625,73.7021,0.0],[115.3521,73.7021,0.6674],[115.3479,73.7042,0.6721],[115.3292,73.7042,0.0],[115.325,73.7021,1.2822],[115.3146,73.7021,0.0],[115.3104,73.7,3.1858],[115.3,73.7,0.0],[115.2958,73.6979,0.0],[115.2854,73.6979,4.1314],[115.2792,73.7,0.0],[115.275,73.6979,10.7889],[115.25,73.6958,0.0],[115.2484,73.6943,0.0],[115.2641,73.6911,0.0],[115.2641,73.6859,0.0],[115.2562,73.6833,0.0],[115.2521,73.6833,0.0],[115.2479,73.6854,0.0],[115.2229,73.6854,0.0],[115.2188,73.6833,0.0],[115.2,73.6833,0.0],[115.1958,73.6813,6.2914],[115.1875,73.6813,0.0],[115.175,73.6771,0.9228],[115.1521,73.675,0.0],[115.1396,73.6708,0.0],[115.1292,73.6708,0.0],[115.1125,73.6646,4.8974],[115.0875,73.6625,0.0],[115.0849,73.6589,0.0],[115.0797,73.6578,0.0],[115.0807,73.6484,0.7282],[115.0667,73.6438,0.0],[115.0463,73.6432,0.0],[115.0463,73.6401,1.5275],[115.062,73.6391,0.0],[115.0604,73.6375,0.0],[115.0354,73.6375,1.6688],[115.0292,73.6417,0.0],[115.0188,73.6417,0.0],[115.0021,73.6354,0.0],[114.9901,73.6349,0.0],[114.9917,73.6333,0.0],[115.0125,73.6333,0.0],[115.0125,73.6312,0.0],[115.0182,73.6307,0.0],[115.0214,73.6255,0.0],[115.0271,73.625,0.0],[115.0286,73.6234,0.0],[115.0167,73.6229,0.0],[115.0042,73.6271,0.0],[114.9938,73.6271,0.0],[114.9651,73.6182,0.0],[114.9667,73.6167,0.0],[114.9724,73.6162,0.0],[114.9724,73.613,0.0],[114.9667,73.6125,0.0],[114.9604,73.6146,0.0],[114.9505,73.612,0.0],[114.9516,73.6068,0.0],[114.9464,73.6057,0.0],[114.9453,73.6026,0.0],[114.9333,73.6021,0.0],[114.9292,73.6,0.0],[114.9187,73.6,0.0],[114.9146,73.5979,0.0],[114.8833,73.5979,7.0708],[114.8792,73.6,0.0],[114.875,73.6,0.0],[114.8708,73.5979,0.0],[114.8604,73.5979,8.435],[114.8458,73.6021,0.0],[114.8333,73.5979,6.9674],[114.7937,73.5979,0.0],[114.7896,73.5958,0.0],[114.7813,73.5958,0.0],[114.7688,73.5917,3.422],[114.7625,73.5938,0.0],[114.7438,73.5938,0.0],[114.7396,73.5917,0.0],[114.7083,73.5917,0.0],[114.7042,73.5896,1.8114],[114.6854,73.5896,0.0],[114.6813,73.5875,0.7243],[114.6583,73.5875,0.0],[114.6542,73.5854,0.8793],[114.6062,73.5854,0.0],[114.6021,73.5833,3.2261],[114.5854,73.5833,0.0],[114.5813,73.5813,0.967],[114.5479,73.5813,0.0],[114.5437,73.5792,0.8653],[114.5109,73.5797,0.4542],[114.5125,73.5813,0.7562],[114.5224,73.5818,1.2685],[114.5208,73.5833,0.0],[114.4958,73.5833,0.0],[114.4896,73.5813,0.6441],[114.4854,73.5833,0.0],[114.4521,73.5833,1.8194],[114.4479,73.5854,0.0],[114.4292,73.5854,0.8778],[114.425,73.5875,0.0],[114.4063,73.5875,1.0072],[114.4021,73.5896,0.0],[114.3917,73.5896,0.0],[114.3875,73.5917,0.0],[114.375,73.5917,5.823],[114.3625,73.5958,0.0],[114.3375,73.5979,33.3912],[114.3333,73.6,0.0],[114.3292,73.6,0.0],[114.325,73.5979,43.3249],[114.3146,73.6,0.0],[114.3104,73.5979,43.9007],[114.2625,73.5979,0.0],[114.2583,73.5958,40.3763],[114.2125,73.5958,0.0],[114.2083,73.5938,46.1614],[114.1917,73.5938,0.0],[114.1875,73.5917,50.4304],[114.1687,73.5917,0.0],[114.1646,73.5896,23.8674],[114.1563,73.5896,0.0],[114.1521,73.5875,30.6858],[114.1188,73.5875,0.0],[114.1146,73.5854,52.597],[114.1042,73.5854,52.5048],[114.0938,73.5813,49.5279],[114.0771,73.5813,0.0],[114.0729,73.5792,20.2528],[114.0625,73.5792,0.0],[114.0458,73.5729,11.2375],[114.0339,73.5703,0.0],[114.0349,73.5672,3.3698],[114.0333,73.5667,3.0899],[114.0146,73.5667,0.0],[114.0005,73.562,0.0],[113.9995,73.5589,16.3375],[113.9792,73.5521,0.0],[113.9688,73.5521,0.0],[113.9583,73.5479,33.7178],[113.9542,73.5479,0.0],[113.95,73.5458,32.8045],[113.9417,73.5458,9.5063],[113.9375,73.5437,34.6919],[113.9187,73.5437,0.0],[113.9146,73.5417,30.0431],[113.8917,73.5417,0.0],[113.8875,73.5396,8.1583],[113.8688,73.5396,0.0],[113.8646,73.5375,39.0873],[113.8479,73.5375,13.9774],[113.8438,73.5354,46.611],[113.8375,73.5375,3.5088],[113.8187,73.5375,0.0],[113.8146,73.5354,53.4498],[113.8042,73.5354,35.7984],[113.8,73.5375,0.0],[113.7958,73.5375,0.0],[113.7917,73.5354,38.6118],[113.775,73.5354,0.0],[113.7708,73.5333,44.5426],[113.7458,73.5333,0.0],[113.7417,73.5313,36.9112],[113.7042,73.5292,0.0],[113.6937,73.525,16.7713],[113.6833,73.525,0.0],[113.6729,73.5208,31.4429],[113.6625,73.5208,0.0],[113.6583,73.5188,10.2193],[113.6479,73.5188,0.0],[113.6438,73.5167,28.7563],[113.6271,73.5167,0.0],[113.6229,73.5146,10.0667],[113.6062,73.5146,0.0],[113.6021,73.5125,33.6425],[113.5771,73.5125,0.0],[113.5729,73.5104,2.5382],[113.5563,73.5104,0.0],[113.5521,73.5083,2.2801],[113.5208,73.5083,0.0],[113.513,73.5057,1.6644],[113.5146,73.5042,1.6437],[113.525,73.5042,1.0904],[113.5516,73.4974,1.5225],[113.5526,73.4922,0.0],[113.5547,73.4901,0.0],[113.562,73.4891,41.7278],[113.5604,73.4875,38.8221],[113.5547,73.487,0.0],[113.5557,73.4838,36.6561],[113.5505,73.4828,0.0],[113.5557,73.4807,58.5769],[113.5578,73.4776,71.6911],[113.5443,73.4745,0.0],[113.5474,73.4672,44.8281],[113.5401,73.4661,0.0],[113.5422,73.4589,0.0],[113.5458,73.4563,0.0],[113.5578,73.4557,25.7627],[113.5609,73.4484,0.0],[113.5766,73.4453,23.905],[113.5776,73.4422,0.0],[113.6016,73.437,6.7186],[113.6047,73.4276,0.0],[113.612,73.4266,0.0],[113.613,73.4234,0.0],[113.6271,73.4229,9.0122],[113.6312,73.4208,0.0],[113.65,73.4208,0.0],[113.6526,73.4172,0.0],[113.6682,73.4141,0.0],[113.6693,73.4109,0.0],[113.6766,73.4099,0.0],[113.6776,73.4068,0.0],[113.6849,73.4057,11.4561],[113.6797,73.4026,0.0],[113.687,73.4016,17.7002],[113.688,73.3984,0.0],[113.7229,73.3958,0.0],[113.7276,73.3922,0.0],[113.7412,73.3891,34.1684],[113.7359,73.3859,0.0],[113.7516,73.3849,32.4801],[113.7526,73.3797,0.0],[113.7542,73.3792,0.0],[113.7729,73.3792,21.5037],[113.7771,73.3771,0.0],[113.7875,73.3771,0.0],[113.7917,73.375,0.0],[113.8042,73.375,0.0],[113.8083,73.3729,0.0],[113.8125,73.3729,0.0],[113.8224,73.3682,1.3106],[113.8224,73.3651,17.9772],[113.8172,73.363,0.0],[113.8245,73.362,18.0399],[113.8255,73.3568,0.0],[113.8328,73.3557,0.0],[113.8359,73.3526,0.0],[113.8411,73.3516,0.0],[113.8458,73.3479,0.0],[113.8708,73.3458,0.0],[113.875,73.3438,0.0],[113.8875,73.3438,14.3858],[113.8917,73.3417,0.0],[113.9021,73.3417,0.0],[113.9063,73.3396,0.0],[113.9167,73.3396,0.0],[113.9193,73.3432,16.8666],[113.9333,73.3479,0.0],[113.9563,73.35,0.0],[113.9786,73.3568,0.0],[113.9776,73.362,5.0243],[113.9917,73.3667,17.3613],[114.0167,73.3667,6.1557],[114.0208,73.3646,0.0],[114.0479,73.3646,0.0],[114.0521,73.3625,0.0],[114.0625,73.3625,0.0],[114.0687,73.3646,1.3773],[114.0813,73.3604,0.0],[114.1083,73.3583,1.113],[114.1099,73.3568,0.9684],[114.1042,73.3562,0.0],[114.1026,73.3547,0.0],[114.1099,73.3536,0.0],[114.113,73.3505,0.6321],[114.1182,73.3495,1.333],[114.113,73.3474,0.0],[114.113,73.3443,0.0],[114.1563,73.3333,0.0],[114.1667,73.3333,0.0],[114.1854,73.3271,0.0],[114.2063,73.3229,0.6687],[114.2078,73.3224,0.6687],[114.2089,73.3172,0.0],[114.2104,73.3167,0.0],[114.2396,73.3104,0.0],[114.2438,73.3083,0.0],[114.2604,73.3083,1.4838],[114.2646,73.3063,0.0],[114.2688,73.3063,0.0],[114.2729,73.3083,1.2242],[114.2979,73.3083,0.0],[114.3021,73.3063,0.0],[114.3125,73.3063,1.407],[114.3307,73.3016,0.6953],[114.3318,73.2984,0.0],[114.3391,73.2974,1.0423],[114.3391,73.2943,1.8709],[114.3339,73.2922,0.7624],[114.3411,73.2911,2.2721],[114.3411,73.288,1.6648],[114.3359,73.287,1.7418],[114.3349,73.2818,2.1314],[114.3297,73.2807,0.0],[114.3318,73.2776,0.0],[114.337,73.2755,2.573],[114.3187,73.275,0.0],[114.3172,73.2745,0.0],[114.3182,73.2714,1.9734],[114.3047,73.2703,0.0],[114.3063,73.2688,0.0],[114.312,73.2682,2.1262],[114.3125,73.2667,2.0959],[114.312,73.263,0.0],[114.3068,73.2609,0.0],[114.3203,73.2599,2.6734],[114.3234,73.2547,0.0],[114.3307,73.2536,0.0],[114.3333,73.25,0.0],[114.3438,73.25,0.9507],[114.362,73.2453,2.4298],[114.3651,73.2401,0.0],[114.3786,73.2349,0.0],[114.3818,73.2297,0.0],[114.3891,73.2286,0.0],[114.3891,73.2234,0.6294],[114.3839,73.2224,0.0],[114.3849,73.2193,0.0],[114.3776,73.2182,0.0],[114.3792,73.2167,0.0],[114.3917,73.2167,0.7774],[114.3958,73.2125,0.0],[114.4063,73.2125,2.9341],[114.4187,73.2083,1.2728],[114.4292,73.2083,3.0846],[114.4333,73.2042,0.0],[114.4458,73.2042,2.8659],[114.45,73.2021,0.0],[114.4667,73.2021,2.1579],[114.4708,73.2,0.0],[114.4896,73.2,0.0],[114.5021,73.1958,0.0],[114.5188,73.1958,1.7596],[114.5234,73.1922,0.0],[114.537,73.1891,0.0],[114.5484,73.1818,0.0],[114.5604,73.1813,1.8859],[114.5729,73.1771,0.0],[114.6188,73.1771,0.0],[114.6229,73.1792,0.0],[114.6479,73.1792,0.0],[114.6521,73.1771,0.0],[114.6771,73.1771,3.018],[114.6813,73.175,0.0],[114.7286,73.1745,0.0],[114.7271,73.1729,2.3662],[114.7042,73.1708,0.0],[114.7,73.1687,3.1652],[114.6833,73.1687,2.2764],[114.6792,73.1708,0.0],[114.6667,73.1708,2.3158],[114.6625,73.1729,2.2447],[114.6375,73.175,2.9511],[114.6333,73.1771,0.0],[114.6271,73.175,2.7601],[114.6083,73.175,0.0],[114.6042,73.1729,1.9137],[114.5813,73.1729,3.3842],[114.5771,73.175,0.0],[114.5521,73.175,0.0],[114.5479,73.1771,0.0],[114.5354,73.1771,2.0071],[114.5328,73.1807,0.0],[114.5271,73.1813,0.0],[114.5167,73.1854,0.0],[114.5125,73.1854,0.0],[114.4917,73.1917,1.7173],[114.4812,73.1917,1.906],[114.4786,73.1953,1.6306],[114.4667,73.1958,0.0],[114.4625,73.1979,0.0],[114.4437,73.1979,1.9143],[114.4396,73.2,0.0],[114.4146,73.2,0.0],[114.4104,73.1958,0.0],[114.4,73.1958,1.5049],[114.3958,73.1979,0.0],[114.3854,73.1979,2.0018],[114.3828,73.2016,0.0],[114.3755,73.2026,1.779],[114.3724,73.2099,0.0],[114.3651,73.2109,2.199],[114.3651,73.2161,0.0],[114.3703,73.2182,0.0],[114.3568,73.2193,2.2669],[114.362,73.2214,0.0],[114.362,73.2245,0.0],[114.3599,73.2266,0.0],[114.3526,73.2276,1.848],[114.3516,73.2307,0.0],[114.338,73.2338,1.5428],[114.3266,73.2412,0.0],[114.3193,73.2422,0.0],[114.3182,73.2453,0.0],[114.3047,73.2464,0.0],[114.3016,73.2516,0.0],[114.2943,73.2526,8.4609],[114.2932,73.2578,0.0],[114.2859,73.2589,0.0],[114.2833,73.2625,0.0],[114.2693,73.2651,1.7427],[114.2693,73.2682,1.8365],[114.2745,73.2693,0.0],[114.2729,73.2708,0.0],[114.2672,73.2714,1.8467],[114.2724,73.2734,0.0],[114.2724,73.2786,0.0],[114.2703,73.2807,0.0],[114.2651,73.2818,0.0],[114.262,73.2849,0.0],[114.2568,73.2859,1.5636],[114.2536,73.2911,0.0],[114.2417,73.2917,1.9034],[114.237,73.2953,0.8766],[114.2307,73.2974,0.0],[114.2042,73.3042,0.0],[114.1937,73.3042,1.9024],[114.1896,73.3083,0.0],[114.1792,73.3083,0.0],[114.175,73.3063,0.0],[114.1708,73.3063,1.1815],[114.1521,73.3125,0.0],[114.1396,73.3125,1.8178],[114.0958,73.325,0.0],[114.0792,73.325,0.0],[114.075,73.3229,1.7367],[114.0646,73.3229,0.9654],[114.0609,73.3255,0.9927],[114.0599,73.3287,0.0],[114.0479,73.3292,1.708],[114.0437,73.3313,0.0],[114.0104,73.3313,1.2931],[114.0026,73.3287,1.1935],[114.0036,73.3255,0.0],[114.0021,73.325,0.0],[113.9771,73.325,0.0],[113.9693,73.3224,0.0],[113.9667,73.3187,1.0276],[113.9583,73.3187,0.0],[113.9458,73.3146,0.0],[113.9375,73.3146,0.0],[113.9333,73.3125,1.4273],[113.9229,73.3125,1.1243],[113.9187,73.3146,0.0],[113.8792,73.3146,0.0],[113.875,73.3167,0.0],[113.8562,73.3167,1.608],[113.8464,73.3193,1.4949],[113.8453,73.3224,0.0],[113.8187,73.3292,0.0],[113.7937,73.3292,0.0],[113.7771,73.3229,1.452],[113.7667,73.3229,0.0],[113.7589,73.3203,0.0],[113.7599,73.313,1.3136],[113.7484,73.3099,0.0],[113.7474,73.3068,0.0],[113.7422,73.3057,0.0],[113.7432,73.3005,1.2181],[113.738,73.2995,0.0],[113.737,73.2943,0.733],[113.7318,73.2932,0.0],[113.7328,73.2901,0.0],[113.7255,73.2891,0.0],[113.7266,73.2859,0.0],[113.7214,73.2849,0.0],[113.7203,73.2818,0.0],[113.7151,73.2807,0.0],[113.7141,73.2755,0.0],[113.7089,73.2745,0.0],[113.7099,73.2693,1.0322],[113.7047,73.2682,0.0],[113.7037,73.2651,1.1642],[113.6984,73.2641,0.0],[113.6974,73.2609,1.272],[113.6708,73.2521,0.0],[113.6604,73.2521,0.0],[113.6375,73.2438,0.9078],[113.6208,73.2438,0.0],[113.6167,73.2396,0.0],[113.6083,73.2396,0.0],[113.5979,73.2354,1.5977],[113.5875,73.2354,0.0],[113.5797,73.2328,0.0],[113.5787,73.2297,0.0],[113.5734,73.2286,0.0],[113.5755,73.2255,0.0],[113.5807,73.2245,2.2391],[113.5755,73.2214,0.0],[113.5828,73.2203,0.0],[113.5859,73.2151,0.0],[113.5932,73.2141,0.0],[113.5943,73.2089,0.0],[113.6016,73.2078,6.568],[113.5964,73.2057,0.0],[113.5964,73.2026,0.0],[113.6036,73.2016,7.6292],[113.6068,73.1964,0.0],[113.6141,73.1953,10.1057],[113.6151,73.1901,0.0],[113.6224,73.1891,9.0394],[113.6172,73.1859,0.0],[113.6328,73.1828,12.3385],[113.6339,73.1797,0.0],[113.6412,73.1787,0.0],[113.6443,73.1734,0.0],[113.6495,73.1724,5.69],[113.6526,73.1672,0.0],[113.6599,73.1661,0.0],[113.6609,73.163,0.0],[113.6667,73.1625,0.0],[113.6682,73.1609,0.0],[113.6542,73.1563,0.0],[113.6438,73.1563,0.0],[113.6375,73.1542,0.0],[113.625,73.1583,0.0],[113.6062,73.1583,1.7993],[113.6036,73.162,0.0],[113.5938,73.1646,0.0],[113.5833,73.1646,0.0],[113.5755,73.1609,0.0],[113.5828,73.1599,1.1214],[113.5859,73.1526,0.0],[113.6229,73.1438,2.8363],[113.6255,73.1401,2.698],[113.6328,73.1391,2.7815],[113.6276,73.1359,0.0],[113.6412,73.1349,2.3468],[113.6359,73.1318,0.0],[113.6495,73.1307,2.3833],[113.6443,73.1276,0.0],[113.6599,73.1266,2.4534],[113.6547,73.1234,0.0],[113.6599,73.1214,0.0],[113.6547,73.1193,0.0],[113.6568,73.1151,0.0],[113.6625,73.1146,0.0],[113.6641,73.113,0.0],[113.6563,73.1104,0.0],[113.6312,73.1125,1.6859],[113.6286,73.1088,1.4909],[113.6172,73.1057,0.0],[113.6203,73.0922,0.0],[113.6151,73.0911,0.0],[113.6141,73.088,0.0],[113.6088,73.087,0.0],[113.6099,73.0818,3.4226],[113.6047,73.0807,0.0],[113.6057,73.0755,3.0229],[113.6005,73.0745,0.0],[113.6057,73.0714,3.0461],[113.5943,73.0682,0.0],[113.5953,73.063,0.0],[113.5901,73.062,0.0],[113.5917,73.0604,0.0],[113.5974,73.0599,3.0575],[113.5922,73.0578,0.0],[113.5917,73.0542,0.0],[113.5932,73.0505,0.0],[113.588,73.0495,0.0],[113.5932,73.0463,0.0],[113.588,73.0443,0.0],[113.5938,73.0437,0.0],[113.5953,73.0422,3.2472],[113.5839,73.0391,0.0],[113.5911,73.0359,3.4383],[113.5797,73.0328,0.0],[113.5849,73.0297,3.5954],[113.5734,73.0266,0.0],[113.5745,73.0214,3.8565],[113.5693,73.0203,0.0],[113.5687,73.0188,0.0],[113.5703,73.0151,3.1823],[113.5604,73.0125,0.0],[113.5542,73.0146,0.0],[113.5359,73.0141,0.0],[113.5359,73.0109,0.0],[113.5516,73.0078,0.5506],[113.5516,73.0026,-0.014],[113.5463,73.0005,0.0],[113.5537,72.9995,1.1893],[113.5547,72.9964,2.0884],[113.575,72.9979,1.2994],[113.5911,72.9932,2.9241],[113.5813,72.9896,2.7312],[113.5771,72.9917,0.0959],[113.5667,72.9917,3.682],[113.5625,72.9938,-0.0032],[113.5505,72.9932,0.0],[113.5505,72.9901,0.0],[113.5578,72.9891,3.9775],[113.5583,72.9875,1.8793],[113.5578,72.9859,-0.1514],[113.5526,72.9838,0.0],[113.5599,72.9828,2.1053],[113.5547,72.9797,0.0],[113.562,72.9786,3.1554],[113.5568,72.9755,0.0],[113.562,72.9734,2.3021],[113.5505,72.9703,0.0],[113.5599,72.9453,-0.3399],[113.5547,72.9432,0.0],[113.5542,72.9396,2.1525],[113.5557,72.9359,4.6257],[113.5505,72.9349,0.9183],[113.55,72.9313,4.5912],[113.5516,72.9276,4.9957],[113.5401,72.9245,0.0],[113.5391,72.9193,4.0427],[113.5375,72.9187,3.7672],[113.5146,72.9167,0.3354],[113.5104,72.9187,0.9352],[113.4938,72.9187,0.3327],[113.4912,72.9151,0.7895],[113.4797,72.9141,-0.6589],[113.4734,72.912,-0.6803],[113.4724,72.9089,0.7474],[113.4646,72.9063,3.7177],[113.4563,72.9063,-1.7885],[113.4396,72.9,-2.0662],[113.4339,72.8995,-1.8375],[113.4349,72.8943,5.0233],[113.4234,72.8912,-2.0982],[113.4245,72.888,1.4528],[113.4109,72.8849,-2.1353],[113.412,72.8818,2.5051],[113.4104,72.8812,3.4051],[113.4,72.8812,-2.1164],[113.3922,72.8786,-2.1633],[113.3932,72.8734,5.4489],[113.3667,72.8646,6.0408],[113.3438,72.8625,-1.3794],[113.3396,72.8604,9.3584],[113.3313,72.8604,1.012],[113.3271,72.8583,1.7721],[113.3167,72.8583,1.4334],[113.3104,72.8604,-1.1903],[113.3063,72.8583,1.6077],[113.2734,72.8578,-1.4868],[113.2724,72.8547,0.4299],[113.2672,72.8536,-1.3441],[113.2682,72.8484,-0.9819],[113.263,72.8474,-0.9635],[113.262,72.8443,1.0635],[113.2568,72.8432,-0.9943],[113.2578,72.8401,3.9084],[113.2464,72.837,-1.0293],[113.2474,72.8318,2.1891],[113.2396,72.8292,-1.516],[113.2292,72.8292,-1.2364],[113.225,72.8271,-0.8654],[113.2208,72.8271,-1.5619],[113.2208,72.825,0.6353],[113.2151,72.8245,-0.7993],[113.2172,72.8214,0.3729],[113.2224,72.8203,1.4513],[113.2172,72.8172,-1.2367],[113.2245,72.8161,6.2826],[113.2255,72.813,1.1037],[113.2328,72.812,18.6918],[113.2276,72.8099,1.2245],[113.2297,72.8068,-2.0081],[113.2417,72.8063,17.2344],[113.2578,72.8005,14.6122],[113.25,72.7979,-1.5776],[113.2396,72.7979,5.5442],[113.2292,72.8021,-1.9098],[113.2234,72.8016,-1.5942],[113.2245,72.7963,2.151],[113.2193,72.7943,0.3931],[113.225,72.7937,2.3471],[113.2266,72.7922,4.7516],[113.2214,72.7911,0.3799],[113.2214,72.788,-1.3872],[113.2286,72.787,6.0391],[113.2234,72.7839,-1.4683],[113.2307,72.7828,5.8255],[113.2307,72.7797,-1.2791],[113.2188,72.7792,0.2852],[113.2125,72.7813,0.3594],[113.2104,72.7792,1.0879],[113.2125,72.7771,0.2009],[113.2312,72.7771,-1.7025],[113.2354,72.775,-1.9046],[113.2396,72.775,-1.7251],[113.2438,72.7708,-1.8114],[113.2542,72.7708,4.7182],[113.2557,72.7693,2.354],[113.2505,72.7672,-1.6405],[113.2688,72.7625,1.7991],[113.2771,72.7625,-1.6041],[113.2849,72.7651,-1.4126],[113.3037,72.7714,-2.3516],[113.3047,72.7745,-0.901],[113.3125,72.7771,-2.2441],[113.3245,72.7766,14.4913],[113.3266,72.7714,-1.5304],[113.3214,72.7703,-1.3164],[113.3203,72.7672,3.7423],[113.3104,72.7667,-0.6507],[113.3063,72.7646,-0.5511],[113.2958,72.7646,-1.9794],[113.2755,72.7578,-2.0838],[113.2786,72.7484,2.2723],[113.2734,72.7474,-0.0465],[113.2724,72.7443,0.7345],[113.2672,72.7432,-1.9069],[113.2667,72.7417,-1.2753],[113.2693,72.738,-0.1337],[113.2766,72.737,7.9635],[113.2766,72.7338,8.1838],[113.2714,72.7318,-1.6616],[113.2786,72.7307,7.3892],[113.2797,72.7255,3.3656],[113.2818,72.7234,-1.3805],[113.2891,72.7224,9.5359],[113.2839,72.7193,-1.3253],[113.2974,72.7161,-1.343],[113.2984,72.713,-1.537],[113.3125,72.7125,13.409],[113.3167,72.7083,-1.933],[113.3287,72.7078,-1.7083],[113.3287,72.7047,-1.1946],[113.3208,72.7021,3.3498],[113.3109,72.7016,1.2441],[113.3109,72.6984,-1.152],[113.313,72.6964,-1.9181],[113.3313,72.6958,-1.7805],[113.3354,72.6937,-1.4017],[113.3396,72.6937,1.2201],[113.3443,72.688,-1.7057],[113.3578,72.687,5.3529],[113.3526,72.6849,-2.0082],[113.3542,72.6833,-2.0036],[113.3646,72.6833,5.5103],[113.3672,72.6797,-2.0233],[113.3896,72.675,6.4603],[113.4083,72.6687,-1.6736],[113.4187,72.6708,-0.7288],[113.4213,72.6672,-1.4634],[113.4287,72.6661,2.4891],[113.4297,72.663,-1.9149],[113.4417,72.6625,1.9509],[113.4479,72.6583,-0.9468],[113.4646,72.6583,1.2241],[113.4688,72.6563,-1.6838],[113.5,72.6563,9.734],[113.5042,72.6542,-2.0193],[113.5437,72.6542,6.9303],[113.5479,72.6521,-1.6241],[113.5583,72.6521,6.5221],[113.5771,72.6458,-1.917],[113.5875,72.6458,2.7735],[113.5922,72.6422,4.2644],[113.6,72.6396,-1.5876999999999999],[113.612,72.6391,8.4719],[113.6104,72.6375,-1.744],[113.5943,72.637,-1.3329],[113.5943,72.6318,-1.3941],[113.6042,72.6292,0.2073],[113.6229,72.6292,1.027],[113.6292,72.6271,1.0286],[113.6417,72.6312,0.7668],[113.6458,72.6292,-0.7398],[113.6661,72.6286,-0.9254],[113.6646,72.6271,-0.2519],[113.6464,72.6266,1.0627],[113.6464,72.6234,0.5379],[113.6563,72.6208,-1.6612],[113.6729,72.6208,7.3774],[113.6771,72.6188,-0.5165],[113.7521,72.6188,4.4495],[113.7562,72.6167,-1.0438],[113.7875,72.6167,6.9492],[113.7917,72.6146,-1.071],[113.8021,72.6146,1.6058],[113.8063,72.6125,-1.2028],[113.8229,72.6125,1.5855],[113.8255,72.6088,1.9356],[113.8354,72.6062,-1.5603],[113.8396,72.6062,-1.645],[113.8438,72.6083,1.251],[113.8583,72.6083,-1.0963],[113.8609,72.612,-0.0544],[113.8646,72.6125,40.0238],[113.8688,72.6104,-0.9286],[113.8792,72.6104,10.1971],[113.8833,72.6083,-1.5631],[113.8938,72.6083,0.5311],[113.8979,72.6062,-1.4497],[113.9229,72.6062,-0.414],[113.9271,72.6042,-1.3754],[113.9375,72.6042,-0.8212],[113.9391,72.6026,-1.5775],[113.9208,72.6021,-0.4973],[113.9146,72.6042,-1.2535],[113.9104,72.6021,1.9189],[113.9,72.6021,2.8544],[113.8938,72.6042,-1.5239],[113.8896,72.6021,3.7439],[113.8792,72.6021,4.5928],[113.8729,72.6042,-1.568],[113.8688,72.6021,6.5465],[113.8646,72.6021,6.8667],[113.8583,72.6042,-1.3884],[113.8521,72.6021,6.8244],[113.8479,72.6042,-1.5299],[113.8438,72.6042,-1.3067],[113.8375,72.6021,6.9657],[113.8333,72.6042,-1.4615],[113.8083,72.6042,4.7581],[113.8042,72.6062,-1.6052],[113.7667,72.6062,8.8253],[113.7651,72.6078,0.0243],[113.7703,72.6099,-0.6247],[113.7604,72.6125,-0.6136],[113.7438,72.6125,1.7405],[113.7396,72.6146,-1.6649],[113.7354,72.6146,-1.7455],[113.7312,72.6125,2.499],[113.7021,72.6125,1.0659],[113.6979,72.6104,6.5778],[113.6875,72.6104,8.0385],[113.6833,72.6125,-0.176],[113.6667,72.6125,2.0075],[113.6625,72.6146,-1.8646],[113.6375,72.6146,5.4102],[113.625,72.6188,-0.5278],[113.6146,72.6188,5.0552],[113.6104,72.6229,-0.4063],[113.6,72.6229,2.1326],[113.5792,72.6292,-1.4977],[113.5687,72.6292,6.3399],[113.5646,72.6312,1.3575],[113.5526,72.6318,5.8441],[113.5578,72.6339,0.304],[113.5589,72.637,1.2095],[113.5641,72.6391,-1.9263],[113.5568,72.6401,1.1014],[113.5557,72.6432,-1.9002],[113.5521,72.6458,-1.2396],[113.5401,72.6464,1.3044],[113.5375,72.65,-1.527],[113.5276,72.6474,0.3218],[113.5266,72.6422,-0.0578],[113.5229,72.6417,2.56],[113.5188,72.6458,0.4462],[113.5146,72.6458,0.8656],[113.5104,72.6479,0.4757],[113.5,72.6479,5.6696],[113.4958,72.65,0.6896],[113.45,72.65,7.5633],[113.4313,72.6563,-1.6936],[113.4187,72.6583,24.2799],[113.4,72.6646,-1.4468],[113.3729,72.6708,8.3962],[113.3667,72.675,-1.4672],[113.3562,72.675,8.4049],[113.3521,72.6792,-1.486],[113.3417,72.6792,8.7914],[113.3391,72.6828,0.5162],[113.3333,72.6833,0.3518],[113.3287,72.687,-1.3124],[113.3151,72.6901,7.7858],[113.3141,72.6932,-1.7038],[113.3068,72.6943,2.6106],[113.3037,72.6974,-1.6516],[113.2818,72.7026,7.2155],[113.2818,72.7057,0.8188],[113.287,72.7078,-1.5558],[113.2849,72.712,-1.0162],[113.2776,72.713,0.9356],[113.2766,72.7182,-1.3289],[113.2745,72.7203,-1.6176],[113.2526,72.7255,1.3734],[113.2516,72.7286,-2.0214],[113.2443,72.7297,-1.4095],[113.2422,72.7318,-1.688],[113.2422,72.7349,-0.8247],[113.2474,72.7359,-1.9404],[113.2484,72.7391,0.9161],[113.2599,72.7422,-1.8052],[113.2583,72.7458,-0.6894],[113.2589,72.7495,3.0104],[113.2641,72.7516,-1.771],[113.2568,72.7526,3.1613],[113.2536,72.7557,-1.6887],[113.2484,72.7568,7.5938],[113.2438,72.7604,-1.2237],[113.2318,72.7609,26.1764],[113.2432,72.7651,-0.8785],[113.2432,72.7682,-1.3164],[113.2333,72.7708,0.085],[113.2167,72.7708,-1.083],[113.2068,72.7734,0.8264],[113.2037,72.7766,-1.1267],[113.1984,72.7776,2.4304],[113.1964,72.7797,-1.4022],[113.1943,72.7849,6.7064],[113.1995,72.7859,3.6935],[113.2,72.7896,-0.7297],[113.1984,72.7932,7.1488],[113.2099,72.7963,-1.1336],[113.2047,72.7995,6.5395],[113.2099,72.8005,0.7304],[113.2089,72.8037,2.5756],[113.2141,72.8057,-0.9903],[113.2068,72.8068,3.8702],[113.2057,72.812,-1.3332],[113.1984,72.813,6.1755],[113.1932,72.8245,-1.3631],[113.175,72.8292,1.276],[113.1568,72.8297,-1.372],[113.1583,72.8313,4.4369],[113.1667,72.8313,1.1418],[113.1745,72.8339,0.299],[113.1755,72.8391,-0.012],[113.1833,72.8417,-0.6664],[113.1917,72.8417,-1.4841],[113.2021,72.8458,7.8565],[113.212,72.8464,-1.3394],[113.213,72.8495,22.3575],[113.2182,72.8505,-0.7214],[113.2193,72.8536,14.9717],[113.2245,72.8547,-0.2906],[113.2234,72.8578,34.1822],[113.2312,72.8604,-0.9308],[113.2354,72.8604,-0.9443],[113.2396,72.8583,0.2621],[113.2562,72.8583,-1.4833],[113.2667,72.8625,2.8196],[113.3021,72.8667,-1.7275],[113.3125,72.8708,5.5024],[113.3229,72.8708,0.9971],[113.3271,72.8729,3.5514],[113.3417,72.8729,-1.5572],[113.3521,72.8771,5.4757],[113.3625,72.8771,-1.3818],[113.3729,72.8812,0.566],[113.3812,72.8812,-1.8804],[113.3891,72.8839,0.6759],[113.3901,72.8891,4.5767],[113.4,72.8896,-1.1219],[113.4141,72.8943,-1.5694],[113.4151,72.8974,0.3491],[113.4203,72.8984,-1.5004],[113.4167,72.9021,0.2114],[113.3854,72.9021,-1.4289],[113.3839,72.9036,7.5527],[113.4167,72.9042,-1.6799],[113.4208,72.9063,13.9025],[113.4354,72.9063,-1.5357],[113.4432,72.9089,-1.4458],[113.4443,72.912,1.2063],[113.462,72.9172,0.2101],[113.463,72.9203,4.8138],[113.4729,72.9208,-1.5356],[113.4807,72.9234,-1.7182],[113.4818,72.9266,0.0],[113.487,72.9276,0.0],[113.488,72.9307,0.0],[113.4979,72.9313,-0.2483],[113.5057,72.9339,0.0],[113.5047,72.9391,1.3695],[113.5182,72.9422,0.0],[113.5172,72.9453,-0.1426],[113.5224,72.9464,-0.1585],[113.5234,72.9495,1.0868],[113.5286,72.9505,0.0266],[113.5286,72.9537,0.2902],[113.5266,72.9578,0.0854],[113.5193,72.9589,0.3865],[113.5182,72.962,-0.126],[113.5109,72.963,1.973],[113.5099,72.9661,0.0],[113.488,72.9672,3.9883],[113.4932,72.9703,0.0],[113.4859,72.9714,0.6097],[113.4912,72.9745,0.0],[113.4859,72.9755,0.0],[113.4838,72.9786,0.0],[113.4896,72.9792,0.0],[113.4974,72.9766,3.3865],[113.5021,72.9708,0.0],[113.5271,72.9688,0.0337],[113.5297,72.9724,0.0],[113.5349,72.9734,0.0],[113.5333,72.9771,0.0],[113.5339,72.9807,0.0],[113.5391,72.9828,0.0],[113.537,72.9891,0.0],[113.5333,72.9917,0.0],[113.5229,72.9917,0.0],[113.5188,72.9896,0.0],[113.5125,72.9917,0.0],[113.5062,72.9896,0.9002],[113.4943,72.9901,0.0],[113.5182,72.9984,0.0],[113.5182,73.0016,1.784],[113.5162,73.0057,0.0],[113.5089,73.0068,0.0],[113.5078,73.0099,0.1617],[113.4958,73.0104,4.0062],[113.4912,73.0141,0.0],[113.4838,73.0151,2.5499],[113.4818,73.0224,0.0],[113.4875,73.0229,0.0],[113.4917,73.0188,0.0],[113.5042,73.0167,3.457],[113.5083,73.0146,0.0],[113.512,73.0151,0.0],[113.5109,73.0203,2.8868],[113.5162,73.0214,0.0],[113.5172,73.0245,2.9419],[113.5224,73.0255,0.0],[113.5234,73.0286,2.0104],[113.5349,73.0328,0.0],[113.5167,73.0333,0.0],[113.5062,73.0292,0.8767],[113.5021,73.0292,0.0],[113.5005,73.0307,3.1411],[113.5271,73.0396,3.8852],[113.5391,73.0401,0.0],[113.5401,73.0432,0.0],[113.5578,73.0484,0.0],[113.5568,73.0516,1.8822],[113.5641,73.0526,0.0],[113.563,73.0557,0.8026],[113.5682,73.0578,0.0],[113.5609,73.0589,2.6909],[113.5578,73.0682,0.0],[113.5505,73.0693,1.6899],[113.5495,73.0745,0.0],[113.5396,73.0771,0.0],[113.5292,73.0771,0.0],[113.5276,73.0787,2.6293],[113.5453,73.0839,0.0],[113.538,73.087,2.5013],[113.5495,73.0901,0.0],[113.5505,73.0932,2.6907],[113.5604,73.0938,0.0],[113.5745,73.0984,0.0],[113.5693,73.1016,2.6371],[113.587,73.1068,0.0],[113.588,73.1099,0.0],[113.5995,73.113,0.0],[113.5984,73.1162,0.0],[113.6036,73.1172,0.0],[113.6042,73.1188,0.0],[113.6026,73.1245,3.4813],[113.6078,73.1255,0.0],[113.6088,73.1307,1.3875],[113.6141,73.1318,0.0],[113.6125,73.1333,0.0],[113.6068,73.1339,2.0491],[113.612,73.1359,0.0],[113.6104,73.1375,0.0],[113.5938,73.1375,0.0],[113.5833,73.1333,1.488],[113.5792,73.1333,1.7602],[113.5604,73.1396,0.0],[113.5479,73.1396,1.1056],[113.5453,73.1432,0.0],[113.5297,73.1464,2.2041],[113.537,73.1495,0.0],[113.5214,73.1526,1.285],[113.5266,73.1557,0.0],[113.5109,73.1589,1.899],[113.5089,73.1661,0.0],[113.5141,73.1682,0.0],[113.5089,73.1703,0.0],[113.5141,73.1713,0.0],[113.513,73.1745,2.1733],[113.5182,73.1755,0.0],[113.5193,73.1787,1.8957],[113.5307,73.1818,0.0],[113.5318,73.187,0.0],[113.537,73.188,0.0],[113.5359,73.1932,1.7617],[113.5411,73.1943,0.0],[113.5396,73.1958,0.0],[113.5339,73.1964,0.0],[113.5328,73.1995,0.4077],[113.5255,73.2005,1.3552],[113.5224,73.2057,0.0],[113.5172,73.2068,1.1185],[113.5125,73.2104,0.0],[113.5021,73.2104,1.8573],[113.4979,73.2125,0.0],[113.4729,73.2125,0.0],[113.4688,73.2104,1.357],[113.4604,73.2104,0.0],[113.4563,73.2083,0.0],[113.4521,73.2083,0.7153],[113.4479,73.2125,0.9969],[113.4146,73.2125,0.0],[113.4104,73.2146,0.0],[113.4,73.2146,0.0],[113.3953,73.2182,0.0],[113.3875,73.2208,0.0],[113.3651,73.2255,0.0],[113.3703,73.2276,0.0],[113.3703,73.2307,0.0],[113.3562,73.2333,1.2189],[113.3536,73.237,1.0791],[113.3464,73.238,1.2588],[113.3464,73.2412,0.0],[113.3516,73.2432,0.0],[113.3417,73.2458,0.0],[113.3375,73.2458,1.6862],[113.3333,73.2438,1.5039],[113.3151,73.2443,1.6383],[113.3203,73.2464,1.6687],[113.3187,73.2479,1.5827],[113.3068,73.2474,0.0],[113.3057,73.2443,1.4676],[113.3005,73.2432,0.0],[113.3016,73.2401,1.8115],[113.2901,73.237,0.0],[113.2953,73.2338,0.0],[113.2875,73.2312,0.0],[113.2771,73.2312,1.1531],[113.2729,73.2333,0.0],[113.2354,73.2333,0.0],[113.2312,73.2312,1.6872],[113.2146,73.2312,0.0],[113.2104,73.2292,1.1574],[113.2063,73.2292,1.3026],[113.2021,73.2312,0.4466],[113.1917,73.2312,1.5699],[113.187,73.2349,0.0],[113.1792,73.2375,0.0],[113.1667,73.2375,22.4522],[113.1505,73.2422,13.5572],[113.1484,73.2443,1.1742],[113.1484,73.2474,1.7383],[113.1536,73.2484,0.957],[113.1526,73.2516,1.5117],[113.1583,73.2521,0.6059],[113.1599,73.2536,0.0],[113.1458,73.2562,1.8188],[113.1432,73.2599,0.0],[113.1359,73.2609,0.0],[113.1375,73.2625,0.0],[113.1479,73.2625,1.22],[113.1521,73.2583,0.0],[113.1625,73.2583,0.0],[113.1724,73.2557,0.0],[113.1672,73.2536,0.0],[113.1667,73.2521,0.0],[113.1713,73.2422,0.0],[113.1854,73.2396,1.744],[113.2042,73.2333,0.0],[113.2229,73.2333,0.0],[113.2333,73.2375,0.7938],[113.2417,73.2375,0.0],[113.2458,73.2396,1.1062],[113.2708,73.2396,0.0],[113.2724,73.2401,0.0],[113.2714,73.2453,0.8781],[113.2891,73.2505,0.0],[113.2839,73.2526,0.9521],[113.2854,73.2542,0.0],[113.3521,73.2542,0.0],[113.362,73.2516,0.0],[113.3651,73.2464,0.0],[113.3724,73.2453,8.0581],[113.3734,73.2422,0.0],[113.3854,73.2417,1.329],[113.4063,73.2354,0.0],[113.425,73.2354,0.0],[113.4375,73.2312,0.0],[113.4479,73.2312,0.0],[113.4521,73.2333,0.0],[113.4688,73.2333,0.0],[113.4729,73.2292,0.0],[113.4833,73.2292,8.3113],[113.4859,73.2328,6.7462],[113.5042,73.2354,0.0],[113.537,73.2464,0.0],[113.538,73.2495,0.0],[113.5557,73.2547,0.0],[113.5542,73.2625,0.0],[113.5547,73.2641,0.0],[113.5599,73.2651,0.0],[113.5589,73.2703,7.0702],[113.5703,73.2734,0.0],[113.563,73.2776,0.0],[113.5604,73.2833,0.0],[113.5609,73.287,0.0],[113.5661,73.288,0.0],[113.5672,73.2911,0.0],[113.5724,73.2922,0.0],[113.5651,73.2953,0.0],[113.5703,73.2963,0.0],[113.5714,73.2995,6.6378],[113.5766,73.3005,0.0],[113.5755,73.3057,0.0],[113.5807,73.3068,0.0],[113.5813,73.3083,0.0],[113.5797,73.3141,0.0],[113.5849,73.3151,0.0],[113.5854,73.3167,0.0],[113.5849,73.3182,0.0],[113.5776,73.3193,0.0],[113.5828,73.3224,0.0],[113.5755,73.3234,0.0],[113.5745,73.3266,0.0],[113.5672,73.3276,0.0],[113.5641,73.3349,0.0],[113.5568,73.3359,0.0],[113.5557,73.3411,0.0],[113.5401,73.3443,3.0566],[113.5354,73.3479,8.6221],[113.5188,73.3479,6.8705],[113.5146,73.35,0.0],[113.4521,73.35,1.7778],[113.4479,73.3521,0.0],[113.4375,73.3521,0.0],[113.4276,73.3547,0.0],[113.4229,73.3583,0.0],[113.4125,73.3583,0.0],[113.4083,73.3604,0.0],[113.3875,73.3646,0.0],[113.3771,73.3688,0.0],[113.3646,73.3708,0.0],[113.3609,73.3734,0.0],[113.3599,73.3766,0.0],[113.3464,73.3776,0.0],[113.3432,73.3828,0.0],[113.3297,73.3839,0.0],[113.3266,73.3891,0.0],[113.3193,73.3901,0.0],[113.3182,73.3932,0.0],[113.3109,73.3943,0.0],[113.3161,73.3974,0.0],[113.3089,73.3984,0.0],[113.3141,73.4016,0.0],[113.3068,73.4026,0.0],[113.3063,73.4042,0.0],[113.3068,73.4057,0.0],[113.312,73.4068,0.0],[113.312,73.4099,0.0],[113.3047,73.4109,18.2268],[113.3016,73.4161,0.0],[113.2896,73.4167,0.0],[113.2849,73.4203,0.0],[113.2771,73.4229,0.0],[113.2646,73.4229,0.0],[113.2521,73.4271,0.0],[113.2479,73.4271,0.0],[113.2401,73.4297,0.0],[113.237,73.4328,0.0],[113.2214,73.4359,1.0925],[113.2188,73.4396,0.0],[113.1901,73.4422,0.8059],[113.1953,73.4443,0.0],[113.1943,73.4537,0.0],[113.2063,73.4542,0.0],[113.2141,73.4568,0.0],[113.213,73.462,1.6183],[113.225,73.4625,0.0],[113.2391,73.4672,0.0],[113.238,73.4724,5.1787],[113.2396,73.4729,3.5984],[113.2578,73.4734,0.0],[113.2589,73.4786,17.8267],[113.2703,73.4818,0.0],[113.2688,73.4833,0.0],[113.263,73.4838,24.8813],[113.2682,73.487,0.0],[113.2625,73.4875,24.319],[113.2609,73.4891,16.9855],[113.2662,73.4901,0.0],[113.2667,73.4938,0.0],[113.2651,73.4974,0.0],[113.2703,73.4995,0.0],[113.2651,73.5016,0.0],[113.2703,73.5036,0.0],[113.263,73.5047,5.5588],[113.2682,73.5078,0.0],[113.2625,73.5083,7.7034],[113.2609,73.5099,6.9327],[113.2662,73.5109,0.0],[113.2672,73.5141,0.0],[113.2724,73.5151,0.0],[113.2714,73.5203,29.08],[113.2766,73.5214,0.0],[113.2776,73.5266,0.0],[113.2828,73.5276,0.0],[113.2839,73.5307,18.2684],[113.2953,73.5339,0.0],[113.2943,73.5391,22.7026],[113.3141,73.5443,0.0],[113.313,73.5495,5.958],[113.3333,73.5563,0.0],[113.3391,73.5568,0.0],[113.338,73.5599,0.0],[113.3432,73.5609,0.0],[113.3359,73.5641,5.373],[113.3557,73.5693,0.0],[113.3583,73.5729,0.0],[113.3688,73.5729,0.0],[113.3729,73.5708,0.0],[113.3896,73.5708,0.0],[113.3938,73.575,0.0],[113.4187,73.575,0.0],[113.4229,73.5729,0.0],[113.4271,73.5729,0.0],[113.4287,73.5734,0.0],[113.4276,73.5787,0.0],[113.4328,73.5797,0.0],[113.4339,73.5828,0.0],[113.4453,73.5859,0.0],[113.4464,73.5891,0.0],[113.4516,73.5901,0.0],[113.4505,73.5953,0.0],[113.4625,73.5979,0.0],[113.4703,73.6016,0.0],[113.4641,73.6203,0.0],[113.462,73.6224,0.0],[113.4547,73.6234,13.0695],[113.4563,73.625,9.816],[113.462,73.6255,0.0],[113.4578,73.637,0.0],[113.4505,73.638,14.1486],[113.4484,73.6401,9.1776],[113.4453,73.6495,0.0],[113.438,73.6505,14.1455],[113.4432,73.6526,0.0],[113.4432,73.6578,0.0],[113.4359,73.6589,3.4948],[113.4328,73.6641,0.0],[113.4255,73.6651,10.7567],[113.4224,73.6703,0.0],[113.4089,73.6734,29.0573],[113.4141,73.6766,0.0],[113.4068,73.6776,0.0],[113.4036,73.6828,0.0],[113.3964,73.6839,6.1511],[113.4016,73.687,0.0],[113.3964,73.688,0.0],[113.3922,73.6953,0.0],[113.3979,73.6958,0.0],[113.3995,73.6974,0.0],[113.3839,73.7005,7.4197],[113.3807,73.7037,0.0],[113.3755,73.7047,1.1072],[113.3724,73.7099,0.0],[113.3484,73.7151,18.897],[113.3536,73.7182,0.0],[113.3396,73.7208,24.6968],[113.337,73.7245,0.0],[113.3297,73.7255,10.3908],[113.3266,73.7328,0.0],[113.3193,73.7338,1.2911],[113.3161,73.7412,0.0],[113.3089,73.7422,1.3658],[113.3068,73.7474,1.3651],[113.3125,73.7479,0.0],[113.3141,73.7495,0.0],[113.2984,73.7526,1.525],[113.2953,73.7557,1.3293],[113.288,73.7568,15.7834],[113.287,73.7599,0.0],[113.2797,73.7609,0.8471],[113.2766,73.7662,1.4316],[113.2693,73.7672,8.0799],[113.2682,73.7724,3.0087],[113.2609,73.7734,16.1461],[113.2589,73.7755,15.5373],[113.2589,73.7786,16.3874],[113.2641,73.7807,0.0],[113.2484,73.7839,6.1989],[113.2453,73.7932,1.3921],[113.238,73.7943,20.9743],[113.2432,73.7963,0.0],[113.2432,73.7995,0.0],[113.2412,73.8016,0.0],[113.2338,73.8026,20.3853],[113.2333,73.8063,27.7805],[113.2338,73.8078,24.8221],[113.2391,73.8099,0.0],[113.2318,73.8109,13.4985],[113.2286,73.8182,0.0],[113.2214,73.8193,18.1699],[113.2161,73.8328,0.0],[113.2089,73.8339,0.0],[113.2141,73.837,0.0],[113.1984,73.838,23.3102],[113.1974,73.8432,3.0845],[113.1953,73.8453,9.6459],[113.188,73.8464,10.735],[113.1896,73.8479,13.7921],[113.1953,73.8484,0.0],[113.1937,73.85,0.0],[113.188,73.8505,18.8924],[113.1859,73.8526,16.9203],[113.1859,73.8557,22.3704],[113.1911,73.8578,0.0],[113.1839,73.8588,31.8337],[113.1807,73.8641,31.2434],[113.1734,73.8651,46.5023],[113.1724,73.8682,37.1861],[113.1651,73.8693,34.7037],[113.162,73.8745,0.0],[113.15,73.875,13.4395],[113.1453,73.8786,0.0],[113.1312,73.8812,3.8674],[113.1208,73.8854,0.0],[113.0917,73.8875,20.0105],[113.0901,73.888,26.0827],[113.0891,73.8932,0.0],[113.0875,73.8938,0.0],[113.075,73.8958,0.0],[113.0625,73.9,0.0],[113.05,73.9,13.2314],[113.0474,73.9036,0.0],[113.0318,73.9068,0.0],[113.0271,73.9104,0.0],[112.9964,73.9172,13.9958],[112.9953,73.9203,0.0],[112.988,73.9213,11.0929],[112.987,73.9245,0.0],[112.9714,73.9276,17.3005],[112.9682,73.9328,0.0],[112.9609,73.9339,0.0],[112.9599,73.937,0.0],[112.9526,73.938,3.4754],[112.9479,73.9417,7.0578],[112.9422,73.9422,12.4045],[112.9391,73.9495,0.0],[112.9318,73.9505,17.7338],[112.9287,73.9557,0.0],[112.913,73.9589,31.7838],[112.9182,73.962,0.0],[112.9063,73.9625,30.0711],[112.9047,73.9641,37.0715],[112.9099,73.9661,0.0],[112.8943,73.9693,20.1577],[112.8995,73.9714,0.0],[112.8995,73.9745,0.0],[112.8839,73.9755,18.4703],[112.8828,73.9807,0.0],[112.8755,73.9818,28.3519],[112.8708,73.9854,0.0],[112.8651,73.9859,50.6712],[112.8641,73.9891,33.9242],[112.8568,73.9901,53.9668],[112.8521,73.9938,0.0],[112.8333,73.9979,25.6699],[112.8313,73.9958,18.6785],[112.8328,73.988,26.9017],[112.8276,73.987,0.0],[112.8271,73.9854,0.0],[112.8313,73.975,29.2375],[112.8307,73.9734,19.6931],[112.8255,73.9714,0.0],[112.8328,73.9703,30.0002],[112.838,73.9609,0.0],[112.8453,73.9599,3.075],[112.8453,73.9547,0.0],[112.8401,73.9526,0.0],[112.8458,73.9521,0.0],[112.8474,73.9505,0.0],[112.8422,73.9484,0.0],[112.8495,73.9474,0.0],[112.8547,73.938,0.0],[112.862,73.937,23.2271],[112.8547,73.9339,0.0],[112.8568,73.9318,0.0],[112.8641,73.9307,23.359],[112.8672,73.9213,0.0],[112.8745,73.9203,22.7579],[112.8693,73.9182,0.0],[112.8708,73.9167,0.0],[112.8766,73.9161,9.2501],[112.8714,73.9141,0.0],[112.8714,73.9109,0.0],[112.8953,73.9057,11.7979],[112.8984,73.9005,0.0],[112.9057,73.8995,25.4366],[112.9089,73.8901,0.0],[112.913,73.8839,0.0],[112.9203,73.8828,32.7404],[112.9213,73.8776,0.0],[112.9287,73.8766,25.8357],[112.9234,73.8734,0.0],[112.9307,73.8724,0.0],[112.9328,73.8703,9.2492],[112.9359,73.8588,0.0],[112.9401,73.8526,0.0],[112.9474,73.8516,0.0],[112.9484,73.8484,0.0],[112.9557,73.8474,5.926],[112.9568,73.8443,0.0],[112.9641,73.8432,21.5649],[112.9589,73.8411,0.0],[112.9583,73.8396,0.0],[112.9609,73.8359,0.0],[112.9682,73.8349,9.4085],[112.963,73.8318,0.0],[112.9703,73.8307,0.0],[112.9714,73.8255,0.0],[112.9734,73.8234,0.0],[112.9807,73.8224,7.1193],[112.9818,73.8172,0.0],[112.9891,73.8161,0.0],[112.9912,73.8141,5.9885],[112.9974,73.7974,1.3956],[112.9922,73.7943,0.0],[112.9995,73.7932,7.4307],[113.0,73.7917,4.2843],[112.9995,73.7901,2.4421],[112.988,73.787,0.0],[112.9953,73.7839,2.5194],[112.988,73.7828,0.0],[112.9891,73.7776,0.0],[112.9838,73.7766,0.0],[112.9833,73.775,0.0],[112.9849,73.7714,7.7605],[112.9714,73.7682,0.0],[112.9724,73.7651,6.7554],[112.9708,73.7646,3.2523],[112.9526,73.762,0.0],[112.9516,73.7589,7.7983],[112.9339,73.7536,0.7931],[112.9328,73.7505,12.3938],[112.9276,73.7495,0.9551],[112.9266,73.7464,19.3953],[112.8854,73.7333,2.0905],[112.8688,73.7333,1.2253],[112.8646,73.7312,12.0893],[112.8542,73.7312,1.1183],[112.8438,73.7271,1.2872],[112.8187,73.725,0.7262],[112.8146,73.7229,1.0706],[112.8063,73.7229,1.1464],[112.8021,73.7208,1.0483],[112.7833,73.7208,0.9657],[112.7792,73.7188,1.2858],[112.7542,73.7188,1.2949],[112.75,73.7167,0.9587],[112.725,73.7167,1.2042],[112.7208,73.7146,1.0987],[112.6813,73.7146,1.1991],[112.6771,73.7125,1.0818],[112.6229,73.7125,1.0943],[112.6188,73.7104,0.9918],[112.5354,73.7083,1.5135],[112.5313,73.7063,1.2175],[112.4771,73.7063,1.2405],[112.4729,73.7042,1.03],[112.2688,73.7042,1.3157],[112.2625,73.7063,1.2678],[112.2583,73.7042,1.2955],[112.2479,73.7042,1.3632],[112.2438,73.7063,1.0336],[112.2104,73.7063,1.2552],[112.2063,73.7083,1.0146],[112.1854,73.7083,1.2916],[112.1813,73.7104,0.9431],[112.1625,73.7104,1.3176],[112.1583,73.7125,1.007],[112.1333,73.7125,1.1429],[112.1292,73.7146,1.1794],[112.0938,73.7146,1.1028],[112.0896,73.7167,1.0213],[112.0646,73.7167,1.2368],[112.0604,73.7188,0.9994],[112.025,73.7188,0.9206],[112.0208,73.7208,1.0933],[112.0021,73.7208,1.3164],[111.9979,73.7229,0.7189],[111.9875,73.7229,0.9687],[111.9833,73.725,0.9392],[111.9417,73.725,1.4691],[111.9375,73.7271,0.8532],[111.9021,73.7271,1.216],[111.8979,73.7292,0.9882],[111.8792,73.7292,1.2482],[111.8667,73.7333,0.9681],[111.8562,73.7333,1.1198],[111.8521,73.7354,0.8683],[111.825,73.7354,1.8303],[111.8125,73.7396,0.9143],[111.7937,73.7396,2.3706],[111.7813,73.7438,1.1668],[111.7688,73.7438,1.0253],[111.7646,73.7458,0.997],[111.7542,73.7458,1.1337],[111.75,73.7479,1.2186],[111.7375,73.7479,1.5048],[111.7333,73.7521,0.8621],[111.7208,73.75,1.5227],[111.7167,73.7521,0.9516],[111.7063,73.7521,1.2284],[111.7021,73.7542,0.9946],[111.6833,73.7542,1.3727],[111.6792,73.7562,0.9663],[111.6667,73.7542,1.0697],[111.6641,73.7578,0.7473],[111.6458,73.7625,1.1178],[111.6333,73.7625,2.2829],[111.6042,73.7708,0.8506],[111.5938,73.7708,1.257],[111.5896,73.7729,0.8063],[111.5854,73.7729,1.38],[111.5792,73.7771,0.8731],[111.5604,73.7771,1.4309],[111.5557,73.7807,0.7312],[111.5458,73.7833,-0.1002],[111.5354,73.7833,3.9074],[111.5062,73.7917,1.2233],[111.5,73.7917,14.0704],[111.4974,73.7953,0.7795],[111.4901,73.7963,1.1133],[111.4854,73.8,0.4696],[111.4812,73.8,0.9829],[111.4688,73.8042,0.9963],[111.4568,73.8047,4.6864],[111.462,73.8068,0.891],[111.4604,73.8083,0.4216],[111.4479,73.8083,1.5025],[111.4297,73.813,0.453],[111.4349,73.8161,0.3922],[111.4213,73.8172,0.4443],[111.4182,73.8224,-0.0229],[111.4146,73.825,0.009],[111.4021,73.825,0.7986],[111.3672,73.8339,1.7078],[111.3724,73.837,0.9657],[111.3588,73.838,1.5534],[111.3557,73.8432,0.7981],[111.3484,73.8443,0.9128],[111.3438,73.8479,0.4694],[111.338,73.8484,0.9979],[111.3354,73.8521,-0.1896],[111.3214,73.8526,0.7972],[111.3182,73.8578,1.0829],[111.3109,73.8588,1.2311],[111.3089,73.8609,0.6081],[111.3141,73.8641,0.1676],[111.3,73.8667,1.3254],[111.2974,73.8703,0.3226],[111.2901,73.8714,1.2222],[111.2849,73.8786,0.3263],[111.2776,73.8797,10.4924],[111.2828,73.8828,0.2421],[111.2771,73.8833,0.6584],[111.2755,73.8849,0.699],[111.2807,73.887,0.665],[111.2651,73.8901,7.9525],[111.2703,73.8932,0.6214],[111.263,73.8943,0.9195],[111.262,73.8974,0.5827],[111.2547,73.8984,8.0068],[111.2599,73.9016,0.4464],[111.2526,73.9026,1.5853],[111.2479,73.9063,0.8763],[111.2423,73.9067,6.7265],[111.2512,73.8974,18.7127],[111.2548,73.887,31.1576],[111.2767,73.8712,1.584],[111.23,73.8569,2.3945]]],
[[[113.2083,72.8271,6.0504],[113.2208,72.8271,-1.5619],[113.2193,72.8307,2.6705],[113.2271,72.8333,4.826],[113.2391,72.8339,-0.9321],[113.238,72.837,5.3658],[113.2432,72.838,-0.2031],[113.2443,72.8411,1.4746],[113.2495,72.8422,-0.2765],[113.2484,72.8474,3.4942],[113.2536,72.8495,-0.8875],[113.2354,72.85,-0.6067],[113.2312,72.8479,3.7021],[113.2229,72.8479,-1.6411],[113.1964,72.8391,-1.3087],[113.1953,72.8339,2.6978],[113.1901,72.8328,-1.5874],[113.1917,72.8313,-1.6163],[113.1974,72.8307,0.4745],[113.2021,72.8271,3.2368],[113.2083,72.8271,6.0504]]],
[[[113.5537,73.0401,0.9455],[113.5484,73.038,0.4883],[113.5667,73.0375,0.0],[113.5687,73.0396,0.6946],[113.5667,73.0417,1.2935],[113.5563,73.0417,0.0],[113.5537,73.0401,0.9455]]],
[[[113.5792,73.1687,0.0],[113.575,73.1687,0.0],[113.5734,73.1672,0.0],[113.587,73.1672,0.0],[113.5854,73.1687,0.0],[113.5792,73.1687,0.0]]],
[[[114.2875,73.2792,1.1139],[114.2932,73.2797,0.0],[114.2922,73.2849,1.9964],[114.2974,73.287,0.0],[114.2714,73.287,0.0],[114.2714,73.2839,0.0],[114.2786,73.2828,1.9511],[114.2797,73.2797,0.0],[114.2875,73.2792,1.1139]]],
[[[113.6292,73.2792,0.0],[113.6349,73.2797,0.0],[113.6339,73.2849,0.8776],[113.6453,73.2891,0.0],[113.6188,73.2896,1.0472],[113.6109,73.287,0.6678],[113.6109,73.2839,0.9285],[113.6182,73.2828,1.5928],[113.6229,73.2792,0.0],[113.6292,73.2792,0.0]]],
[[[114.1875,73.3104,0.0],[114.1891,73.312,0.0],[114.1792,73.3146,0.0],[114.1609,73.3141,0.0],[114.1687,73.3104,0.0],[114.1875,73.3104,0.0]]],
[[[113.7083,73.3667,0.0],[113.6958,73.3708,0.0],[113.6708,73.3708,0.0],[113.663,73.3682,0.0],[113.6625,73.3667,0.0],[113.6646,73.3646,0.0],[113.6787,73.362,0.0],[113.6813,73.3583,0.0],[113.7083,73.3562,1.3735],[113.7109,73.3526,0.0],[113.7396,73.3479,0.0],[113.7458,73.3438,0.0],[113.7562,73.3438,0.0],[113.7604,73.3417,0.0],[113.7792,73.3417,1.2659],[113.7833,73.3396,0.0],[113.7953,73.3401,0.0],[113.7917,73.3438,0.0],[113.7396,73.3562,1.2955],[113.7292,73.3604,0.5533],[113.7234,73.3609,1.2467],[113.7203,73.3641,0.0],[113.7083,73.3667,0.0]]],
[[[117.4271,73.5792,1.1467],[117.4229,73.5792,1.5478],[117.4213,73.5776,1.3124],[117.4349,73.5776,1.3416],[117.4333,73.5792,1.1615],[117.4271,73.5792,1.1467]]],
[[[117.3646,73.5792,1.1953],[117.3682,73.5807,1.4872],[117.3604,73.5833,0.0],[117.3547,73.5828,1.375],[117.3542,73.5813,1.2206],[117.3562,73.5792,1.1239],[117.3646,73.5792,1.1953]]],
[[[116.0479,74.2771,0.7203],[116.0437,74.2771,0.9515],[116.0422,74.2755,1.135],[116.0495,74.2755,0.5754],[116.0479,74.2771,0.7203]]],
[[[116.0563,74.2792,0.0],[116.0521,74.2792,0.0],[116.0505,74.2776,0.0],[116.0578,74.2776,0.0],[116.0563,74.2792,0.0]]],
[[[114.9333,73.6167,0.0],[114.9292,73.6167,0.0],[114.9276,73.6151,0.0],[114.9349,73.6151,0.0],[114.9333,73.6167,0.0]]],
[[[115.0083,73.6312,0.0],[115.0047,73.6297,0.0],[115.0125,73.6292,0.0],[115.012,73.6307,0.0],[115.0083,73.6312,0.0]]],
[[[115.9688,74.2979,0.0],[115.9682,74.3016,0.0],[115.9609,74.3026,1.0278],[115.9599,74.3078,1.1815],[115.9542,74.3083,1.1987],[115.9521,74.3063,0.8734],[115.9542,74.3,1.3524],[115.9537,74.2963,1.0468],[115.9479,74.2958,0.0],[115.9464,74.2943,0.0],[115.9537,74.2932,0.0],[115.9557,74.2911,0.0],[115.9568,74.2859,0.0],[115.9792,74.2813,0.9687],[115.9979,74.275,0.0],[116.025,74.275,0.0],[116.0292,74.2771,1.0759],[116.0411,74.2776,1.1068],[116.0396,74.2792,0.0],[116.0208,74.2792,1.0747],[116.0167,74.2813,0.0],[116.0042,74.2813,1.2358],[115.9964,74.2839,0.6803],[115.9917,74.2875,0.0],[115.9812,74.2875,0.0],[115.9771,74.2896,0.0],[115.9729,74.2896,0.9928],[115.9714,74.2911,0.0],[115.9766,74.2932,0.0],[115.9714,74.2943,0.0],[115.9688,74.2979,0.0]]],
[[[115.9661,74.3099,0.7211],[115.9625,74.3104,0.9402],[115.9609,74.3089,1.0724],[115.9646,74.3083,0.0],[115.9661,74.3099,0.7211]]],
[[[118.825,73.4375,0.6018],[118.8146,73.4375,0.8033],[118.8104,73.4396,0.0],[118.7984,73.4391,0.0],[118.8037,73.437,0.0],[118.8063,73.4333,0.0],[118.8328,73.4339,0.7336],[118.825,73.4375,0.6018]]],
[[[118.7083,73.4542,1.4543],[118.7042,73.4542,1.3132],[118.7026,73.4526,1.5597],[118.7161,73.4526,1.0121],[118.7146,73.4542,1.2061],[118.7083,73.4542,1.4543]]],
[[[118.8307,73.4912,0.6984],[118.8271,73.4917,0.9385],[118.8255,73.4901,0.7557],[118.8292,73.4896,0.7557],[118.8307,73.4912,0.6984]]],
[[[118.808,73.5,0.7648],[118.8042,73.5,0.8478],[118.8026,73.4984,0.8718],[118.8099,73.4984,0.8598],[118.808,73.5,0.7648]]],
[[[118.6661,73.4193,0.0],[118.6646,73.4208,0.0],[118.6609,73.4203,0.0],[118.6625,73.4187,0.0],[118.6661,73.4193,0.0]]],
[[[118.6807,73.4203,0.0],[118.6771,73.4208,0.0],[118.6755,73.4193,0.0],[118.6792,73.4187,0.0],[118.6807,73.4203,0.0]]],
[[[118.6742,73.4225,0.0],[118.6687,73.4229,0.0],[118.6672,73.4213,0.0],[118.6729,73.4208,0.0],[118.6742,73.4225,0.0]]],
[[[118.6599,73.5661,0.0],[118.6542,73.5667,0.0],[118.6526,73.5651,0.0],[118.6583,73.5646,0.0],[118.6599,73.5661,0.0]]],
[[[117.3479,73.5771,0.9669],[117.3417,73.5771,1.2785],[117.3401,73.5755,1.2395],[117.3536,73.5755,1.1626],[117.3521,73.5771,1.0317],[117.3479,73.5771,0.9669]]],
[[[117.4057,73.5755,1.0744],[117.4042,73.5771,0.8255],[117.4005,73.5766,0.9169],[117.4021,73.575,0.9838],[117.4057,73.5755,1.0744]]],
[[[117.4203,73.5755,1.1271],[117.4187,73.5771,1.3124],[117.4151,73.5766,1.2507],[117.4167,73.575,1.2518],[117.4203,73.5755,1.1271]]],
[[[117.4495,73.5787,1.2621],[117.4443,73.5787,1.2742],[117.4443,73.5755,1.3811],[117.4495,73.5755,1.5374],[117.4495,73.5787,1.2621]]],
[[[115.9578,74.312,1.0324],[115.9542,74.3125,0.0],[115.9526,74.3109,0.0],[115.9563,74.3104,1.1294],[115.9578,74.312,1.0324]]],
[[[115.9667,74.3146,0.9473],[115.9672,74.3161,1.054],[115.9724,74.3172,0.0],[115.9734,74.3224,0.9345],[115.9786,74.3234,0.9157],[115.9786,74.3287,0.9943],[115.9729,74.3292,0.0],[115.9703,74.3255,0.0],[115.9568,74.3224,0.0],[115.9583,74.3208,0.0],[115.9641,74.3203,0.866],[115.9589,74.3182,0.0],[115.9589,74.313,1.4952],[115.9646,74.3125,1.0155],[115.9667,74.3146,0.9473]]],
[[[115.9812,74.3333,0.0],[115.9797,74.3328,0.0],[115.9797,74.3297,0.9994],[115.9849,74.3297,0.9716],[115.9849,74.3328,0.8195],[115.9812,74.3333,0.0]]],
[[[115.9881,74.3354,0.8839],[115.9859,74.3339,0.9857],[115.9932,74.3339,1.1144],[115.9917,74.3354,0.8839],[115.9881,74.3354,0.8839]]],
[[[116.0286,74.312,0.0],[116.0229,74.3125,0.0],[116.0214,74.3109,0.0],[116.0271,74.3104,0.0],[116.0286,74.312,0.0]]],
[[[116.1875,74.325,0.8229],[116.187,74.3287,0.4927],[116.1854,74.3292,0.0],[116.1729,74.3313,0.8623],[116.1708,74.3292,0.9537],[116.1713,74.3276,0.0],[116.1787,74.3266,0.4748],[116.1833,74.3208,1.029],[116.1953,74.3214,0.0],[116.1937,74.3229,0.0],[116.188,74.3234,1.1316],[116.1875,74.325,0.8229]]],
[[[116.1245,74.3328,0.0],[116.1188,74.3333,0.0],[116.1172,74.3318,0.0],[116.1229,74.3313,0.0],[116.1245,74.3328,0.0]]],
[[[115.9995,74.3359,0.8584],[115.9979,74.3375,0.9668],[115.9943,74.337,1.1458],[115.9958,74.3354,0.7955],[115.9995,74.3359,0.8584]]],
[[[116.0391,74.3391,0.0],[116.0333,74.3396,0.0],[116.0318,74.338,0.0],[116.0375,74.3375,0.0],[116.0391,74.3391,0.0]]],
[[[116.0078,74.3411,0.7977],[116.0021,74.3417,0.91],[116.0005,74.3401,1.1417],[116.0062,74.3396,0.7867],[116.0078,74.3411,0.7977]]],
[[[116.1167,74.3625,1.1094],[116.1021,74.3667,0.7825],[116.0964,74.3662,0.9404],[116.0958,74.3646,0.8418],[116.0964,74.363,0.5158],[116.1062,74.3604,0.0],[116.1203,74.3599,1.1231],[116.113,74.3568,0.0],[116.1203,74.3557,0.9306],[116.1229,74.3521,0.0],[116.1354,74.3542,0.9882],[116.1458,74.35,0.0],[116.1516,74.3495,0.0],[116.1526,74.3464,0.0],[116.1599,74.3453,1.0736],[116.1547,74.3422,0.0],[116.162,74.3411,0.0],[116.1646,74.3375,0.0],[116.1766,74.3359,1.2073],[116.1766,74.3432,0.0],[116.1693,74.3443,1.2412],[116.1682,74.3474,0.0],[116.1609,74.3484,1.2026],[116.1682,74.3516,0.0],[116.1542,74.3521,1.2602],[116.1516,74.3557,0.0],[116.1276,74.3609,0.9224],[116.125,74.3646,0.0],[116.1208,74.3646,0.0],[116.1167,74.3625,1.1094]]],
[[[116.0833,74.3646,1.0952],[116.087,74.3662,0.9837],[116.0771,74.3688,1.3855],[116.0667,74.3688,1.9743],[116.0625,74.3667,1.0117],[116.0437,74.3667,0.0],[116.0411,74.363,0.0],[116.0359,74.362,0.0],[116.0349,74.3588,1.0865],[116.0214,74.3557,0.0],[116.0203,74.3526,1.1435],[116.013,74.3516,0.0],[116.0141,74.3484,1.3855],[116.0068,74.3474,0.0],[116.0062,74.3458,0.0],[116.0068,74.3443,1.0716],[116.0125,74.3438,1.06],[116.0229,74.3479,0.994],[116.037,74.3505,0.2247],[116.0359,74.3536,0.8868],[116.0432,74.3547,0.6496],[116.0443,74.3578,0.8521],[116.0521,74.3604,0.8608],[116.0563,74.3604,0.0],[116.0604,74.3625,1.0512],[116.0708,74.3625,0.0],[116.075,74.3646,0.8131],[116.0833,74.3646,1.0952]]],
[[[118.8271,73.3562,0.0],[118.8172,73.3588,6.6197],[118.8161,73.362,10.2705],[118.8125,73.3646,0.0],[118.7813,73.3646,0.0],[118.7771,73.3625,7.6041],[118.7604,73.3625,0.0],[118.7578,73.3588,3.0328],[118.7443,73.3557,0.0],[118.7432,73.3526,6.6198],[118.7312,73.3521,0.0],[118.7286,73.3484,1.1584],[118.7229,73.3479,0.0],[118.7063,73.3417,1.9467],[118.7021,73.3417,0.6094],[118.6979,73.3396,1.0828],[118.6813,73.3396,0.0],[118.6771,73.3375,8.7521],[118.6667,73.3375,0.0],[118.6505,73.3328,0.0],[118.65,73.3313,0.0],[118.6505,73.3297,0.0],[118.6641,73.3266,1.1395],[118.6646,73.3167,0.0],[118.6667,73.3146,0.0],[118.6854,73.3146,4.2747],[118.6896,73.3125,1.1023],[118.7146,73.3125,0.0],[118.7188,73.3146,0.0],[118.7292,73.3146,0.0],[118.7333,73.3167,0.0],[118.7438,73.3167,0.0],[118.7479,73.3146,0.0],[118.7583,73.3146,0.0],[118.7771,73.3208,0.956],[118.787,73.3214,0.0],[118.788,73.3245,1.0356],[118.7953,73.3255,0.6732],[118.7963,73.3287,1.0431],[118.8016,73.3297,0.0],[118.8026,73.3328,0.789],[118.8099,73.3339,0.0],[118.8109,73.3391,0.9162],[118.8161,73.3411,0.7039],[118.8104,73.3417,0.977],[118.8089,73.3432,0.8163],[118.8146,73.3438,0.6792],[118.8161,73.3453,0.8702],[118.8104,73.3458,0.9363],[118.8089,73.3474,1.6531],[118.8208,73.3479,1.0496],[118.8234,73.3516,0.7646],[118.8307,73.3526,0.0],[118.8307,73.3557,0.0],[118.8271,73.3562,0.0]]],
[[[118.775,73.4083,1.3852],[118.7547,73.4099,1.7057],[118.7568,73.4047,1.7374],[118.762,73.4026,1.7882],[118.7568,73.4016,1.56],[118.7542,73.3979,1.3857],[118.7422,73.3995,1.8301],[118.7412,73.3922,1.2307],[118.7338,73.3912,1.6147],[118.7354,73.3896,1.5006],[118.7474,73.3891,1.2732],[118.7422,73.387,1.2623],[118.7412,73.3797,1.8598],[118.7396,73.3792,1.7932],[118.7292,73.3792,1.6198],[118.7266,73.3828,1.6277],[118.7188,73.3854,1.2988],[118.6937,73.3854,0.0],[118.6922,73.3839,0.0],[118.7229,73.375,0.0],[118.7542,73.375,0.0],[118.7583,73.3771,0.838],[118.7625,73.3771,0.0],[118.7651,73.3807,1.0447],[118.7703,73.3818,0.7548],[118.7714,73.3891,0.8023],[118.7766,73.3901,0.0],[118.7776,73.3974,0.1672],[118.7896,73.3979,0.0],[118.7922,73.4016,0.7778],[118.7995,73.4026,0.0],[118.7979,73.4042,0.0],[118.7875,73.4042,1.0659],[118.775,73.4083,1.3852]]],
[[[118.7193,73.3943,1.2044],[118.7266,73.3943,1.4634],[118.7266,73.4016,1.9166],[118.7047,73.4016,2.8912],[118.7047,73.3984,1.6475],[118.7167,73.3979,4.523],[118.7193,73.3943,1.2044]]],
[[[118.7375,73.4208,0.5416],[118.7125,73.4229,1.4701],[118.7063,73.4208,2.4839],[118.7021,73.4229,1.6661],[118.6979,73.4229,1.8129],[118.6901,73.4203,0.663],[118.6896,73.4187,0.0],[118.6917,73.4167,0.5921],[118.7083,73.4167,1.5535],[118.7208,73.4125,1.5977],[118.7312,73.4125,1.0646],[118.7354,73.4104,1.5563],[118.7536,73.4151,0.0],[118.7521,73.4167,0.0],[118.7401,73.4172,1.9249],[118.7375,73.4208,0.5416]]],
[[[118.6896,73.3896,1.9743],[118.6854,73.3896,1.1728],[118.6839,73.388,0.0],[118.7037,73.388,1.2463],[118.7021,73.3896,1.8503],[118.6896,73.3896,1.9743]]],
[[[118.4917,73.3938,0.0],[118.4875,73.3938,0.0],[118.4859,73.3922,0.0],[118.4932,73.3922,0.0],[118.4917,73.3938,0.0]]],
[[[118.6813,73.3938,1.1945],[118.6771,73.3938,0.0],[118.6755,73.3922,0.0],[118.6828,73.3922,1.7056],[118.6813,73.3938,1.1945]]],
[[[118.7037,73.3953,1.3806],[118.7,73.3958,1.6025],[118.6984,73.3943,1.5878],[118.7021,73.3938,1.6292],[118.7037,73.3953,1.3806]]],
[[[118.6792,73.4,1.4726],[118.6755,73.3995,1.3103],[118.6755,73.3964,1.3322],[118.6828,73.3964,1.8623],[118.6828,73.3995,1.6629],[118.6792,73.4,1.4726]]],
[[[118.6818,73.4078,0.0],[118.6854,73.4042,1.6665],[118.6891,73.4047,2.214],[118.6896,73.4063,1.7338],[118.6875,73.4083,1.5371],[118.6818,73.4078,0.0]]],
[[[118.462,73.4099,0.0],[118.4583,73.4104,0.0],[118.4568,73.4089,0.0],[118.4604,73.4083,0.0],[118.462,73.4099,0.0]]],
[[[118.6661,73.4141,0.0],[118.6625,73.4146,0.0],[118.6609,73.413,0.0],[118.6646,73.4125,0.0],[118.6661,73.4141,0.0]]],
[[[118.6979,73.4146,1.5374],[118.6964,73.413,1.4021],[118.7037,73.413,1.5913],[118.7021,73.4146,1.5622],[118.6979,73.4146,1.5374]]],
[[[118.4688,73.4167,0.0],[118.4646,73.4167,0.0],[118.463,73.4151,0.0],[118.4703,73.4151,0.0],[118.4688,73.4167,0.0]]],
[[[118.4833,73.4167,0.0],[118.4792,73.4167,0.0],[118.4776,73.4151,0.0],[118.4849,73.4151,0.0],[118.4833,73.4167,0.0]]],
[[[118.4766,73.4182,0.0],[118.4729,73.4187,0.0],[118.4714,73.4172,0.0],[118.475,73.4167,0.0],[118.4766,73.4182,0.0]]],
[[[118.9141,73.4599,0.6875],[118.9083,73.4604,0.5529],[118.9068,73.4589,0.4219],[118.9146,73.4583,0.3447],[118.9141,73.4599,0.6875]]],
[[[118.9411,73.4714,0.0],[118.9396,73.4729,0.0],[118.9359,73.4724,0.0],[118.9375,73.4708,0.0],[118.9411,73.4714,0.0]]],
[[[118.9266,73.4777,0.0],[118.9213,73.4755,0.0],[118.9333,73.475,0.0],[118.9349,73.4755,0.0],[118.9354,73.4792,0.0],[118.9349,73.4807,0.0],[118.9292,73.4812,0.0],[118.9266,73.4777,0.0]]],
[[[118.9495,73.4807,0.0],[118.9437,73.4812,0.0],[118.9422,73.4797,0.0],[118.9479,73.4792,0.0],[118.9495,73.4807,0.0]]],
[[[118.8682,73.4838,0.5534],[118.8667,73.4854,0.7221],[118.863,73.4849,0.7521],[118.8646,73.4833,0.6024],[118.8682,73.4838,0.5534]]],
[[[118.9932,73.4912,0.0],[118.9875,73.4917,0.0],[118.9859,73.4901,0.0],[118.9917,73.4896,0.0],[118.9932,73.4912,0.0]]],
[[[118.8891,73.4922,0.0],[118.8839,73.4901,0.0],[118.8896,73.4896,0.0],[118.8974,73.4932,0.0],[118.8917,73.4938,0.0],[118.8891,73.4922,0.0]]],
[[[119.0141,73.4943,0.3237],[119.0125,73.4958,0.2644],[119.0089,73.4953,0.3182],[119.0104,73.4938,0.3771],[119.0141,73.4943,0.3237]]],
[[[119.0516,73.4974,0.0],[119.0458,73.4979,0.0],[119.0443,73.4964,0.0],[119.05,73.4958,0.0],[119.0516,73.4974,0.0]]],
[[[118.9036,73.4984,0.0],[118.9021,73.5,0.0],[118.8984,73.4995,0.0],[118.9,73.4979,0.0],[118.9036,73.4984,0.0]]],
[[[118.9849,73.5047,0.0],[118.9833,73.5062,0.0],[118.9797,73.5057,0.0],[118.9812,73.5042,0.3663],[118.9849,73.5047,0.0]]],
[[[118.8458,73.5104,0.9925],[118.8401,73.5099,1.0564],[118.8401,73.5068,1.0098],[118.8438,73.5062,0.9455],[118.8536,73.5089,0.0],[118.8521,73.5104,0.0],[118.8458,73.5104,0.9925]]],
[[[118.8453,73.4984,0.0],[118.8438,73.5,0.9638],[118.8401,73.4995,0.0],[118.8417,73.4979,0.0],[118.8453,73.4984,0.0]]],
[[[118.8453,73.5026,0.7764],[118.8438,73.5042,0.5999],[118.8401,73.5036,0.7771],[118.8417,73.5021,0.8448],[118.8453,73.5026,0.7764]]],
[[[118.8229,73.5062,0.9112],[118.8245,73.5078,0.863],[118.8187,73.5083,0.8628],[118.8167,73.5062,0.837],[118.8208,73.5062,0.8748],[118.8229,73.5062,0.9112]]],
[[[118.8161,73.5162,1.0399],[118.8104,73.5167,1.0527],[118.8089,73.5151,1.0864],[118.8146,73.5146,0.8599],[118.8161,73.5162,1.0399]]],
[[[118.8224,73.5349,0.7094],[118.8125,73.5375,0.3263],[118.8021,73.5375,0.0],[118.8005,73.537,0.0],[118.8,73.5313,0.0],[118.8026,73.5276,1.4079],[118.8063,73.5271,1.4077],[118.8208,73.5313,0.0],[118.8224,73.5307,0.0],[118.8224,73.5276,1.0133],[118.8172,73.5255,0.7681],[118.8224,73.5245,0.9723],[118.8234,73.5214,1.0691],[118.85,73.5208,0.0],[118.8542,73.5188,0.0],[118.8583,73.5188,0.0],[118.8599,73.5172,0.0],[118.8526,73.5162,0.0],[118.8526,73.513,0.0],[118.8682,73.5099,0.0],[118.8708,73.5062,0.0],[118.9167,73.5021,0.0],[118.9182,73.5005,0.0],[118.913,73.4984,0.5322],[118.9208,73.4958,0.0],[118.9333,73.4958,0.8922],[118.9396,73.4938,0.0],[118.9437,73.4958,0.0],[118.9542,73.4958,0.0],[118.9583,73.4938,0.0],[118.9625,73.4938,0.0],[118.9667,73.4958,0.0],[118.9786,73.4964,0.0],[118.9771,73.4979,0.0],[118.9714,73.4984,0.0],[118.9688,73.5021,1.0666],[118.9568,73.5026,0.0],[118.9542,73.5062,1.1546],[118.9437,73.5042,0.0],[118.9411,73.5078,0.9635],[118.9313,73.5104,1.0345],[118.9146,73.5104,0.0],[118.9104,73.5125,0.0],[118.9,73.5125,0.0],[118.8984,73.5141,0.0],[118.9036,73.5151,0.0],[118.9036,73.5182,0.6345],[118.8917,73.5188,1.0998],[118.8729,73.525,0.6906],[118.8672,73.5245,1.0023],[118.8662,73.5214,0.0],[118.8625,73.5208,0.0],[118.8609,73.5214,0.0],[118.8599,73.5266,0.983],[118.8583,73.5271,0.7508],[118.8479,73.5271,0.0],[118.8438,73.525,0.0],[118.8396,73.525,1.3092],[118.8318,73.5276,1.1017],[118.837,73.5297,0.0],[118.837,73.5328,0.7429],[118.825,73.5333,0.0],[118.8224,73.5349,0.7094]]],
[[[118.8229,73.5188,1.0444],[118.8187,73.5188,1.1014],[118.8172,73.5172,1.0482],[118.837,73.5172,0.0],[118.8354,73.5188,0.7939],[118.8229,73.5188,1.0444]]],
[[[118.8042,73.5188,1.0575],[118.8078,73.5203,1.0561],[118.8021,73.5208,1.0348],[118.8021,73.5188,1.1823],[118.8042,73.5188,1.0575]]],
[[[118.8063,73.5229,0.8982],[118.8078,73.5245,0.9334],[118.8021,73.525,1.2811],[118.8021,73.5229,1.1903],[118.8063,73.5229,0.8982]]],
[[[118.7995,73.5391,0.0],[118.7958,73.5396,0.0],[118.7943,73.538,0.0],[118.7979,73.5375,0.0],[118.7995,73.5391,0.0]]]]}}