{"type":"Feature","properties":{"GID_2":"RUS.56.7_1","GID_0":"RUS","country":"Russia","GID_1":"RUS.56_1","province":"Primor'ye","NL_NAME_1":"Приморскийкрай","county":"Dal'negorsk","VARNAME_2":"NA","NL_NAME_2":"Дальнегорск","TYPE_2":"Gorsovet","ENGTYPE_2":"District","CC_2":"NA","HASC_2":"RU.PR.DG","name":"Dal'negorsk.county"},
"geometry":{"type": "MultiPolygon","coordinates": [[[[135.6134,44.5537,169.51],[135.6048,44.5674,433.5788],[135.5858,44.5737,413.5578],[135.5652,44.5624,260.2282],[135.5678,44.5514,219.695],[135.6013,44.543,609.62],[135.6134,44.5537,169.51]]]]}}