{"type":"Feature","properties":{"GID_3":"RUS.29.6.1_1","GID_0":"RUS","country":"Russia","GID_1":"RUS.29_1","province":"Khakass","NL_NAME_1":"РеспубликаХакасия","GID_2":"RUS.29.6_1","county":"Ordzhonikidzevskiyrayon","NL_NAME_2":"Орджоникидзевскийрайон","city":"NA","VARNAME_3":"NA","NL_NAME_3":"NA","TYPE_3":"NA","ENGTYPE_3":"NA","CC_3":"NA","HASC_3":"NA","name":"N_A.city"},
"geometry":{"type": "MultiPolygon","coordinates": [[[[88.8889,54.3791,972.2782],[88.9213,54.3936,884.4988],[88.9834,54.4366,946.2863],[89.0773,54.4836,719.4052],[89.1127,54.557,647.0541],[89.1574,54.6156,532.0916],[89.2264,54.6316,507.5136],[89.1978,54.7125,709.9866],[89.2712,54.7609,616.0918],[89.3248,54.7375,692.6245],[89.3039,54.6832,600.2455],[89.4527,54.7185,474.7833],[89.5231,54.7122,606.259],[89.5563,54.681399999999996,543.6238],[89.5704,54.6552,601.04],[89.6684,54.6138,420.8454],[89.7747,54.6329,486.845],[89.8423,54.6831,502.1107],[89.8178,54.7534,399.202],[89.8359,54.7854,595.7621],[89.9018,54.7501,399.0192],[90.0838,54.7985,572.7534],[90.4003,54.8466,419.7437],[90.4583,54.8708,464.4474],[90.4485,54.8947,479.4822],[90.4827,54.9279,448.4555],[90.4356,55.0164,417.8932],[90.3659,55.0471,341.7215],[90.2624,55.05,346.2322],[90.2288,55.0663,348.6561],[90.2372,55.1056,359.1694],[90.1959,55.1515,427.1287],[90.1465,55.1371,357.5571],[90.1292,55.1053,354.5444],[90.0549,55.0886,529.6107],[90.007,55.0981,563.3417],[89.904,55.0861,486.65],[89.8257,55.0488,442.2017],[89.7295,55.0336,538.1015],[89.6578,55.0031,423.8656],[89.6271,55.0315,592.7283],[89.5672,55.0581,564.2807],[89.55,55.0464,598.9489],[89.4472,55.0386,465.4489],[89.4254,54.9861,676.237],[89.3917,54.9737,667.4496],[89.3467,54.9998,603.7051],[89.2008,54.9904,779.6971],[89.1474,55.0764,802.6345],[89.0379,55.0842,668.3099],[89.0671,55.1321,616.0819],[88.9661,55.1848,779.4556],[88.9698,55.2312,865.1392],[88.9502,55.2891,771.7612],[88.8769,55.3096,697.9452],[88.8222,55.3475,737.3295],[88.7598,55.3441,765.8907],[88.6909,55.411,584.6063],[88.6361,55.4248,507.9701],[88.6275,55.4189,532.8102],[88.6073,55.383,538.4671],[88.5735,55.3476,435.4576],[88.5307,55.337,526.3074],[88.4749,55.3206,404.8296],[88.4726,55.2588,540.9131],[88.4997,55.1688,702.4623],[88.5368,55.1109,671.9457],[88.5287,55.078,809.3543],[88.531,55.0452,756.2183],[88.5494,55.0039,851.9901],[88.5894,54.9693,972.0209],[88.6302,54.9403,839.2767],[88.652,54.8892,1086.2964],[88.7342,54.8624,945.5197],[88.7647,54.8305,1180.1306],[88.7556,54.7966,1230.3861],[88.7289,54.7555,1001.8678],[88.6584,54.7377,1188.7081],[88.6327,54.7297,1076.6965],[88.5934,54.6717,1282.7252],[88.5637,54.6055,1177.6812],[88.5668,54.5508,1057.1796],[88.5602,54.486,1239.7643],[88.5466,54.4296,1301.8611],[88.4923,54.4022,1147.4751],[88.3792,54.3789,1280.7297],[88.4138,54.3438,1311.282],[88.469,54.3301,1074.7944],[88.5927,54.2847,1122.3097],[88.6583,54.3013,1258.62],[88.6879,54.3418,1247.3982],[88.7286,54.377,1107.5032],[88.7926,54.3933,1213.9816],[88.8518,54.3982,1070.0073],[88.8889,54.3791,972.2782]]]]}}