{"type":"Feature","properties":{"GID_3":"RUS.2.35.1_1","GID_0":"RUS","country":"Russia","GID_1":"RUS.2_1","province":"Altay","NL_NAME_1":"Алтайскийкрай","GID_2":"RUS.2.35_1","county":"Petropavlovskiyrayon","NL_NAME_2":"Петропавловскийрайон","city":"NA","VARNAME_3":"NA","NL_NAME_3":"NA","TYPE_3":"NA","ENGTYPE_3":"NA","CC_3":"NA","HASC_3":"NA","name":"N_A.city"},
"geometry":{"type": "MultiPolygon","coordinates": [[[[84.1238,52.3995,171.1779],[84.0883,52.3691,178.4153],[84.0253,52.3421,163.8261],[83.9758,52.3236,161.3034],[83.9282,52.2932,149.5013],[83.9188,52.2712,149.5143],[83.8607,52.2663,148.7371],[83.827,52.2509,148.1504],[83.8399,52.2052,164.9868],[83.8751,52.1721,188.7756],[83.8846,52.1231,256.0649],[83.8714,52.0883,212.3815],[83.8503,52.0617,251.655],[83.824,52.0513,255.7096],[83.8235,52.0193,275.3733],[83.7871,51.9895,303.5831],[83.8263,51.9617,259.2317],[83.8638,51.9486,283.5103],[83.9861,51.9192,320.679],[84.0348,51.9162,401.9865],[84.0982,51.907,501.8128],[84.1446,51.9092,590.8297],[84.1767,51.9205,587.73],[84.213,51.9474,392.5316],[84.2407,51.9655,466.7552],[84.2833,51.9774,459.7736],[84.314,51.9809,347.1193],[84.354,51.954,400.7349],[84.3641,51.9405,528.764],[84.3857,51.9213,585.892],[84.4218,51.9452,458.0694],[84.449,51.98,519.3514],[84.4983,52.0133,378.3186],[84.4984,52.0282,264.7899],[84.4777,52.0645,222.8734],[84.4467,52.0843,251.1005],[84.3957,52.0928,269.1478],[84.3612,52.1747,224.5159],[84.2881,52.249,220.5828],[84.2368,52.235,199.8503],[84.1805,52.2865,152.756],[84.2505,52.3574,153.8214],[84.2351,52.3766,151.3676],[84.1632,52.3559,153.2798],[84.1238,52.3995,171.1779]]]]}}