{"type":"Feature","properties":{"GID_2":"RUS.56.29_1","GID_0":"RUS","country":"Russia","GID_1":"RUS.56_1","province":"Primor'ye","NL_NAME_1":"Приморскийкрай","county":"Spasskiyrayon","VARNAME_2":"NA","NL_NAME_2":"Спасскийрайон","TYPE_2":"Raion","ENGTYPE_2":"District","CC_2":"R66001","HASC_2":"RU.PR.SP","name":"Spasskiyrayon.county"},
"geometry":{"type": "MultiPolygon","coordinates": [[[[132.5906,44.5848,69.5512],[132.614,44.6019,69.674],[132.7289,44.5585,101.9733],[132.744,44.5182,123.5142],[132.8067,44.4934,107.7263],[132.8603,44.4949,134.5246],[132.9382,44.4556,242.7506],[132.998,44.4001,931.4205],[133.0313,44.4313,397.0262],[133.1577,44.4969,575.6662],[133.2384,44.4771,575.0312],[133.323,44.5051,806.0159],[133.3563,44.4763,626.9537],[133.3964,44.4554,225.2699],[133.4182,44.4963,207.3383],[133.4383,44.5105,237.7725],[133.4947,44.4978,135.2936],[133.5253,44.5215,114.4763],[133.5221,44.5459,138.201],[133.5005,44.5881,145.7759],[133.4892,44.644,161.634],[133.5131,44.6798,165.9857],[133.5536,44.6902,107.2754],[133.5804,44.7122,105.9485],[133.6253,44.7607,108.4661],[133.6403,44.8167,104.7832],[133.5911,44.8297,103.9524],[133.5721,44.8602,101.8767],[133.6185,44.8819,100.0476],[133.6384,44.9233,109.9187],[133.6103,44.9719,103.3715],[133.5404,44.9615,95.8279],[133.4762,44.8996,214.9692],[133.4007,44.8692,168.1127],[133.3501,44.9191,90.3411],[133.298,44.9246,119.7691],[133.2621,44.9457,121.0279],[133.3033,44.9841,82.873],[133.3228,45.033,77.0951],[133.3186,45.0523,75.6607],[133.2732,45.0708,73.0633],[133.2092,45.1108,68.6872],[133.1804,45.1791,69.6283],[133.1584,45.2177,66.9875],[133.1287,45.2518,66.7583],[133.1086,45.2708,66.2845],[133.0967,45.2717,65.8148],[133.0908,45.2637,65.7754],[133.0875,45.2523,65.7944],[133.0852,45.2362,68.0109],[133.0885,45.2322,67.3984],[133.0959,45.2315,66.3607],[133.1036,45.2267,65.9453],[133.1181,45.2021,66.2646],[133.1186,45.1969,66.7759],[133.1238,45.1874,67.0309],[133.1255,45.1761,66.924],[133.1201,45.162,67.1977],[133.1227,45.158,67.1617],[133.128,45.1551,67.1178],[133.13,45.149,67.0753],[133.1275,45.1443,67.1877],[133.1304,45.1367,66.9396],[133.1352,45.1312,67.5576],[133.1356,45.1271,67.0446],[133.131,45.1212,67.3543],[133.1149,45.1221,67.4131],[133.1048,45.1206,67.5291],[133.0916,45.1056,67.5912],[133.0801,45.0953,67.6407],[133.0723,45.0929,68.0913],[133.0649,45.0946,67.8837],[133.0595,45.0903,67.8709],[133.054,45.0782,68.2431],[133.0352,45.0686,68.2142],[133.0355,45.065,68.1139],[133.0286,45.0528,68.4875],[133.0023,45.0377,68.896],[132.9958,45.0374,69.0221],[132.9885,45.0459,68.9722],[132.985,45.0447,68.4786],[132.981,45.0399,68.514],[132.9805,45.0301,68.8468],[132.975,45.0262,69.3155],[132.9727,45.0199,69.5271],[132.9636,45.0241,69.0004],[132.9556,45.0238,68.4434],[132.9489,45.0173,69.3818],[132.942,45.0134,69.1862],[132.9367,45.0157,69.2287],[132.9375,45.0229,68.83],[132.935,45.0265,69.0318],[132.8951,45.0334,69.759],[132.8883,45.0367,69.7803],[132.8687,45.0528,70.1355],[132.852,45.0557,70.8593],[132.6969,44.6901,70.1913],[132.5906,44.5848,69.5512]],
[[132.8068,44.546,126.1325],[132.8019,44.5455,120.6378],[132.7941,44.5501,121.9055],[132.7933,44.5537,118.3614],[132.7979,44.5584,110.6302],[132.8072,44.5589,127.0248],[132.8116,44.5572,144.1212],[132.8137,44.5524,147.0628],[132.8118,44.5482,137.2455],[132.8068,44.546,126.1325]]]]}}