{"type":"Feature","properties":{"GID_3":"RUS.83.10.1_1","GID_0":"RUS","country":"Russia","GID_1":"RUS.83_1","province":"Zabaykal'ye","NL_NAME_1":"Забайкальскийкрай","GID_2":"RUS.83.10_1","county":"Chitinskiyrayon","NL_NAME_2":"Читинскийрайон","city":"NA","VARNAME_3":"NA","NL_NAME_3":"NA","TYPE_3":"NA","ENGTYPE_3":"NA","CC_3":"NA","HASC_3":"NA","name":"N_A.city"},
"geometry":{"type": "MultiPolygon","coordinates": [[[[111.4607,51.893,1359.8158],[111.4927,51.9047,1484.6622],[111.537,51.8736,1281.2142],[111.5316,51.8175,1126.7075],[111.555,51.7933,1125.1793],[111.6092,51.7791,1103.3213],[111.6461,51.7506,969.8599],[111.6391,51.704,1048.4189],[111.6105,51.6568,881.0027],[111.6306,51.6176,995.4204],[111.5926,51.5847,1102.8513],[111.566,51.558,994.9182],[111.5575,51.5143,1046.2881],[111.5568,51.4686,1081.5576],[111.6024,51.461,973.5522],[111.6672,51.4646,1007.6395],[111.7121,51.4645,1087.7734],[111.7415,51.448,1066.9634],[111.7998,51.4475,1199.1576],[111.8401,51.4279,1238.4253],[111.9022,51.3906,1338.1997],[111.9911,51.4333,1412.8741],[112.0545,51.4616,1212.5647],[112.1,51.4889,1253.7681],[112.1628,51.5181,1194.6423],[112.216,51.5721,1170.8794],[112.3417,51.595,1181.9731],[112.3971,51.5459,1193.2305],[112.4499,51.538,1056.8711],[112.4968,51.5783,1183.2683],[112.5592,51.6387,1051.9927],[112.701,51.7182,1101.0361],[112.7816,51.7201,1205.801],[112.8529,51.7079,993.749],[112.897,51.6619,844.0546],[112.9471,51.6398,774.811],[113.031,51.6212,681.4441],[113.1473,51.6033,917.7516],[113.1842,51.6197,981.4534],[113.2224,51.5856,913.3533],[113.2366,51.5334,981.3214],[113.2067,51.479,991.7889],[113.1596,51.4294,899.2827],[113.1022,51.383,916.9705],[113.0523,51.3298,978.5831],[113.0454,51.2705,969.9982],[113.003,51.2182,1025.8635],[112.9591,51.168,1020.9176],[112.9207,51.1419,859.0352],[112.8692,51.1337,1021.6214],[112.8186,51.1283,1000.7482],[112.752,51.1405,1105.2603],[112.762,51.0463,1080.3357],[112.7711,50.9809,1107.9041],[112.9052,50.9274,1076.5543],[112.9621,50.9407,1273.8605],[112.9786,50.9772,1376.3416],[113.0045,50.9904,1135.283],[113.1086,51.0055,1252.2913],[113.1938,51.0344,1202.6975],[113.2221,51.0847,1226.1377],[113.2482,51.1245,906.0422],[113.3189,51.1052,1022.0508],[113.3809,51.1215,1154.8201],[113.3814,51.1688,859.8431],[113.391,51.2031,1046.4541],[113.41,51.2476,837.6613],[113.4571,51.2943,780.6803],[113.5134,51.3646,966.1014],[113.5646,51.4001,907.3242],[113.6002,51.5119,879.2159],[113.609,51.5642,757.3942],[113.6432,51.577,803.8936],[113.6753,51.6043,845.0366],[113.7065,51.683,761.9013],[113.7398,51.7016,723.2594],[113.7795,51.7108,770.4998],[113.8377,51.7129,820.5165],[114.0596,51.7051,746.7111],[114.1406,51.724,695.7257],[114.1866,51.7522,839.2673],[114.2499,51.7846,766.5081],[114.2741,51.827,912.2344],[114.2411,51.8541,1098.9166],[114.1961,51.8865,960.2456],[114.1765,51.9241,808.9818],[114.2036,51.9462,958.97],[114.25,51.9694,1015.795],[114.2835,52.0124,1128.2482],[114.2863,52.0536,1034.3871],[114.3363,52.0782,966.3079],[114.3883,52.113,897.7174],[114.4138,52.1531,926.6427],[114.4072,52.2936,877.4602],[114.4389,52.3469,908.7878],[114.46,52.4129,1014.4626],[114.4418,52.4736,982.0718],[114.4313,52.5634,982.2144],[114.4451,52.6096,950.5421],[114.5029,52.6152,952.9653],[114.5397,52.6367,1055.2085],[114.5723,52.6831,1029.7739],[114.5785,52.7217,1214.7476],[114.5822,52.7681,1222.3389],[114.5523,52.8106,1229.4409],[114.4873,52.8368,1321.6387],[114.4746,52.9079,1265.9897],[114.4862,52.9579,1282.5316],[114.5043,53.0239,1179.459],[114.5042,53.0791,1400.1309],[114.4717,53.0684,1327.3186],[114.4,53.0775,1256.0792],[114.3026,53.0844,1092.0258],[114.2624,53.0778,1202.1953],[114.325,53.0657,1218.479],[114.3014,53.0436,1259.2072],[114.2921,52.9398,1151.5999],[114.2814,52.9291,1159.2197],[114.2497,52.9268,1323.4814],[114.234,52.822,1250.6899],[114.1179,52.7269,1323.0946],[114.0659,52.6775,1293.2495],[114.0285,52.6572,1241.541],[113.9002,52.648,1150.3347],[113.774,52.6271,1136.5017],[113.6934,52.5748,1117.1749],[113.6523,52.5426,1171.3622],[113.6146,52.5006,1035.0168],[113.5659,52.4759,1039.6881],[113.4824,52.483,1098.0652],[113.3706,52.4749,951.1299],[113.2336,52.4606,1039.1248],[113.1245,52.4472,1048.4624],[113.0607,52.4271,1107.179],[112.9826,52.3853,1106.3796],[112.9256,52.3445,1160.2701],[112.8235,52.3495,1143.0579],[112.7135,52.3637,1050.3964],[112.6018,52.3554,1206.4092],[112.5186,52.3334,1158.5703],[112.481,52.289,1108.8679],[112.4534,52.2452,1175.2367],[112.4075,52.2318,1177.6591],[112.3279,52.2299,1204.8441],[112.2598,52.2557,1101.2329],[112.1929,52.2597,1155.9598],[112.1679,52.2767,1180.9092],[112.1505,52.2946,1226.7161],[112.057,52.2791,1154.9242],[112.0356,52.2383,1141.8999],[111.9631,52.2156,1142.8457],[111.9043,52.1781,1198.3848],[111.8395,52.112,1110.5226],[111.744,52.0465,1476.2981],[111.6699,51.9756,1424.4127],[111.6214,51.9404,1132.4473],[111.5431,51.9256,1376.3318],[111.4607,51.893,1359.8158]],
[[113.4389,52.0652,650.6567],[113.3854,52.055,653.8669],[113.3525,52.0642,691.4158],[113.3639,52.0987,704.6724],[113.4005,52.1117,667.3276],[113.4377,52.1013,658.2621],[113.4389,52.0652,650.6567]]]]}}