{"type":"Feature","properties":{"GID_2":"RUS.35.36_1","GID_0":"RUS","country":"Russia","GID_1":"RUS.35_1","province":"Krasnoyarsk","NL_NAME_1":"Красноярскийкрай","county":"Minusinsk","VARNAME_2":"NA","NL_NAME_2":"Минусинск","TYPE_2":"Gorsovet","ENGTYPE_2":"District","CC_2":"NA","HASC_2":"RU.KY.MG","name":"Minusinsk.county"},
"geometry":{"type": "MultiPolygon","coordinates": [[[[91.7098,53.7309,269.0936],[91.719,53.7518,317.2185],[91.6828,53.7716,335.2609],[91.6537,53.7695,442.1568],[91.6452,53.7573,461.9239],[91.6486,53.7409,397.29],[91.6612,53.7281,285.2674],[91.6889,53.725,262.5128],[91.7098,53.7309,269.0936]]]]}}