{"type":"Feature","properties":{"GID_3":"RUS.2.39.1_1","GID_0":"RUS","country":"Russia","GID_1":"RUS.2_1","province":"Altay","NL_NAME_1":"Алтайскийкрай","GID_2":"RUS.2.39_1","county":"Romanovskiyrayon","NL_NAME_2":"Романовскийрайон","city":"NA","VARNAME_3":"NA","NL_NAME_3":"NA","TYPE_3":"NA","ENGTYPE_3":"NA","CC_3":"NA","HASC_3":"NA","name":"N_A.city"},
"geometry":{"type": "MultiPolygon","coordinates": [[[[81.3885,52.874,188.3008],[81.3279,52.8564,181.5708],[81.1894,52.8211,174.4241],[81.1367,52.8035,175.0933],[81.0758,52.8155,165.0083],[81.0559,52.8016,168.168],[81.0643,52.7719,174.6225],[81.0195,52.7546,176.6527],[80.9693,52.7543,172.5819],[80.8226,52.699,178.3357],[80.7732,52.6722,181.8049],[80.7602,52.6481,188.8686],[80.7676,52.6021,198.2961],[80.7427,52.5768,205.267],[80.6756,52.5515,216.2302],[80.6788,52.5047,226.5916],[80.6916,52.4701,222.3511],[80.719,52.4371,261.5114],[80.7625,52.4251,284.9536],[80.8087,52.4229,274.8215],[80.8359,52.3966,256.2624],[80.832,52.3732,248.168],[80.8368,52.3418,228.4962],[80.8927,52.3168,215.9037],[80.9632,52.3408,210.5517],[81.0016,52.3732,210.5462],[81.0576,52.3699,205.0498],[81.0863,52.3334,214.7664],[81.142,52.3877,215.643],[81.1799,52.4152,223.0436],[81.221,52.4554,199.5141],[81.278,52.5013,197.0571],[81.3368,52.4927,198.5],[81.3838,52.5339,201.4481],[81.4407,52.5777,213.7995],[81.511,52.6068,199.1628],[81.5321,52.6311,219.2267],[81.5186,52.6562,202.4297],[81.5224,52.6776,201.5],[81.5686,52.6987,206.4417],[81.514,52.7865,231.2473],[81.4814,52.7922,230.8566],[81.4382,52.7811,226.7037],[81.424,52.8201,215.1296],[81.3885,52.874,188.3008]]]]}}