{"type":"Feature","properties":{"GID_2":"RUS.35.27_1","GID_0":"RUS","country":"Russia","GID_1":"RUS.35_1","province":"Krasnoyarsk","NL_NAME_1":"Красноярскийкрай","county":"Karatuzskiyrayon","VARNAME_2":"NA","NL_NAME_2":"Каратузскийрайон","TYPE_2":"Raion","ENGTYPE_2":"District","CC_2":"R62091","HASC_2":"RU.KY.KA","name":"Karatuzskiyrayon.county"},
"geometry":{"type": "MultiPolygon","coordinates": [[[[94.0639,52.8123,1634.5745],[94.1347,52.8835,1099.9417],[94.2494,52.9202,1064.3192],[94.3894,52.9223,1254.8591],[94.4669,52.9365,1723.4097],[94.5179,53.0089,882.5779],[94.5345,53.1161,842.3412],[94.5707,53.2177,826.4131],[94.6477,53.2528,1175.1335],[94.6479,53.2884,1347.2808],[94.5661,53.3345,1528.8333],[94.6667,53.3872,982.3407],[94.6399,53.405,835.8218],[94.5983,53.4239,726.0831],[94.5519,53.4297,710.6584],[94.4942,53.4341,1019.0903],[94.4471,53.4608,964.1117],[94.4216,53.4887,1018.9196],[94.3811,53.5112,939.4074],[94.2248,53.4918,1456.5989],[94.1546,53.4897,1632.2614],[94.0967,53.5167,819.2556],[94.0677,53.5607,954.8657],[94.0292,53.5878,1044.5865],[93.9785,53.6068,850.0796],[93.8984,53.6159,1073.7195],[93.8583,53.6693,801.4426],[93.8357,53.6954,1212.7924],[93.7594,53.6982,1268.5325],[93.6543,53.7185,622.7579],[93.5988,53.7671,422.6208],[93.5752,53.8324,467.9065],[93.527,53.8833,441.1085],[93.4206,53.8978,758.5069],[93.3588,53.8784,852.4491],[93.2938,53.847,468.02],[93.2772,53.8203,395.8564],[93.2342,53.8103,377.2993],[93.1742,53.8156,315.2546],[93.141,53.829,316.4783],[93.0859,53.8647,342.2049],[93.0044,53.8859,361.004],[92.8735,53.8818,405.5424],[92.7909,53.8534,381.4666],[92.7148,53.8244,398.9554],[92.6667,53.8247,343.281],[92.62,53.8435,284.902],[92.58,53.8553,274.9327],[92.5125,53.8515,507.0541],[92.536,53.7983,284.4666],[92.5065,53.7862,329.944],[92.4535,53.7806,295.8192],[92.4204,53.7984,300.1112],[92.4107,53.7703,332.4716],[92.362799999999993,53.7549,388.0461],[92.3887,53.7211,370.3768],[92.4344,53.7015,402.996],[92.4908,53.6836,397.8758],[92.3758,53.6424,459.7118],[92.379,53.6061,489.2337],[92.3028,53.5951,447.5025],[92.2654,53.5685,372.0426],[92.299,53.5481,436.744],[92.3445,53.5377,495.8521],[92.4072,53.5449,482.4719],[92.4716,53.5321,469.8954],[92.5372,53.4819,488.294],[92.5892,53.4315,442.8825],[92.6344,53.3752,445.7534],[92.6691,53.3254,305.3434],[92.7287,53.2938,350.0522],[92.7925,53.3028,304.5134],[92.8881,53.3075,433.493],[92.9546,53.2963,384.3654],[93.0145,53.2775,389.9571],[93.1555,53.2822,427.7273],[93.2157,53.2549,391.6392],[93.2508,53.2215,364.2318],[93.2464,53.1955,379.1456],[93.2201,53.1673,401.197],[93.185,53.1439,392.3913],[93.1892,53.1112,469.2521],[93.2436,53.0405,904.1758],[93.2691,52.9688,686.3768],[93.295,52.9181,800.3183],[93.2995,52.8799,1096.937],[93.325,52.8475,1511.1869],[93.3712,52.8266,1810.5055],[93.4347,52.8233,1717.306],[93.4795,52.8518,1717.5452],[93.4866,52.8872,1021.6804],[93.5005,52.9036,1441.4279],[93.5452,52.9055,1497.9946],[93.6168,52.9007,1451.2585],[93.6871,52.8894,1321.5413],[93.7551,52.8953,1473.6436],[93.8186,52.9138,1695.0157],[93.8887,52.9106,1549.9258],[93.9303,52.9057,1590.2563],[93.9565,52.866,1545.7825],[94.0055,52.8256,1641.022],[94.0639,52.8123,1634.5745]]]]}}