{"type":"Feature","properties":{"GID_2":"RUS.12.1_1","GID_0":"RUS","country":"Russia","GID_1":"RUS.12_1","province":"Chukot","NL_NAME_1":"ЧукотскийАОк","county":"Anadyrskiyrayon","VARNAME_2":"NA","NL_NAME_2":"Анадырскийрайон","TYPE_2":"Raion","ENGTYPE_2":"District","CC_2":"R70010","HASC_2":"RU.CK.AR","name":"Anadyrskiyrayon.county"},
"geometry":{"type": "MultiPolygon","coordinates": [[[[178.6292,64.5792,0.0],[178.6375,64.5833,2.9472],[178.6521,64.5854,0.0],[178.6568,64.5891,2.7369],[178.6646,64.5896,0.0],[178.6662,64.5911,0.0],[178.6625,64.5938,0.0],[178.6526,64.5911,0.9422],[178.65,64.5875,1.9475],[178.6354,64.5875,0.0],[178.6146,64.5813,1.2788],[178.5979,64.5833,1.869],[178.5938,64.5854,0.0],[178.5833,64.5854,1.8184],[178.5792,64.5875,0.0],[178.5688,64.5875,1.0916],[178.5604,64.5833,1.8548],[178.5526,64.5828,0.0],[178.5479,64.5792,1.3538],[178.5255,64.5787,0.0],[178.5328,64.5745,0.0],[178.5328,64.5714,0.0],[178.5255,64.5703,1.4437],[178.5208,64.5667,0.0],[178.5213,64.5651,0.0],[178.5292,64.5646,2.1551],[178.5396,64.5604,0.0],[178.5542,64.5604,0.0],[178.5583,64.5625,2.9822],[178.5729,64.5646,0.0],[178.5813,64.5687,0.0],[178.6,64.5708,0.0],[178.6182,64.5755,0.0],[178.625,64.5792,2.8817],[178.6292,64.5792,0.0]]],
[[[178.688,64.6099,0.0],[178.688,64.6088,0.0],[178.6911,64.6088,0.0],[178.6911,64.6099,2.0379],[178.688,64.6099,0.0]]],
[[[178.6859,64.6141,1.9934],[178.6859,64.613,1.8262],[178.6891,64.613,2.2552],[178.6891,64.6141,2.1365],[178.6859,64.6141,1.9934]]],
[[[178.7884,64.6292,1.1605],[178.7896,64.6292,1.1605],[178.7896,64.6312,2.7699],[178.7688,64.6312,0.0],[178.7646,64.6292,2.114],[178.7583,64.6292,1.2744],[178.7526,64.6266,0.0],[178.7536,64.6234,2.3071],[178.7495,64.6214,3.2505],[178.7375,64.6208,1.4336],[178.7292,64.6167,2.2021],[178.7208,64.6167,0.0],[178.7109,64.6109,2.3703],[178.7188,64.6104,0.0],[178.7312,64.6146,3.4579],[178.7417,64.6146,0.0],[178.7542,64.6188,2.5667],[178.7667,64.6208,0.0],[178.7693,64.6245,3.7735],[178.7884,64.6292,1.1605]]],
[[[177.6229,64.4708,0.0],[177.6214,64.4693,0.0],[177.6245,64.4693,0.0],[177.6245,64.4703,0.0],[177.6229,64.4708,0.0]]],
[[[178.2604,64.6354,1.3919],[178.2589,64.6339,1.3262],[178.2813,64.6333,0.0],[178.287,64.637,1.5836],[178.2833,64.6375,0.0],[178.2792,64.6354,2.5388],[178.2604,64.6354,1.3919]]],
[[[178.2437,64.6375,0.9186],[178.2422,64.6359,1.5894],[178.2557,64.6359,0.8639],[178.2542,64.6375,0.0],[178.2437,64.6375,0.9186]]],
[[[176.4646,65.0521,0.0],[176.4583,65.0521,1.1766],[176.4521,65.0542,0.0],[176.4464,65.0505,0.0],[176.4563,65.0458,0.0],[176.4604,65.0479,0.778],[176.4667,65.0458,0.0],[176.4724,65.0484,0.6828],[176.4646,65.0521,0.0]]],
[[[178.788,64.6339,0.0],[178.7896,64.6312,2.7699],[178.7958,64.6312,0.0],[178.8068,64.637,2.4134],[178.8161,64.638,0.0],[178.8208,64.6417,2.3732],[178.8271,64.6417,0.0],[178.8338,64.6453,0.0],[178.8411,64.6464,0.0],[178.8505,64.6516,2.238],[178.8578,64.6526,0.0],[178.8589,64.6557,0.5],[178.8662,64.6568,0.0],[178.8771,64.6625,2.3699],[178.8828,64.663,0.0],[178.9005,64.6724,1.5227],[178.9078,64.6734,0.0],[178.9214,64.6807,13.0637],[178.9287,64.6818,0.0],[178.9276,64.6849,15.3624],[178.9354,64.6854,0.0],[178.9505,64.6932,8.0869],[178.9578,64.6943,0.0],[178.9568,64.6974,11.5263],[178.9661,64.6984,0.0],[178.9859,64.7099,19.4469],[178.9953,64.7109,0.0],[178.9984,64.7141,0.0],[179.0151,64.7224,27.3416],[179.0224,64.7234,0.0],[179.0292,64.7271,5.372],[179.0354,64.7271,0.0],[179.0562,64.7354,0.0],[179.062,64.7359,0.0],[179.0771,64.7438,19.812],[179.0875,64.7438,0.0],[179.0917,64.7458,0.0],[179.0958,64.7458,0.0],[179.1068,64.7516,3.5662],[179.1266,64.7568,0.0],[179.1333,64.7604,17.2715],[179.1438,64.7604,0.0],[179.1479,64.7625,3.9257],[179.1625,64.7625,0.0],[179.1667,64.7646,6.1088],[179.1812,64.7646,0.0],[179.1854,64.7667,18.6258],[179.1896,64.7646,0.0],[179.1938,64.7667,7.2748],[179.2042,64.7667,0.0],[179.2167,64.7708,7.327],[179.2229,64.7708,0.0],[179.2297,64.7745,0.0],[179.2396,64.7771,24.8871],[179.2542,64.7771,0.0],[179.2625,64.7813,23.1212],[179.2667,64.7813,0.0],[179.2792,64.7854,0.0],[179.2896,64.7854,0.0],[179.2937,64.7875,10.6594],[179.3188,64.7875,0.0],[179.3229,64.7896,5.3158],[179.3562,64.7896,0.0],[179.3604,64.7917,9.7331],[179.3667,64.7896,0.0],[179.3708,64.7917,0.0],[179.3896,64.7917,0.0],[179.3938,64.7937,4.549],[179.4146,64.7937,0.0],[179.4187,64.7958,5.8056],[179.4271,64.7958,0.0],[179.4312,64.7979,6.6469],[179.4604,64.7979,0.0],[179.4646,64.8,27.4381],[179.4682,64.7995,23.6544],[179.4693,64.7963,0.0],[179.4771,64.7937,0.0],[179.4917,64.7937,0.0],[179.4958,64.7958,0.0],[179.5063,64.7958,0.0],[179.5104,64.7979,10.6432],[179.5229,64.8,0.0],[179.5245,64.8016,0.0],[179.5213,64.8037,1.9972],[179.5245,64.8047,0.0],[179.5234,64.8078,2.5549],[179.5328,64.8089,0.0],[179.5318,64.812,0.0],[179.5349,64.813,0.0],[179.5359,64.8161,4.1079],[179.5474,64.8214,0.0],[179.5464,64.8245,18.2525],[179.5745,64.838,0.0],[179.5755,64.8411,1.9602],[179.5797,64.8432,0.0],[179.5854,64.8438,0.0],[179.5911,64.8464,0.0],[179.5901,64.8495,10.9945],[179.6057,64.8568,0.0],[179.6068,64.8599,20.0244],[179.6125,64.8625,13.4938],[179.6182,64.863,0.0],[179.6516,64.8797,0.0],[179.6526,64.8828,0.0],[179.6583,64.8854,21.1926],[179.6641,64.8859,0.0],[179.6651,64.8891,0.0],[179.6818,64.8974,6.2458],[179.6891,64.8984,0.0],[179.6922,64.9036,32.4551],[179.7,64.9042,0.0],[179.7085,64.9084,0.0],[179.6847,64.9264,35.2765],[179.4707,64.9384,130.6793],[179.3621,64.9293,115.1992],[179.1932,64.9258,125.167],[179.1218,64.9497,144.3512],[179.1569,64.9779,142.7334],[179.0909,65.0149,105.4683],[179.0962,65.0469,76.4205],[179.0357,65.0719,62.7937],[179.0033,65.0567,83.932],[178.9995,65.0259,84.7852],[178.8974,65.0047,104.321],[178.7603,64.9943,184.12],[178.6309,64.9906,187.237],[178.486,64.999,98.4304],[178.3958,65.0478,63.0029],[178.2491,65.0481,35.4912],[178.1259,65.0718,44.1927],[178.0316,65.1125,74.3659],[178.04,65.1494,54.7319],[178.1087,65.1847,99.5949],[178.1382,65.2161,56.2133],[178.1179,65.2508,52.5],[178.0699,65.2819,62.6187],[178.1194,65.3066,76.5881],[178.2123,65.3315,91.5941],[178.3515,65.3651,134.285],[178.5241,65.4189,180.3196],[178.6745,65.4546,257.8077],[178.6867,65.5021,208.721],[178.7659,65.5877,193.2418],[178.8639,65.6014,153.2408],[179.0393,65.6294,181.4042],[179.1363,65.6717,124.6003],[179.2457,65.7377,163.6537],[179.3009,65.7935,140.8869],[179.3457,65.8585,140.5473],[179.3567,65.8925,129.4698],[179.2512,65.9192,151.0544],[179.1718,65.963,160.1989],[179.0765,66.0457,100.8481],[179.0705,66.0851,102.3764],[179.0368,66.1418,276.1556],[179.0175,66.1889,122.5227],[179.0463,66.2185,123.7983],[179.1088,66.242,188.9144],[179.0806,66.2648,139.5847],[179.0453,66.3081,281.7464],[179.0533,66.3563,473.3851],[179.1217,66.3879,273.1313],[179.0717,66.4125,420.2459],[179.0064,66.43,278.8824],[178.8191,66.3961,359.8701],[178.7233,66.4053,477.9887],[178.5751,66.387,320.9571],[178.5105,66.4019,376.4111],[178.5507,66.4253,628.8142],[178.6517,66.4577,595.0565],[178.6987,66.4927,540.2726],[178.7085,66.5417,547.9669],[178.6593,66.5745,467.2576],[178.6845,66.6083,629.818],[178.6243,66.6266,509.7064],[178.5691,66.6143,496.3423],[178.4844,66.6603,403.1049],[178.528,66.7095,352.803],[178.4442,66.7321,564.0675],[178.4187,66.7217,541.2719],[178.3381,66.7026,395.5461],[178.218,66.685,387.2979],[178.1761,66.6697,430.5037],[178.2065,66.6287,340.4934],[178.1733,66.5981,344.4924],[178.1057,66.6145,448.2807],[178.0553,66.643,427.8741],[178.0165,66.679,431.6973],[177.9342,66.6794,449.5129],[177.8968,66.6532,560.6435],[177.8307,66.6511,426.1702],[177.7269,66.659,507.5114],[177.6606,66.684,355.7645],[177.6484,66.7136,386.5238],[177.6238,66.7364,410.2381],[177.5457,66.742,597.6526],[177.4565,66.7463,755.0499],[177.3815,66.7536,567.5443],[177.3069,66.7824,388.5863],[177.1643,66.7813,355.3641],[177.0711,66.7877,220.2297],[176.9772,66.842,281.67],[176.977,66.8908,376.42],[177.0375,66.9181,644.454],[177.1079,66.9317,314.1533],[177.1629,66.9565,396.2782],[177.1116,66.9805,476.7951],[177.0384,66.9926,653.3105],[176.9669,66.9767,389.8591],[176.8673,66.9745,683.0135],[176.8445,66.9869,432.9006],[176.7672,67.0459,537.7929],[176.734,67.1355,633.1984],[176.7428,67.198,477.6544],[176.7345,67.2727,721.2451],[176.6841,67.2918,908.6523],[176.5617,67.2829,1107.7465],[176.4745,67.2653,937.2437],[176.3496,67.2815,770.1602],[176.329,67.3199,617.9255],[176.4018,67.3582,758.2343],[176.4106,67.3693,932.4268],[176.2581,67.3666,550.392],[176.1561,67.3793,346.3152],[176.059,67.4169,541.751],[175.9715,67.4272,452.3225],[175.8494,67.4188,606.8378],[175.7053,67.4112,914.4573],[175.5919,67.4118,739.0394],[175.4479,67.4677,661.7911],[175.2322,67.5169,609.7028],[175.0103,67.5561,568.6684],[174.8576,67.5713,440.0658],[174.7004,67.599,626.2101],[174.654,67.6403,404.1476],[174.7368,67.6859,433.9415],[174.857,67.7094,823.486],[175.0767,67.7142,519.7566],[175.1423,67.7454,690.4836],[175.0847,67.7865,718.1724],[174.9602,67.8115,790.5519],[174.8134,67.8177,693.6285],[174.6596,67.8068,814.3513],[174.5703,67.8303,670.7546],[174.5502,67.8794,560.5112],[174.6445,67.9641,758.4834],[174.714,68.038,625.7297],[174.6784,68.0924,875.0262],[174.5594,68.154,1083.6776],[174.4181,68.1851,651.8961],[174.2671,68.1897,771.6744],[174.1613,68.1995,668.3311],[174.1004,68.2511,871.2386],[174.0297,68.2253,603.3145],[173.9493,68.1815,526.5228],[173.9773,68.1305,547.3984],[173.8822,68.0954,417.4015],[173.7969,68.0893,391.9727],[173.7231,68.0981,575.6996],[173.6203,68.1061,743.5947],[173.5113,68.0736,830.4622],[173.5645,68.036,475.9604],[173.5279,67.9862,404.6046],[173.5014,67.9456,390.5017],[173.4286,67.8976,427.3364],[173.5006,67.8312,621.9387],[173.5249,67.7897,533.1172],[173.5327,67.7558,736.1329],[173.3304,67.7351,559.5814],[173.1671,67.7271,565.856],[172.7924,67.7152,398.3292],[172.6197,67.7049,456.0567],[172.5311,67.7379,575.2558],[172.4137,67.7383,490.7165],[172.246,67.6784,424.0961],[172.1692,67.6011,507.1683],[172.1556,67.5303,490.438],[172.0761,67.4895,490.2124],[171.9933,67.4588,490.3506],[171.9369,67.4157,639.421],[171.9428,67.3728,554.1036],[171.8783,67.3281,475.1168],[171.7237,67.298,507.8279],[171.6101,67.2958,551.4541],[171.507,67.3107,877.5786],[171.397,67.2741,708.9687],[171.3147,67.2365,731.0247],[171.3595,67.1942,702.321],[171.3689,67.1478,620.9151],[171.2854,67.1231,777.4886],[171.1561,67.1191,861.4475],[171.1007,67.0925,702.5679],[171.0216,67.087,770.952],[170.9638,67.0888,629.1537],[170.9022,67.0608,632.6359],[170.7324,67.0533,741.772],[170.6131,67.0387,593.6358],[170.5155,67.0114,932.1404],[170.4218,66.9775,840.4877],[170.3948,66.9613,699.509],[170.5078,66.9165,607.3604],[170.603,66.8931,659.3842],[170.6964,66.873,650.4245],[170.7217,66.8454,813.6378],[170.6397,66.8281,602.1099],[170.3554,66.8005,527.5236],[170.1688,66.7947,798.6531],[170.0132,66.7797,476.2371],[169.8795,66.8205,680.6322],[169.7506,66.8006,633.4598],[169.6902,66.8309,616.0244],[169.5352,66.8079,630.4332],[169.4359,66.7656,615.4199],[169.3241,66.7467,688.3323],[169.1794,66.7388,639.8538],[169.1285,66.7538,743.1498],[169.0015,66.7434,721.2656],[168.9088,66.7146,581.4985],[168.8349,66.6737,605.4002],[168.8483,66.6377,653.2761],[168.8966,66.6223,775.6859],[168.9898,66.6198,712.2643],[169.05,66.6001,632.9432],[168.9404,66.5892,648.3091],[168.9238,66.5512,747.1224],[168.9407,66.4968,553.8719],[168.9437,66.4605,661.761],[168.8473,66.4152,626.8168],[168.7503,66.3842,521.9097],[168.6311,66.3745,607.8688],[168.5169,66.3843,757.8637],[168.3867,66.3662,684.3761],[168.3,66.3623,645.6791],[168.2051,66.3731,758.8958],[168.121,66.3478,789.8358],[168.0773,66.2905,705.8987],[168.0663,66.2447,591.5978],[168.1048,66.2049,853.1234],[167.9453,66.1806,612.8215],[167.8045,66.1645,804.0018],[167.585,66.2012,749.5597],[167.4509,66.2065,562.2711],[167.3536,66.2377,739.0905],[167.1783,66.2137,663.1266],[167.0313,66.1719,647.9697],[166.9178,66.1365,712.2437],[166.8506,66.1372,617.2091],[166.6942,66.1882,655.6169],[166.5712,66.2166,816.0483],[166.4507,66.2314,684.9072],[166.3205,66.2228,1061.2498],[166.186,66.1773,924.1073],[166.215,66.1202,1077.5284],[166.1239,66.0728,780.9821],[166.0913,66.0196,717.2215],[165.9608,65.9724,731.426],[165.9651,65.9139,1318.0763],[166.0243,65.8795,970.2015],[166.0106,65.8465,681.7028],[165.9339,65.8173,1124.2487],[165.9599,65.775,818.4234],[165.9579,65.7256,983.7985],[165.8096,65.6369,889.9434],[165.7228,65.652,811.4871],[165.6343,65.6256,1200.6626],[165.4591,65.5431,927.4992],[165.4615,65.5224,1044.3932],[165.5146,65.4942,858.4478],[165.5434,65.5025,1014.9838],[165.5772,65.5056,1018.5704],[165.6602,65.4874,1178.3362],[165.6577,65.4451,1037.207],[165.6243,65.3786,1398.5471],[165.5395,65.3249,1268.3386],[165.4612,65.3057,829.623],[165.3852,65.2384,875.1959],[165.2987,65.1525,1189.9142],[165.2679,65.0999,1021.8702],[165.3425,65.0735,846.8898],[165.3732,65.0975,824.2302],[165.4202,65.102,804.1799],[165.5167,65.0859,985.5588],[165.5515,65.0636,1101.7355],[165.5172,65.0291,814.9744],[165.439,64.9868,863.2222],[165.4202,64.9501,813.4999],[165.4361,64.9187,889.0974],[165.4201,64.8982,777.9857],[165.3503,64.8798,767.0025],[165.3057,64.8631,844.4232],[165.2729,64.8375,896.7862],[165.2035,64.798,903.6425],[165.262,64.759,528.5673],[165.2849,64.7232,545.0206],[165.4988,64.7099,824.5295],[165.6529,64.7142,575.371],[165.7074,64.6869,668.4822],[165.7221,64.6351,638.4083],[165.7714,64.5897,782.4216],[165.7625,64.5677,487.794],[165.7336,64.5312,683.2073],[165.8049,64.5124,456.4617],[165.9154,64.5227,646.0919],[166.0182,64.5865,793.6471],[166.1408,64.5647,724.7679],[166.3093,64.5514,522.6624],[166.4106,64.4955,624.4104],[166.4733,64.4715,533.2787],[166.6383,64.4939,715.3062],[166.7624,64.4844,609.9323],[166.9236,64.5132,653.5643],[166.9971,64.554,772.666],[167.0269,64.578,633.5345],[167.0955,64.5874,695.3878],[167.1438,64.5406,724.251],[167.2494,64.4681,672.0349],[167.3527,64.4192,349.7138],[167.5121,64.3839,621.2449],[167.5082,64.3333,395.4724],[167.5258,64.2866,333.4757],[167.5929,64.2741,733.7682],[167.7332,64.2949,692.9936],[167.7513,64.2441,659.9812],[167.8439,64.2305,817.096],[167.9995,64.2481,528.6844],[168.0975,64.2872,643.5217],[168.152,64.2711,853.8602],[168.3424,64.2909,576.3555],[168.378,64.2089,409.0288],[168.4447,64.1674,213.562],[168.6419,64.148,217.9674],[168.6651,64.0521,450.6056],[168.7186,63.9756,348.136],[168.8248,63.9319,241.7247],[168.8627,63.9001,197.6217],[169.0063,63.8862,308.7777],[169.1047,63.8895,311.578],[169.2,63.8678,219.215],[169.1896,63.8099,222.2258],[169.3337,63.7713,134.5545],[169.3596,63.708,200.1654],[169.4083,63.6178,224.3167],[169.4471,63.5808,277.4767],[169.3798,63.5384,513.3704],[169.3906,63.5134,418.4792],[169.2846,63.4734,315.0157],[169.1675,63.4582,531.2162],[169.1136,63.454,352.1463],[169.0288,63.4217,284.5338],[168.9422,63.3517,283.8822],[168.8067,63.3288,281.8223],[168.7619,63.2728,275.1823],[168.681,63.248,211.1646],[168.6827,63.1776,327.579],[168.6293,63.1647,504.5541],[168.5598,63.1143,389.2915],[168.4346,63.1022,316.2818],[168.4001,63.0685,233.9312],[168.3037,63.0516,183.0076],[168.2931,63.0071,338.9353],[168.4328,62.9581,249.6605],[168.5539,62.9384,214.4865],[168.621,62.8913,233.5475],[168.7969,62.8581,268.5191],[168.9528,62.8754,295.8446],[169.1533,62.8165,355.1111],[169.2331,62.7743,389.0034],[169.4207,62.7169,479.4344],[169.4996,62.655,562.9579],[169.539,62.6211,823.6256],[169.6312,62.6231,843.8887],[169.717,62.5847,637.7973],[169.8242,62.5806,642.2062],[169.8644,62.5263,817.0266],[169.8353,62.4527,1100.2975],[169.9368,62.4036,847.7889],[169.9122,62.3626,1130.1311],[169.9906,62.3202,1068.4911],[169.9841,62.2873,1260.1696],[170.0263,62.2593,1158.1062],[170.0296,62.2206,1044.197],[170.0892,62.1967,1093.3743],[170.1605,62.2122,965.5286],[170.221,62.2504,1396.8531],[170.2996,62.2329,1086.8389],[170.4969,62.2127,1131.2244],[170.6083,62.173,860.4435],[170.6984,62.1703,740.5187],[170.7277,62.2046,1000.4019],[170.8203,62.2046,889.5405],[170.9012,62.2173,1031.2622],[170.9046,62.2563,917.9578],[171.0,62.2619,844.5706],[171.0335,62.3065,864.9513],[171.0914,62.32,1128.5104],[171.1244,62.3087,924.6434],[171.1796,62.311,919.5258],[171.2519,62.3165,974.5163],[171.3172,62.3364,678.4102],[171.4458,62.3868,878.046],[171.5398,62.4321,844.6876],[171.9388,62.4837,464.0902],[171.9943,62.5206,731.2176],[172.0941,62.5435,472.6645],[172.1542,62.5399,645.9557],[172.2409,62.5195,479.8633],[172.3315,62.522,371.6046],[172.4356,62.5636,356.1735],[172.5782,62.6043,304.0787],[172.5413,62.6433,350.1964],[172.5837,62.6887,331.4871],[172.7072,62.7054,371.6458],[172.7472,62.7595,515.7573],[172.7286,62.8179,416.8984],[172.7634,62.8435,515.1367],[172.8732,62.8271,376.1486],[172.9479,62.8509,423.2626],[172.9811,62.8822,520.6343],[173.0842,62.8943,412.5886],[173.1345,62.9349,647.062],[173.1961,62.922,593.139],[173.2282,62.8745,305.4017],[173.3073,62.8859,321.4578],[173.3668,62.9253,351.727],[173.3623,62.9823,522.1154],[173.4334,62.9311,443.5468],[173.5112,62.9232,592.6611],[173.5557,62.96,444.2507],[173.6201,62.9455,528.1794],[173.6334,62.9152,562.9998],[173.683,62.9025,356.919],[173.6561,62.8753,447.5166],[173.695,62.8503,339.1075],[173.7791,62.8707,350.3518],[173.79,62.9156,527.2787],[173.8175,62.9481,601.8043],[173.9545,62.9859,719.109],[174.108,63.0177,866.5123],[174.3975,63.033,536.2372],[174.4649,63.0187,672.0679],[174.5421,62.9965,456.24],[174.6206,62.9914,900.6697],[174.7474,63.0138,387.0989],[174.8418,63.0136,649.0471],[174.9314,62.9927,249.8801],[175.0092,63.0258,356.6657],[175.0462,63.0604,219.7704],[175.2477,63.0942,479.8482],[175.3562,63.0601,503.6137],[175.5264,63.0617,826.5168],[175.5787,63.0743,642.2133],[175.5733,63.1185,440.6996],[175.6131,63.1485,660.3967],[175.6937,63.173,658.1742],[175.6405,63.2278,994.2235],[175.7988,63.2594,403.1832],[175.9384,63.2554,305.7572],[176.1108,63.2222,309.7045],[176.2348,63.211,340.2558],[176.2222,63.1722,611.9641],[176.0488,63.132,774.6934],[175.8948,63.0454,591.3902],[175.9281,63.0145,723.8273],[176.02,63.0066,596.3045],[176.1208,63.0136,1258.5555],[176.1919,63.0132,684.6726],[176.2316,62.9953,804.0782],[176.4021,62.9986,616.3044],[176.4619,62.985,887.8376],[176.5383,62.9803,435.5195],[176.5388,62.9382,590.5248],[176.5271,62.8849,298.1986],[176.5906,62.8639,497.3675],[176.6489,62.8891,688.2575],[176.7695,62.9234,666.0992],[176.9137,62.9465,627.5969],[176.9691,62.9658,51.4774],[176.9595,63.0273,618.1589],[177.0272,63.0544,615.306],[177.1384,63.0695,419.3731],[177.1849,63.0444,199.3848],[177.2855,63.0583,250.6586],[177.3565,63.0308,389.8781],[177.4312,63.0447,387.1344],[177.5418,63.0965,582.0475],[177.6045,63.1456,336.6776],[177.6203,63.1877,302.9295],[177.6005,63.2667,588.934],[177.6249,63.3151,256.6638],[177.659,63.3614,205.7451],[177.6322,63.4036,69.1349],[177.5542,63.4376,49.2585],[177.4853,63.4956,34.3713],[177.4856,63.5693,49.5246],[177.5512,63.6419,30.1237],[177.5367,63.6756,40.3243],[177.468,63.7368,7.6413],[177.3408,63.7425,12.3446],[177.2108,63.7249,47.5947],[177.0623,63.6911,46.2134],[176.952,63.6747,38.6815],[176.8259,63.6869,69.024],[176.8015,63.7398,56.8334],[176.8028,63.7796,40.5186],[176.8761,63.8021,40.0553],[176.8551,63.8266,33.415],[176.8941,63.8477,28.9265],[176.9545,63.8736,30.935],[177.0844,63.8809,20.5663],[177.0733,63.8884,22.9381],[177.1564,63.8998,17.3852],[177.3052,63.9108,17.0409],[177.4162,63.9018,23.2341],[177.5264,63.9242,9.5108],[177.578,63.9598,26.5443],[177.5912,64.0003,18.3223],[177.5346,64.0384,23.754],[177.5772,64.0799,12.0614],[177.7179,64.1117,9.6338],[177.8008,64.115,31.1923],[177.7915,64.1656,7.4071],[177.7504,64.2151,6.1042],[177.782,64.2258,6.3341],[177.7413,64.2403,1.9852],[177.6359,64.3258,1.9469],[177.6035,64.35,2.1585],[177.6005,64.3505,2.2725],[177.5952,64.3562,0.0],[177.588,64.3568,2.1928],[177.5849,64.3599,0.0],[177.5797,64.3609,1.9588],[177.5786,64.3641,0.0],[177.5734,64.3651,2.204],[177.5682,64.3745,0.0],[177.5589,64.3755,0.0],[177.5599,64.3807,0.0],[177.5417,64.3875,0.0],[177.5339,64.388,0.0],[177.5328,64.3912,0.0],[177.5276,64.3922,0.0],[177.5229,64.3958,0.0],[177.5047,64.3984,0.0],[177.5016,64.4036,0.0],[177.4859,64.4089,0.0],[177.4807,64.4182,0.0],[177.4734,64.4234,0.0],[177.4745,64.4287,0.0],[177.4682,64.4328,1.726],[177.463,64.4339,1.4376],[177.4661,64.437,0.0],[177.4609,64.438,1.7434],[177.4578,64.4453,0.0],[177.4526,64.4464,0.82],[177.4557,64.4495,0.0],[177.4464,64.4505,1.8021],[177.4495,64.4537,0.0],[177.4443,64.4547,1.4901],[177.4474,64.4578,0.0],[177.4422,64.4589,1.5244],[177.4391,64.4661,0.0],[177.4339,64.4672,1.6181],[177.437,64.4703,0.0],[177.4318,64.4714,1.5891],[177.4224,64.4786,1.5034],[177.4172,64.4797,1.8279],[177.4245,64.4849,0.0],[177.4193,64.4859,1.5395],[177.4224,64.488,0.0],[177.4224,64.4912,0.0],[177.4203,64.4932,0.0],[177.4151,64.4943,2.3429],[177.4182,64.4974,0.0],[177.413,64.4984,2.1669],[177.4167,64.5021,0.0],[177.4125,64.5104,2.2829],[177.4162,64.513,0.0],[177.413,64.5203,2.431],[177.4167,64.5229,0.0],[177.4151,64.5286,2.7164],[177.4203,64.5318,0.0],[177.4193,64.537,0.0],[177.4224,64.538,0.0],[177.4214,64.5432,5.4309],[177.425,64.5458,0.0],[177.4234,64.5495,0.0],[177.4266,64.5505,0.0],[177.4287,64.5547,0.0],[177.4276,64.5599,3.5519],[177.4307,64.562,0.0],[177.4276,64.5641,9.946],[177.4328,64.5672,0.0],[177.4339,64.5703,0.0],[177.437,64.5714,0.0],[177.4359,64.5745,0.0],[177.4391,64.5755,0.0],[177.4417,64.5813,0.0],[177.4401,64.5849,0.0],[177.4438,64.5875,0.0],[177.4422,64.5911,30.7337],[177.4495,64.5964,0.0],[177.4484,64.5995,41.7517],[177.4557,64.6026,0.0],[177.4547,64.6078,6.2749],[177.462,64.6088,0.0],[177.463,64.612,48.9389],[177.4703,64.613,0.0],[177.4771,64.6167,10.3665],[177.487,64.6172,0.0],[177.4859,64.6224,7.6348],[177.4891,64.6234,0.0],[177.4901,64.6266,0.0],[177.4958,64.6292,9.9606],[177.5016,64.6297,0.0],[177.4901,64.6339,0.0],[177.4891,64.637,0.0],[177.4839,64.638,0.0],[177.487,64.6412,0.0],[177.4818,64.6422,0.0],[177.4797,64.6443,15.796],[177.4828,64.6474,0.0],[177.4797,64.6484,16.7634],[177.4812,64.6521,19.8763],[177.4797,64.6557,25.586],[177.487,64.6589,0.0],[177.4818,64.662,19.8232],[177.4891,64.6672,0.0],[177.4875,64.6708,12.7572],[177.4912,64.6734,14.0426],[177.4901,64.6766,14.9581],[177.4974,64.6797,0.0],[177.4964,64.6828,6.9987],[177.4995,64.6839,4.7521],[177.5005,64.687,0.0],[177.5078,64.6901,0.0],[177.5068,64.6932,0.0],[177.5099,64.6943,0.0],[177.5089,64.6974,9.8653],[177.5161,64.7026,0.0],[177.5151,64.7057,12.151],[177.5182,64.7068,7.3197],[177.5193,64.7099,0.0],[177.5224,64.7109,0.0],[177.5213,64.7141,9.4647],[177.5286,64.7151,0.0],[177.5286,64.7182,0.0],[177.525,64.725,6.3269],[177.5255,64.7266,3.2585],[177.5313,64.7271,8.028],[177.537,64.7297,0.0],[177.5318,64.7318,0.0],[177.5349,64.7349,1.7658],[177.5229,64.7354,17.4172],[177.5083,64.7396,5.4487],[177.4854,64.7396,70.3577],[177.4812,64.7417,0.0],[177.4771,64.7396,36.0795],[177.4438,64.7396,0.0],[177.4375,64.7375,6.5513],[177.4333,64.7396,0.0],[177.4187,64.7396,6.9685],[177.4125,64.7438,0.0],[177.4021,64.7438,16.7635],[177.3917,64.7479,0.0],[177.3792,64.7479,17.4256],[177.3646,64.7521,0.0],[177.3542,64.7521,0.0],[177.3443,64.7495,17.4029],[177.3359,64.7453,0.0],[177.337,64.7422,17.1381],[177.3354,64.7417,24.1725],[177.3292,64.7417,0.0],[177.3208,64.7375,9.737],[177.3167,64.7375,0.0],[177.3125,64.7354,16.1812],[177.3042,64.7354,0.0],[177.2974,64.7318,11.8192],[177.2901,64.7307,0.0],[177.2641,64.7172,8.6821],[177.2583,64.7167,0.0],[177.2474,64.7109,0.0],[177.2401,64.7099,0.0],[177.2312,64.7042,37.0647],[177.2208,64.7042,0.0],[177.2167,64.7021,13.0194],[177.2021,64.7021,0.0],[177.1896,64.6979,26.6047],[177.1687,64.6979,8.3175],[177.1542,64.7021,0.0],[177.15,64.7,10.8126],[177.1354,64.7,0.0],[177.1292,64.6979,23.1412],[177.125,64.7,0.0],[177.1172,64.7005,8.7218],[177.1104,64.7042,0.0],[177.0938,64.7042,17.0368],[177.0875,64.7063,0.0],[177.0786,64.7005,8.7802],[177.0693,64.6995,0.0],[177.062,64.6943,20.6271],[177.0547,64.6932,0.0],[177.0464,64.6891,21.4257],[177.0453,64.6859,32.1621],[177.0391,64.6818,29.9948],[177.0151,64.6703,0.0],[177.012,64.6672,0.0],[177.0047,64.6641,0.0],[177.0036,64.6609,28.6209],[176.9964,64.6599,0.0],[176.9766,64.6484,7.782],[176.9708,64.6479,0.0],[176.9599,64.6422,1.4533],[176.9526,64.6412,0.0],[176.9359,64.6328,1.3294],[176.9297,64.6286,0.0],[176.9287,64.6255,0.0],[176.913,64.6224,0.0],[176.9089,64.6203,0.0],[176.9099,64.6172,11.7912],[176.8901,64.6078,0.0],[176.887,64.6047,17.0606],[176.8776,64.6036,0.0],[176.8786,64.6005,7.4222],[176.8651,64.5932,1.2013],[176.8667,64.5875,0.558],[176.863,64.5839,0.0],[176.8667,64.5771,2.5255],[176.863,64.5745,0.0],[176.8641,64.5714,4.3818],[176.8464,64.5682,0.0],[176.8401,64.5641,0.0],[176.8391,64.5609,0.7179],[176.8245,64.5526,1.4427],[176.8062,64.5479,0.0],[176.8,64.5479,0.0],[176.7896,64.5417,0.0],[176.7854,64.5417,0.0],[176.7813,64.5396,0.0],[176.7708,64.5396,0.0],[176.7667,64.5375,0.0],[176.7589,64.5401,1.5668],[176.7568,64.5453,1.5659],[176.7599,64.5474,0.0],[176.7578,64.5516,0.0],[176.7526,64.5526,1.5119],[176.7557,64.5557,0.0],[176.7505,64.5568,1.5786],[176.7474,64.5641,0.0],[176.7422,64.5651,1.4517],[176.7453,64.5682,0.0],[176.7432,64.5703,0.0],[176.738,64.5714,1.3837],[176.7328,64.5828,0.0],[176.7276,64.5839,2.204],[176.7307,64.5859,0.0],[176.7287,64.5911,0.0],[176.7234,64.5922,2.252],[176.7203,64.5953,0.0],[176.7109,64.5984,1.773],[176.7078,64.6016,0.0],[176.7026,64.6026,2.0037],[176.6995,64.6099,0.0],[176.6943,64.6109,1.9295],[176.6953,64.6162,0.0],[176.6859,64.6172,2.1681],[176.6849,64.6203,0.0],[176.6797,64.6214,0.0],[176.6766,64.6245,1.2565],[176.6672,64.6255,1.597],[176.6662,64.6286,0.0],[176.6422,64.6359,1.6955],[176.6396,64.6396,0.0],[176.6333,64.6396,1.6512],[176.6167,64.6458,0.0],[176.6104,64.6458,1.4243],[176.5964,64.6505,1.2631],[176.5938,64.6542,0.0],[176.5734,64.6568,1.762],[176.563,64.6609,0.0],[176.5583,64.6646,0.0],[176.5521,64.6646,2.2178],[176.5375,64.6687,0.0],[176.5021,64.6687,0.0],[176.4979,64.6667,1.5718],[176.4937,64.6687,0.0],[176.4875,64.6687,0.0],[176.4833,64.6667,1.2698],[176.475,64.6667,0.0],[176.4693,64.6641,0.0],[176.4667,64.6583,0.0],[176.4682,64.6547,2.0769],[176.4609,64.6495,1.0493],[176.462,64.6464,2.0559],[176.4547,64.6453,0.0],[176.4599,64.6432,1.2687],[176.4604,64.6417,1.6765],[176.4599,64.6401,1.8239],[176.4526,64.637,0.0],[176.4536,64.6339,0.0],[176.4505,64.6328,0.0],[176.4516,64.6297,1.723],[176.4438,64.6292,0.0],[176.4401,64.6266,0.0],[176.4411,64.6214,0.0],[176.4287,64.6151,1.9086],[176.3979,64.6083,0.0],[176.387,64.6026,2.2244],[176.3797,64.6016,0.9808],[176.3729,64.5979,2.2038],[176.3687,64.5979,0.0],[176.3562,64.5938,1.0257],[176.3458,64.5938,0.0],[176.3417,64.5917,2.2555],[176.3375,64.5938,0.0],[176.3021,64.5938,1.7108],[176.2979,64.5958,0.0],[176.2896,64.5958,1.0454],[176.2854,64.5979,0.0],[176.275,64.5979,1.3815],[176.2734,64.5995,1.3545],[176.2766,64.6016,0.0],[176.2688,64.6042,0.0],[176.2625,64.6042,2.4446],[176.2563,64.6083,0.0],[176.2458,64.6083,0.0],[176.2401,64.6057,0.0],[176.237,64.6026,0.7621],[176.2297,64.5995,0.0],[176.2266,64.5922,0.6107],[176.2208,64.5896,0.0],[176.2151,64.5891,0.0],[176.2161,64.5859,0.4693],[176.1859,64.5703,0.0],[176.187,64.5672,1.9102],[176.1755,64.562,0.0],[176.1766,64.5589,2.1311],[176.1547,64.5474,0.0],[176.1557,64.5443,0.0],[176.1526,64.5432,0.9489],[176.1516,64.5401,2.1099],[176.1339,64.5307,0.0],[176.1359,64.5255,0.0],[176.1411,64.5245,2.3777],[176.138,64.5224,2.1807],[176.1391,64.5193,2.428],[176.1359,64.5182,0.839],[176.138,64.513,1.5194],[176.1401,64.5089,1.9893],[176.1453,64.5078,2.2396],[176.138,64.5036,0.0],[176.1391,64.5005,0.0],[176.1359,64.4984,0.0],[176.1474,64.4953,2.0617],[176.1521,64.4854,1.3495],[176.1495,64.4797,0.0],[176.1359,64.4724,0.0],[176.1328,64.4672,2.3339],[176.1245,64.463,2.5417],[176.1187,64.4625,0.0],[176.0995,64.4547,2.5085],[176.0922,64.4537,0.0],[176.0833,64.4479,1.4555],[176.0755,64.4474,0.0],[176.0682,64.4422,2.1861],[176.0609,64.4411,0.0],[176.0526,64.437,0.0],[176.0537,64.4339,2.3625],[176.0422,64.4287,0.0],[176.0432,64.4255,0.0],[176.0401,64.4245,0.0],[176.0417,64.4208,0.0],[176.038,64.4182,0.0],[176.0396,64.4146,0.0],[176.038,64.4109,0.0],[176.0432,64.4099,3.0856],[176.0432,64.4068,2.7638],[176.0401,64.4047,0.0],[176.0422,64.4005,0.0],[176.0474,64.3995,3.1648],[176.0443,64.3964,0.0],[176.0495,64.3953,0.0],[176.0516,64.3922,0.0],[176.0437,64.3917,2.9411],[176.0412,64.3953,0.0],[176.0359,64.3964,2.0637],[176.0391,64.3995,0.0],[176.0313,64.4104,0.0],[176.025,64.4104,0.0],[176.0193,64.4078,0.0],[176.0161,64.4047,0.0],[176.0089,64.4016,0.0],[176.0099,64.3984,1.5217],[176.0063,64.3958,0.0],[176.0083,64.3917,2.3018],[176.0068,64.388,0.0],[176.0313,64.3792,0.0],[176.0432,64.3797,0.0],[176.038,64.3849,2.3245],[176.0417,64.3875,0.0],[176.0479,64.3875,0.0],[176.0516,64.3849,0.0],[176.0526,64.3818,0.0],[176.0578,64.3807,2.987],[176.0547,64.3776,0.0],[176.0625,64.3771,2.7435],[176.0729,64.3729,0.0],[176.0896,64.3708,3.1193],[176.0938,64.3688,0.0],[176.1,64.3708,9.0879],[176.1125,64.3708,0.0],[176.1167,64.3729,0.0],[176.1333,64.3729,1.2971],[176.1375,64.3708,0.0],[176.1479,64.3708,3.7213],[176.1521,64.3688,0.0],[176.1583,64.3688,3.0241],[176.1662,64.3651,0.0],[176.1542,64.3646,3.2152],[176.1438,64.3688,0.0],[176.1104,64.3688,0.0],[176.1021,64.3646,0.0],[176.0917,64.3646,2.63],[176.0813,64.3688,0.0],[176.0604,64.3688,0.6723],[176.0562,64.3708,0.0],[176.0458,64.3708,0.7657],[176.0417,64.3729,0.9999],[176.0354,64.3729,0.0],[176.0276,64.3755,1.7683],[176.0229,64.3792,0.0],[176.0109,64.3786,0.0],[176.013,64.3755,0.0],[176.0208,64.375,1.83],[176.0224,64.3734,0.0],[176.0104,64.3729,0.0],[176.0078,64.3766,0.0],[176.0026,64.3776,0.0],[176.0005,64.3797,1.7139],[176.0016,64.387,0.0],[175.9922,64.388,2.5397],[175.9953,64.3912,0.9585],[175.9922,64.3953,0.0],[175.9953,64.3964,0.0],[175.9984,64.4036,0.0],[176.0042,64.4063,0.0],[176.0099,64.4068,0.0],[176.0245,64.4151,0.0],[176.0234,64.4182,1.6619],[176.0266,64.4193,0.0],[176.025,64.425,0.0],[176.0276,64.4307,0.0],[176.0495,64.4422,0.0],[176.0526,64.4474,1.2565],[176.0583,64.45,2.9579],[176.0641,64.4505,0.0],[176.063,64.4537,1.1312],[176.0661,64.4547,0.0],[176.0661,64.4578,0.0],[176.062,64.4641,0.0],[176.0568,64.4651,0.0],[176.0537,64.4724,0.0],[176.0505,64.4755,0.0],[176.0537,64.4776,0.0],[176.0547,64.4807,0.0],[176.0578,64.4818,0.0],[176.0568,64.4849,0.743],[176.0651,64.4891,0.0],[176.0682,64.4891,0.0],[176.0682,64.4859,1.9595],[176.063,64.4828,0.0],[176.0641,64.4776,1.4136],[176.0609,64.4766,0.0],[176.0625,64.4729,3.2445],[176.0589,64.4693,0.0],[176.0641,64.4682,0.0],[176.0672,64.4651,0.0],[176.0792,64.4604,0.0],[176.0828,64.4609,0.0],[176.0818,64.4641,3.3784],[176.0875,64.4646,0.0],[176.0943,64.4682,1.9502],[176.1016,64.4693,0.0],[176.1109,64.4745,2.2419],[176.1182,64.4755,0.0],[176.1172,64.4807,0.0],[176.1229,64.4812,0.0],[176.1286,64.4838,0.0],[176.1234,64.4943,0.0],[176.1266,64.4974,0.0],[176.1229,64.5042,0.9359],[176.1266,64.5078,0.0],[176.1172,64.5089,1.1624],[176.1042,64.5188,1.3273],[176.0964,64.5182,0.0],[176.0974,64.5151,1.1897],[176.0943,64.5141,0.0],[176.0953,64.5109,1.1389],[176.088,64.5078,0.0],[176.0891,64.5047,1.7477],[176.0734,64.4974,0.0],[176.0745,64.4943,2.1823],[176.0688,64.4917,0.0],[176.0646,64.4958,0.6641],[176.0703,64.5005,0.0],[176.0714,64.5036,0.0],[176.0766,64.5068,0.0],[176.0755,64.512,2.7511],[176.0911,64.5172,0.0],[176.0943,64.5245,2.0877],[176.0995,64.5276,0.0],[176.1005,64.5307,1.5225],[176.1078,64.5339,0.0],[176.1109,64.5391,0.0],[176.1141,64.5401,0.0],[176.1172,64.5453,0.0],[176.1203,64.5463,0.0],[176.1151,64.5495,0.0],[176.1271,64.5563,2.3492],[176.1313,64.5563,1.2422],[176.1354,64.5583,1.0596],[176.1458,64.5583,0.0],[176.1516,64.5609,0.0],[176.1505,64.5641,0.89],[176.1536,64.5651,0.0],[176.1526,64.5682,0.4804],[176.1557,64.5693,0.0],[176.1568,64.5724,0.0],[176.1599,64.5734,0.0],[176.1589,64.5766,0.0],[176.1807,64.588,0.0],[176.1797,64.5911,2.0108],[176.187,64.5943,0.0],[176.1901,64.6016,1.4115],[176.1995,64.6068,0.0],[176.2005,64.6099,0.0],[176.2083,64.6146,1.1625],[176.2161,64.6151,0.0],[176.2151,64.6182,0.0],[176.225,64.6208,1.2344],[176.237,64.6214,0.0],[176.2432,64.6255,0.0],[176.2443,64.6286,4.0679],[176.25,64.6292,0.0],[176.2568,64.6328,0.0],[176.2667,64.6354,2.0957],[176.3,64.6375,0.0],[176.3042,64.6396,0.8542],[176.3188,64.6396,0.7191],[176.3229,64.6375,0.0],[176.3292,64.6396,0.9684],[176.3333,64.6375,0.0],[176.3375,64.6396,0.9368],[176.3521,64.6396,0.3989],[176.3562,64.6417,0.9955],[176.3604,64.6417,0.6121],[176.3714,64.6474,1.122],[176.3786,64.6484,0.0],[176.3776,64.6516,1.2124],[176.3849,64.6526,0.4887],[176.3859,64.6557,1.2774],[176.3922,64.6599,1.4193],[176.4,64.6604,0.0],[176.4042,64.6625,1.4019],[176.4125,64.6625,0.7192],[176.4182,64.6651,1.2079],[176.4172,64.6682,1.6987],[176.4245,64.6734,0.0],[176.4234,64.6766,2.4865],[176.4266,64.6787,1.5783],[176.4187,64.6792,1.8875],[176.4172,64.6807,0.648],[176.4271,64.6813,0.9032],[176.437,64.6859,0.8526],[176.4318,64.688,0.957],[176.4307,64.6911,0.0],[176.4255,64.6922,1.6406],[176.4287,64.6953,0.0],[176.4234,64.6964,1.2584],[176.4203,64.6995,1.608],[176.4151,64.7005,1.7316],[176.4141,64.7037,0.0],[176.4089,64.7047,1.8137],[176.412,64.7078,0.0],[176.3963,64.7089,1.8358],[176.3901,64.7109,1.8057],[176.3891,64.7141,0.0],[176.3776,64.7172,0.4738],[176.3766,64.7203,0.0],[176.3651,64.7234,1.414],[176.3641,64.7266,0.0],[176.3589,64.7276,1.2176],[176.362,64.7307,0.0],[176.3599,64.7328,0.0],[176.3547,64.7338,0.0],[176.3516,64.7391,0.0],[176.3464,64.7401,1.0261],[176.3432,64.7453,0.9216],[176.338,64.7464,1.0446],[176.337,64.7495,0.7164],[176.3255,64.7526,1.6356],[176.3286,64.7547,0.0],[176.3286,64.7578,0.0],[176.3109,64.763,1.28],[176.3141,64.7662,0.0],[176.3089,64.7672,0.0],[176.3057,64.7724,0.0],[176.3005,64.7734,3.6651],[176.2984,64.7786,0.0],[176.3016,64.7807,0.0],[176.2943,64.7859,7.9611],[176.2974,64.7891,0.0],[176.2901,64.7943,0.0],[176.2875,64.8,11.3734],[176.2891,64.8037,0.0],[176.2839,64.8068,2.6996],[176.287,64.8099,0.0],[176.2792,64.8104,6.6332],[176.275,64.8125,0.0],[176.2667,64.8125,21.3794],[176.2547,64.8172,15.5889],[176.2578,64.8203,0.0],[176.2464,64.8214,20.4774],[176.238,64.838,32.7826],[176.2417,64.8417,0.0],[176.2375,64.85,20.5945],[176.2391,64.8557,0.0],[176.2326,64.8604,4.9507],[176.2404,64.8917,10.4572],[176.2474,64.8891,20.0851],[176.2443,64.887,2.7906],[176.2458,64.8854,0.0],[176.2771,64.8854,0.0],[176.2875,64.8812,0.0],[176.2979,64.8812,3.1972],[176.3042,64.8771,0.0],[176.3146,64.8771,18.6425],[176.325,64.8729,0.0],[176.3438,64.8708,20.6548],[176.3557,64.8662,0.0],[176.3604,64.8625,0.0],[176.3667,64.8625,0.0],[176.3708,64.8604,0.0],[176.3917,64.8604,3.254],[176.4083,64.8542,0.0],[176.4146,64.8542,0.8966],[176.425,64.85,0.0],[176.4312,64.85,16.3505],[176.4375,64.8458,0.0],[176.4453,64.8453,4.1091],[176.4484,64.8401,0.0],[176.4536,64.8391,10.0206],[176.4547,64.8359,0.0],[176.4599,64.8349,14.7697],[176.462,64.8328,5.2795],[176.4682,64.8203,26.6164],[176.4609,64.8161,0.0],[176.462,64.8089,10.1825],[176.4505,64.7995,1.6594],[176.4505,64.7963,3.0392],[176.4521,64.7958,2.5339],[176.4625,64.7958,0.0],[176.4667,64.7979,0.0],[176.4771,64.7979,0.0],[176.4812,64.8,0.0],[176.5146,64.8,1.0693],[176.5188,64.7979,0.0],[176.525,64.7979,0.0],[176.5292,64.8,2.1475],[176.5354,64.7979,0.0],[176.5396,64.8,1.6846],[176.5458,64.8,2.956],[176.55,64.7979,0.0],[176.5599,64.8026,0.0],[176.563,64.8057,9.4824],[176.5724,64.8068,0.0],[176.5714,64.8099,23.1217],[176.587,64.8172,0.0],[176.5859,64.8203,2.7766],[176.5932,64.8214,0.0],[176.6083,64.8292,0.0],[176.6245,64.8297,0.0],[176.6318,64.8349,0.0],[176.6526,64.8453,0.0],[176.6599,64.8464,0.0],[176.6589,64.8495,0.0],[176.6667,64.85,0.0],[176.6792,64.8542,0.0],[176.6854,64.8542,0.0],[176.6938,64.85,1.007],[176.7021,64.85,1.5105],[176.7047,64.8464,0.0],[176.7125,64.8438,0.0],[176.7167,64.8458,9.1296],[176.7229,64.8438,0.0],[176.7271,64.8458,7.895],[176.7375,64.8458,0.0],[176.7417,64.8479,0.0],[176.7563,64.8479,0.0],[176.7604,64.8458,0.0],[176.7813,64.8458,22.6192],[176.7854,64.8438,0.0],[176.7917,64.8438,13.7219],[176.8104,64.8354,0.0],[176.8161,64.837,7.1431],[176.8214,64.8276,0.0],[176.8266,64.8266,6.0634],[176.8234,64.8245,0.0],[176.825,64.8229,0.0],[176.8417,64.8229,0.0],[176.8813,64.8333,0.0],[176.9042,64.8354,0.0],[176.9083,64.8375,0.0],[176.9187,64.8375,2.265],[176.9214,64.8339,0.0],[176.9417,64.8271,0.0],[176.9495,64.8266,9.7487],[176.9521,64.8229,0.0],[176.9661,64.8224,9.3079],[176.963,64.8203,0.0],[176.963,64.8172,0.0],[176.9672,64.8109,0.0],[176.9724,64.8089,19.0428],[176.9693,64.8078,14.5731],[176.9672,64.8037,3.7315],[176.9667,64.8,0.0],[176.9682,64.7963,9.736],[176.9609,64.7922,0.0],[176.963,64.788,0.0],[176.9682,64.787,1.3244],[176.9703,64.7849,1.7553],[176.9714,64.7797,1.3437],[176.9896,64.7792,0.0],[176.9937,64.7813,20.0974],[177.0292,64.7813,8.7028],[177.0333,64.7792,0.0],[177.0396,64.7792,3.1336],[177.0422,64.7755,0.0],[177.05,64.775,24.0422],[177.0547,64.7714,0.0],[177.0703,64.7662,17.5635],[177.0755,64.7568,0.0],[177.0792,64.7542,1.4296],[177.0891,64.7568,0.0],[177.0984,64.762,0.0],[177.1042,64.7625,0.0],[177.1125,64.7667,20.7671],[177.1167,64.7667,0.0],[177.1208,64.7688,23.0567],[177.1313,64.7688,0.0],[177.1354,64.7708,0.0],[177.1604,64.7708,12.9238],[177.1693,64.7651,0.0],[177.1771,64.7646,0.0],[177.1979,64.7708,7.62],[177.225,64.775,0.0],[177.2349,64.7797,0.0],[177.2359,64.7828,15.4147],[177.25,64.7854,0.0],[177.2583,64.7896,24.9243],[177.2688,64.7896,0.0],[177.2771,64.7937,12.4378],[177.3104,64.7937,0.0],[177.3167,64.7917,0.0],[177.3224,64.7943,0.0],[177.3214,64.7974,8.9805],[177.3286,64.7984,0.0],[177.3297,64.8016,9.6553],[177.3354,64.8021,0.0],[177.3411,64.8047,0.0],[177.3401,64.8078,0.0],[177.3432,64.8089,22.4167],[177.337,64.8141,0.8151],[177.3292,64.8146,0.972],[177.3214,64.8172,1.9126],[177.3203,64.8203,1.0845],[177.3125,64.8229,0.8836],[177.2854,64.8229,20.0338],[177.2776,64.8255,13.4645],[177.2734,64.8276,5.766],[177.2745,64.8307,0.8605],[177.2682,64.8349,0.6024],[177.263,64.8359,3.151],[177.2661,64.838,0.5766],[177.2661,64.8411,0.9664],[177.2641,64.8432,0.8271],[177.2589,64.8443,1.8097],[177.2589,64.8474,2.2897],[177.2661,64.8505,0.4747],[177.2651,64.8557,5.7254],[177.2724,64.8588,0.5599],[177.2745,64.862,0.8711],[177.2713,64.863,9.0162],[177.2682,64.8682,0.6779],[177.263,64.8693,8.8924],[177.2609,64.8714,8.6094],[177.2609,64.8745,19.1107],[177.2641,64.8755,0.629],[177.263,64.8786,12.3024],[177.2661,64.8807,0.8443],[177.2609,64.8828,15.2781],[177.2703,64.8839,0.5826],[177.2693,64.887,3.3116],[177.2729,64.8896,0.9412],[177.2693,64.8974,18.2153],[177.2766,64.9005,0.9871],[177.2755,64.9057,2.3475],[177.2813,64.9063,0.9134],[177.2828,64.9078,0.6871],[177.275,64.9104,2.5316],[177.2708,64.9104,0.8356],[177.2667,64.9083,1.7414],[177.2417,64.9083,18.8442],[177.2151,64.9172,10.7316],[177.2224,64.9224,0.7187],[177.2109,64.9255,2.9311],[177.2104,64.9292,2.0274],[177.212,64.9328,1.6538],[177.2057,64.937,0.789],[177.1938,64.9375,11.8335],[177.1859,64.9401,10.4309],[177.1812,64.9437,0.3521],[177.1708,64.9437,29.9255],[177.1693,64.9453,26.1572],[177.1724,64.9464,0.4822],[177.1708,64.9479,0.6845],[177.1583,64.9479,11.6781],[177.1542,64.95,0.6494],[177.1479,64.95,12.0643],[177.1313,64.9563,0.6988],[177.1104,64.9563,10.6707],[177.1026,64.9589,16.106],[177.1016,64.962,0.9987],[177.0838,64.9672,17.7493],[177.0786,64.9786,0.5577],[177.0688,64.9833,0.919],[177.0646,64.9812,1.4794],[177.0542,64.9812,0.6915],[177.05,64.9792,20.5779],[177.0339,64.9797,12.1297],[177.037,64.9818,12.1436],[177.0349,64.987,0.3602],[177.0297,64.9901,2.6787],[177.0245,64.9974,4.5937],[177.0193,64.9984,13.6321],[177.0193,65.0016,14.3856],[177.0224,65.0036,0.9875],[177.0078,65.0349,1.9789],[177.0063,65.0354,1.9789],[176.9984,65.0328,1.6211],[176.9953,65.0297,0.8652],[176.9859,65.0286,0.2583],[176.987,65.0255,0.7085],[176.9812,65.0229,1.7704],[176.975,65.025,1.8521],[176.95,65.025,0.2803],[176.9458,65.0229,1.8885],[176.9417,65.025,-0.0146],[176.9354,65.0229,1.7463],[176.9312,65.025,-0.0886],[176.925,65.0229,1.8492],[176.9208,65.025,0.0907],[176.9167,65.0229,2.7708],[176.9021,65.0229,1.5396],[176.8922,65.0203,1.691],[176.8854,65.0167,2.4831],[176.8797,65.0162,-0.0402],[176.8807,65.0109,1.966],[176.8682,65.0047,2.2298],[176.8562,65.0042,-0.162],[176.8438,65.0,1.9136],[176.8292,65.0,0.2215],[176.825,64.9979,1.4142],[176.8062,64.9979,-0.3557],[176.7833,64.9917,1.6104],[176.7604,64.9896,0.0],[176.7563,64.9875,1.7844],[176.7417,64.9875,0.0],[176.7292,64.9833,1.6324],[176.7146,64.9833,0.0],[176.7104,64.9812,1.5014],[176.6896,64.9812,0.0],[176.6833,64.9771,1.7431],[176.6083,64.9771,0.8426],[176.5875,64.9833,0.0],[176.5708,64.9833,0.0],[176.5667,64.9812,1.4357],[176.5583,64.9812,0.0],[176.5542,64.9792,1.3023],[176.5437,64.9792,0.6946],[176.5396,64.9812,0.0],[176.5313,64.9812,1.7674],[176.5271,64.9833,0.0],[176.5193,64.9838,1.7994],[176.5161,64.9891,0.0],[176.5047,64.9922,0.0],[176.5036,64.9953,0.0],[176.4984,64.9964,1.1534],[176.4953,65.0016,0.0],[176.4875,65.0021,0.0],[176.4828,65.0057,0.0],[176.4776,65.0068,1.5046],[176.4807,65.0089,0.0],[176.4807,65.012,0.0],[176.4714,65.013,5.024],[176.4729,65.0146,9.0774],[176.4787,65.0151,0.0],[176.4776,65.0203,0.0],[176.4807,65.0214,0.0],[176.4797,65.0245,9.9676],[176.4828,65.0266,0.0],[176.4708,65.0271,22.9227],[176.463,65.0297,15.5014],[176.4599,65.0328,2.2566],[176.4521,65.0333,0.0],[176.4479,65.0354,7.0911],[176.4375,65.0354,16.0101],[176.425,65.0313,0.7518],[176.4146,65.0313,0.0],[176.4047,65.0286,0.0],[176.3963,65.0245,0.0],[176.3974,65.0214,0.0],[176.3943,65.0203,0.2935],[176.3932,65.0172,0.4672],[176.3813,65.0104,8.1163],[176.3542,65.0104,4.2728],[176.35,65.0125,0.7743],[176.3422,65.013,7.6021],[176.3391,65.0203,0.93],[176.3354,65.0229,0.5629],[176.3292,65.0229,0.0],[176.325,65.0208,0.0],[176.3146,65.0208,5.2974],[176.3,65.0271,0.3998],[176.2729,65.0271,1.9791],[176.2693,65.0297,0.8095],[176.2682,65.0328,0.6663],[176.263,65.0339,4.2022],[176.2583,65.0396,0.7894],[176.2458,65.0396,11.2125],[176.2417,65.0417,-0.5],[176.2063,65.0417,0.5356],[176.2021,65.0396,-0.5],[176.1667,65.0396,1.3595],[176.1625,65.0417,0.401],[176.1443,65.0422,0.5177],[176.1443,65.0453,1.4722],[176.1458,65.0458,5.5475],[176.1667,65.0458,0.9911],[176.1771,65.0417,-0.0584],[176.1812,65.0437,1.6656],[176.2104,65.0437,0.4546],[176.2188,65.0479,0.0],[176.2229,65.0458,0.5116],[176.2312,65.0458,0.0],[176.2354,65.0437,0.4237],[176.2396,65.0437,0.5623],[176.2437,65.0458,7.5376],[176.2542,65.0458,0.4603],[176.2583,65.0437,0.6731],[176.2682,65.0432,1.9979],[176.2734,65.0339,0.3718],[176.2917,65.0292,0.0],[176.3021,65.0292,0.0],[176.3125,65.025,0.0],[176.3229,65.025,0.296],[176.3375,65.0292,0.993],[176.3521,65.0292,13.8893],[176.3583,65.025,0.4079],[176.3833,65.0333,0.0],[176.4042,65.0333,0.0],[176.4083,65.0354,0.3273],[176.4182,65.0359,0.5128],[176.4224,65.038,0.783],[176.4214,65.0432,3.2002],[176.425,65.0458,0.0],[176.4203,65.0557,0.7568],[176.4125,65.0583,1.2148],[176.3896,65.0583,0.484],[176.3859,65.063,9.3401],[176.3891,65.0661,0.8648],[176.3839,65.0672,18.4381],[176.3875,65.0708,0.748],[176.3859,65.0745,13.5162],[176.3896,65.0771,5.4409],[176.388,65.0807,0.5974],[176.3917,65.0833,0.6813],[176.3901,65.0891,0.4487],[176.3953,65.0922,0.0],[176.3963,65.0953,0.0],[176.4036,65.0984,0.7054],[176.4068,65.1016,6.1405],[176.4162,65.1026,0.0],[176.4151,65.1057,0.0],[176.4182,65.1078,0.0],[176.413,65.1099,8.4126],[176.4187,65.1104,0.0],[176.4203,65.112,0.0],[176.4109,65.1162,3.5176],[176.4208,65.1208,1.7332],[176.4292,65.1208,0.0],[176.4375,65.125,1.9906],[176.4536,65.1276,0.4561],[176.4568,65.1307,1.4511],[176.4724,65.138,0.7346],[176.4755,65.1432,0.7872],[176.4828,65.1464,1.3014],[176.4839,65.1495,0.0],[176.4912,65.1526,0.0],[176.4943,65.1557,1.1292],[176.5036,65.1568,0.0],[176.5141,65.163,0.7176],[176.5151,65.1661,0.0],[176.5271,65.1667,1.2039],[176.5359,65.1724,1.2406],[176.5453,65.1734,0.0],[176.5484,65.1766,1.6232],[176.5599,65.1818,1.4109],[176.5609,65.1849,2.8911],[176.5641,65.1859,0.0],[176.563,65.1891,8.8749],[176.5688,65.1917,1.1392],[176.5729,65.1917,0.0],[176.5771,65.1937,0.0],[176.5875,65.1937,0.0],[176.5917,65.1917,0.0],[176.6016,65.1911,10.0152],[176.6042,65.1875,0.0],[176.6104,65.1896,10.0441],[176.6146,65.1875,0.0],[176.6271,65.1875,1.4718],[176.6313,65.1854,0.0],[176.6563,65.1854,0.0],[176.6578,65.1839,0.0],[176.6479,65.1813,15.3609],[176.6229,65.1813,0.0],[176.6187,65.1792,0.0],[176.6042,65.1792,10.0952],[176.5964,65.1818,8.7963],[176.5917,65.1875,0.0],[176.5734,65.187,0.0],[176.5693,65.1849,0.0],[176.5703,65.1818,1.5099],[176.5672,65.1807,0.0],[176.5682,65.1776,0.926],[176.5484,65.1682,0.0],[176.5495,65.1651,3.5956],[176.5328,65.1568,4.9891],[176.513,65.1516,0.0],[176.512,65.1484,0.0],[176.5047,65.1453,0.0],[176.5057,65.1422,2.1084],[176.4964,65.1412,0.0],[176.4932,65.138,0.0],[176.4859,65.1349,0.0],[176.4849,65.1318,1.9726],[176.4776,65.1307,0.0],[176.4745,65.1255,0.0],[176.4714,65.1245,0.0],[176.4703,65.1214,0.0],[176.4646,65.1188,0.0],[176.4505,65.1162,6.7356],[176.4495,65.113,4.2582],[176.4318,65.1036,1.045],[176.4307,65.1005,1.589],[176.4234,65.0995,0.0],[176.4245,65.0964,0.6804],[176.413,65.0911,0.0],[176.4141,65.0859,2.3918],[176.4068,65.0828,0.0],[176.4104,65.075,1.0887],[176.4068,65.0714,0.0],[176.412,65.0703,1.0335],[176.4089,65.0672,0.0],[176.4167,65.0667,0.698],[176.4417,65.075,1.8618],[176.4521,65.075,0.0],[176.4563,65.0708,1.7922],[176.4547,65.0651,0.0],[176.4667,65.0646,0.0],[176.4729,65.0667,3.7125],[176.4745,65.0651,0.8859],[176.4714,65.063,0.0],[176.4849,65.062,1.6693],[176.4818,65.0589,0.0],[176.487,65.0578,0.0],[176.4922,65.0505,1.4301],[176.4974,65.0495,1.4887],[176.5,65.0458,0.0],[176.5063,65.0458,0.0],[176.5229,65.0396,0.0],[176.5271,65.0417,1.3261],[176.5479,65.0417,0.0],[176.5521,65.0437,1.146],[176.5625,65.0396,0.4804],[176.575,65.0396,2.0983],[176.5776,65.0359,0.0],[176.587,65.0349,1.8244],[176.5838,65.0318,0.0],[176.5859,65.0297,0.0],[176.5911,65.0286,19.2515],[176.6026,65.0068,0.0],[176.6146,65.0062,0.0],[176.6271,65.0104,1.4673],[176.6375,65.0104,0.0],[176.6417,65.0125,1.9343],[176.6604,65.0125,0.0],[176.6646,65.0146,9.0048],[176.675,65.0146,0.0],[176.6958,65.0208,6.8933],[176.7104,65.0208,0.0],[176.7203,65.0234,0.0],[176.7214,65.0266,1.071],[176.7287,65.0276,0.0],[176.7505,65.0391,0.5768],[176.7563,65.0396,0.0],[176.7646,65.0437,0.0],[176.7771,65.0458,0.2896],[176.7896,65.05,2.2617],[176.8042,65.05,0.509],[176.8083,65.0521,2.0038],[176.8146,65.0521,0.7686],[176.8479,65.0625,1.8969],[176.8729,65.0646,0.5216],[176.8854,65.0687,0.9708],[176.9563,65.0687,2.2677],[176.9604,65.0667,1.7293],[176.9771,65.0646,0.7029],[176.9812,65.0625,0.3085],[176.9979,65.0604,1.8912],[177.0026,65.0568,0.4191],[177.012,65.0557,7.7596],[177.0089,65.0526,0.4185],[177.0167,65.0521,1.4064],[177.0203,65.0495,1.76],[177.0172,65.0474,0.3481],[177.0182,65.0422,0.4632],[177.0151,65.0411,0.3188],[177.0167,65.0396,0.9875],[177.0437,65.0396,0.8929],[177.0479,65.0375,0.5677],[177.0521,65.0375,0.1816],[177.0583,65.0396,1.6118],[177.0729,65.0354,0.3176],[177.0854,65.0354,0.7408],[177.1037,65.0307,12.5155],[177.1078,65.0286,6.6516],[177.1068,65.0255,0.2254],[177.1162,65.0245,1.5519],[177.1172,65.0214,0.5296],[177.125,65.0208,1.5006],[177.1354,65.0167,0.5304],[177.1417,65.0167,0.2706],[177.1458,65.0188,20.3642],[177.15,65.0167,0.1746],[177.1771,65.0167,1.5766],[177.1979,65.0104,0.3885],[177.2182,65.0078,0.8218],[177.2245,65.0036,0.8806],[177.2318,64.9901,0.3684],[177.2412,64.987,3.1336],[177.2443,64.9838,0.2751],[177.2536,64.9828,1.3812],[177.2563,64.9771,7.0479],[177.2526,64.9745,0.5323],[177.2536,64.9714,0.6644],[177.2505,64.9703,0.4282],[177.2557,64.9672,15.4795],[177.2484,64.9661,0.7968],[177.2474,64.963,2.5871],[177.2443,64.962,0.7935],[177.2495,64.9599,2.7299],[177.2516,64.9526,8.1068],[177.2484,64.9516,0.4492],[177.2495,64.9484,9.4508],[177.2464,64.9474,0.6218],[177.2432,64.9401,11.3133],[177.2318,64.9349,0.8081],[177.237,64.9328,2.0695],[177.2339,64.9297,0.8169],[177.2432,64.9287,1.7572],[177.2464,64.9234,0.4279],[177.2542,64.9208,0.8621],[177.2604,64.9208,2.1546],[177.2708,64.9167,0.7927],[177.2937,64.9167,10.9897],[177.3083,64.9125,0.6322],[177.3229,64.9125,0.3916],[177.3292,64.9146,10.8857],[177.3333,64.9125,0.6076],[177.3375,64.9125,0.8483],[177.3438,64.9146,10.1784],[177.3479,64.9125,0.6927],[177.3521,64.9146,9.1867],[177.3813,64.9146,0.4807],[177.3854,64.9167,9.322],[177.4063,64.9167,7.4676],[177.4104,64.9125,0.8044],[177.4271,64.9125,0.9815],[177.4312,64.9146,3.5057],[177.45,64.9146,0.9409],[177.4542,64.9167,2.8804],[177.4896,64.9167,1.6165],[177.5,64.9125,1.9876],[177.5057,64.9151,2.2626],[177.5042,64.9187,1.1402],[177.5047,64.9224,1.954],[177.5104,64.9229,0.0],[177.5188,64.9271,2.561],[177.5292,64.9271,5.9194],[177.5333,64.925,0.0],[177.55,64.925,2.6113],[177.5542,64.9229,0.0],[177.5667,64.9271,2.3029],[177.5729,64.9271,0.0],[177.5745,64.9255,1.7422],[177.5562,64.9208,1.74],[177.5396,64.9208,1.4177],[177.5354,64.9229,0.0],[177.5234,64.9224,1.6804],[177.5193,64.9203,2.0579],[177.5224,64.9089,0.0],[177.5089,64.9016,0.6882],[177.5078,64.8984,0.8175],[177.5047,64.8974,0.8354],[177.5068,64.8943,0.8472],[177.512,64.8932,1.5924],[177.5089,64.8912,2.105],[177.5078,64.888,1.167],[177.5047,64.887,1.0778],[177.5057,64.8839,1.1516],[177.5021,64.8812,1.0817],[177.5057,64.8734,2.0373],[177.4984,64.8703,1.2132],[177.4995,64.8651,0.8465],[177.4922,64.8599,1.0049],[177.4932,64.8568,1.4217],[177.4901,64.8547,0.815],[177.4937,64.8521,1.0923],[177.5016,64.8516,1.0235],[177.5042,64.8479,0.6512],[177.5104,64.8479,0.7904],[177.525,64.8438,0.8053],[177.5333,64.8438,1.9025],[177.5349,64.8432,0.0],[177.5349,64.8401,1.4607],[177.4937,64.8187,2.4484],[177.4312,64.8187,12.8328],[177.4271,64.8167,11.6673],[177.4125,64.8167,0.8207],[177.4104,64.8146,13.088],[177.4109,64.813,0.0],[177.4162,64.812,0.0],[177.4193,64.8089,0.0],[177.4287,64.8078,23.7306],[177.4255,64.8057,0.0],[177.4271,64.8042,3.2661],[177.4516,64.8016,0.0],[177.4557,64.7995,0.0],[177.4604,64.7937,5.2126],[177.4708,64.7937,0.0],[177.4833,64.8,12.9679],[177.4937,64.8,0.0],[177.4979,64.8021,8.6684],[177.5167,64.8021,0.0],[177.5208,64.8042,12.817],[177.525,64.8021,0.0],[177.5375,64.8021,44.571],[177.5479,64.7979,0.0],[177.5557,64.7974,32.4834],[177.5526,64.7943,0.0],[177.5641,64.7911,1.6725],[177.5682,64.7797,4.7977],[177.5568,64.7745,0.0],[177.5578,64.7714,13.9643],[177.5458,64.7708,0.0],[177.5401,64.7682,0.0],[177.5412,64.7651,27.669],[177.5339,64.762,0.0],[177.5339,64.7589,0.0],[177.5417,64.7583,0.0],[177.5458,64.7604,0.0],[177.5521,64.7583,0.0],[177.5562,64.7604,0.0],[177.6042,64.7604,0.0],[177.6182,64.7557,0.0],[177.6214,64.7526,0.0],[177.6307,64.7495,0.0],[177.6391,64.7432,6.2608],[177.6359,64.7401,0.0],[177.6411,64.7391,14.1565],[177.6453,64.7307,22.6671],[177.6422,64.7286,12.1598],[177.6422,64.7255,0.0],[177.6474,64.7245,0.0],[177.6484,64.7214,0.0],[177.6563,64.7188,0.0],[177.6703,64.7182,7.2507],[177.6714,64.7151,0.0],[177.6766,64.7141,1.6861],[177.6787,64.7099,1.2404],[177.6755,64.7078,0.0],[177.6766,64.7026,0.0],[177.6724,64.7005,0.0],[177.6625,64.7,0.0],[177.6563,64.6979,0.9981],[177.6458,64.7021,2.295],[177.6359,64.6974,3.197],[177.6375,64.6958,0.0],[177.6625,64.6958,0.0],[177.6687,64.6979,1.8268],[177.6729,64.6958,0.0],[177.6771,64.6979,1.6975],[177.6833,64.6979,1.3878],[177.6859,64.6943,0.0],[177.7042,64.6896,0.0],[177.7104,64.6896,2.3879],[177.7146,64.6875,0.0],[177.7458,64.6875,0.0],[177.7604,64.6833,0.0],[177.7917,64.6833,9.7686],[177.7958,64.6813,0.0],[177.8125,64.6813,18.0022],[177.8167,64.6792,0.0],[177.8333,64.6792,23.4465],[177.8375,64.6771,0.0],[177.8479,64.6771,0.0],[177.8521,64.6792,16.2684],[177.875,64.6792,0.0],[177.8792,64.6813,15.518],[177.8938,64.6813,0.0],[177.8979,64.6833,19.9269],[177.9042,64.6813,0.0],[177.9083,64.6833,15.7072],[177.9521,64.6833,13.437],[177.9563,64.6813,0.0],[177.9771,64.6813,11.8468],[177.9812,64.6792,0.0],[177.9875,64.6813,20.5348],[177.9979,64.6771,0.0],[178.0042,64.6771,17.4369],[178.0146,64.6729,0.0],[178.0224,64.6724,1.4615],[178.0234,64.6693,0.0],[178.0286,64.6682,10.231],[178.0307,64.6661,0.0],[178.0333,64.6583,0.0],[178.0297,64.6547,0.0],[178.0328,64.6495,0.5673],[178.0328,64.6464,1.1725],[178.0255,64.6453,0.0],[178.0245,64.6422,0.0],[178.0188,64.6417,0.0],[178.013,64.6391,0.988],[178.0146,64.6375,1.2423],[178.025,64.6375,0.0],[178.0333,64.6417,2.5926],[178.0479,64.6438,0.0],[178.0562,64.6479,0.0],[178.0703,64.6505,0.0],[178.0813,64.6563,20.8622],[178.0854,64.6563,0.0],[178.1062,64.6625,8.7166],[178.1167,64.6625,0.0],[178.1208,64.6646,12.1956],[178.1354,64.6646,0.0],[178.1396,64.6667,8.898],[178.1458,64.6667,11.9468],[178.15,64.6646,1.7194],[178.1687,64.6646,0.0],[178.1729,64.6667,11.736],[178.1792,64.6667,8.0731],[178.1833,64.6646,0.0],[178.1938,64.6646,1.2037],[178.1979,64.6625,0.0],[178.2063,64.6625,0.0],[178.2104,64.6604,0.0],[178.2208,64.6625,9.549],[178.225,64.6604,0.0],[178.2396,64.6604,0.0],[178.2437,64.6583,0.0],[178.2604,64.6583,2.2647],[178.2646,64.6563,0.0],[178.2771,64.6563,16.307],[178.2917,64.6521,0.0],[178.3021,64.6521,0.0],[178.3062,64.6542,1.0104],[178.3141,64.6516,10.2885],[178.3109,64.6495,0.0],[178.3109,64.6464,0.0],[178.3224,64.6432,0.0],[178.3193,64.6412,1.2312],[178.3208,64.6396,1.2073],[178.3313,64.6396,6.7967],[178.3375,64.6354,0.0],[178.3729,64.6354,0.0],[178.3771,64.6375,10.4],[178.3896,64.6375,0.0],[178.3938,64.6396,11.1793],[178.4016,64.6401,0.0],[178.3995,64.6432,0.0],[178.3943,64.6443,2.172],[178.3958,64.6458,0.7119],[178.4021,64.6458,0.0],[178.4083,64.6417,0.9576],[178.4187,64.6417,0.0],[178.4229,64.6438,12.4754],[178.4271,64.6417,0.0],[178.4312,64.6438,12.5255],[178.4604,64.6438,0.0],[178.4646,64.6458,8.7395],[178.4896,64.6458,0.0],[178.4937,64.6479,0.0],[178.5229,64.6479,0.0],[178.5271,64.65,0.0],[178.5417,64.65,0.0],[178.5458,64.6521,8.9139],[178.55,64.65,0.0],[178.5562,64.6521,7.8204],[178.5604,64.65,0.0],[178.5792,64.65,0.0],[178.5958,64.6583,0.0],[178.6,64.6583,0.0],[178.6125,64.6625,8.3805],[178.6187,64.6625,2.1587],[178.6229,64.6646,10.1094],[178.6417,64.6646,0.0],[178.6484,64.6682,0.0],[178.6583,64.6708,9.5807],[178.6771,64.6708,0.0],[178.6812,64.6729,0.0],[178.6917,64.6729,0.0],[178.6958,64.6708,0.0],[178.7063,64.6708,0.0],[178.7208,64.675,4.207],[178.725,64.6729,0.0],[178.7312,64.675,2.6697],[178.7354,64.6729,0.0],[178.7458,64.6729,0.0],[178.75,64.675,0.8334],[178.7542,64.6729,0.0],[178.7604,64.675,0.8737],[178.7693,64.6693,0.0],[178.7786,64.6661,0.0],[178.7818,64.663,0.0],[178.8037,64.6557,0.0],[178.8005,64.6526,0.0],[178.8141,64.6516,0.0],[178.8109,64.6484,0.0],[178.8161,64.6464,0.626],[178.8078,64.6422,0.0],[178.8005,64.6412,1.3458],[178.788,64.6339,0.0]]]]}}