{"type":"Feature","properties":{"GID_3":"RUS.2.63.1_1","GID_0":"RUS","country":"Russia","GID_1":"RUS.2_1","province":"Altay","NL_NAME_1":"Алтайскийкрай","GID_2":"RUS.2.63_1","county":"Waterbody","NL_NAME_2":"NA","city":"NA","VARNAME_3":"NA","NL_NAME_3":"NA","TYPE_3":"NA","ENGTYPE_3":"NA","CC_3":"NA","HASC_3":"NA","name":"N_A.city"},
"geometry":{"type": "MultiPolygon","coordinates": [[[[79.714,53.089,99.7019],[79.7093,53.0926,100.5819],[79.7234,53.0991,99.2408],[79.7253,53.1194,98.0],[79.7038,53.1239,102.1842],[79.6661,53.1226,101.376],[79.6414,53.1389,101.9387],[79.6104,53.1521,102.49],[79.5901,53.154,101.7441],[79.5625,53.1432,100.6144],[79.5607,53.1257,98.0],[79.6033,53.1118,98.0],[79.6069,53.0992,98.0],[79.5858,53.1,98.0],[79.4971,53.128,98.0],[79.4682,53.1254,98.0],[79.4458,53.1136,104.2695],[79.4082,53.0827,112.3482],[79.3751,53.0469,113.3769],[79.3601,53.0041,112.0354],[79.368,52.978,98.3575],[79.3807,52.9633,98.0],[79.4401,52.9098,98.0],[79.4874,52.8778,98.0],[79.5359,52.8527,98.0],[79.5824,52.8311,98.0],[79.6195,52.821,98.0],[79.6678,52.8196,98.0],[79.7338,52.8234,100.7147],[79.7516,52.8078,106.7115],[79.7686,52.8205,102.7454],[79.7767,52.8381,100.0323],[79.7509,52.8628,98.0],[79.7079,52.8661,98.678],[79.7026,52.888,98.0],[79.6854,52.938,98.0],[79.6933,52.9528,98.0],[79.7147,52.9634,101.4189],[79.7568,52.9589,102.1342],[79.7839,52.9707,98.0],[79.8119,52.9958,100.312],[79.7858,53.0119,102.5792],[79.7334,53.0296,98.0],[79.7525,53.0446,98.0],[79.7523,53.0598,103.0788],[79.714,53.089,99.7019]]]]}}