{"type":"Feature","properties":{"GID_3":"RUS.9.20.1_1","GID_0":"RUS","country":"Russia","GID_1":"RUS.9_1","province":"Buryat","NL_NAME_1":"РеспубликаБурятия","GID_2":"RUS.9.20_1","county":"Tunkinskiyrayon","NL_NAME_2":"Тункинскийрайон","city":"NA","VARNAME_3":"NA","NL_NAME_3":"NA","TYPE_3":"NA","ENGTYPE_3":"NA","CC_3":"NA","HASC_3":"NA","name":"N_A.city"},
"geometry":{"type": "MultiPolygon","coordinates": [[[[101.1509,51.5428,2120.583],[101.1609,51.5423,2153.7432],[101.1843,51.5461,2038.6169],[101.2061,51.5475,1859.1847],[101.2289,51.5477,2156.7178],[101.2405,51.5462,2280.1404],[101.2586,51.5394,2287.8137],[101.2797,51.5243,2223.1982],[101.3327,51.4805,2218.7681],[101.3479,51.4705,2297.0596],[101.3773,51.4584,2284.4592],[101.3921,51.4554,2379.4792],[101.4029,51.4571,2228.5447],[101.4138,51.4615,2165.9434],[101.4247,51.4687,2069.9795],[101.4355,51.4817,1799.8486],[101.4465,51.4886,2023.0907],[101.4787,51.4987,2162.5776],[101.5042,51.5022,2226.8079],[101.5413,51.5032,2256.5225],[101.5777,51.4999,2258.8252],[101.5995,51.4937,2159.395],[101.6117,51.4869,2320.4016],[101.6277,51.4743,2308.7966],[101.642,51.4566,2234.1377],[101.6569,51.4517,2357.5659],[101.6745,51.4513,2629.5059],[101.7119,51.4595,2633.9629],[101.7447,51.4611,2539.7578],[101.7595,51.4587,2314.144],[101.7792,51.451,2115.4319],[101.8026,51.4382,2492.7559],[101.8327,51.4274,2239.9075],[101.8556,51.4216,2203.3643],[101.8773,51.4196,2270.2881],[101.9119,51.4249,2150.1494],[101.9345,51.4245,2231.1667],[101.947,51.4211,2164.1431],[101.9958,51.3959,2334.4304],[102.015,51.3935,2343.5505],[102.0381,51.3974,2088.5],[102.0688,51.3971,2230.3684],[102.0833,51.3926,2284.4766],[102.1011,51.3835,2254.9583],[102.1366,51.358,2234.832],[102.1481,51.3521,2402.97],[102.1773,51.3445,2246.52],[102.1971,51.3375,1839.8917],[102.2086,51.3295,1968.2018],[102.2131,51.3227,2171.2744],[102.2145,51.3151,2205.0671],[102.2105,51.3049,1923.6801],[102.1911,51.2925,2296.793],[102.1623,51.2815,2243.6165],[102.1555,51.2763,2090.0659],[102.1519,51.2701,1997.3231],[102.1513,51.2641,1894.6829],[102.1785,51.2199,2113.7678],[102.1805,51.2105,2260.9507],[102.1705,51.187,2151.958],[102.1711,51.1483,2137.8821],[102.1737,51.1409,1921.7023],[102.1892,51.1418,1991.4692],[102.2611,51.1389,1998.9958],[102.2961,51.1209,1791.6714],[102.3774,51.1224,2292.3198],[102.4367,51.1358,2055.2786],[102.4673,51.1217,1943.3076],[102.5205,51.1126,2128.6707],[102.568,51.1301,1611.8724],[102.5964,51.1188,1647.5696],[102.5779,51.091,2001.0304],[102.5864,51.0652,2101.8367],[102.6347,51.0533,1725.4717],[102.6877,51.0668,2104.7493],[102.7419,51.0574,2037.5131],[102.777,51.0762,1974.9818],[102.8155,51.1233,1742.6238],[102.938,51.1448,2190.4158],[102.9818,51.1339,2213.0923],[103.0339,51.133,2190.2261],[103.0947,51.148,2154.834],[103.1261,51.1393,2084.9412],[103.1533,51.108,2102.9656],[103.155,51.0729,1977.876],[103.1605,51.0433,1940.3525],[103.1905,51.0195,1793.5845],[103.2199,51.0288,1969.9417],[103.2544,51.057,2117.802],[103.2684,51.0944,2195.636],[103.2663,51.1636,2156.4434],[103.2504,51.2125,2104.9395],[103.2714,51.2505,2121.8103],[103.3096,51.2539,1527.7115],[103.4181,51.2328,2164.1895],[103.487,51.251,1936.7363],[103.5391,51.2358,1839.969],[103.5458,51.2147,1853.6904],[103.5707,51.2042,1937.0204],[103.6318,51.1876,1876.6412],[103.6432,51.1445,1699.1868],[103.6644,51.0963,1856.0432],[103.7187,51.0884,1399.8762],[103.7682,51.1025,1649.3225],[103.8078,51.1208,1922.0348],[103.7934,51.1612,1974.9225],[103.7949,51.2057,1886.7983],[103.8013,51.266,1967.156],[103.8152,51.326,1453.6665],[103.8085,51.3763,1360.2472],[103.7546,51.4163,1247.1141],[103.6636,51.4435,1248.6647],[103.5652,51.4549,1154.0111],[103.4857,51.4503,1361.3265],[103.3968,51.4376,2055.8442],[103.3332,51.4437,1942.3264],[103.3018,51.4835,1762.7858],[103.2445,51.4959,1678.068],[103.2391,51.5224,1800.3154],[103.2425,51.5562,1701.399],[103.2038,51.5876,1578.3453],[103.2025,51.6215,1307.4014],[103.2274,51.6507,1145.8118],[103.2242,51.6978,900.6854],[103.19,51.728,712.1303],[103.1935,51.7504,760.5853],[103.1744,51.8045,663.0],[103.1271,51.8575,874.9163],[103.0462,51.8742,998.7372],[103.0066,51.8999,1375.8381],[102.9122,51.9187,1003.4214],[102.8756,51.9298,1177.6417],[102.7521,51.89,1337.0789],[102.6816,51.8819,1188.3296],[102.6027,51.8888,1209.1776],[102.5565,51.9061,1146.1147],[102.516,51.9408,1906.7885],[102.4587,51.9695,1589.7502],[102.3721,51.9783,1830.3267],[102.1752,51.9545,2404.2312],[102.0996,51.9247,2333.8848],[101.9481,51.8788,2871.7432],[101.8963,51.8538,2634.1245],[101.7305,51.8434,2142.519],[101.658,51.8356,2435.8416],[101.5881,51.8183,1925.5839],[101.4678,51.803,2753.1208],[101.4257,51.8112,2409.5808],[101.3271,51.785,2293.2334],[101.2176,51.7738,2243.2537],[101.1114,51.7979,2339.5967],[101.0057,51.7762,2157.3132],[100.8923,51.7713,2131.9553],[100.7803,51.7709,2783.8223],[100.7283,51.7529,1512.0356],[100.7082,51.7672,1568.116],[100.667,51.7667,1937.5134],[100.6408,51.7167,2708.7915],[100.6765,51.7145,2559.4346],[100.7001,51.7053,2644.0359],[100.7363,51.6811,2200.7134],[100.7513,51.6755,2151.9968],[100.8058,51.6661,1887.9373],[100.8224,51.6609,1801.8074],[100.8517,51.6445,1875.8878],[100.8657,51.6401,1823.3843],[100.913,51.6329,1845.1727],[100.9434,51.6263,1795.2671],[100.9812,51.6116,1970.7872],[101.0332,51.5804,1962.5632],[101.0475,51.5765,1926.3101],[101.0865,51.5743,1974.343],[101.1036,51.5697,1986.0227],[101.1231,51.5589,2112.374],[101.1345,51.5463,2157.8726],[101.143,51.5431,2146.2778],[101.1509,51.5428,2120.583]]]]}}