{"type":"Feature","properties":{"featurecla":"Lake","scalerank":9,"name":"Ozero Agata","name_abb":"O. Agata","name_alt":"Lake Agata","note":null,"delta":null,"dam_name":null,"year":-99,"admin":null,"min_zoom":7.0,"min_label":8.0},
"geometry":{"type": "Polygon","coordinates": [[[93.085447296152552,67.361811902629029,358.0676],[93.066313627888974,67.380356842638321,227.2483],[93.059543252964943,67.3977243261391,208.0073],[93.055127791058,67.418918543292563,221.7444],[93.054539062803713,67.439818396318913,259.1241],[93.059543252964943,67.456891515692547,381.5899],[93.038937764065736,67.428926923615052,295.7112],[93.03834903581145,67.424217097580936,281.0458],[93.039820856447136,67.413031260749932,260.1946],[93.038937764065736,67.408321434715845,246.9834],[93.03599412279442,67.404494701063129,246.7713],[93.027163198980475,67.3977243261391,283.6401],[93.024808285963388,67.394780684867783,291.7517],[93.021864644692073,67.367699185171659,279.3615],[93.018626639293643,67.360634446120514,297.0918],[93.003908432937067,67.352392250560825,383.8768],[92.972411471334,67.349154245162367,698.922],[92.960342542121566,67.343266962619737,834.2161],[92.950039797671991,67.336202223568563,917.8115],[92.9288455805185,67.32943184864456,826.0085],[92.907356999237891,67.3132418216523,839.2349],[92.894993705898344,67.30676581085541,868.5771],[92.7857846147325,67.278801218777915,439.911],[92.758703115036383,67.278212490523629,294.7122],[92.758703115036383,67.270559023218226,287.0413],[92.770477680121644,67.26408301242131,315.4081],[92.771360772503044,67.2537802679717,259.8933],[92.769300223613129,67.2417113387593,214.8291],[92.772243864884445,67.2296424095469,223.6159],[92.785490250605392,67.21816220858878,228.1971],[92.8399476141247,67.199617268579487,208.0477],[92.8470123531759,67.1810723285702,207.651],[92.8284674131666,67.156640106018244,254.528],[92.800208456961968,67.133974068229122,445.6856],[92.779014239808475,67.12043331838106,756.8162],[92.671571333405382,67.075689971057045,567.036],[92.65567567054029,67.055967574539238,349.6325],[92.673631882295354,67.05361266152218,365.5196],[92.7857846147325,67.100416557736111,428.918],[92.8214026741154,67.104243291388826,306.401],[92.867323477947991,67.114840399965573,223.572],[92.90971191225492,67.131913519339207,208.1018],[92.935910319569643,67.155168285382587,219.5877],[92.936793411951044,67.175479410154679,279.5549],[92.9270793957557,67.202855273977917,828.4217],[92.910889368763435,67.226698768275583,282.6418],[92.891755700499914,67.237001512725215,208.2691],[92.876448765889052,67.242300067013588,208.4854],[92.879686771287481,67.2537802679717,207.9901],[92.898526075423945,67.274385756870913,228.6714],[92.910889368763435,67.2843941371934,249.8693],[92.9485679770363,67.30588271847401,361.9232],[93.005968981826982,67.327371299754617,306.5391],[93.055127791058,67.338557136585621,211.8231],[93.104875328543244,67.341795141984079,505.2022],[93.149029947612974,67.333258582297248,809.5962],[93.133134284747882,67.346210603891052,682.8469],[93.085447296152552,67.361811902629029,358.0676]]]}}