{"type":"Feature","properties":{"featurecla":"Lake","scalerank":6,"name":"Ozero Khantayskoye","name_abb":"O. Khantayskoye","name_alt":"Lake Khantayskoye","note":null,"delta":null,"dam_name":null,"year":-99,"admin":null,"min_zoom":5.0,"min_label":6.5},
"geometry":{"type": "Polygon","coordinates": [[[91.898571135557631,68.3979736301325,63.0],[91.970101618450656,68.415635477760418,63.0],[92.328931489424122,68.417696026650333,582.6592],[92.384860673579169,68.4277044069728,667.5261],[92.415180178673722,68.450664808889087,1040.5187],[92.392808505011715,68.443600069837913,754.2428],[92.078721981362207,68.440362064439455,170.229],[92.045458834996339,68.456846455558832,63.0],[92.068419236912632,68.488637781289071,63.0],[92.097855649625785,68.516602373366567,63.0],[92.13347370900874,68.536913498138659,78.1558],[92.175567779188555,68.546038786079748,158.1115],[92.125820241703309,68.569882280377414,394.7426],[92.045753199123453,68.54368387306269,965.951],[91.83175047869878,68.4321198688798,666.4586],[91.790539500900309,68.4229945809387,917.5233],[91.7254850288042,68.429176227608451,954.7698],[91.678092404336041,68.41828475490459,966.535],[91.654837638292634,68.415635477760418,961.86],[91.507949938853926,68.433591689515453,69.5555],[91.425233619129926,68.456257727304575,639.8264],[91.380490271805911,68.463616830482863,839.2671],[91.1073203618277,68.45596336317746,420.6651],[90.952779195083565,68.417696026650333,323.0166],[90.795294387068168,68.403272184420871,336.6134],[90.77115652864336,68.395324352988325,131.6789],[90.782048001347221,68.385315972665836,76.1749],[90.795588751195282,68.380017418377463,78.3834],[90.825613892162721,68.374130135834832,85.267],[90.808246408661944,68.362061206622457,80.8729],[90.776749447058876,68.358823201224,69.7839],[90.691089486063561,68.3605893859868,102.9045],[90.666951627638753,68.364710483766629,64.9676],[90.646346138739545,68.37560195647049,69.2221],[90.633394117145713,68.395324352988325,80.9576],[90.6590037962062,68.4015059996581,88.6808],[90.711106246708482,68.408570738709244,99.6063],[90.737010289896091,68.415635477760418,268.7978],[90.524185025979875,68.402094727912356,73.0513],[90.455598184358223,68.374130135834832,159.2381],[90.3823015167024,68.366771032656544,361.3661],[90.324900511911721,68.340866989468964,498.8064],[90.275741702680762,68.339100804706163,396.6782],[89.8521517237383,68.396796173623983,92.0417],[89.777383235446848,68.387965249810037,63.0],[89.754717197657669,68.3885539780643,69.5728],[89.738527170665463,68.393852532352668,80.9367],[89.708502029698025,68.412103108234817,91.4147],[89.686130356036017,68.416812934268933,87.5436],[89.656693943322864,68.415046749506132,84.4968],[89.543952482631425,68.385315972665836,78.3744],[89.530411732783364,68.384727244411579,75.8447],[89.510394972138386,68.391203255208467,79.31],[89.3950042343028,68.403860912675128,70.7076],[89.284028958374165,68.402094727912356,62.8463],[89.263423469474958,68.395324352988325,66.3169],[89.256064366296641,68.387965249810037,71.0237],[89.277552947577249,68.383255423775921,71.1359],[89.333776495859411,68.382372331394521,71.1213],[89.3523214358687,68.374130135834832,69.0816],[89.355559441267133,68.355879559952683,86.5508],[89.338191957766355,68.345282451375937,63.0],[89.3122879145788,68.340866989468964,77.2165],[89.2907993332982,68.340572625341821,68.8593],[89.304045719019086,68.336157163434848,70.3428],[89.316997740612919,68.333507886290676,68.1117],[89.3290666698253,68.3290924243837,63.0],[89.339075050147756,68.319672772315471,63.0],[89.3317159469695,68.313196761518583,63.0],[89.359974903174134,68.31378548977284,63.0],[89.386467674615972,68.320555864696871,85.8999],[89.410311168913665,68.333213522163533,83.3874],[89.431799750194273,68.35058100566431,76.0862],[89.448872869567879,68.35470210344414,63.0],[89.471244543229886,68.3467542720116,63.0],[89.4918500321291,68.333213522163533,63.0],[89.503035868960126,68.319672772315471,63.0],[89.474482548628373,68.318200951679813,85.0438],[89.45829252163611,68.312313669137183,71.1866],[89.45240523909348,68.298184191034863,63.0],[89.4553488803648,68.272280147847283,77.2605],[89.537476471834509,68.312608033264326,69.6486],[89.58280854741281,68.326148783112387,63.0],[89.626374438228311,68.327031875493788,82.0246],[89.6449193782376,68.31378548977284,63.0],[89.656105215068578,68.309075663738753,63.0],[89.66140376935698,68.316434766917041,63.0],[89.66140376935698,68.333507886290676,66.2479],[89.6590488563399,68.3402782612147,89.7847],[89.653161573797263,68.3467542720116,86.1288],[89.631378628389541,68.354113375189883,63.0],[89.543952482631425,68.3467542720116,63.0],[89.584574732175611,68.37059776630926,71.1466],[89.62696316648254,68.375307592343376,71.9021],[89.741470811936779,68.3673597609108,63.0],[89.745003181462323,68.365004847893772,89.5128],[89.7408820836825,68.3570570164612,63.0],[89.743825724953808,68.340572625341821,63.0],[89.75324537702204,68.330269880892217,63.0],[89.778855056082477,68.30878129961161,83.963],[89.784153610370879,68.2958292780178,88.2144],[89.780621240845278,68.283171620551144,76.2224],[89.775617050684048,68.271102691338768,69.2546],[89.778266327828248,68.2622717675248,70.5528],[89.820949126262349,68.255207028473649,69.5867],[89.887181054866971,68.230774805921726,63.0],[89.915145646944438,68.230186077667469,63.0],[89.969308646336685,68.242549371006987,63.0],[89.996390146032809,68.244315555769788,63.0],[90.01552381429633,68.239900093862815,63.0],[90.051730601933571,68.225476251633353,63.0],[90.078223373375408,68.2240044309977,63.0],[90.084699384172325,68.2351902678287,63.0],[90.089703574333555,68.24696483291396,63.0],[90.095590856876186,68.2575619414907,63.0],[90.105599237198646,68.264921044669,63.0],[90.132092008640484,68.268159050067453,63.0],[90.222461795669915,68.251380294820933,63.0],[90.3219568706404,68.251380294820933,63.0],[90.463840379917883,68.272574511974426,63.0],[90.546556699641883,68.3058376583403,63.0],[90.586295856804668,68.313196761518583,63.0],[90.805302767390629,68.319672772315471,63.0],[90.907447119505321,68.303482745323237,63.0],[90.960727026516167,68.3040714735775,63.0],[91.0004661836789,68.323205141841072,63.0],[91.027547683375019,68.3449880872488,63.0],[91.095251432615328,68.376190684724776,63.0],[91.1738466545595,68.401800363785213,63.0],[91.270398088258673,68.414752385379018,63.0],[91.34016238638884,68.414458021251875,63.0],[91.437008184215188,68.395913081242583,63.0],[91.5002964715485,68.398562358386783,63.0],[91.557991840466286,68.388259613937151,63.0],[91.612743568112819,68.392675075844124,107.7621],[91.6666122033779,68.386199065047236,66.8091],[91.775821294543732,68.396796173623983,181.0749],[91.874138913005709,68.395324352988325,63.0],[91.898571135557631,68.3979736301325,63.0]]]}}