{"type":"Feature","properties":{"featurecla":"Lake","scalerank":9,"name":"null476","name_abb":null,"name_alt":null,"note":"_untitled_269","delta":null,"dam_name":null,"year":-99,"admin":null,"min_zoom":7.0,"min_label":8.0},
"geometry":{"type": "Polygon","coordinates": [[[93.5702650135384,67.146042997441526,571.1299],[93.559962269088771,67.138978258390352,567.2469],[93.549953888766311,67.099827829481853,271.1391],[93.534058225901219,67.084815258998134,456.7049],[93.486959965560118,67.059794308191925,549.4634],[93.477245949364772,67.041543732309776,645.7248],[93.468120661423711,67.018877694520626,566.3462],[93.4457489877617,67.007986221816765,815.8799],[93.353907380096643,67.002393303401277,550.3072],[93.354201744223758,66.996506020858618,480.1552],[93.37274668423305,66.985614548154757,598.9609],[93.403949281709,66.949407760517573,270.4514],[93.429853324896612,66.9405768367036,269.9189],[93.457817916974079,66.941754293212142,270.2074],[93.480778318890373,66.952940130043146,270.5239],[93.483721960161688,66.957649956077262,270.2907],[93.4848994166702,66.967658336399722,270.6807],[93.488137422068633,66.972662526560953,270.7444],[93.494907796992663,66.976194896086554,270.6627],[93.51050909573064,66.979138537357869,270.5685],[93.518456927163243,66.9832596351377,270.7087],[93.523755481451587,66.990618738315987,270.643],[93.535530046536849,67.017700238012111,270.8626],[93.565555187504287,67.046842286598149,279.7815],[93.601173246887242,67.072157601531472,271.1387],[93.618540730387963,67.09953346535471,302.1305],[93.59410850783604,67.133974068229122,303.4311],[93.5702650135384,67.146042997441526,571.1299]]]}}