{"type":"Feature","properties":{"featurecla":"Lake","scalerank":9,"name":"Ozero Sobachye","name_abb":"O. Sobachye","name_alt":"Lake Sobachye","note":null,"delta":null,"dam_name":null,"year":-99,"admin":null,"min_zoom":7.0,"min_label":8.0},
"geometry":{"type": "Polygon","coordinates": [[[91.416108331188809,69.097382796197365,1025.0579],[91.380490271805911,69.094733519053165,854.9047],[91.32779909304935,69.082370225713646,746.1426],[91.218590001883513,69.086491323493476,822.1415],[91.142055328829258,69.071478753009757,541.3538],[91.023132221468074,69.063530921577211,624.6746],[91.005176009713011,69.069418204119842,321.7008],[90.987219797958,69.0838420463493,455.4517],[90.956900292863452,69.09944334508728,136.3723],[90.916866771573552,69.106213720011311,87.4818],[90.892728913148744,69.098265888578737,59.1836],[90.918927320463467,69.059115459670238,60.2135],[90.9239315106247,69.046457802203577,61.9449],[90.931290613802958,69.036449421881088,60.4186],[90.946008820159534,69.032033959974115,60.5344],[91.38196209244154,69.057054910780323,82.1663],[91.662491105598065,69.114750279698114,494.1364],[91.817326636469318,69.124169931766346,530.7135],[91.867074173954563,69.138888138122923,346.535],[91.886502206345256,69.1527232520981,465.4903],[91.869134722844478,69.155961257496557,950.3613],[91.70811754530348,69.140948687012838,855.7279],[91.640413796063172,69.1265248447834,814.4913],[91.563290394754688,69.125936116529118,687.5337],[91.416108331188809,69.097382796197365,1025.0579]]]}}