{"type":"Feature","properties":{"featurecla":"Lake","scalerank":9,"name":"Ozero Vivi","name_abb":"O. Vivi","name_alt":"Lake Vivi","note":null,"delta":null,"dam_name":null,"year":-99,"admin":null,"min_zoom":7.0,"min_label":8.0},
"geometry":{"type": "Polygon","coordinates": [[[94.180776213209469,66.501385559023163,288.3357],[94.163114365581578,66.534648705389031,280.9428],[94.153989077640517,66.56379075397507,300.1376],[94.132794860487024,66.595287715578166,312.2953],[94.0630305623568,66.673882937522308,315.6277],[94.049195448381624,66.685068774353311,381.0226],[94.032711057262247,66.6950771546758,494.7689],[93.990322622955262,66.712444638176578,346.4295],[93.967656585166139,66.725102295643239,254.2923],[93.957648204843679,66.740114866126959,277.8017],[93.949700373411133,66.761309083280423,736.0524],[93.929977976893269,66.770140007094369,613.0649],[93.904957026087118,66.774261104874228,508.5006],[93.882290988297939,66.780737115671116,602.5123],[93.826067440015834,66.817532631562585,251.7773],[93.806639407625141,66.825480462995131,251.6202],[93.830188537795664,66.843436674750166,251.5802],[93.866100961305733,66.877582913497434,251.6604],[93.933510346418871,66.925564266219908,251.4844],[93.940869449597187,66.936161374796626,251.7076],[93.936159623563071,66.943814842102057,251.8032],[93.927917428003354,66.951468309407488,251.8113],[93.92350196609641,66.962654146238492,252.1665],[93.932038525783241,66.983553999264842,251.871],[93.965596036276224,67.027119890080314,252.2445],[93.970600226437455,67.052140840886523,252.4712],[93.965596036276224,67.062443585336126,252.3751],[93.947639824521218,67.076867427565588,252.6392],[93.944107454995617,67.082460345981076,252.246],[93.947934188648333,67.094234911066337,252.1473],[93.955293291826592,67.103654563134569,252.2627],[93.958531297225079,67.113368579329915,252.0974],[93.950289101665362,67.127203693305091,283.7143],[93.957648204843679,67.133974068229122,398.0702],[93.9376314441987,67.154873921255472,606.1625],[93.92850615625764,67.156051377763987,501.1048],[93.9161428629181,67.1478091822043,331.1585],[93.912904857519663,67.1375064377547,313.1646],[93.907017574977033,67.098944737100453,565.8973],[93.906428846722747,67.08952508503225,535.8112],[93.907311939104147,67.080399797091161,574.2184],[93.903485205451432,67.065681590734584,595.8969],[93.8975979229088,67.050669020250865,438.7966],[93.892299368620456,67.041543732309776,679.1633],[93.883174080679339,67.028297346588857,778.9022],[93.88081916766231,67.018877694520626,816.549],[93.881996624170824,66.990618738315987,351.9655],[93.8805248035352,66.970896341798181,370.5776],[93.87669806988248,66.961476689729949,361.5175],[93.833132179066979,66.907608054464873,831.645],[93.814292874930572,66.896127853506727,631.5118],[93.7757311742763,66.864042163649373,747.5763],[93.760718603792611,66.854916875708284,600.0322],[93.744234212673234,66.8484408649114,705.8304],[93.732459647587973,66.838432484588935,708.7122],[93.7312821910794,66.819298816325357,259.2347],[93.748355310453064,66.796632778536235,251.9348],[93.8139985108034,66.761603447407566,252.1117],[93.865512233051447,66.726279752151754,252.0884],[93.991794443590948,66.665640741962619,252.1423],[94.0406588886948,66.631200139088236,252.0558],[94.063619290611086,66.610594650189,251.8222],[94.074805127442062,66.591460981925451,251.855],[94.087168420781609,66.545245813965778,251.7738],[94.101003534756785,66.524051596812313,252.4321],[94.117487925876162,66.510805211091366,251.6344],[94.148690523352116,66.4904940863193,251.6614],[94.163114365581578,66.4766589723441,251.849],[94.200498609727276,66.420435424061964,251.901],[94.217866093228054,66.405422853578244,252.0917],[94.224636468152084,66.405422853578244,251.7425],[94.239060310381547,66.444278918359629,271.1216],[94.21521681608391,66.473715331072782,281.3932],[94.180776213209469,66.501385559023163,288.3357]]]}}