{"type":"Feature","properties":{"featurecla":"Reservoir","scalerank":7,"name":"Krasnoyarsk Reservoir","name_abb":"Krasnoyarsk Res.","name_alt":"Krasnoyarskoye Reservoir","note":null,"delta":null,"dam_name":"Krasnoyarsk","year":1967,"admin":null,"min_zoom":5.7,"min_label":6.7},
"geometry":{"type": "Polygon","coordinates": [[[92.011018232121955,55.167777936199627,232.0],[92.110807671219561,55.201335446692639,232.0],[92.142304632822686,55.208400185743784,232.0],[92.189108529036616,55.201041082565496,232.0],[92.200294365867592,55.204867816218211,284.739],[92.2047098277746,55.212815647650757,271.3363],[92.209419653808709,55.231949315914335,232.0],[92.213540751588539,55.235481685439908,232.0],[92.230908235089316,55.242546424491081,232.0],[92.249747539225723,55.258736451483315,236.1944],[92.31126964179623,55.335565488664685,232.0],[92.333935679585409,55.353227336292576,232.0],[92.356896081501645,55.3488118743856,232.0],[92.365727005315591,55.343807684224373,232.0],[92.401639428825661,55.331738755011969,232.0],[92.435785667572929,55.311427630239876,232.0],[92.447854596785362,55.307306532460046,232.0],[92.473758639972914,55.304068527061588,232.0],[92.487299389820976,55.303774162934445,232.0],[92.498190862524837,55.30083052166313,232.0],[92.515852710152728,55.286995407687954,232.0],[92.5323371012721,55.279341940382523,232.0],[92.546760943501567,55.25903081561043,305.395],[92.559124236841114,55.256087174339115,252.6487],[92.565011519383745,55.260502636246088,310.7607],[92.572370622562062,55.277870119746865,373.2833],[92.579729725740322,55.284051766416638,319.1171],[92.589738106062782,55.281696853399581,300.109],[92.603573220038015,55.27580957085695,365.3105],[92.6159365133775,55.274632114348407,413.7354],[92.6212350676659,55.286995407687954,345.8365],[92.620057611157392,55.300241793408873,232.0],[92.615642149250391,55.307600896587161,346.3096],[92.607399953690731,55.310544537858476,418.034],[92.541462389213223,55.311721994367019,232.0],[92.520856900314016,55.317314912782507,232.0],[92.497307770143436,55.331738755011969,287.503],[92.5108485199915,55.349989330894118,313.4799],[92.514969617771385,55.352344243911176,306.9016],[92.517324530788414,55.355582249309634,299.2534],[92.5152639818985,55.361763895979379,278.9394],[92.509082335228754,55.365590629632095,256.8163],[92.500840139669037,55.362352624233665,248.8205],[92.483767020295375,55.343807684224373,232.0],[92.472286819337285,55.335565488664685,232.0],[92.459923525997738,55.331738755011969,232.0],[92.434608211064415,55.338214765808857,232.0],[92.360722815154361,55.386490482658445,232.0],[92.3695537389683,55.40032559663365,232.0],[92.398401423427231,55.424169090931315,232.0],[92.408409803749691,55.440947846177806,232.0],[92.410175988512492,55.454488596025868,232.0],[92.4078210754954,55.484513736993307,359.2398],[92.408409803749691,55.5030586770026,232.0],[92.355424260866016,55.478626454450676,232.0],[92.331286402441208,55.4630251557127,232.0],[92.3259878481528,55.447718221101837,232.0],[92.3115640059234,55.433883107126661,232.0],[92.278006495430361,55.386490482658445,232.0],[92.26211083256527,55.36853427090341,232.0],[92.245626441445893,55.354699156928234,232.0],[92.192346534435046,55.319375461672422,232.0],[92.164381942357522,55.294354510866242,232.0],[92.148486279492431,55.284051766416638,368.2559],[92.120816051542079,55.279341940382523,359.3181],[92.0589995848444,55.283463038162381,336.8109],[92.038688460072308,55.27669266323835,232.0],[92.055761579445971,55.266095554661604,232.0],[92.071951606438176,55.259619543864716,232.0],[92.0819599867607,55.251082984177884,232.0],[92.0801938019979,55.235481685439908,232.0],[92.066947416276946,55.219880386701931,232.0],[92.04810811214054,55.211638191142242,240.237],[91.954205955585508,55.202512903201153,232.0],[91.860598163157647,55.17631449588643,277.0608],[91.653660181784119,55.160124468894196,281.2384],[91.644829257970173,55.157180827622881,232.0],[91.63599833415617,55.150704816825993,300.7416],[91.6248124973252,55.145994990791877,292.915],[91.613626660494162,55.145111898410477,295.4644],[91.6036182801717,55.150116088571735,317.0198],[91.569766405551547,55.155709006987223,292.8372],[91.515897770286472,55.144523170156219,334.6678],[91.428177260401242,55.112731844426008,244.0562],[91.378724087043111,55.0885939860012,269.6227],[91.353114407982673,55.081234882822912,270.3845],[91.274224821911389,55.076819420915939,374.4554],[91.209170349815281,55.085355980602742,373.7385],[91.160894632965665,55.083295431712827,444.3757],[91.104671084683559,55.071815230754709,284.1862],[91.052568634181227,55.053270290745417,350.0118],[91.017539303052558,55.030309888829123,232.0],[91.004587281458782,55.009704399929916,232.0],[90.993990172882036,54.983211628488078,270.5885],[90.979860694779688,54.9676103297501,288.1922],[90.976328325254144,54.957896313554755,232.0],[90.968086129694427,54.943766835452436,232.0],[90.927758244277413,54.9119755097222,232.0],[90.915100586810752,54.899906580509793,232.0],[90.911273853158036,54.867232162398182,283.7858],[90.921870961734783,54.775684918860236,232.0],[90.915100586810752,54.742127408367224,235.7006],[90.86888541885105,54.721816283595132,237.696],[90.8644699569441,54.692674235009122,232.0],[90.888607815368914,54.6629434581688,232.0],[90.929230064913042,54.639688692125418,232.0],[91.0858317805471,54.585231328606056,232.0],[91.1055541770649,54.575811676537825,232.0],[91.15147498089749,54.539899253027784,232.0],[91.170019920906782,54.531362693340952,232.0],[91.213291447595111,54.521943041272749,232.0],[91.229775838714488,54.509285383806088,232.0],[91.235074393002833,54.489268623161138,344.9438],[91.227126561570287,54.47101804727896,243.158],[91.215057632357912,54.454239292032469,233.8892],[91.209170349815281,54.437460536785949,232.0],[91.213585811722226,54.419798689158057,232.0],[91.224182920298972,54.40331429803868,243.6015],[91.2503813276137,54.372111700562726,232.0],[91.24331658856255,54.356216037697607,246.0042],[91.236546213638519,54.344441472612345,259.1506],[91.228304018078859,54.335021820544142,243.9757],[91.215940724739312,54.324424711967396,240.7398],[91.2727530012757,54.315888152280564,278.1346],[91.295713403192,54.305585407830961,246.5311],[91.304838691133057,54.279975728770495,251.5701],[91.311314701929973,54.273205353846492,254.9427],[91.353408772109788,54.26290260939686,307.2251],[91.3616509676695,54.254366049710057,275.1478],[91.368421342593535,54.242885848751911,362.4374],[91.37283680450048,54.230228191285249,301.1847],[91.374308625136166,54.218453626199988,275.77],[91.393736657526858,54.183129930944176,258.937],[91.430532173418271,54.157225887756596,241.9977],[91.452903847080279,54.13338239345893,272.2188],[91.428177260401242,54.104829073127178,309.5929],[91.449077113427563,54.101002339474462,277.9104],[91.473509335979486,54.106300893762835,232.0],[91.492348640115949,54.10571216550855,232.0],[91.49735283027718,54.0848123124822,438.3351],[91.531499069024449,54.0883446820078,346.8358],[91.543567998236824,54.066267372472907,384.5855],[91.539446900457,54.033004226107039,333.0511],[91.524728694100418,54.002390356885343,306.1766],[91.498824650912809,53.981784867986136,237.0],[91.431415265799671,53.955880824798527,241.1493],[91.401095760705118,53.934097879390805,249.6734],[91.41228159753615,53.91614166763577,243.7225],[91.41139850515475,53.89936291238925,416.4684],[91.400212668323718,53.886705254922589,390.8892],[91.380490271805911,53.8793461517443,349.0654],[91.385788826094256,53.866688494277639,292.5137],[91.394914114035373,53.859035026972208,237.7165],[91.403450673722148,53.852853380302463,239.6482],[91.408454863883435,53.844611184742774,242.4515],[91.405216858484948,53.832836619657513,240.8858],[91.3972690270524,53.819590233936566,242.1003],[91.392264836891172,53.80575511996139,244.2972],[91.397563391179517,53.793097462494728,244.7947],[91.422584341985726,53.774552522485436,241.8988],[91.4817515315392,53.745999202153655,240.8467],[91.510893580125241,53.735402093576909,239.5],[91.514425949650843,53.766015962798605,367.6479],[91.464384048038426,53.844905548869889,325.2332],[91.463206591529911,53.885527798414074,237.5],[91.468799509945427,53.89023762444819,237.5],[91.49735283027718,53.906133287313281,237.0],[91.510010487743841,53.9229120425598,237.0],[91.517663955049272,53.930859873992347,237.0],[91.528261063626019,53.934097879390805,237.0],[91.553870742686456,53.93704152066212,237.0],[91.608622470332932,53.950582270510182,237.0],[91.634526513520541,53.953820275908612,237.0],[91.75315525675461,53.937630248916378,240.1676],[91.812322446308087,53.941456982569093,240.0627],[91.819387185359233,53.975014493062105,243.4312],[91.781414212959248,53.999446715614027,260.6684],[91.724013208168572,54.001801628631085,328.9847],[91.66455165448798,53.990615791800082,291.7809],[91.620985763672479,53.975014493062105,375.2041],[91.616570301765478,53.971776487663647,359.8031],[91.612154839858533,53.967066661629531,344.0599],[91.605973193188788,53.9629455638497,396.308],[91.596553541120556,53.961473743214043,387.9943],[91.548572188398111,53.961473743214043,357.7004],[91.545334182999625,53.968832846392331,324.1091],[91.552398922050827,53.985022873384565,237.0],[91.564762215390317,54.001212900376828,237.0],[91.576536780475578,54.008572003555116,236.5],[91.588016981433725,54.027116943564408,247.0592],[91.578008601111264,54.068622285489965,234.0],[91.552398922050827,54.136031670603131,232.0],[91.547100367762425,54.169883545223257,232.0],[91.533853982041478,54.204029783970526,232.0],[91.49735283027718,54.26290260939686,232.0],[91.470860058835342,54.287334831948812,232.0],[91.40963232039195,54.328251445620111,232.0],[91.387555010857056,54.358570950714665,232.0],[91.424939255002812,54.372111700562726,232.0],[91.4426011026307,54.374466613579784,232.0],[91.463206591529911,54.372111700562726,353.6758],[91.485872629319033,54.364458233257295,232.0],[91.5226681452105,54.344441472612345,277.558],[91.54503981887251,54.337965461815458,232.0],[91.594492992230641,54.335021820544142,232.0],[91.64895035575,54.338259825942572,232.0],[91.701052806252278,54.348268206265061,232.0],[91.743735604686378,54.365341325638695,232.0],[91.722541387532885,54.3747609777069,232.0],[91.698403529108134,54.379765167868158,244.0626],[91.673382578301926,54.380942624376672,246.8488],[91.6480672633686,54.379176439613872,275.3883],[91.63688142653757,54.376232798342556,281.6012],[91.613921024621334,54.367401874528611,264.6874],[91.6036182801717,54.365341325638695,232.0],[91.561229845864773,54.372700428816984,261.755],[91.54503981887251,54.372111700562726,232.0],[91.552398922050827,54.379176439613872,232.0],[91.529732884261648,54.388301727554961,232.0],[91.5002964715485,54.392422825334819,337.3536],[91.4426011026307,54.392128461207676,232.0],[91.4211125213501,54.389184819936361,244.417],[91.374308625136166,54.372111700562726,285.1107],[91.338984929880326,54.388301727554961,314.9175],[91.323972359396635,54.398604472004564,389.298],[91.315141435582689,54.413911406615426,336.5991],[91.309254153040058,54.462187123465014,232.0],[91.301600685734627,54.482203884109964,316.9227],[91.2780515555641,54.516350122857233,232.0],[91.262744620953242,54.533423242230867,288.6894],[91.24832077872378,54.542548530171956,362.5363],[90.986631069703719,54.637922507362617,274.3358],[90.962787575406082,54.659705452770368,280.7992],[90.965142488423112,54.670008197219971,267.8768],[90.980449423033974,54.686786952466463,376.1007],[90.983981792559518,54.697384061043209,348.2918],[90.982804336051,54.708864262001356,337.7342],[90.977505781762659,54.73005847915482,357.4905],[90.969852314457228,54.824843728091224,254.6981],[90.976328325254144,54.844566124609059,232.0],[90.989574710975035,54.868703983033839,232.0],[90.99840563478898,54.89225311320439,285.6837],[90.99340144462775,54.910503689086539,232.0],[90.99428453700915,54.9231613465532,232.0],[91.006942194475812,54.942000650689636,236.9813],[91.03108005290062,54.968199058004359,236.634],[91.110264003099019,55.02677751930355,232.0],[91.133224405015312,55.0373746278803,232.0],[91.2948303108106,55.050621013601216,232.0],[91.309548517167173,55.047971736457043,232.0],[91.313669614947,55.041495725660127,253.0106],[91.313375250819888,55.033842258354724,271.7533],[91.3154357997098,55.02677751930355,232.0],[91.326621636540835,55.023539513905092,232.0],[91.338690565753211,55.031487345337666,232.0],[91.350170766711358,55.042967546295785,258.0529],[91.360179147033818,55.050621013601216,232.0],[91.662491105598065,55.085355980602742,232.0],[91.6507165405128,55.076230692661682,354.0865],[91.6274617744694,55.061512486305077,281.0618],[91.620985763672479,55.050621013601216,232.0],[91.641591252571686,55.053564654872531,232.0],[91.658958736072464,55.059451937415162,238.0418],[91.7057626322864,55.0894770783826,307.0284],[91.722247023405771,55.096247453306631,232.0],[91.809673169163887,55.112731844426008,232.0],[91.830867386317379,55.113909300934523,246.6556],[91.8535334241065,55.112731844426008,232.0],[91.860892527284818,55.109788203154693,232.0],[91.868251630463078,55.105961469501977,232.0],[91.87472764126,55.10537274124772,297.6223],[91.88090928792974,55.112731844426008,232.0],[91.882086744438254,55.122445860621355,232.0],[91.877376918404138,55.128921871418243,285.019],[91.869723451098764,55.132454240943815,299.9991],[91.860303799030532,55.133042969198073,232.0],[91.891506396506486,55.150704816825993,232.0],[92.011018232121955,55.167777936199627,232.0]]]}}