{"type":"Feature","properties":{"featurecla":"Lake","scalerank":9,"name":"Ozero Kungasalakh","name_abb":"O. Kungasalakh","name_alt":"Lake Kungasalakh","note":null,"delta":null,"dam_name":null,"year":-99,"admin":null,"min_zoom":7.0,"min_label":8.0},
"geometry":{"type": "Polygon","coordinates": [[[107.50840643322294,74.590806136728574,77.252],[107.49280513448497,74.604052522449493,108.7178],[107.4757320151113,74.6147968130898,118.9437],[107.4568927109749,74.623186190713056,124.5938],[107.43717031445709,74.629073473255687,119.2014],[107.2967586258153,74.649531780091337,101.7123],[107.20285646926027,74.683972382965749,94.7972],[107.01328597138746,74.70119268440294,77.6291],[106.98708756407274,74.698690589322325,77.7793],[106.96177224913941,74.691331486144037,86.154],[106.93616257007898,74.6802928313766,122.9311],[106.92968655928206,74.670578815181258,117.7216],[106.93998930373169,74.660570434858769,134.1224],[106.97060317295336,74.642614223103749,106.5386],[106.95323568945264,74.614060902771968,135.4674],[106.93910621135029,74.579767481961127,94.4373],[106.94263858087589,74.551066979565789,120.8848],[106.97737354787739,74.5389980503534,90.3987],[107.08569954666189,74.53826214003557,99.3677],[107.12102324191767,74.5445909687689,77.5864],[107.15340329590214,74.546798699722387,77.5191],[107.22522814292228,74.534435406382855,77.5624],[107.25908001754243,74.532816403683626,77.5791],[107.251426550237,74.532816403683626,77.481],[107.32943304392688,74.515007373992162,77.5828],[107.42598447762606,74.5092672735131,77.4594],[107.51605990052838,74.52398547986968,77.2591],[107.57434399770045,74.566962642430909,77.214],[107.52076972656249,74.584035761804543,77.2566],[107.50840643322294,74.590806136728574,77.252]]]}}