{"type":"Feature","properties":{"featurecla":"Lake","scalerank":9,"name":"Munduyskoye Ozero","name_abb":"Munduyskoye O.","name_alt":null,"note":null,"delta":null,"dam_name":null,"year":-99,"admin":null,"min_zoom":7.0,"min_label":8.0},
"geometry":{"type": "Polygon","coordinates": [[[88.34765666996833,66.5072728415658,240.9431],[88.3597255991807,66.507861569820051,213.6696],[88.374149441410168,66.5193417707782,218.0328],[88.372088892520253,66.538181074914633,344.5754],[88.387395827131115,66.5508387323813,189.0877],[88.4236026147683,66.56055274857664,91.0],[88.437143364616361,66.569089308263443,91.0],[88.450684114464423,66.585279335255677,91.0],[88.454805212244253,66.592932802561108,91.0],[88.455982668752767,66.60058626986654,91.0],[88.454510848117138,66.616776296858774,91.0],[88.457748853515568,66.624135400037062,91.0],[88.472467059872145,66.634438144486666,91.0],[88.509556939890729,66.64739016608047,91.0],[88.543114450383769,66.670056203869621,91.0],[88.562542482774461,66.678004035302166,101.0925],[88.583442335800783,66.681830768954882,109.0075],[88.60493091708139,66.681536404827739,108.351],[88.561365026265889,66.710384089286634,123.3449],[88.51632731481476,66.715682643575008,111.3951],[88.395638022690775,66.685068774353311,109.3185],[88.3844521858598,66.679770220064967,100.1989],[88.379447995698513,66.671528024505278,106.8693],[88.381508544588485,66.6635801930727,121.2931],[88.390633832529545,66.6515112638603,116.9707],[88.39269438141946,66.6447408889363,122.5469],[88.385040914114029,66.62649031305412,130.2273],[88.354427044892361,66.607651008917685,171.5017],[88.352366496002446,66.586751155891335,243.909],[88.356487593782276,66.573504770170416,251.3546],[88.36001996330782,66.554076737779724,290.5371],[88.3606086915621,66.534354341261917,356.5363],[88.355604501400876,66.520813591413855,371.9809],[88.34765666996833,66.5072728415658,240.9431]]]}}