{"type":"Feature","properties":{"featurecla":"Lake","scalerank":4,"name":"Lake Taymyr","name_abb":"L. Taymyr","name_alt":null,"note":null,"delta":null,"dam_name":null,"year":-99,"admin":null,"min_zoom":4.0,"min_label":5.0},
"geometry":{"type": "Polygon","coordinates": [[[101.33029213298346,73.85666200366218,26.5597],[101.4227224689028,73.830463596347471,36.308],[101.52368936450898,73.828844593648242,4.0],[101.56342852167177,73.834731876190872,4.0],[101.5846227388252,73.8475367157211,4.0],[101.58109036929966,73.865345745412569,4.0],[101.56166233690897,73.8781505849428,4.0],[101.53723011435704,73.8884533293924,4.0],[101.51927390260198,73.898756073842009,4.0],[101.51073734291521,73.909500364482327,4.0],[101.49572477243146,73.933785404970678,4.0],[101.48512766385471,73.946590244500911,4.0],[101.49189803877874,73.955568350378428,4.0],[101.54664976642522,73.9789702984854,4.0],[101.56372288579888,73.992216684206326,39.7864],[101.51986263085627,73.9966321461133,14.7572],[101.485716392109,74.008259529135,4.0],[101.28466569327804,74.123208720779914,4.0],[101.27200803581138,74.13998747602642,4.0],[101.26258838374321,74.149259946031066,4.0],[101.25258000342069,74.154116954128739,4.0],[101.23109142214008,74.157796505717883,4.0],[101.22108304181762,74.162947877942685,4.0],[101.21519575927499,74.168982342548887,4.0],[101.20813102022385,74.181492817951991,4.0],[101.20430428657113,74.187085736367479,4.0],[101.19459027037578,74.207102497012443,4.0],[101.18752553132458,74.22814953210235,4.0],[101.18046079227344,74.238010730361268,4.0],[101.11334577128741,74.279074526096139,4.0],[101.05565040236962,74.325878422310069,4.0],[101.04358147315725,74.344423362319361,4.0],[101.06507005443785,74.363409848519353,4.0],[101.10628103223627,74.377980872812373,4.0],[101.13130198304248,74.393729353613921,4.0],[101.10480921160058,74.416101027275928,16.4275],[101.05358985347971,74.42875868474259,16.6283],[100.8631362632255,74.4213995815643,21.6283],[100.81015072034182,74.412127111559641,12.0007],[100.75539899269529,74.410360926796855,26.2247],[100.65178281994497,74.424931951089874,4.0],[100.58437343483183,74.423607312517788,4.0],[100.59703109229849,74.435234695539478,4.0],[100.61969713008762,74.441416342209251,4.0],[100.69181634123487,74.447156442688311,4.0],[100.74097515046589,74.4614331028542,4.0],[101.02150416362235,74.485865325406138,7.1983],[101.30203317677882,74.510297547958061,4.0],[101.3576679968067,74.507206724623174,4.0],[101.39593533333385,74.488073056359625,4.0],[101.38298331174002,74.476298491274349,17.623],[101.34736525235712,74.457164823010785,22.7762],[101.31263028535557,74.4321438722046,12.2872],[101.30350499741451,74.4024130953643,9.7328],[101.33176395361915,74.378863965193773,5.8316],[101.38180585523151,74.366206307727111,4.0],[101.47482491940514,74.354726106768965,4.0],[101.73886954144223,74.263620409421719,4.0],[101.83100551323446,74.251698662272887,16.4775],[101.91342746883129,74.256114124179859,4.0],[101.9564046313925,74.253023300844973,4.0],[101.98878468537703,74.238599458615525,15.5951],[101.98142558219871,74.232859358136466,10.786],[101.97612702791037,74.226383347339564,10.5856],[101.97524393552897,74.219907336542661,15.6932],[101.98171994632582,74.214020054000031,11.1183],[101.99437760379249,74.212253869237244,12.6219],[102.00644653300492,74.216963695271346,8.7122],[102.02970129904833,74.231093173373665,4.0],[102.05766589112579,74.241690281950412,4.0],[102.08386429844052,74.246400107984513,4.0],[102.11065143400953,74.245517015603127,4.0],[102.13979348259556,74.238599458615525,4.0],[102.17099608007152,74.226530529403135,8.8892],[102.18129882452115,74.2249115267039,7.254],[102.19572266675056,74.227560803848093,4.0],[102.19866630802187,74.233889632581423,4.0],[102.19425084611493,74.248166292747314,4.0],[102.17982700388546,74.267447143074435,10.668],[102.14685822164671,74.274217517998466,4.0],[102.0844530266948,74.272745697362808,4.0],[102.09858250479715,74.286433629274427,4.0],[102.05707716287156,74.292615275944186,4.0],[102.07532773875374,74.301887745948832,4.0],[102.09181212987312,74.313662311034108,4.0],[102.05266170096456,74.369444313125555,4.0],[102.03676603809947,74.382690698846474,4.0],[102.02145910348861,74.388725163452676,4.0],[101.99202269077546,74.396525812821665,4.0],[101.90812891454294,74.453338089358084,4.0],[101.894882528822,74.464523926189088,4.0],[101.89341070818637,74.479094950482107,4.0],[101.90312472438171,74.505146175733259,4.0],[101.93167804471346,74.521630566852622,4.0],[102.19719448738624,74.527223485268124,6.9756],[102.46271093005902,74.532816403683626,4.0],[102.7897494753023,74.484982233024738,6.4231],[102.72498936733331,74.528106577649524,4.0],[102.70144023716279,74.5389980503534,4.0],[102.7906325676837,74.540764235116185,15.5618],[103.14122024309751,74.5966934192712,4.0],[103.4435322016617,74.5807977564061,5.796],[103.46384332643379,74.583152669423143,4.0],[103.48327135882448,74.588745587838645,4.0],[103.55774548298882,74.629073473255687,4.0],[103.72229503005542,74.642614223103749,20.0771],[103.88331220759642,74.615385541344068,20.0449],[103.96337925017627,74.615827087534768,4.0],[104.03108299941653,74.656302155015368,4.0],[103.9692665327189,74.676760461851018,4.0],[103.98045236954988,74.6836780188386,4.0],[103.97397635875296,74.6932448529704,4.0],[103.94218503302278,74.717824257585889,4.0],[103.96337925017627,74.724005904255648,4.0],[103.9869283803468,74.720620716793633,4.0],[104.05051103180722,74.698101861068068,24.185],[104.09702056389403,74.691331486144037,8.8255],[104.12292460708159,74.690448393762637,10.8304],[104.43848295136675,74.738282564421525,5.4327],[104.75404129565192,74.786116735080427,4.0],[105.19205511682384,74.758740871257189,4.0],[105.49186498030744,74.7965666615936,8.8136],[105.79167484379104,74.834392451930029,8.4529],[105.73957239328877,74.849405022413748,34.7023],[105.56972429193377,74.840721280663359,4.0],[105.34600755531369,74.834392451930029,4.0],[104.90446136461622,74.891646274657134,4.0],[104.83263651759609,74.909602486412169,4.0],[104.74226673056666,74.916225679272628,4.0],[104.71606832325193,74.923879146578059,4.0],[104.70282193753098,74.9318269780106,4.0],[104.67780098672483,74.961410572787344,4.0],[104.6666151498938,74.969211222156332,4.0],[104.63688437305353,74.983782246449351,4.0],[104.6265816286039,74.99158289581834,4.0],[104.61951688955276,75.004829281539259,4.0],[104.61981125367987,75.0149848439253,4.0],[104.62187180256979,75.0236685856757,4.0],[104.62039998193416,75.032499509489639,4.0],[104.61039160161164,75.043832528384215,4.0],[104.53179637966753,75.09564061475939,4.0],[104.49264595075897,75.109181364607437,4.0],[104.1950438182289,75.136851592557818,6.3442],[104.13322735153122,75.115657375404339,54.6882],[104.13675972105682,75.1032940820648,23.6605],[104.12704570486147,75.0916666990431,48.7936],[104.12204151470024,75.081658318720628,108.6552],[104.13999772645525,75.074004851415211,85.8336],[104.12498515597156,75.062966196647764,77.9804],[104.10379093881807,75.050897267435374,103.1716],[104.09348819436843,75.038533974095841,81.4003],[104.11291622675913,75.026170680756309,48.7287],[104.0884840042072,75.018075667260192,96.0083],[104.03667591783204,75.015279208052434,140.6879],[104.01165496702583,75.010863746145461,161.536],[103.9639679784305,74.9939378088354,52.4694],[103.93924139175147,74.988786436610582,4.0],[103.89126003902896,74.9934962626447,128.1245],[103.86859400123984,74.992318806136169,150.4604],[103.84887160472204,74.98540124914858,56.0887],[103.83238721360266,74.972302045491219,32.8535],[103.83209284947554,74.967886583584246,41.6421],[103.83798013201817,74.953609923418355,7.4112],[103.83974631678097,74.947428276748582,8.4227],[103.7985353389825,74.930649521502076,22.7577],[103.82561683867863,74.913134855937741,30.1744],[103.99487621177934,74.876780886236986,84.8033],[104.01342115178863,74.8754562476649,55.8977],[104.02313516798398,74.871629514012184,82.7893],[104.03196609179793,74.8638288646432,27.8711],[104.04462374926459,74.856616943528465,25.0275],[104.06493487403668,74.85499794082925,10.9343],[104.10408530294518,74.8633873184525,4.0],[104.18150306838083,74.888996997512947,4.0],[104.22271404617925,74.89591455450055,4.0],[104.421115467866,74.882815350843188,4.0],[104.39992125071251,74.861032405435438,128.7785],[104.36695246847376,74.843370557807546,145.1441],[104.20622965505987,74.794947658894387,32.5366],[104.15854266646454,74.787441373652527,4.0],[104.06552360229097,74.800099031119188,28.8551],[103.86977145774836,74.796419479530044,22.1362],[103.82296756153443,74.790385014923842,50.6924],[103.77822421421041,74.777874539520752,66.7054],[103.70051208464764,74.734750194895952,22.499],[103.49121919025703,74.7100236082169,66.4141],[103.42616471816098,74.691625850271166,28.1065],[103.28575302951913,74.686180113919235,58.1433],[103.08529105894246,74.645263500247935,22.5351],[103.04555190177973,74.630545293891345,4.0],[103.02347459224484,74.629073473255687,4.0],[103.02582950526187,74.63393048135336,4.0],[103.03024496716887,74.648795869773508,17.622],[102.98049742968362,74.6523282392991,25.1717],[102.88217981122165,74.63437202754406,67.9631],[102.67759674286509,74.633194571035531,12.1739],[102.56985947233494,74.652475421362652,20.0356],[102.16319543070253,74.637094895720026,4.0],[101.75653138907012,74.6217143700774,30.4451],[101.67322634109183,74.631428386272745,142.1539],[101.45657434352296,74.623774918967314,54.7261],[101.09745010842232,74.6579211577146,10.9588],[100.84576877972472,74.7341614666417,4.0],[100.66149683614032,74.755944412049431,4.0],[100.58437343483183,74.782878729681983,13.8938],[100.56376794593263,74.795389205085087,4.0],[100.56111866878842,74.80569194953469,4.0],[100.57730869578063,74.834392451930029,4.0],[100.57966360879772,74.848374747968776,4.0],[100.57995797292483,74.878694253063344,5.3126],[100.58437343483183,74.89591455450055,35.9929],[100.54021881576205,74.899299741962565,119.3062],[100.44455047444427,74.88796672306799,41.2821],[100.40598877379,74.89591455450055,4.0],[100.43719137126595,74.9098968505393,4.0],[100.46986578937759,74.918433410226115,16.2723],[100.53786390274502,74.923879146578059,4.0],[100.55964684815274,74.9224073259424,4.0],[100.56730031545817,74.925056603086574,4.0],[100.5705383208566,74.933740344836963,4.0],[100.57524814689071,74.943748725159438,26.7132],[100.58643398372175,74.948017005002853,10.4228],[100.59909164118841,74.950371918019911,4.0],[100.60851129325664,74.954345833736184,4.0],[100.63470970057131,74.981868879623,4.0],[100.63912516247831,74.994526537089655,4.0],[100.63883079835119,75.012629930908247,4.0],[100.63382660818996,75.030438960599724,4.0],[100.62529004850313,75.040300158858628,4.0],[100.58142979356052,75.07268021284311,24.5667],[100.56200176116982,75.081952682847756,35.5658],[100.53933572338065,75.0865153268183,32.6381],[100.40010149124737,75.0856322344369,15.72],[100.37861290996676,75.095199068568689,3.6276],[100.37979036647528,75.110358821115966,4.1355],[100.38714946965359,75.123458024773328,29.4377],[100.38420582838228,75.132730494777974,19.0794],[100.35418068741484,75.136115682239989,16.5408],[100.2067042597219,75.1287565790617,4.1399],[100.23466885179937,75.149803614151608,10.8073],[100.19551842289087,75.168642918288043,1.5339],[100.14518215715134,75.1752661111485,105.2344],[100.09366843490335,75.172469651940744,140.1503],[100.04951381583356,75.163491546063227,102.2824],[100.01448448470489,75.145682516371764,66.7957],[100.01154084343358,75.1274319404896,93.4809],[100.03302942471419,75.111830641751624,44.8868],[100.07011930473277,75.101380715238449,4.7744],[100.05805037552039,75.0925497914245,23.0028],[100.01566194121341,75.08151113665707,41.7327],[100.04392089741805,75.071944302525282,37.7772],[100.49871347383652,75.077390038877226,40.0658],[100.55699757100859,75.054135272833818,37.7108],[100.54227936465196,75.044568438702044,71.5003],[100.50960494654038,75.036031879015226,44.4168],[100.4948867401838,75.026170680756309,17.2588],[100.52520624527835,75.000266637568728,55.4647],[100.55699757100859,74.978483692160978,58.3193],[100.51696404971864,74.9521381027827,121.9638],[100.47604743604734,74.93771426055325,54.3477],[100.43277590935901,74.9318269780106,45.794],[100.38508892076368,74.930649521502076,4.0],[100.38332273600088,74.948752915320682,12.9936],[100.35388632328772,74.9564063826261,25.7664],[100.31561898676063,74.95611201849897,21.4631],[100.28883185119162,74.950519100083469,20.3075],[100.30325569342108,74.9452205457951,16.9528],[100.309731704218,74.944337453413709,29.016],[100.2467377810118,74.925056603086574,51.9721],[100.11339083142116,74.90136029085248,31.8204],[100.04951381583356,74.882815350843188,22.9323],[100.07070803298706,74.873101334647842,25.0378],[100.09661207617467,74.868244326550169,13.7334],[100.11456828792967,74.860149313054052,13.3686],[100.11074155427696,74.840721280663359,34.6726],[100.13635123333739,74.84116282685406,24.3311],[100.16372709716063,74.83866073177343,30.9795],[100.23820122132497,74.817613696683523,82.0669],[100.37095944266133,74.816141876047865,7.424],[100.38626637727219,74.812020778268021,10.4406],[100.392448023942,74.7965666615936,149.3725],[100.38508892076368,74.752559224587429,272.6978],[100.39009311092491,74.736810743785881,82.8642],[100.39833530648463,74.728274184099064,10.2004],[100.42659426268926,74.711642610916115,4.0],[100.44984902873261,74.690301211699079,54.872],[100.46397850683496,74.68073437756729,41.0319],[100.49841910970935,74.671903453753345,4.0],[100.51608095733729,74.647471231201422,12.5384],[100.54110190814345,74.632017114527,24.0821],[100.5705383208566,74.601697609432449,36.8541],[100.54021881576205,74.601697609432449,151.6658],[100.50430639225198,74.595663144826247,109.463],[100.47222070239462,74.582563941168885,96.2395],[100.4539701265125,74.560780995761135,41.0356],[100.46751087636056,74.556807080044862,12.7441],[100.47104324588611,74.549447976866574,8.1956],[100.46427287096208,74.542236055751843,19.0535],[100.44719975158847,74.5389980503534,10.9268],[100.39686348584894,74.540764235116185,34.2955],[100.3259217312102,74.528695305903781,60.1693],[100.28736003055599,74.516332012564263,57.641],[100.24261668323197,74.51191655065729,64.3354],[100.22053937369708,74.505587721923959,70.078],[100.23025338989243,74.504263083351859,64.4003],[100.23790685719786,74.500141985572014,56.3672],[100.2440885038676,74.493518792711555,43.0293],[100.2485039657746,74.484393504770466,25.898],[100.23290266703663,74.4799780428635,26.8355],[100.22495483560402,74.472471757621634,21.7374],[100.21906755306139,74.463640833807688,20.4923],[100.21053099337462,74.453926817612341,22.5006],[100.19905079241647,74.446714896497625,25.2004],[100.12899213015913,74.419486214737944,10.1492],[100.05657855488471,74.375773141858886,50.181],[100.01625066946769,74.3670894001085,26.2245],[99.9735678710336,74.369738677252684,20.2951],[99.840220921442949,74.399175089965851,20.2944],[99.772222808075526,74.427581228234061,16.4463],[99.6444687769004,74.447450806815453,30.0082],[99.584418494965519,74.438325518874365,7.1807],[99.521424571759383,74.437295244429407,82.6286],[99.47167703427408,74.424048858708474,27.7374],[99.162300336658745,74.425962225534832,25.0915],[99.124327364258761,74.416101027275928,15.5486],[99.141989211886653,74.4093306523519,9.4396],[99.236774460823028,74.398291997584465,8.0761],[99.283872721164073,74.3800414217023,17.0377],[99.308893671970282,74.375773141858886,19.4409],[99.767807346168581,74.361496481693,10.0177],[99.85199548652821,74.3498690986713,8.8007],[99.861415138596442,74.344423362319361,7.72],[99.841692742078635,74.334120617869758,5.9202],[99.79606630237322,74.322640416911625,8.4046],[99.781642460143757,74.3063032078558,2.115],[99.88643608940265,74.332354433106971,4.9921],[99.994762088187088,74.341038174857346,7.7446],[100.16519891779632,74.332795979297657,4.0],[100.27205309594513,74.352959922006178,4.0],[100.43984064841015,74.347808549781377,7.1486],[100.4495546646055,74.3433930878744,4.0],[100.47781362081014,74.309982759444964,18.0274],[100.4957698325652,74.29879692261396,34.8684],[100.52137951162564,74.291585001499229,34.8627],[100.57024395672948,74.286433629274427,4.0],[100.59438181515429,74.289524452609314,4.0],[100.63147169517288,74.303212384520933,5.7512],[100.76893974254335,74.313662311034108,4.0],[100.79248887271393,74.312043308334879,4.0],[100.80720707907051,74.307039118173634,24.597],[100.83752658416506,74.286433629274427,32.2553],[100.85666025242858,74.27833861577831,39.2796],[100.89787123022705,74.267447143074435,20.8735],[100.91612180610923,74.255378213862031,21.8491],[100.95586096327196,74.22108479305119,43.5764],[100.97440590328125,74.201215214469812,38.4153],[100.98824101725648,74.176635809854318,36.7097],[100.99059593027351,74.163683788260514,46.4592],[100.989418473765,74.1555887747644,41.0773],[100.989418473765,74.147788125395408,21.433],[100.99589448456192,74.135572014119447,46.0193],[101.00619722901149,74.124827723479143,42.7961],[101.03327872870761,74.108932060614023,37.3288],[101.07184042936188,74.080378740282256,38.4909],[101.13277380367811,74.053297240586147,38.6144],[101.1539680208316,74.033133297877626,35.4822],[101.14131036336494,74.031661477241968,37.3805],[101.12718088526259,74.027834743589253,37.8719],[101.11422886366881,74.021358732792351,12.3283],[101.10480921160058,74.0120862627877,32.8392],[101.10422048334635,74.004727159609416,49.6438],[101.10657539636338,73.99589623579547,59.7125],[101.11187395065178,73.984710398964467,37.8777],[101.09833320080372,73.969256282290047,25.9492],[101.03592800585182,73.929517125127276,32.9566],[101.00972959853709,73.922305204012545,21.5537],[100.93996530040687,73.911119367181541,50.7394],[100.91994853976189,73.902141261304024,30.9083],[100.91788799087198,73.890513878282334,11.5928],[100.92495272992318,73.878739313197059,22.3088],[100.92936819183012,73.863432378586211,12.6028],[100.91994853976189,73.841355069051346,6.5778],[100.98559174011228,73.854601454772265,6.2169],[101.29379098121916,73.861960557950553,26.9859],[101.33029213298346,73.85666200366218,26.5597]]]}}