{"type":"Feature","properties":{"featurecla":"Lake","scalerank":9,"name":"null480","name_abb":null,"name_alt":null,"note":"_untitled_265","delta":null,"dam_name":null,"year":-99,"admin":null,"min_zoom":7.0,"min_label":8.0},
"geometry":{"type": "Polygon","coordinates": [[[100.03567870185839,74.084794202189229,12.6044],[100.00270991961963,74.097157495528762,4.6127],[99.987697349135942,74.1081961502962,3.7357],[99.983281887228941,74.112317248076039,3.8469],[99.98063261008474,74.113936250775268,3.7782],[99.9779833329406,74.116143981728754,3.9451],[99.973862235160709,74.121295353953556,3.9435],[99.975039691669281,74.128360093004716,3.9051],[99.980043881830511,74.137632563009362,6.3862],[99.982104430720426,74.14587475856905,17.36],[99.950607469117358,74.158973962226412,5.5396],[99.93382871387081,74.181492817951991,5.7283],[99.919993599895633,74.206808132885314,5.5834],[99.905864121793343,74.2249115267039,5.5239],[99.885847361148365,74.234772724962809,5.6191],[99.862592595104957,74.240807189569011,5.8323],[99.772222808075526,74.247430382429485,3.7705],[99.761625699498779,74.2447811052853,6.6688],[99.75514968870192,74.23609736353491,2.4324],[99.758682058227464,74.22991571686515,7.9648],[99.767807346168581,74.226236165275992,8.5642],[99.778698818872442,74.2249115267039,8.4643],[99.809607052221281,74.2132841436822,8.5698],[99.790767748084818,74.186938554303921,8.4641],[99.733661107421312,74.142342389043478,9.5123],[99.748084949650718,74.142342389043478,9.2492],[99.736899112819742,74.1301262777675,8.5785],[99.718648536937565,74.121589718080685,8.7608],[99.697748683911243,74.116732709983012,8.7435],[99.67890937977478,74.1151137072838,5.3568],[99.661541896274059,74.11952916919077,3.993],[99.621214010856988,74.134688921738046,10.7161],[99.6070845327547,74.132186826657431,8.6774],[99.600314157830667,74.129243185386116,5.0887],[99.592660690525236,74.128212910941158,5.1091],[99.5858903156012,74.125563633796972,4.972],[99.582946674329889,74.118204530618669,5.0015],[99.587656500364,74.112758794266739,11.5396],[99.609733809898842,74.097893405846591,13.7429],[99.617681641331387,74.093919490130318,15.1949],[99.658892619129858,74.094213854257447,8.072],[99.665662994053889,74.090828666795431,7.7208],[99.6641911734182,74.082292107108614,7.5712],[99.660364439765488,74.075521732184583,19.2659],[99.654182793095742,74.070517542023339,14.1197],[99.645057505154682,74.0672795366249,22.859],[99.651827880078713,74.0599204334466,33.3951],[99.6453518692818,74.057859884556677,28.3612],[99.6418194997562,74.0547690612218,16.7851],[99.637404037849251,74.046821229789245,30.4236],[99.645057505154682,74.046821229789245,22.4467],[99.67890937977478,74.034899482640412,20.6264],[99.742786395362373,73.983827306583066,23.5604],[99.775460813474012,73.964252092128817,13.328],[99.803719769678651,73.957776081331914,5.8937],[99.962676398329734,73.957187353077657,6.1444],[99.980926974211911,73.964252092128817,5.6229],[99.990640990407258,73.972347105624934,3.8715],[99.993584631678573,73.978675934358264,3.8548],[99.988580441517342,73.982944214201666,3.8273],[99.973862235160709,73.984710398964467,3.868],[100.04951381583356,74.0741970936125,4.7548],[100.03567870185839,74.084794202189229,12.6044]]]}}