{"type":"Feature","properties":{"featurecla":"Lake","scalerank":9,"name":"Ozero Kokora","name_abb":"O. Kokora","name_alt":"Lake Kokora","note":null,"delta":null,"dam_name":null,"year":-99,"admin":null,"min_zoom":7.0,"min_label":8.0},
"geometry":{"type": "Polygon","coordinates": [[[101.20106628117264,73.072917515174112,85.8037],[101.18958608021455,73.076302702636127,86.4121],[101.16809749893389,73.085427990577216,67.9472],[101.15602856972151,73.08719417534,82.3824],[101.10657539636338,73.086605447085745,95.9432],[101.09097409762541,73.088813178039231,99.8693],[101.05535603824251,73.0932286399462,115.506],[100.92524709405029,73.083367441687287,138.4809],[100.86460808386119,73.049368385003589,122.5009],[100.85371661115727,73.038918458490414,85.8858],[100.84635750797901,73.023169977688866,87.532],[100.84459132321621,73.0091876816501,85.3293],[100.85106733401312,73.004772219743131,88.5362],[100.85783770893715,72.9984433910098,75.5852],[100.87932629021776,72.9881406465602,64.6767],[100.93348928960995,72.943838845426882,64.7728],[100.97381717502702,72.93029809557882,64.2071],[101.01767742996964,72.928384728752462,62.6321],[101.10480921160058,72.943838845426882,61.0819],[101.16456512940835,72.97253934782222,61.1023],[101.18634807481607,72.990348377513683,61.0356],[101.1522018360688,73.0096292278408,61.1034],[101.16515385766257,73.03435581451987,61.2063],[101.20106628117264,73.072917515174112,85.8037]]]}}