{"type":"Feature","properties":{"featurecla":"Lake","scalerank":9,"name":"Ozero Purinskoye","name_abb":"O. Purinskoye","name_alt":"Lake Purinskoye","note":null,"delta":null,"dam_name":null,"year":-99,"admin":null,"min_zoom":7.0,"min_label":8.0},
"geometry":{"type": "Polygon","coordinates": [[[88.60669710184419,71.925633329678433,18.4714],[88.610818199624021,71.911209487448986,24.9564],[88.617882938675166,71.897668737600924,28.4203],[88.629363139633313,71.884716716007134,38.2059],[88.638782791701544,71.8788294334645,36.3831],[88.648791172024,71.875297063938916,36.5446],[88.657033367583722,71.870292873777686,34.825],[88.660271372982152,71.860284493455211,25.4715],[88.664098106634867,71.852925390276909,36.9859],[88.673812122830213,71.8499817490056,33.4065],[88.684997959661189,71.850570477259865,19.093],[88.6941232476023,71.853219754404037,18.551],[88.701187986653451,71.8676435966335,17.7703],[88.804804159403773,71.930343155712535,17.0363],[88.811868898454975,71.922689688407118,16.9221],[88.814518175599119,71.9076771179234,18.8712],[88.8177561809976,71.897963101728052,37.8614],[88.832180023227068,71.896196916965266,21.211],[88.845720773075072,71.903261656016426,19.6737],[88.855434789270419,71.91533058522883,19.7295],[88.8586727946689,71.92916569920402,17.8652],[88.851902419744874,71.947121910959041,18.2257],[88.837478577515412,71.953597921755943,25.0405],[88.783609942250337,71.955658470645872,17.8804],[88.7562340784271,71.976263959545079,28.2589],[88.716789285391428,71.9852420654226,52.4849],[88.6726346663217,71.982445606214853,41.8037],[88.630834960269,71.968021763985391,37.5002],[88.598749270411645,71.942706449052068,34.7481],[88.60493091708139,71.942706449052068,38.6099],[88.60669710184419,71.925633329678433,18.4714]]]}}