{"type":"Feature","properties":{"featurecla":"Lake","scalerank":9,"name":"Ozero Sobachye","name_abb":"O. Sobachye","name_alt":"Lake Sobachye","note":null,"delta":null,"dam_name":null,"year":-99,"admin":null,"min_zoom":7.0,"min_label":8.0},
"geometry":{"type": "Polygon","coordinates": [[[90.524185025979875,68.901925015781927,530.2385],[90.544496150751968,68.895743369112154,439.8123],[90.567750916795376,68.8933884560951,481.7929],[90.613377356500791,68.895449004985039,479.6529],[90.68932330130076,68.905751749434643,486.2971],[90.726707545446459,68.918703771028419,422.4576],[90.915983679192152,68.9499063685044,510.2942],[91.010474564001413,68.987879340904385,129.8232],[91.056984096088229,68.998182085353989,350.5752],[91.157656627567235,68.997887721226846,517.4059],[91.20239997489125,69.01172283520205,489.8274],[91.07611776435175,69.01172283520205,60.0851],[90.960727026516167,68.996710264718331,116.3225],[90.95248483095645,68.99317789519273,162.054],[90.944831363651019,68.987879340904385,193.16],[90.938649716981274,68.981108965980354,224.5285],[90.927169516023127,68.97316113454778,442.2413],[90.914511858556466,68.971100585657865,523.3801],[90.887135994733228,68.970511857403608,581.6592],[90.817371696603,68.957854199936946,675.7372],[90.797943664212312,68.950200732631515,657.3021],[90.766152338482129,68.9499063685044,644.32],[90.68932330130076,68.9369543469106,532.873],[90.627506834603082,68.916348858011389,663.8923],[90.5539158028202,68.912227760231531,544.2256],[90.524185025979875,68.901925015781927,530.2385]]]}}