{"type":"Feature","properties":{"featurecla":"Lake","scalerank":6,"name":"Ozero Keta","name_abb":"O. Keta","name_alt":"Lake Keta","note":null,"delta":null,"dam_name":null,"year":-99,"admin":null,"min_zoom":5.0,"min_label":6.5},
"geometry":{"type": "Polygon","coordinates": [[[90.0114027165165,68.705584142985089,90.4447],[90.085876840680839,68.70999960489209,83.0],[90.107365421961447,68.705878507112232,83.0],[90.147398943251346,68.692926485518427,83.0],[90.167710068023439,68.689394115992854,83.0],[90.189787377558275,68.691160300755655,83.0],[90.235413817263691,68.701463045205259,83.0],[90.543907422497682,68.70999960489209,325.6694],[90.958960841753367,68.777114625878085,154.7713],[91.037261699570365,68.780352631276543,105.2292],[91.142055328829258,68.800369391921492,401.2983],[91.324266723523749,68.800663756048635,86.6987],[91.440540553740789,68.785945549692059,701.7255],[91.469976966453942,68.785651185564916,799.671],[91.513542857269442,68.793304652870347,525.1119],[91.634526513520541,68.834221266541647,643.9893],[91.698403529108134,68.843935282737,475.3854],[91.713121735464711,68.851000021788138,730.0409],[91.71635974086314,68.864835135763343,697.4418],[91.695754251963933,68.86954496179743,724.3461],[91.644829257970173,68.868367505288916,861.5132],[91.6239294049438,68.863952043381943,758.8871],[91.585367704289524,68.8448183751184,821.749],[91.469976966453942,68.819797424312185,884.4911],[91.41964070071441,68.81685378304087,743.1444],[91.36959879910205,68.819797424312185,140.5201],[91.320145625743919,68.828333983999016,141.1632],[91.2727530012757,68.842169097974192,609.651],[91.250675691740867,68.845407103372651,604.4568],[90.846219381061928,68.819797424312185,416.2607],[90.727885001954974,68.77770335413237,712.0889],[90.43440396720473,68.741202202368044,536.6636],[90.317835772860576,68.743262751257959,523.1455],[90.183900095015645,68.771227343335454,171.83],[90.164177698497838,68.782413180166458,114.9341],[90.137390562928886,68.808611587481181,83.0],[90.122966720699424,68.81950306018507,110.1743],[90.105599237198646,68.826567799236216,124.0],[90.109425970851362,68.831571989397446,135.1174],[90.1156076175211,68.84275782622845,166.0923],[90.120023079428108,68.847762016389709,154.196],[90.088231753697869,68.865129499890458,215.0579],[90.04996441717077,68.8654238640176,278.6514],[89.972546651735115,68.853943663059454,452.4652],[89.767080490997216,68.847762016389709,285.0061],[89.746769366225124,68.849822565279624,249.4255],[89.707030209062339,68.859242217347827,141.0315],[89.687896540798818,68.861302766237742,129.2902],[89.670823421425155,68.856887304330769,102.2473],[89.652572845543034,68.848939472898223,98.3522],[89.634027905533685,68.846290195754051,90.4062],[89.616071693778679,68.857770396712169,99.5832],[89.591345107099642,68.866306956399,90.5231],[89.558376324860888,68.856887304330769,83.4851],[89.527468091512048,68.836870543685819,78.3942],[89.509217515629871,68.813027049388154,90.7523],[89.516576618808188,68.813027049388154,85.6483],[89.5398313848516,68.8039017614471,91.1281],[89.551311585809685,68.797425750650177,83.0],[89.561025602005031,68.789477919217632,83.0],[89.576626900743008,68.783296272547858,83.0],[89.6216646121942,68.785651185564916,83.0],[89.6581657639585,68.77770335413237,83.0],[89.712034399223626,68.785651185564916,83.0],[89.729401882724346,68.783590636675,83.0],[89.745886273843723,68.777997718259485,83.0],[89.777677599573963,68.761807691267251,83.0],[89.808880197049916,68.7529767674533,83.0],[89.8495024465941,68.749738762054847,83.0],[89.890713424392516,68.7512105826905,83.0],[89.922799114249869,68.75680350110602,83.0],[89.951058070454508,68.757686593487421,83.0],[89.984321216820376,68.749444397927732,83.0],[90.003749249211069,68.73325437093547,83.0],[89.990208499363,68.70999960489209,83.0],[90.0114027165165,68.705584142985089,90.4447]]]}}