{"type":"Feature","properties":{"featurecla":"Lake","scalerank":8,"name":"Ozero Labaz","name_abb":"O. Labaz","name_alt":"Lake Labaz","note":null,"delta":null,"dam_name":null,"year":-99,"admin":null,"min_zoom":6.0,"min_label":7.0},
"geometry":{"type": "Polygon","coordinates": [[[99.962676398329734,72.350842311320136,46.2196],[99.941482181176241,72.363205604659655,46.0091],[99.9132232249716,72.37409707736353,73.2034],[99.857588404943726,72.387343463084463,51.349],[99.679203743901951,72.387785009275163,57.3171],[99.635049124832165,72.3936722918178,71.697],[99.521424571759383,72.436207908188322,54.1407],[99.460785561570219,72.439004367396066,77.1854],[99.428111143458636,72.434441723425522,46.8303],[99.412215480593488,72.422519976276689,58.2099],[99.423401317424521,72.411039775318557,51.4747],[99.452543366010559,72.408096134047241,47.5431],[99.50847255016555,72.408243316110813,46.6169],[99.47256012665548,72.3936722918178,47.2108],[99.282106536401329,72.401914487377482,58.7686],[99.239423737967229,72.396763115152666,92.9717],[99.1296259185471,72.35319722433718,83.95],[99.124327364258761,72.346721213540292,81.7914],[99.119323174097474,72.34657403147672,83.6637],[99.117262625207559,72.345838121158891,86.2441],[99.114024619809129,72.346279667349592,88.1004],[99.104899331868069,72.345838121158891,82.0093],[99.086648755985891,72.338184653853475,79.0666],[99.070164364866514,72.32611572464107,77.5675],[99.056034886764166,72.312574974793009,59.4091],[99.095185315672722,72.29888704288139,61.9809],[99.135218836962622,72.2906448473217,54.0545],[99.227943537009082,72.284168836524813,46.9443],[99.243250471619945,72.2790174643,45.61],[99.25119830305249,72.277840007791482,45.576],[99.258263042103636,72.274454820329467,45.5711],[99.25944049861215,72.266654170960479,58.3836],[99.2576743138494,72.259589431909319,53.4071],[99.254730672578091,72.257381700955833,48.5928],[99.270331971316068,72.249581051586844,47.2246],[99.287699454816789,72.245754317934129,47.1461],[99.409566203449344,72.242074766344984,47.0917],[99.455781371408989,72.234126934912425,46.3647],[99.480507958088083,72.21705381553879,47.3324],[99.478153045071,72.204984886326386,47.6794],[99.46431793109582,72.205132068389958,48.3409],[99.4381195237811,72.215140448712432,48.472],[99.420163312026091,72.216317905220961,47.5504],[99.398380366618312,72.212785535695375,47.9928],[99.381601611371821,72.207486981407015,48.5233],[99.378069241846219,72.203365883627171,48.5337],[99.366000312633844,72.216759451411662,48.1411],[99.343923003098951,72.226473467607008,47.3438],[99.320079508801314,72.229711473005452,48.0497],[99.302417661173422,72.22323546220855,50.7743],[99.2977078351393,72.210136258551188,47.0415],[99.315075318640083,72.190855408224067,48.4508],[99.313014769750112,72.1790808431388,49.4872],[99.313897862131512,72.159064082493842,47.436],[99.355108839929983,72.159947174875242,46.8729],[99.464612295222935,72.184526579490736,47.2798],[99.518775294615182,72.18776458488918,48.5417],[99.559397544159367,72.209400348233359,46.3725],[99.757504601718949,72.2135214460132,46.2824],[99.864653143994872,72.230594565386838,46.2789],[99.942659637684756,72.251935964603888,46.3517],[99.970329865635165,72.271069632867452,46.3397],[99.980926974211911,72.3027137765341,46.1211],[99.9762171481778,72.3324445533744,46.2404],[99.962676398329734,72.350842311320136,46.2196]]]}}