{"type":"Feature","properties":{"featurecla":"Lake","scalerank":9,"name":"null477","name_abb":null,"name_alt":null,"note":"_untitled_268","delta":null,"dam_name":null,"year":-99,"admin":null,"min_zoom":7.0,"min_label":8.0},
"geometry":{"type": "Polygon","coordinates": [[[98.842326530466607,72.151999343442682,44.7698],[98.862932019365815,72.146995153281452,68.592],[98.883243144137907,72.146112060900052,59.0778],[98.9053204536728,72.154942984714012,44.5399],[98.891190975570453,72.160094356938814,44.5291],[98.885303693027822,72.170985829642675,44.4285],[98.884714964773536,72.199686332038013,44.5366],[98.887658606044852,72.206898253152744,44.56],[98.895017709223168,72.212343989504674,44.3386],[98.904142997164229,72.215876359030261,44.2728],[98.912090828596774,72.21705381553879,44.2601],[98.922687937173521,72.2148460845853,44.2627],[98.928280855589037,72.210283440614759,44.2467],[98.932401953368867,72.203365883627171,44.307],[98.951535621632445,72.204396158072129,48.9285],[98.9827382191084,72.219408728555848,45.0757],[99.004226800389,72.22323546220855,45.9021],[99.049853240094421,72.222793916017849,45.7878],[99.070753093120743,72.228534016496923,46.0556],[99.082527658206061,72.244282497298471,47.3325],[99.056917979145567,72.245165589679857,46.3164],[99.0486757835859,72.244282497298471,46.412],[99.064571446451,72.2553211520659,45.6962],[99.067515087722313,72.268861901913965,46.4221],[99.059272892162653,72.2803421028721,61.1804],[99.04131668040759,72.285199110969771,67.5798],[98.9827382191084,72.288584298431786,58.5297],[98.952418714013845,72.293882852720159,44.3772],[98.925631578444836,72.3027137765341,44.5697],[98.902376812401428,72.3074236025682,54.3486],[98.839971617449521,72.304332779233334,50.2913],[98.816422487279,72.299475771135661,56.2393],[98.793167721235591,72.290056119067444,43.6395],[98.791990264727076,72.281961105571327,46.7399],[98.806414106956538,72.273718910011638,74.839],[98.829374508872775,72.264152075879849,60.6047],[98.8226041339488,72.257381700955833,67.4016],[98.789929715837161,72.242810676662813,90.3676],[98.764614400903838,72.224412918717078,87.4035],[98.74459764025886,72.200422242355842,63.3326],[98.726935792630968,72.168630916625631,62.4416],[98.749601830420147,72.159652810748113,91.4667],[98.7719735040821,72.155678895031841,82.3252],[98.8190717644232,72.154942984714012,44.7771],[98.842326530466607,72.151999343442682,44.7698]]]}}