{"type":"Feature","properties":{"featurecla":"Lake","scalerank":6,"name":"Ozero Lama","name_abb":"O. Lama","name_alt":"Lake Lama","note":null,"delta":null,"dam_name":null,"year":-99,"admin":null,"min_zoom":5.0,"min_label":6.5},
"geometry":{"type": "Polygon","coordinates": [[[88.790674681301482,69.3617217823616,44.3767],[88.78037193685185,69.347003576005022,60.8327],[88.7909690454286,69.339938836953849,71.5578],[88.8318856590999,69.333757190284075,63.7557],[88.927554000417729,69.313446065512011,41.2809],[89.133020161155628,69.326986815360044,42.314],[89.183945155149388,69.323454445834471,44.32],[89.201312638650165,69.326986815360044,42.3149],[89.242229252321465,69.345826119496479,42.0553],[89.319058289502834,69.3496528531492,41.7039],[89.349966522851673,69.354657043310425,41.2543],[89.409428076532265,69.375262532209661,41.7002],[89.560142509623688,69.409114406829787,44.3782],[89.587812737574041,69.419711515406533,43.5317],[89.606063313456218,69.436784634780167,44.1991],[89.593111291862385,69.436490270653024,42.9237],[89.580453634395724,69.439139547797225,55.6948],[89.568679069310463,69.444143737958456,56.6597],[89.557493232479487,69.451208477009629,68.0051],[89.58192545503141,69.451502841136744,52.7767],[89.653161573797263,69.4641604986034,44.6035],[89.709973850333654,69.463866134476291,44.8162],[89.738821534792578,69.467987232256121,47.1245],[89.793867626566225,69.504782748147591,55.3581],[89.838610973890241,69.517734769741367,49.6255],[90.042310949865339,69.548937367217349,42.4909],[90.4720825754776,69.540400807530517,42.1104],[90.498280982792267,69.534219160860744,42.2291],[90.515942830420215,69.526565693555341,42.3239],[90.5283061237597,69.518323497995652,42.3713],[90.551855253930228,69.49889546560496,168.6208],[90.583352215533353,69.479761797341382,76.4651],[90.69344439908059,69.4417888249414,41.8907],[90.716699165124,69.439139547797225,41.7558],[90.787346555635565,69.451208477009629,95.1164],[90.8759501579022,69.453269025899544,42.0092],[90.923637146497526,69.466221047493349,371.7382],[90.9489524614309,69.4650435909848,276.1785],[90.996933814153351,69.457390123679374,41.9663],[91.387555010857056,69.4641604986034,66.2972],[91.537091987439965,69.409114406829787,41.5313],[91.566234036026,69.416473510008075,185.5524],[91.552398922050827,69.421477700169334,110.481],[91.510893580125241,69.4435550097042,68.5614],[91.469976966453942,69.457390123679374,41.694],[91.464972776292711,69.462983042094891,41.5568],[91.4629122274028,69.4750519713073,53.0381],[91.45967422200431,69.480939253849925,54.4251],[91.4149308746803,69.50213347100339,667.8193],[91.3545862286183,69.503605291639047,964.0872],[91.24007858316412,69.491536362426672,760.6349],[91.006059102094412,69.49889546560496,164.3516],[90.7532003168883,69.4750519713073,1020.7997],[90.712283703217,69.479467433214268,299.1399],[90.676076915579813,69.495068731952244,42.2201],[90.64752359524806,69.525682601173941,42.4466],[90.6366321225442,69.548937367217349,65.09],[90.628389926984482,69.553941557378579,97.1956],[90.575993112355036,69.56483303008244,135.0672],[90.483268412308576,69.5671879430995,274.4738],[90.468844570079114,69.57072031262507,287.5741],[90.43764197260316,69.588382160252991,625.5435],[90.421746309738069,69.594563806922736,734.7883],[90.298113376342769,69.600745453592509,196.0961],[90.163588970243609,69.6322424151956,100.4076],[90.115901981648278,69.635480420594035,85.6429],[90.098828862274615,69.63341987170412,78.7106],[90.088526117824983,69.628121317415747,72.5548],[90.078812101629637,69.620467850110344,54.5577],[90.064682623527347,69.61163692629637,51.1396],[90.054968607332,69.609576377406455,48.1865],[90.005809798100984,69.615463659949086,50.5808],[89.857450278026647,69.604572187245225,77.3541],[89.818299849118148,69.594563806922736,74.7683],[89.818888577372377,69.575135774532043,71.784],[89.809763289431316,69.56483303008244,65.5456],[89.760015751946071,69.54569936181889,54.4794],[89.747946822733638,69.537751530386345,67.1204],[89.7258695131988,69.515674220851452,76.5315],[89.707618937316624,69.504194019893333,73.3142],[89.683481078891816,69.496834916715017,73.76],[89.593111291862385,69.487709628773956,76.4834],[89.505390781977155,69.467987232256121,69.6251],[89.008798499506042,69.421477700169334,76.6876],[88.961700239165,69.408820042702672,62.5374],[88.886637386746429,69.375262532209661,70.9566],[88.86397134895725,69.371435798556945,68.3886],[88.810102713692174,69.368786521412744,68.152],[88.790674681301482,69.3617217823616,44.3767]]]}}