{"type":"Feature","properties":{"featurecla":"Lake","scalerank":9,"name":"Ozero Tembenchi","name_abb":"O. Tembenchi","name_alt":"Lake Tembenchi","note":null,"delta":null,"dam_name":null,"year":-99,"admin":null,"min_zoom":7.0,"min_label":8.0},
"geometry":{"type": "Polygon","coordinates": [[[95.067695328257173,66.757776713754851,378.641],[95.071522061909889,66.750123246449419,377.8022],[95.081236078105235,66.7230417467533,378.3187],[95.073876974926975,66.73010648580447,378.4241],[95.07829243683392,66.720981197863381,378.6181],[95.08005862159672,66.711855909922292,378.6088],[95.078586800961091,66.703319350235489,379.0563],[95.073876974926975,66.6950771546758,402.6708],[95.091538822554867,66.676826578793623,378.8969],[95.120386507013791,66.657692910530074,378.1107],[95.149528555599829,66.648861986716128,378.6127],[95.169839680371865,66.661225280055646,489.436],[95.142169452421513,66.676532214666508,378.5919],[95.135399077497482,66.6959602470572,378.7147],[95.143346908930027,66.7471796051781,412.0361],[95.129217430827737,66.764252724551739,750.6817],[95.040025100306821,66.812528441401327,642.4188],[94.977619905354913,66.864042163649373,745.6241],[94.946711672006074,66.880820918895893,554.1658],[94.893137400868113,66.925564266219908,543.8868],[94.886367025944082,66.937044467178026,495.4952],[94.884895205308453,66.966186515764065,608.559],[94.882540292291367,66.976489260213668,667.5935],[94.874886824985936,66.986792004663272,610.225],[94.865172808790589,66.9970947491129,580.9238],[94.853986971959614,67.0056313087997,661.0085],[94.841623678620067,67.011224227215223,653.6356],[94.817191456068144,67.01593405324931,486.0943],[94.8110098093984,67.0121073195966,440.9911],[94.81778018432243,67.001510211019877,408.2574],[94.831320934170492,66.987086368790415,394.4226],[94.837208216713123,66.977077988467926,379.5793],[94.841918042747182,66.963537238619892,379.2908],[94.842801135128582,66.949702124644688,379.36],[94.831909662424721,66.926152994474165,379.1945],[94.836619488458837,66.914672793516019,379.035],[94.8483940535441,66.904370049066415,379.3637],[95.046795475230851,66.780148387416858,470.3287],[95.067695328257173,66.757776713754851,378.641]]]}}