{"type":"Feature","properties":{"featurecla":"Lake","scalerank":9,"name":"Ozero Ayan","name_abb":"O. Ayan","name_alt":"Lake Ayan","note":null,"delta":null,"dam_name":null,"year":-99,"admin":null,"min_zoom":7.0,"min_label":8.0},
"geometry":{"type": "Polygon","coordinates": [[[94.299699320570653,69.059998552051638,1032.8992],[94.214333723702509,69.05263944887335,657.087],[94.198732424964533,69.055583090144665,544.5002],[94.1893127728963,69.062942193322954,496.4393],[94.173122745904038,69.0838420463493,975.9268],[94.138093414775369,69.112395366681056,743.2139],[94.043308165839,69.164497817183388,1140.0145],[94.010928111854525,69.177449838777164,1125.7878],[93.954115835318078,69.187163854972511,1068.3228],[93.641795496431371,69.313446065512011,885.6727],[93.568793192902717,69.357895048708883,852.157],[93.539356780189564,69.3617217823616,499.1332],[93.561434089724457,69.334345918538361,464.3919],[93.599407062124442,69.306381326460837,464.3298],[94.050667269017254,69.1118066384268,464.8546],[94.120431567147477,69.063530921577211,464.2915],[94.128379398580023,69.046457802203577,464.3777],[94.124552664927307,69.037626878389631,464.3274],[94.116310469367647,69.027912862194285,466.8894],[94.109834458570731,69.017610117744681,530.2197],[94.111600643333531,69.008190465676449,549.6732],[94.121609023655992,69.001420090752418,536.9906],[94.13573850175834,68.995827172336931,479.4428],[94.150751072242031,68.992294802811358,464.1918],[94.169296012251323,68.991117346302815,464.425],[94.166646735107179,69.017315753617538,464.3366],[94.196966240201732,69.032033959974115,572.5629],[94.237294125618746,69.038215606643888,1017.7528],[94.405964770465232,69.036449421881088,917.809],[94.451296846043476,69.046457802203577,1268.3158],[94.375645265370622,69.057349274907438,1276.64],[94.299699320570653,69.059998552051638,1032.8992]]]}}