{"type":"Feature","properties":{"featurecla":"Reservoir","scalerank":9,"name":"Khantayskoye Reservoir","name_abb":"Khantayskoye Res.","name_alt":null,"note":null,"delta":null,"dam_name":null,"year":1970,"admin":null,"min_zoom":7.0,"min_label":8.0},
"geometry":{"type": "Polygon","coordinates": [[[87.735084921407292,67.785107517444374,56.5],[87.857540398294077,67.7918778923684,56.5],[87.917001951974669,67.8095397399963,56.5],[87.967632581841315,67.816898843174584,56.5],[88.008843559639786,67.828673408259846,56.5],[88.047405260294,67.845452163506366,56.5],[88.098918982542045,67.88342513590635,56.5],[88.154553802569922,67.9137446410009,56.5],[88.173393106706385,67.936705042917168,64.6736],[88.156614351459837,67.942003597205542,64.1518],[88.136597590814915,67.944652874349742,56.5],[88.116286466042823,67.944652874349742,56.5],[88.098330254287816,67.942886689586942,56.5],[88.073603667608722,67.932878309264481,64.8508],[88.021501217106447,67.9016757117885,56.5],[87.99912954344444,67.8949053368645,63.0538],[87.971753679621145,67.890195510830381,63.0353],[87.8855049903716,67.853988723193169,61.6784],[87.820450518275493,67.838093060328077,56.5],[87.734790557280178,67.8301452288955,56.5],[87.656195335336008,67.838976152709478,56.5],[87.611746352139164,67.874005483838147,56.5],[87.611451988011993,67.896965885754412,56.5],[87.623520917224425,67.919337559416419,56.5],[87.642360221360832,67.936116314662911,56.5],[87.662965710260039,67.942886689586942,56.5],[87.667675536294155,67.947596515621058,56.5],[87.685337383922047,67.97026255341018,56.5],[87.694462671863164,67.9776216565885,56.5],[87.713007611872456,67.981154026114069,56.5],[87.776295899205763,67.9776216565885,56.5],[87.8045548554104,67.979976569605526,56.5],[87.835757452886355,67.986452580402442,56.5],[87.855185485277048,67.999404601996218,56.5],[87.847826382098731,68.021776275658226,56.5],[87.831341990979354,68.042676128684576,56.5],[87.82869271383521,68.0559225144055,56.5],[87.836346181140584,68.068285807745042,56.5],[87.851358751624332,68.086242019500077,56.5],[87.857540398294077,68.110968606179142,56.5],[87.860484039565392,68.118033345230288,56.5],[87.867548778616538,68.120388258247345,56.5],[87.875790974176255,68.12156571475586,56.5],[87.899045740219663,68.130985366824092,56.5],[87.991476076139008,68.119210801738831,56.5],[87.995597173918839,68.124803720154318,56.5],[87.9885324348677,68.1412881112737,56.5],[87.978818418672347,68.1507077633419,56.5],[87.968810038349829,68.153945768740357,56.5],[87.961745299298684,68.15747813826593,56.5],[87.961156571044455,68.168663975096933,56.5],[87.979995875180862,68.190446920504684,56.5],[88.015025206309531,68.196628567174457,56.5],[88.0527038145824,68.198100387810115,56.5],[88.080962770787039,68.206636947496918,56.5],[88.110399183500192,68.220472061472123,56.5],[88.1942929597327,68.2343071754473,56.5],[88.494250005279866,68.2231213386163,99.9561],[88.746225698104581,68.251380294820933,63.5943],[88.760060812079757,68.249614110058133,56.5],[88.7768395673263,68.24519864815116,56.5],[88.791263409555768,68.238722637354272,56.5],[88.797739420352627,68.230774805921726,56.5],[88.794795779081312,68.220472061472123,66.0519],[88.776545203199134,68.204576398607,59.6982],[88.7697748282751,68.196039838920171,56.5],[88.8781008270596,68.19927784431863,56.5],[88.931086369943273,68.207520039878318,56.5],[88.981716999809919,68.2240044309977,56.5],[88.916662527713811,68.2240044309977,56.5],[88.886048658492143,68.232835354811641,56.5],[88.8728022727712,68.2549126643465,56.5],[88.873979729279768,68.2734576043558,61.5914],[88.86809244673708,68.277284338008513,64.3744],[88.3756212620458,68.302894017068979,56.5],[88.363846696960536,68.309075663738753,56.5],[88.359136870926477,68.323205141841072,56.5],[88.365318517596222,68.335274071053476,56.5],[88.380625452207084,68.342338810104621,60.3801],[88.398581663962091,68.3458711796302,64.5164],[88.56636921642712,68.344693723121679,56.5],[88.584325428182183,68.3467542720116,62.5989],[88.598749270411645,68.351169733918567,56.5],[88.612584384386821,68.358234472969741,56.5],[88.625242041853483,68.3673597609108,56.5],[88.636133514557343,68.377956869487548,56.5],[88.6496742644054,68.384138516157321,63.6822],[88.684703595534074,68.386199065047236,56.5],[88.697949981255022,68.39149761933561,56.5],[88.711490731103083,68.3988567225139,64.5315],[88.763004453351073,68.40827637458213,56.5],[88.777428295580535,68.41651857014179,56.5],[88.783904306377451,68.424466401574364,56.5],[88.788908496538681,68.433002961261167,63.4805],[88.797739420352627,68.443011341583656,56.5],[88.870741723881281,68.470681569534037,56.5],[89.0382349122192,68.444483162219313,56.5],[89.119479411307566,68.456846455558832,63.9283],[89.10564429733239,68.464499922864263,59.9966],[89.068260053186634,68.477746308585182,56.5],[89.054130575084343,68.487754688907671,56.5],[89.0588404011184,68.498057433357275,64.7731],[89.2498827196269,68.5940201388022,56.5],[89.2498827196269,68.601379241980482,61.6494],[89.213087203735427,68.621690366752574,109.2544],[89.150682008783519,68.613448171192886,111.9032],[88.9360905601045,68.530143123214629,89.3431],[88.877806462932426,68.516602373366567,89.855],[88.818344909251834,68.5113038190782,133.1922],[88.763004453351073,68.513658732095251,125.9603],[88.741515872070465,68.509243270188279,128.1198],[88.718555470154229,68.4945250638317,112.2948],[88.697949981255022,68.4703872054069,94.7544],[88.6879416009325,68.463616830482863,93.1216],[88.673812122830213,68.459790096830147,95.3065],[88.626125134234883,68.456846455558832,102.3137],[88.508673847509328,68.410336923472045,92.5773],[88.468345962092314,68.403566548548014,95.5074],[88.428312440802415,68.400917271403813,89.6204],[88.384157821732629,68.406215825692186,82.959],[88.368850887121823,68.398562358386783,81.2296],[88.35413268076519,68.388259613937151,73.4589],[88.3391201102815,68.381489239013121,70.2544],[88.3214582626536,68.380900510758863,68.4245],[88.26317416548153,68.387965249810037,78.1668],[87.960567842790169,68.365593576148029,478.031],[87.91965122911887,68.354407739317026,510.1431],[87.906110479270808,68.348226092647252,336.3909],[87.890509180532831,68.339100804706163,137.3761],[87.88609371862583,68.33056424501936,99.8664],[87.906110479270808,68.327031875493788,93.742],[87.962628391680084,68.33056424501936,181.3436],[88.00001263582584,68.339689532960449,95.0176],[88.012081565038216,68.337334619943391,85.8682],[88.014436478055245,68.3290924243837,64.0292],[88.00589991836847,68.316434766917041,56.5],[87.993830989156038,68.309958756120125,56.5],[87.96321711993437,68.303482745323237,56.5],[87.92965960944133,68.280522343406972,56.5],[87.8445883767003,68.251380294820933,56.5],[87.8054379477918,68.24519864815116,56.5],[87.558760809255432,68.26374358816048,69.8306],[87.53609477146631,68.244315555769788,56.5],[87.562293178781033,68.235484631955813,56.5],[87.653251694064693,68.2240044309977,56.5],[87.732141280135977,68.199572208445773,56.5],[87.7780620839685,68.1916243770132,56.5],[87.786304279528224,68.180732904309338,56.5],[87.7839493665112,68.166309062079876,80.66],[87.772763529680162,68.151885219850442,110.4306],[87.7556904103065,68.141876839527953,86.4826],[87.716834345525172,68.127452997298491,55.3769],[87.7012330467872,68.114206611577572,47.9022],[87.697995041388708,68.104492595382226,57.4037],[87.696228856625908,68.09065748140705,25.8119],[87.692107758846078,68.078588552194645,35.5887],[87.6782726448709,68.069463264253557,37.4351],[87.6167505423004,67.985569488021042,78.477],[87.5982056022911,67.970851281664466,142.9463],[87.570829738467864,67.961431629596234,148.3485],[87.509013271770186,67.948185243875315,131.2837],[87.484875413345378,67.932878309264481,175.5836],[87.476633217785718,67.913155912746646,140.7799],[87.491645788269409,67.87930403812652,56.5],[87.488407782870979,67.861053462244342,56.5],[87.4692741146074,67.844863435252108,56.5],[87.405397099019865,67.811894653013354,56.5],[87.357415746297363,67.796293354275377,56.5],[87.349467914864817,67.774510408867627,82.5275],[87.351234099627618,67.730650153925012,77.2142],[87.3429919040679,67.705040474864546,81.1377],[87.315910404371834,67.650583111345213,67.6353],[87.3100231218292,67.628800165937463,67.0389],[87.291772545947026,67.618791785614974,73.8171],[87.209350590350141,67.612315774818086,88.2822],[87.187273280815248,67.590532829410336,88.2765],[87.2264237097238,67.566983699239813,70.2254],[87.260864312598187,67.537841650653775,56.5],[87.297954192616771,67.5213572595344,56.5],[87.344169360576473,67.53578110176386,56.5],[87.339459534542357,67.543140204942148,56.5],[87.333277887872555,67.554914770027409,56.5],[87.330039882474125,67.56580624273127,56.5],[87.333866616126841,67.570516068765386,56.5],[87.3918563491718,67.607017220529713,56.5],[87.405691463146979,67.679136431676966,56.5],[87.430418049826017,67.7100446650258,56.5],[87.4869359622353,67.705040474864546,56.5],[87.680333193760816,67.638219818005666,56.5],[87.708003421711169,67.641163459276981,58.9267],[87.7236047204492,67.655587301506444,63.184],[87.7218385356864,67.671482964371535,61.5379],[87.708003421711169,67.6841406218382,73.2881],[87.687103568684847,67.689439176126569,64.8234],[87.660022068988724,67.692382817397885,63.5289],[87.62970256389417,67.700036284703316,59.5298],[87.601443607689532,67.711810849788577,56.5],[87.58113248291744,67.7268234202723,56.5],[87.568769189577893,67.744190903773074,56.5],[87.561704450526747,67.747723273298647,56.5],[87.54345387464457,67.7509612786971,56.5],[87.528146940033764,67.7509612786971,56.5],[87.514900554312817,67.7491950939343,56.5],[87.50165416859187,67.7500781863157,56.5],[87.488407782870979,67.75802601774825,56.5],[87.4913514241423,67.768034398070739,56.5],[87.488407782870979,67.778337142520343,56.5],[87.54198205400894,67.792172256495519,56.5],[87.735084921407292,67.785107517444374,56.5]]]}}