{"type":"Feature","properties":{"featurecla":"Lake","scalerank":9,"name":"null481","name_abb":null,"name_alt":null,"note":"_untitled_264","delta":null,"dam_name":null,"year":-99,"admin":null,"min_zoom":7.0,"min_label":8.0},
"geometry":{"type": "Polygon","coordinates": [[[105.80021140347787,74.5562183517906,174.838],[105.73427383900037,74.552538800201447,221.9662],[105.67510664944689,74.5389980503534,203.2204],[105.61505636751207,74.524279843996808,167.8037],[105.42195350011366,74.505587721923959,126.9308],[105.44373644552144,74.498375800809228,122.5712],[105.48995161348108,74.498375800809228,133.5642],[105.51114583063458,74.491899790012326,154.3128],[105.51114583063458,74.484393504770466,133.4511],[105.56236518875545,74.46128592079063,144.0884],[105.62241547069033,74.456576094756528,133.8884],[105.83406327809803,74.463788015871259,133.4161],[105.8620278701755,74.469528116350318,133.4011],[105.8879319133631,74.480272406990622,133.4331],[105.88822627749022,74.487484328105353,137.8132],[105.8470152996918,74.505587721923959,133.7102],[105.90500503273677,74.521630566852622,133.5233],[105.92266688036466,74.532816403683626,133.6902],[105.86497151144681,74.5497423409937,174.0632],[105.80021140347787,74.5562183517906,174.838]]]}}