{"type":"Feature","properties":{"featurecla":"Lake","scalerank":8,"name":"Ozero Dyupkun","name_abb":"O. Dyupkun","name_alt":"Lake Dyupkun","note":null,"delta":null,"dam_name":null,"year":-99,"admin":null,"min_zoom":6.0,"min_label":7.0},
"geometry":{"type": "Polygon","coordinates": [[[91.838815217749925,67.765385120926538,367.4813],[91.8535334241065,67.778337142520343,205.9417],[91.857948886013446,67.788639886969946,131.5981],[91.865307989191763,67.8198424844459,107.6738],[91.870606543480108,67.829850864768389,120.1927],[91.878848739039825,67.83985924509085,162.119],[91.885324749836741,67.851045081921853,282.2451],[91.893861309523516,67.8616421904986,471.63],[91.908579515880149,67.870767478439689,509.1638],[92.189697257290845,67.96702454801175,185.4021],[92.244743349064493,68.001170786759019,274.4013],[92.574431171451977,68.09477857918688,211.857],[92.7448680010612,68.1804385401822,106.6146],[92.768711495358843,68.199866572572887,106.9745],[92.7849015223511,68.22429879512481,121.0781],[92.790494440766622,68.247553561168218,145.4889],[92.792849353783652,68.272280147847283,171.7288],[92.799619728707682,68.299656011670521,106.6109],[92.809333744903029,68.319672772315471,126.4647],[92.82434631538672,68.337334619943391,224.9543],[92.8434799836503,68.34969791328291,445.4533],[92.867323477947991,68.354407739317026,547.541],[92.896171162406858,68.356468288206941,379.7619],[92.920014656704552,68.363238663130971,297.8924],[92.940620145603759,68.374718864089118,216.0157],[93.001259155792866,68.427115678718536,194.6617],[93.046296867244,68.45508027079606,712.5081],[93.095750040602127,68.474508303186752,1013.2097],[93.149029947612974,68.483927955254956,1140.7784],[93.596463420853127,68.465677379372778,797.1041],[93.668288267873265,68.451547901270459,1107.26],[93.758363690775525,68.443894433965056,970.177],[93.785739554598763,68.450664808889087,1117.5284],[93.509920367476383,68.477893490648768,577.112],[93.234101180354,68.505122172408448,787.3364],[93.04335322597268,68.483044862873555,1147.7953],[92.999198606902951,68.4695041130255,1057.42],[92.9671129170456,68.446838075236371,580.7377],[92.920309020831667,68.396796173623983,569.6346],[92.893227521135543,68.378839961868948,756.2803],[92.860258738896789,68.3673597609108,883.2161],[92.799325364580568,68.354996467571283,618.9424],[92.779014239808475,68.3467542720116,463.9736],[92.7625298486891,68.336745891689134,494.2253],[92.752815832493752,68.326737511366645,422.1707],[92.73427089248446,68.302894017068979,240.6177],[92.721024506763513,68.279639251025571,213.6279],[92.715725952475168,68.231952262430241,287.2167],[92.703362659135621,68.209580588768233,523.6855],[92.677458615948069,68.188680735741883,544.5189],[92.558241144459714,68.125392448408576,738.9803],[92.43666875995433,68.084770198864419,601.4711],[92.366021369442763,68.073289997906272,801.7935],[92.234440604614861,68.035022661379173,440.972],[92.1614383010862,68.000582058504762,665.489],[92.148780643619546,67.997932781360561,666.9559],[92.13582862202577,67.993811683580731,585.9189],[92.112868220109476,67.9749723794443,592.497],[92.089024725811839,67.96702454801175,601.2754],[92.05222920992037,67.942886689586942,442.427],[91.990118379095577,67.929051575611766,413.1303],[91.821447734249148,67.866940744786973,541.7015],[91.812028082180916,67.861053462244342,509.9369],[91.807906984401086,67.846040891760623,458.3317],[91.813794266943717,67.837209967946677,554.1072],[91.822036462503434,67.8301452288955,510.2119],[91.826451924410378,67.819253756191642,377.1428],[91.818209728850718,67.798648267292435,454.7154],[91.787890223756108,67.771861131723455,598.4142],[91.784652218357678,67.7509612786971,501.2656],[91.784652218357678,67.744779632027331,416.1247],[91.821447734249148,67.756554197112592,445.6885],[91.838815217749925,67.765385120926538,367.4813]]]}}