{"type":"Feature","properties":{"featurecla":"Lake","scalerank":9,"name":"Ozero Glubokoye","name_abb":"O. Glubokoye","name_alt":"Lake Glubokoye","note":null,"delta":null,"dam_name":null,"year":-99,"admin":null,"min_zoom":7.0,"min_label":8.0},
"geometry":{"type": "Polygon","coordinates": [[[89.587518373446926,69.334934646792618,67.2406],[89.588695829955441,69.324337538215872,63.364],[89.5987042102779,69.313446065512011,57.5212],[89.62048715568568,69.308147511223638,50.3511],[89.649923568398833,69.312562973130611,50.7569],[89.701731654774,69.326986815360044,46.868899999999996],[89.755011561784841,69.33257973377556,47.0453],[89.955179168234338,69.303437685189522,46.966],[90.050553145425,69.277533642001941,46.8156],[90.098828862274615,69.272235087713568,46.5991],[90.257491126798584,69.2763561854934,102.2118],[90.352570739862131,69.24809722928876,46.974],[90.457364369120967,69.246036680398845,81.038],[90.503579537080668,69.234850843567841,47.0159],[90.525656846615561,69.226314283881038,46.6405],[90.550972161548884,69.221310093719779,46.9948],[90.576287476482207,69.220427001338379,47.2448],[90.599247878398444,69.22395937086398,71.6392],[90.623385736823252,69.233379022932183,205.8077],[90.618087182534907,69.238383213093414,323.4183],[90.278979708079191,69.305498234079437,809.1845],[90.091175394969184,69.316389706783326,189.5747],[90.0122858088979,69.343765570606564,270.1569],[89.846264441195672,69.375262532209661,122.7983],[89.701731654774,69.3823272712608,64.634],[89.676710703967785,69.374673803955375,69.5745],[89.623430796957,69.36937524966703,68.6382],[89.5987042102779,69.3617217823616,60.3562],[89.606063313456218,69.354362679183311,65.1054],[89.593700020116671,69.344943027115079,70.4576],[89.587518373446926,69.334934646792618,67.2406]]]}}