{"type":"Feature","properties":{"featurecla":"Lake","scalerank":9,"name":"Ozero Severnoye","name_abb":"O. Severnoye","name_alt":"Lake Severnoye","note":null,"delta":null,"dam_name":null,"year":-99,"admin":null,"min_zoom":7.0,"min_label":8.0},
"geometry":{"type": "Polygon","coordinates": [[[92.628005442589938,67.311475636889526,637.1846],[92.643312377200743,67.313536185779441,744.0921],[92.646256018472059,67.319129104194928,762.3062],[92.629771627352739,67.32766566388176,598.9296],[92.443733499005475,67.390659587087924,756.9626],[92.405171798351262,67.394780684867783,602.0358],[92.323338571008662,67.386832853435237,220.2065],[92.281538864955962,67.37446956009569,218.0575],[92.252102452242752,67.353864071196483,437.7775],[92.258284098912554,67.353864071196483,415.5814],[92.134651165517255,67.324722022610445,734.9623],[91.88090928792974,67.298523615295721,446.4695],[91.8126168104352,67.272913936235256,519.2267],[91.791422593281709,67.270559023218226,341.5952],[91.791422593281709,67.264377376548453,310.866],[91.88267547269254,67.28586595782906,486.185],[92.063709410878516,67.298817979422864,592.9941],[92.389570499613285,67.3671104569174,252.3411],[92.470520634574484,67.360634446120514,338.7185],[92.571487530180661,67.321778381339129,233.6283],[92.60710558956356,67.312947457525183,370.3988],[92.628005442589938,67.311475636889526,637.1846]]]}}