{"type":"Feature","properties":{"featurecla":"Lake","scalerank":9,"name":"Ozero Ayaturku","name_abb":"O. Ayaturku","name_alt":"Lake Ayaturku","note":null,"delta":null,"dam_name":null,"year":-99,"admin":null,"min_zoom":7.0,"min_label":8.0},
"geometry":{"type": "Polygon","coordinates": [[[92.01307878101187,73.815009479673051,42.5577],[92.189991621418017,73.861224647632724,118.5986],[92.164381942357522,73.867553476366055,42.1828],[92.110807671219561,73.8600471911242,42.2992],[92.086375448667638,73.867995022556755,42.256],[92.236795517631947,73.88595123431179,42.2273],[92.278006495430361,73.902141261304024,42.4821],[92.237678610013347,73.915829193215657,69.6116],[92.232674419852117,73.920833383376888,56.8773],[92.227964593818,73.927898122428047,53.1786],[92.221488583021085,73.934226951161378,102.676],[92.210597110317224,73.937023410369136,68.3795],[92.093440187718784,73.929517125127276,64.9812],[91.9992436670367,73.942616328784638,71.3899],[91.9771663575018,73.937023410369136,90.8257],[91.972162167340571,73.922158021948988,61.9843],[91.983348004171546,73.909353182418755,48.5908],[92.001598580053724,73.899933530350538,65.7659],[92.017788607045986,73.895370886380007,57.0594],[92.0171998787917,73.8897779679645,66.257],[92.0145506016475,73.886687144629619,60.0042],[92.004542221325039,73.882271682722646,83.2751],[92.011018232121955,73.882271682722646,67.2183],[91.989529650841348,73.880211133832717,75.5815],[91.854122152360787,73.840766340797074,55.9768],[91.832633571080123,73.827078408885455,77.1901],[91.923297722236725,73.809710925384692,42.5421],[92.01307878101187,73.815009479673051,42.5577]]]}}