{"type":"Feature","properties":{"featurecla":"Lake","scalerank":9,"name":"Ozero Kiyeng-Kyuyel","name_abb":"O. Kiyeng-Kyuyel","name_alt":"Lake Kiyeng-Kyuyel","note":null,"delta":null,"dam_name":null,"year":-99,"admin":null,"min_zoom":7.0,"min_label":8.0},
"geometry":{"type": "Polygon","coordinates": [[[109.51891342153226,73.062173224533808,28.753],[109.44502802562221,73.040537461189629,37.1355],[109.38998193384856,73.004772219743131,25.8023],[109.39675230877259,73.004772219743131,25.766],[109.420007074816,72.968123885915247,23.8109],[109.46033496023307,72.950167674160213,23.8538],[109.51096559009972,72.944280391617582,22.4384],[109.56424549711051,72.943838845426882,21.2885],[109.60869448030741,72.953111315431528,21.0077],[109.63459852349501,72.977101991792765,21.5566],[109.64784490921591,73.0100707740315,20.7024],[109.65667583302985,73.0462775616687,20.6814],[109.59485936633223,73.065411229932266,23.6522],[109.51891342153226,73.062173224533808,28.753]]]}}