{"type":"Feature","properties":{"featurecla":"Lake","scalerank":5,"name":"Ozero Pyasino","name_abb":"O. Pyasino","name_alt":"Lake Pyasino","note":null,"delta":null,"dam_name":null,"year":-99,"admin":null,"min_zoom":4.7,"min_label":6.0},
"geometry":{"type": "Polygon","coordinates": [[[88.1533763460614,69.515674220851452,33.342],[88.139246867959116,69.520089682758424,29.3539],[88.1124597323901,69.522444595775482,28.6259],[88.098330254287816,69.525682601173941,30.3577],[88.088910602219585,69.530981155462314,29.6084],[88.077430401261438,69.544227541183233,36.0598],[88.070365662210293,69.54982045959872,29.2319],[88.056236184107945,69.5551190138871,35.111],[88.030037776793222,69.5568851986499,30.0482],[88.015908298690931,69.559534475794067,32.9921],[88.00501682598707,69.56483303008244,28.566],[87.986471885977778,69.577196323421987,29.0372],[87.974991685019631,69.580728692947559,28.9983],[87.992064804393237,69.595741263431279,28.3569],[88.042695434259883,69.603100366609567,28.2019],[88.057413640616517,69.622528399000259,25.898],[88.05417563521803,69.642545159645209,28.006],[88.038279972352939,69.653730996476213,33.939],[88.01738011932656,69.6619731920359,27.2085],[87.99912954344444,69.6731590288669,25.5686],[87.983528244706463,69.6899377841134,25.5918],[87.976757869782432,69.7020067133258,25.4577],[87.974991685019631,69.71525309904672,27.3145],[87.974991685019631,69.734681131437412,30.1492],[87.964983304697171,69.75793589748082,32.6889],[87.941434174526592,69.760290810497878,28.1766],[87.914058310703354,69.7558753485909,29.2257],[87.892864093549861,69.759113353989335,27.1235],[87.891392272914231,69.765295000659108,27.8322],[87.893747185931261,69.786194853685458,28.5836],[87.892864093549861,69.792965228609489,28.5772],[87.88697681100723,69.797380690516462,28.6191],[87.835463088759184,69.825934010848243,36.1567],[87.693873943608878,69.881274466748977,28.1872],[87.677095188362387,69.892460303579981,28.7139],[87.646186955013548,69.921013623911762,28.2847],[87.627642015004255,69.935143102014081,26.7158],[87.611746352139164,69.943385297573769,25.7264],[87.629996928021285,69.961635873455947,25.8],[87.664437530895725,69.969878069015635,24.7908],[87.930542701822731,69.998725753474531,23.4804],[87.952031283103338,70.009617226178392,23.3518],[87.961156571044455,70.029633986823342,23.1553],[87.967632581841315,70.049650747468291,23.0759],[87.982350788197891,70.062897133189239,57.2256],[88.000306999952954,70.074082970020243,118.8943],[88.015908298690931,70.087918083995419,113.7836],[87.892275365295632,70.087918083995419,66.0048],[87.883150077354514,70.09056736113962,73.909],[87.866371322108023,70.103225018606281,99.208],[87.857540398294077,70.108523572894626,110.7251],[87.844882740827416,70.111761578293084,108.9773],[87.753041133162355,70.1155883119458,75.3282],[87.70653160107554,70.107640480513254,74.0308],[87.662671346132925,70.092333545902392,107.9813],[87.5776001133919,70.052300024612492,86.6862],[87.401276001239978,70.009911590305535,126.6663],[87.375666322179541,69.999903209983046,96.1956],[87.36477484947568,69.985479367753612,63.031],[87.37213395265394,69.974587895049723,57.9305],[87.41982094124927,69.943385297573769,50.0903],[87.402159093621378,69.934260009632681,50.3792],[87.344169360576473,69.916598162004789,57.9663],[87.346818637720617,69.913360156606331,69.4602],[87.348879186610588,69.909827787080758,60.6953],[87.352411556136133,69.906001053428042,90.0189],[87.358004474551649,69.90246868390247,90.7433],[87.3482904583563,69.903057412156727,99.8162],[87.339459534542357,69.901585591521069,93.4751],[87.32385823580438,69.895992673105582,91.923],[87.357415746297363,69.880685738494719,70.5277],[87.368307219001224,69.871854814680773,35.4812],[87.380376148213657,69.864201347375342,44.279],[87.389501436154717,69.868911173409458,31.5936],[87.398921088222949,69.8777420972234,31.0847],[87.412756202198125,69.88245192325752,28.5481],[87.492528880650809,69.88421810802032,27.2931],[87.534328586703509,69.8786251896048,26.9429],[87.564059363543834,69.861257706104027,27.6877],[87.549635521314372,69.847716956256,29.2345],[87.579366298154639,69.83564802704359,32.8751],[87.660022068988724,69.789727223211031,27.1726],[87.671207905819756,69.7735371962188,28.3335],[87.683865563286417,69.743512055251358,67.0389],[87.692696487100363,69.7123094577754,64.9636],[87.690930302337563,69.693764517766112,59.75],[87.70241050329571,69.650492991077755,69.162],[87.700938682660023,69.646077529170782,65.986],[87.7012330467872,69.643133887899467,65.644],[87.718894894415087,69.6404846107553,70.0858],[87.724782176957717,69.638424061865351,71.3546],[87.728314546483261,69.635480420594035,72.1412],[87.733613100771663,69.628121317415747,72.2911],[87.736851106170093,69.625472040271575,69.0324],[87.737439834424379,69.622822763127374,63.9045],[87.735084921407292,69.614874931694828,65.6477],[87.688281025193362,69.574547046277786,97.9275],[87.673268454709671,69.550114823725863,94.3447],[87.7012330467872,69.53981207927626,62.2669],[87.70417668805851,69.504194019893333,32.7013],[87.749803127763869,69.488003992901071,27.3353],[87.854596757022762,69.4844716233755,30.9329],[87.905227386889408,69.489475813536728,29.4123],[87.9299539735685,69.488887085282471,28.7814],[87.979995875180862,69.470342145273179,29.4451],[88.01237592916533,69.462688677967748,32.3417],[88.04505034727697,69.461805585586347,30.913],[88.070954390464522,69.470930873527436,30.9869],[88.064478379667662,69.471813965908837,30.2414],[88.050643265692486,69.47711252019721,30.4379],[88.075075488244408,69.492713818935187,31.1131],[88.096564069525016,69.488298357028214,27.078],[88.117463922551337,69.476818156070067,29.9239],[88.139541232086231,69.470930873527436,28.8875],[88.145428514628861,69.474463243053037,30.9866],[88.175159291469129,69.50301656338479,33.0691],[88.171626921943584,69.5086094818003,35.0318],[88.1533763460614,69.515674220851452,33.342]],
[[87.974991685019631,69.545993725946,29.3016],[87.960273478663055,69.54393317705609,29.1681],[87.91965122911887,69.525682601173941,29.7139],[87.925244147534386,69.530098063080914,30.0645],[87.940551082145191,69.545993725946,29.0996],[87.9281877888057,69.556590834522751,30.0421],[87.912880854194839,69.5577682910313,29.2645],[87.87873461544757,69.553647193251436,28.5126],[87.902872473872378,69.559534475794067,32.7445],[87.974991685019631,69.553647193251436,28.3623],[87.9673382177142,69.545993725946,29.1545],[87.974991685019631,69.545993725946,29.3016]]]}}