{"type":"Feature","properties":{"GID_2":"RUS.2.7_1","GID_0":"RUS","country":"Russia","GID_1":"RUS.2_1","province":"Altay","NL_NAME_1":"Алтайскийкрай","county":"Biysk","VARNAME_2":"NA","NL_NAME_2":"Бийск","TYPE_2":"Gorsovet","ENGTYPE_2":"District","CC_2":"NA","HASC_2":"RU.AL.BG","name":"Biysk.county"},
"geometry":{"type": "MultiPolygon","coordinates": [[[[85.2264,52.5712,212.0126],[85.2275,52.5764,233.0355],[85.2262,52.5799,237.6347],[85.2179,52.5825,234.9437],[85.208,52.5796,232.9377],[85.2066,52.578,232.5835],[85.2085,52.5728,229.5818],[85.2121,52.5696,230.1978],[85.2196,52.5692,222.2672],[85.2264,52.5712,212.0126]]]]}}