{"type":"Feature","properties":{"GID_2":"RUS.83.16_1","GID_0":"RUS","country":"Russia","GID_1":"RUS.83_1","province":"Zabaykal'ye","NL_NAME_1":"Забайкальскийкрай","county":"Khilokskiyrayon","VARNAME_2":"NA","NL_NAME_2":"Хилокскийрайон","TYPE_2":"Raion","ENGTYPE_2":"District","CC_2":"R64092","HASC_2":"RU.CT.KH","name":"Khilokskiyrayon.county"},
"geometry":{"type": "MultiPolygon","coordinates": [[[[109.6034,51.4223,1167.1359],[109.6257,51.4078,1106.8042],[109.6541,51.3576,989.3972],[109.6602,51.3075,749.0276],[109.6478,51.28,779.6172],[109.5549,51.2624,740.5794],[109.5102,51.2462,799.5551],[109.4604,51.2228,736.3731],[109.4249,51.2106,780.0764],[109.3378,51.2142,828.2166],[109.3094,51.207,754.1041],[109.2829,51.193,728.0083],[109.2948,51.1537,819.5575],[109.3259,51.1224,951.9183],[109.3752,51.102,962.3894],[109.3994,51.074,1282.2128],[109.4037,51.0325,1149.5032],[109.409,51.0004,1279.2917],[109.4642,50.9841,1303.4307],[109.548,50.9855,1326.6868],[109.616,51.0083,1313.4753],[109.6722,51.0416,1391.9487],[109.7334,51.0812,1345.9501],[109.7818,51.1056,1419.0593],[109.8317,51.1241,1410.0289],[109.8936,51.1252,1386.0483],[109.9463,51.1166,1446.4744],[109.9883,51.1032,1330.8127],[109.9988,51.0678,1413.1309],[110.007,51.0239,1215.897],[109.9862,50.9798,1079.8052],[109.9649,50.9405,1149.8391],[109.9535,50.9108,1048.2771],[109.952,50.8697,1143.4739],[109.968,50.8384,1070.3512],[109.998,50.8125,1355.899],[110.0005,50.7806,1372.5166],[109.9899,50.7498,1486.8942],[109.9841,50.7262,1399.5771],[109.9404,50.685,1288.1165],[109.9782,50.6912,1221.1346],[110.1086,50.6867,1220.3894],[110.1951,50.6892,1309.0325],[110.2538,50.7136,1666.215],[110.3175,50.7345,1623.4166],[110.3891,50.7527,1389.7588],[110.5053,50.7568,1448.1669],[110.6211,50.7686,1359.537],[110.7103,50.7906,1437.6909],[110.7813,50.8114,1292.8287],[110.8357,50.8349,1341.7748],[110.8957,50.8721,1192.8541],[110.9348,50.9201,1041.0959],[110.9575,50.9715,991.256],[110.9602,51.0135,1215.5424],[110.9756,51.0551,1274.2256],[111.0247,51.0683,1296.7117],[111.1103,51.0739,1225.2084],[111.1299,51.1131,1290.0469],[111.1681,51.1245,1350.9734],[111.3103,51.1184,1164.4154],[111.3818,51.1109,1373.0597],[111.4101,51.1281,1299.774],[111.4548,51.1492,1306.1823],[111.5114,51.1403,1179.0051],[111.5609,51.1475,1093.8781],[111.6164,51.1818,1126.1514],[111.6598,51.2364,1328.7715],[111.6828,51.2588,1266.2],[111.7252,51.2772,1166.337],[111.777,51.2916,1318.4945],[111.8029,51.3299,1248.3116],[111.8346,51.3474,1262.3503],[111.9022,51.3906,1338.1997],[111.8401,51.4279,1238.4253],[111.7998,51.4475,1199.1576],[111.7415,51.448,1066.9634],[111.7121,51.4645,1087.7734],[111.6672,51.4646,1007.6395],[111.6024,51.461,973.5522],[111.5568,51.4686,1081.5576],[111.5575,51.5143,1046.2881],[111.566,51.558,994.9182],[111.5926,51.5847,1102.8513],[111.6306,51.6176,995.4204],[111.6105,51.6568,881.0027],[111.6391,51.704,1048.4189],[111.6461,51.7506,969.8599],[111.6092,51.7791,1103.3213],[111.555,51.7933,1125.1793],[111.5316,51.8175,1126.7075],[111.537,51.8736,1281.2142],[111.4927,51.9047,1484.6622],[111.4607,51.893,1359.8158],[111.4332,51.8858,1191.9973],[111.2777,51.867,1356.9456],[111.222,51.8362,1222.8315],[111.1097,51.8219,1386.3885],[111.0418,51.7999,1190.9103],[111.0071,51.7771,1214.1345],[110.9951,51.7462,1114.2451],[110.9713,51.7204,1310.1985],[110.9094,51.691,1390.8081],[110.8414,51.6631,1240.1705],[110.8217,51.6358,1216.1118],[110.8281,51.5981,1045.6296],[110.8109,51.5695,1093.3867],[110.7615,51.5567,1221.0488],[110.727,51.5404,1222.9377],[110.7121,51.5134,1441.6494],[110.6572,51.4973,1164.4653],[110.5353,51.4928,1201.9209],[110.4133,51.5149,1211.9221],[110.377,51.5452,1035.0845],[110.3523,51.5867,1209.9163],[110.2295,51.5839,1104.17],[110.065,51.5927,1082.2422],[109.9657,51.5939,1095.7455],[109.8978,51.5835,1112.0638],[109.803,51.5423,1301.9626],[109.7374,51.5068,1282.3708],[109.6741,51.4558,1120.2633],[109.6316,51.4274,1189.1355],[109.6034,51.4223,1167.1359]]]]}}