{"type":"Feature","properties":{"GID_3":"RUS.56.18.1_1","GID_0":"RUS","country":"Russia","GID_1":"RUS.56_1","province":"Primor'ye","NL_NAME_1":"Приморскийкрай","GID_2":"RUS.56.18_1","county":"Lesozavodskiyrayon","NL_NAME_2":"Лесозаводскийрайон","city":"NA","VARNAME_3":"NA","NL_NAME_3":"NA","TYPE_3":"NA","ENGTYPE_3":"NA","CC_3":"NA","HASC_3":"NA","name":"N_A.city"},
"geometry":{"type": "MultiPolygon","coordinates": [[[[133.1322,45.4179,64.7646],[133.2609,45.3458,70.0532],[133.3512,45.3,71.8607],[133.3793,45.2622,74.1547],[133.4649,45.2513,88.4349],[133.549,45.2678,74.8907],[133.6453,45.2972,127.8836],[133.6727,45.2835,158.2655],[133.659,45.2618,130.2651],[133.6616,45.2389,138.1469],[133.7099,45.2202,128.3606],[133.7655,45.2413,265.9484],[133.812,45.2451,238.8528],[133.8476,45.2391,294.2419],[133.9385,45.329,574.817],[133.9462,45.3822,479.0768],[133.993,45.4242,387.437],[134.0282,45.4697,310.6655],[134.0762,45.5412,335.1795],[134.0721,45.5604,234.0057],[134.0186,45.575,337.614],[133.9333,45.6142,395.5863],[133.855,45.6589,257.8785],[133.8026,45.6863,269.8777],[133.7732,45.7285,127.7804],[133.7486,45.7575,105.7412],[133.6994,45.7907,97.5689],[133.6685,45.8251,70.4224],[133.6182,45.8246,80.0831],[133.5655,45.8456,86.0092],[133.5764,45.8671,56.0706],[133.5709,45.8681,56.248],[133.5575,45.8792,55.0],[133.545,45.8925,55.0],[133.5211,45.8923,56.8148],[133.5042,45.8829,55.5],[133.5054,45.8677,66.6923],[133.4986,45.8616,57.4751],[133.4903,45.862,57.8895],[133.4802,45.8587,56.5356],[133.4808,45.8515,60.526],[133.4857,45.8415,58.521],[133.4864,45.8335,56.5486],[133.4792,45.8318,63.2979],[133.4708,45.8336,57.5458],[133.4639,45.829,59.2014],[133.4622,45.7984,58.0447],[133.4661,45.7898,61.9145],[133.4952,45.7888,58.2178],[133.4989,45.7817,57.0],[133.4963,45.7751,57.0],[133.4894,45.7712,60.2854],[133.481,45.7723,57.8978],[133.4722,45.7778,59.1687],[133.4642,45.7745,60.1371],[133.4627,45.7548,60.1391],[133.4663,45.7485,59.839],[133.4782,45.7431,60.4284],[133.4806,45.7389,57.5],[133.4747,45.735,63.6065],[133.4636,45.7316,60.4023],[133.4523,45.7304,60.838],[133.4427,45.7206,58.8412],[133.4253,45.693,61.6961],[133.4296,45.6903,60.1389],[133.4437,45.696,62.8754],[133.46,45.6872,62.2246],[133.4715,45.6862,61.6678],[133.4769,45.6835,60.1519],[133.4794,45.6771,66.6996],[133.479,45.6698,62.7427],[133.4816,45.6634,58.5],[133.4761,45.6544,60.3146],[133.4546,45.6521,62.5546],[133.4445,45.6488,62.7404],[133.4443,45.6386,59.0],[133.4664,45.6206,62.4906],[133.4671,45.6126,65.7288],[133.4599,45.6116,62.8887],[133.4435,45.6226,60.6206],[133.4353,45.6215,60.0],[133.4265,45.6161,62.8439],[133.4198,45.6085,62.9762],[133.4115,45.6089,63.8959],[133.4054,45.6072,62.4756],[133.4066,45.5928,62.6799],[133.4135,45.572,62.4243],[133.4037,45.5658,62.5955],[133.389,45.5688,62.336],[133.3793,45.5735,62.2001],[133.3721,45.5724,61.7702],[133.3675,45.5657,65.588],[133.3588,45.5581,67.5488],[133.3421,45.5479,71.2689],[133.3355,45.5404,66.5452],[133.3339,45.5353,68.1734],[133.3367,45.5259,68.4277],[133.336,45.5223,67.597],[133.3221,45.5159,73.5208],[133.3178,45.4932,67.582],[133.3076,45.4913,67.7475],[133.296,45.4937,68.1023],[133.2965,45.5003,67.7352],[133.293,45.5052,67.3176],[133.2818,45.5033,68.5921],[133.2723,45.5181,65.5476],[133.2668,45.5215,65.5263],[133.2587,45.519,65.6714],[133.2512,45.5107,65.5689],[133.2451,45.509,65.6114],[133.2377,45.5116,64.3091],[133.2343,45.5151,63.4516],[133.2274,45.5104,64.0232],[133.2256,45.5074,64.5642],[133.2184,45.5071,63.8912],[133.2152,45.5091,63.2326],[133.1959,45.4931,64.2526],[133.1957,45.4836,65.8659],[133.1823,45.4707,65.1024],[133.1559,45.4652,64.0321],[133.1546,45.4564,64.3805],[133.1571,45.4514,64.5536],[133.1594,45.4377,64.5728],[133.1536,45.4324,64.5664],[133.1475,45.431399999999996,64.8648],[133.1463,45.4219,65.3906],[133.133,45.4199,64.6592],[133.1322,45.4179,64.7646]]]]}}