{"type":"Feature","properties":{"GID_3":"RUS.83.19.1_1","GID_0":"RUS","country":"Russia","GID_1":"RUS.83_1","province":"Zabaykal'ye","NL_NAME_1":"Забайкальскийкрай","GID_2":"RUS.83.19_1","county":"Krasnokamenskiyrayon","NL_NAME_2":"Краснокаменскийрайон","city":"NA","VARNAME_3":"NA","NL_NAME_3":"NA","TYPE_3":"NA","ENGTYPE_3":"NA","CC_3":"NA","HASC_3":"NA","name":"N_A.city"},
"geometry":{"type": "MultiPolygon","coordinates": [[[[118.7471,49.9503,526.7179],[118.7501,49.972,526.2921],[118.7042,50.0017,544.7958],[118.6574,50.0285,578.9484],[118.6444,50.0717,630.9034],[118.6394,50.1232,696.2905],[118.5897,50.1543,832.0375],[118.5218,50.1391,805.9806],[118.4834,50.1129,743.8363],[118.4435,50.1063,709.0403],[118.3904,50.1302,744.0849],[118.3056,50.1256,720.8675],[118.2986,50.1502,645.8638],[118.2704,50.1696,629.3502],[118.1951,50.1536,629.6088],[118.147,50.1561,614.2552],[118.0707,50.1741,628.396],[118.0565,50.2183,659.0172],[118.0321,50.2545,691.7459],[117.974,50.2771,772.2642],[117.9081,50.2835,795.8244],[117.8716,50.3149,738.4859],[117.8288,50.3047,830.8267],[117.8178,50.293,870.297],[117.8016,50.2696,778.2514],[117.7561,50.2782,793.3432],[117.7218,50.3044,775.6879],[117.718,50.3331,721.498],[117.6678,50.3474,698.8668],[117.6066,50.3499,760.1935],[117.5877,50.3753,687.4393],[117.5398,50.3745,679.9589],[117.4774,50.3704,678.4939],[117.4118,50.387,683.2363],[117.3796,50.3807,689.4945],[117.3187,50.3908,723.6036],[117.2977,50.369,709.0695],[117.3069,50.3413,698.4486],[117.3098,50.3166,691.1725],[117.2727,50.2684,693.1348],[117.2994,50.2048,734.5944],[117.3421,50.1531,841.3929],[117.4223,50.1262,813.6334],[117.5383,50.0933,785.4216],[117.5507,50.0504,780.2874],[117.5315,50.0088,799.6729],[117.5318,49.9893,768.2704],[117.6653,49.9679,737.3083],[117.6527,49.9349,722.047],[117.6317,49.9053,762.183],[117.7103,49.8628,694.8054],[117.7892,49.8279,728.6407],[117.8269,49.7932,698.7332],[117.8389,49.757,649.8667],[117.8246,49.6793,653.3403],[117.8075,49.6294,648.9261],[117.8102,49.5839,590.428],[117.8002,49.5582,550.3729],[117.7514,49.5337,547.2266],[117.7966,49.5198,543.642],[117.842,49.5069,544.2339],[117.8546,49.5054,544.6817],[117.8653,49.5089,543.8561],[117.8711,49.5156,543.6355],[117.8735,49.5304,543.1385],[117.8714,49.5366,543.4388],[117.8734,49.5384,543.0575],[117.9064,49.5426,543.1434],[117.9354,49.5637,540.666],[117.9551,49.5677,541.5697],[117.9715,49.5794,541.1867],[117.9867,49.5837,540.538],[117.9997,49.5981,539.2817],[118.0092,49.6035,541.1893],[118.0146,49.6115,540.22],[118.0183,49.6135,538.9984],[118.0269,49.6118,540.0834],[118.031,49.6186,540.1351],[118.0366,49.6192,539.8995],[118.0407,49.6092,539.2253],[118.0459,49.6097,539.6945],[118.0504,49.6139,540.0305],[118.0556,49.6144,539.1696],[118.0587,49.6116,539.9105],[118.0638,49.6108,554.0241],[118.0668,49.6124,541.4796],[118.0701,49.6177,539.5056],[118.0689,49.6233,539.5349],[118.0603,49.629,539.2111],[118.0641,49.632,538.9896],[118.0744,49.6317,539.2682],[118.086,49.6396,538.9077],[118.0895,49.6384,539.2457],[118.0912,49.6305,538.8906],[118.0979,49.6339,538.8506],[118.1109,49.647,538.1434],[118.1053,49.6499,538.3702],[118.1118,49.6543,537.4408],[118.1096,49.659,537.3945],[118.1117,49.6613,538.1998],[118.1208,49.6624,537.9788],[118.1507,49.6594,536.9551],[118.159,49.661,537.6747],[118.1721,49.6711,537.2124],[118.1713,49.6736,535.2407],[118.1745,49.6775,535.525],[118.1903,49.6802,536.5824],[118.1981,49.685,535.9498],[118.2076,49.6939,536.2526],[118.2091,49.6989,535.6125],[118.2043,49.7057,534.9854],[118.2072,49.7109,536.4153],[118.2171,49.7151,535.4191],[118.2277,49.7272,535.8732],[118.2383,49.733,535.592],[118.2499,49.7378,535.6653],[118.2665,49.7421,537.6981],[118.27,49.7453,544.7124],[118.2758,49.7434,535.0691],[118.2863,49.7467,532.7745],[118.3051,49.7655,534.6952],[118.3112,49.7666,534.5416],[118.3252,49.765,534.3207],[118.3307,49.7712,533.7222],[118.3544,49.7763,532.9087],[118.3795,49.7761,533.77],[118.3731,49.7887,533.9812],[118.3801,49.7919,533.4767],[118.3794,49.8011,532.8206],[118.387,49.8029,532.5755],[118.3884,49.8063,533.2253],[118.3854,49.8174,532.3347],[118.3868,49.8241,532.2401],[118.3947,49.8228,532.3212],[118.409,49.8163,532.4694],[118.4167,49.8151,532.3686],[118.4256,49.8209,532.3161],[118.4378,49.8228,532.2975],[118.4504,49.829,531.776],[118.4563,49.8235,531.859],[118.4608,49.8231,531.9207],[118.4664,49.8258,531.6379],[118.466,49.8316,530.826],[118.4693,49.836,531.6375],[118.4845,49.8344,531.3933],[118.4867,49.8374,531.1989],[118.4863,49.8402,531.4742],[118.4806,49.8461,530.7825],[118.4833,49.8513,531.3381],[118.4788,49.8556,530.713],[118.4831,49.8608,531.1051],[118.488,49.8722,530.3413],[118.4935,49.8755,530.7426],[118.4985,49.8764,529.984],[118.5077,49.8736,530.704],[118.5138,49.8767,530.2628],[118.5203,49.8845,530.1303],[118.5198,49.8896,529.9791],[118.5221,49.8939,529.6089],[118.5279,49.8973,530.3597],[118.5364,49.8974,529.7771],[118.5418,49.8995,529.4238],[118.5511,49.8981,529.6719],[118.5556,49.9005,529.8892],[118.5495,49.906,529.6824],[118.5535,49.91,528.6561],[118.549,49.9149,529.0831],[118.5547,49.9212,529.2937],[118.5626,49.9257,528.9425],[118.5866,49.9234,528.8577],[118.5984,49.9278,527.9724],[118.6056,49.9246,528.3215],[118.6148,49.9291,528.6489],[118.6144,49.9384,528.317],[118.6291,49.9335,528.223],[118.641,49.9403,528.2978],[118.6446,49.9446,528.0834],[118.6574,49.9448,527.8704],[118.6708,49.9484,527.6121],[118.6964,49.9449,526.9509],[118.7376,49.9456,526.4389],[118.7471,49.9503,526.7179]],
[[118.097,50.1018,626.3692],[118.0675,50.0816,633.5344],[118.049,50.0871,640.9616],[118.0317,50.1036,639.395],[118.0478,50.1224,632.6871],[118.0783,50.123,623.9579],[118.097,50.1018,626.3692]]]]}}