{"type":"Feature","properties":{"GID_2":"RUS.35.45_1","GID_0":"RUS","country":"Russia","GID_1":"RUS.35_1","province":"Krasnoyarsk","NL_NAME_1":"Красноярскийкрай","county":"Sayanskiyrayon","VARNAME_2":"NA","NL_NAME_2":"Саянскийрайон","TYPE_2":"Raion","ENGTYPE_2":"District","CC_2":"R62093","HASC_2":"RU.KY.SA","name":"Sayanskiyrayon.county"},
"geometry":{"type": "MultiPolygon","coordinates": [[[[95.6936,54.4246,1743.925],[95.7157,54.4718,1556.426],[95.7067,54.5051,1519.4012],[95.7381,54.5436,1401.1162],[95.7839,54.5917,1258.9163],[95.8007,54.6323,1387.5293],[95.7404,54.6727,1233.9014],[95.6605,54.6878,840.0878],[95.6158,54.7505,1354.082],[95.5568,54.7672,991.6465],[95.5023,54.8077,934.4334],[95.4728,54.862,1053.3199],[95.4638,54.917,859.4448],[95.4303,54.9729,1025.5857],[95.3684,55.0422,507.4499],[95.3183,55.0683,539.1215],[95.3092,55.0997,417.5617],[95.3281,55.1232,432.1802],[95.321,55.1539,348.3272],[95.2995,55.192,379.5734],[95.2396,55.2286,443.6801],[95.2496,55.2864,384.0955],[95.2465,55.319,341.2562],[95.2523,55.3565,336.3137],[95.282,55.3723,309.5833],[95.3324,55.3799,306.4708],[95.3418,55.3948,328.3896],[95.3384,55.4311,471.6989],[95.2961,55.4575,337.914],[95.1369,55.4772,330.0129],[95.0383,55.5084,386.2797],[95.0131,55.5474,341.4076],[95.0423,55.5578,345.7185],[95.0504,55.5818,306.9742],[95.0438,55.6161,313.5755],[95.0111,55.6621,346.6264],[94.9675,55.6173,375.3924],[94.845,55.558,346.1933],[94.7885,55.5381,337.8646],[94.7044,55.5287,344.3498],[94.6817,55.5094,345.1816],[94.6651,55.4885,357.2784],[94.6254,55.4465,431.5271],[94.6413,55.3863,437.0875],[94.6389,55.347,480.5405],[94.5855,55.3089,453.3263],[94.4397,55.2506,497.045],[94.351,55.2252,505.3296],[94.2727,55.2312,609.6923],[94.2182,55.2593,526.5598],[94.1566,55.236,544.8172],[94.1065,55.181399999999996,523.3203],[94.1065,55.1185,573.654],[94.1473,55.0734,1014.2534],[94.2183,55.099,991.3667],[94.2922,55.0956,934.5032],[94.2455,55.0512,900.178],[94.2891,54.9706,796.5724],[94.3705,54.9694,895.9646],[94.433,54.948,1160.0337],[94.4637,54.9241,1026.3022],[94.4834,54.8814,1364.03],[94.5608,54.8725,1339.3527],[94.6208,54.8955,818.5389],[94.6734,54.8835,986.2643],[94.6802,54.8419,1265.6873],[94.6075,54.8075,908.929],[94.622,54.7645,1052.6287],[94.7054,54.7385,1015.9844],[94.7424,54.7249,919.4337],[94.7709,54.6844,1145.0385],[94.8145,54.6765,1084.0215],[94.8713,54.6245,1542.9158],[94.8556,54.5947,1145.947],[94.7948,54.5791,1246.0208],[94.7855,54.5277,1085.7795],[94.6962,54.4824,1406.3608],[94.7773,54.4554,1467.15],[94.8312,54.4089,1498.7147],[94.8757,54.3536,1382.3645],[94.9516,54.3299,1548.9594],[95.0098,54.3481,1121.6038],[95.1326,54.3791,1556.3788],[95.2734,54.3599,1478.608],[95.3147,54.3244,1658.3916],[95.3915,54.3331,1894.6786],[95.4481,54.3655,1845.4333],[95.5115,54.3736,1061.0353],[95.5518,54.3289,1287.5562],[95.5929,54.3124,1565.847],[95.5991,54.3518,1768.9628],[95.6308,54.4012,1625.6444],[95.6936,54.4246,1743.925]]]]}}