{"type":"Feature","properties":{"GID_3":"RUS.30.7.1_1","GID_0":"RUS","country":"Russia","GID_1":"RUS.30_1","province":"Khanty-Mansiy","NL_NAME_1":"Ханты-МансийскийАОк","GID_2":"RUS.30.7_1","county":"Kondinskiyrayon","NL_NAME_2":"Кондинскийрайон","city":"NA","VARNAME_3":"NA","NL_NAME_3":"NA","TYPE_3":"NA","ENGTYPE_3":"NA","CC_3":"NA","HASC_3":"NA","name":"N_A.city"},
"geometry":{"type": "MultiPolygon","coordinates": [[[[66.3515,61.3075,88.1236],[66.316,61.3116,87.2165],[66.2297,61.3085,103.1044],[66.0903,61.2964,97.4888],[65.9248,61.3016,92.2138],[65.9055,61.2855,92.4492],[65.798,61.2265,80.7096],[65.3277,61.0539,74.0],[65.1771,61.0082,75.6439],[65.0671,60.9924,73.6095],[65.0158,60.9697,74.0436],[64.9709,60.9383,70.3222],[64.9609,60.9052,70.4049],[64.452,60.753,73.2502],[63.9553,60.6319,53.0191],[63.6247,60.5571,59.7264],[63.3385,60.4998,78.5836],[63.1398,60.5127,83.8578],[63.2227,60.4529,79.4487],[63.2914,60.3974,66.688],[63.3267,60.3196,71.6765],[63.309,60.285,78.3246],[63.2749,60.2497,79.8359],[63.2598,60.241,77.627],[63.3631,60.2127,81.4573],[63.4739,60.1992,75.1512],[63.6196,60.1706,73.0534],[63.7049,60.1495,76.4837],[63.7532,60.1093,74.5807],[63.7729,60.0857,78.1917],[63.7881,60.0232,79.1541],[63.8534,59.8542,84.4807],[63.83,59.8097,90.0996],[63.8323,59.7435,86.6669],[63.8481,59.6729,87.2206],[63.8456,59.6178,84.1507],[63.8508,59.5775,84.4446],[63.8783,59.5397,84.6718],[63.9253,59.4993,80.3907],[63.9846,59.4626,88.8277],[64.0392,59.437,82.5314],[64.0891,59.4225,82.1411],[64.1612,59.4104,77.8818],[64.2322,59.4063,80.2949],[64.4728,59.4061,82.6908],[64.6236,59.3752,85.4338],[64.7351,59.3494,90.1754],[64.8706,59.3388,94.1754],[65.1037,59.3437,93.8329],[65.1468,59.2527,80.0485],[65.1973,59.2589,87.6332],[65.2485,59.257,81.0473],[65.2789,59.2368,83.3709],[65.2906,59.2112,83.8293],[65.3041,59.1614,86.6277],[65.3602,59.0948,90.8717],[65.386,59.0485,88.7951],[65.3954,59.0099,86.103],[65.4844,58.8745,89.4455],[65.5396,58.8078,90.2574],[65.612,58.7626,89.4415],[65.6641,58.7363,89.5818],[65.7294,58.6972,87.5706],[65.7935,58.6744,86.5958],[65.8752,58.6729,90.131],[65.9387,58.6581,94.072],[65.9785,58.62,89.5819],[65.9773,58.5671,89.0386],[65.9971,58.5933,89.7312],[66.0415,58.5987,89.9358],[66.3071,58.5727,89.8265],[66.8295,58.6585,62.3184],[66.8328,58.832,51.4207],[66.8222,58.8848,48.0],[66.9451,58.9352,50.5319],[67.0329,58.9748,49.5],[67.1232,58.9613,51.3374],[67.1664,58.9154,50.3869],[67.3026,58.9607,49.3616],[67.4591,59.0082,52.0074],[67.6346,59.047,50.3089],[67.7239,59.1334,48.906],[67.7673,59.1562,48.5411],[67.9349,59.1616,47.9695],[68.0879,59.1814,46.14],[68.2354,59.2128,47.6958],[68.3424,59.2386,46.9735],[68.424,59.2474,47.5223],[68.4944,59.3023,45.7206],[68.5538,59.3726,41.6021],[68.5827,59.4493,41.7223],[68.6119,59.5442,43.5495],[68.7161,59.5473,41.5],[68.8737,59.5434,40.2436],[68.8988,59.5589,38.8454],[69.4026,59.7621,38.6937],[69.3211,59.8291,37.677],[69.2608,59.8659,36.8753],[69.2459,59.8936,35.5519],[69.2054,59.9362,39.3273],[69.2161,59.9734,38.0065],[69.3083,60.0085,46.978],[69.3935,60.0529,40.78],[69.4741,60.1,27.592],[69.5425,60.1492,29.238],[69.5923,60.2008,37.0687],[69.6041,60.2491,35.4351],[69.5644,60.2869,38.6876],[69.5282,60.3357,33.0107],[69.5876,60.3674,31.014],[69.6585,60.4189,32.1769],[69.703,60.47,29.6063],[69.7455,60.5357,33.3701],[69.7556,60.6027,36.6304],[69.7003,60.6308,26.343],[69.6303,60.6443,25.5989],[69.5431,60.6334,29.3859],[69.4019,60.5872,31.3522],[69.2777,60.5387,29.3134],[69.1516,60.5149,31.9327],[69.0199,60.517,36.0945],[68.9224,60.5285,31.9389],[68.8373,60.5338,32.337],[68.7465,60.5143,31.5924],[68.686,60.4717,31.4166],[68.6174,60.4149,35.0749],[68.5584,60.341,32.6551],[68.5472,60.3036,44.2184],[68.579,60.2729,41.3134],[68.6332,60.2306,39.659],[68.6187,60.1822,37.8713],[68.573,60.136,35.1435],[68.45,60.0843,37.7223],[68.3329,60.0554,41.31],[68.169,60.0397,44.8269],[68.0566,60.0322,41.8124],[67.9513,60.0416,46.142],[67.8298,60.0622,53.4208],[67.7439,60.0531,56.1776],[67.6282,60.0463,58.9085],[67.5032,60.0678,59.7917],[67.3802,60.1318,66.2368],[67.4083,60.1835,75.3879],[67.4306,60.2345,76.596],[67.4497,60.2693,79.7616],[67.5551,60.339,65.9489],[67.5585,60.3768,89.4891],[67.5304,60.43,94.1695],[67.4437,60.4864,60.6901],[67.3505,60.5155,52.6847],[67.1962,60.4997,70.0492],[66.965,60.5035,83.4701],[66.7892,60.5599,73.0753],[66.78,60.5966,76.2094],[66.7972,60.6249,77.0948],[66.8355,60.7011,86.3453],[66.8604,60.8025,112.7886],[66.8222,60.878,69.5855],[66.7082,60.9439,71.2895],[66.5485,61.0752,77.9656],[66.5079,61.1327,55.938],[66.4415,61.201,93.9168],[66.3835,61.2674,69.0591],[66.3802,61.2944,74.5269],[66.3515,61.3075,88.1236]],
[[64.8304,60.0977,63.379],[64.7868,60.0919,58.3814],[64.7732,60.1121,61.5094],[64.7993,60.1228,60.0448],[64.8236,60.1222,50.7307],[64.8337,60.1135,54.9212],[64.8304,60.0977,63.379]]]]}}