{"type":"Feature","properties":{"GID_2":"RUS.80.5_1","GID_0":"RUS","country":"Russia","GID_1":"RUS.80_1","province":"Yamal-Nenets","NL_NAME_1":"Ямало-НенецкийАОк","county":"NovyyUrengoy","VARNAME_2":"NA","NL_NAME_2":"НовыйУренгой","TYPE_2":"Gorsovet","ENGTYPE_2":"District","CC_2":"NA","HASC_2":"RU.YN.NU","name":"Novyy_Urengoy.county"},
"geometry":{"type": "MultiPolygon","coordinates": [[[[76.7111,66.1002,46.5169],[76.6527,66.0917,50.9083],[76.6324,66.053,53.6244],[76.6562,66.0389,59.3306],[76.7117,66.0378,57.0751],[76.7558,66.0625,46.8555],[76.7449,66.0876,48.2375],[76.7111,66.1002,46.5169]]]]}}