{"type":"Feature","properties":{"GID_2":"RUS.60.4_1","GID_0":"RUS","country":"Russia","GID_1":"RUS.60_1","province":"Sakha","NL_NAME_1":"РеспубликаСаха","county":"Amginskiyrayon","VARNAME_2":"NA","NL_NAME_2":"Амгинскийрайон","TYPE_2":"Raion","ENGTYPE_2":"District","CC_2":"R65000","HASC_2":"RU.SK.AM","name":"Amginskiyrayon.county"},
"geometry":{"type": "MultiPolygon","coordinates": [[[[131.7916,59.9234,367.9454],[131.8701,59.9498,364.2576],[131.9476,59.9544,320.0575],[132.0108,59.9044,244.4689],[132.0886,59.9902,236.5102],[132.1583,60.1081,387.3227],[132.2625,60.3319,313.0105],[132.3226,60.4434,338.5876],[132.3754,60.5367,300.1729],[132.4361,60.5677,393.1323],[132.5081,60.5819,333.4189],[132.5535,60.5765,401.3099],[132.592,60.5537,380.9459],[132.6145,60.5309,390.1765],[132.6866,60.562,316.1909],[132.9009,60.6429,400.4869],[133.0644,60.6853,391.5038],[133.1651,60.7517,267.8771],[133.146,60.8123,199.2837],[133.0993,60.8849,272.7009],[133.0751,60.9589,330.4481],[133.0901,61.0585,348.5478],[133.1214,61.148,323.695],[133.1009,61.2171,267.0478],[133.0349,61.2205,283.9433],[132.9544,61.2386,237.9137],[132.9417,61.2839,287.9128],[132.9964,61.359,271.749],[133.0708,61.3942,327.1794],[133.1245,61.4408,322.206],[133.1244,61.4998,275.9315],[133.0808,61.5594,136.1193],[132.9993,61.6055,171.8051],[132.9043,61.6287,222.9693],[132.5469,61.6273,274.7447],[132.4305,61.5313,301.6799],[132.3494,61.5147,182.1271],[132.2778,61.517,223.3479],[132.2101,61.5133,236.6693],[132.1653,61.4879,349.9399],[132.1181,61.456,345.8362],[132.0818,61.4366,348.447],[132.0337,61.4341,289.1705],[131.9631,61.4452,262.0],[131.9252,61.4675,278.3604],[131.9144,61.4912,271.4821],[131.9485,61.5174,274.2144],[131.9573,61.5433,237.4445],[131.9199,61.5694,263.3301],[131.8715,61.587,257.3251],[131.8753,61.6114,251.8558],[131.8513,61.6414,241.6769],[131.7088,61.6614,224.3209],[131.6295,61.6914,243.3195],[131.6425,61.6379,221.5494],[131.6808,61.5946,218.126],[131.6443,61.5229,265.3722],[131.5745,61.4551,260.0342],[131.4381,61.4034,237.1903],[131.2647,61.3654,252.9346],[131.1176,61.3622,245.3021],[131.0249,61.3621,277.1248],[130.9384,61.3464,277.4392],[130.9016,61.2882,211.0123],[130.903,61.2199,208.0593],[130.9389,61.1675,235.3504],[130.8589,61.1096,274.0959],[130.9187,61.0576,341.263],[130.9737,61.0216,358.8336],[130.9749,60.9775,289.0703],[130.9249,60.9175,329.5331],[130.9134,60.8814,330.828],[130.9174,60.8416,287.399],[130.8932,60.7945,303.0525],[130.8505,60.7579,351.4146],[130.7599,60.7306,343.3121],[130.592,60.7245,301.2443],[130.3308,60.7639,379.9473],[130.2613,60.7682,395.594],[130.1951,60.7369,345.8367],[130.1394,60.729,321.5594],[130.0193,60.7449,406.0801],[129.9572,60.7226,363.1863],[129.8551,60.7203,383.1108],[129.8421,60.746,380.4745],[129.8453,60.7878,319.181],[129.7923,60.8108,263.9615],[129.6425,60.8448,337.1651],[129.2117,60.9128,417.2543],[129.0461,60.9297,382.1331],[128.961,60.9286,350.8004],[128.9482,60.8077,414.956],[128.947,60.6841,334.0317],[128.9581,60.5177,406.3457],[128.9828,60.3284,278.5628],[129.026,60.1939,345.7292],[129.0675,60.1157,374.3437],[129.1484,60.0342,376.4236],[129.1928,59.9945,293.7388],[129.2764,59.9487,319.074],[129.3628,59.9209,297.8885],[129.4129,59.8806,394.4917],[129.5166,59.8071,422.8578],[129.6752,59.7561,425.3724],[129.7925,59.7473,412.963],[129.8877,59.7457,432.0841],[129.9552,59.7654,461.1791],[130.0101,59.7742,388.8385],[130.0972,59.7436,447.3773],[130.1651,59.7383,401.6035],[130.2377,59.7488,391.4581],[130.3442,59.7092,428.8393],[130.3768,59.6605,397.7388],[130.3621,59.6033,359.4232],[130.3544,59.5443,416.6544],[130.3553,59.5093,402.0517],[130.3849,59.4811,374.9617],[130.4158,59.4876,310.1114],[130.5253,59.6216,385.5808],[130.5766,59.7189,421.6418],[130.6275,59.7863,361.4214],[130.6316,59.8411,335.3903],[130.6806,59.893,364.3752],[130.9151,59.9487,346.7926],[130.976,59.9708,386.8542],[131.0421,60.0105,398.2604],[131.0847,60.064,384.5046],[131.1288,60.1081,258.0608],[131.2263,60.0912,384.5668],[131.321,60.087,395.3449],[131.4449,60.0785,325.7589],[131.6076,60.0082,401.4814],[131.646,60.0057,388.9181],[131.6911,60.0316,270.6671],[131.737,60.0381,255.8661],[131.7826,60.0258,278.8389],[131.8123,60.0124,319.773],[131.8055,59.977,357.2902],[131.7729,59.937,330.9783],[131.7916,59.9234,367.9454]]]]}}