{"type":"Feature","properties":{"GID_3":"RUS.24.11.1_1","GID_0":"RUS","country":"Russia","GID_1":"RUS.24_1","province":"Kamchatka","NL_NAME_1":"Камчатскаякрай","GID_2":"RUS.24.11_1","county":"Ust'-Kamchatskiyrayon","NL_NAME_2":"Усt.-Камчатскийрайон","city":"NA","VARNAME_3":"NA","NL_NAME_3":"NA","TYPE_3":"NA","ENGTYPE_3":"NA","CC_3":"NA","HASC_3":"NA","name":"N_A.city"},
"geometry":{"type": "MultiPolygon","coordinates": [[[[162.4472,56.208,0.436],[162.4478,56.2092,0.1866],[162.4444,56.2108,0.0],[162.44,56.2068,0.7309],[162.4296,56.2037,0.0],[162.3746,56.1934,0.2824],[162.4237,56.2015,0.4507],[162.4472,56.208,0.436]]],
[[[162.4394,56.2081,0.27],[162.44,56.21,0.3548],[162.4356,56.2103,0.8704],[162.4244,56.2067,0.7013],[162.4022,56.2039,0.0],[162.3928,56.1994,0.4548],[162.4329,56.2076,0.5679],[162.42,56.2036,0.4043],[162.4239,56.2036,0.0],[162.4394,56.2081,0.27]]],
[[[162.4966,56.2322,0.7831],[162.4868,56.2398,0.444],[162.4818,56.2412,1.0],[162.4758,56.2403,0.0],[162.4868,56.2345,1.0461],[162.4966,56.2322,0.7831]]],
[[[162.4747,56.246,0.9413],[162.4731,56.2452,1.1902],[162.463,56.2475,0.4596],[162.4608,56.2463,0.4279],[162.467,56.2442,0.9765],[162.4873,56.2429,0.2731],[162.4841,56.2459,0.4873],[162.4747,56.246,0.9413]]],
[[[162.5041,56.2341,0.3345],[162.5062,56.2345,0.2898],[162.5058,56.2366,1.0587],[162.5009,56.238,0.0],[162.5032,56.2363,0.4253],[162.5041,56.2341,0.3345]]],
[[[162.4962,56.2346,0.2707],[162.5,56.2336,0.0],[162.4939,56.2383,1.1177],[162.4889,56.2394,1.047],[162.4922,56.2378,0.3955],[162.4962,56.2346,0.2707]]],
[[[159.2314,55.8719,257.0483],[159.2972,55.8562,154.2942],[159.4071,55.8265,107.6095],[159.4588,55.8256,86.6726],[159.5059,55.8381,72.4161],[159.4746,55.8678,87.3839],[159.5103,55.882,71.3811],[159.5833,55.8242,47.7905],[159.5723,55.8003,52.957],[159.6894,55.7251,44.1703],[159.7905,55.702,45.3145],[159.8486,55.6614,48.9633],[159.8591,55.6166,57.6847],[159.9023,55.5771,61.6106],[159.9707,55.5342,71.181],[160.0367,55.481,97.6857],[160.1688,55.4274,137.3788],[160.2016,55.3916,264.4192],[160.204,55.3572,646.4683],[160.3266,55.3002,915.1118],[160.4175,55.2795,509.609],[160.4327,55.2348,828.5542],[160.4037,55.2023,496.293],[160.4452,55.151,1285.4507],[160.5619,55.0938,1625.6271],[160.768,55.0553,1770.4402],[160.9949,55.0909,1337.0289],[161.1014,55.1229,758.468],[161.1675,55.1305,884.0048],[161.2393,55.1032,486.5591],[161.3391,55.0539,626.4541],[161.3805,55.0292,588.5305],[161.4286,55.024,337.7999],[161.5058,55.0447,514.7232],[161.532,55.0868,577.9215],[161.5943,55.1191,144.7766],[161.7115,55.145,273.313],[161.8075,55.1719,35.0041],[161.797,55.1899,21.4083],[161.7923,55.2032,2.1053],[161.7824,55.2165,3.7547],[161.7669,55.2676,0.0],[161.765,55.2718,3.4115],[161.7607,55.2743,7.7726],[161.7631,55.2775,2.9997],[161.7617,55.2833,9.0564],[161.7583,55.2958,4.6687],[161.7544,55.3033,5.6123],[161.755,55.3053,3.337],[161.7511,55.3103,17.943],[161.7528,55.3119,4.3193],[161.7505,55.3153,7.6109],[161.7502,55.3241,2.792],[161.7464,55.3314,6.6275],[161.7468,55.3501,6.0746],[161.7422,55.3681,2.1804],[161.7427,55.3748,0.0],[161.7407,55.3879,3.2362],[161.7383,55.3983,0.0],[161.7361,55.4,4.3246],[161.7361,55.4028,2.2061],[161.7389,55.4058,2.2064],[161.7372,55.4136,0.7842],[161.7409,55.4161,1.7785],[161.7404,55.4225,0.4611],[161.7417,55.4233,0.4611],[161.7401,55.4256,1.0357],[161.7391,55.4492,6.0188],[161.7414,55.487,6.1138],[161.7516,55.5437,4.2625],[161.7505,55.5501,5.3341],[161.7426,55.5525,5.9687],[161.7513,55.5549,3.7864],[161.7525,55.561,2.3045],[161.7618,55.5782,3.8336],[161.7737,55.611,5.6426],[161.7943,55.6496,5.653],[161.8049,55.664,0.0],[161.805,55.6686,1.9991],[161.8122,55.6744,0.0],[161.8256,55.6914,1.0963],[161.825,55.6925,3.752],[161.8351,55.7033,1.3604],[161.8388,55.7051,0.0],[161.8475,55.7155,4.7136],[161.855,55.7168,0.0],[161.8576,55.7219,0.0],[161.8598,55.7228,0.0],[161.8589,55.7259,28.0237],[161.8634,55.7324,44.4552],[161.8694,55.7371,0.0],[161.8712,55.7413,43.3874],[161.8759,55.7444,0.0],[161.8878,55.7594,38.4707],[161.893,55.7632,10.2755],[161.9082,55.7692,0.0],[161.9074,55.7714,0.0],[161.9088,55.7756,0.0],[161.9195,55.7858,0.0],[161.9243,55.7933,13.4047],[161.9243,55.797,70.8153],[161.9259,55.7986,0.0],[161.9251,55.8015,11.5519],[161.9162,55.8077,2.5698],[161.9188,55.8096,0.0],[161.9211,55.8164,24.0019],[161.926,55.8221,0.0],[161.9241,55.8227,87.3893],[161.9239,55.8275,26.7088],[161.9297,55.8402,0.0],[161.9584,55.8711,3.0923],[161.9656,55.8717,0.0],[161.9625,55.8789,0.0],[161.965,55.8814,0.0],[161.9644,55.8865,0.0],[161.9678,55.8932,0.0],[161.9742,55.9001,57.9865],[161.9816,55.9058,29.9463],[161.9831,55.9091,18.5823],[161.9966,55.9216,19.8107],[162.0122,55.9331,0.0],[162.022,55.9373,0.0],[162.0258,55.9448,4.6379],[162.0203,55.9503,0.0],[162.0206,55.9592,6.413],[162.0261,55.9728,25.7987],[162.0334,55.9799,0.0],[162.0382,55.9895,9.5034],[162.0606,56.0079,11.1558],[162.0746,56.0144,16.9047],[162.0756,56.0166,0.3591],[162.0746,56.0179,1.4463],[162.0783,56.0204,4.7481],[162.0798,56.0251,2.8997],[162.0689,56.026,1.0074],[162.0575,56.031,0.0],[162.0526,56.0361,0.0],[162.0519,56.0448,53.2604],[162.0566,56.0556,0.0],[162.0618,56.0617,13.4742],[162.0782,56.0741,7.9541],[162.0756,56.0783,19.8963],[162.0767,56.0812,28.8117],[162.0833,56.0867,2.5802],[162.1198,56.1089,3.0522],[162.1605,56.1292,4.7185],[162.2061,56.1468,2.5877],[162.2604,56.1628,2.3619],[162.3279,56.1771,3.3591],[162.3917,56.1933,0.0],[162.4468,56.2038,2.675],[162.4754,56.206,0.0],[162.4811,56.2098,0.2858],[162.4752,56.2081,0.0],[162.449,56.206,0.0],[162.4289,56.2007,1.6958],[162.3941,56.1961,1.7448],[162.3275,56.1792,0.9844],[162.3598,56.1892,0.3216],[162.3557,56.1888,0.2337],[162.2804,56.1698,1.5426],[162.2975,56.1759,4.8348],[162.3825,56.1979,0.0],[162.3456,56.1894,1.2864],[162.3525,56.1929,4.1964],[162.383,56.1987,0.0],[162.394,56.2023,1.304],[162.3664,56.1983,3.1891],[162.3698,56.2,0.0],[162.4435,56.2128,0.0],[162.4378,56.215,0.361],[162.425,56.2136,0.9823],[162.4072,56.2078,0.9758],[162.3989,56.2064,2.2244],[162.395,56.2072,0.3898],[162.3517,56.1975,3.4279],[162.3755,56.2064,2.0174],[162.3783,56.2053,0.0],[162.3895,56.2061,0.0],[162.4383,56.2178,0.9053],[162.4489,56.2147,0.4795],[162.4506,56.2114,0.0],[162.4534,56.2122,1.2274],[162.4678,56.2094,0.5838],[162.474,56.2128,0.4249],[162.4854,56.2147,0.0],[162.493,56.224,0.0],[162.4926,56.2266,1.8212],[162.4778,56.2306,0.0],[162.464,56.2385,0.9923],[162.4545,56.2414,1.6867],[162.4577,56.2501,0.0],[162.4671,56.2477,1.4456],[162.4837,56.2465,0.4873],[162.4982,56.239,0.4413],[162.5046,56.2383,0.7508],[162.5074,56.2353,1.9288],[162.5051,56.2329,0.0],[162.5059,56.2299,0.0],[162.5106,56.2281,0.4295],[162.5061,56.2322,0.0],[162.51,56.2328,2.1204],[162.5145,56.2272,1.3003],[162.5198,56.2248,0.0],[162.5255,56.2275,0.7566],[162.5277,56.2315,3.1183],[162.5329,56.2318,0.1523],[162.5341,56.2296,0.4619],[162.5372,56.2298,0.0],[162.5444,56.2378,0.0],[162.56,56.2464,0.0],[162.5761,56.25,0.2311],[162.577,56.2532,1.3158],[162.5801,56.2553,0.0],[162.5994,56.2594,2.3348],[162.6006,56.2572,0.2703],[162.6028,56.2578,0.0],[162.6033,56.2594,0.0],[162.6017,56.2603,2.2634],[162.6026,56.2623,0.0],[162.5991,56.266,0.645],[162.5944,56.2679,0.4294],[162.5915,56.2724,1.3688],[162.5828,56.2784,0.3305],[162.5759,56.2793,1.0105],[162.5839,56.2858,0.2631],[162.5806,56.2875,0.0],[162.5799,56.2926,0.0],[162.5773,56.2952,0.4907],[162.5595,56.2952,0.5839],[162.5483,56.2922,0.0],[162.5314,56.2928,0.2541],[162.5184,56.2874,0.2022],[162.5139,56.2883,0.6046],[162.5307,56.294,0.191],[162.5285,56.2976,0.2446],[162.5252,56.2991,0.0],[162.5264,56.3028,0.8347],[162.5352,56.3054,0.0],[162.5405,56.3087,0.0],[162.5367,56.31,0.5859],[162.54,56.3122,1.844],[162.5355,56.3218,0.4099],[162.5253,56.325,0.6061],[162.4951,56.3288,1.2318],[162.4952,56.3304,1.2318],[162.4995,56.3311,0.0],[162.4998,56.3334,0.0],[162.491,56.3355,0.0],[162.4861,56.3385,0.9603],[162.484,56.338,0.1513],[162.4856,56.3356,0.6251],[162.481,56.3378,0.6894],[162.4695,56.3389,0.9171],[162.4683,56.34,0.9171],[162.4705,56.3414,0.3658],[162.4642,56.3472,0.0],[162.4613,56.346,0.2366],[162.4598,56.3432,0.5765],[162.4537,56.3417,0.8164],[162.4552,56.3404,1.0972],[162.4444,56.3374,0.5107],[162.442,56.3388,0.3273],[162.4434,56.3402,0.0],[162.458,56.3443,0.5747],[162.46,56.3489,0.0],[162.4572,56.3503,1.1294],[162.4577,56.3546,1.6602],[162.445,56.3572,0.0],[162.442,56.3601,0.0],[162.4282,56.3633,1.09],[162.4072,56.3644,0.8248],[162.41,56.3675,0.7969],[162.403,56.3697,0.2196],[162.3988,56.3764,3.7825],[162.4089,56.3839,0.0],[162.4061,56.3856,1.9857],[162.4073,56.3893,0.5432],[162.4156,56.3908,0.6162],[162.4167,56.3917,0.4495],[162.415,56.3925,0.8851],[162.4156,56.3942,0.9567],[162.4204,56.3954,0.0],[162.4284,56.3947,0.2707],[162.4312,56.3896,0.7664],[162.4362,56.3881,0.194],[162.4504,56.3896,0.3463],[162.4566,56.3947,1.0016],[162.4645,56.3972,0.855],[162.4756,56.3937,0.0],[162.4814,56.3951,0.1755],[162.4832,56.3975,1.7697],[162.4944,56.4025,3.4349],[162.4965,56.4049,1.4144],[162.4987,56.4108,0.5759],[162.4974,56.417,0.0],[162.4991,56.4191,0.0],[162.505,56.4231,2.1459],[162.5209,56.428,0.6964],[162.5402,56.4294,1.3892],[162.5586,56.4212,0.0],[162.5668,56.4203,0.0],[162.5765,56.424,6.6787],[162.5792,56.4294,5.2134],[162.6001,56.4312,0.2427],[162.606,56.4341,1.6422],[162.6214,56.4378,1.6833],[162.6257,56.4394,0.6119],[162.641,56.4512,0.0],[162.6509,56.4669,0.0],[162.6611,56.4775,1.0387],[162.6703,56.4812,0.5808],[162.6861,56.4833,0.0],[162.7224,56.4844,2.7428],[162.7391,56.482,0.0],[162.7659,56.4755,6.1696],[162.7856,56.4679,0.4767],[162.7906,56.4676,3.1909],[162.8054,56.4623,2.5126],[162.8198,56.4554,0.0],[162.8613,56.442,2.4936],[162.91,56.42,0.0],[162.9062,56.4245,2.0418],[162.9062,56.4277,4.6519],[162.9179,56.4381,1.4788],[162.9242,56.4399,0.0],[162.9361,56.4402,0.0],[162.9405,56.4431,0.3884],[162.9444,56.4499,0.0],[162.9434,56.4655,21.1822],[162.9515,56.4761,11.5446],[162.9538,56.4828,0.0],[162.9528,56.4906,0.9012],[162.9546,56.4959,0.0],[162.9654,56.5077,0.4693],[162.9747,56.5229,0.0],[162.9868,56.5337,0.0],[162.9945,56.5385,1.2704],[163.0108,56.5405,2.32],[163.0204,56.538,1.4544],[163.0187,56.5371,0.0],[163.0226,56.5333,0.0],[163.0251,56.5351,0.6711],[163.0265,56.5335,0.0],[163.0257,56.5319,0.0],[163.0365,56.526,2.5315],[163.034,56.5231,3.4531],[163.0357,56.521,0.2822],[163.0541,56.5257,2.0987],[163.0718,56.5273,2.0422],[163.0822,56.5258,2.6958],[163.0874,56.5227,0.0],[163.1001,56.5194,1.0958],[163.1072,56.5153,1.5542],[163.1122,56.5083,3.5642],[163.1117,56.5025,0.3233],[163.1078,56.4956,0.0],[163.11,56.4933,1.5802],[163.1023,56.4827,4.2676],[163.0989,56.475,0.7418],[163.0829,56.4637,1.9043],[163.0767,56.4542,0.0],[163.0695,56.4498,2.3667],[163.0528,56.4445,2.1224],[163.0098,56.4415,1.9998],[163.0083,56.44,0.9942],[163.0089,56.4369,1.1597],[163.0013,56.4293,3.2168],[162.9978,56.4283,1.094],[162.9967,56.425,4.1254],[162.9922,56.4261,0.0],[162.9815,56.4236,1.8611],[162.9707,56.4245,0.3919],[162.9685,56.4233,0.2411],[162.9695,56.4217,1.4199],[162.9683,56.4203,1.7686],[162.9717,56.4169,2.4321],[162.9622,56.4167,1.3434],[162.9585,56.4183,1.1167],[162.9516,56.4123,0.0],[162.9425,56.4094,0.5384],[162.9402,56.4022,0.5654],[162.9442,56.3961,2.7405],[162.9442,56.3929,3.7218],[162.9397,56.3892,2.754],[162.9455,56.3864,1.5354],[162.9479,56.3814,2.5054],[162.9417,56.3768,1.7717],[162.9424,56.375,2.367],[162.9273,56.3745,0.9629],[162.9094,56.3794,0.5696],[162.8965,56.3678,1.9176],[162.8881,56.3668,1.5919],[162.8806,56.3587,2.0619],[162.8695,56.3549,1.6997],[162.8513,56.3554,1.4744],[162.8484,56.3578,0.6967],[162.8333,56.3602,1.0683],[162.8061,56.3576,0.7791],[162.7982,56.3576,1.2588],[162.7939,56.3596,0.8791],[162.7869,56.3575,1.2782],[162.7774,56.359,0.2403],[162.7762,56.3573,0.0],[162.7771,56.3552,1.6855],[162.775,56.3534,1.4063],[162.7635,56.3475,0.0],[162.753,56.3442,0.3881],[162.7527,56.342,2.0152],[162.7411,56.3409,0.7147],[162.7411,56.3394,0.3832],[162.7498,56.3348,0.0],[162.7524,56.3306,2.0035],[162.7517,56.3267,0.8758],[162.7478,56.3228,1.9198],[162.7391,56.3199,0.0],[162.7377,56.3179,0.7593],[162.7404,56.3135,0.3103],[162.7394,56.3073,0.0],[162.7303,56.3017,0.4387],[162.7292,56.2986,0.0],[162.7196,56.2878,0.0],[162.7198,56.2855,0.9536],[162.7102,56.2747,0.2615],[162.7076,56.2705,0.0],[162.7092,56.2682,4.4478],[162.7075,56.2668,4.0228],[162.6935,56.2642,0.0],[162.6929,56.2623,2.3938],[162.6817,56.2595,0.0],[162.6714,56.2527,1.5071],[162.6459,56.2446,0.441],[162.6371,56.2399,1.1007],[162.637,56.2374,1.3421],[162.6396,56.2366,1.3049],[162.6356,56.2325,0.9],[162.6275,56.2284,4.2724],[162.6155,56.2331,0.1727],[162.6095,56.2323,1.8922],[162.6047,56.2338,0.0],[162.601,56.2325,1.2821],[162.5917,56.2336,3.4016],[162.55,56.2319,0.295],[162.507,56.2175,0.0],[162.5018,56.213,3.1309],[162.5175,56.2155,3.7475],[162.5554,56.2258,6.4704],[162.5979,56.2285,1.474],[162.6194,56.2272,5.0783],[162.6313,56.2242,1.6282],[162.6611,56.2063,0.6643],[162.6648,56.2018,0.0],[162.6704,56.1986,1.9332],[162.6707,56.1934,1.8186],[162.6793,56.1842,0.0],[162.6821,56.1788,4.6603],[162.6963,56.1693,0.9103],[162.7106,56.1614,1.3836],[162.7395,56.153,0.7118],[162.7504,56.1458,27.1232],[162.7539,56.1422,39.8544],[162.7533,56.1375,4.5129],[162.7544,56.1364,58.82],[162.7538,56.13,2.1576],[162.7512,56.1265,0.0],[162.7525,56.12,5.0606],[162.7645,56.1088,10.0706],[162.7714,56.1057,10.613],[162.7758,56.1013,3.2305],[162.7852,56.0958,14.1207],[162.7889,56.0897,0.0],[162.7972,56.0838,1.0614],[162.8056,56.0748,3.8832],[162.8092,56.0671,1.3789],[162.8127,56.0646,2.3667],[162.8266,56.058,12.5205],[162.8561,56.0513,8.7867],[162.8668,56.0451,0.0],[162.8718,56.0403,2.1043],[162.8779,56.0385,1.7937],[162.888,56.0316,1.2366],[162.9019,56.0284,1.4516],[162.9131,56.0223,3.4655],[162.9314,56.0222,9.8351],[162.9543,56.0196,3.1224],[162.9659,56.0171,4.5191],[162.9772,56.0123,3.5041],[162.9926,56.0095,0.0],[163.0106,56.0103,0.0],[163.0226,56.0054,0.0],[163.0305,56.0089,1.9773],[163.0497,56.0076,1.9771],[163.0471,56.0103,2.2872],[163.0469,56.0138,3.0406],[163.0516,56.0207,8.0922],[163.0556,56.0232,3.7273],[163.062,56.0373,19.0067],[163.0677,56.0438,12.9437],[163.0703,56.0446,0.0],[163.0698,56.0462,6.8503],[163.0851,56.0642,6.7936],[163.0993,56.0742,61.7811],[163.1063,56.0811,0.0],[163.1098,56.0879,15.708],[163.1173,56.096,2.3321],[163.1216,56.0973,4.2888],[163.1318,56.1059,17.9082],[163.1602,56.1242,7.2667],[163.1788,56.1341,3.4729],[163.2247,56.1439,20.9565],[163.2408,56.1447,7.6351],[163.2543,56.1425,11.1533],[163.2796,56.1477,3.6103],[163.2868,56.152,3.4026],[163.2913,56.1582,0.0],[163.2956,56.1611,5.5379],[163.3267,56.1743,2.4862],[163.34,56.1783,1.396],[163.3536,56.1804,0.0],[163.3615,56.1844,0.0],[163.3614,56.1883,0.0],[163.3561,56.1935,7.4738],[163.3501,56.2054,4.9744],[163.346,56.2225,8.4708],[163.3471,56.2248,0.0],[163.3438,56.2286,17.6592],[163.3428,56.2401,1.98],[163.3388,56.2457,1.8201],[163.3395,56.2505,0.0],[163.3329,56.2686,15.8848],[163.3348,56.2738,0.0],[163.3347,56.2809,7.4777],[163.3513,56.3007,0.0],[163.3509,56.3049,0.0],[163.3544,56.3096,8.0906],[163.3551,56.3178,2.2899],[163.3534,56.32,9.5774],[163.3532,56.3269,4.597],[163.3456,56.3292,4.0242],[163.3376,56.3382,8.4794],[163.338,56.3407,1.0052],[163.3345,56.3458,1.3585],[163.3339,56.3505,3.611],[163.3234,56.366,9.8856],[163.324,56.3698,6.2311],[163.3214,56.372,29.2993],[163.319,56.3814,13.4396],[163.3163,56.3836,1.6878],[163.3111,56.3962,24.041],[163.2936,56.4018,44.3426],[163.2935,56.4095,22.8123],[163.2956,56.4132,9.2174],[163.29,56.416,3.165],[163.2837,56.4233,13.6885],[163.2633,56.4336,5.0158],[163.2493,56.4371,4.7421],[163.2512,56.4387,0.6302],[163.2489,56.4507,5.4007],[163.2575,56.4617,1.713],[163.2682,56.4636,1.4035],[163.2745,56.4612,3.7815],[163.2772,56.4622,0.0],[163.2762,56.4638,9.4293],[163.279,56.4682,0.0],[163.2776,56.4716,3.5982],[163.2673,56.481,1.9721],[163.2639,56.4898,8.8333],[163.2655,56.495,2.2194],[163.2543,56.5122,2.5941],[163.2532,56.5234,5.98],[163.2468,56.5384,0.0],[163.2469,56.5426,0.0],[163.2518,56.5453,0.0],[163.2518,56.5469,10.9569],[163.2566,56.5515,0.0],[163.2593,56.5522,12.779],[163.259,56.5548,31.8705],[163.27,56.5597,1.2205],[163.2702,56.5642,4.2178],[163.2724,56.5679,22.0079],[163.2654,56.5778,0.6077],[163.2625,56.5782,6.4897],[163.2632,56.5799,1.9329],[163.2606,56.5831,11.9561],[163.2516,56.5907,7.54],[163.2442,56.5947,3.264],[163.2353,56.6049,6.8205],[163.236,56.6091,2.4943],[163.2343,56.6168,0.0],[163.2387,56.6204,0.0],[163.2368,56.6272,103.0728],[163.2378,56.6318,3.2054],[163.2445,56.6386,0.0],[163.2476,56.6451,0.0],[163.2521,56.6487,0.0],[163.2559,56.6589,115.3534],[163.2631,56.6685,17.2657],[163.2724,56.6767,64.4743],[163.2729,56.6796,37.8356],[163.2828,56.6848,0.0],[163.2844,56.6876,18.3556],[163.2633,56.6902,140.5004],[163.2606,56.6921,13.842],[163.2617,56.6967,44.3594],[163.2514,56.6982,5.2385],[163.2497,56.7014,3.585],[163.2405,56.7044,3.2296],[163.2298,56.7107,0.9905],[163.2267,56.7146,55.173],[163.2304,56.7263,26.7158],[163.2332,56.7285,5.2585],[163.2347,56.7378,0.6146],[163.2333,56.7405,1.256],[163.2244,56.7427,4.3793],[163.2134,56.7372,0.0],[163.1877,56.733,26.2489],[163.1603,56.7366,16.7743],[163.1463,56.7359,0.0],[163.1371,56.7296,15.9446],[163.1355,56.7266,3.2798],[163.1274,56.725,4.8617],[163.1055,56.7286,19.2082],[163.0887,56.735,30.6568],[163.0785,56.7412,12.5952],[163.0693,56.7415,16.9037],[163.066,56.7393,0.0],[163.0641,56.7343,3.2652],[163.0511,56.7266,9.0156],[163.0253,56.7254,35.5446],[163.0156,56.7288,0.4651],[163.0079,56.7292,2.3051],[163.0071,56.7278,0.0],[163.0104,56.723,17.5442],[163.0079,56.7185,29.8568],[162.9977,56.7142,3.4526],[162.9986,56.7112,6.9436],[162.9864,56.7068,19.7823],[162.9801,56.7091,1.085],[162.9777,56.7007,14.8442],[162.9734,56.6969,43.5036],[162.9576,56.6938,0.0],[162.934,56.6931,2.8556],[162.922,56.6901,8.4925],[162.9017,56.6935,2.0567],[162.8833,56.6941,0.9792],[162.866,56.7032,3.3052],[162.8494,56.7088,0.9922],[162.8384,56.7156,2.1367],[162.822,56.7176,5.8776],[162.8108,56.7209,2.9713],[162.8375,56.7171,2.7225],[162.8518,56.7092,0.9922],[162.8643,56.7052,2.4159],[162.8807,56.6973,1.4296],[162.8946,56.6949,0.5],[162.9098,56.6955,2.083],[162.9265,56.6916,0.0],[162.9289,56.6927,4.5064],[162.8867,56.7013,6.2466],[162.857,56.713,4.1853],[162.8345,56.7243,4.1299],[162.7986,56.7483,4.7712],[162.7764,56.7749,0.645],[162.7769,56.7823,1.1081],[162.7818,56.7871,1.3084],[162.7851,56.7941,0.0],[162.7804,56.8005,2.6151],[162.7853,56.8058,0.0],[162.7842,56.8095,0.5929],[162.7869,56.8237,0.0],[162.7848,56.8279,3.1414],[162.7879,56.8355,0.0],[162.7876,56.8486,0.0],[162.7901,56.8547,0.0],[162.7908,56.8623,18.5168],[162.8037,56.8905,0.0],[162.8054,56.8977,19.8175],[162.8105,56.9066,0.0],[162.8103,56.914,10.2112],[162.8115,56.9154,10.2112],[162.8103,56.9334,5.535],[162.8152,56.9427,0.0],[162.8282,56.9601,2.5173],[162.8305,56.9692,4.9436],[162.8366,56.9749,0.0],[162.8376,56.9792,15.2514],[162.8412,56.9827,3.4992],[162.8406,56.9843,9.1938],[162.8428,56.987,0.0],[162.8425,56.9995,14.0883],[162.8472,57.0062,2.802],[162.8474,57.0136,0.0],[162.8501,57.0201,0.0],[162.8529,57.0388,0.0],[162.8477,57.0495,0.3763],[162.8441,57.0652,28.0858],[162.8357,57.0837,14.3828],[162.8071,57.1169,7.1632],[162.7911,57.1475,6.7831],[162.7769,57.1894,0.0],[162.7726,57.2135,11.752],[162.7728,57.23,0.0],[162.7689,57.235,1.6696],[162.7694,57.2367,0.0],[162.7594,57.24,7.7415],[162.7505,57.2403,6.8386],[162.7467,57.2386,17.0572],[162.74,57.2394,6.0996],[162.7589,57.245,2.7913],[162.765,57.2428,1.4775],[162.7672,57.2456,2.0665],[162.7478,57.2522,1.5],[162.7444,57.2503,20.9594],[162.7289,57.2514,6.7328],[162.7389,57.2533,3.9162],[162.7406,57.2514,2.625],[162.7472,57.255,8.8061],[162.7517,57.2522,6.4269],[162.7578,57.2531,9.6218],[162.7606,57.2503,1.3661],[162.7694,57.25,0.0],[162.7694,57.272,0.0],[162.7711,57.2821,0.0],[162.7706,57.2846,0.9106],[162.7655,57.2881,4.2297],[162.7645,57.2906,0.2736],[162.7672,57.2914,1.1917],[162.7683,57.2903,0.0],[162.7678,57.2964,1.3588],[162.7706,57.2992,3.7825],[162.7689,57.3039,3.2297],[162.7708,57.305,3.2297],[162.7705,57.3106,3.3117],[162.7741,57.3189,2.7094],[162.7811,57.3456,0.0],[162.7832,57.3473,0.0],[162.7821,57.3488,0.0],[162.7963,57.3646,0.0],[162.8184,57.3838,22.53],[162.8272,57.3875,2.5158],[162.8361,57.3883,0.0],[162.8445,57.3914,12.45],[162.8682,57.416,2.4121],[162.8767,57.4211,9.1412],[162.8905,57.4248,0.0],[162.9067,57.4329,0.0],[162.8705,57.4295,124.3923],[162.7573,57.3849,62.08],[162.6808,57.3448,4.3744],[162.5997,57.3409,5.5],[162.4683,57.3384,116.9086],[162.3789,57.331,23.1119],[162.3107,57.3653,16.6974],[161.968,57.3572,32.9992],[161.6928,57.2955,71.0501],[161.5451,57.2921,177.4629],[161.3796,57.3329,186.903],[161.1894,57.3936,428.0332],[161.0414,57.4521,317.4864],[160.8016,57.4795,675.5214],[160.6645,57.4912,392.0741],[160.5448,57.5105,799.0651],[160.4503,57.574,1099.7421],[160.3723,57.5842,1125.1702],[160.2921,57.5433,953.9446],[160.2705,57.4392,1032.8301],[160.2431,57.3855,1698.8571],[160.1947,57.3593,1122.8707],[160.1973,57.3253,1834.0688],[160.1152,57.271,986.9924],[160.0959,57.2086,843.7448],[160.0062,57.1344,876.8809],[159.9342,57.0998,1344.6569],[159.9359,57.05,1011.0673],[159.8372,57.0558,756.4025],[159.8089,57.0443,551.7403],[159.802,57.0236,409.9218],[159.7744,56.9812,766.3486],[159.8077,56.9523,829.0384],[159.774,56.9359,790.4443],[159.6741,56.9261,531.9267],[159.6425,56.892,626.2696],[159.7341,56.8573,1359.8535],[159.7322,56.8118,1170.5129],[159.6548,56.7842,992.7259],[159.5613,56.7573,1159.6338],[159.5522,56.7369,1476.5197],[159.5976,56.6979,1800.5415],[159.562,56.6913,1023.7434],[159.5885,56.6205,1560.8574],[159.5829,56.5329,1058.5759],[159.5532,56.4699,883.2911],[159.4735,56.4027,1010.2528],[159.4514,56.357,562.3815],[159.4369,56.3148,909.8436],[159.3085,56.2699,1072.2151],[159.1994,56.2468,1051.7979],[159.1474,56.2157,1166.188],[159.1826,56.1567,878.6477],[159.2433,56.1316,853.972],[159.2578,56.0894,827.8001],[159.2123,56.0597,510.4827],[159.1356,56.0226,564.961],[159.1032,55.973,411.7298],[159.1283,55.8965,734.954],[159.2314,55.8719,257.0483]]],
[[[162.452,56.3833,0.7598],[162.4497,56.3827,0.3844],[162.4469,56.3842,0.0],[162.4446,56.3825,0.4526],[162.4863,56.3611,0.2794],[162.5024,56.3554,0.0],[162.5154,56.3537,0.0],[162.4773,56.37,0.776],[162.462,56.3823,0.0],[162.452,56.3833,0.7598]]],
[[[162.4892,56.2075,0.0],[162.4934,56.209,0.0],[162.4838,56.2066,0.0],[162.4863,56.2068,0.0],[162.4892,56.2075,0.0]]],
[[[162.4933,56.2125,1.1304],[162.4967,56.2136,0.0],[162.4911,56.2136,0.2634],[162.49,56.2122,0.2634],[162.4933,56.2125,1.1304]]],
[[[162.511,56.2251,0.0],[162.5123,56.2236,0.0],[162.5155,56.2246,0.1578],[162.5128,56.2265,0.7115],[162.511,56.2251,0.0]]],
[[[162.4992,56.2284,0.2821],[162.5003,56.2257,0.1872],[162.5011,56.2255,0.0],[162.5024,56.2282,0.2052],[162.4992,56.2284,0.2821]]],
[[[162.6283,56.2443,0.1727],[162.6264,56.246,0.4191],[162.6273,56.2485,0.0],[162.6245,56.249,0.1259],[162.6086,56.2459,0.0],[162.607,56.2435,1.3891],[162.6022,56.2417,0.2472],[162.6053,56.2402,1.7045],[162.6018,56.2396,1.7352],[162.5706,56.2433,0.0],[162.5909,56.2393,2.5661],[162.5975,56.2358,0.9668],[162.6153,56.2395,0.5864],[162.6204,56.2411,0.0],[162.6214,56.2433,0.6721],[162.6283,56.2443,0.1727]]],
[[[162.7102,56.3678,0.6793],[162.7039,56.3705,0.0],[162.6968,56.3693,0.6191],[162.6938,56.3669,1.1766],[162.6908,56.3682,0.7575],[162.6895,56.3663,0.0],[162.6924,56.3632,1.1937],[162.6942,56.3577,0.0],[162.714,56.3501,0.0],[162.7183,56.3517,0.2351],[162.7156,56.3533,1.4493],[162.7167,56.3542,1.6903],[162.7267,56.3559,1.773],[162.7271,56.3635,1.2122],[162.7195,56.3636,0.8846],[162.7102,56.3678,0.6793]]],
[[[162.9949,56.4391,1.302],[162.998,56.4399,0.4169],[162.9948,56.4402,0.0],[162.9922,56.4392,0.0],[162.9949,56.4391,1.302]]],
[[[162.9122,56.6938,0.0],[162.9078,56.6944,0.4097],[162.9035,56.6939,0.6745],[162.9144,56.6922,0.0],[162.9122,56.6938,0.0]]],
[[[163.2522,56.731,5.99],[163.2533,56.7328,7.6397],[163.2491,56.7341,4.1181],[163.2422,56.7325,1.0433],[163.2452,56.7295,3.4411],[163.2522,56.731,5.99]]]]}}