{"type":"Feature","properties":{"GID_3":"RUS.56.5.1_1","GID_0":"RUS","country":"Russia","GID_1":"RUS.56_1","province":"Primor'ye","NL_NAME_1":"Приморскийкрай","GID_2":"RUS.56.5_1","county":"Chernigovskiyrayon","NL_NAME_2":"Черниговскийрайон","city":"NA","VARNAME_3":"NA","NL_NAME_3":"NA","TYPE_3":"NA","ENGTYPE_3":"NA","CC_3":"NA","HASC_3":"NA","name":"N_A.city"},
"geometry":{"type": "MultiPolygon","coordinates": [[[[132.581,44.5753,69.7183],[132.582,44.5324,69.7309],[132.5316,44.5189,70.0505],[132.5039,44.4802,77.1564],[132.4363,44.495,69.2758],[132.3837,44.4352,73.1459],[132.421,44.4139,70.072],[132.438,44.35,71.506],[132.4063,44.2738,81.0865],[132.3875,44.1991,75.6863],[132.4287,44.1342,170.6921],[132.4722,44.1324,389.63],[132.5709,44.0708,109.243],[132.5887,44.0366,127.4768],[132.6249,44.0323,131.175],[132.6508,44.0508,144.5551],[132.749,44.1353,244.9268],[132.8191,44.1294,303.9969],[132.9411,44.0991,246.3668],[132.9469,44.1305,187.8115],[132.969,44.142,192.6868],[133.0168,44.175,164.3018],[133.0236,44.2177,189.79],[132.9609,44.2557,268.7728],[132.8954,44.2883,217.595],[132.9789,44.3822,645.9622],[132.998,44.4001,931.4205],[132.9382,44.4556,242.7506],[132.8603,44.4949,134.5246],[132.8067,44.4934,107.7263],[132.744,44.5182,123.5142],[132.7289,44.5585,101.9733],[132.614,44.6019,69.674],[132.5906,44.5848,69.5512],[132.581,44.5753,69.7183]]]]}}