{"type":"Feature","properties":{"featurecla":"Lowland","name":"WESTERN SIBERIAN PLAIN","namealt":null,"region":"Asia","subregion":null,"min_label":4.0,"max_label":8.0,"scalerank":3},
"geometry":{"type": "MultiPolygon","coordinates": [[[[92.2133273634432,55.689464646700827,586.8221],[92.2706404957087,55.660956121869077,678.7596],[92.3186141285212,55.657294012494106,536.4902],[92.3783065113337,55.682318426556577,504.6324],[92.5601912769587,55.825873114056577,181.282],[92.675823787156816,55.880466031784295,426.4606],[92.6648055347712,55.880255438275356,486.36],[92.4425154957087,55.819891668744106,480.7382],[92.248545769146261,55.717596746869049,630.0729],[92.2133273634432,55.689464646700827,586.8221]]],
[[[78.7502446493975,68.417893796102334,39.1391],[81.24801500162701,69.098843954453457,49.236],[81.228770378521261,69.095160223431549,41.9251],[81.229258659771261,69.096014715619049,44.2],[81.2285262378962,69.097723699994134,46.0403],[81.223033073833761,69.099432684369134,50.5204],[79.042002800396261,68.567267157025356,30.3708],[78.7502446493975,68.417893796102334,39.1391]]],
[[[77.865103038422461,67.5816682532157,0.0],[77.716563347271261,67.157294012494049,1.1225],[77.8651229175837,67.5816714539003,0.0],[77.865103038422461,67.5816682532157,0.0]]],
[[[68.4440092485743,61.243532638026522,88.1216],[69.196177605083761,64.456976629681549,101.0205],[69.7747908863337,65.7968814148378,44.0218],[70.2360945972712,66.3340518249941,30.8098],[71.682929436289868,66.303006701987385,2.8674],[71.4817000660212,66.346319891400327,0.0],[70.6088973316462,66.3405215515566,0.0],[69.100108269146261,66.621100164837856,9.8955],[69.074473503521261,66.6334903015566,39.9857],[69.054942253521261,66.651312567181577,38.6316],[69.001719597271261,66.740668035931577,82.7319],[68.985606316021261,66.758673407025327,52.6738],[68.9648543628962,66.771429754681549,0.0],[67.7628279957087,66.824774481244077,18.5801],[66.694102409771261,66.703924871869049,15.7503],[66.494517448833761,66.6304385437441,4.777],[65.7282820972712,66.140204168744049,0.3651],[65.703623894146261,66.108954168744077,4.9581],[65.701914909771261,66.0838076843691,5.9546],[65.7274276050837,66.018927313275327,5.6095],[65.7347518238337,65.962713934369049,5.5979],[65.7252303394587,65.879645086712884,6.4105],[65.688853386333761,65.7615420593691,6.815],[65.622080925396261,65.642218328900327,6.5971],[65.2556258472712,65.296332098431577,7.9057],[65.2115584644587,65.219427801556549,7.8212],[65.2155867847712,65.137091375775356,8.7799],[65.757578972271261,64.418707586712884,10.6526],[65.823130730083761,64.2457949890566,13.044],[65.846202019146261,64.074530340619134,11.5618],[65.8127547535212,63.912482000775356,6.9971],[65.7238875660212,63.751776434369106,13.2933],[65.0733748707087,63.078192449994106,19.3699],[65.0720320972712,63.042059637494106,20.3803],[66.717295769146261,62.114508367962856,24.0239],[67.0941268238337,62.028448797650327,24.3166],[68.4440092485743,61.243532638026522,88.1216]]]]}}