{"type":"Feature","properties":{"GID_2":"RUS.2.53_1","GID_0":"RUS","country":"Russia","GID_1":"RUS.2_1","province":"Altay","NL_NAME_1":"Алтайскийкрай","county":"Togul'skiyrayon","VARNAME_2":"NA","NL_NAME_2":"Тогульскийрайон","TYPE_2":"Raion","ENGTYPE_2":"District","CC_2":"R53094","HASC_2":"RU.AL.TG","name":"Togul'skiyrayon.county"},
"geometry":{"type": "MultiPolygon","coordinates": [[[[86.6215,53.4853,432.3949],[86.5142,53.4993,354.5771],[86.4925,53.5253,320.1481],[86.4533,53.5879,415.3165],[86.4143,53.6091,377.1791],[86.356,53.6353,378.44],[86.3375,53.6653,395.0722],[86.2492,53.6731,401.1367],[86.1737,53.6713,365.6011],[86.1474,53.6874,274.0291],[86.114,53.7009,332.7465],[86.0576,53.7032,273.5724],[85.9451,53.7022,312.0926],[85.8966,53.7091,323.5822],[85.8314,53.6872,341.3208],[85.7568,53.6528,307.9286],[85.7345,53.6186,264.4692],[85.7444,53.5616,272.3729],[85.7531,53.5248,248.3784],[85.6973,53.4872,276.7014],[85.6888,53.4417,182.7151],[85.6763,53.3985,186.6432],[85.6568,53.3618,250.0237],[85.6452,53.3334,256.0968],[85.6685,53.2661,247.7798],[85.6557,53.2367,237.9004],[85.7075,53.2369,216.3526],[85.8597,53.246,207.5447],[85.9474,53.2552,200.0173],[86.0823,53.2776,301.3492],[86.1846,53.2903,319.6726],[86.2865,53.3,291.8799],[86.2826,53.3245,356.7162],[86.2519,53.3401,276.588],[86.25,53.3676,314.8405],[86.3117,53.3844,260.4782],[86.3461,53.4301,293.4674],[86.372,53.4461,350.4263],[86.4202,53.4704,320.8874],[86.4807,53.4371,357.4359],[86.487799999999993,53.4029,407.7555],[86.5229,53.4016,426.7585],[86.6009,53.4173,422.4542],[86.6484,53.4488,335.6003],[86.6215,53.4853,432.3949]]]]}}