{"type":"Feature","properties":{"featurecla":"Range/mtn","name":"Bureinskiy Ra.","namealt":null,"region":"Asia","subregion":null,"min_label":5.4,"max_label":10.0,"scalerank":5},
"geometry":{"type": "Polygon","coordinates": [[[133.33521569102126,50.392279364056549,834.1642],[133.4449569019587,50.4661929382753,673.4879],[133.54847252695876,50.545477606244106,662.1301],[133.96436608164626,50.802557684369077,783.77],[134.20508873789626,50.980292059369134,938.5228],[134.2910262378962,51.029730535931577,793.0049],[135.04383385508376,51.373785711712884,267.1362],[135.76539147227126,51.802313543744077,298.9385],[135.85987389414626,51.872320867962827,190.8617],[135.9495955738337,51.966498114056549,125.7953],[135.97718346445876,52.064581610150327,100.9163],[135.8859969410212,52.146551824994049,142.347],[135.71082604258376,52.187262274212884,344.3916],[135.5341903003962,52.183905340619106,414.6178],[135.18372643320876,52.1149966492128,661.447],[134.9878035816462,52.063299871869049,1615.9719],[134.7972518238337,51.996100164837827,1375.7727],[134.6115828785212,51.914740301556577,1167.5968],[134.4305526050837,51.820746160931606,1228.5336],[134.3276473316462,51.755316473431606,632.3554],[134.0388289722712,51.530585028119049,595.6696],[133.92725670664626,51.466315008587827,1061.4293],[133.6856795582087,51.363898016400327,875.6085],[133.57508385508376,51.291937567181606,786.5868],[133.3874617847712,51.128058172650327,695.9738],[133.1960555347712,51.005804754681577,649.1672],[133.13819420664626,50.960821844525356,639.1781],[133.0931502613337,50.908880926556549,515.8782],[133.0465194019587,50.792792059369106,777.7781],[133.0341903003962,50.658087469525327,800.5023],[133.0564070972712,50.527960516400384,608.9812],[133.11255944102126,50.425726629681634,619.8714],[133.2230330738337,50.3649966492128,703.5015],[133.33521569102126,50.392279364056549,834.1642]]]}}