{"type":"Feature","properties":{"featurecla":"Island group","name":"Shantar Islands","namealt":null,"region":"Asia","subregion":null,"min_label":5.4,"max_label":10.0,"scalerank":5},
"geometry":{"type": "Polygon","coordinates": [[[138.0682479175837,54.575995184369106,0.0],[138.3504744800837,55.087469793744106,271.6734],[137.6096297535212,55.281500555462827,0.0],[137.08057701914626,55.228583074994077,0.0],[136.62195885508376,55.052252508587827,0.0],[136.6042586597712,54.840582586712884,0.0],[137.13343346445876,54.787665106244049,0.0],[137.2569686207087,54.575995184369106,0.0],[137.52149498789626,54.399603582806634,0.0],[137.78614342539626,54.328985907025327,0.0],[138.0682479175837,54.575995184369106,0.0]]]}}