{"type":"Feature","properties":{"featurecla":"Range/mtn","name":"STANOVOY RANGE","namealt":null,"region":"Asia","subregion":null,"min_label":4.0,"max_label":7.0,"scalerank":2},
"geometry":{"type": "MultiPolygon","coordinates": [[[[136.51094870886968,55.792388179509231,300.825],[135.0200301441462,54.890692449994077,269.3727],[134.99346710328567,54.836613434071751,102.4697],[138.04456627695876,56.406317449994134,48.6103],[138.10645592539626,56.480902410931634,177.2976],[138.13404381602126,56.565008856244134,0.0],[138.1167098316462,56.658453680462856,294.9855],[138.09923020872034,56.686284788005167,257.5526],[138.06887809090594,56.734611520144142,372.3879],[136.51094870886968,55.792388179509231,300.825]]],
[[[130.02236903761994,56.77502123703897,1116.4918],[129.78385037005827,56.7696954184681,1179.2407],[129.9296981128962,56.763312078900327,993.9719],[130.02236903761994,56.77502123703897,1116.4918]]]]}}