{"type":"Feature","properties":{"featurecla":"Range/mtn","name":"Suntar-Khayata Range","namealt":null,"region":"Asia","subregion":null,"min_label":5.4,"max_label":10.0,"scalerank":5},
"geometry":{"type": "Polygon","coordinates": [[[144.7795516285212,61.0008609070253,590.6095],[144.97950280039626,61.060675360150327,1073.7137],[145.12549889414626,61.182135321087884,1103.7051],[145.1767684253962,61.292425848431577,1207.0435],[145.19044030039626,61.408697821087856,1146.5602],[145.1635848316462,61.520819403119077,1101.4928],[145.09363854258376,61.618719793744134,1554.1827],[144.9375106128962,61.718939520306606,1570.9684],[144.7634383472712,61.769720770306577,1632.6447],[144.5830184253962,61.802557684369106,1452.1677],[144.40784752695876,61.849188543744106,1415.3889],[144.2407332691462,61.931586004681606,1321.4353],[143.2060653003962,62.258856512494077,1716.4537],[142.0374861988337,62.554632879681606,1225.61],[141.0813094410212,62.856817938275327,1516.2085],[140.67164147227126,62.943976141400327,1441.9305],[140.57923424570876,62.972235418744106,1060.5631],[140.38782799570876,63.0494448914003,1384.8185],[140.28724205820876,63.069525457806606,1695.5142],[139.90442955820876,63.122565008587884,1326.6553],[139.8087264332087,63.125616766400384,1514.6842],[139.73011315195876,63.1096255554628,1611.1034],[139.6651717457087,63.060431219525327,1635.5864],[139.6020613941462,62.9823062195253,2130.5383],[139.5481063160212,62.895148016400327,1855.6324],[139.51026451914626,62.818548895306549,1412.2778],[139.4838973316462,62.725531317181606,2208.9678],[139.4808455738337,62.629034735150356,1957.0588],[139.5009871753962,62.534247137494134,1860.3645],[139.5442000660212,62.445868231244049,802.6557],[139.60962975352126,62.370856024212856,1435.6594],[139.68946373789626,62.312811590619134,1391.952],[139.9040633472712,62.2010562195253,1140.6523],[141.4483748707087,61.552923895306634,1425.8842],[141.8042098316462,61.430548407025356,1281.577],[142.1660262378962,61.328070379681577,1011.8819],[142.6445418628962,61.226996160931577,1707.1666],[143.31495201914626,61.043829657025356,845.6655],[143.6665145191462,60.999029852337884,670.111],[144.5632430347712,60.980902410931634,1268.5559],[144.7795516285212,61.0008609070253,590.6095]]]}}