{"type":"Feature","properties":{"featurecla":"Range/mtn","name":"Yam Alin’ Range","namealt":null,"region":"Asia","subregion":null,"min_label":5.4,"max_label":10.0,"scalerank":5},
"geometry":{"type": "Polygon","coordinates": [[[135.1800643238337,52.267523504681577,468.5339],[135.3034774097712,52.294745184369134,297.2068],[135.41431725352126,52.353338934369077,629.6044],[135.4604598316462,52.3944155945253,417.0038],[135.4978133472712,52.441656805462827,403.4377],[135.5269881519587,52.494513250775356,523.0946],[135.54822838633376,52.552435614056549,580.0142],[135.5598250660212,52.629339910931577,364.9408],[135.54822838633376,52.687811590619106,637.2568],[135.49293053477126,52.813177801556549,991.9095],[135.4725447925837,52.887457586712884,969.9777],[135.4437361988337,53.040350653119049,549.0887],[135.4233504566462,53.111883856244077,545.9021],[135.39429772227126,53.176642157025327,703.7996],[135.36378014414626,53.236395574994134,494.6625],[135.33716881602126,53.299261785931549,602.295],[135.3205672535212,53.373053289837856,673.501],[135.3038436207087,53.504889227337827,622.7748],[135.29066002695876,53.5606753601503,540.6316],[135.0981551441462,54.128241278119106,998.1736],[135.04993737070876,54.221991278119106,1046.2108],[134.97547448008376,54.298590399212856,737.27],[134.8628035816462,54.350409246869049,371.6084],[134.72779381602126,54.373419500775327,425.8712],[134.5893660816462,54.373968817181549,236.1027],[134.4664412769587,54.358343817181577,244.4658],[134.37378990977126,54.3283755554628,322.4922],[134.2976180347712,54.280218817181549,193.4993],[134.23780358164626,54.216498114056634,294.9196],[134.1938582691462,54.139776922650327,602.1308],[134.17542565195876,54.089789129681577,836.355],[134.1624861988337,54.036627508587884,801.2549],[134.1547957691462,53.981024481244134,1300.8551],[134.15235436289626,53.6225650085878,1190.1335],[134.1660262378962,53.482611395306606,1385.8833],[134.20020592539626,53.350714422650356,1167.7092],[134.2845565113337,53.085272528119077,1313.2303],[134.2989608082087,52.995978094525384,1201.8401],[134.30445397227126,52.738104559369134,921.1964],[134.33094323008376,52.648260809369106,1078.8181],[134.38160240977126,52.560248114056634,1493.4227],[134.44483483164626,52.479315496869077,1924.35],[134.5095320972712,52.410711981244134,1706.1833],[134.6002303394587,52.353338934369077,1135.1749],[134.7126570972712,52.319525457806606,842.3778],[135.05250084727126,52.265570379681549,896.8932],[135.1800643238337,52.267523504681577,468.5339]]]}}