{"type":"Feature","properties":{"GID_3":"RUS.35.7.1_1","GID_0":"RUS","country":"Russia","GID_1":"RUS.35_1","province":"Krasnoyarsk","NL_NAME_1":"Красноярскийкрай","GID_2":"RUS.35.7_1","county":"Bogotol","NL_NAME_2":"Боготол","city":"NA","VARNAME_3":"NA","NL_NAME_3":"NA","TYPE_3":"NA","ENGTYPE_3":"NA","CC_3":"NA","HASC_3":"NA","name":"N_A.city"},
"geometry":{"type": "MultiPolygon","coordinates": [[[[89.625,56.2239,285.546],[89.6193,56.2394,285.1922],[89.5903,56.2486,274.6494],[89.5648,56.2456,294.2758],[89.5482,56.2297,295.0619],[89.5623,56.2171,290.9536],[89.6026,56.2147,285.2327],[89.625,56.2239,285.546]]]]}}