{"type":"Feature","properties":{"GID_2":"RUS.2.61_1","GID_0":"RUS","country":"Russia","GID_1":"RUS.2_1","province":"Altay","NL_NAME_1":"Алтайскийкрай","county":"Ust'-Pristanskiyrayon","VARNAME_2":"NA","NL_NAME_2":"Усt.-Пристанскийрайон","TYPE_2":"Raion","ENGTYPE_2":"District","CC_2":"R53095","HASC_2":"RU.AL.UP","name":"Ust'-Pristanskiyrayon.county"},
"geometry":{"type": "MultiPolygon","coordinates": [[[[83.2306,52.256,218.6962],[83.3126,52.266,209.2479],[83.3499,52.2652,208.0377],[83.3629,52.2204,163.4135],[83.3238,52.1787,175.4283],[83.405,52.1576,209.4365],[83.4337,52.1227,287.1699],[83.4429,52.0903,221.8721],[83.4894,52.0854,264.5546],[83.5107,52.1111,269.1252],[83.5322,52.1257,237.7497],[83.5859,52.1002,275.7659],[83.5984,52.0778,287.4298],[83.5584,52.0238,252.2376],[83.5629,51.988,288.2828],[83.5966,51.966,285.9278],[83.564,51.9244,317.8796],[83.5797,51.9052,349.2289],[83.6493,51.914,357.6894],[83.6749,51.9292,349.0078],[83.715,51.9176,336.9219],[83.774,51.9697,300.1444],[83.7871,51.9895,303.5831],[83.8235,52.0193,275.3733],[83.824,52.0513,255.7096],[83.8503,52.0617,251.655],[83.8714,52.0883,212.3815],[83.8846,52.1231,256.0649],[83.8751,52.1721,188.7756],[83.8399,52.2052,164.9868],[83.827,52.2509,148.1504],[83.8607,52.2663,148.7371],[83.9188,52.2712,149.5143],[83.9282,52.2932,149.5013],[83.9758,52.3236,161.3034],[84.0253,52.3421,163.8261],[84.0883,52.3691,178.4153],[84.1238,52.3995,171.1779],[84.121,52.4141,169.1993],[84.1368,52.4322,184.1501],[84.1701,52.4455,172.4786],[84.1499,52.4686,180.3169],[84.1089,52.5046,179.7616],[84.0216,52.5516,171.5502],[83.9668,52.6135,167.0071],[83.9323,52.5991,154.5819],[83.8837,52.5966,155.8083],[83.8497,52.6149,155.8775],[83.8201,52.6338,151.7761],[83.7476,52.6212,146.6823],[83.7341,52.6388,147.534],[83.6916,52.6474,141.9343],[83.6356,52.6362,145.8308],[83.518,52.6091,230.5156],[83.4845,52.5891,273.3577],[83.4847,52.5629,251.9671],[83.4728,52.5545,252.3176],[83.4276,52.5439,254.4934],[83.4037,52.5272,253.8957],[83.4245,52.4929,230.5522],[83.4159,52.4767,218.632],[83.3789,52.4654,218.3963],[83.3599,52.4372,203.1197],[83.3247,52.4074,200.2538],[83.2777,52.3908,193.6992],[83.2376,52.3799,198.0386],[83.2867,52.3482,211.993],[83.2661,52.2991,229.8155],[83.2306,52.256,218.6962]]]]}}