{"type":"Feature","properties":{"GID_2":"RUS.2.32_1","GID_0":"RUS","country":"Russia","GID_1":"RUS.2_1","province":"Altay","NL_NAME_1":"Алтайскийкрай","county":"Pankrushikhinskiyrayon","VARNAME_2":"NA","NL_NAME_2":"Панкрушихинскийрайон","TYPE_2":"Raion","ENGTYPE_2":"District","CC_2":"R53093","HASC_2":"RU.AL.PK","name":"Pankrushikhinskiyrayon.county"},
"geometry":{"type": "MultiPolygon","coordinates": [[[[80.5902,53.56,233.0093],[80.5912,53.6178,241.9163],[80.6091,53.6739,246.9601],[80.664,53.7213,228.4541],[80.5951,53.8774,179.7041],[80.5681,53.9455,193.1817],[80.5463,53.9814,192.4491],[80.5022,53.9973,212.6651],[80.5095,54.043,227.4936],[80.4819,54.0741,220.4179],[80.4625,54.1019,211.914],[80.4102,54.1145,198.1042],[80.3466,54.0769,203.3456],[80.2908,54.068,199.8135],[80.2456,54.0364,203.4809],[80.1858,54.0258,198.8516],[80.1657,54.0393,191.0161],[80.1462,54.0699,175.8954],[80.1002,54.0579,172.5429],[80.0379,54.0307,173.6706],[80.066,53.9903,191.0588],[79.8465,53.9102,203.3893],[79.8438,53.8727,223.8994],[79.8209,53.8487,227.9521],[79.7595,53.827,227.0327],[79.7933,53.7943,207.0363],[79.8289,53.7553,160.6772],[79.9179,53.616,153.1507],[79.9486,53.5552,161.4345],[79.9936,53.4401,218.5321],[80.0742,53.4547,231.7279],[80.2072,53.4617,230.7969],[80.2892,53.4461,206.6377],[80.3407,53.4676,223.9241],[80.3431,53.4936,252.8754],[80.3863,53.5126,255.0118],[80.4518,53.529,228.3016],[80.5996,53.5418,213.7984],[80.5902,53.56,233.0093]]]]}}