{"type":"Feature","properties":{"GID_2":"RUS.71.13_1","GID_0":"RUS","country":"Russia","GID_1":"RUS.71_1","province":"Tuva","NL_NAME_1":"РеспубликаТыва","county":"Sut-Khol'skiyrayon","VARNAME_2":"NA","NL_NAME_2":"Сут-Хольскийрайон","TYPE_2":"Raion","ENGTYPE_2":"District","CC_2":"R61000","HASC_2":"RU.TU.SU","name":"Sut-Khol'skiyrayon.county"},
"geometry":{"type": "MultiPolygon","coordinates": [[[[90.061,51.743,2359.769],[90.1181,51.7568,2243.6379],[90.1995,51.8265,2184.488],[90.2575,51.8301,1950.3175],[90.3084,51.7822,2242.8516],[90.3842,51.792,2602.23],[90.4391,51.7435,2466.9795],[90.3971,51.6173,1867.2224],[90.4838,51.5642,1824.085],[90.4944,51.5374,1656.1895],[90.4773,51.5015,2074.4666],[90.5411,51.4323,1627.5909],[90.6152,51.3973,1136.9785],[90.6336,51.3637,1255.8173],[90.6294,51.3318,902.5366],[90.683,51.2958,1251.2037],[90.7492,51.3008,1069.2905],[90.7665,51.2634,865.989],[90.7968,51.2094,843.8751],[90.946,51.256,777.602],[91.094,51.2838,752.304],[91.1386,51.2653,808.7977],[91.206,51.2748,776.5638],[91.2235,51.2958,805.9565],[91.2742,51.3103,916.4564],[91.3143,51.3044,1014.1252],[91.3511,51.3168,1079.9128],[91.3551,51.3441,883.2511],[91.3397,51.4078,695.7101],[91.3799,51.4315,690.09],[91.4162,51.4328,687.8988],[91.4378,51.3807,712.4272],[91.5171,51.3705,858.3821],[91.6091,51.3883,1174.8976],[91.7414,51.4389,1214.9152],[91.831,51.4692,1546.3959],[91.7873,51.5038,951.6627],[91.7897,51.5346,1055.4824],[91.7544,51.5763,1019.2296],[91.6726,51.6439,800.2461],[91.6956,51.6791,1497.4569],[91.7533,51.6773,895.405],[91.7688,51.7091,1073.5667],[91.7938,51.7213,809.6458],[91.8323,51.7132,1428.7097],[91.8786,51.7298,1073.2087],[91.8485,51.7765,1045.9813],[91.8202,51.8252,1587.1023],[91.7483,51.8574,1585.2644],[91.6087,51.835,1154.8921],[91.5544,51.8472,1595.537],[91.4619,51.8859,1925.5571],[91.3835,51.8923,2070.3154],[91.2259,51.8735,1687.0564],[91.1197,51.8672,1619.4146],[91.0607,51.9166,2142.7166],[90.9823,51.9292,2240.0562],[90.7942,51.8794,2065.3269],[90.6506,52.0597,1241.1117],[90.546,52.0926,1450.6919],[90.508,52.1409,1609.2291],[90.452,52.1634,1822.4774],[90.3655,52.1693,1958.1409],[90.293,52.1717,2214.3013],[90.2571,52.1323,1853.1306],[90.1752,52.1135,1620.3519],[90.0839,52.1427,1739.0291],[90.0485,52.1254,1785.8098],[90.0573,52.0801,1092.5228],[90.0727,52.0224,1582.0884],[89.9853,51.9687,1931.8174],[89.9578,51.8921,1626.7539],[90.0209,51.8169,1591.9025],[90.061,51.743,2359.769]]]]}}