{"type":"Feature","properties":{"featurecla":"Pen/cape","name":"CHUKCHI PENINSULA","namealt":null,"region":"Asia","subregion":null,"min_label":5.3,"max_label":9.0,"scalerank":4},
"geometry":{"type": "Polygon","coordinates": [[[-174.34160506398368,67.103583074994134,0.0],[-174.6224278178899,67.1435611023378,0.0],[-174.7972325053899,67.335699774212856,6.4028],[-175.0562657085149,67.4613711609316,0.0],[-175.20012557179609,67.534002996869049,1.8195],[-175.4739903178899,67.758124090619077,0.0],[-176.1370762553899,67.8999697937441,0.0],[-176.9348057475774,68.128729559369077,0.0],[-177.75072371632734,68.370062567181634,0.0],[-178.7248448100774,68.539862371869077,0.2112],[-179.13182532460377,66.390997625775384,40.2845],[-179.13182723195243,66.390997625775384,40.2845],[-179.04741561085868,66.2006289734316,0.0],[-178.8630284038274,66.185492254681549,190.4514],[-178.5761631694524,66.378180242962827,97.5136],[-178.52947127492118,66.2258975281191,0.0],[-178.62920272023365,66.041205145306549,8.7123],[-178.89531600148368,65.978461004681549,0.0],[-178.6468418803899,65.781805731244049,0.0],[-178.51799666554615,65.7506778015566,4.3982],[-178.53514754445237,65.567328192181549,0.0],[-178.27458846242112,65.4807803406191,10.221],[-177.87535750538993,65.485296942181634,8.3166],[-177.32207381398362,65.544317938275356,43.2543],[-177.01518904835865,65.670843817181577,148.9005],[-176.47545516163993,65.523199774212827,-0.1529],[-176.0441807475774,65.4533145203066,0.0],[-175.87743270070237,65.279730535931577,0.0],[-175.86492049367118,65.0003726257753,328.4474],[-175.5533360210149,64.890326239056549,0.0],[-175.4294346538274,64.840765692181577,186.3425],[-174.89824568898365,64.796026922650327,3.2174],[-174.76909529835865,64.761297918744077,23.617],[-174.42858016163993,64.6669375671816,76.0119],[-174.14592635304618,64.571112371869049,89.9954],[-174.05583846242112,64.429510809369049,0.0],[-173.63799178273368,64.350226141400356,529.1048],[-173.42619979054609,64.322699285931549,0.0],[-173.26866805226487,64.279608465619077,49.9399],[-172.9186924663274,64.332342840619077,321.6179],[-172.66008650929618,64.390753485150356,187.0367],[-172.41081893117109,64.4903018249941,33.0807],[-172.86662947804615,64.817145086712856,15.3268],[-172.75926863820243,64.8656070007753,387.3631],[-172.32671248585862,64.972845770306577,104.8508],[-172.22685897023359,65.100958563275356,12.5134],[-172.26158797413987,65.336249090619049,17.704],[-172.17766463429612,65.464544989056577,0.0],[-172.04100691945237,65.533758856244049,0.0],[-171.7076328960149,65.5125796570253,0.7904],[-171.37419783742112,65.541022039837827,359.7763],[-171.06413924367109,65.492438055462856,298.3371],[-170.7868565288274,65.613104559369049,0.0],[-170.54912459523368,65.654608465619077,151.4661],[-170.53813826710865,65.845953680462856,0.0],[-170.32842147023365,65.957159735150356,214.0304],[-169.78185164601487,66.000189520306634,0.0],[-169.7000645366399,66.116156317181634,454.3129],[-170.16557967335859,66.219977117962856,90.4024],[-170.63262068898362,66.400458074994049,0.0],[-171.07836043507737,66.568426824994077,0.0],[-171.46886336476493,66.7908999695253,0.0],[-171.72344100148365,66.957220770306549,0.0],[-172.4892491069524,67.002569891400356,0.0],[-173.62322127492109,67.126532293744077,0.0],[-173.99889266163987,67.0947940124941,0.0],[-174.34160506398368,67.103583074994134,0.0]]]}}