{"type":"Feature","properties":{"featurecla":"River","scalerank":4,"rivernum":114,"dissolve":"114River","name":"Ob4","name_alt":null,"note":null,"min_zoom":4.0,"strokeweig":0.4,"name_en":"Ob","min_label":5.0},
"geometry":{"type": "LineString","coordinates": [[73.23740234375,61.235126043744117,32.7204],[73.32275390625,61.21857330936912,33.499],[73.340234375000023,61.21723053593162,26.5754],[73.3560546875,61.21881744999412,26.6923],[73.3876953125,61.22553131718162,33.6034],[73.456738281250011,61.22968170780662,46.2768],[73.506591796875,61.237909246869123,27.3513],[73.52255859375,61.23847077030662,31.8756],[73.538281250000011,61.235956121869123,27.2067],[73.550195312500023,61.231463934369117,27.2788],[73.584375,61.21185944218162,33.0066],[73.58603515625,61.20392487186912,36.9743],[73.6455078125,61.18683502811912,33.8241],[73.67578125,61.18353912968162,32.222],[73.706347656250017,61.18878815311912,32.219],[73.7333984375,61.203485418744123,31.9688],[73.7583984375,61.221454168744117,32.8261],[73.78427734375,61.234149481244117,37.5587],[73.813867187500023,61.23297760624412,27.0],[73.995507812500023,61.16901276249412,39.4485],[74.0259765625,61.161981512494123,33.8191],[74.06494140625,61.15839264530662,33.6332],[74.1064453125,61.159051824994123,39.7358],[74.147363281250023,61.16437409061912,27.0655],[74.184814453125,61.17462799686912,27.1195],[74.2173828125,61.192645574994117,27.3217],[74.245361328125,61.21246979374412,27.2456],[74.27548828125,61.223407293744117,33.4599],[74.31357421875,61.21503327030662,30.9331],[74.325439453125,61.20746491093162,27.624],[74.374267578125,61.155536199994117,34.294],[74.382080078125,61.15009186405662,31.2328],[74.41796875,61.13422272343162,32.4658],[74.42783203125,61.13239166874412,32.138],[74.4390625,61.135760809369117,31.1806],[74.442773437500023,61.142694403119123,36.355],[74.441796875000023,61.15216705936912,37.438],[74.439355468750023,61.162713934369123,28.6733],[74.4380859375,61.174579168744117,35.0798],[74.438720703125,61.18927643436912,32.8767],[74.442138671875,61.20307037968162,36.3978],[74.44921875,61.212030340619123,26.6971],[74.4615234375,61.213251043744123,27.3343],[74.566796875000023,61.18024323124412,36.1352],[74.587792968750023,61.177752996869117,36.0153],[74.607421875,61.18060944218162,27.2557],[74.661376953125,61.207147528119123,35.632],[74.68662109375,61.215106512494117,34.2925],[74.710546875,61.216571356244117,33.9737],[74.734277343750023,61.21198151249412,32.6885],[74.868359375000011,61.16022369999412,34.3453]]}}