{"type":"Feature","properties":{"featurecla":"River","scalerank":4,"rivernum":114,"dissolve":"114River","name":"Ob2","name_alt":null,"note":null,"min_zoom":4.0,"strokeweig":0.4,"name_en":"Ob","min_label":5.0},
"geometry":{"type": "LineString","coordinates": [[74.868359375000011,61.16022369999412,34.3453],[74.9078125,61.15216705936912,27.2768],[75.039257812500011,61.14618561405662,37.7233],[75.0806640625,61.13361237186912,33.5321],[75.11484375,61.116571356244123,35.2498],[75.1328125,61.11237213749412,27.8277],[75.152246093750023,61.11493561405662,33.2865],[75.1669921875,61.12299225468162,30.1194],[75.195068359375,61.143329168744117,31.4089],[75.2119140625,61.14874909061912,28.1314],[75.231347656250023,61.147479559369117,35.5975],[75.396240234375,61.10016510624412,28.7785],[75.418212890625,61.09967682499412,34.1836],[75.4400390625,61.101922918744123,36.733],[75.48095703125,61.11237213749412,35.677],[75.48828125,61.111444403119123,37.4859],[75.498242187500011,61.105829168744123,33.855],[75.505859375,61.099481512494123,35.7863],[75.52646484375,61.076532293744123,35.6416],[75.54345703125,61.06171295780662,35.7858],[75.58056640625,61.03815338749412,34.8405],[75.6548828125,61.00128815311912,36.1415],[75.673730468750023,60.99518463749412,35.1313],[75.7099609375,60.99787018436912,32.0577],[75.814453125,61.05170319218162,36.5189],[75.83349609375,61.05487702030662,35.9066],[75.8521484375,61.05414459843162,38.7056],[75.870703125,61.05036041874412,36.065],[75.907470703125,61.038348699994117,35.3766],[75.92431640625,61.03656647343162,37.3172],[76.004638671875,61.039911199994123,35.4808],[76.047949218750034,61.034442449994117,37.0187],[76.057031250000023,61.03168366093162,38.0661],[76.07958984375,61.019061590619117,41.5388],[76.089941406250034,61.01605866093162,29.7716],[76.120361328125,61.01447174686912,37.7407],[76.140234375000034,61.00726959843162,31.5367],[76.158398437500011,60.994159246869117,30.254],[76.173095703125,60.97748444218162,34.2373],[76.182373046875,60.95941803593162,42.1121],[76.186425781250023,60.94782135624412,37.6291],[76.190527343750034,60.941180731244117,36.7975],[76.197998046875,60.93768952030662,39.2202],[76.224365234375,60.93488190311912,34.066],[76.280029296875,60.94013092655662,30.3797],[76.29736328125,60.93866608280662,33.0052],[76.313867187500023,60.93366119999412,36.9788],[76.3779296875,60.900751043744123,35.7437],[76.394238281250011,60.89569733280662,38.1016],[76.4384765625,60.89594147343162,38.8266],[76.514746093750034,60.92902252811912,43.4731],[76.557373046875,60.934930731244123,51.7378],[76.589648437499989,60.92413971561912,44.7935],[76.674414062500034,60.85785553593162,38.7528],[76.692968750000034,60.85138580936912,40.6534],[76.71337890625,60.849627996869117,41.006],[76.75390625,60.85040924686912,41.0067],[76.771484375,60.848895574994117,41.7455],[76.791015625,60.844501043744117,38.4321],[76.807861328125,60.83612702030662,37.9017],[76.81787109375,60.82269928593162,39.1046],[76.819042968750011,60.81268952030662,35.833],[76.818457031250034,60.803827215619123,30.5],[76.819238281250023,60.795428778119117,30.5],[76.824462890625,60.78668854374412,40.3742],[76.83251953125,60.781122137494123,38.4955],[76.842480468750011,60.77802155155662,38.9735],[76.898193359375,60.775018621869123,37.0169],[76.909912109375,60.77252838749412,38.0491],[76.92138671875,60.76764557499412,37.6299],[76.943261718750023,60.75495026249412,38.4435],[76.974218750000034,60.741717840619117,38.3417],[77.01611328125,60.72931549686912,41.9103],[77.036718750000034,60.72650787968162,36.2424],[77.123437500000023,60.726190496869123,31.796],[77.1630859375,60.71759674686912,38.7784],[77.343017578125,60.63861725468162,44.2217],[77.375683593750011,60.63458893436912,43.5409],[77.411376953125,60.647821356244123,42.1486],[77.464257812500023,60.67914459843162,41.3415],[77.478125,60.69147369999412,39.4887],[77.537841796875,60.68646881718162,38.8696],[77.567578125000011,60.679461981244117,32.5479],[77.619873046875,60.657001043744117,41.4426],[77.6796875,60.62274811405662,38.2205],[77.692285156250023,60.61786530155662,39.924],[77.706347656249989,60.61005280155662,32.0],[77.711816406250023,60.599237371869123,32.5],[77.711669921875,60.56708405155662,32.5],[77.718164062500023,60.53400299686912,43.6245],[77.736328125,60.51373932499412,41.3379],[77.76318359375,60.50165436405662,41.1858],[77.854296874999989,60.474627996869117,42.6575],[77.8720703125,60.463983465619123,34.0],[77.898681640625,60.44196198124412,34.0],[77.9130859375,60.43244049686912,40.3897],[77.929101562500023,60.42731354374412,45.4467],[77.930908203125,60.419208074994117,41.862],[78.019433593750023,60.39118073124412,42.1545],[78.153906250000034,60.38947174686912,35.3219],[78.319580078125,60.41535065311912,47.7956],[78.384765625,60.40924713749412,42.5546],[78.393945312500023,60.36591217655662,37.934],[78.38330078125,60.35016510624412,35.2872],[78.369531250000023,60.338983465619123,35.4978],[78.3375,60.32160065311912,35.2034],[78.324121093750023,60.31195709843162,41.3831],[78.31591796875,60.300555731244117,45.6439],[78.31103515625,60.28681061405662,46.2308],[78.308203125000034,60.27008698124412,41.2076],[78.3212890625,60.269403387494123,45.3394],[78.332275390625,60.27008698124412,47.4664],[78.342675781250023,60.27338287968162,46.5611],[78.353271484375,60.280536199994117,47.9591],[78.379785156250023,60.30646393436912,42.3701],[78.3916015625,60.31293366093162,35.4807],[78.415283203125,60.31586334843162,49.6327],[78.43701171875,60.30780670780662,42.2829],[78.477148437500034,60.27826569218162,37.4732],[78.498144531250034,60.26666901249412,35.513],[78.506591796875,60.25995514530662,37.5202],[78.510156250000023,60.25055573124412,39.9809],[78.502832031250023,60.23883698124412,38.7357],[78.501220703125,60.234637762494117,39.7833],[78.500585937500034,60.22492096561912,49.4247],[78.503027343750034,60.21954987186912,48.8959],[78.508203125000023,60.21674225468162,46.7505],[78.516357421875,60.21454498905662,44.7671],[78.5283203125,60.21332428593162,43.2961],[78.553417968750011,60.21527741093162,37.2447],[78.565527343750034,60.213983465619123,37.0233],[78.576904296875,60.20978424686912,35.7961],[78.67138671875,60.15656159061912,42.0629],[78.742773437500034,60.126581121869123,36.9911],[78.759179687500023,60.12201569218162,36.9584],[78.772363281250023,60.121600653119117,38.0598],[78.799902343750034,60.126483465619117,41.3152],[78.864013671875,60.148065496869123,47.4307],[78.892675781250034,60.15436432499412,48.5661],[78.912988281250023,60.15033600468162,50.7999],[78.921142578125,60.12616608280662,36.6955],[78.898535156250034,60.10651276249412,36.7794],[78.848242187500034,60.080194403119123,38.6906],[78.84521484375,60.06586334843162,37.3985],[78.855712890625,60.062127996869123,37.1271],[78.871777343750011,60.06427643436912,61.7014],[78.90234375,60.07184479374412,43.3926],[78.935937500000023,60.075799871869123,43.0252],[78.953320312500011,60.07562897343162,48.1489],[78.973876953125,60.071795965619117,48.0185],[78.998242187500011,60.062616278119123,55.8475],[79.019921875000023,60.04913971561912,49.3526],[79.03173828125,60.03217194218162,37.1772],[78.980078125000034,60.006952215619123,51.4805],[78.95361328125,59.990350653119123,44.2406],[78.938720703125,59.97223541874412,37.7879],[78.938085937500034,59.95807526249412,37.0],[78.945556640625,59.949725653119117,37.8626],[78.968994140625,59.93805573124412,47.016],[78.980371093750023,59.927264715619117,45.3918],[78.984082031250011,59.916131903119123,38.1318],[78.98388671875,59.88873932499412,40.2965],[78.992773437500034,59.85932037968162,46.9631],[79.013427734375,59.845477606244117,39.1942],[79.070068359375,59.833514715619117,38.5341],[79.175537109375,59.786883856244117,38.6799],[79.174560546875,59.76691315311912,39.1061],[79.166796874999989,59.75348541874412,38.5],[79.142578125,59.72614166874412,46.7093],[79.13671875,59.70294830936912,39.2059],[79.146679687500011,59.683465887494123,39.4985],[79.1826171875,59.64716217655662,47.1837]]}}