{"type":"Feature","properties":{"featurecla":"River","scalerank":4,"rivernum":114,"dissolve":"114River","name":"Ob5","name_alt":null,"note":null,"min_zoom":4.0,"strokeweig":1.0,"name_en":"Ob","min_label":5.0},
"geometry":{"type": "LineString","coordinates": [[68.85693359375,61.124042059369117,17.4345],[68.89697265625,61.155536199994117,24.6671],[68.917871093750023,61.16791412968162,24.1707],[68.93759765625,61.18292877811912,21.635],[69.032958984375,61.21710846561912,24.9875],[69.06162109375,61.222284246869123,48.0632],[69.09033203125,61.223163153119117,20.4879],[69.11826171875,61.21857330936912,18.1414],[69.172558593750011,61.19428131718162,17.5248],[69.20166015625,61.18634674686912,22.1545],[69.23095703125,61.18671295780662,23.6542],[69.259667968750023,61.19843170780662,25.1752],[69.316796875000023,61.232538153119123,22.2465],[69.396484375,61.26264069218162,26.6548],[69.448974609375,61.29535553593162,24.7695],[69.467187500000023,61.29987213749412,18.1847],[69.488037109375,61.297137762494117,25.7128],[69.511132812500023,61.28620026249412,23.7173],[69.5546875,61.258563543744117,25.3474],[69.579003906250023,61.24994537968162,24.7014],[69.60703125,61.24982330936912,25.9449],[69.63388671875,61.25763580936912,23.14],[69.685791015625,61.27985260624412,24.4406],[69.717675781250023,61.287713934369123,25.4031],[69.748779296875,61.28900787968162,26.4109],[69.77978515625,61.28424713749412,25.3158],[69.88427734375,61.241473699994117,18.0],[69.910400390625,61.23505280155662,18.3182],[70.091552734375,61.236200262494123,20.0],[70.15439453125,61.24481842655662,23.6556],[70.353759765625,61.30121491093162,26.3148]]}}