{"type":"Feature","properties":{"featurecla":"River","scalerank":2,"rivernum":24,"dissolve":"24River","name":"Ob14","name_alt":null,"note":null,"min_zoom":2.1,"strokeweig":1.25,"name_en":"Ob","min_label":3.1},
"geometry":{"type": "LineString","coordinates": [[65.713769531250023,66.11871979374412,0.5905],[65.82177734375,66.10626862186912,7.571],[65.868359375000011,66.08637116093162,1.0075],[65.8828125,66.03620026249412,0.8131],[65.869140625,65.98676178593162,7.143],[65.865234375,65.96369049686912,5.7731],[65.87900390625,65.906024481244117,1.1904],[65.879296875000023,65.881610418744117,1.2453],[65.86875,65.860223699994123,6.4749],[65.844921875000011,65.839715887494123,7.9308],[65.843164062500023,65.83173248905662,1.5024],[65.759033203125,65.786639715619117,5.9955],[65.71923828125,65.75849030155662,7.2386],[65.687744140625,65.725116278119117,6.7742],[65.676660156250023,65.70490143436912,7.5473],[65.653222656250023,65.639667059369117,7.6453],[65.61376953125,65.58344147343162,8.5738],[65.603515625,65.56342194218162,7.0887],[65.60068359375,65.51935455936912,7.8046],[65.60888671875,65.47577545780662,8.7416],[65.607177734375,65.435809637494117,7.4518],[65.574609375000023,65.40289948124412,11.3903],[65.442285156250023,65.362323309369117,8.8904],[65.404541015625,65.337274481244123,8.0797],[65.391845703125,65.32147858280662,7.7132],[65.37021484375,65.287372137494117,11.2923],[65.356640625000011,65.272088934369123,8.927],[65.289257812500011,65.22638580936912,10.5808],[65.269433593750023,65.207538153119117,11.1738],[65.245996093750023,65.16766998905662,8.4511],[65.235058593750011,65.121844793744117,9.5501],[65.242578125000023,65.07843659061912,3.649],[65.2740234375,65.04633209843162,31.5988],[65.322509765625,65.02973053593162,3.8694],[65.373046875,65.025165106244117,9.8058],[65.577734375,65.03424713749412,9.0511],[65.631738281250023,65.025995184369123,8.8086],[65.664941406250023,65.000018621869117,4.5187],[65.654687500000023,64.95905182499412,11.1504],[65.531152343750023,64.93280670780662,8.9225],[65.50205078125,64.90729401249412,11.0306],[65.512109375000023,64.88495514530662,4.0432],[65.530517578125,64.86615631718162,3.8782],[65.544921875,64.84613678593162,6.7199],[65.543212890625,64.82013580936912,4.4752],[65.528710937500023,64.79828522343162,10.6237],[65.496484375000023,64.76019928593162,9.7966],[65.4873046875,64.734247137494123,9.1869],[65.49951171875,64.72980377811912,4.5035],[65.523193359375,64.71710846561912,4.4116],[65.535839843750011,64.713251043744123,10.2814],[65.57080078125,64.71039459843162,10.216],[65.587792968750023,64.706805731244117,5.2145],[65.600830078125,64.698602606244123,4.7543],[65.635498046875,64.68378327030662,39.285],[65.639892578125,64.67658112186912,38.6739],[65.6494140625,64.67255280155662,39.6944],[65.72900390625,64.649432684369117,4.7697],[65.743359375000011,64.64325592655662,4.8567],[65.755273437500023,64.63422272343162,8.1143],[65.737695312500023,64.621356512494117,10.5793],[65.67333984375,64.59540436405662,10.1584],[65.6533203125,64.59247467655662,10.0387],[65.643457031250023,64.58978912968162,9.9762],[65.63583984375,64.583758856244117,10.5306],[65.632080078125,64.573114324994123,5.2133],[65.635498046875,64.564813543744123,5.4126],[65.643457031250023,64.55866119999412,5.1575],[65.700097656250023,64.537713934369123,5.0172],[65.720703125,64.52631256718162,10.6067],[65.759521484375,64.49738190311912,9.4181],[65.820556640625,64.47675202030662,14.0771],[65.839599609375,64.466815496869117,4.8516],[65.854296875000017,64.45380280155662,4.733],[65.865625,64.43756744999412,5.2408],[65.874414062500023,64.41828034061912,4.8353],[65.885644531250023,64.399042059369123,5.375],[65.9341796875,64.360956121869123,12.05],[65.94189453125,64.34223053593162,11.1408],[65.930419921875,64.32672760624412,10.8201],[65.8912109375,64.30438873905662,11.6516],[65.8677734375,64.28620026249412,10.9284],[65.866455078125,64.27179596561912,12.0137],[65.882080078125,64.26178619999412,9.5084],[65.937744140625,64.25348541874412,12.5833],[65.96201171875,64.24603912968162,5.3948],[65.982324218750023,64.23236725468162,11.525],[65.99814453125,64.21015045780662,11.4894],[66.008691406250023,64.18903229374412,12.1932],[66.015039062500023,64.179803778119123,11.1327],[66.042724609375,64.153680731244123,10.3672],[66.046777343750023,64.14350006718162,12.1843],[66.046777343750023,64.128436590619117,11.821],[66.019433593750023,64.12164948124412,12.7127],[65.989160156250023,64.122088934369117,11.9077],[65.90478515625,64.138690496869117,13.0654],[65.890527343750023,64.13898346561912,11.4694],[65.87841796875,64.13532135624412,14.5696],[65.868896484375,64.124139715619123,13.1022],[65.870361328125,64.11249420780662,12.2157],[65.88330078125,64.08893463749412,12.7711],[65.864648437500023,64.08087799686912,11.1488],[65.842041015625,64.077899481244117,11.3426],[65.79931640625,64.07709381718162,14.7018],[65.78037109375,64.071307684369117,7.4484],[65.776953125,64.05939362186912,13.8241],[65.783398437500011,64.04413483280662,13.5904],[65.80673828125,64.00519440311912,8.1718],[65.80908203125,63.99750397343162,8.2385],[65.809277343750011,63.98578522343162,11.9297],[65.8056640625,63.97894928593162,12.3713],[65.791259765625,63.967547918744117,14.7513],[65.780029296875,63.94757721561912,7.6996],[65.791259765625,63.93646881718162,6.7886],[65.808007812500023,63.92645905155662,12.0162],[65.813378906250023,63.90997955936912,16.0675],[65.7896484375,63.899676824994117,9.1927],[65.774316406250023,63.88580963749412,7.0842],[65.77060546875,63.86762116093162,12.7564],[65.782617187500023,63.84430573124412,12.9592],[65.801513671875,63.82794830936912,12.452],[65.84619140625,63.80621979374412,13.3431],[65.865136718750023,63.791034246869117,11.7505],[65.871777343750011,63.76813385624412,13.9323],[65.850830078125,63.75812409061912,10.0038],[65.81943359375,63.75665924686912,13.1063],[65.794921875,63.75934479374412,12.6795],[65.730224609375,63.77667877811912,13.8595],[65.692285156250023,63.780536199994117,13.7845],[65.67138671875,63.76898834843162,12.9877],[65.67978515625,63.750018621869117,7.7908],[65.736718750000023,63.70954010624412,12.5148],[65.75244140625,63.68683502811912,13.7758],[65.751855468750023,63.67365143436912,17.4311],[65.73828125,63.636590887494123,8.1147],[65.73828125,63.622186590619123,7.9164],[65.74228515625,63.61029694218162,7.8645],[65.74951171875,63.599627996869117,13.1612],[65.759033203125,63.58893463749412,13.2886],[65.7740234375,63.56622955936912,14.2453],[65.772363281250023,63.549579168744117,15.1386],[65.7568359375,63.53656647343162,12.5584],[65.6376953125,63.493670965619117,40.529],[65.605859375000023,63.487176824994123,11.6035],[65.514550781250023,63.48395416874412,10.9322],[65.4853515625,63.47846100468162,12.1659],[65.466210937500023,63.45746491093162,13.3974],[65.491601562500023,63.43085358280662,14.4272],[65.52978515625,63.404071356244117,13.5949],[65.549560546875,63.382440496869123,13.8665],[65.540917968750023,63.367206121869117,8.9975],[65.520751953125,63.356463934369117,9.168],[65.266357421875,63.272333074994123,15.0692],[65.2310546875,63.244159246869117,16.2796],[65.213134765625,63.19196198124412,15.4999],[65.208740234375,63.16608307499412,15.5153],[65.201074218750023,63.14423248905662,15.7713],[65.1880859375,63.12518952030662,14.8229],[65.117431640625,63.06622955936912,15.7405],[65.072265625,63.040887762494123,20.6555],[65.05126953125,63.025897528119117,15.6526],[65.046484375,63.006952215619123,17.4248],[65.06845703125,62.98126862186912,39.8819],[65.1060546875,62.96063873905662,48.6961],[65.22763671875,62.931756903119123,74.6508],[65.286035156250023,62.90424225468162,63.0769],[65.3365234375,62.868426824994117,43.7357],[65.380078125000011,62.82428619999412,13.0],[65.4169921875,62.77204010624412,17.0606],[65.479736328125,62.73383209843162,11.3682],[65.514550781250023,62.71942780155662,16.0203],[65.61669921875,62.694696356244123,88.4434],[65.630761718750023,62.687762762494117,98.4071],[65.683203125,62.63971588749412,109.374],[65.74560546875,62.605829168744123,107.5929],[65.759765625,62.59589264530662,66.4184],[65.8125,62.547626043744117,10.5434],[65.883544921875,62.497430731244123,10.5965],[65.89072265625,62.49384186405662,10.5731],[65.89951171875,62.491473699994117,10.5647],[65.918212890625,62.489276434369117,22.3991],[65.98935546875,62.47077057499412,101.4296],[66.245019531250023,62.45331452030662,16.0048],[66.28076171875,62.44684479374412,77.7298]]}}