{"type":"Feature","properties":{"featurecla":"River","scalerank":4,"rivernum":114,"dissolve":"114River","name":"Ob6","name_alt":null,"note":null,"min_zoom":4.0,"strokeweig":0.8,"name_en":"Ob","min_label":5.0},
"geometry":{"type": "LineString","coordinates": [[70.353759765625,61.30121491093162,26.3148],[70.411865234375,61.30304596561912,26.2623],[70.46728515625,61.29096100468162,19.4545],[70.51376953125,61.27472565311912,22.0425],[70.537353515625,61.26959869999412,26.9893],[70.789794921875,61.27118561405662,27.2727],[70.816015625,61.275165106244117,29.6655],[70.909423828125,61.303973699994117,27.3635],[70.92783203125,61.30499909061912,30.1089],[71.070703125000023,61.277362371869117,30.863],[71.13193359375,61.275165106244117,28.4238],[71.150634765625,61.26679108280662,28.3336],[71.162353515625,61.256463934369123,21.5278],[71.169824218750023,61.24579498905662,28.121],[71.174560546875,61.23371002811912,28.5806],[71.180078125000023,61.20404694218162,26.7684],[71.183837890625,61.19257233280662,28.6365],[71.19140625,61.18439362186912,28.178],[71.205322265625,61.17938873905662,29.6144],[71.22177734375,61.17804596561912,25.8546],[71.237695312500023,61.180194403119117,22.9875],[71.2529296875,61.184930731244123,27.2718],[71.2681640625,61.191669012494117,28.5179],[71.338134765625,61.236200262494123,28.7759],[71.364501953125,61.24738190311912,27.2643],[71.39794921875,61.25360748905662,29.2716],[71.63818359375,61.252557684369123,22.4624],[71.654296875,61.254266668744123,24.0824],[71.694726562500023,61.26898834843162,28.5523]]}}