{"type":"Feature","properties":{"featurecla":"River","scalerank":2,"rivernum":24,"dissolve":"24River","name":"Ob13","name_alt":null,"note":null,"min_zoom":2.1,"strokeweig":1.0,"name_en":"Ob","min_label":3.1},
"geometry":{"type": "LineString","coordinates": [[66.28076171875,62.44684479374412,77.7298],[66.388671875,62.42841217655662,88.1761],[66.408105468750023,62.42059967655662,27.5751],[66.426513671875,62.410419012494117,73.8194],[66.4541015625,62.387811590619123,99.6276],[66.463769531250023,62.38385651249412,65.4063],[66.46875,62.36505768436912,21.5374],[66.47900390625,62.34613678593162,12.4825],[66.503662109375,62.31329987186912,12.5032],[66.5205078125,62.29669830936912,12.7477],[66.538818359375,62.287713934369123,83.9968],[66.55966796875,62.28449127811912,54.7739],[66.65087890625,62.285760809369123,36.6609],[66.73984375,62.26337311405662,103.2981],[66.9384765625,62.24823639530662,29.8786],[66.995849609375,62.232538153119123,106.2153],[67.025781250000023,62.228143621869123,105.4945],[67.056396484375,62.229364324994123,111.947],[67.066650390625,62.227801824994117,132.8026],[67.08056640625,62.22247955936912,137.5369],[67.10791015625,62.20831940311912,116.4257],[67.210546875,62.170672918744117,83.4358],[67.260498046875,62.14215729374412,119.8557],[67.332763671875,62.08600494999412,49.2766],[67.355224609375,62.06281159061912,35.6201],[67.37109375,62.03632233280662,12.8247],[67.382421875,61.993426824994117,12.4839],[67.4166015625,61.93195221561912,14.6103],[67.43173828125,61.91242096561912,16.5304],[67.5361328125,61.834735418744117,31.4518],[67.55078125,61.813836981244123,16.2274],[67.554296875,61.786737371869123,20.8122],[67.551171875000023,61.745868231244117,21.798],[67.55517578125,61.728387762494123,13.5],[67.566015625,61.70929596561912,70.6164],[67.58896484375,61.68207428593162,45.6649],[67.602294921875,61.670526434369123,63.0253],[67.617431640625,61.66071198124412,14.2318],[67.67138671875,61.63764069218162,15.2374],[67.728759765625,61.624383856244123,15.9401],[67.900634765625,61.609247137494123,13.5],[68.2671875,61.489374090619123,63.3025],[68.310791015625,61.468866278119123,78.6774],[68.34814453125,61.438251043744117,28.0613],[68.3671875,61.39838287968162,83.5848],[68.356201171875,61.350360418744117,41.4747],[68.289794921875,61.284686590619117,88.1597],[68.26962890625,61.24848053593162,39.3985],[68.2890625,61.20831940311912,79.203],[68.3115234375,61.19306061405662,87.6653],[68.41259765625,61.16071198124412,101.4802],[68.453027343750023,61.13825104374412,60.4761],[68.47265625,61.12409088749412,21.218],[68.523046875,61.09747955936912,22.3457],[68.57333984375,61.08942291874412,24.5272],[68.7607421875,61.09308502811912,97.9428],[68.7861328125,61.089374090619117,47.5015]]}}