{"type":"Feature","properties":{"GID_2":"RUS.83.21_1","GID_0":"RUS","country":"Russia","GID_1":"RUS.83_1","province":"Zabaykal'ye","NL_NAME_1":"Забайкальскийкрай","county":"Mogochinskiyrayon","VARNAME_2":"NA","NL_NAME_2":"Могочинскийрайон","TYPE_2":"Raion","ENGTYPE_2":"District","CC_2":"R64091","HASC_2":"RU.CT.MO","name":"Mogochinskiyrayon.county"},
"geometry":{"type": "MultiPolygon","coordinates": [[[[122.0517,53.4211,291.4872],[122.0419,53.4438,304.5389],[122.0276,53.4901,449.0885],[122.0045,53.5333,541.5952],[121.9522,53.5535,515.506],[121.9476,53.591,420.3896],[121.9646,53.6358,555.9319],[121.9307,53.6705,510.2269],[121.9666,53.7134,666.8135],[121.9297,53.7612,587.923],[121.9448,53.8199,660.3289],[121.8913,53.8499,602.296],[121.8387,53.9104,546.8954],[121.797,53.9736,739.1948],[121.7544,53.9878,565.4736],[121.7272,53.9547,542.3739],[121.6259,54.0439,611.0874],[121.6344,54.0846,679.7369],[121.6346,54.123,807.5254],[121.6598,54.1469,869.637],[121.723,54.1778,969.3394],[121.7319,54.1992,932.8913],[121.7009,54.261,776.3802],[121.7004,54.2948,864.2222],[121.6685,54.3357,1342.4099],[121.5867,54.3291,1387.8224],[121.557,54.2858,1036.5935],[121.5517,54.2705,1024.4725],[121.4623,54.2581,803.3792],[121.4763,54.3717,1257.8031],[121.3839,54.4001,1123.6406],[121.3066,54.4389,910.4044],[121.2657,54.441,949.0291],[121.2079,54.4233,1170.1924],[121.1729,54.4347,1299.8121],[121.1722,54.4819,854.6479],[121.1583,54.5018,1023.4874],[121.0958,54.5031,1040.729],[121.0417,54.4644,951.3156],[120.9817,54.4556,1082.8552],[120.9059,54.4142,1239.6533],[120.8493,54.4162,1194.2069],[120.8419,54.3725,943.5007],[120.8239,54.3059,1104.1857],[120.7643,54.2815,1080.6393],[120.7045,54.2926,932.3024],[120.6388,54.2847,1082.1354],[120.5965,54.2484,849.5569],[120.5332,54.2323,972.9257],[120.5478,54.2621,952.8433],[120.4993,54.2921,957.4542],[120.4548,54.2649,847.7339],[120.4212,54.2078,1089.7053],[120.3592,54.1903,829.9395],[120.3138,54.145,1273.4823],[120.27,54.1309,1127.2958],[120.2027,54.1583,1039.1345],[120.1515,54.1264,996.0593],[120.1065,54.0847,1036.9358],[120.0251,54.0639,1059.0759],[119.9758,54.13,932.4164],[119.8499,54.1436,924.2186],[119.7975,54.1336,1094.0503],[119.7452,54.0416,997.7083],[119.6412,54.0111,1102.9773],[119.5941,54.0507,1079.8378],[119.4971,54.0493,896.0933],[119.4509,54.0124,1230.8927],[119.3999,53.983,1061.2393],[119.3253,53.9843,1127.1003],[119.2762,53.9479,971.5242],[119.2162,53.9191,977.7277],[119.1468,53.9232,1070.2657],[119.1431,53.9847,1028.2466],[119.0826,54.0043,1139.0488],[119.0533,53.9617,1184.194],[119.012,53.9144,1336.0087],[118.971,53.8871,1155.2596],[118.9026,53.9431,1092.7156],[118.858,54.0151,792.7106],[118.7999,54.0796,1118.0203],[118.7661,54.1136,1205.5551],[118.65,54.1003,1175.2419],[118.6015,54.0466,1114.52],[118.4822,54.0459,1106.1023],[118.3781,54.0219,994.2598],[118.3198,53.964,1019.6523],[118.2788,53.926,1014.7186],[118.2156,53.9115,1119.6501],[118.148,53.9232,894.5112],[118.0717,53.9258,1296.4294],[118.0218,53.9232,1098.7108],[118.027,53.8297,1083.7258],[117.9995,53.7565,1116.6377],[117.9749,53.7102,1057.7307],[118.0086,53.6936,1091.5464],[118.0921,53.7238,778.9777],[118.1235,53.698,779.1235],[118.1282,53.6698,894.3548],[118.1851,53.6295,959.369],[118.196,53.5709,1422.0874],[118.1925,53.543,1311.5931],[118.1019,53.5092,1385.9896],[118.0777,53.443,1304.1036],[118.081,53.3885,962.4821],[118.1694,53.3079,710.2833],[118.1563,53.2455,623.3747],[118.2188,53.2211,565.3215],[118.2458,53.2006,568.7698],[118.2413,53.1567,785.482],[118.2573,53.1304,820.5769],[118.3243,53.1108,735.0043],[118.3446,53.0762,804.52],[118.368,53.0267,743.8827],[118.438,53.0179,730.2892],[118.46,53.0608,646.4197],[118.4974,53.087,678.7992],[118.5173,53.1388,786.2531],[118.6214,53.1337,507.4117],[118.6616,53.1746,438.7838],[118.7484,53.2085,642.697],[118.9026,53.2576,822.9383],[118.9711,53.2593,702.2912],[119.0433,53.2412,587.6931],[119.0804,53.2643,698.5818],[119.1292,53.3112,762.0573],[119.1654,53.2907,689.4647],[119.2462,53.3082,828.5535],[119.2484,53.345,701.3495],[119.2839,53.3655,764.1255],[119.3392,53.3464,735.5359],[119.4106,53.374,761.1733],[119.5287,53.3562,490.003],[119.6828,53.3241,544.0179],[119.7839,53.264,642.5864],[119.8506,53.209,1100.691],[119.9394,53.1881,815.262],[119.9708,53.2398,905.8301],[119.9955,53.2573,696.8069],[120.0751,53.2553,947.0008],[120.1196,53.2232,649.8763],[120.151,53.1868,601.5776],[120.1829,53.1627,549.7145],[120.2825,53.1692,656.462],[120.3223,53.1982,874.1674],[120.3571,53.2042,727.409],[120.412,53.2074,702.0482],[120.4553,53.1917,569.8801],[120.4474,53.1644,678.6687],[120.4032,53.1257,633.0305],[120.389,53.0776,682.2238],[120.3938,53.0223,506.428],[120.3936,52.9527,341.7168],[120.4037,52.9616,357.4521],[120.4168,52.9863,376.6054],[120.4258,52.9962,374.844],[120.4598,53.0178,419.436],[120.4902,53.0297,345.5908],[120.4984,53.0372,336.532],[120.5077,53.0421,408.8722],[120.5157,53.0488,368.4254],[120.525,53.0652,432.3877],[120.5235,53.0652,432.3877],[120.5293,53.0714,429.9135],[120.5436,53.0789,433.7053],[120.5721,53.0861,336.5969],[120.595,53.0974,427.8275],[120.6189,53.0996,337.6564],[120.6272,53.1044,414.1239],[120.639,53.1316,421.7328],[120.6529,53.1352,333.0549],[120.6752,53.1446,430.4913],[120.686,53.1562,397.3058],[120.6839,53.1627,398.455],[120.6824,53.1628,420.1296],[120.6809,53.1737,354.2061],[120.6944,53.1803,360.8452],[120.7087,53.1922,413.7061],[120.7265,53.202,327.6557],[120.7491,53.2077,371.1762],[120.7641,53.2138,327.7911],[120.7875,53.2301,346.7665],[120.8002,53.2353,329.7125],[120.8092,53.2375,338.6546],[120.8194,53.237,356.4256],[120.8256,53.2403,380.2701],[120.8274,53.2428,393.1526],[120.8185,53.2537,338.3192],[120.8118,53.2584,334.2542],[120.8139,53.2636,323.3332],[120.8342,53.2741,334.0405],[120.8521,53.2767,328.0147],[120.8658,53.2814,342.0391],[120.8708,53.2864,347.4027],[120.8767,53.287,322.94],[120.9023,53.2815,418.6812],[120.9112,53.282,417.7327],[120.9369,53.2887,343.3571],[120.9693,53.2907,335.5362],[121.0038,53.2865,387.9791],[121.0404,53.2866,320.5766],[121.0701,53.3019,358.1365],[121.0831,53.3004,342.5779],[121.0884,53.2958,344.4007],[121.1037,53.2898,421.4963],[121.1136,53.2762,365.8431],[121.1219,53.2732,391.4128],[121.1309,53.2745,321.8309],[121.1403,53.2793,313.2206],[121.1685,53.2824,336.2281],[121.1931,53.2803,334.4116],[121.2185,53.2813,350.4563],[121.2402,53.2904,328.2917],[121.262,53.2901,320.4891],[121.2802,53.2941,345.2677],[121.2926,53.2996,407.6895],[121.3084,53.3152,330.6961],[121.3183,53.322,319.0571],[121.3361,53.3251,307.3199],[121.3556,53.3249,308.1694],[121.3713,53.3203,318.3378],[121.3889,53.3182,307.1158],[121.4125,53.3216,308.4144],[121.4388,53.3231,308.5516],[121.4465,53.3281,357.0323],[121.4687,53.3326,307.117],[121.4758,53.3315,305.4919],[121.5824,53.3553,312.3167],[121.6122,53.3685,327.3206],[121.6556,53.3759,306.6802],[121.6656,53.3841,308.0887],[121.6764,53.3879,300.5604],[121.6898,53.389,300.5797],[121.7169,53.3841,311.3881],[121.73779999999999,53.3865,299.1031],[121.8153,53.4149,298.174],[121.836,53.4156,297.7827],[121.8591,53.4231,302.1813],[121.9044,53.4216,294.6815],[121.9212,53.426,306.4753],[121.9687,53.4296,298.7357],[122.0332,53.4191,356.8582],[122.0517,53.4211,291.4872]]]]}}