{"type":"Feature","properties":{"GID_2":"RUS.35.33_1","GID_0":"RUS","country":"Russia","GID_1":"RUS.35_1","province":"Krasnoyarsk","NL_NAME_1":"Красноярскийкрай","county":"Krasnoyarsk","VARNAME_2":"NA","NL_NAME_2":"Красноярск","TYPE_2":"Gorsovet","ENGTYPE_2":"District","CC_2":"NA","HASC_2":"RU.KY.KY","name":"Krasnoyarsk.county"},
"geometry":{"type": "MultiPolygon","coordinates": [[[[93.0389,55.944,288.9514],[93.0757,56.0674,138.882],[93.0163,56.0914,189.352],[92.784,56.0365,185.1944],[92.7931,55.9634,158.3546],[92.9937,55.9356,498.5121],[93.0389,55.944,288.9514]]]]}}