{"type":"Feature","properties":{"GID_2":"RUS.2.20_1","GID_0":"RUS","country":"Russia","GID_1":"RUS.2_1","province":"Altay","NL_NAME_1":"Алтайскийкрай","county":"Krasnogorskiyrayon","VARNAME_2":"NA","NL_NAME_2":"Красногорскийрайон","TYPE_2":"Raion","ENGTYPE_2":"District","CC_2":"R53092","HASC_2":"RU.AL.KG","name":"Krasnogorskiyrayon.county"},
"geometry":{"type": "MultiPolygon","coordinates": [[[[85.7876,52.3408,213.2413],[85.8121,52.241,239.7552],[85.8268,52.201,249.2459],[85.8539,52.1525,266.8746],[85.8728,52.1094,274.5578],[85.8977,52.0625,268.2852],[86.0432,52.0739,314.3644],[86.1205,52.067,347.5294],[86.1778,52.0521,523.1885],[86.2893,52.0262,494.7912],[86.353,52.0315,451.3123],[86.4067,52.0605,402.3473],[86.4131,52.0984,364.4159],[86.4338,52.1261,267.174],[86.4817,52.1376,290.4447],[86.5661,52.1406,510.4153],[86.6184,52.122,522.8718],[86.6733,52.1176,604.1125],[86.7194,52.1297,445.0979],[86.7292,52.181,417.067],[86.7206,52.2457,370.3763],[86.7107,52.2788,380.4539],[86.6576,52.3039,396.3933],[86.6639,52.3742,403.6339],[86.6923,52.4341,311.4894],[86.6646,52.4742,276.6806],[86.6446,52.5144,247.4417],[86.5922,52.5321,255.0576],[86.5795,52.5555,254.4783],[86.5719,52.5815,238.7706],[86.5414,52.6027,235.2642],[86.4942,52.6099,244.6027],[86.4512,52.6222,245.1895],[86.396,52.621,249.5419],[86.3655,52.5978,240.1029],[86.3489,52.5707,243.9515],[86.3039,52.5058,287.7734],[86.2443,52.4826,290.1726],[86.1892,52.4646,314.7487],[86.1441,52.483,285.1981],[86.1201,52.5152,346.7099],[86.1223,52.5479,330.4893],[86.1303,52.573,267.5647],[86.1059,52.5978,219.8844],[86.0771,52.6136,197.4087],[86.0407,52.6201,197.2214],[86.0105,52.6181,203.2685],[85.9651,52.6068,194.7508],[85.932,52.5914,219.4586],[85.9062,52.5687,189.1298],[85.9119,52.5277,255.8029],[85.9399,52.5016,258.3977],[85.9766,52.4812,396.5842],[86.0063,52.4674,413.0947],[85.9879,52.4289,364.1295],[85.9077,52.3741,282.5805],[85.8663,52.3529,279.3245],[85.7876,52.3408,213.2413]]]]}}