{"type":"Feature","properties":{"GID_2":"RUS.60.13_1","GID_0":"RUS","country":"Russia","GID_1":"RUS.60_1","province":"Sakha","NL_NAME_1":"РеспубликаСаха","county":"Megino-Kangalasskiyrayon","VARNAME_2":"NA","NL_NAME_2":"Мегино-Кангаласскийрайон","TYPE_2":"Raion","ENGTYPE_2":"District","CC_2":"R65001","HASC_2":"RU.SK.ME","name":"Megino-Kangalasskiyrayon.county"},
"geometry":{"type": "MultiPolygon","coordinates": [[[[131.6295,61.6914,243.3195],[131.6607,61.7393,244.7536],[131.6611,61.85,232.0869],[131.5413,61.8945,233.4578],[131.5336,61.9174,232.2485],[131.5882,61.9751,240.4002],[131.6028,62.0261,245.7232],[131.5884,62.0476,258.5811],[131.4958,62.0825,221.4354],[131.5548,62.1392,231.6128],[131.5339,62.1572,214.1963],[131.4611,62.1823,211.7429],[131.432,62.2254,209.2835],[131.4181,62.2639,226.9174],[131.371,62.288,202.7663],[131.2034,62.3248,210.9679],[131.0852,62.33,210.8099],[130.9858,62.3428,190.7093],[130.8709,62.3892,147.9694],[130.8362,62.4112,154.127],[130.832,62.4372,150.5702],[130.8202,62.466,155.2764],[130.7878,62.4894,136.6173],[130.7276,62.494,147.9436],[130.6562,62.4761,140.0832],[130.6109,62.4563,149.9122],[130.5496,62.4211,147.3697],[130.4334,62.4154,147.3893],[130.3322,62.4181,146.7441],[130.2392,62.427,120.6428],[130.1601,62.4317,95.4523],[130.0931,62.4199,82.0],[130.0356,62.3935,82.0],[130.0804,62.3811,86.7051],[130.1267,62.3642,87.58],[130.1549,62.3168,134.9782],[130.1487,62.2742,149.6343],[130.0138,62.1893,88.739],[129.996,62.1563,90.9053],[129.9986,62.1007,90.9714],[130.025,62.0509,148.2806],[129.9691,62.0005,133.873],[129.8857,61.9602,88.0],[129.8125,61.9306,88.5],[129.7393,61.8881,88.5],[129.6899,61.8313,89.0],[129.6545,61.7567,89.0],[129.6712,61.7321,93.3971],[129.5921,61.6543,89.0],[129.5856,61.6062,138.4744],[129.6348,61.5537,140.3591],[129.6993,61.5057,192.7866],[129.7842,61.4966,174.8511],[129.8662,61.4822,202.5988],[129.9143,61.4506,179.422],[129.9465,61.4225,212.7115],[130.0237,61.4229,202.7568],[130.1279,61.3943,179.4037],[130.2612,61.346,180.795],[130.3411,61.2749,241.3748],[130.3447,61.2204,258.9867],[130.3609,61.1222,276.5677],[130.3242,61.0701,287.8023],[130.3491,60.98,265.307],[130.3563,60.9048,249.5758],[130.3582,60.8597,284.0933],[130.3447,60.8351,311.079],[130.2942,60.8032,340.345],[130.2613,60.7682,395.594],[130.3308,60.7639,379.9473],[130.592,60.7245,301.2443],[130.7599,60.7306,343.3121],[130.8505,60.7579,351.4146],[130.8932,60.7945,303.0525],[130.9174,60.8416,287.399],[130.9134,60.8814,330.828],[130.9249,60.9175,329.5331],[130.9749,60.9775,289.0703],[130.9737,61.0216,358.8336],[130.9187,61.0576,341.263],[130.8589,61.1096,274.0959],[130.9389,61.1675,235.3504],[130.903,61.2199,208.0593],[130.9016,61.2882,211.0123],[130.9384,61.3464,277.4392],[131.0249,61.3621,277.1248],[131.1176,61.3622,245.3021],[131.2647,61.3654,252.9346],[131.4381,61.4034,237.1903],[131.5745,61.4551,260.0342],[131.6443,61.5229,265.3722],[131.6808,61.5946,218.126],[131.6425,61.6379,221.5494],[131.6295,61.6914,243.3195]]]]}}