{"type":"Feature","properties":{"GID_2":"RUS.2.48_1","GID_0":"RUS","country":"Russia","GID_1":"RUS.2_1","province":"Altay","NL_NAME_1":"Алтайскийкрай","county":"Soltonskiyrayon","VARNAME_2":"NA","NL_NAME_2":"Солтонскийрайон","TYPE_2":"Raion","ENGTYPE_2":"District","CC_2":"R53094","HASC_2":"RU.AL.ST","name":"Soltonskiyrayon.county"},
"geometry":{"type": "MultiPolygon","coordinates": [[[[86.0771,52.6136,197.4087],[86.1059,52.5978,219.8844],[86.1303,52.573,267.5647],[86.1223,52.5479,330.4893],[86.1201,52.5152,346.7099],[86.1441,52.483,285.1981],[86.1892,52.4646,314.7487],[86.2443,52.4826,290.1726],[86.3039,52.5058,287.7734],[86.3489,52.5707,243.9515],[86.3655,52.5978,240.1029],[86.396,52.621,249.5419],[86.4512,52.6222,245.1895],[86.4942,52.6099,244.6027],[86.5414,52.6027,235.2642],[86.5719,52.5815,238.7706],[86.5795,52.5555,254.4783],[86.5922,52.5321,255.0576],[86.6446,52.5144,247.4417],[86.6644,52.5372,266.3174],[86.7124,52.5365,288.2615],[86.7565,52.5696,309.5808],[86.8185,52.6047,393.0527],[86.9097,52.636,506.5783],[87.0021,52.6459,481.1615],[87.0733,52.6312,535.2406],[87.1155,52.5973,510.3727],[87.1133,52.6359,537.0173],[87.1152,52.6675,448.0677],[87.0825,52.696,418.362],[87.0341,52.6885,488.6234],[86.9897,52.6916,491.1602],[86.9632,52.7384,444.8817],[86.9449,52.7834,493.945],[86.9469,52.851,390.0011],[87.0269,52.8992,421.3923],[87.0318,52.9588,392.4571],[87.008,53.0068,413.9465],[86.9601,53.0381,323.1713],[86.917,53.069,396.3893],[86.7826,53.0514,280.8553],[86.7032,53.0327,310.8853],[86.6371,53.0257,261.8422],[86.5771,53.0278,301.9922],[86.5233,53.0212,320.4872],[86.4612,52.9934,287.41],[86.3991,52.9572,389.5941],[86.3336,52.9131,428.8169],[86.2593,52.8678,345.1261],[86.1451,52.8221,306.0976],[86.1691,52.7983,289.6678],[86.1791,52.7746,271.983],[86.1289,52.7544,284.0462],[86.0618,52.7339,322.5352],[86.0417,52.7119,306.134],[86.0522,52.6957,259.4721],[86.0768,52.6747,245.4527],[86.088,52.6437,232.1372],[86.0771,52.6136,197.4087]]]]}}