{"type":"Feature","properties":{"GID_3":"RUS.30.2.1_1","GID_0":"RUS","country":"Russia","GID_1":"RUS.30_1","province":"Khanty-Mansiy","NL_NAME_1":"Ханты-МансийскийАОк","GID_2":"RUS.30.2_1","county":"Beloyarsky","NL_NAME_2":"Белоярский","city":"NA","VARNAME_3":"NA","NL_NAME_3":"NA","TYPE_3":"NA","ENGTYPE_3":"NA","CC_3":"NA","HASC_3":"NA","name":"N_A.city"},
"geometry":{"type": "MultiPolygon","coordinates": [[[[66.7397,63.6542,23.1104],[66.7543,63.665,26.6686],[66.7462,63.6761,25.3764],[66.7112,63.6865,21.6289],[66.6395,63.6785,21.5218],[66.6422,63.6612,20.3897],[66.6816,63.6412,22.4922],[66.7397,63.6542,23.1104]]]]}}