{"type":"Feature","properties":{"GID_3":"RUS.2.12.1_1","GID_0":"RUS","country":"Russia","GID_1":"RUS.2_1","province":"Altay","NL_NAME_1":"Алтайскийкрай","GID_2":"RUS.2.12_1","county":"Charyshskiyrayon","NL_NAME_2":"Чарушскийрайон","city":"NA","VARNAME_3":"NA","NL_NAME_3":"NA","TYPE_3":"NA","ENGTYPE_3":"NA","CC_3":"NA","HASC_3":"NA","name":"N_A.city"},
"geometry":{"type": "MultiPolygon","coordinates": [[[[84.0488,50.6506,1747.5493],[84.0506,50.6478,1614.6396],[84.1094,50.655,1591.9421],[84.2326,50.673,1862.5815],[84.3241,50.6888,1673.7253],[84.3874,50.72,1596.8816],[84.4374,50.7059,1666.2512],[84.5099,50.7365,2050.3772],[84.4988,50.7837,1879.756],[84.5816,50.8186,2245.1731],[84.6041,50.8369,1932.5376],[84.5923,50.8558,1691.1771],[84.5217,50.8725,1681.2249],[84.4732,50.886,2167.9814],[84.5012,50.9202,2220.1992],[84.4991,50.9668,1259.9445],[84.3625,50.9764,1678.6423],[84.292,50.9959,1144.5994],[84.2359,50.994,1754.8331],[84.1968,51.0021,1307.0132],[84.1647,51.0442,914.749],[84.1038,51.0613,819.6991],[84.0402,51.0412,738.381],[83.9918,51.0535,1033.1216],[83.9754,51.1149,976.0182],[84.0204,51.1256,880.6204],[84.0912,51.1468,1232.0847],[84.1396,51.1127,1432.5144],[84.1615,51.1837,1776.3499],[84.1748,51.2393,1802.4783],[84.1939,51.2694,1731.0839],[84.2777,51.2707,1919.8589],[84.3836,51.28,1441.308],[84.4468,51.2912,1388.8442],[84.4986,51.3232,1175.1849],[84.4676,51.3515,1541.1274],[84.4408,51.3691,1169.3528],[84.3037,51.3985,956.5321],[84.2261,51.4038,1063.9578],[84.1864,51.4232,1008.7026],[84.1388,51.4761,951.6542],[84.0855,51.5206,1058.0841],[84.0822,51.5323,1090.5149],[84.1772,51.555,925.4481],[84.1524,51.586,666.8439],[84.1226,51.5956,773.1238],[84.0738,51.5817,496.6353],[84.0345,51.5777,693.4399],[84.0066,51.5866,780.041],[83.959,51.6601,473.4457],[83.9194,51.7254,675.0688],[83.8574,51.685,526.785],[83.8034,51.6655,611.3712],[83.7645,51.6999,642.6343],[83.6387,51.8026,624.3587],[83.5916,51.8094,555.6132],[83.5606,51.8,443.7953],[83.4988,51.7631,411.9346],[83.4397,51.7379,393.2638],[83.3959,51.7442,381.7876],[83.3488,51.7547,450.1118],[83.3114,51.7497,407.9904],[83.3006,51.7292,396.3434],[83.2878,51.7272,405.3979],[83.3061,51.699,407.4436],[83.3088,51.6543,479.5419],[83.3152,51.6186,546.7001],[83.3074,51.5845,593.5797],[83.2681,51.5632,514.4305],[83.2075,51.546,493.4098],[83.2285,51.5013,494.6922],[83.2782,51.4707,426.6899],[83.3113,51.4534,434.0482],[83.3419,51.4422,384.5587],[83.3473,51.4158,456.5819],[83.2342,51.4053,655.0659],[83.2104,51.3977,549.7962],[83.1913,51.3758,455.2602],[83.1839,51.3237,710.8268],[83.1682,51.2769,673.5999],[83.1582,51.2207,784.591],[83.1363,51.1747,709.1929],[83.1328,51.1346,551.7271],[83.1469,51.1057,590.0989],[83.1696,51.0877,866.5494],[83.1799,51.0743,1005.3665],[83.1665,51.0674,1354.6227],[83.1212,51.0752,1017.9451],[83.0782,51.088,1565.7122],[83.0405,51.0922,961.5102],[83.02,51.0879,1122.7595],[82.9916,51.0946,1343.347],[83.0215,51.0401,1687.7731],[83.0806,51.0073,1378.3192],[83.0849,51.0063,1406.0736],[83.0864,51.0086,1467.2532],[83.0843,51.0218,1406.1698],[83.0798,51.0327,1567.2585],[83.0837,51.0362,1394.1254],[83.0929,51.0375,1228.5417],[83.1197,51.0354,1491.4674],[83.1311,51.0275,1353.3174],[83.1496,51.0241,1303.7959],[83.1638,51.003,1148.7985],[83.1696,50.9994,1274.9353],[83.1785,51.0013,1449.6061],[83.1841,50.9929,1300.235],[83.19,50.9892,1405.3549],[83.1958,50.9897,1453.6899],[83.2072,50.9948,1636.8749],[83.2205,51.0065,1644.5139],[83.235,51.0108,1322.4159],[83.2567,51.0102,1617.2928],[83.2803,51.014,1791.9062],[83.2934,51.0144,1668.821],[83.3323,51.0075,1587.1523],[83.3582,51.0055,1516.3728],[83.3821,51.0012,1533.2264],[83.4054,51.0141,1587.3645],[83.4101,51.0149,1546.8351],[83.3898,50.9973,1299.8376],[83.3899,50.9904,1132.292],[83.3972,50.986,1176.1736],[83.4703,50.9659,1818.4033],[83.4917,50.9654,1768.4178],[83.5061,50.9689,1669.4921],[83.5608,50.9609,1943.566],[83.6186,50.9438,1962.0852],[83.6581,50.9249,1831.8389],[83.6849,50.9066,1896.6587],[83.6891,50.9051,2030.1211],[83.7025,50.9023,1985.1116],[83.7642,50.8999,1773.2668],[83.7921,50.8933,1703.8906],[83.8119,50.8849,1934.1034],[83.944,50.7902,1641.4281],[83.9522,50.7644,1999.6238],[83.9597,50.7286,1918.851],[83.97,50.717,1842.134],[84.0134,50.6902,1781.8292],[84.0349,50.6721,2188.4985],[84.0488,50.6506,1747.5493]]]]}}