{"type":"Feature","properties":{"GID_2":"RUS.2.5_1","GID_0":"RUS","country":"Russia","GID_1":"RUS.2_1","province":"Altay","NL_NAME_1":"Алтайскийкрай","county":"Barnaulgorsovet","VARNAME_2":"NA","NL_NAME_2":"Барнаул(горсовет)","TYPE_2":"Gorsovet","ENGTYPE_2":"District","CC_2":"R53095","HASC_2":"RU.AL.BA","name":"Barnaulgorsovet.county"},
"geometry":{"type": "MultiPolygon","coordinates": [[[[83.7984,53.0811,133.9318],[83.8464,53.1133,151.3552],[83.8751,53.1389,167.0801],[83.8806,53.1789,138.7294],[83.8529,53.2494,134.7232],[83.8614,53.2972,133.6346],[83.8295,53.3624,133.3891],[83.7946,53.4002,128.5],[83.7783,53.4128,131.2072],[83.7118,53.4236,128.0],[83.7018,53.4473,136.0624],[83.6773,53.4605,132.3876],[83.6416,53.4544,132.1071],[83.5751,53.4167,180.3294],[83.5336,53.4134,160.5362],[83.503,53.4219,197.1611],[83.482,53.4487,132.3911],[83.3804,53.4298,131.4644],[83.4088,53.4266,137.078],[83.4508,53.4104,228.4989],[83.4463,53.3911,195.9896],[83.3822,53.3704,217.9623],[83.4577,53.3462,258.7412],[83.4976,53.3269,245.368],[83.5419,53.2933,197.9442],[83.6431,53.2336,229.3662],[83.7255,53.1804,135.7586],[83.7643,53.1479,136.4457],[83.7841,53.1117,136.8059],[83.7984,53.0811,133.9318]]]]}}