{"type":"Feature","properties":{"GID_2":"RUS.9.23_1","GID_0":"RUS","country":"Russia","GID_1":"RUS.9_1","province":"Buryat","NL_NAME_1":"РеспубликаБурятия","county":"Yeravninskiyrayon","VARNAME_2":"NA","NL_NAME_2":"Еравнинскийрайон","TYPE_2":"Raion","ENGTYPE_2":"District","CC_2":"R60000","HASC_2":"RU.BU.YE","name":"Yeravninskiyrayon.county"},
"geometry":{"type": "MultiPolygon","coordinates": [[[[110.7076,53.0616,1494.9882],[110.7421,53.0192,1248.6615],[110.7348,52.9698,1300.6334],[110.6968,52.917,1129.6077],[110.6646,52.8859,1253.7173],[110.6555,52.8246,1107.4058],[110.7452,52.7598,1211.2972],[110.7467,52.7383,1077.9828],[110.6766,52.7239,1097.2083],[110.6582,52.6849,1057.5706],[110.6656,52.6217,1299.1556],[110.6383,52.6012,1160.0474],[110.5918,52.5993,1104.6445],[110.5339,52.5772,1154.4197],[110.5105,52.4928,1067.3848],[110.5124,52.4039,812.9004],[110.5544,52.3192,761.5388],[110.5399,52.2982,770.8542],[110.4784,52.2951,774.1828],[110.4394,52.2512,912.6077],[110.3816,52.2458,962.545],[110.3152,52.1558,963.1855],[110.2872,52.0722,868.4277],[110.3178,52.008,992.3062],[110.3541,51.9686,1125.2743],[110.405,52.0021,943.2164],[110.4673,52.0212,947.3922],[110.59,52.0115,866.7846],[110.6574,52.0206,802.8093],[110.7968,52.073,937.7874],[110.8953,52.1229,905.0444],[110.9611,52.162,989.6031],[111.0107,52.1548,1087.552],[111.0298,52.1002,1013.875],[111.0933,52.0897,958.5764],[111.1954,52.1399,1085.6096],[111.2627,52.1383,1167.3677],[111.3084,52.107,1127.9895],[111.4482,52.0992,1042.8564],[111.4947,52.1336,1034.3342],[111.5361,52.1253,1041.6958],[111.5446,52.1027,1118.2642],[111.618,52.0955,1145.3258],[111.6563,52.1157,1121.6421],[111.6836,52.0919,1291.3389],[111.7543,52.0896,1079.1549],[111.8395,52.112,1110.5226],[111.9043,52.1781,1198.3848],[111.9631,52.2156,1142.8457],[112.0356,52.2383,1141.8999],[112.057,52.2791,1154.9242],[112.1505,52.2946,1226.7161],[112.1679,52.2767,1180.9092],[112.1929,52.2597,1155.9598],[112.2598,52.2557,1101.2329],[112.3279,52.2299,1204.8441],[112.4075,52.2318,1177.6591],[112.4534,52.2452,1175.2367],[112.481,52.289,1108.8679],[112.5186,52.3334,1158.5703],[112.6018,52.3554,1206.4092],[112.7135,52.3637,1050.3964],[112.8235,52.3495,1143.0579],[112.9256,52.3445,1160.2701],[112.9826,52.3853,1106.3796],[113.0607,52.4271,1107.179],[113.1245,52.4472,1048.4624],[113.2336,52.4606,1039.1248],[113.3706,52.4749,951.1299],[113.4824,52.483,1098.0652],[113.5659,52.4759,1039.6881],[113.6146,52.5006,1035.0168],[113.6523,52.5426,1171.3622],[113.6934,52.5748,1117.1749],[113.774,52.6271,1136.5017],[113.9002,52.648,1150.3347],[114.0285,52.6572,1241.541],[114.0659,52.6775,1293.2495],[114.1179,52.7269,1323.0946],[114.234,52.822,1250.6899],[114.2497,52.9268,1323.4814],[114.2814,52.9291,1159.2197],[114.2921,52.9398,1151.5999],[114.3014,53.0436,1259.2072],[114.325,53.0657,1218.479],[114.2624,53.0778,1202.1953],[114.1681,53.0811,1190.7837],[114.1307,53.1066,1123.47],[114.1957,53.1457,1131.946],[114.1763,53.2072,1228.756],[114.1023,53.202,1106.3003],[114.0468,53.2308,1110.1215],[114.0114,53.2626,1033.1898],[113.944,53.276,1140.4484],[113.9433,53.3545,1202.2561],[113.9069,53.3714,1096.1736],[113.846,53.411,1142.046],[113.8473,53.45,1149.8406],[113.8364,53.497,1094.5571],[113.86,53.5229,1030.7749],[113.8555,53.572,988.2695],[113.8445,53.6153,872.408],[113.8868,53.6388,832.9484],[113.9834,53.7136,830.6442],[113.9377,53.7358,974.6949],[113.8991,53.7569,979.095],[113.8559,53.775,1065.9801],[113.7859,53.7764,1255.2764],[113.7078,53.7713,1010.9167],[113.6213,53.7427,1230.1178],[113.5643,53.736,1245.104],[113.5364,53.7313,1243.1548],[113.4544,53.6977,1285.6897],[113.4377,53.657,1214.5291],[113.4183,53.6184,1070.0231],[113.3794,53.5981,999.1132],[113.3335,53.6084,1147.2039],[113.2859,53.6384,1148.0972],[113.2719,53.6837,1201.6476],[113.2412,53.7042,1011.9087],[113.201,53.6858,1055.9745],[113.1718,53.6457,1155.5181],[113.1222,53.5857,994.6064],[113.072,53.5778,1008.8902],[113.0109,53.5879,1126.8479],[112.9927,53.6179,1193.7859],[112.9869,53.6418,1123.0348],[112.9527,53.6728,1158.0361],[112.8966,53.7119,1167.7715],[112.893,53.7385,1129.5927],[112.8932,53.7538,1164.541],[112.8962,53.7714,1108.6414],[112.8534,53.7928,1203.7288],[112.8183,53.7896,1156.2668],[112.7986,53.7822,1204.2068],[112.763,53.7618,1253.002],[112.7119,53.6955,1277.152],[112.6598,53.6662,1282.9966],[112.5512,53.6342,1224.4906],[112.425,53.5912,1173.7566],[112.2928,53.5563,1244.9742],[112.1964,53.48,1369.2449],[112.1474,53.4351,1458.5558],[112.1041,53.425,1408.8444],[112.0191,53.4214,1199.7363],[111.8967,53.3849,1237.9739],[111.8112,53.3127,1249.942],[111.778,53.3052,1263.1007],[111.7512,53.3294,1291.475],[111.6837,53.3287,1334.7014],[111.6544,53.3055,1114.8268],[111.6595,53.2707,1254.0173],[111.628,53.2434,1155.6108],[111.55029999999999,53.2499,1335.2035],[111.458,53.2236,1231.5215],[111.4194,53.2499,1284.5771],[111.3493,53.2545,1116.0386],[111.2942,53.2358,1244.8469],[111.2492,53.2029,1351.4103],[111.1523,53.2064,1349.9362],[111.0735,53.171,1297.8824],[110.7076,53.0616,1494.9882]]]]}}