{"type":"Feature","properties":{"GID_3":"RUS.28.10.1_1","GID_0":"RUS","country":"Russia","GID_1":"RUS.28_1","province":"Khabarovsk","NL_NAME_1":"Хабаровскийкрай","GID_2":"RUS.28.10_1","county":"Komsomol'skiyrayon","NL_NAME_2":"Комсомольскийрайон","city":"NA","VARNAME_3":"NA","NL_NAME_3":"NA","TYPE_3":"NA","ENGTYPE_3":"NA","CC_3":"NA","HASC_3":"NA","name":"N_A.city"},
"geometry":{"type": "MultiPolygon","coordinates": [[[[137.4767,49.9183,70.6446],[137.4784,49.878,116.564],[137.4597,49.8209,174.6169],[137.4451,49.7632,227.4548],[137.4709,49.6965,293.8728],[137.5642,49.5586,360.3945],[137.5993,49.6015,379.6007],[137.5969,49.6567,550.6931],[137.6674,49.7124,451.0362],[137.7138,49.6923,416.6915],[137.7233,49.6571,460.0461],[137.7943,49.6645,354.9502],[137.8509,49.6997,579.9784],[137.9022,49.7005,664.4039],[137.9519,49.68,477.311],[138.0091,49.7128,1001.9064],[138.0784,49.7113,961.6523],[138.1194,49.6544,497.9469],[138.2027,49.6364,814.0974],[138.0805,49.5566,568.0807],[138.127,49.5089,916.3947],[138.1148,49.467,950.2185],[138.205,49.4397,1086.1219],[138.2792,49.4483,1135.0802],[138.3465,49.4106,1223.7324],[138.4733,49.4043,1058.0703],[138.5993,49.4252,933.0725],[138.6683,49.4762,912.1622],[138.6198,49.4728,1247.6952],[138.5266,49.5033,840.4614],[138.4632,49.5487,727.3553],[138.4991,49.5883,1013.7873],[138.4892,49.6201,811.8811],[138.452,49.6906,641.3632],[138.4678,49.7479,705.8148],[138.5126,49.7627,592.46],[138.59,49.834,846.7372],[138.6453,49.8523,1134.6519],[138.6366,49.7919,782.4836],[138.6696,49.7454,836.6756],[138.7462,49.7238,722.016],[138.9197,49.7092,510.8217],[139.0571,49.7262,612.2604],[139.1404,49.7811,691.4263],[139.1926,49.7166,909.3124],[139.2264,49.6692,1182.5117],[139.1909,49.6202,838.8308],[139.2511,49.5655,507.3894],[139.4486,49.7162,874.0168],[139.4032,49.7575,765.5109],[139.4013,49.7988,888.3273],[139.4684,49.8276,745.4769],[139.4809,49.8479,566.2792],[139.4246,49.8705,797.8971],[139.4066,49.8975,781.2893],[139.4243,49.9473,822.328],[139.3758,49.9657,943.1611],[139.2793,49.8807,673.7755],[138.8349,50.1106,733.9684],[138.8393,50.1867,478.6999],[138.7816,50.3637,842.3076],[138.7032,50.3952,603.5016],[138.8793,50.4405,879.287],[139.009,50.5006,1178.6567],[138.9949,50.5289,760.2371],[138.9113,50.5495,585.0309],[138.8691,50.5691,682.108],[138.8141,50.571,469.122],[138.7393,50.5783,483.6032],[138.7426,50.6107,586.1444],[138.7538,50.6465,1093.4739],[138.6497,50.6544,715.6038],[138.5944,50.6683,605.017],[138.5925,50.72,530.9365],[138.6855,50.7719,866.0809],[138.7498,50.8555,828.7162],[138.8362,50.9098,773.0864],[138.9583,50.9373,838.3525],[139.0364,50.9318,947.4419],[139.0904,50.9673,1106.959],[139.1277,50.957,887.6137],[139.1585,50.933,888.8459],[139.2079,50.9996,1229.8386],[139.2782,51.0396,875.1975],[139.2763,51.0687,807.1838],[139.3334,51.0963,1184.3564],[139.2997,51.1216,623.7959],[139.2453,51.1583,347.9468],[139.1759,51.1735,378.5135],[139.099,51.229,124.3756],[139.1048,51.277,89.3993],[138.9459,51.4173,133.5367],[138.8848,51.4106,252.1978],[138.7737,51.3611,280.1706],[138.7044,51.3401,354.0281],[138.5991,51.2784,123.7119],[138.4938,51.2354,306.3978],[138.4235,51.2508,115.348],[138.2699,51.2951,276.119],[138.2522,51.3304,239.5366],[138.2276,51.3355,355.2376],[138.1726,51.3339,794.2543],[138.0699,51.3386,512.7964],[137.9322,51.361,775.2137],[137.8558,51.4023,930.7264],[137.7419,51.4154,387.92],[137.649,51.4378,311.3075],[137.5171,51.4161,403.7909],[137.5139,51.3369,271.95],[137.4994,51.3076,360.0756],[137.5075,51.2427,186.4498],[137.4454,51.1915,76.0458],[137.3843,51.1249,35.2097],[137.363,51.0432,114.7307],[137.31,51.0083,392.4961],[137.226,51.0018,81.6795],[137.1991,50.9966,66.1264],[137.1789,50.9666,69.7889],[137.2295,50.8528,309.6178],[137.2237,50.8225,228.9356],[137.0891,50.7074,101.9119],[136.9625,50.6577,107.4409],[136.806,50.6217,224.1067],[136.6132,50.5589,463.8882],[136.5155,50.579,446.0086],[136.399,50.6082,618.7022],[136.2555,50.5977,906.7936],[136.2203,50.5665,1170.0967],[136.1935,50.5372,718.5739],[136.2897,50.4755,507.9201],[136.3767,50.387,427.5761],[136.4379,50.3426,254.3549],[136.5088,50.3287,388.7969],[136.6655,50.3344,101.2762],[136.7875,50.3096,71.0303],[136.8306,50.3041,41.9886],[136.9174,50.2981,90.3516],[136.973,50.2699,18.2805],[136.9935,50.2264,18.6368],[136.9601,50.1229,25.115],[137.0645,50.1451,35.5667],[137.1658,50.1006,60.1631],[137.0381,50.0535,31.3209],[137.037,50.0238,41.1193],[137.1645,50.0125,41.7449],[137.3208,49.9759,51.351],[137.4082,49.9627,105.8925],[137.4767,49.9183,70.6446]],
[[137.0645,50.5612,23.0764],[137.0165,50.5555,37.1729],[136.9899,50.565,38.4609],[136.9733,50.6153,66.3941],[137.0281,50.6294,169.5355],[137.0558,50.6237,36.034],[137.0852,50.5827,24.9199],[137.0645,50.5612,23.0764]]]]}}