{"type":"Feature","properties":{"GID_2":"RUS.56.21_1","GID_0":"RUS","country":"Russia","GID_1":"RUS.56_1","province":"Primor'ye","NL_NAME_1":"Приморскийкрай","county":"Nakhodkagorsovet","VARNAME_2":"Nakhodka","NL_NAME_2":"Находка(горсовет)","TYPE_2":"Gorsovet","ENGTYPE_2":"District","CC_2":"R66003","HASC_2":"RU.PR.NK","name":"Nakhodkagorsovet.county"},
"geometry":{"type": "MultiPolygon","coordinates": [[[[133.006,42.8426,0.2162],[133.0107,42.8396,0.5],[133.009,42.8378,25.473],[133.0305,42.8227,114.169],[133.0282,42.8035,78.686],[133.0895,42.7866,101.6472],[133.0936,42.8083,93.3692],[133.0656,42.8438,349.6703],[133.0099,42.8588,0.8053],[133.0107,42.8513,0.0],[133.006,42.8426,0.2162]]],
[[[132.9882,42.8354,1.8219],[132.9849,42.8354,0.7272],[132.986,42.8318,0.0],[132.9876,42.8321,0.7675],[132.9882,42.8354,1.8219]]],
[[[132.9132,42.7654,16.1776],[132.9004,42.7601,51.7356],[132.8999,42.7538,0.0],[132.9054,42.7576,15.0979],[132.911,42.7582,0.0],[132.9113,42.7604,0.0],[132.9146,42.7624,8.7202],[132.9132,42.7654,16.1776]]],
[[[133.0082,42.8568,0.0],[133.0079,42.8591,0.0],[132.9544,42.8676,122.3881],[132.8706,42.8538,76.5993],[132.8043,42.8119,50.9301],[132.8007,42.8127,0.0],[132.8001,42.8099,0.0],[132.8071,42.8037,0.0],[132.8054,42.7993,0.0],[132.8068,42.7982,0.0],[132.806,42.7924,12.0618],[132.8112,42.7929,0.0],[132.811,42.791,0.0],[132.8065,42.7896,5.9204],[132.8079,42.7879,0.0],[132.8071,42.7849,0.0],[132.8093,42.7851,0.0],[132.8132,42.781,1.4517],[132.8212,42.7779,5.9577],[132.8212,42.7754,10.8281],[132.8182,42.7743,5.0413],[132.8112,42.7796,3.4491],[132.8043,42.7779,12.8195],[132.8024,42.7729,0.0],[132.804,42.7707,43.4891],[132.8026,42.7676,0.0],[132.8062,42.7613,16.6389],[132.806,42.759,6.4038],[132.8096,42.7576,0.0],[132.8104,42.7554,0.0],[132.8118,42.7593,25.8947],[132.816,42.7574,7.1538],[132.8174,42.7604,3.7284],[132.8218,42.7613,3.371],[132.8246,42.7588,51.7001],[132.8254,42.754,1.8937],[132.8221,42.754,0.0],[132.8201,42.7499,0.0],[132.8246,42.7487,0.0],[132.8293,42.7501,0.0],[132.8346,42.7485,9.9832],[132.8362,42.7454,0.0],[132.8343,42.739,0.0],[132.8387,42.7396,0.0],[132.8401,42.7432,0.0],[132.844,42.7424,21.2921],[132.849,42.7499,12.2693],[132.8526,42.744,6.8172],[132.8513,42.7404,3.1147],[132.8537,42.7376,4.0741],[132.8496,42.736,4.3975],[132.8479,42.7332,0.0],[132.8543,42.7351,0.0],[132.8604,42.7335,0.0],[132.8646,42.7376,35.2506],[132.8726,42.7382,0.0],[132.8726,42.7404,14.778],[132.8687,42.7421,0.3152],[132.8685,42.744,1.1034],[132.8704,42.7463,6.221],[132.8757,42.7474,0.0],[132.8718,42.7546,2.1447],[132.8757,42.7535,0.0],[132.8757,42.7568,0.0],[132.8801,42.756,0.0],[132.8785,42.761,0.0],[132.8768,42.761,3.9735],[132.8763,42.7626,2.317],[132.8793,42.764,28.1225],[132.8865,42.7579,0.0],[132.8893,42.7588,2.4],[132.8879,42.7624,31.8361],[132.8943,42.7615,0.0],[132.8926,42.7649,0.0],[132.8946,42.7663,0.0],[132.8924,42.7674,0.0],[132.8915,42.7704,0.5049],[132.8893,42.7707,0.0],[132.8929,42.7726,0.0],[132.8876,42.7732,3.83],[132.8876,42.7768,10.5013],[132.8949,42.7779,0.0],[132.904,42.7826,0.0],[132.9035,42.7871,22.3944],[132.9121,42.7871,0.0],[132.9107,42.7885,0.0],[132.911,42.7915,0.0],[132.9085,42.7915,42.8491],[132.9076,42.7946,20.8073],[132.9121,42.799,0.0],[132.9113,42.8032,0.0],[132.9135,42.8057,0.0],[132.911,42.8051,4.3895],[132.9104,42.8082,0.0],[132.9049,42.8088,0.7992],[132.9012,42.8035,2.3445],[132.8957,42.8001,2.3977],[132.8913,42.8001,0.0],[132.8871,42.7951,0.7663],[132.8849,42.7957,0.0],[132.8851,42.7938,0.0],[132.8807,42.7901,2.8045],[132.8796,42.7935,0.0],[132.8746,42.789,1.6974],[132.8707,42.7885,0.0],[132.8712,42.7851,3.6995],[132.8646,42.7857,0.6993],[132.8849,42.7988,0.0],[132.8813,42.8007,1.1694],[132.8837,42.801,0.0],[132.8837,42.8043,0.0],[132.8893,42.8082,0.0],[132.894,42.8171,0.0],[132.8938,42.821,1.874],[132.9026,42.8235,0.0],[132.9026,42.8257,0.0],[132.8993,42.8276,2.003],[132.899,42.8296,2.3867],[132.9046,42.8329,0.762],[132.9154,42.8343,2.3431],[132.9226,42.8382,2.3513],[132.9401,42.8401,1.1966],[132.9618,42.8399,1.4947],[132.9799,42.8346,0.4897],[132.9815,42.8354,0.0],[132.9818,42.8393,0.2105],[132.9885,42.8471,2.2512],[132.9896,42.8457,0.4462],[132.9865,42.8418,0.0],[132.986,42.8371,0.4163],[132.9915,42.8374,0.6582],[132.9951,42.8421,0.26],[132.9965,42.8418,0.0],[132.9971,42.8385,0.0],[133.004,42.8429,0.0],[133.0068,42.8474,0.0],[133.0087,42.8515,0.0],[133.0082,42.8568,0.0]]],
[[[132.5552,42.9011,184.7946],[132.5336,42.8787,48.8275],[132.5596,42.8546,0.0],[132.5599,42.8585,0.0],[132.5632,42.861,0.0],[132.569,42.8604,0.0],[132.5676,42.8571,14.0395],[132.5679,42.8526,0.0],[132.5701,42.8524,1.4505],[132.5693,42.8476,8.7645],[132.5635,42.8468,0.0],[132.5635,42.8454,0.0],[132.5657,42.8454,0.0],[132.5688,42.8424,1.7673],[132.5682,42.8382,0.0],[132.5707,42.8374,3.4509],[132.5718,42.8396,1.4183],[132.5737,42.8399,3.3459],[132.5757,42.8371,0.0],[132.5754,42.8385,0.0],[132.5776,42.8385,0.0],[132.5804,42.8435,0.0],[132.5868,42.8387,0.0],[132.5912,42.8399,0.0],[132.5926,42.841,5.5401],[132.5915,42.8457,12.3327],[132.5954,42.8485,9.6162],[132.6021,42.8413,11.7512],[132.6007,42.8387,0.0],[132.6074,42.8376,0.0],[132.6076,42.8399,10.472],[132.6043,42.8429,0.0],[132.6043,42.8457,0.0],[132.6013,42.8465,22.1186],[132.6026,42.8513,0.4999],[132.6074,42.8543,2.8599],[132.6079,42.8571,4.5754],[132.6196,42.8607,8.7883],[132.6346,42.861,18.5136],[132.6432,42.8574,1.705],[132.6485,42.8607,1.1018],[132.6621,42.861,0.9192],[132.6724,42.8579,12.5577],[132.6724,42.8554,0.0],[132.689,42.8546,0.6987],[132.6918,42.8526,5.5679],[132.6913,42.8496,2.0047],[132.6943,42.849,3.7181],[132.6949,42.8543,6.6769],[132.7012,42.8551,0.0],[132.7024,42.8579,4.3619],[132.7046,42.8582,0.0],[132.7004,42.8599,2.1099],[132.7012,42.8643,0.0],[132.6888,42.8671,0.2911],[132.6893,42.8693,0.0],[132.686,42.8704,1.8923],[132.684,42.8704,0.0],[132.6824,42.8674,0.779],[132.6804,42.8688,2.6814],[132.6835,42.8724,2.8201],[132.6868,42.8721,0.7388],[132.6893,42.8737,0.0],[132.6929,42.8721,25.5715],[132.6979,42.8735,0.0],[132.7021,42.8715,0.0],[132.7024,42.8726,15.3678],[132.7068,42.8721,23.589],[132.7068,42.874,19.7997],[132.7124,42.8729,0.0],[132.719,42.8749,0.0],[132.7188,42.8765,3.9102],[132.7149,42.8765,11.5104],[132.7135,42.8779,0.5196],[132.7143,42.8801,8.8221],[132.7085,42.8851,6.7747],[132.7107,42.8885,0.0],[132.7149,42.8879,0.0],[132.7165,42.886,0.0],[132.7213,42.8879,1.7956],[132.7238,42.8854,0.0],[132.7257,42.8857,0.0],[132.7265,42.8879,2.2969],[132.7293,42.8879,2.4111],[132.7312,42.8846,0.0],[132.7346,42.8843,0.0],[132.7357,42.8863,0.0],[132.7349,42.8932,0.0],[132.7274,42.8918,2.7663],[132.7226,42.8988,0.0],[132.7165,42.9018,81.4069],[132.7165,42.9049,25.4846],[132.7188,42.9054,0.076],[132.7199,42.9021,0.5468],[132.7243,42.9015,0.4837],[132.7226,42.9049,0.7329],[132.7232,42.9079,1.0335],[132.7276,42.9063,0.0],[132.7365,42.911,2.3189],[132.7524,42.9101,7.1372],[132.7565,42.9057,0.0],[132.7585,42.9096,0.623],[132.7615,42.9104,0.7168],[132.7654,42.9104,1.4001],[132.7693,42.9079,1.0207],[132.7796,42.9079,0.9933],[132.7796,42.9043,0.0],[132.7815,42.9021,1.5913],[132.7779,42.9007,0.5896],[132.7757,42.9021,0.0],[132.7754,42.901,0.0],[132.7832,42.8951,13.4709],[132.7832,42.8874,19.0088],[132.7849,42.8839,32.2073],[132.7891,42.8857,82.5343],[132.8058,42.8855,27.8513],[132.8116,42.8663,63.9701],[132.8342,42.8829,163.0013],[132.8609,42.9117,93.0469],[132.8623,42.9398,55.4854],[132.8364,42.951,21.1452],[132.788,42.9466,118.9759],[132.7657,42.9701,144.1348],[132.7196,42.969,144.3945],[132.6866,42.9468,65.4264],[132.6505,42.9342,31.392],[132.5979,42.9642,127.6224],[132.573,42.9186,155.5997],[132.5552,42.9011,184.7946]]]]}}