{"type":"Feature","properties":{"GID_3":"RUS.9.21.1_1","GID_0":"RUS","country":"Russia","GID_1":"RUS.9_1","province":"Buryat","NL_NAME_1":"РеспубликаБурятия","GID_2":"RUS.9.21_1","county":"Ulan-Ude","NL_NAME_2":"Улан-Удэ","city":"NA","VARNAME_3":"NA","NL_NAME_3":"NA","TYPE_3":"NA","ENGTYPE_3":"NA","CC_3":"NA","HASC_3":"NA","name":"N_A.city"},
"geometry":{"type": "MultiPolygon","coordinates": [[[[107.5591,51.8932,651.7409],[107.482,51.8705,509.8058],[107.3191,51.8855,1030.1705],[107.3343,51.7637,515.5282],[107.5282,51.7478,557.7089],[107.6455,51.798,611.5969],[107.5591,51.8932,651.7409]]]]}}