{"type":"Feature","properties":{"featurecla":"Reservoir","scalerank":6,"name":"Vilyuy Reservoir","name_abb":"Vilyuy Res.","name_alt":"Vilyuyskoye Vodokhranilishche","note":null,"delta":null,"dam_name":null,"year":-99,"admin":null,"min_zoom":5.0,"min_label":6.5},
"geometry":{"type": "Polygon","coordinates": [[[111.97302714942896,62.838318360996681,292.3938],[111.98391862213282,62.829781801309849,277.5482],[112.00805648055763,62.830076165436992,242.0],[112.04897309422893,62.835374719725337,242.0],[112.06045329518707,62.830076165436992,286.2654],[112.06663494185682,62.822717062258675,242.0],[112.07193349614522,62.81388613844473,242.0],[112.07929259932348,62.804466486376526,242.0],[112.08459115361188,62.801817209232325,247.076],[112.09930935996846,62.796813019071095,242.0],[112.10343045774829,62.794458106054037,242.0],[112.10519664251109,62.789159551765664,242.0],[112.10696282727389,62.780622992078861,242.0],[112.10666846314678,62.774146981281973,251.2049],[112.10343045774829,62.77385261715483,249.2283],[112.15553290825062,62.753247128255623,242.0],[112.22058738034673,62.757368226035453,242.0],[112.28534748831567,62.7782680790618,258.438],[112.33686121056371,62.8079988559021,325.6369],[112.33980485183503,62.821539605750161,283.4908],[112.38513692741333,62.849504197827656,307.7471],[112.37041872105675,62.85568584449743,294.4522],[112.37041872105675,62.863339311802861,265.6031],[112.41810570965208,62.870992779108292,303.1765],[112.43194082362726,62.876880061650922,308.8486],[112.40898042171096,62.878940610540837,329.257],[112.38189892201484,62.886299713719126,327.0397],[112.35982161248,62.898074278804387,309.2456],[112.35069632453889,62.914558669923764,333.3691],[112.35157941692029,62.949882365179576,340.6854],[112.36129343311563,63.011404467750083,327.4097],[112.36776944391255,63.0255339458524,300.0554],[112.38248765026913,63.031715592522175,242.0],[112.41133533472805,63.033187413157833,365.2575],[112.46638142650164,63.021118483945429,344.4012],[112.49611220334197,63.019646663309771,309.7713],[112.51436277922414,63.033187413157833,284.4691],[112.50700367604583,63.052321081421383,313.084],[112.47756726333267,63.063506918252386,319.1296],[112.4434210245854,63.071160385557818,301.438],[112.42163807917763,63.078519488736106,302.205],[112.39956076964279,63.093826423346968,299.2556],[112.37365672645518,63.103246075415171,291.7659],[112.34686959088617,63.104717896050829,303.2237],[112.32243736833425,63.095886972236883,326.8262],[112.30006569467224,63.075281483337648,330.5045],[112.28740803720558,63.06880547254076,301.5675],[112.28152075466295,63.078519488736106,308.5191],[112.28770240133275,63.111782635101974,295.2915],[112.28505312418855,63.11649246113609,322.0115],[112.24708015178857,63.115315004627575,304.3156],[112.22853521177927,63.117081189390348,309.7887],[112.21263954891418,63.123262836060121,338.6031],[112.20528044573587,63.129444482729895,333.2598],[112.20057061970175,63.135331765272525,303.6678],[112.18173131556534,63.174482194181024,242.0],[112.1729003917514,63.186256759266286,316.6724],[112.15200053872502,63.195382047207374,278.2735],[112.15494417999633,63.204507335148463,267.164],[112.16142019079325,63.214810079598067,305.8876],[112.16200891904748,63.222757911030641,328.7353],[112.13993160951264,63.2354155684973,330.9786],[112.11697120759635,63.24100848691279,300.6351],[112.09813190345994,63.250722503108136,321.8876],[112.089300979646,63.274860361532944,308.8461],[112.09401080568011,63.298409491703467,273.3766],[112.1090233761638,63.312833333932929,318.256],[112.12874577268161,63.324019170763933,336.5494],[112.14787944094519,63.338737377120509,242.0],[112.15288363110642,63.3563992247484,395.364],[112.13522178347853,63.366996333325147,329.0689],[112.1090233761638,63.376121621266236,314.9717],[112.089300979646,63.390251099368555,262.7779],[112.10195863711266,63.402320028580959,268.4583],[112.18114258731106,63.424102973988681,257.4181],[112.194388973032,63.420276240335966,261.011],[112.2067522663715,63.414388957793335,265.9165],[112.21999865209244,63.41144531652202,270.4654],[112.23030139654207,63.413505865411935,259.7234],[112.24972942893277,63.422336789225909,260.7875],[112.26120962989086,63.424397338115824,259.2357],[112.26120962989086,63.431167713039855,284.7021],[112.11697120759635,63.431167713039855,281.1052],[112.07193349614522,63.443531006379374,292.8182],[112.06251384407699,63.438526816218143,299.6736],[112.0645743929669,63.4296958924042,309.64],[112.07487713741654,63.421453696844509,263.6588],[112.09666008282426,63.41144531652202,268.1546],[112.06251384407699,63.390251099368555,282.8848],[112.07546586567082,63.375827257139093,309.1893],[112.05250546375453,63.369056882215062,337.8955],[112.03660980088944,63.373177979994921,341.6696],[112.0227746869142,63.382303267935981,302.6788],[112.0074677523034,63.390251099368555,292.8758],[111.99569318721814,63.391722920004213,282.871],[111.97067223641193,63.389662371114269,275.2899],[111.95889767132667,63.390251099368555,270.1856],[111.93034435099486,63.402320028580959,272.3571],[111.9185697859096,63.403791849216617,273.603],[111.8838348189081,63.390251099368555,272.2196],[111.86499551477164,63.385541273334439,280.0835],[111.8429182052368,63.383480724444524,287.6158],[111.77138772234377,63.388190550478612,276.8322],[111.74724986391897,63.383480724444524,280.0735],[111.74724986391897,63.375827257139093,267.788],[111.79699740140421,63.36640760507089,269.3264],[111.84968858016083,63.362875235545289,280.2992],[111.87117716144144,63.365818876816604,266.8892],[111.90561776431582,63.379065262537551,269.3849],[111.9247514325794,63.383480724444524,268.6032],[111.94977238338555,63.380537083173209,263.6638],[111.99245518181965,63.361403414909631,282.9245],[112.01423812722743,63.356693588875544,258.3554],[112.08871225139171,63.356104860621286,305.0129],[112.11049519679949,63.349334485697256,259.3972],[112.08782915901031,63.319014980602674,393.6852],[112.0636913005855,63.294288393923608,323.1101],[112.05456601264444,63.267795622481771,345.0692],[112.07546586567082,63.232471927225959,325.6252],[112.14552452792816,63.170655460528309,284.679],[112.14464143554676,63.161235808460106,289.2879],[112.14670198443667,63.152993612900417,258.8844],[112.15288363110642,63.147400694484929,261.9075],[112.16200891904748,63.144162689086471,242.0],[112.17231166349711,63.143279596705071,301.1625],[112.16613001682737,63.130916303365552,358.5045],[112.1667187450816,63.119141738280291,281.3727],[112.17319475587851,63.109427722084945,327.1007],[112.18526368509089,63.102362983033771,319.3098],[112.0857686101204,63.063801282379529,354.8349],[112.05515474089873,63.047611255387295,291.2053],[112.07782077868785,63.042901429353179,319.0956],[112.111672653308,63.032598684903576,253.583],[112.13845978887696,63.018469206801257,242.0],[112.14110906602116,63.003162272190394,275.5605],[112.12904013680878,62.9846173321811,256.7956],[112.13757669649556,62.975492044240013,242.0],[112.15671036475914,62.968132941061725,242.0],[112.17554966889554,62.955180919467949,242.0],[112.17643276127694,62.922506501356338,301.2556],[112.0654574853483,62.912498121033849,242.0],[112.06251384407699,62.876880061650922,242.0],[112.02660142056692,62.869226594345491,262.7647],[111.98009188848016,62.872758963871064,303.2784],[111.93682036179177,62.886888441973383,278.0509],[111.91121068273134,62.911026300398191,265.3598],[111.9203359706724,62.917502311195079,293.5867],[111.92357397607083,62.92515577850051,257.3599],[111.92151342718091,62.9333979740602,268.1759],[111.91474305225688,62.941640169619888,274.6212],[111.89855302526468,62.949588001052433,264.7873],[111.87971372112821,62.949882365179576,277.2469],[111.84262384110963,62.94517253914546,252.9695],[111.81613106966779,62.952531642323748,242.0],[111.79287630362438,62.9855004245625,242.0],[111.76756098869106,62.993448255995048,242.0],[111.76756098869106,62.999924266791965,242.0],[111.78787211346315,63.001396087427622,242.0],[111.82260708046471,63.016408657911313,242.0],[111.85322094968637,63.023179032835344,258.3982],[111.89560938399336,63.037602875064806,327.528],[111.93505417702897,63.059091456345413,304.2101],[111.97008350815764,63.073220934447733,242.0],[111.99039463292974,63.089116597312852,261.7066],[111.97302714942896,63.109722086212059,245.5968],[111.98303552975148,63.109427722084945,260.9548],[111.99127772531114,63.111193906847717,242.0],[112.0074677523034,63.11649246113609,292.2417],[111.99039463292974,63.128267026221351,278.0422],[111.93152180750343,63.130033210984152,298.1222],[111.9185697859096,63.133565580509725,323.8576],[111.91650923701968,63.161824536714363,317.3157],[111.9221021554352,63.174776558308167,242.0],[111.93888091068169,63.191555313554659,254.1231],[111.91150504685845,63.211572074199637,282.2097],[111.73164856518099,63.256315421523624,325.3493],[111.70368397310352,63.273388540897287,254.4496],[111.7131036251717,63.301353132974782,260.2586],[111.68778831023837,63.312244605678643,242.0],[111.67424756039031,63.301353132974782,242.0],[111.66571100070354,63.283985649474005,242.0],[111.65452516387251,63.274860361532944,244.4663],[111.61154800131129,63.271916720261629,242.0],[111.59153124066631,63.273094176770144,257.187],[111.56915956700431,63.281042008202689,242.0],[111.51499656761212,63.310184056788728,255.6989],[111.50704873617957,63.311655877424386,255.6842],[111.5129360187222,63.295465850432151,242.0],[111.52235567079038,63.282219464711233,258.66],[111.52441621968029,63.272799812643,259.4057],[111.50704873617957,63.267206894227513,253.0034],[111.51794020888343,63.258375970413567,242.0],[111.52794858920589,63.257787242159282,242.0],[111.53795696952835,63.258964698667825,242.0],[111.5485540781051,63.25690414977791,242.0],[111.56915956700431,63.239242302149989,242.0],[111.58652705050508,63.234238111988759,242.0],[111.64422241942287,63.232471927225959,260.461],[111.6356858597361,63.221286090394955,242.0],[111.60713253940429,63.216281900233724,254.6408],[111.5956523384462,63.205979155784121,251.9906],[111.60624944702289,63.19832568847869,255.9494],[111.60948745242138,63.186551123393428,265.0726],[111.60536635464155,63.175954014816682,332.3701],[111.59270869717488,63.171244188782595,313.3219],[111.52117821428186,63.171244188782595,251.9761],[111.57122011589422,63.15328797702756,242.0],[111.58211158859814,63.143279596705071,260.3992],[111.58240595272525,63.13327121638261,324.5823],[111.57857921907254,63.119436102407406,293.2438],[111.57239757240279,63.107367173195,340.2393],[111.56533283335159,63.102362983033771,340.3013],[111.49233052982294,63.087644776677195,326.3759],[111.45082518789741,63.087056048422937,312.4436],[111.41609022089585,63.125617749077179,256.9343],[111.37752852024158,63.131799395746953,260.7913],[111.33366826529897,63.129150118602752,259.4537],[111.30158257544161,63.123262836060121,282.7687],[111.27067434209283,63.109427722084945,268.0487],[111.25301249446494,63.106189716686487,271.7348],[111.2212211687347,63.120907923043063,266.844],[111.18678056586026,63.126795205585694,263.2114],[111.17176799537657,63.1370979500353,242.0],[111.18854675062306,63.150638699883359,242.0],[111.20620859825095,63.158880895443048,248.1174],[111.24624211954091,63.171244188782595,255.4415],[111.2221042611161,63.17830892783374,261.21],[111.16970744648665,63.15328797702756,268.5875],[111.14380340329905,63.150638699883359,254.1817],[111.12614155567115,63.165062542112821,242.0],[111.14409776742622,63.203918606894206,264.8655],[111.13026265345098,63.225701552301956,249.6119],[111.16440889219825,63.246895769455421,276.9595],[111.15763851727428,63.248073225963964,280.5483],[111.14468649568045,63.252194323743794,279.2367],[111.13703302837501,63.253077416125194,274.1811],[111.14233158266342,63.265735073591856,242.0],[111.15292869124016,63.273388540897287,242.0],[111.17883273442771,63.281042008202689,255.3829],[111.16558634870682,63.288106747253863,257.6852],[111.16175961505411,63.295171486305009,258.4615],[111.16646944108822,63.302236225356182,293.892],[111.17883273442771,63.308417872025956,322.7712],[111.16558634870682,63.309889692661613,298.2494],[111.13026265345098,63.321369893619732,247.804],[111.13997666964633,63.343741567281739,300.9519],[111.15940470203702,63.363463963799575,284.0711],[111.1829538322076,63.379359626664666,248.6703],[111.20591423412384,63.390251099368555,265.7699],[111.18383692458895,63.389073642860012,288.9407],[111.16646944108822,63.39231164825847,261.9007],[111.15498924013008,63.402320028580959,269.0032],[111.15057377822308,63.421159332717366,305.3308],[111.14350903917193,63.42910716414994,312.3478],[111.12761337630684,63.43322826192977,275.253],[111.11318953407738,63.4408817292352,292.5729],[111.10995152867895,63.45913230511735,259.79],[111.09052349628826,63.45324502257472,247.7565],[111.0940558658138,63.442353549870859,247.0009],[111.10730225153475,63.4296958924042,244.4004],[111.11672190360292,63.418215691446051,242.0],[111.11701626773009,63.409090403504962,242.0],[111.11142334931458,63.385835637461582,286.2873],[111.10995152867895,63.372883615867778,286.1928],[111.09435022994091,63.338737377120509,271.0088],[111.05902653468513,63.328140268543763,320.9493],[111.02164229053943,63.323430442509647,295.1324],[110.99985934513165,63.308417872025956,275.8865],[111.04077595880295,63.304002410118954,298.8271],[111.06079271944793,63.29870385583061,247.2545],[111.07580528993162,63.28781238312672,264.1302],[111.05961526293942,63.289284203762378,293.8435],[111.04666324134558,63.287518018999606,306.6809],[111.04165905118435,63.280747644075575,267.5887],[111.04842942610838,63.267206894227513,254.0217],[111.03312249149758,63.266618165973256,274.4321],[111.02458593181075,63.258964698667825,262.6775],[111.0175211927596,63.248661954218221,264.8391],[111.00692408418286,63.239242302149989,252.8246],[111.02252538292083,63.235709932624417,250.5876],[111.02605775244638,63.227173372937614,242.0],[111.02017046990375,63.218048084996525,266.8923],[111.00692408418286,63.212160802453894,266.8214],[111.01722682863243,63.203918606894206,243.3285],[111.03400558387892,63.196853867843032,242.0],[111.04224777943864,63.188611672283344,255.1174],[111.02782393720918,63.178014563706625,261.2609],[111.04960688261696,63.171244188782595,242.0],[111.06491381722776,63.158586531315933,242.0],[111.08875731152546,63.130033210984152,242.0],[111.10965716455178,63.116198097008976,242.0],[111.15734415314711,63.095886972236883,242.0],[111.17883273442771,63.081757494134564,242.0],[111.15116250647736,63.080874401753164,242.0],[111.12466973503552,63.074987119210533,264.5536],[111.01634373625103,63.031421228395033,251.3356],[111.00339171465725,63.02376776108963,301.3959],[110.97984258448673,63.000807359173336,261.9376],[110.97601585083402,62.989327158215218,290.1021],[110.98308058988516,62.9760807724943,262.0299],[111.01192827434409,62.948999272798176,242.0],[111.02752957308206,62.939579620729972,242.0],[111.04842942610838,62.9316317892974,242.0],[111.03047321435338,62.917796675322222,242.0],[111.01251700259832,62.921623408974938,248.8042],[110.97984258448673,62.94517253914546,296.7155],[110.94275270446815,62.96018510962918,298.9952],[110.93274432414563,62.971076582333041,242.0],[110.94451888923095,62.98608915281676,242.0],[110.92067539493326,62.993742620122191,242.0],[110.80793393424182,62.996391897266363,306.939],[110.77555388025735,63.004928456953195,273.2519],[110.75789203262946,63.018469206801257,242.0],[110.77349333136743,63.037014146810549,262.4957],[110.79144954312244,63.05290980967564,277.3972],[110.80057483106356,63.070277293176417,296.4508],[110.79645373328367,63.078813852863249,307.1693],[110.77408205962166,63.067922380159359,295.4796],[110.77261023898603,63.062035097616729,282.8933],[110.7676060488248,63.050260532531468,293.1237],[110.75700894024806,63.041723972844636,294.5189],[110.73934709262016,63.044078885861694,298.2459],[110.73051616880622,63.051732353167125,300.7143],[110.71462050594107,63.07145474968496,305.1853],[110.7052008538729,63.075575847464791,313.7329],[110.61365361033495,63.042018336971779,255.3681],[110.59569739857989,63.040840880463264,247.5716],[110.59834667572409,63.059091456345413,242.0],[110.62483944716593,63.074104026829133,250.9904],[110.65721950115039,63.084701135405879,279.034],[110.70873322339844,63.092943330965568,313.5547],[110.75818639675657,63.114431912246175,298.8138],[110.7870340812155,63.123262836060121,242.0],[110.82059159170848,63.120907923043063,242.0],[110.87387149871932,63.08970532556711,269.7225],[110.90742900921231,63.081757494134564,279.0792],[110.91773175366194,63.090294053821367,297.9407],[110.89565444412705,63.108838993830659,307.7002],[110.84914491204029,63.1370979500353,250.3059],[110.87004476506661,63.142396504323671,259.243],[110.93863160668826,63.143279596705071,302.3501],[110.926857041603,63.15328797702756,265.8756],[110.92980068287432,63.161235808460106,272.0901],[110.94245834034098,63.165651270367078,278.8577],[110.95894273146035,63.164768177985678,275.0292],[110.95894273146035,63.171244188782595,279.7643],[110.9303894111286,63.176542743070968,328.5599],[110.88829534094879,63.1909665853004,298.2674],[110.88329115078756,63.191555313554659,286.088],[110.87681513999064,63.193321498317459,289.7686],[110.87593204760924,63.197442596097289,268.3038],[110.87534331935495,63.201858058004291,261.4514],[110.87004476506661,63.205979155784121,264.7289],[110.85856456410846,63.207745340546921,273.1298],[110.82559578186971,63.208039704674036,249.2466],[110.81499867329296,63.205979155784121,259.2907],[110.8111719396403,63.198914416732975,269.8377],[110.81264376027593,63.189200400537629,280.0058],[110.81176066789453,63.17919202021514,275.8926],[110.80057483106356,63.171244188782595,251.3709],[110.79763118979224,63.1815469332322,269.1154],[110.7888002659783,63.198914416732975,272.3498],[110.7870340812155,63.208922797055436,267.1363],[110.79027208661392,63.217459356742268,242.0],[110.8049902929705,63.227173372937614,242.0],[110.80822829836899,63.23600429675156,242.0],[110.80351847233487,63.238947938022875,242.0],[110.78526789645269,63.256315421523624,257.2871],[110.78379607581701,63.260436519303482,254.0462],[110.77143278247752,63.258670334540682,279.7784],[110.7667229564434,63.253666144379451,289.8768],[110.7640736792992,63.24601267707402,307.0341],[110.75671457612094,63.23600429675156,306.8314],[110.73110489706045,63.228350829446129,311.153],[110.66869970210854,63.238064845641475,297.8012],[110.65103785448065,63.232471927225959,300.7773],[110.65780822940468,63.218931177377925,292.3039],[110.71491487006824,63.199797509114347,266.5174],[110.73257671769613,63.191555313554659,258.5097],[110.73051616880622,63.175365286562425,268.669],[110.7060839462543,63.171244188782595,275.4982],[110.67811935417677,63.17830892783374,277.6222],[110.66487296845582,63.19508768308026,315.2383],[110.65074349035353,63.205096063402721,294.5196],[110.61836343636901,63.210100253563951,289.4465],[110.56184552395973,63.212160802453894,328.4831],[110.47206446518459,63.186256759266286,298.6765],[110.43909568294583,63.185079302757771,274.6854],[110.45204770453967,63.219519905632183,285.4728],[110.44409987310706,63.22010863388644,274.4655],[110.42467184071637,63.225701552301956,259.9168],[110.4970854159908,63.248073225963964,266.5255],[110.52063454616132,63.260436519303482,275.4885],[110.50150087789774,63.26602943771897,256.1284],[110.45469698168381,63.255137965015109,242.0],[110.4314422156404,63.253077416125194,242.0],[110.45028151977687,63.275743453914316,242.0],[110.48001229661713,63.280453279948432,242.0],[110.51298107885589,63.280158915821289,242.0],[110.54124003506053,63.28781238312672,260.0543],[110.50709379631326,63.293994029796494,250.0502],[110.5168078125086,63.3051798666275,266.8468],[110.52063454616132,63.308417872025956,284.4971],[110.52769928521246,63.320781165365474,314.1193],[110.59922976810549,63.359342866019716,275.7232],[110.62307326240312,63.375827257139093,284.733],[110.60923814842795,63.380242719046066,276.8604],[110.60070158874112,63.3870130939701,269.7745],[110.60187904524963,63.393489104766985,253.532],[110.61689161573338,63.397610202546844,257.6819],[110.61689161573338,63.403791849216617,283.1343],[110.56979335539233,63.404969305725132,281.1771],[110.55007095887447,63.410856588267762,257.6298],[110.53446966013649,63.424397338115824,248.784],[110.54801040998456,63.431756441294112,273.3158],[110.5168078125086,63.4408817292352,253.023],[110.52063454616132,63.452361930193319,282.7658],[110.52063454616132,63.45913230511735,269.4457],[110.51356980711017,63.459721033371608,257.0596],[110.50915434520317,63.461487218134408,251.5187],[110.50503324742334,63.463842131151466,251.9352],[110.499734693135,63.466491408295639,255.2923],[110.50709379631326,63.472673054965412,259.0364],[110.499734693135,63.478265973380928,267.8525],[110.49119813344817,63.4826814352879,285.7031],[110.48236720963422,63.485330712432074,282.3137],[110.47294755756599,63.485919440686331,264.9437],[110.46441099787916,63.4826814352879,274.2031],[110.46117299248073,63.476205424490985,307.2505],[110.45999553597221,63.4697294136941,281.8802],[110.45881807946364,63.466491408295639,276.5251],[110.42172819944506,63.463842131151466,274.0775],[110.41113109086831,63.457071756227435,311.7884],[110.41760710166523,63.438526816218143,273.5998],[110.37050884132418,63.447357740032089,314.9388],[110.30604309748236,63.484741984177816,285.295],[110.26012229364977,63.493278543864619,314.5111],[110.21184657680021,63.487979989576274,302.8234],[110.20478183774901,63.489451810211932,273.6313],[110.20007201171495,63.498871462280135,268.6347],[110.18829744662969,63.504170016568509,252.2316],[110.17475669678163,63.506819293712681,255.067],[110.11294023008395,63.510351663238282,272.6845],[110.08997982816771,63.516238945780913,280.3755],[110.06819688275993,63.527424782611916,273.7417],[110.07349543704834,63.538316255315777,295.6205],[110.09145164880334,63.553034461672354,277.4416],[110.09557274658317,63.558333015960727,273.2592],[110.09733893134597,63.573345586444447,303.7874],[110.10293184976149,63.581293417876992,269.5945],[110.11352895833824,63.585708879783965,280.0628],[110.16298213169637,63.594834167725054,319.9927],[110.17681724567154,63.601604542649085,291.0838],[110.17416796852734,63.613379107734346,296.6658],[110.15944976217077,63.618383297895605,315.5445],[110.12500915929638,63.616322749005661,273.3684],[110.11647259960955,63.624859308692493,285.1311],[110.12235988215218,63.6463478899731,285.959],[110.11529514310104,63.651057716007216,277.4073],[110.10116566499869,63.645170433464585,275.9683],[110.08585873038783,63.633395868379296,318.1487],[110.08114890435371,63.625742401073893,281.609],[110.07496725768397,63.6054312763018,294.6616],[110.06819688275993,63.595717260106454,268.0595],[110.05995468720027,63.590418705818081,283.7355],[110.02728026908864,63.58188214613125,242.0],[110.03699428528398,63.578938504859934,265.6785],[110.04405902433513,63.574817407080104,242.0],[110.04994630687776,63.569518852791731,258.6103],[110.05465613291187,63.562159749613443,261.0522],[110.0425872036995,63.556272467070812,273.5388],[110.03434500813978,63.546558450875466,254.9557],[110.02639717670723,63.535078249917319,262.1297],[110.01697752463906,63.524186777213458,271.5866],[110.00402550304523,63.51771076641657,292.8229],[109.98606929129022,63.514178396890969,327.0771],[109.95162868841578,63.513884032763855,383.1739],[109.95162868841578,63.507408021966938,332.9822],[109.96134270461113,63.502403831805708,273.3448],[109.96428634588244,63.495633456881677,259.8795],[109.9607539763569,63.487685625449132,285.7277],[109.95162868841578,63.479443429889443,318.246],[109.95015686778015,63.466785772422782,314.5523],[109.938676666822,63.450595745430547,261.1735],[109.92395846046543,63.437054995582486,250.0364],[109.91071207474448,63.431167713039855,283.1956],[109.88333621092124,63.43411135431117,286.8077],[109.86685181980187,63.442059185743716,292.299],[109.8353548581988,63.466491408295639,303.6999],[109.81416064104531,63.473556147346812,304.9099],[109.79679315754453,63.47002377782124,273.5225],[109.77795385340812,63.462959038770066,287.8454],[109.75322726672908,63.45913230511735,295.759],[109.72908940830428,63.465313951787124,279.5689],[109.67610386542054,63.489451810211932,378.9486],[109.65667583302985,63.489451810211932,307.6271],[109.6042790184004,63.467963228931296,328.8637],[109.58308480124697,63.452656294320462,274.8229],[109.59485936633223,63.438526816218143,242.0],[109.60604520316321,63.438821180345286,242.0],[109.61988031713838,63.444414098760774,242.0],[109.63136051809653,63.452950658447605,323.4973],[109.63636470825776,63.462959038770066,318.5324],[109.64136889841905,63.470318141948354,326.7911],[109.65255473525002,63.470906870202612,328.2361],[109.68493478923449,63.463547767024323,242.0],[109.71201628893061,63.445002827015031,242.0],[109.74174706577094,63.438821180345286,242.0],[109.81828173882514,63.441470457489459,242.0],[109.83564922232591,63.435877539073942,242.0],[109.82799575502048,63.418215691446051,253.4561],[109.8753883794887,63.394960925402643,261.334],[109.93396684078789,63.40732421874219,324.2574],[110.04023229068241,63.45913230511735,242.0],[110.07055179577702,63.468257593058439,242.0],[110.10116566499869,63.472084326711155,242.0],[110.13060207771184,63.469140685439839,270.6046],[110.15709484915368,63.45913230511735,330.8816],[110.17151869138314,63.447652104159232,381.8547],[110.1841763488498,63.432050805421255,344.7453],[110.20478183774901,63.390251099368555,284.4435],[110.22568169077539,63.402025664453816,279.7098],[110.25040827745443,63.420276240335966,273.8737],[110.27542922826063,63.432639533675513,260.4135],[110.29721217366836,63.427635343514282,325.5315],[110.32370494511025,63.397021474292586,341.9897],[110.34048370035674,63.382008903808867,276.7732],[110.35932300449315,63.375827257139093,302.1478],[110.36756520005287,63.370823066977863,268.9236],[110.3716862978327,63.3590485018926,322.4976],[110.37757358037533,63.347568300934455,305.401],[110.39023123784199,63.342564110773225,250.0923],[110.40230016705436,63.341975382518939,255.7955],[110.41289727563111,63.339326105374766,283.4193],[110.42055074293654,63.332850094577879,290.837],[110.42467184071637,63.321369893619732,297.5694],[110.417018373411,63.3069460513903,330.9142],[110.3557906349676,63.274860361532944,267.6293],[110.37551303148541,63.2624970681934,277.1584],[110.37904540101101,63.253960508506594,246.7145],[110.3743355749769,63.245423948819763,257.068],[110.36933138481567,63.232471927225959,287.9633],[110.36727083592569,63.216576264360867,300.6828],[110.36874265656138,63.206567884038378,313.382],[110.37374684672261,63.197442596097289,300.7698],[110.38287213466367,63.184784938630628,286.7384],[110.13590063200024,63.212160802453894,268.1505],[110.13766681676304,63.215693171979467,263.8086],[110.13854990914439,63.218636813250782,277.9132],[110.14002172978007,63.221874818649241,262.9709],[110.1432597351785,63.225701552301956,252.1908],[110.12765843644053,63.231294470717444,274.1001],[110.08203199673511,63.234826840243016,283.0361],[110.0178606170204,63.248956318345336,293.7707],[110.00019876939251,63.246895769455421,272.8246],[110.00608605193514,63.232471927225959,256.8419],[109.99460585097705,63.225407188174813,298.3595],[109.96987926429796,63.214810079598067,294.1128],[109.95839906333981,63.205979155784121,284.8446],[109.98842420430725,63.214810079598067,281.1732],[110.01844934527469,63.21598753610661,260.3926],[110.07879399133668,63.212160802453894,256.432],[110.10352057801572,63.205684791656978,265.6825],[110.11029095293975,63.1918496776818,311.3278],[110.10028257261729,63.177720199579483,302.8663],[110.07496725768397,63.171244188782595,321.3982],[110.09262910531186,63.164768177985678,332.7535],[110.13148517009324,63.161824536714363,269.7564],[110.14973574597542,63.15740907480739,263.1305],[110.17299051201883,63.144162689086471,279.3614],[110.18299889234129,63.141219047815156,271.131],[110.19801146282504,63.143279596705071,260.7072],[110.2062536583847,63.147695058612044,249.0487],[110.21537894632576,63.155054161790332,277.8733],[110.2268591472839,63.161824536714363,294.8045],[110.24246044602188,63.164768177985678,275.3893],[110.25865047301414,63.162707629095763,322.4137],[110.2872037933459,63.152993612900417,297.2191],[110.42084510706366,63.143573960832214,253.7057],[110.42643802547917,63.140041591306641,268.7564],[110.42467184071637,63.130033210984152,291.7688],[110.41819582991951,63.125029020822922,283.4288],[110.40907054197839,63.123262836060121,269.3213],[110.40082834641873,63.120907923043063,287.5328],[110.39729597689313,63.112960091610518,311.7892],[110.39994525403733,63.105600988432229,286.3662],[110.40642126483425,63.102068618906628,266.6008],[110.4143690962668,63.102068618906628,270.7329],[110.42113947119083,63.105895352559344,258.7577],[110.4552857099381,63.133565580509725,266.1883],[110.47736301947299,63.144751417340728,281.5572],[110.57538627380779,63.164768177985678,292.006],[110.60688323541092,63.163296357350021,277.5855],[110.63278727859847,63.15328797702756,242.0],[110.63749710463259,63.142396504323671,309.5183],[110.60600014302952,63.1370979500353,322.2348],[110.54124003506053,63.139158498925241,311.0947],[110.52063454616132,63.1370979500353,300.0262],[110.50532761155046,63.132976852255467,276.9113],[110.49826287249931,63.127972662094237,253.7519],[110.495319231228,63.120613558915949,242.0],[110.49296431821097,63.109722086212059,248.1409],[110.49325868233808,63.106778444940744,256.9478],[110.49296431821097,63.071749113812075,248.0921],[110.48854885630396,63.065273103015187,257.6626],[110.46205608486213,63.044078885861694,263.1153],[110.43821259056443,63.02965504363226,281.0963],[110.38198904228233,63.017880478546971,311.4544],[110.3557906349676,63.006694641715995,253.6274],[110.36638774354435,63.001101723300479,253.8277],[110.37286375434121,62.991976435359391,256.1209],[110.37786794450244,62.983145511545445,276.4408],[110.38346086291796,62.979318777892729,282.3884],[110.4314422156404,62.98608915281676,307.595],[110.45881807946364,62.994036984249306,253.4213],[110.4732419216931,62.993742620122191,242.0],[110.47912920423573,62.98285114741833,295.393],[110.48442775852413,62.976375136621414,286.7892],[110.49649668773651,62.973725859477241,285.3327],[110.51003743758457,62.9751976801129,287.9988],[110.52063454616132,62.979318777892729,287.3974],[110.52446127981403,62.988738429960961,284.1694],[110.52505000806832,63.000807359173336,281.0592],[110.53034856235666,63.008166462351653,258.2702],[110.5630229804683,62.998746810283421,242.0],[110.58215664873183,62.997274989647764,247.4521],[110.6012903169954,62.998746810283421,331.769],[110.61630288747909,63.003162272190394,256.9516],[110.66487296845582,63.02700576648806,263.1767],[110.6795911748124,63.023179032835344,255.718],[110.6866559138636,63.0143481090214,290.0583],[110.69077701164343,63.003751000444652,242.0],[110.7034346691101,62.98785533757956,242.0],[110.7060839462543,62.983145511545445,260.4129],[110.71079377228835,62.980496234401272,279.8171],[110.72256833737362,62.979318777892729,262.4215],[110.72698379928062,62.978141321384214,242.0],[110.739052728493,62.972254038841584,263.1636],[110.74258509801859,62.969310397570268,259.869],[110.75553711961237,62.963423115027638,261.6846],[110.79056645074104,62.96106820201058,242.0],[110.81911977107285,62.948116180416775,242.0],[110.84031398822628,62.9454669032726,277.265],[110.90448536794099,62.947821816289661,279.4186],[110.91655429715343,62.946349995654,242.0],[110.93097813938289,62.938402164221429,242.0],[110.95982582384175,62.908082659126876,242.0],[110.97866512797822,62.895130637533072,242.0],[111.00721844830997,62.8898320832447,242.0],[111.06255890421073,62.887477170227669,242.0],[111.08228130072854,62.8898320832447,242.0],[111.13703302837501,62.90425592547416,242.0],[111.17176799537657,62.902195376584245,242.0],[111.18648620173315,62.888654626736184,242.0],[111.18472001697035,62.868343501964091,302.4723],[111.16823562585097,62.845383100047826,288.0055],[111.14292031091765,62.829193073055592,305.7649],[111.11054025693318,62.819479056860246,296.7361],[111.04842942610838,62.8079988559021,318.7628],[111.04842942610838,62.801228480978068,293.2124],[111.08964040390686,62.801522845105211,301.0986],[111.21297897317498,62.822128334004418,242.0],[111.21297897317498,62.81476923082613,242.0],[111.14380340329905,62.786804638748634,287.3204],[111.14704140869753,62.783272269223033,282.897],[111.14910195758745,62.780034263824604,278.8676],[111.15204559885876,62.776796258426145,282.2557],[111.15822724552851,62.77385261715483,274.849],[111.15322305536728,62.764138600959484,262.9016],[111.13026265345098,62.739117650153304,245.4728],[111.15116250647736,62.7279318133223,242.0],[111.21327333730216,62.70703196029595,242.0],[111.22651972302305,62.694963031083546,242.0],[111.21739443508199,62.676123726947111,242.0],[111.19531712554709,62.662288612971935,300.8986],[111.16823562585097,62.6537520532851,311.0909],[111.11142334931458,62.647276042488215,305.2032],[111.04548578483707,62.631969107877353,312.4169],[111.01428318736112,62.629319830733181,286.6789],[110.98190313337665,62.634324020894411,305.2413],[110.96512437813016,62.645804221852558,242.0],[110.96571310638438,62.663171705353335,246.8002],[110.98631859528359,62.6843659225068,271.5243],[110.91037265048362,62.685543379015343,246.1624],[110.89006152571159,62.678184275837026,245.8118],[110.91861484604334,62.66611534662465,246.6929],[110.92567958509449,62.659933699954877,249.8892],[110.91125574286502,62.657284422810676,264.729],[110.90006990603405,62.653163325030846,265.0952],[110.87799259649915,62.634618385021554,258.511],[110.86268566188829,62.629319830733181,272.7375],[110.86268566188829,62.623138184063407,282.5557],[110.91007828635651,62.625787461207608,270.6193],[110.92479649271309,62.623138184063407,256.9353],[110.91802611778905,62.609303070088231,284.9688],[110.96306382924024,62.621077635173492,272.6891],[110.97925385623245,62.623138184063407,314.7498],[110.99838752449602,62.620488906919235,320.0488],[111.03106194260761,62.610480526596746,242.0],[111.04842942610838,62.609303070088231,242.0],[111.0958220505766,62.633146564385896,303.3778],[111.11260080582309,62.637856390420012,295.149],[111.17176799537657,62.636678933911469,261.5317],[111.15292869124016,62.619311450410692,267.3072],[111.13261756646807,62.609891798342488,255.3917],[111.08875731152546,62.595762320240169,288.3747],[111.09641077883089,62.587814488807624,258.1615],[111.10170933311923,62.584576483409165,264.8849],[111.10995152867895,62.582221570392107,242.0],[111.10759661566186,62.578394836739392,242.0],[111.10759661566186,62.577217380230877,242.0],[111.10700788740758,62.57662865197662,242.0],[111.10288678962775,62.574568103086705,242.0],[111.11112898518746,62.571918825942504,242.0],[111.13026265345098,62.561027353238643,242.0],[111.11672190360292,62.554256978314612,242.0],[111.13026265345098,62.547192239263438,242.0],[111.11525008296729,62.534534581796777,242.0],[111.10053187661072,62.53482894592392,242.0],[111.07580528993162,62.547192239263438,242.0],[111.05608289341382,62.5504302446619,242.0],[111.00339171465725,62.547192239263438,255.5395],[110.93627669367123,62.532179668779719,272.0146],[110.90301354730536,62.529530391635546,288.2667],[110.87328277046504,62.544248597992123,287.5464],[110.8450238142604,62.553668250060355,297.9433],[110.7434681904,62.5598498967301,301.0372],[110.71197122879693,62.554256978314612,314.6964],[110.70255157672869,62.542188049102208,296.2951],[110.71432614181396,62.536006402432434,242.0],[110.78762280946972,62.531296576398347,242.0],[110.80705084186042,62.527175478618489,242.0],[110.82176904821699,62.520110739567343,242.0],[110.81588176567436,62.517167098296028,242.0],[110.80057483106356,62.505686897337881,277.231],[110.89006152571159,62.505686897337881,242.0],[110.87681513999064,62.495678517015392,242.0],[110.86091947712555,62.488613777964247,242.0],[110.82853942314102,62.478311033514643,279.0694],[110.844140721879,62.4668308325565,242.0],[110.86710112379529,62.454173175089835,271.9873],[110.88800097682162,62.449463349055719,298.8732],[110.89683190063562,62.462121006522381,288.3036],[110.89065025396582,62.486258864947189,242.0],[110.89565444412705,62.495678517015392,242.0],[110.98425804639368,62.510985451626254,242.0],[111.04754633372698,62.514223457024684,242.0],[111.11318953407738,62.505686897337881,242.0],[111.15116250647736,62.507747446227796,242.0],[111.17176799537657,62.506275625592139,242.0],[111.18472001697035,62.499505250668108,242.0],[111.18678056586026,62.490379962727047,242.0],[111.18442565284323,62.479488490023158,242.0],[111.1803045550634,62.4685970173193,242.0],[111.17883273442771,62.459177365251065,242.0],[111.18089328331763,62.44710843603869,242.0],[111.19237348427578,62.420615664596824,242.0],[111.19943822332692,62.413550925545678,253.6175],[111.23240700556568,62.40530872998599,293.1372],[111.24329847826959,62.400304539824731,299.4935],[111.25360122271917,62.392651072519328,316.9659],[111.26243214653311,62.389707431248013,285.8653],[111.26596451605872,62.38440887695964,242.0],[111.26007723351609,62.369690670603035,293.1401],[111.25242376621065,62.359976654407717,295.2971],[111.23417319032848,62.344964083924,316.5111],[111.22651972302305,62.334955703601509,319.648],[111.2159226144463,62.310229116922443,242.0],[111.21710007095487,62.293744725803066,242.0],[111.22681408715022,62.280203975955033,242.0],[111.24329847826959,62.263425220708513,251.6985],[111.25271813033777,62.257243574038739,254.473],[111.26360960304163,62.251650655623251,252.1544],[111.27214616272846,62.244291552444963,247.9574],[111.27361798336415,62.231928259105416,248.4987],[111.26625888018583,62.224274791800013,249.0476],[111.25212940208354,62.218387509257383,260.4153],[111.22651972302305,62.211617134333352,287.2344],[111.19149039189438,62.206318580044979,285.4647],[111.03606613276889,62.22309733529147,286.0281],[111.02429156768363,62.2289846178341,310.4227],[111.00927899719989,62.233400079741074,318.6908],[111.00191989402163,62.224274791800013,275.7032],[111.00398044291154,62.211322770206209,242.0],[111.01722682863243,62.204552395282178,243.9893],[111.10318115375492,62.185124362891486,242.0],[111.10965716455178,62.179237080348855,242.0],[111.10288678962775,62.170700520662052,259.2987],[111.10288678962775,62.163635781610878,283.1889],[111.15175123473159,62.15627667843259,279.1158],[111.20002695158121,62.13625991778764,242.0],[111.24388720652382,62.108000961583,242.0],[111.28068272241529,62.075032179344248,267.2374],[111.26449269542303,62.065023799021759,265.6286],[111.24418157065094,62.061491429496186,271.0319],[111.19914385919981,62.061491429496186,301.4052],[111.17736091379209,62.057664695843471,312.0063],[111.11672190360292,62.034115565672948,326.4397],[111.0931727734324,62.031466288528748,296.0201],[111.07021237151616,62.032938109164405,266.7566],[111.04931251848978,62.039119755834179,271.3179],[111.03135630673478,62.05089432091944,286.9422],[111.01163391021691,62.057664695843471,287.2388],[110.9542329054263,62.057959059970614,259.6946],[110.93097813938289,62.061491429496186,257.9561],[110.93598232954412,62.070616717437275,257.9385],[110.95187799240921,62.081508190141136,262.4721],[110.95894273146035,62.08857292919231,297.6141],[110.93774851430692,62.0932827552264,290.9758],[110.9277401339844,62.09269402697214,259.0935],[110.91802611778905,62.08857292919231,269.4753],[110.9295063187472,62.080625097759736,263.7466],[110.92538522096737,62.073265994581448,263.0846],[110.91213883524642,62.069144896801618,289.3677],[110.89712626476273,62.071499809818675,306.2629],[110.87504895522784,62.089161657446567,320.3583],[110.86327439014258,62.093871483480683,329.1424],[110.84914491204029,62.08857292919231,318.035],[110.85591528696426,62.081213826014022,295.5129],[110.83266052092091,62.080036369505478,301.1664],[110.82589014599688,62.08945602157371,292.5272],[110.83266052092091,62.103879863803144,300.8517],[110.84914491204029,62.116537521269805,319.4408],[110.81676485805576,62.121247347303921,328.6046],[110.75789203262946,62.083863103158194,296.9815],[110.72933871229765,62.09181093459074,286.7275],[110.69548683767755,62.105646048565944,290.6386],[110.61983525700469,62.0932827552264,309.423],[110.58892702365586,62.102408043167486,315.406],[110.62513381129304,62.10947278221866,338.5504],[110.63072672970856,62.11271078761709,348.0478],[110.62277889827601,62.124485352702379,337.1501],[110.60452832239383,62.123602260320979,351.8802],[110.58362846936751,62.118009341905463,334.9635],[110.56861589888376,62.116537521269805,307.1723],[110.55831315443419,62.122424803812436,292.7626],[110.54624422522176,62.1368486460419,311.1797],[110.53446966013649,62.143324656838786,326.537],[110.51827963314429,62.146857026364387,323.1055],[110.44439423723423,62.151861216525617,313.6414],[110.40730435721565,62.160986504466706,266.6382],[110.13001334945761,62.175115982569025,312.6873],[110.09557274658317,62.170700520662052,331.085],[110.00696914431654,62.143030292711671,337.0154],[109.9787101881119,62.122130439685321,311.2494],[109.91247825950728,62.103879863803144,302.9101],[109.89010658584527,62.094754575862083,334.4757],[109.88539675981116,62.088278565065167,320.7481],[109.87391655885307,62.06767307616596,334.5587],[109.86596872742047,62.057664695843471,335.9098],[109.8524279775724,62.050011228538068,338.1216],[109.83506049407168,62.047361951393867,322.9507],[109.73674287560971,62.043535217741152,281.8018],[109.69906426733684,62.037059206944264,282.0146],[109.67051094700508,62.026462098367517,256.6819],[109.66285747969965,62.051188685046583,289.9122],[109.62753378444381,62.070027989183018,259.8913],[109.59721427934926,62.072971630454333,254.2044],[109.60516211078181,62.05089432091944,256.5533],[109.61840849650275,62.041474668851237,252.8784],[109.63224361047793,62.035293022181463,254.3683],[109.64372381143608,62.027345190748918,254.3787],[109.64990545810582,62.012921348519455,289.7115],[109.64637308858028,62.013510076773741,290.5444],[109.63960271365625,62.00673970184971,265.8411],[109.63283233873221,61.998203142162879,300.545],[109.62929996920661,61.992315859620248,318.286],[109.63607034413064,61.987311669459018,311.2701],[109.63901398540196,61.981130022789245,310.3404],[109.63636470825776,61.9714160065939,277.2488],[109.64313508318179,61.975831468500871,291.9803],[109.64872800159731,61.978480745645072,301.5461],[109.65520401239422,61.977303289136529,298.2211],[109.66344620795388,61.9714160065939,264.678],[109.65343782763142,61.96493999579701,293.6281],[109.62194086602835,61.958463985000094,325.7667],[109.59221008918803,61.945806327533433,309.7549],[109.58485098600977,61.94404014277066,317.2956],[109.57484260568725,61.936386675465229,272.3997],[109.54069636693998,61.889288415124156,277.3363],[109.55041038313533,61.890171507505556,266.9801],[109.55865257869505,61.888994050997042,267.205],[109.57425387743302,61.883106768454411,254.9418],[109.57042714378031,61.87457020876758,282.1342],[109.56983841552602,61.868388562097806,283.3849],[109.57337078505162,61.862795643682318,276.686],[109.58161298061128,61.855730904631145,260.6033],[109.54746674186401,61.841601426528825,306.9829],[109.55776948631365,61.830709953824964,291.2902],[109.55041038313533,61.81775793223116,322.8051],[109.52009087804078,61.793031345552095,305.9447],[109.53127671487175,61.793914437933495,295.5036],[109.5418738234485,61.79362007380638,280.8863],[109.55188220377102,61.791559524916437,264.8543],[109.56130185583919,61.786849698882349,299.8726],[109.56041876345779,61.778607503322661,293.0446],[109.56954405139891,61.770365307762972,297.5073],[109.5827904371198,61.763594932838942,267.0074],[109.59485936633223,61.759768199186226,259.0569],[109.61752540412135,61.755647101406396,283.7754],[109.62252959428258,61.758885106804826,286.8951],[109.62046904539267,61.769187851254429,269.0424],[109.62194086602835,61.786849698882349,295.7949],[109.62841687682521,61.797446807459096,293.0549],[109.64637308858028,61.8180522963583,287.37],[109.64990545810582,61.828060676680764,280.9188],[109.64401817556319,61.839835241766053,278.1255],[109.63400979524073,61.848077437325742,277.0417],[109.62841687682521,61.858380181775345,267.0112],[109.63636470825776,61.87633639353038,266.6783],[109.62929996920661,61.87633639353038,266.7036],[109.64431253969036,61.902829164972218,262.7196],[109.64990545810582,61.909893904023392,260.5295],[109.74351325053374,61.978480745645072,255.8111],[109.7561709080004,61.98495675644196,260.5186],[109.76735674483137,61.988489125967533,262.7213],[109.7909058750019,62.003207332324109,266.4273],[109.80415226072284,62.00673970184971,265.6702],[109.91571626490571,62.014393169155113,285.9391],[109.93131756364369,62.019691723443486,281.6253],[109.93749921031349,62.02587337011326,251.7374],[109.95133432428867,62.043829581868295,258.1772],[109.95486669381427,62.04765631552101,251.7673],[109.96575816651813,62.052071777427983,258.4702],[109.98371437827313,62.070616717437275,260.3273],[109.98901293256154,62.075032179344248,249.4788],[110.0025536824096,62.077092728234163,259.5514],[110.02904645385144,62.086512380302395,257.2895],[110.06849124688705,62.093871483480683,256.2219],[110.08733055102351,62.106823505074459,294.3279],[110.10440367039712,62.122424803812436,286.0638],[110.1235373386607,62.135671189533383,252.8174],[110.15415120788236,62.143619020965929,255.8006],[110.24599281554748,62.12948954286361,240.0],[110.31163601589782,62.13537682540624,240.0],[110.34431043400946,62.134199368897725,255.277],[110.36933138481567,62.122719167939579,270.144],[110.35108080893349,62.109767146345774,339.1058],[110.33518514606834,62.094754575862083,292.6],[110.3531413578234,62.088278565065167,272.054],[110.36697647179858,62.091516570463625,251.388],[110.37933976513813,62.098581309514771,246.3222],[110.39346924324042,62.102408043167486,244.3571],[110.41407473213968,62.099170037769056,244.103],[110.42908730262337,62.084451831412451,305.313],[110.44498296548846,62.081213826014022,259.0363],[110.50385579091483,62.1044685920574,240.8504],[110.53446966013649,62.106529140947345,290.8965],[110.5586075185613,62.058842152352014,266.4373],[110.58510029000314,62.055604146953556,281.6543],[110.64367875130233,62.068261804420217,311.9411],[110.67664753354109,62.069439260928732,311.9648],[110.69960793545738,62.059136516479128,286.7809],[110.72080215261087,62.046478859012467,242.0],[110.74964983706974,62.040297212342722,242.0],[110.85149982505732,62.039414119961322,253.1149],[111.10759661566186,62.001146783434194,242.0],[111.21621697857347,62.000263691052794,264.2243],[111.24477029890522,62.004384788832652,265.678],[111.27008561383855,62.013804440900856,256.2799],[111.29127983099204,62.030288832020233,245.7796],[111.31688951005248,62.045007038376809,251.5718],[111.34779774340132,62.047067587266753,267.1782],[111.41138039486174,62.040297212342722,320.8784],[111.40225510692068,62.043240853614037,286.0799],[111.39430727548813,62.047361951393867,312.5548],[111.38812562881833,62.053543598063641,307.4054],[111.38371016691138,62.061491429496186,328.3455],[111.39195236247105,62.060608337114786,319.5561],[111.40931984597182,62.062080157750444,368.0851],[111.41756204153154,62.061491429496186,352.5885],[111.41756204153154,62.068261804420217,382.8591],[111.35545121070675,62.080919461886879,294.2244],[111.33572881418888,62.08857292919231,281.1456],[111.32424861323079,62.0959320323706,251.4359],[111.29805020591607,62.119775526668263,341.1246],[111.28333199955949,62.124779716829494,339.8787],[111.26625888018583,62.124485352702379,333.0494],[111.25212940208354,62.128312086355066,294.1827],[111.24624211954091,62.146562662237244,318.0511],[111.24683084779514,62.161280868593821,319.0594],[111.24830266843082,62.174527254314739,282.0725],[111.25242376621065,62.186596183527143,259.399],[111.26007723351609,62.197782020358147,242.0],[111.27096870621995,62.206612944172093,242.0],[111.28627564083081,62.215443867986068,242.0],[111.30246566782301,62.222508607037213,242.0],[111.31512332528968,62.225746612435671,242.0],[111.32454297735791,62.224569155927128,246.4585],[111.33101898815482,62.221036786401555,242.0],[111.33867245546026,62.2177987810031,242.0],[111.34985829229123,62.218387509257383,242.0],[111.35574557483386,62.222802971164356,242.0],[111.35780612372378,62.2298677102155,254.8148],[111.36104412912226,62.236638085139532,271.4784],[111.37046378119044,62.239581726410847,270.1312],[111.37664542786024,62.237815541648047,269.8418],[111.38017779738578,62.233694443868217,275.376],[111.3831214386571,62.228101525452729,270.0209],[111.38694817230981,62.22221424291007,242.0],[111.39695655263228,62.216915688621725,269.4042],[111.40784802533619,62.21897623751164,263.5364],[111.41873949804005,62.223391699418613,250.3749],[111.42874787836251,62.225746612435671,248.5498],[111.44699845424469,62.224863520054271,273.4256],[111.46466030187258,62.220742422274412,273.5504],[111.47172504092373,62.212205862587609,265.0054],[111.45936174758424,62.197782020358147,302.4039],[111.48202778537336,62.192483466069774,282.8305],[111.50322200252685,62.189539824798459,263.7505],[111.52323876317178,62.184241270510086,301.8715],[111.54178370318107,62.170700520662052,280.6832],[111.55090899112218,62.167168151136451,282.1534],[111.57180884414851,62.171583613043424,292.1565],[111.61007618067561,62.184241270510086,304.0547],[111.60477762638726,62.191894737815517,333.4617],[111.61360855020121,62.196015835595375,285.4448],[111.62744366417638,62.199548205120948,294.1712],[111.6374520444989,62.204552395282178,301.8788],[111.64245623466013,62.216621324494582,317.8682],[111.63774640862601,62.222508607037213,299.8775],[111.62773802830355,62.226335340689928,315.5378],[111.61684655559964,62.231928259105416,341.1773],[111.59653543082754,62.246940829589136,306.6209],[111.57975667558105,62.254005568640309,296.448],[111.38371016691138,62.252533748004652,286.3907],[111.34897519990983,62.247529557843393,259.9666],[111.33926118371448,62.249295742606193,264.4664],[111.34985829229123,62.25989285118294,291.2514],[111.36310467801218,62.265191405471313,298.6643],[111.37900034087727,62.266957590234085,305.9246],[111.41138039486174,62.266663226106971,268.511],[111.39577909612376,62.282853253099205,314.3288],[111.36958068880904,62.288446171514721,302.1472],[111.340438640223,62.289917992150379,316.736],[111.31512332528968,62.294039089930209,293.2265],[111.32248242846799,62.30080946485424,288.8271],[111.29245728750055,62.309051660413928,279.9631],[111.28774746146644,62.307579839778271,278.3933],[111.28833618972072,62.316999491846474,242.0],[111.29245728750055,62.322003682007704,242.0],[111.29805020591607,62.324947323279048,242.0],[111.30158257544161,62.328185328677478,242.0],[111.30629240147573,62.337899344872824,242.0],[111.31424023290828,62.349379545830971,242.0],[111.32424861323079,62.358504833772059,285.1643],[111.33543445006177,62.362331567424746,280.1076],[111.39165799834393,62.358799197899174,283.9617],[111.41138039486174,62.362331567424746,287.0625],[111.44346608471909,62.372339947747236,312.4659],[111.45965611171135,62.375283589018551,317.5363],[111.47996723648345,62.376755409654209,266.8454],[111.52206130666326,62.372339947747236,248.4229],[111.54413861619815,62.367041393458862,285.2627],[111.55856245842756,62.359093562026317,271.6148],[111.57828485494542,62.330245877567393,274.8181],[111.58976505590357,62.321414953753447,269.4],[111.62361693052367,62.309346024541043,300.4477],[111.65835189752522,62.30080946485424,302.4515],[111.67424756039031,62.304636198506955,313.6854],[111.67071519086477,62.314055850575159,317.9415],[111.64422241942287,62.334955703601509,284.2013],[111.66394481594074,62.340254257889882,287.8853],[111.68955449500118,62.3440809915426,294.8584],[111.70280088072212,62.349968274085228,324.7125],[111.68572776134846,62.362331567424746,307.1667],[111.66394481594074,62.366747029331719,320.4495],[111.61714091972681,62.364686480441804,304.5461],[111.5956523384462,62.369690670603035,284.6794],[111.60153962098883,62.374106132510036,287.8766],[111.61154800131129,62.385586333468154,299.0825],[111.61684655559964,62.39029615950227,294.1718],[111.60742690353146,62.392651072519328,284.3218],[111.59977343622603,62.396477806172044,294.73],[111.59359178955623,62.402659452841789,285.287],[111.58976505590357,62.410607284274363,304.46],[111.64333932704153,62.40530872998599,317.3813],[111.65158152260119,62.407369278875905,319.2457],[111.64834351720276,62.421204392851081,283.9829],[111.63951259338882,62.427680403648,292.6101],[111.61007618067561,62.43121277317357,328.964],[111.58476086574228,62.430918409046427,319.2977],[111.55503008890201,62.4259142188852,351.1957],[111.52588804031598,62.415905838562708,332.205],[111.50381073078108,62.400304539824731,331.9741],[111.49380235045862,62.3953003496635,353.0426],[111.48320524188188,62.397655262680559,346.9494],[111.47378558981364,62.402070724587531,359.8303],[111.46613212250821,62.403836909350332,356.8386],[111.45700683456715,62.401481996333274,351.494],[111.445526633609,62.3935341649007,312.8405],[111.43816753043075,62.39029615950227,317.5373],[111.39283545485245,62.377932866162723,317.6762],[111.33720063482457,62.378227230289866,314.2995],[111.31482896116256,62.382348328069725,325.8954],[111.30158257544161,62.39029615950227,303.447],[111.2986389341703,62.401187632206131,242.0],[111.30158257544161,62.411490376655735,293.6479],[111.31512332528968,62.43121277317357,276.369],[111.27185179860135,62.445930979530146,246.3614],[111.25154067382925,62.45711681636115,242.0],[111.24006047287111,62.47212938684487,242.0],[111.24712521192225,62.466242104302239,242.0],[111.25507304335486,62.462121006522381,242.0],[111.2639039671688,62.459766093505351,242.0],[111.27361798336415,62.459177365251065,242.0],[111.26625888018583,62.465359011920839,242.0],[111.2612546900246,62.47212938684487,242.0],[111.25330685859205,62.485964500820046,242.0],[111.34926956403694,62.478311033514643,274.572],[111.35780612372378,62.474484299861928,274.6262],[111.36781450404624,62.467419560810754,250.4499],[111.38076652564007,62.464475919539439,283.4864],[111.39725091675945,62.47212938684487,281.1945],[111.39371854723385,62.475661756370442,289.6164],[111.39077490596253,62.4771335770061,285.7169],[111.38724253643693,62.477427941133243,284.6179],[111.38371016691138,62.478311033514643,291.4178],[111.39489600374236,62.482432131294473,303.8407],[111.40725929708191,62.485375772565789,311.3453],[111.41991695454857,62.486553229074332,303.0702],[111.43257461201523,62.485964500820046,287.5663],[111.41373530787882,62.500093978922365,298.9145],[111.38341580278421,62.500093978922365,288.1086],[111.32248242846799,62.492734875744077,254.0051],[111.29481220051758,62.498622158286707,242.0],[111.29186855924627,62.507453082100682,242.0],[111.3057036732215,62.517461462423142,242.0],[111.32836971101062,62.527469842745631,248.3574],[111.30364312433159,62.548369695771981,242.0],[111.29481220051758,62.554256978314612,242.0],[111.30599803734862,62.567797728162674,242.0],[111.32218806434088,62.58163284213785,242.0],[111.33543445006177,62.595467956113026,242.0],[111.33572881418888,62.609303070088231,242.0],[111.35074138467263,62.618722722156434,242.0],[111.36487086277492,62.624904368826208,256.9065],[111.37958906913155,62.628142374224666,254.556],[111.39725091675945,62.629319830733181,259.3291],[111.43286897614234,62.62254945580915,261.6547],[111.45347446504155,62.621960727554892,242.0],[111.46613212250821,62.629319830733181,245.3699],[111.46171666060127,62.648747863123873,242.0],[111.43404643265092,62.654929509793647,242.0],[111.37782288436875,62.650808412013788,242.0],[111.38783126469121,62.66434916186185,242.0],[111.39636782437805,62.672002629167281,242.0],[111.40254947104779,62.679067368218426,259.6839],[111.40461001993771,62.692019389812231,258.531],[111.38253271040287,62.729109269830815,242.0],[111.38429889516561,62.734996552373445,242.0],[111.38812562881833,62.740295106661819,242.0],[111.39048054183542,62.745888025077335,242.0],[111.39048054183542,62.792691921291265,242.0],[111.3884199929455,62.801522845105211,242.0],[111.38371016691138,62.8079988559021,247.1597],[111.3884199929455,62.820362149241646,266.1609],[111.38282707452998,62.827721252419934,270.6866],[111.37046378119044,62.830370529564107,242.0],[111.35633430308815,62.829193073055592,242.0],[111.36369340626641,62.837729632742395,264.0692],[111.36810886817341,62.839790181632338,265.2668],[111.37782288436875,62.84155636639511,248.2143],[111.36310467801218,62.8489154695734,259.6568],[111.33720063482457,62.858629485768745,270.1846],[111.3004051189331,62.864811132438518,309.2826],[111.26743633669435,62.876291333396665,270.9678],[111.25330685859205,62.900429191821445,298.4174],[111.25742795637188,62.911026300398191,262.119],[111.2647870595502,62.91926849595788,300.3911],[111.26802506494863,62.927805055644683,330.8699],[111.26007723351609,62.938402164221429,379.0514],[111.24859703255794,62.94105144136563,375.6568],[111.14233158266342,62.936047251204371,369.5828],[111.11907681662001,62.946938723908261,378.5255],[111.10995152867895,62.9760807724943,326.4807],[111.11554444709441,62.998746810283421,242.0],[111.12996828932387,63.01346501664,242.0],[111.17176799537657,63.033187413157833,242.0],[111.25801668462617,63.060857641108214,264.8567],[111.27715035288969,63.071749113812075,242.0],[111.30746985798424,63.084112407151622,242.0],[111.35015265641835,63.082051858261678,242.0],[111.4249211447098,63.067922380159359,311.8812],[111.51087546983223,63.067922380159359,242.0],[111.52323876317178,63.071160385557818,327.798],[111.54708225746947,63.085289863660137,333.4699],[111.55856245842756,63.088527869058595,290.1707],[111.588587599395,63.092648966838425,242.0],[111.61331418607409,63.104129167796572,280.603],[111.6339196749733,63.121202287170206,250.0],[111.65158152260119,63.143279596705071,353.9849],[111.64157314227873,63.145928873849272,295.2641],[111.63333094671901,63.150344335756245,294.3452],[111.62744366417638,63.15652598242599,253.7653],[111.62361693052367,63.164768177985678,301.33],[111.64333932704153,63.17330473767251,303.4338],[111.66247299530505,63.210100253563951,263.9116],[111.6783686581702,63.225701552301956,242.0],[111.71280926104458,63.2345324761159,242.0],[111.81848598268488,63.219519905632183,269.9532],[111.82908309126157,63.216281900233724,242.0],[111.85057167254217,63.201858058004291,242.0],[111.87647571572978,63.195970775461632,242.0],[111.88560100367084,63.189200400537629,242.0],[111.88795591668793,63.179486384342283,265.5723],[111.87029406906004,63.153582341154674,286.4951],[111.86087441699181,63.13150503161981,343.868],[111.85940259635618,63.111193906847717,330.932],[111.88000808525538,63.097358792872541,283.9087],[111.87441516683987,63.087056048422937,274.0424],[111.85999132461041,63.071749113812075,253.0549],[111.84527311825383,63.065861831269444,287.76],[111.80847760236236,63.072632206193475,345.7632],[111.79464248838718,63.071749113812075,330.1573],[111.77992428203061,63.0673336519051,302.9911],[111.76550043980114,63.0690998366679,327.12],[111.75137096169885,63.073220934447733,323.8058],[111.73694711946939,63.075575847464791,287.658],[111.72281764136704,63.073220934447733,284.6931],[111.69514741341669,63.063506918252386,256.1697],[111.66217863117794,63.055853450946984,259.4653],[111.63539149560893,63.042312701098922,266.8578],[111.61655219147252,63.02376776108963,281.0358],[111.62037892512524,63.003162272190394,281.7083],[111.65158152260119,62.969310397570268,242.0],[111.68337284833143,62.956947104230721,242.0],[111.69220377214538,62.951354185815234,254.0337],[111.52942040984158,62.984911696308245,278.8267],[111.50027836125554,62.973137131222984,265.2959],[111.50646000792528,62.97019348995164,257.2379],[111.5094036491966,62.966661120426068,256.8329],[111.5111698339594,62.962834386773352,260.7584],[111.51440783935783,62.958713288993522,263.5438],[111.49910090474697,62.952826006450891,277.4277],[111.49350798633151,62.951354185815234,268.2436],[111.5111698339594,62.942228897874145,242.0],[111.55090899112218,62.933986702314456,242.0],[111.56915956700431,62.924861414373368,258.7334],[111.55238081175781,62.919857224212137,252.957],[111.53972315429115,62.921034680720652,264.1666],[111.51440783935783,62.9316317892974,264.9802],[111.45170828027881,62.94517253914546,264.5458],[111.42815915010823,62.956358375976464,302.7367],[111.41667894915014,62.958124560739265,298.3734],[111.40461001993771,62.951354185815234,273.1879],[111.39931146564936,62.941345805492745,259.3116],[111.40107765041216,62.932220517551656,252.0621],[111.40814238946331,62.92427268611911,274.7402],[111.41756204153154,62.917796675322222,250.3447],[111.38812562881833,62.912792485160992,262.722],[111.37429051484315,62.907199566745476,261.1238],[111.36310467801218,62.896896822295872,265.5567],[111.39312981897956,62.888654626736184,243.2528],[111.48703197553459,62.8898320832447,242.0],[111.47761232346636,62.874525148633865,272.3287],[111.47290249743224,62.869520958472634,258.1222],[111.51882330126483,62.862161855294318,242.0],[111.53442460000281,62.863339311802861,252.5389],[111.54737662159658,62.868932230218348,242.0],[111.55561881715624,62.876291333396665,242.0],[111.56533283335159,62.880412431176495,242.0],[111.58211158859814,62.876880061650922,249.6616],[111.57416375716554,62.865105496565661,262.6437],[111.56945393113148,62.860395670531545,249.4868],[111.56180046382605,62.85568584449743,261.1719],[111.57681303430974,62.857157665133087,262.5706],[111.59153124066631,62.85568584449743,242.0],[111.60536635464155,62.850976018463342,242.0],[111.61684655559964,62.84155636639511,242.0],[111.6321534902105,62.865988588947033,242.0],[111.64127877815156,62.873936420379607,242.0],[111.68749394611126,62.881295523557895,249.1532],[111.70280088072212,62.88158988768501,242.0],[111.71987400009573,62.876880061650922,253.1118],[111.71251489691747,62.866871681328433,245.0243],[111.70809943501047,62.85656893687883,263.0067],[111.70603888612055,62.845088735920683,261.3665],[111.70574452199344,62.832136714326907,283.0037],[111.71104307628178,62.8191846927331,292.5623],[111.72399509787556,62.818595964478845,321.2187],[111.754020238843,62.829193073055592,305.636],[111.75166532582597,62.84155636639511,296.6695],[111.75608078773291,62.854802752116029,267.0436],[111.76608916805543,62.865105496565661,249.4636],[111.79699740140421,62.872758963871064,242.0],[111.80671141759956,62.880706795303638,249.8658],[111.81583670554068,62.8898320832447,296.4188],[111.82908309126157,62.896896822295872,328.1119],[111.85086603666934,62.899840463567187,307.5261],[111.86558424302592,62.894836273405957,319.0161],[111.87412080271275,62.88335607244781,306.0065],[111.87706444398407,62.866282953074176,323.0071],[111.88177427001818,62.853330931480372,323.7563],[111.89384319923056,62.845677464174969,294.5885],[111.90738394907862,62.839201453378053,295.5427],[111.9185697859096,62.829193073055592,279.1265],[111.9247514325794,62.835374719725337,275.6362],[111.9185697859096,62.84155636639511,242.0],[111.93093307924914,62.845677464174969,283.0791],[111.94918365513132,62.848326741319141,264.4933],[111.96596241037781,62.846854920683484,274.5501],[111.97302714942896,62.838318360996681,292.3938]]]}}