{"type":"Feature","properties":{"featurecla":"River","scalerank":9,"rivernum":1115,"dissolve":"1115River","name":"Ozhogina","name_alt":null,"note":null,"min_zoom":7.1,"strokeweig":0.15,"name_en":"Ozhogina","min_label":8.1},
"geometry":{"type": "LineString","coordinates": [[145.72998046875,66.33722565311912,1028.097],[145.74843750000002,66.33649323124412,941.0979],[145.76923828125,66.33856842655662,976.9839],[145.78945312500002,66.34320709843162,1376.6425],[145.8056640625,66.35028717655662,1380.2251],[145.8125,66.35748932499412,1333.4601],[145.82998046875002,66.38019440311912,1089.7136],[145.8408203125,66.38983795780662,1130.1184],[145.8564453125,66.413592840619117,991.4565],[145.859619140625,66.422626043744117,1150.7013],[145.85625,66.434930731244123,720.9041],[145.84140625000003,66.452508856244123,1215.1687],[145.839111328125,66.46015045780662,1166.0209],[145.88134765625,66.49933502811912,601.5104],[145.89365234375003,66.519647528119123,592.6713],[145.866455078125,66.52838776249412,603.7294],[145.85458984375003,66.52997467655662,555.085],[145.83837890625,66.53400299686912,657.3974],[145.82412109375002,66.539813543744117,772.491],[145.818115234375,66.54645416874412,592.1168],[145.81259765625003,66.55853912968162,521.2873],[145.80029296875,66.56329987186912,513.5181],[145.78681640625,66.56671784061912,525.4412],[145.7783203125,66.574237371869117,603.139],[145.78164062500002,66.586688543744117,707.5637],[145.82167968750002,66.64374420780662,622.8161],[145.836669921875,66.657586981244123,576.2973],[145.84482421875003,66.66327545780662,582.5353]]}}