{"type":"Feature","properties":{"featurecla":"River","scalerank":8,"rivernum":899,"dissolve":"899River","name":"Dulgalakh2","name_alt":null,"note":null,"min_zoom":7.0,"strokeweig":0.25,"name_en":"Dulgalakh","min_label":8.0},
"geometry":{"type": "LineString","coordinates": [[131.82958984375,66.905780340619117,181.2547],[131.853515625,66.91205475468162,178.2731],[131.8818359375,66.92694733280662,172.8967],[131.90673828125,66.94501373905662,177.8349],[131.9208984375,66.96039459843162,174.036],[131.9287109375,66.98419830936912,168.765],[131.93310546875,67.005633856244117,172.4095],[131.94169921875005,67.02435944218162,164.1093],[131.962158203125,67.03986237186912,165.3617],[132.04677734375002,67.072381903119123,164.3306],[132.0654296875,67.09076569218162,163.4456],[132.064697265625,67.09503815311912,164.417],[132.06162109375003,67.10138580936912,162.3139],[132.060546875,67.10944244999412,158.2423],[132.0654296875,67.11871979374412,154.5],[132.07509765625002,67.123065496869117,156.9438],[132.10068359375003,67.12457916874412,157.5028],[132.10986328125,67.12860748905662,155.1372],[132.121337890625,67.14020416874412,151.6701],[132.1337890625,67.14960358280662,155.0101],[132.148681640625,67.157831121869123,157.2989],[132.16787109375002,67.16583893436912,184.7732],[132.16367187500003,67.17133209843162,164.8436],[132.15878906250003,67.181756903119123,153.6736],[132.154296875,67.18695709843162,154.0102],[132.199462890625,67.21308014530662,152.7926],[132.21015625,67.227313543744117,148.7886],[132.19580078125,67.24774811405662,149.7686],[132.25732421875,67.28998444218162,151.605],[132.28896484375002,67.30597565311912,144.5236],[132.29677734375002,67.315301824994123,144.3972],[132.28457031250002,67.32416412968162,144.1681],[132.30517578125,67.33746979374412,144.4623],[132.37021484375003,67.36359284061912,148.7255],[132.37744140625,67.37567780155662,142.7992],[132.38330078125,67.390643621869117,142.9823],[132.41552734375,67.40387604374412,134.0],[132.475830078125,67.42035553593162,142.6198],[132.49990234375002,67.43463776249412,141.2962],[132.50771484375002,67.433710028119123,142.4084],[132.52080078125005,67.423456121869123,133.5],[132.53623046875003,67.414325262494117,138.5385],[132.55078125,67.41425202030662,196.0078],[132.56396484375,67.420428778119117,191.8865],[132.57568359375,67.430292059369123,197.1238],[132.602294921875,67.47089264530662,133.0],[132.61875,67.48786041874412,140.1508],[132.64423828125,67.49481842655662,144.2815],[132.68994140625,67.49213287968162,139.4559],[132.702880859375,67.49481842655662,131.9645],[132.745361328125,67.512958074994117,140.3944],[132.763671875,67.51593659061912,139.5975],[132.83740234375,67.51312897343162,144.0142],[132.87734375000002,67.51703522343162,139.6762],[132.894775390625,67.532733465619117,138.6135],[132.91220703125003,67.54242584843162,141.4377],[132.952392578125,67.539178778119123,140.5464],[133.07958984375,67.50849030155662,140.0496],[133.10009765625,67.50849030155662,137.8595],[133.138427734375,67.51605866093162,137.6802],[133.15732421875003,67.516376043744117,188.836],[133.17587890625003,67.50849030155662,190.2937],[133.16679687500005,67.50556061405662,139.3577],[133.156494140625,67.500360418744123,138.803],[133.14990234375,67.49335358280662,130.929],[133.1515625,67.48493073124412,140.2373],[133.16464843750003,67.477655340619123,134.4411],[133.21621093750002,67.48114655155662,137.4837]]}}