{"type":"Feature","properties":{"featurecla":"River","scalerank":8,"rivernum":844,"dissolve":"844River","name":"Moma2","name_alt":null,"note":null,"min_zoom":7.0,"strokeweig":0.25,"name_en":"Moma","min_label":8.0},
"geometry":{"type": "LineString","coordinates": [[144.89316406250003,65.98725006718162,419.843],[144.80214843750002,66.02301666874412,496.6018],[144.73974609375,66.03473541874412,444.0253],[144.67529296875,66.063495184369117,403.7728],[144.640625,66.069842840619117,496.869],[144.571533203125,66.05744049686912,388.1039],[144.536376953125,66.05695221561912,391.8373],[144.506591796875,66.073260809369117,416.7921],[144.483642578125,66.08942291874412,407.3712],[144.45449218750002,66.09918854374412,378.928],[144.3056640625,66.12177155155662,338.2985],[144.21826171875,66.12445709843162,330.4142],[144.07822265625003,66.10455963749412,328.0512],[143.99560546875,66.10358307499412,307.5732],[143.951171875,66.109247137494123,298.1384],[143.86181640625,66.136249090619117,294.5721],[143.84824218750003,66.138055731244123,285.9288],[143.833984375,66.14215729374412,286.0806],[143.8251953125,66.151874090619117,296.2927],[143.818603515625,66.16339752811912,316.8548],[143.810791015625,66.172870184369117,294.2173],[143.779296875,66.186786199994117,290.3322],[143.707763671875,66.193719793744123,262.6918],[143.54384765625002,66.255389715619117,238.3983],[143.513671875,66.261249090619117,234.0805],[143.471923828125,66.282733465619117,227.2975],[143.42373046875002,66.289422918744123,224.6492],[143.41025390625003,66.293475653119117,220.0479],[143.401123046875,66.30292389530662,220.6351],[143.39384765625005,66.31427643436912,216.2931],[143.38564453125002,66.323602606244123,216.2151],[143.37783203125002,66.32746002811912,216.7328],[143.359619140625,66.332879949994123,216.0929],[143.35146484375002,66.33722565311912,214.3],[143.34658203125002,66.34235260624412,213.6111],[143.341015625,66.35272858280662,211.2971],[143.337890625,66.35712311405662,212.9269],[143.244873046875,66.40521881718162,205.2648],[143.2490234375,66.419208074994117,198.4957],[143.22890625000002,66.44196198124412,200.319],[143.19921875,66.45197174686912,198.3425],[143.13173828125002,66.45392487186912,188.9781]]}}