{"type":"Feature","properties":{"featurecla":"River","scalerank":7,"rivernum":627,"dissolve":"627River","name":"Anabar1","name_alt":null,"note":null,"min_zoom":6.0,"strokeweig":0.3,"name_en":"Anabar","min_label":7.0},
"geometry":{"type": "LineString","coordinates": [[114.3857421875,71.81610748905662,7.6484],[114.375244140625,71.82477448124412,4.7176],[114.32568359375,71.843524481244117,27.2296],[114.25830078125,71.853290106244117,11.0135],[114.2451171875,71.85101959843162,13.833],[114.234619140625,71.84540436405662,16.3678],[114.224853515625,71.83869049686912,16.259],[114.2138671875,71.83283112186912,16.1766],[114.176513671875,71.82599518436912,14.4574],[114.146240234375,71.834002996869117,4.1799],[114.09033203125,71.87445709843162,10.8754],[114.067138671875,71.89533112186912,8.7236],[114.06142578125002,71.91010162968162,3.4128],[114.06982421875,71.955682684369123,7.4542],[114.06455078125003,71.986346746869117,3.9143],[114.046630859375,72.010272528119117,27.0892],[114.02001953125,72.02582428593162,9.3773],[113.98828125,72.03143952030662,9.0231],[113.971923828125,72.03681061405662,12.5109],[113.96396484375003,72.04852936405662,10.1499],[113.9580078125,72.06024811405662,11.9769],[113.947265625,72.065545965619123,13.5061],[113.92246093750003,72.06879303593162,13.2795],[113.87255859375,72.082879949994123,11.8829],[113.798828125,72.093622137494123,2.4541],[113.69912109375002,72.12689850468162,3.1704],[113.648681640625,72.13446686405662,12.962],[113.636474609375,72.13825104374412,8.9204],[113.62392578125002,72.14777252811912,10.907],[113.61669921875,72.15997955936912,9.0266],[113.62490234375002,72.184198309369123,11.9836],[113.615234375,72.195331121869117,10.6105],[113.59003906250001,72.209588934369123,12.8578],[113.51093750000001,72.22308991093162,0.631],[113.47080078125003,72.234881903119117,51.8278],[113.45351562500002,72.26080963749412,63.4708],[113.45693359375002,72.27814362186912,45.719],[113.46591796875003,72.29157135624412,50.2533],[113.47900390625,72.30255768436912,44.6422],[113.49453125000002,72.312616278119123,2.9995],[113.4716796875,72.33026764530662,10.5414],[113.46923828125,72.34247467655662,46.8316],[113.484375,72.35175202030662,42.3147],[113.638427734375,72.393182684369123,39.7381],[113.690673828125,72.39948151249412,25.2586],[113.75820312500002,72.418231512494117,19.8674],[113.8720703125,72.431903387494117,7.7264],[113.91064453125,72.44367096561912,11.6228],[113.98349609375003,72.47565338749412,65.5173],[114.015625,72.48248932499412,40.844],[114.16162109375,72.48102448124412,4.7396],[114.197265625,72.48737213749412,9.3714],[114.23085937500002,72.50751373905662,8.9259],[114.2353515625,72.541620184369123,34.8615],[114.19091796875,72.56964752811912,54.9632],[114.09033203125,72.60065338749412,77.979]]}}