{"type":"Feature","properties":{"featurecla":"River","scalerank":8,"rivernum":898,"dissolve":"898River","name":"Tyung","name_alt":null,"note":null,"min_zoom":7.0,"strokeweig":0.15,"name_en":"Tyung","min_label":8.0},
"geometry":{"type": "LineString","coordinates": [[114.162353515625,66.935419012494123,391.6104],[114.18017578125,66.92841217655662,393.6852],[114.23085937500002,66.896258856244117,373.8825],[114.25546875000003,66.88703034061912,370.2626],[114.624755859375,66.853534246869117,338.4385]]}}