{"type":"Feature","properties":{"featurecla":"River","scalerank":1,"rivernum":22,"dissolve":"22River","name":"Olenekskaya","name_alt":null,"note":null,"min_zoom":2.0,"strokeweig":1.5,"name_en":"Olenekskaya Protoka","min_label":3.0},
"geometry":{"type": "LineString","coordinates": [[126.689697265625,72.29437897343162,2.9075],[126.63955078125002,72.31220123905662,7.1556],[126.47675781250001,72.35871002811912,7.7275],[126.40292968750003,72.371942449994123,0.4355],[126.34042968750003,72.35639069218162,1.242],[126.2099609375,72.29828522343162,25.7796],[126.1357421875,72.28607819218162,13.8196],[126.06943359375003,72.29340241093162,1.5156],[125.93544921875002,72.342059637494117,0.0718],[125.8720703125,72.35578034061912,19.5105],[125.73652343750001,72.35333893436912,14.4134],[125.66943359375,72.35858795780662,14.1035],[125.60908203125001,72.378778387494123,2.5672],[125.496337890625,72.43817780155662,10.9075],[125.43603515625,72.45856354374412,12.3804],[125.26083984375003,72.485858465619117,2.6079],[125.10908203125001,72.55695221561912,1.8967],[125.059814453125,72.56879303593162,11.003],[124.8671875,72.593524481244117,0.9849],[124.8271484375,72.60443756718162,-2.3394],[124.72216796875,72.657342840619123,-1.9861],[124.6865234375,72.66840241093162,6.0875],[124.642578125,72.667840887494123,7.9614],[124.54160156250003,72.64728424686912,11.7341],[124.49277343750003,72.641961981244123,0.2055],[124.39697265625,72.65289948124412,-1.5421],[124.140380859375,72.73444244999412,1.0361],[123.695068359375,72.80475494999412,19.7625],[123.693603515625,72.800897528119123,4.9179],[123.51962890625003,72.751971746869117,3.7996],[123.341796875,72.755633856244117,-1.2677],[122.732177734375,72.826532293744123,0.0]]}}