{"type":"Feature","properties":{"featurecla":"River","scalerank":1,"rivernum":12,"dissolve":"12River","name":"Lena11","name_alt":null,"note":null,"min_zoom":2.0,"strokeweig":1.5,"name_en":"Lena","min_label":3.0},
"geometry":{"type": "LineString","coordinates": [[124.62158203125,69.336444403119117,24.6443],[124.12753906250003,69.129510809369123,14.0],[124.10107421875,69.11286041874412,29.1982],[124.080322265625,69.09308502811912,28.5045],[124.048095703125,69.046747137494123,27.0504],[124.0302734375,69.026971746869123,24.193],[123.9921875,68.99738190311912,26.7307],[123.98193359375,68.97394440311912,14.0],[123.97675781250001,68.88873932499412,14.0],[123.960693359375,68.83881256718162,14.0],[123.9599609375,68.808856512494117,14.0],[123.96992187500001,68.73505280155662,14.0],[123.964111328125,68.713641668744117,14.0],[123.951416015625,68.691669012494117,14.0],[123.932373046875,68.66937897343162,14.0],[123.915283203125,68.64398834843162,14.0],[123.89580078124999,68.563495184369117,14.0],[123.81640625,68.39459869999412,30.243],[123.78896484375002,68.35736725468162,15.3125],[123.72011718750002,68.297967840619123,30.4504],[123.697021484375,68.27216217655662,25.1667],[123.670654296875,68.229120184369123,19.6428],[123.64697265625,68.21332428593162,23.0858],[123.29501953125003,68.11212799686912,30.0042],[123.249267578125,68.07941315311912,24.169],[123.197021484375,68.051044012494117,20.5],[123.18408203125,68.03375885624412,21.0],[123.14423828125001,67.94110748905662,22.0],[123.111328125,67.82526276249412,22.0],[123.105712890625,67.73578522343162,22.0],[123.09804687500002,67.709344793744123,22.0],[123.021875,67.58685944218162,22.0],[123.0107421875,67.56354401249412,22.0],[123.00253906250003,67.53681061405662,22.0],[123.004638671875,67.51203034061912,22.0],[123.02509765625001,67.49420807499412,22.0],[123.05712890625,67.477167059369123,22.0],[123.08642578125,67.452411199994117,22.0],[123.11083984375,67.42206452030662,22.0],[123.154296875,67.329950262494123,22.0],[123.17343750000003,67.304950262494117,22.0],[123.30322265625,67.18964264530662,33.3579],[123.3466796875,67.127557684369123,23.6927],[123.424072265625,66.98065827030662,25.6715],[123.430908203125,66.95087311405662,31.9961],[123.41767578125001,66.86798737186912,27.4857],[123.41835937500002,66.84454987186912,26.27],[123.42763671875002,66.82721588749412,31.6212],[123.51132812500003,66.727899481244123,34.4077],[123.52509765625001,66.69977448124412,26.6449],[123.551513671875,66.60700104374412,30.5394],[123.569580078125,66.58588287968162,27.5625],[123.59873046875003,66.56732819218162,33.0042],[123.66064453125,66.537469793744123,32.0],[123.670654296875,66.53131744999412,32.0],[123.67988281250001,66.52326080936912,32.0],[123.696875,66.50263092655662,31.1437]]}}