{"type":"Feature","properties":{"featurecla":"River","scalerank":4,"rivernum":102,"dissolve":"102River","name":"Aldan","name_alt":null,"note":null,"min_zoom":4.0,"strokeweig":0.15,"name_en":"Aldan","min_label":5.0},
"geometry":{"type": "LineString","coordinates": [[123.566162109375,56.527704168744116,1394.7302],[123.53066406250002,56.524286199994116,1218.6392],[123.51357421875002,56.525262762494116,1199.7693],[123.496337890625,56.530633856244116,1364.6194],[123.462890625,56.54523346561912,1358.3857],[123.445556640625,56.54987213749412,1261.2589],[123.22910156250003,56.555536199994116,1008.7819],[123.20468750000003,56.56098053593162,1007.0399]]}}