{"type":"Feature","properties":{"featurecla":"River","scalerank":9,"rivernum":1109,"dissolve":"1109River","name":"Markha3","name_alt":null,"note":null,"min_zoom":7.1,"strokeweig":0.3,"name_en":"Markha","min_label":8.1},
"geometry":{"type": "LineString","coordinates": [[117.81201171875,63.677606512494123,132.4617],[118.02333984375002,63.679217840619117,125.2154],[118.06669921874999,63.686297918744117,121.2686],[118.10390625000002,63.701922918744117,115.3146],[118.1337890625,63.75971100468162,128.2725],[118.16455078125,63.773553778119123,128.3121],[118.1953125,63.772333074994123,128.5459],[118.22695312500002,63.736444403119123,120.3692],[118.26845703125002,63.72833893436912,122.9978],[118.353271484375,63.72601959843162,133.2371],[118.34726562500003,63.704852606244117,101.1124],[118.351318359375,63.69110748905662,118.7498],[118.34921875000003,63.679461981244117,103.9769],[118.32529296875003,63.664569403119117,120.3922],[118.23125,63.63056061405662,111.8868],[118.20576171875001,63.61334869999412,120.7564],[118.211669921875,63.59686920780662,130.718],[118.245361328125,63.580194403119123,128.5],[118.28583984375001,63.56732819218162,139.3147],[118.312255859375,63.56220123905662,139.7684],[118.34033203125,63.567254949994123,132.4943],[118.37548828125,63.58014557499412,118.2144],[118.40869140625,63.59686920780662,116.7406],[118.43173828125003,63.61334869999412,121.6288],[118.458984375,63.62579987186912,116.8849],[118.49619140625003,63.62738678593162,117.834],[118.58193359375002,63.61139557499412,120.3446],[118.61669921875,63.61176178593162,122.7993],[118.6337890625,63.60993073124412,117.654],[118.68398437500002,63.593280340619117,110.67529999999999],[118.70205078125002,63.58942291874412,109.9334],[118.7734375,63.585711981244117,118.7518],[118.810302734375,63.57538483280662,115.2242],[118.826171875,63.55158112186912,114.6491],[118.83261718750003,63.536004949994123,111.1699],[118.880859375,63.485858465619117,106.4396]]}}