{"type":"Feature","properties":{"featurecla":"River","scalerank":8,"rivernum":899,"dissolve":"899River","name":"Dulgalakh1","name_alt":null,"note":null,"min_zoom":7.0,"strokeweig":0.2,"name_en":"Dulgalakh","min_label":8.0},
"geometry":{"type": "LineString","coordinates": [[130.59873046875003,64.98041412968162,895.0159],[130.6494140625,64.989618231244123,732.7839],[130.68994140625,65.01227448124412,731.0],[130.750244140625,65.03327057499412,748.7021],[130.7763671875,65.049335028119117,746.3661],[130.787841796875,65.06671784061912,706.8242],[130.79843750000003,65.08917877811912,699.2503],[130.81191406250002,65.10871002811912,696.5844],[130.83154296875,65.11701080936912,690.0504],[130.86083984375,65.12116119999412,683.7488],[130.9287109375,65.145379949994123,667.205],[131.003662109375,65.190057684369123,650.2197],[131.03085937500003,65.20172760624412,635.5839],[131.06113281250003,65.20636627811912,631.5136],[131.084375,65.21442291874412,613.2565],[131.1017578125,65.23358795780662,608.3186],[131.126953125,65.27521393436912,621.6835],[131.14580078125005,65.294940496869117,595.8708],[131.1701171875,65.312518621869117,605.1279],[131.19775390625,65.325067449994123,654.7714],[131.2578125,65.33454010624412,567.4427],[131.28564453125,65.34638092655662,559.6029],[131.338623046875,65.37763092655662,544.0795],[131.41855468750003,65.41181061405662,522.5283],[131.66181640625,65.56647369999412,459.4743],[131.671630859375,65.570672918744123,458.7823],[131.67861328125002,65.57770416874412,455.9702],[131.688720703125,65.63837311405662,440.8713],[131.697265625,65.649188543744117,438.1683],[131.7158203125,65.668085028119123,435.556],[131.72294921875005,65.679315496869123,427.0899],[131.72519531250003,65.69074127811912,423.8596],[131.72519531250003,65.702264715619123,421.1182],[131.72646484375002,65.713495184369123,417.9874],[131.74179687500003,65.74188873905662,412.0612],[131.745361328125,65.765643621869117,407.0992],[131.74521484375003,65.78815338749412,405.43],[131.74326171875003,65.802264715619117,399.6367],[131.73398437500003,65.820086981244117,393.4541],[131.69492187500003,65.85687897343162,388.7008],[131.690673828125,65.86810944218162,384.4105],[131.686279296875,65.89801666874412,375.2766],[131.68125,65.912127996869117,374.0536],[131.65634765625003,65.939715887494117,367.0114],[131.59736328125,65.975604559369117,360.8303],[131.578857421875,66.001483465619117,355.9198],[131.57958984375,66.01569244999412,476.4466],[131.56552734375003,66.023211981244117,598.6741],[131.53037109375003,66.029413153119123,358.0608],[131.47216796875,66.05609772343162,345.8001],[131.45761718750003,66.059198309369123,347.2111],[131.45263671875,66.067010809369123,353.9228],[131.450439453125,66.077020574994123,349.2756],[131.44482421875,66.086786199994123,438.0719],[131.43359375,66.095086981244123,342.5346],[131.411376953125,66.10822174686912,339.2222],[131.400634765625,66.11749909061912,345.2475],[131.39501953125,66.12628815311912,351.0556],[131.390869140625,66.14313385624412,334.6225],[131.386474609375,66.15228912968162,330.0734],[131.35732421875002,66.17145416874412,325.8918],[131.352294921875,66.176141668744123,321.1111],[131.35214843750003,66.199823309369123,315.9776],[131.35429687500005,66.21576569218162,308.0],[131.3623046875,66.22992584843162,304.0],[131.379638671875,66.24848053593162,298.5],[131.45205078125002,66.30304596561912,290.7853],[131.462158203125,66.320184637494123,281.0],[131.47011718750002,66.342547918744117,279.0919],[131.489013671875,66.366571356244123,274.3418],[131.51171875,66.387225653119117,272.7136],[131.53037109375003,66.399286199994123,272.0556],[131.544677734375,66.403827215619117,268.3955],[131.59248046875,66.412372137494117,259.2948],[131.642333984375,66.43024323124412,254.8026],[131.671875,66.436151434369123,261.8384],[131.70009765625002,66.45062897343162,250.7237],[131.73203125000003,66.45612213749412,253.0332],[131.77099609375,66.468133856244123,244.122],[131.78427734375003,66.47443268436912,240.0],[131.79257812500003,66.48102448124412,330.3511],[131.812255859375,66.501092840619123,237.2495],[131.80361328125002,66.52655670780662,245.488],[131.81357421875003,66.566913153119117,226.3654],[131.80478515625003,66.59113190311912,221.1725],[131.81904296875,66.60907623905662,217.794],[131.8125,66.628436590619117,221.4874],[131.79873046875002,66.64862702030662,215.8405],[131.79111328125003,66.669305731244123,213.9747],[131.787353515625,66.690692449994117,215.08],[131.77724609375002,66.70917389530662,275.2551],[131.761962890625,66.724237371869123,274.7716],[131.74326171875003,66.735126043744117,253.4965],[131.677001953125,66.749774481244117,229.4312],[131.641796875,66.76337311405662,197.1288],[131.62656250000003,66.786004949994123,195.3685],[131.638916015625,66.81171295780662,188.5],[131.66767578125,66.82807037968162,189.5702],[131.72900390625,66.844989324994117,189.8762],[131.7529296875,66.858417059369117,186.5333],[131.80576171875003,66.897577215619123,179.2405],[131.82958984375,66.905780340619117,181.2547]]}}