{"type":"Feature","properties":{"featurecla":"River","scalerank":8,"rivernum":898,"dissolve":"898River","name":"Tyung1","name_alt":null,"note":null,"min_zoom":7.0,"strokeweig":0.2,"name_en":"Tyung","min_label":8.0},
"geometry":{"type": "LineString","coordinates": [[114.624755859375,66.853534246869117,338.4385],[115.0,66.84882233280662,319.0404],[115.076171875,66.827264715619123,314.5852],[115.091552734375,66.825555731244123,333.5557],[115.1025390625,66.82257721561912,357.59],[115.13925781250003,66.79889557499412,310.7081],[115.240234375,66.77496979374412,350.4942],[115.2900390625,66.74567291874412,348.362],[115.322021484375,66.73505280155662,340.6352],[115.42138671875,66.715350653119117,315.2364],[115.52294921875,66.67816803593162,328.4318],[115.57773437500003,66.649042059369123,285.7463],[115.605712890625,66.63886139530662,287.5923],[115.6962890625,66.62763092655662,328.6435],[115.714111328125,66.620721746869123,298.2605],[115.75009765625003,66.60175202030662,283.1955],[115.768310546875,66.59528229374412,277.6712],[115.82460937500002,66.58856842655662,311.5911],[115.84248046875001,66.58331940311912,295.9818],[115.87353515625,66.566278387494123,272.0659],[115.89462890625003,66.565790106244123,269.5385],[115.933837890625,66.57294342655662,322.9641],[116.039794921875,66.57074616093162,303.0624],[116.08447265625,66.56098053593162,270.6682],[116.10507812500003,66.55866119999412,266.0179],[116.140869140625,66.56195709843162,260.4073],[116.264404296875,66.58991119999412,314.746],[116.30839843749999,66.59357330936912,275.9188],[116.40478515625,66.58441803593162,261.7682],[116.42783203125003,66.589715887494123,278.7613],[116.453125,66.598749090619123,288.5264],[116.560791015625,66.607538153119123,247.5366],[116.62353515625,66.604999090619117,246.7869],[116.65322265625002,66.60712311405662,250.0802],[116.64150390625002,66.62457916874412,244.4741],[116.65273437500002,66.63141510624412,319.4775],[116.6748046875,66.63117096561912,322.6335],[116.73759765624999,66.61591217655662,251.3671],[116.75849609375001,66.613299871869117,243.069],[116.961669921875,66.613885809369123,246.135],[116.98193359375,66.61823151249412,238.043],[117.01123046875,66.63483307499412,275.3436],[117.030517578125,66.641229559369123,267.0587],[117.08837890625,66.644647528119123,253.8495],[117.14658203125003,66.641229559369123,235.3718],[117.16982421875002,66.637225653119117,224.5579],[117.18740234375002,66.632098699994117,227.4914],[117.201904296875,66.62970612186912,240.6859],[117.215576171875,66.633807684369117,230.6868],[117.22412109375,66.65448639530662,230.2818],[117.229736328125,66.66107819218162,249.7108],[117.239013671875,66.66486237186912,290.8503],[117.249755859375,66.66583893436912,282.9606],[117.260498046875,66.66437409061912,272.8698],[117.27001953125,66.66107819218162,254.8498],[117.26455078125002,66.64862702030662,228.4452],[117.26718750000003,66.63764069218162,223.3873],[117.27646484375003,66.63007233280662,231.8094],[117.290625,66.627557684369123,232.343],[117.30615234375,66.63446686405662,231.2972],[117.32705078125002,66.66229889530662,237.1337],[117.33896484375003,66.66852448124412,269.0315],[117.4599609375,66.630731512494123,227.1493],[117.482421875,66.641229559369123,295.3175],[117.478271484375,66.65436432499412,270.7283],[117.46484375,66.659930731244117,244.3443],[117.45,66.66303131718162,217.4672],[117.44140625,66.66852448124412,214.5572],[117.44345703125003,66.683710028119123,291.6917],[117.4580078125,66.68939850468162,303.3195],[117.50917968750002,66.687518621869117,293.75],[117.52294921875,66.682977606244123,291.5424],[117.53554687500002,66.67548248905662,284.0697],[117.54755859375001,66.664813543744117,234.0523],[117.56298828125,66.65424225468162,224.3799],[117.58056640625,66.64935944218162,216.91309999999999],[117.694580078125,66.642352606244117,259.2307],[117.767333984375,66.624139715619123,221.7559]]}}