{"type":"Feature","properties":{"featurecla":"River","scalerank":4,"rivernum":102,"dissolve":"102River","name":"Aldan4","name_alt":null,"note":null,"min_zoom":4.0,"strokeweig":0.3,"name_en":"Aldan","min_label":5.0},
"geometry":{"type": "LineString","coordinates": [[134.5537109375,60.44379303593162,158.7294],[134.62021484375003,60.46942780155662,174.9267],[134.63720703125,60.473504949994123,176.9563],[134.654541015625,60.47577545780662,174.1215],[134.6798828125,60.475458074994123,161.2182],[134.75527343750002,60.46527741093162,162.3441],[134.77988281250003,60.45929596561912,156.6255],[134.89394531250002,60.392206121869123,149.0],[134.91679687500005,60.384637762494123,149.0],[134.92822265625,60.38239166874412,149.0],[134.95126953125003,60.37348053593162,198.7084],[134.99765625000003,60.361102606244117,170.3451],[135.037841796875,60.356317449994123,163.3562],[135.066162109375,60.356708074994117,161.3817],[135.091552734375,60.36420319218162,163.4556],[135.108642578125,60.38300202030662,148.5],[135.12255859375,60.418719793744117,159.3798],[135.14345703125002,60.452752996869123,161.8549],[135.14541015625002,60.46527741093162,147.0],[135.143310546875,60.473749090619123,147.0],[135.130078125,60.49933502811912,159.4866],[135.114013671875,60.519647528119123,147.0],[135.09287109375003,60.53571198124412,160.5275],[134.99843750000002,60.58038971561912,164.3353],[134.98046875,60.58490631718162,160.6018],[134.96142578125,60.58685944218162,147.0],[134.943359375,60.590936590619123,147.0],[134.927978515625,60.60175202030662,232.591],[134.92226562500002,60.610223699994123,221.0693],[134.91787109375002,60.61994049686912,265.007],[134.9150390625,60.630243231244123,146.0],[134.91357421875,60.64044830936912,145.5],[134.9142578125,60.68537018436912,231.7002],[134.91513671875003,60.69232819218162,184.3886],[134.91738281250002,60.69977448124412,205.6818],[134.923095703125,60.71246979374412,204.7669],[134.93076171875003,60.72345612186912,186.512],[134.94091796875,60.73187897343162,154.368],[134.953857421875,60.73688385624412,153.0301],[135.021484375,60.74933502811912,156.5697],[135.08154296875,60.76752350468162,151.4886],[135.102294921875,60.77863190311912,160.7375],[135.12119140625003,60.79254791874412,162.8539],[135.16679687500005,60.84149811405662,158.4529],[135.173828125,60.846795965619123,151.326],[135.18369140625003,60.85089752811912,151.734],[135.20810546875003,60.85602448124412,158.3094],[135.251220703125,60.85883209843162,157.5854],[135.2716796875,60.86261627811912,150.6566],[135.291259765625,60.86896393436912,162.7155],[135.307373046875,60.87763092655662,155.9911],[135.338134765625,60.90582916874412,143.2821],[135.34248046875,60.910907293744117,159.6156],[135.34521484375,60.91669342655662,142.2095],[135.34628906250003,60.924823309369117,147.3884],[135.34628906250003,60.95392487186912,139.8384],[135.34873046875003,60.96173737186912,145.7755],[135.35908203125,60.984002996869123,159.8727],[135.3740234375,61.00006744999412,150.3861],[135.42617187500002,61.03705475468162,152.4474],[135.43896484375,61.05145905155662,150.5482],[135.44775390625,61.072284246869117,153.6001],[135.45361328125,61.09235260624412,229.6909],[135.4580078125,61.10162994999412,207.5387],[135.46435546875,61.11005280155662,216.9586],[135.4794921875,61.12140534061912,213.1358],[135.51406250000002,61.139422918744117,139.886],[135.52734375,61.152362371869117,140.9272],[135.529296875,61.159784246869123,137.2031],[135.52783203125,61.16889069218162,137.1354],[135.52109375000003,61.185663153119123,137.1649],[135.51611328125,61.19367096561912,137.9053],[135.45449218750002,61.25238678593162,148.4146],[135.44472656250002,61.26776764530662,150.0295],[135.440673828125,61.29047272343162,236.612],[135.45009765625002,61.306903387494117,219.7634],[135.50751953125,61.34259674686912,189.8297],[135.52197265625,61.35944244999412,152.2669],[135.52509765625,61.378778387494123,134.4692],[135.51132812500003,61.399286199994123,163.2678],[135.501708984375,61.40558502811912,157.5],[135.49072265625,61.40949127811912,196.9924],[135.47900390625,61.411493231244123,192.0835],[135.35986328125,61.41498444218162,138.1686],[135.34609375000002,61.41754791874412,152.135],[135.33681640625002,61.424579168744117,135.2914],[135.336181640625,61.438983465619117,133.5924],[135.34912109375,61.48383209843162,151.6707],[135.357177734375,61.49579498905662,144.67],[135.36708984375002,61.50360748905662,136.3295],[135.37841796875,61.509295965619117,133.6854],[135.41064453125,61.51715729374412,133.4422],[135.43935546875002,61.532098699994123,254.359],[135.48349609375003,61.54071686405662,174.7715],[135.49814453125003,61.545428778119117,152.5397],[135.51171875,61.55243561405662,149.6742],[135.52294921875,61.56256744999412,144.642],[135.52744140625003,61.569110418744117,144.0663],[135.53017578125002,61.57587311405662,143.9262],[135.53564453125,61.59503815311912,133.6702],[135.5419921875,61.608417059369117,133.29],[135.542236328125,61.62079498905662,138.9329],[135.53671875000003,61.63165924686912,148.7238],[135.52714843750005,61.63934967655662,141.4187],[135.514892578125,61.64215729374412,141.6414],[135.48398437500003,61.637225653119117,146.1421],[135.42177734375002,61.63703034061912,145.4661],[135.35302734375,61.62921784061912,144.6675],[135.33154296875,61.63373444218162,140.9856],[135.3154296875,61.645624090619123,144.5881],[135.29072265625,61.67719147343162,162.1803],[135.27382812500002,61.68829987186912,162.229],[135.22470703125003,61.69965241093162,133.6851],[135.20166015625,61.708368231244123,137.4109],[135.18310546875,61.725604559369117,138.5716],[135.17636718750003,61.746112371869117,309.368],[135.18417968750003,61.76141998905662,241.1925],[135.20087890625,61.772088934369123,178.8282],[135.220703125,61.77863190311912,255.9072],[135.26865234375003,61.787127996869117,192.2985],[135.293212890625,61.78851959843162,180.8614],[135.38906250000002,61.781854559369123,144.6969],[135.48691406250003,61.79108307499412,139.5563],[135.51025390625,61.797967840619123,127.0017],[135.52480468750002,61.80560944218162,126.317],[135.53564453125,61.81622955936912,126.1522],[135.54179687500005,61.82977936405662,125.0953],[135.541259765625,61.84589264530662,177.4054],[135.537109375,61.85553619999412,239.2467],[135.517822265625,61.87689850468162,125.1509],[135.512939453125,61.89057037968162,125.117],[135.51318359375,61.905536199994117,125.0645],[135.517578125,61.920282293744123,138.5262],[135.52412109375,61.93317291874412,139.716],[135.5439453125,61.954706121869123,130.3381],[135.56923828125002,61.970721746869117,128.7627],[135.65078125000002,62.01068756718162,173.7703],[135.74365234375,62.04352448124412,136.1677],[135.75283203125002,62.04852936405662,125.7678],[135.76064453125002,62.055194403119117,212.7115],[135.76435546875,62.06342194218162,123.5026],[135.76123046875,62.07318756718162,127.3565],[135.75068359375,62.082049871869117,139.7227],[135.7365234375,62.088006903119123,137.0308],[135.7080078125,62.09601471561912,136.2987],[135.68154296875002,62.10993073124412,135.8209],[135.66357421875,62.13080475468162,134.8058],[135.65537109375003,62.15717194218162,121.4787],[135.65878906250003,62.187518621869117,151.482],[135.67509765625005,62.208368231244123,150.8916],[135.701171875,62.21442291874412,141.1784],[135.7578125,62.21124909061912,133.9639],[135.79091796875002,62.21539948124412,137.1475],[135.82080078125,62.22589752811912,133.4158],[135.84755859375002,62.242792059369123,132.0367],[135.87109375,62.26642487186912,120.0573],[135.87763671875,62.27545807499412,132.963],[135.88193359375003,62.28485748905662,133.7189],[135.88173828125002,62.294061590619123,133.1498],[135.87460937500003,62.302508856244117,131.0211],[135.87060546875,62.304559637494123,133.8559],[135.862060546875,62.30768463749412,131.8104],[135.8583984375,62.30975983280662,130.6015],[135.85458984375003,62.31439850468162,135.9206],[135.84951171875002,62.32575104374412,119.9012],[135.84609375000002,62.33087799686912,119.0409],[135.8234375,62.350458074994123,125.3793],[135.810791015625,62.35895416874412,125.2583],[135.79726562500002,62.36591217655662,129.7731],[135.782958984375,62.37116119999412,131.8559],[135.72177734375003,62.38580963749412,129.525],[135.70751953125,62.39264557499412,129.7976],[135.698974609375,62.39874909061912,131.2031],[135.69140625,62.406024481244117,128.7509],[135.6708984375,62.43414948124412,127.5731],[135.65595703125,62.447626043744123,116.6456],[135.65292968750003,62.45197174686912,116.4591],[135.63339843750003,62.49103424686912,128.1099],[135.63125,62.51019928593162,127.3258],[135.62919921875005,62.51923248905662,127.1186],[135.62353515625,62.529315496869117,122.6801],[135.54746093750003,62.599872137494117,122.4813],[135.540283203125,62.610370184369117,111.1294],[135.5375,62.624286199994117,125.6237],[135.54306640625003,62.65192291874412,110.9123],[135.54150390625,62.66535065311912,126.4455],[135.53164062500002,62.67548248905662,142.7832],[135.51601562500002,62.680682684369117,136.4747],[135.36142578125003,62.680438543744117,120.5192],[135.34609375000002,62.67438385624412,120.3781],[135.336181640625,62.66559479374412,117.8382],[135.32080078125,62.64411041874412,120.3372],[135.3115234375,62.634540106244117,118.3781],[135.28476562500003,62.618524481244123,113.2561],[135.25068359375,62.60639069218162,121.6205],[135.2158203125,62.602313543744117,115.0303],[135.18613281250003,62.610467840619123,113.3654],[135.15341796875003,62.64313385624412,116.7599],[135.13916015625,62.64996979374412,115.4266],[135.1232421875,62.65045807499412,114.658],[135.091796875,62.642840887494117,115.2612],[135.075439453125,62.641864324994117,115.856],[135.02685546875,62.65180084843162,118.8873],[135.009521484375,62.65009186405662,111.0519],[134.9560546875,62.63373444218162,113.1705],[134.9375,62.63092682499412,114.0317],[134.921630859375,62.631708074994123,101.1079],[134.85986328125,62.65058014530662,111.7954],[134.79179687500005,62.66205475468162,105.4595],[134.75849609375,62.67511627811912,101.0207],[134.70166015625,62.714618231244117,111.3063],[134.68603515625,62.72174713749412,113.6588],[134.65517578125002,62.72833893436912,113.1705],[134.59375,62.730340887494123,108.0363],[134.580078125,62.73395416874412,107.2161],[134.56904296875,62.74371979374412,98.0],[134.556396484375,62.765497137494123,97.5],[134.549072265625,62.77423737186912,113.9993],[134.53701171875002,62.78119537968162,107.0756],[134.47509765625,62.79975006718162,96.4307],[134.47470703125003,62.80084869999412,96.3734],[134.474609375,62.80194733280662,96.6386],[134.474609375,62.80316803593162,96.8061],[134.474853515625,62.80426666874412,97.7032],[134.45498046875002,62.80182526249412,109.0244],[134.32656250000002,62.82245514530662,107.4641],[134.314453125,62.826776434369123,105.6749],[134.30332031250003,62.83307526249412,98.5412],[134.27451171875003,62.85944244999412,103.6236],[134.2626953125,62.86701080936912,104.8794],[134.23447265625003,62.87848541874412,111.1111],[134.220703125,62.881952215619123,102.0854],[134.18808593750003,62.88275787968162,93.5],[134.17880859375003,62.885370184369123,93.5],[134.17333984375,62.89789459843162,93.0],[134.18320312500003,62.91486237186912,92.5],[134.2099609375,62.944110418744117,92.0],[134.21464843750005,62.95307037968162,106.013],[134.21728515625,62.96332428593162,91.5],[134.21630859375,62.97321198124412,91.5],[134.21054687500003,62.98163483280662,111.1883],[134.19960937500002,62.987079168744117,107.9595],[134.1865234375,62.989374090619123,100.2353],[134.109375,62.99359772343162,103.6386],[134.05849609375002,62.990741278119117,105.1893],[134.023193359375,62.98432037968162,106.8524],[134.01171875,62.984149481244117,104.1003],[134.00429687500002,62.98566315311912,104.0985],[133.99423828125003,62.989032293744117,97.8469],[133.98486328125,62.99359772343162,90.0],[133.97939453125002,62.99872467655662,90.0],[133.97890625000002,63.00470612186912,104.8898],[133.980712890625,63.01019928593162,94.7837],[133.98134765625002,63.015741278119123,90.0],[133.9767578125,63.02216217655662,91.502],[133.96591796875003,63.027850653119117,102.4755],[133.951416015625,63.03278229374412,100.3901],[133.93896484375,63.039081121869117,90.0],[133.93359375,63.048456121869123,111.7588],[133.93935546875002,63.062860418744123,103.4383],[133.95263671875,63.07587311405662,106.0215],[133.98046875,63.09784577030662,103.4023],[134.0009765625,63.11884186405662,104.797],[134.00830078125,63.131366278119117,90.0],[134.00771484375002,63.14398834843162,124.7226],[134.00263671875,63.145135809369123,140.9203],[133.992919921875,63.149432684369117,157.9125],[133.98398437500003,63.152362371869117,172.7952],[133.87753906250003,63.16925690311912,174.1937],[133.6943359375,63.152460028119123,154.4075],[133.42333984375,63.05853912968162,87.0],[133.40009765625,63.053973699994117,101.6073],[133.37656250000003,63.05231354374412,96.2627],[133.2822265625,63.064227606244117,86.5],[133.259765625,63.070086981244117,94.387],[133.241943359375,63.07782623905662,86.5],[133.22714843750003,63.08820221561912,86.5],[133.19931640625003,63.11286041874412,96.4547],[133.18251953125002,63.123065496869117,98.9624],[133.12744140625,63.142108465619117,85.5],[133.115234375,63.15668366093162,98.2411],[133.12255859375,63.17145416874412,132.6588],[133.14003906250002,63.18329498905662,135.2413],[133.17861328125002,63.19403717655662,98.6682],[133.198974609375,63.202997137494123,85.0],[133.2177734375,63.215350653119117,84.5],[133.233154296875,63.230096746869123,83.0],[133.23984375000003,63.23920319218162,82.5],[133.24462890625,63.249139715619123,81.5],[133.24677734375,63.259881903119123,80.5],[133.24560546875,63.271112371869123,98.4217],[133.23876953125,63.28314850468162,98.1802],[133.22802734375,63.29022858280662,98.4346],[133.2158203125,63.29559967655662,78.0],[133.20468750000003,63.30255768436912,78.0],[133.19970703125,63.315936590619117,126.5172],[133.20712890625003,63.329950262494123,120.6517],[133.24589843750005,63.36322662968162,102.8536],[133.247314453125,63.36762116093162,93.5117],[133.2451171875,63.370477606244123,77.5],[133.24072265625,63.37348053593162,77.5],[133.2314453125,63.377948309369117,77.5],[133.226318359375,63.37958405155662,77.5],[132.978515625,63.391961981244123,101.57],[132.6796875,63.35895416874412,93.5477],[132.599853515625,63.33905670780662,90.7395],[132.57177734375,63.340594793744117,98.4916],[132.557373046875,63.34296295780662,88.279],[132.4404296875,63.342157293744123,108.6451],[132.26279296875003,63.29169342655662,112.3089],[132.21689453125003,63.28656647343162,94.4806],[132.03369140625,63.30329010624412,93.7163],[131.83076171875,63.35773346561912,91.1319],[131.78369140625,63.36493561405662,87.2954],[131.66884765625002,63.36676666874412,90.6987],[131.533935546875,63.385272528119117,74.0],[131.53769531250003,63.385272528119117,74.0],[131.41943359375,63.41376373905662,87.5247],[131.30810546875,63.39874909061912,74.0],[131.20156250000002,63.35321686405662,113.8753],[131.1337890625,63.31000397343162,108.6661],[131.11318359375002,63.303094793744123,98.2092],[130.94033203125002,63.290790106244117,87.6238],[130.83457031250003,63.299432684369123,88.912],[130.73876953125,63.321893621869123,71.812],[130.68857421875003,63.34100983280662,71.6676]]}}