{"type":"Feature","properties":{"featurecla":"River","scalerank":8,"rivernum":910,"dissolve":"910River","name":"Udzha1","name_alt":null,"note":null,"min_zoom":7.0,"strokeweig":0.25,"name_en":"Udzha","min_label":8.0},
"geometry":{"type": "LineString","coordinates": [[116.44091796875,71.42877838749412,38.0208],[116.41513671875003,71.417108465619123,37.3821],[116.391357421875,71.410760809369123,44.1986],[116.36669921875,71.41156647343162,51.6552],[116.33837890625,71.42133209843162,37.268],[116.34238281250003,71.426776434369117,31.634],[116.34736328125001,71.437127996869123,36.8583],[116.35146484375002,71.442401434369117,36.9505],[116.3291015625,71.44745514530662,36.8331],[116.28281250000003,71.44806549686912,34.4551],[116.26328125000003,71.456073309369117,33.7144],[116.26923828125001,71.45892975468162,33.9891],[116.283203125,71.469745184369117,34.8466],[116.2255859375,71.490594793744123,57.9921],[116.09951171875002,71.51093170780662,64.7686],[116.006591796875,71.51203034061912,60.1298],[115.97939453125002,71.508319403119117,67.2586],[115.95332031250001,71.50092194218162,67.333],[115.901123046875,71.479120184369123,32.076],[115.8759765625,71.47662994999412,29.9486],[115.82460937500002,71.478876043744123,31.2403],[115.727783203125,71.49518463749412,72.5718],[115.69570312500002,71.490594793744123,77.8497],[115.667724609375,71.48285553593162,73.2537],[115.60761718750001,71.477655340619123,29.8253],[115.54990234375003,71.48212311405662,27.296],[115.46826171875,71.49933502811912,30.0244],[115.43798828125,71.50067780155662,25.8174],[115.4033203125,71.49835846561912,26.5715],[115.37021484375003,71.49994537968162,24.7515],[115.3447265625,71.51300690311912,23.097],[115.38623046875,71.52045319218162,25.5766],[115.400634765625,71.51984284061912,37.5158],[115.375244140625,71.54181549686912,85.2197],[115.29335937500002,71.54218170780662,23.7972],[115.27587890625,71.564813543744123,73.6663],[115.25693359375003,71.57733795780662,95.2309],[115.165283203125,71.564960028119117,22.1708],[115.1318359375,71.56830475468162,20.953],[115.14384765624999,71.59027741093162,54.608],[115.12744140625,71.60553619999412,21.7006],[115.09814453125,71.61420319218162,79.0285],[115.07099609375001,71.61603424686912,65.0338],[115.05126953125,71.61163971561912,67.8571],[115.03076171875,71.60443756718162,76.68],[115.009521484375,71.599627996869117,21.2043],[114.98847656250001,71.60236237186912,20.9931],[114.976318359375,71.61090729374412,16.4503],[114.95751953125,71.63178131718162,44.5676],[114.94404296875001,71.635858465619123,24.3138],[114.86123046875002,71.635858465619123,46.524],[114.84951171875002,71.63947174686912,52.7634],[114.817138671875,71.663836981244117,79.9063],[114.78330078125003,71.67377350468162,30.3923],[114.71279296875002,71.68244049686912,77.9894],[114.67929687500003,71.69110748905662,32.0421],[114.66064453125,71.701288153119123,17.4939],[114.614501953125,71.74262116093162,19.4454],[114.592041015625,71.756952215619123,16.5375],[114.56289062500002,71.767938543744123,14.5299],[114.50185546875002,71.780536199994117,39.7311],[114.480712890625,71.77899811405662,35.4616],[114.377197265625,71.743036199994123,20.2529],[114.35781250000002,71.73920319218162,33.0369],[114.34072265625002,71.74713776249412,41.32],[114.30927734375001,71.76618073124412,9.2602],[114.27138671875002,71.77094147343162,15.562],[114.2314453125,71.77167389530662,24.4488],[114.20126953125003,71.77667877811912,71.5938]]}}