{"type":"Feature","properties":{"featurecla":"River","scalerank":1,"rivernum":12,"dissolve":"12River","name":"Lena6","name_alt":null,"note":null,"min_zoom":2.0,"strokeweig":0.45,"name_en":"Lena","min_label":3.0},
"geometry":{"type": "LineString","coordinates": [[124.994873046875,60.75763580936912,107.0],[124.8955078125,60.70465729374412,103.0204],[124.85878906250002,60.69415924686912,102.9402],[124.3447265625,60.668719793744117,279.1548],[124.310791015625,60.65912506718162,280.2968],[124.25390625,60.62335846561912,109.0],[124.10292968750002,60.57953522343162,109.0],[124.0810546875,60.57623932499412,109.0],[124.06015625000003,60.57697174686912,109.0],[123.9970703125,60.58649323124412,143.8517],[123.89794921875,60.587909246869117,147.0241],[123.80078125,60.60407135624412,198.5148],[122.443115234375,60.563251043744117,162.9034],[122.21337890625,60.593377996869123,309.491],[121.76767578125003,60.575067449994123,149.0524],[121.72910156250003,60.57807037968162,153.0956],[121.688232421875,60.58734772343162,149.4015],[121.50507812500001,60.652850653119117,180.8401],[121.31044921875002,60.66498444218162,127.2172],[121.19736328125003,60.651971746869123,125.0012],[120.7158203125,60.49445221561912,245.7504],[120.693603515625,60.47919342655662,143.7435],[120.67490234375003,60.456415106244123,153.9216],[120.661376953125,60.430926824994117,162.885],[120.65380859375,60.40668366093162,152.5826]]}}