{"type":"Feature","properties":{"featurecla":"River","scalerank":8,"rivernum":744,"dissolve":"744River","name":"Alazeya2","name_alt":null,"note":null,"min_zoom":7.0,"strokeweig":0.25,"name_en":"Alazeya","min_label":8.0},
"geometry":{"type": "LineString","coordinates": [[152.40625,68.17731354374412,22.5482],[152.448974609375,68.17328522343162,26.6753],[152.46142578125,68.174579168744117,25.2451],[152.50478515625002,68.189325262494123,21.9178],[152.537353515625,68.204608465619117,23.3366],[152.55800781250002,68.21784088749412,25.6577],[152.60595703125,68.23285553593162,21.9646],[152.64111328125,68.255633856244117,28.4862],[152.70576171875,68.28314850468162,22.8194],[152.69736328125003,68.29596588749412,23.3622],[152.6962890625,68.313592840619123,21.3273],[152.69980468750003,68.33307526249412,21.4229],[152.70576171875,68.35138580936912,23.3418],[152.72451171875002,68.37995026249412,21.7151],[152.74765625000003,68.389764715619123,24.6712],[152.77587890625,68.39337799686912,21.1024],[152.80859375,68.40289948124412,24.61],[152.81503906250003,68.409295965619123,22.924],[152.82558593750002,68.42902252811912,30.8864],[152.83554687500003,68.43732330936912,27.2322],[152.8642578125,68.445331121869117,34.2441],[152.878173828125,68.452411199994117,27.0431],[152.884033203125,68.464960028119123,23.8606],[152.89384765625005,68.494159246869117,19.4579],[152.91796875,68.49945709843162,22.2349],[152.97958984375003,68.48859284061912,19.8065],[153.05615234375,68.484149481244117,20.4367],[153.13173828125002,68.470331121869123,19.3225],[153.1748046875,68.46893952030662,20.6911],[153.26259765625002,68.49005768436912,20.5902],[153.30166015625002,68.485467840619123,22.035],[153.326416015625,68.47821686405662,20.6969],[153.33339843750002,68.47223541874412,20.1798],[153.33935546875,68.44391510624412,20.7767],[153.34902343750002,68.43683502811912,20.6287],[153.362060546875,68.43427155155662,21.5437],[153.39951171875003,68.43244049686912,20.331],[153.41679687500005,68.42804596561912,18.8384],[153.45263671875,68.40973541874412,20.1754],[153.47216796875,68.404657293744123,18.292],[153.49091796875,68.40802643436912,21.6306],[153.52822265625002,68.42023346561912,20.0472],[153.5224609375,68.44232819218162,19.5522],[153.537109375,68.45465729374412,17.1716],[153.56191406250002,68.46002838749412,23.044],[153.74609375,68.47687409061912,16.4672],[153.761962890625,68.48041412968162,17.9499],[153.76816406250003,68.485467840619123,14.6217],[153.77285156250002,68.493036199994123,14.024],[153.77880859375,68.499872137494123,23.0251],[153.810302734375,68.50885651249412,16.3518],[153.83349609375,68.523553778119123,15.0656],[153.84433593750003,68.541522528119117,20.004],[153.829296875,68.55744049686912,22.419],[153.83740234375,68.56793854374412,17.1397],[153.84423828125,68.591571356244117,26.5645],[153.850341796875,68.605243231244117,19.6905],[153.85625,68.61163971561912,16.3044],[153.868896484375,68.61847565311912,20.032],[153.874267578125,68.62262604374412,22.2851],[153.877197265625,68.62885162968162,21.2331],[153.875,68.634149481244123,19.1027],[153.8720703125,68.63959381718162,27.4993],[153.870361328125,68.653436590619123,19.9638],[153.8662109375,68.65863678593162,18.0812],[153.8634765625,68.663690496869123,17.6201],[153.867431640625,68.670428778119117,15.7835],[153.88144531250003,68.67841217655662,14.9714],[153.89560546875003,68.67963287968162,15.3233],[153.91015625,68.678827215619123,15.8042],[153.925537109375,68.68097565311912,15.7063],[153.94189453125,68.68829987186912,17.6446],[153.95419921875003,68.699090887494123,18.0378],[153.959228515625,68.71295807499412,18.0586],[153.95273437500003,68.729364324994123,16.5454],[153.97666015625003,68.73615143436912,16.5513],[153.98642578125003,68.74103424686912,17.4061],[153.9943359375,68.74860260624412,16.7992],[153.99257812500002,68.760370184369123,13.1774],[153.99306640625002,68.77057526249412,16.1186],[153.99755859375,68.780292059369117,14.581],[154.005615234375,68.786395574994117,17.166],[154.02646484375003,68.795917059369117,14.1846],[154.03544921875005,68.80390045780662,14.1201],[154.03583984375,68.81317780155662,16.6208],[154.03164062500002,68.822040106244117,14.5826],[154.0333984375,68.828631903119117,15.4416],[154.08583984375002,68.833368231244123,14.1982],[154.1025390625,68.836688543744117,14.6075],[154.11767578125,68.842059637494117,14.4045],[154.1259765625,68.84894440311912,16.6132],[154.130078125,68.85736725468162,15.2107],[154.13330078125,68.86591217655662,16.9834],[154.138427734375,68.87274811405662,16.0954],[154.16884765625002,68.886346746869123,14.3334],[154.236328125,68.89081452030662,15.189],[154.26806640625,68.89948151249412,13.2983],[154.2607421875,68.90692780155662,13.7225],[154.27431640625002,68.91376373905662,13.8566],[154.265625,68.922381903119117,12.1972],[154.261474609375,68.93183014530662,13.3073],[154.26035156250003,68.942499090619123,12.5306],[154.2607421875,68.954706121869123,12.7686],[154.26416015625,68.960809637494123,12.1295],[154.278515625,68.96796295780662,11.0746],[154.28173828125,68.97516510624412,13.0773],[154.2607421875,68.99567291874412,13.3825],[154.214111328125,69.01862213749412,12.3854],[154.2060546875,69.02020905155662,10.4902],[154.205322265625,69.042352606244123,7.0],[154.202392578125,69.05145905155662,12.6612],[154.19541015625003,69.061151434369123,12.7811],[154.195068359375,69.07440827030662,12.5774],[154.2138671875,69.08307526249412,12.758],[154.25390625,69.09186432499412,17.3095],[154.26611328125,69.099237371869123,9.3846],[154.28955078125,69.11871979374412,13.5405],[154.30224609375,69.12665436405662,12.1812],[154.33154296875,69.138202215619117,12.3173],[154.3400390625,69.139667059369117,11.35],[154.343017578125,69.14191315311912,8.2309],[154.3515625,69.15289948124412,8.2643],[154.35693359375,69.15704987186912,9.3899],[154.4033203125,69.165155340619123,22.1256],[154.42041015625,69.17230866093162,10.5852],[154.41835937500002,69.18805573124412,14.4307],[154.439453125,69.19721100468162,8.9771],[154.45126953125003,69.20001862186912,9.257],[154.476318359375,69.203387762494117,11.6798],[154.482421875,69.20880768436912,12.6696],[154.4865234375,69.215692449994123,9.2455],[154.49404296875002,69.22223541874412,13.5506],[154.52041015625002,69.23114655155662,9.9505],[154.52822265625002,69.235223699994123,11.8796],[154.53476562500003,69.24420807499412,11.744],[154.53554687500002,69.251971746869117,10.6024],[154.534375,69.25849030155662,8.5],[154.53564453125,69.26312897343162,13.8201],[154.55322265625,69.275897528119117,10.5587],[154.674560546875,69.320575262494117,13.2187],[154.68447265625002,69.31940338749412,12.8628],[154.693603515625,69.31488678593162,11.5892],[154.70634765625005,69.31098053593162,11.8119],[154.76816406250003,69.31000397343162,8.5819],[154.8009765625,69.31378815311912,8.0],[154.87353515625,69.33051178593162,11.9354],[154.887939453125,69.331415106244123,12.0352],[154.90087890625,69.334735418744117,16.207],[154.925537109375,69.349237371869123,13.683],[154.95517578125003,69.35761139530662,9.6467],[154.99814453125003,69.381610418744117,8.7987],[155.0048828125,69.389764715619123,11.3606],[155.001953125,69.408319403119123,13.5625],[155.02265625,69.417499090619117,13.706],[155.06943359375003,69.42084381718162,10.398],[155.0654296875,69.426044012494117,8.083],[155.06005859375,69.43610260624412,7.7227],[155.05576171875003,69.44135162968162,19.346],[155.10410156250003,69.46332428593162,11.9893],[155.117919921875,69.476092840619117,7.4978],[155.087890625,69.49042389530662,9.8464],[155.05898437500002,69.50018952030662,10.6251],[154.99423828125003,69.50958893436912,11.2625],[155.00332031250002,69.51520416874412,11.6273],[155.0109375,69.521356512494123,24.0801],[155.01708984375,69.528436590619123,14.8071],[155.0216796875,69.536883856244117,10.9066],[155.01210937500002,69.53644440311912,9.6168],[155.00380859375002,69.53778717655662,4.9159],[154.98740234375003,69.544305731244123,12.1485],[155.006103515625,69.559100653119117,11.1306],[155.03173828125,69.565301824994123,10.9426],[155.084228515625,69.564227606244117,8.3355],[155.07070312500002,69.569452215619123,10.9177],[155.05898437500002,69.575946356244117,11.3037],[155.052734375,69.58356354374412,10.7595],[155.05576171875003,69.59210846561912,11.2562],[155.015625,69.60785553593162,10.9326],[154.9130859375,69.60150787968162,9.7849],[154.87089843750005,69.60578034061912,11.1364],[154.87451171875,69.608758856244123,11.1057],[154.8849609375,69.61945221561912,5.3917],[154.867431640625,69.63165924686912,21.4648],[154.81972656250002,69.65399811405662,7.1218],[154.81005859375,69.664422918744123,21.7642],[154.8076171875,69.67267487186912,12.1484],[154.79736328125,69.68439362186912,12.935],[154.7951171875,69.691180731244117,13.4735],[154.80166015625002,69.69782135624412,12.9439],[154.84345703125,69.71503327030662,12.8325],[154.8349609375,69.72711823124412,13.6982],[154.838134765625,69.73834869999412,24.4378],[154.84912109375,69.746600653119117,10.6078],[154.864013671875,69.74982330936912,7.0798],[154.876708984375,69.755145574994117,7.2325],[154.89697265625,69.778583074994117,10.0656],[154.9083984375,69.78388092655662,10.3435],[155.08984375,69.777118231244117,10.1317],[155.12441406250002,69.762811590619123,9.5861],[155.142333984375,69.761835028119123,9.2717],[155.15195312500003,69.777118231244117,8.5014],[155.14765625,69.794794012494123,6.302],[155.133056640625,69.801874090619123,9.0873],[155.11416015625002,69.80512116093162,9.4223],[155.09726562500003,69.81122467655662,12.1859],[155.08242187500002,69.824090887494123,8.4628],[155.079833984375,69.83209869999412,6.1725],[155.08759765625,69.836542059369123,11.3695],[155.103515625,69.83856842655662,8.8902],[155.122802734375,69.836542059369123,9.1849],[155.140625,69.83124420780662,8.7194],[155.15878906250003,69.82807037968162,9.2157],[155.17929687500003,69.83234284061912,8.8682],[155.171142578125,69.847040106244123,9.4217],[155.1572265625,69.85761139530662,8.6648],[155.124755859375,69.873309637494117,9.8678],[155.130078125,69.87811920780662,8.4659],[155.1396484375,69.88922760624412,7.8632],[155.14511718750003,69.893817449994117,7.9886],[155.08095703125002,69.89520905155662,8.2852],[155.049072265625,69.90289948124412,9.0851],[155.029052734375,69.92047760624412,8.3431],[155.06435546875002,69.91962311405662,3.0622],[155.08154296875,69.921649481244117,3.6433],[155.09726562500003,69.92792389530662,8.0521],[155.014892578125,69.96271393436912,7.3816],[154.98583984375,69.966669012494123,4.516],[154.89199218750002,69.96271393436912,22.3363],[154.907470703125,69.97711823124412,7.4697],[154.95361328125,69.986102606244117,7.5089],[154.97431640625,69.996210028119123,7.2831],[154.939697265625,70.01264069218162,7.215],[154.829833984375,70.04401276249412,7.5122],[154.83984375,70.061542059369117,6.5036],[154.83251953125,70.07843659061912,6.8385],[154.828857421875,70.09186432499412,7.0136],[154.850341796875,70.09857819218162,6.2538],[154.84658203125002,70.109149481244117,6.7692],[154.84824218750003,70.119159246869117,6.7084],[154.85097656250002,70.12775299686912,6.8781],[154.850341796875,70.13397858280662,6.7835],[154.8349609375,70.144403387494123,6.0771],[154.814697265625,70.148456121869117,6.6557],[154.79355468750003,70.15021393436912,6.003],[154.77529296875002,70.15387604374412,6.3704],[154.719921875,70.18121979374412,4.4549],[154.72929687500005,70.19208405155662,6.5384],[154.75146484375,70.198846746869123,6.9626],[154.77675781250002,70.202020574994123,6.6757],[154.7951171875,70.202264715619123,6.4867],[154.7951171875,70.208514715619117,4.8842],[154.767578125,70.21271393436912,6.403],[154.736328125,70.22479889530662,6.1566],[154.72119140625,70.23908112186912,6.0485],[154.74111328125002,70.25006744999412,0.9281]]}}