{"type":"Feature","properties":{"featurecla":"River","scalerank":9,"rivernum":1109,"dissolve":"1109River","name":"Markha2","name_alt":null,"note":null,"min_zoom":7.1,"strokeweig":0.25,"name_en":"Markha","min_label":8.1},
"geometry":{"type": "LineString","coordinates": [[114.292724609375,66.282586981244123,281.3623],[114.30839843749999,66.27899811405662,260.8973],[114.35097656250002,66.251581121869123,229.9119],[114.3955078125,66.233417059369117,260.629],[114.4404296875,66.221210028119117,240.0979],[114.48740234375003,66.220477606244117,252.9081],[114.587158203125,66.231708074994117,236.2906],[114.631591796875,66.221210028119117,229.2478],[114.617919921875,66.206903387494123,230.496],[114.625,66.204364324994117,218.245],[114.62763671875001,66.202655340619117,216.843],[114.631591796875,66.199481512494117,216.1877],[114.623046875,66.19428131718162,275.4312],[114.61572265625,66.188104559369123,261.5568],[114.609619140625,66.18097565311912,246.468],[114.60429687499999,66.172723699994123,238.3174],[114.62324218750001,66.16901276249412,231.7964],[114.66328125000001,66.165790106244117,213.8953],[114.67929687500003,66.15851471561912,225.773],[114.649658203125,66.150506903119123,222.5602],[114.61240234375003,66.14911530155662,343.6452],[114.577880859375,66.14386627811912,369.9334],[114.556396484375,66.12433502811912,386.9813],[114.57666015625,66.12360260624412,250.5274],[114.60068359375003,66.11835358280662,225.9845],[114.62324218750001,66.10944244999412,226.9263],[114.63906250000002,66.097674871869117,238.2666],[114.614013671875,66.07672760624412,334.368],[114.611083984375,66.07037994999412,352.8629],[114.62148437500002,66.058368231244117,310.5245],[114.64111328125,66.056170965619117,232.5397],[114.662109375,66.05670807499412,234.4798],[114.67626953125,66.05267975468162,248.8394],[114.678125,66.038104559369117,219.4503],[114.66884765625002,66.01898834843162,335.4251],[114.645263671875,65.987811590619117,278.7645],[114.652587890625,65.980975653119117,326.9137],[114.645263671875,65.97418854374412,293.3172],[114.65859375000002,65.95246002811912,325.8276],[114.67822265625,65.94623444218162,275.8898],[114.701904296875,65.94525787968162,233.8898],[114.727783203125,65.93939850468162,201.9862],[114.73652343750001,65.932635809369117,203.4762],[114.751953125,65.915545965619117,244.9779],[114.761962890625,65.912127996869117,241.4459],[114.77587890625,65.909442449994117,250.6546],[114.817138671875,65.891620184369117,255.4672],[114.80029296875,65.87787506718162,199.9988],[114.749755859375,65.87067291874412,197.2123],[114.734619140625,65.85687897343162,376.4203],[114.742431640625,65.84137604374412,336.4017],[114.76953125,65.833368231244123,320.8069],[114.8603515625,65.82990143436912,216.4158],[114.85625,65.825213934369117,216.1742],[114.83759765625001,65.81439850468162,224.1555],[114.83076171875001,65.796014715619123,222.0832],[114.850341796875,65.781366278119123,193.7877],[114.88330078125,65.78302643436912,188.0419],[114.94345703125003,65.796014715619123,232.3915],[114.9625,65.78961823124412,216.3527],[114.97412109375,65.761493231244117,272.7866],[114.99560546875,65.75507233280662,256.7623],[115.025390625,65.76007721561912,195.1168],[115.05214843750002,65.76959869999412,214.4662],[115.079833984375,65.77533600468162,198.4067],[115.11191406250003,65.768670965619123,222.4878],[115.19677734375,65.712274481244123,232.5653],[115.219482421875,65.702752996869123,191.6847],[115.27587890625,65.692987371869123,247.3919],[115.267578125,65.67816803593162,177.9767],[115.23964843750002,65.65814850468162,308.4059],[115.22802734375,65.64520905155662,351.8207],[115.24433593750001,65.62726471561912,301.0383],[115.23203125000003,65.60687897343162,213.653],[115.227783203125,65.59003327030662,364.9749],[115.31015625000003,65.57794830936912,273.5092],[115.33251953125,65.571551824994117,238.1289],[115.3447265625,65.562616278119123,231.1498],[115.34414062500002,65.54999420780662,236.9967],[115.31943359375003,65.53461334843162,229.6977],[115.310546875,65.52167389530662,352.3273],[115.3369140625,65.51642487186912,178.2114],[115.39345703125002,65.525897528119117,203.0579],[115.42138671875,65.523456121869117,169.6468],[115.44375,65.51068756718162,206.7377],[115.44091796875,65.49774811405662,198.6031],[115.428125,65.48261139530662,208.1987],[115.42041015625,65.46332428593162,305.3413],[115.42988281250001,65.45343659061912,285.9997],[115.4755859375,65.41925690311912,199.6009],[115.4921875,65.41181061405662,266.0977],[115.58154296875,65.427020574994117,166.934],[115.6123046875,65.42609284061912,198.2301],[115.598876953125,65.40424225468162,194.217],[115.60175781250001,65.37811920780662,169.9186],[115.619140625,65.329852606244117,179.3449],[115.619140625,65.305438543744117,157.4709],[115.62568359375001,65.30280182499412,169.2697],[115.64638671875002,65.30255768436912,172.9634],[115.66738281250002,65.306024481244123,167.8684],[115.684814453125,65.31293366093162,169.0311],[115.70332031250001,65.31818268436912,252.2511],[115.727783203125,65.31622955936912,205.0454],[115.70517578125003,65.29559967655662,204.7643],[115.69570312500002,65.28436920780662,319.5025],[115.69970703125,65.274432684369117,305.8607],[115.7177734375,65.257586981244117,264.8626],[115.72910156250003,65.24274323124412,291.9091],[115.733154296875,65.21942780155662,225.4711],[115.741943359375,65.20636627811912,203.3179],[115.76718750000003,65.19171784061912,219.774],[115.80244140625001,65.181024481244123,245.0359],[115.89765625000001,65.16913483280662,186.211],[115.91875,65.16071198124412,146.5396],[115.95429687500001,65.13129303593162,144.2797],[115.99941406250002,65.115252996869117,189.1888],[116.04892578125003,65.12872955936912,245.2189],[116.10107421875,65.15204498905662,252.1814],[116.153564453125,65.16535065311912,207.3376],[116.18056640625002,65.163934637494123,172.5749],[116.213134765625,65.15778229374412,186.4742],[116.23125,65.14594147343162,197.5162],[116.21494140625003,65.127557684369123,217.0986],[116.187744140625,65.11981842655662,274.6378],[116.12656250000003,65.11810944218162,152.3807],[116.09824218750003,65.110126043744117,275.6945],[116.105712890625,65.110126043744117,147.6459],[116.09794921874999,65.10394928593162,218.6605],[116.09423828125,65.10028717655662,273.7787],[116.09140625000003,65.09650299686912,284.0955],[116.1201171875,65.08698151249412,174.7728],[116.14882812500002,65.08405182499412,188.9809],[116.26328125000003,65.09601471561912,172.3553],[116.4091796875,65.08869049686912,151.1923],[116.49951171875,65.09711334843162,150.9431],[116.52792968750003,65.092645574994123,177.3098],[116.55078125,65.07599518436912,172.3511],[116.517333984375,65.062030340619117,195.0075],[116.44765625000002,65.059833074994117,237.944],[116.39833984375002,65.04938385624412,273.067],[116.37744140625,65.04743073124412,236.2252],[116.35927734375002,65.04352448124412,223.337],[116.35146484375002,65.03473541874412,239.4677],[116.35791015625,65.019549871869117,251.1922],[116.373046875,65.01215241093162,253.9641],[116.43789062500002,64.99872467655662,276.6819],[116.47324218750003,65.004657293744117,136.8298],[116.537109375,65.027606512494117,196.149],[116.598876953125,65.058124090619117,211.8004],[116.63291015625003,65.06854889530662,199.3333],[116.66064453125,65.06232330936912,192.2764],[116.65322265625002,65.05548737186912,200.0631],[116.6728515625,65.03705475468162,230.8035],[116.69472656250002,65.02142975468162,199.5974],[116.67138671875,65.01569244999412,194.3209],[116.60546875,65.007684637494123,230.0723],[116.58701171875003,64.99982330936912,222.525],[116.549560546875,64.977557684369117,192.8817],[116.5302734375,64.97296784061912,202.4251],[116.48828125,64.96759674686912,260.468],[116.4814453125,64.95355866093162,256.9249],[116.4970703125,64.93402741093162,239.6476],[116.5234375,64.91217682499412,168.171],[116.49335937500001,64.89362213749412,224.0609],[116.482421875,64.88373444218162,242.7218],[116.482421875,64.87055084843162,237.6701],[116.49306640625002,64.863299871869117,228.3665],[116.534423828125,64.84650299686912,221.1576],[116.54697265625003,64.84320709843162,214.7479],[116.552978515625,64.831903387494123,212.3595],[116.61904296875002,64.76752350468162,171.3517],[116.62460937500003,64.75507233280662,187.0055],[116.62568359375001,64.74396393436912,188.8897],[116.62343750000002,64.732684637494117,184.9847],[116.61318359375002,64.70600006718162,174.0045],[116.60888671875,64.698016668744117,194.1522],[116.60634765625002,64.68976471561912,202.4762],[116.60546875,64.67536041874412,144.0257],[116.61435546875003,64.66901276249412,128.6519],[116.633056640625,64.66083405155662,127.7228],[116.64912109375001,64.65131256718162,130.2717],[116.65,64.64093659061912,141.779],[116.63466796875002,64.62909577030662,164.2101],[116.61904296875002,64.61957428593162,196.529],[116.60595703125,64.60797760624412,221.9678],[116.59853515625002,64.59003327030662,215.3174],[116.603125,64.563251043744117,185.6936],[116.62265625000003,64.54621002811912,134.1894],[116.67431640625,64.524530340619123,144.4687],[116.686279296875,64.506854559369117,140.1038],[116.64902343750003,64.46600983280662,164.2478],[116.65322265625002,64.43854401249412,201.3047],[116.687255859375,64.417596746869123,125.0703],[116.72802734375,64.41925690311912,156.7592],[116.803955078125,64.449090887494123,155.1582],[116.84033203125,64.45246002811912,190.8734],[116.87050781250002,64.43463776249412,197.8246],[116.89833984375002,64.40949127811912,125.0387],[116.92744140625001,64.390741278119123,153.116],[117.016357421875,64.384540106244117,139.5211],[117.05078125,64.376092840619123,132.8952],[117.030517578125,64.35663483280662,132.4365],[116.98740234375003,64.34564850468162,122.2909],[116.93994140625,64.34638092655662,133.1201],[116.89316406250003,64.35663483280662,131.3328],[116.85175781250001,64.37396881718162,141.2201],[116.809814453125,64.381122137494117,172.0293],[116.772216796875,64.36408112186912,175.5453],[116.70839843750002,64.31500885624412,148.0237],[116.671630859375,64.30255768436912,134.7497],[116.62255859375,64.29511139530662,132.5446],[116.57373046875,64.29523346561912,130.2101],[116.52167968750001,64.310419012494123,132.7556],[116.503662109375,64.310907293744123,139.0922],[116.48876953125,64.305194403119117,146.5042],[116.482421875,64.29181549686912,133.0089],[116.489501953125,64.263690496869117,132.9579],[116.48398437500003,64.25556061405662,133.5917],[116.4248046875,64.26483795780662,130.2817],[116.38623046875,64.265643621869117,119.4871],[116.36962890625,64.257586981244117,119.3589],[116.423583984375,64.219354559369123,120.2662],[116.42822265625,64.201288153119123,120.1894],[116.43076171875003,64.181268621869123,130.0326],[116.4482421875,64.15802643436912,121.2722],[116.486083984375,64.13690827030662,119.2603],[116.5322265625,64.12628815311912,133.9074],[116.57919921875003,64.12714264530662,129.7356],[116.6640625,64.15277741093162,168.0655],[116.71035156250002,64.14630768436912,181.8051],[116.75429687500002,64.12763092655662,129.7744],[116.79091796875002,64.103387762494123,128.0167],[116.80683593750001,64.08795807499412,127.8913],[116.81015625000003,64.07758209843162,127.1535],[116.80703125000002,64.067157293744117,130.9017],[116.80458984375002,64.05158112186912,129.0241],[116.81259765625003,64.03815338749412,127.1293],[116.83173828125001,64.026239324994123,126.3866],[116.85429687499999,64.01764557499412,125.123],[116.872314453125,64.014032293744123,127.7365],[116.85009765625,63.99201080936912,135.6722],[116.80771484375003,63.99408600468162,134.386],[116.72890625000002,64.014032293744123,154.3217],[116.6943359375,64.01032135624412,139.5193],[116.661376953125,63.99664948124412,120.673],[116.63339843750003,63.97455475468162,139.6061],[116.61347656250001,63.94574616093162,127.7138],[116.60400390625,63.914178778119123,128.8143],[116.59853515625002,63.904169012494123,132.5663],[116.58896484375003,63.89411041874412,127.9527],[116.559814453125,63.87274811405662,114.7238],[116.54335937500002,63.863153387494123,136.3822],[116.52412109375001,63.85809967655662,141.688],[116.47802734375,63.854852606244123,136.08],[116.46132812500002,63.84955475468162,127.6553],[116.451904296875,63.84027741093162,120.1018],[116.4482421875,63.830340887494117,127.987],[116.451171875,63.821405340619123,113.7105],[116.46132812500002,63.81537506718162,130.794],[116.451171875,63.79266998905662,110.8332],[116.42011718750001,63.74408600468162,113.421],[116.41357421875,63.72296784061912,126.137],[116.411376953125,63.71015045780662,141.8607],[116.40146484375003,63.68646881718162,132.3589],[116.39931640625002,63.67450592655662,125.6093],[116.406494140625,63.66474030155662,120.974],[116.50917968750002,63.60993073124412,147.2977],[116.54833984375,63.58063385624412,141.2263],[116.5634765625,63.573260809369117,136.7753],[116.62685546875002,63.56159088749412,143.4119],[116.64384765624999,63.55158112186912,141.3726],[116.668212890625,63.531366278119123,123.9228],[116.84091796875003,63.429461981244117,122.8135],[116.89169921875003,63.41889069218162,125.8139],[116.94169921874999,63.42047760624412,134.8308],[116.97216796875,63.438006903119117,118.1752],[116.98105468750003,63.46600983280662,114.9951],[116.98623046875002,63.492303778119123,130.7654],[116.998779296875,63.51227448124412,134.7305],[117.030517578125,63.52118561405662,125.0908],[117.115625,63.502069403119123,128.567],[117.158203125,63.50275299686912,124.5912],[117.19169921874999,63.53424713749412,129.6855],[117.20371093750003,63.54328034061912,123.0772],[117.26318359375,63.55841705936912,123.249],[117.298095703125,63.57538483280662,126.277],[117.315673828125,63.58026764530662,119.9966],[117.33554687500003,63.58197662968162,119.1617],[117.40585937500003,63.57330963749412,121.6667],[117.42744140625001,63.578631903119117,126.2049],[117.48623046875002,63.59979889530662,126.2848],[117.51796875000002,63.606317449994123,114.871],[117.57177734375,63.633563543744117,119.2284],[117.58994140625003,63.63959381718162,126.5306],[117.68994140625,63.649920965619117,114.5],[117.771240234375,63.67255280155662,127.9543],[117.81201171875,63.677606512494123,132.4617]]}}