{"type":"Feature","properties":{"featurecla":"River","scalerank":8,"rivernum":898,"dissolve":"898River","name":"Tyung3","name_alt":null,"note":null,"min_zoom":7.0,"strokeweig":0.3,"name_en":"Tyung","min_label":8.0},
"geometry":{"type": "LineString","coordinates": [[120.90234375,64.198993231244117,120.0786],[120.89658203125003,64.20050690311912,122.9463],[120.88720703125,64.20453522343162,134.7406],[120.88134765625,64.205829168744117,131.0205],[120.91269531250003,64.21161530155662,115.7072],[120.97060546875002,64.19086334843162,116.3843],[120.99863281250003,64.198993231244117,119.1247],[120.99091796875001,64.223163153119117,120.7684],[121.0185546875,64.23248932499412,120.9054],[121.0576171875,64.23615143436912,118.5285],[121.08388671875002,64.24335358280662,126.8646],[121.09804687500002,64.25165436405662,121.6233],[121.14882812500002,64.25421784061912,115.982],[121.16171875000003,64.25971100468162,115.3511],[121.18886718750002,64.27765534061912,119.6901],[121.2001953125,64.281512762494117,116.3485],[121.21347656250003,64.28363678593162,126.5273],[121.242919921875,64.29303619999412,130.4408],[121.25869140625002,64.29523346561912,117.8138],[121.27744140625003,64.29376862186912,119.0317],[121.32705078125002,64.281512762494117,118.3441],[121.34326171875,64.280145574994123,115.3107],[121.36572265625,64.286493231244123,119.1261],[121.381591796875,64.28839752811912,131.5794],[121.3935546875,64.285760809369123,129.8658],[121.43007812500002,64.26788971561912,115.0618],[121.41347656250002,64.25409577030662,117.802],[121.361328125,64.24909088749412,153.2197],[121.340576171875,64.233758856244123,162.2987],[121.33388671875002,64.221942449994117,113.8478],[121.33164062500003,64.213397528119117,114.1739],[121.333740234375,64.205829168744117,108.8788],[121.364501953125,64.20343659061912,113.4377],[121.38037109375,64.198846746869123,111.4299],[121.378173828125,64.18842194218162,111.1292],[121.36933593750001,64.18317291874412,112.8303],[121.34560546875002,64.171893621869117,153.8951],[121.340576171875,64.16828034061912,155.8412],[121.34267578125002,64.16205475468162,176.7474],[121.34755859375002,64.15412018436912,175.459],[121.353271484375,64.14728424686912,188.733],[121.35761718750001,64.14435455936912,185.2854],[121.37763671875001,64.12018463749412,115.176],[121.381591796875,64.11334869999412,103.7643],[121.37890625,64.105340887494123,111.2081],[121.372314453125,64.09906647343162,110.1062],[121.35429687499999,64.089715887494123,168.163],[121.386474609375,64.07904694218162,111.3688],[121.45429687500001,64.064960028119117,108.234],[121.477783203125,64.04816315311912,103.6866],[121.4814453125,64.037616278119117,112.0331],[121.48378906250002,64.012713934369117,108.7986],[121.48828125,64.00409577030662,113.391],[121.4970703125,63.995624090619117,104.7007],[121.50449218750003,63.985467840619123,107.2024],[121.50986328125003,63.974237371869123,105.9288],[121.51181640625003,63.96246979374412,103.0042],[121.50419921874999,63.94122955936912,129.3726],[121.47451171875002,63.89533112186912,104.6966],[121.47431640625001,63.880243231244123,99.915],[121.493896484375,63.86749909061912,105.8096],[121.501220703125,63.85907623905662,107.0797],[121.49824218750001,63.84955475468162,103.4192],[121.48623046875002,63.84491608280662,98.9499],[121.451171875,63.84259674686912,101.9431],[121.436279296875,63.83588287968162,99.8592],[121.446533203125,63.82306549686912,99.6905],[121.462890625,63.81073639530662,100.8165],[121.48134765625002,63.80072662968162,102.0566],[121.49824218750001,63.794940496869117,101.7947]]}}