{"type":"Feature","properties":{"featurecla":"River","scalerank":9,"rivernum":1111,"dissolve":"1111River","name":"Selennyakh","name_alt":null,"note":null,"min_zoom":7.1,"strokeweig":0.15,"name_en":"Selennyakh","min_label":8.1},
"geometry":{"type": "LineString","coordinates": [[136.94404296875,69.564227606244117,772.152],[137.00419921875005,69.59821198124412,686.1829],[137.08349609375,69.59137604374412,635.6481],[137.23886718750003,69.55121491093162,631.86],[137.43007812500002,69.56037018436912,497.4213]]}}