{"type":"Feature","properties":{"featurecla":"River","scalerank":6,"rivernum":269,"dissolve":"269River","name":"Vilyuy5","name_alt":null,"note":null,"min_zoom":5.0,"strokeweig":0.3,"name_en":"Vilyuy","min_label":6.0},
"geometry":{"type": "LineString","coordinates": [[126.42978515625003,64.413934637494123,130.8878],[126.42128906250002,64.397088934369123,54.0],[126.415625,64.38019440311912,54.0],[126.41347656250002,64.36261627811912,54.0],[126.4150390625,64.34369537968162,60.7058],[126.42910156250002,64.280877996869123,92.6239],[126.42744140625001,64.25995514530662,54.0],[126.41796875,64.241717840619117,54.0],[126.40224609375002,64.22833893436912,64.5368],[126.31943359375003,64.19098541874412,68.3597],[126.19667968750002,64.11493561405662,74.8966],[126.103125,64.07257721561912,73.3384],[125.98574218750002,63.995868231244117,60.0],[125.935546875,63.97662994999412,78.239],[125.81650390625003,63.94879791874412,67.3695],[125.60166015625003,63.933221746869123,77.4752],[125.51718750000003,63.914325262494117,70.0001],[125.35664062500001,63.90643952030662,82.3324],[125.34091796875003,63.902850653119117,79.2973],[125.33339843750002,63.89996979374412,73.1787],[125.32656250000002,63.89581940311912,74.6293],[125.31669921874999,63.888202215619117,68.5593],[125.28369140625,63.87055084843162,66.0607],[125.276123046875,63.868915106244117,65.5446],[125.27304687500003,63.86920807499412,65.6144],[125.263671875,63.87164948124412,65.6747],[125.25917968750002,63.87164948124412,65.762],[125.223876953125,63.86664459843162,72.6903],[125.17978515625003,63.869012762494123,66.1946],[125.104736328125,63.88690827030662,66.4156],[125.05605468750002,63.892206121869123,72.216],[125.04111328125003,63.89679596561912,77.2516],[124.98125,63.92401764530662,68.7685],[124.7998046875,63.96527741093162,77.1369],[124.7890625,63.966083074994117,79.3142],[124.7802734375,63.967792059369117,80.1904],[124.764404296875,63.974969793744123,69.0073],[124.755859375,63.97748444218162,69.3731],[124.74589843749999,63.97772858280662,69.0143],[124.657470703125,63.96576569218162,85.4101],[124.644775390625,63.96625397343162,74.37],[124.6318359375,63.96869537968162,78.3373],[124.62089843749999,63.972674871869117,71.4648],[124.6123046875,63.97858307499412,71.1106],[124.60888671875,63.98663971561912,79.7167],[124.61826171875003,64.00568268436912,78.589],[124.618896484375,64.015155340619117,78.8579],[124.61572265625,64.024286199994123,71.6955],[124.60888671875,64.03180573124412,72.4849],[124.599609375,64.035907293744117,78.6446],[124.58779296875002,64.03803131718162,78.1626],[124.56552734375003,64.03803131718162,81.823],[124.54160156250003,64.033563543744123,79.6151],[124.36347656250001,64.040790106244117,82.066],[124.2490234375,64.07160065311912,84.1106],[124.23769531250002,64.07282135624412,81.6748],[124.14912109375001,64.056756903119123,84.9137],[124.080078125,64.056024481244123,84.6521],[124.03164062500002,64.05023834843162,86.1971],[124.007080078125,64.04999420780662,83.5795],[123.917236328125,64.060077215619117,82.1622],[123.83447265625,64.08661530155662,77.4431],[123.73652343750001,64.10455963749412,85.251],[123.693359375,64.101190496869123,85.9913],[123.66513671875003,64.103290106244117,159.9415],[123.6484375,64.100702215619123,166.8004],[123.615478515625,64.09149811405662,148.2397]]}}