{"type":"Feature","properties":{"featurecla":"River","scalerank":8,"rivernum":845,"dissolve":"845River","name":"Adycha","name_alt":null,"note":null,"min_zoom":7.0,"strokeweig":0.2,"name_en":"Adycha","min_label":8.0},
"geometry":{"type": "LineString","coordinates": [[140.19287109375,65.589960028119123,1819.037],[140.19287109375,65.589960028119123,1819.037],[140.19287109375,65.589960028119123,1819.037],[140.19287109375,65.589960028119123,1819.037],[140.19287109375,65.589960028119123,1819.037],[140.23046875,65.58356354374412,1530.5443],[140.24179687500003,65.56683991093162,1399.0411],[140.228515625,65.54950592655662,1563.1832],[140.19287109375,65.541522528119117,1283.7112],[139.97861328125003,65.527215887494123,1055.7267],[139.94013671875,65.51752350468162,1044.6342],[139.8875,65.488788153119117,1010.7886],[139.818359375,65.47345612186912,951.5241],[139.7880859375,65.459588934369123,960.4738]]}}