{"type":"Feature","properties":{"featurecla":"River","scalerank":6,"rivernum":269,"dissolve":"269River","name":"Vilyuy4","name_alt":null,"note":null,"min_zoom":5.0,"strokeweig":0.3,"name_en":"Vilyuy","min_label":6.0},
"geometry":{"type": "LineString","coordinates": [[123.615478515625,64.09149811405662,148.2397],[123.59248046875001,64.085467840619117,156.5806],[123.5859375,64.081561590619117,147.6753],[123.5576171875,64.05377838749412,153.7046],[123.5537109375,64.05145905155662,151.6373],[123.43505859375,64.02326080936912,142.9271],[123.42724609375,64.019403387494123,120.8545],[123.39697265625,63.99921295780662,78.8737],[123.36728515625003,63.98773834843162,84.2527],[123.25634765625,63.95831940311912,87.9327],[123.247314453125,63.953241278119123,91.2443],[123.228271484375,63.93524811405662,80.0489],[123.22236328125001,63.93097565311912,84.0297],[123.1787109375,63.91034577030662,80.0102],[123.0947265625,63.894891668744123,84.8245],[123.00332031250002,63.899432684369117,86.6458],[122.98134765625002,63.90399811405662,90.0033],[122.9150390625,63.933465887494123,83.0071],[122.89121093750003,63.94000885624412,89.4306],[122.857421875,63.94245026249412,82.2762],[122.82470703125,63.94000885624412,86.393],[122.71103515625003,63.90839264530662,90.2145],[122.677978515625,63.904803778119117,91.4877],[122.51513671875,63.90827057499412,88.5993],[122.369140625,63.875360418744123,87.8223],[122.34091796875003,63.87396881718162,91.8333],[122.31289062500002,63.875995184369117,98.5999],[122.25849609375001,63.88690827030662,97.7781],[122.23251953125003,63.88873932499412,84.5],[122.20654296875,63.88666412968162,84.5],[122.15283203125,63.87457916874412,92.9125],[122.09873046875003,63.871942449994123,85.5],[122.01328125000003,63.88202545780662,118.463],[121.85537109375002,63.874042059369117,131.3241],[121.82861328125,63.86786530155662,134.8572],[121.78701171875002,63.85285065311912,92.3493],[121.73125,63.81757233280662,88.3428],[121.72509765625,63.81476471561912,90.4593],[121.64667968750001,63.79584381718162,94.2484],[121.62568359375001,63.787713934369123,97.5067],[121.61464843750002,63.78534577030662,96.5616],[121.60800781250003,63.785028387494123,91.055],[121.579833984375,63.786981512494123,96.861],[121.546875,63.785760809369123,101.6906],[121.513916015625,63.78864166874412,102.1159],[121.26093750000001,63.783465887494117,98.6591],[121.24130859375003,63.785663153119117,91.0],[121.19394531250003,63.79730866093162,106.9189],[121.16835937500002,63.79816315311912,165.1919],[121.15615234375002,63.79621002811912,164.0771],[121.089111328125,63.76727936405662,126.3402],[121.08076171875001,63.76044342655662,91.7859],[121.076904296875,63.75079987186912,91.871],[121.07675781250003,63.738544012494117,92.6919],[121.0751953125,63.727557684369117,97.8615],[121.06982421875,63.71918366093162,99.5098],[121.0576171875,63.714960028119123,106.5484],[121.04248046875,63.715204168744123,100.1841],[121.01171875,63.72321198124412,109.2958],[120.984375,63.73432037968162,110.0592],[120.959228515625,63.74835846561912,143.2686],[120.94619140625002,63.75372955936912,134.9305],[120.92031250000002,63.75714752811912,136.3968],[120.89667968750001,63.752313543744123,113.6892],[120.826904296875,63.71539948124412,95.1127],[120.813720703125,63.71137116093162,133.2546],[120.783203125,63.705829168744117,139.5074],[120.768310546875,63.700067449994123,138.0],[120.75732421875,63.69025299686912,152.6221],[120.75341796875,63.67475006718162,93.3855],[120.75341796875,63.669696356244117,93.8714],[120.7529296875,63.66535065311912,93.9335],[120.75107421875003,63.66156647343162,94.2713],[120.747314453125,63.65802643436912,99.7261],[120.74179687500003,63.65497467655662,97.9648],[120.71435546875,63.646356512494123,111.098],[120.66494140625002,63.63776276249412,108.6725],[120.65292968750003,63.638788153119123,107.9459],[120.59765625,63.633905340619123,128.7733],[120.583984375,63.634881903119123,129.6087],[120.57763671875,63.63629791874412,127.6784],[120.571875,63.63873932499412,129.16309999999999],[120.56650390625003,63.64203522343162,132.1806],[120.55751953125002,63.649920965619117,136.3848],[120.55322265625,63.65241119999412,135.5512],[120.543212890625,63.65546295780662,141.6541],[120.515625,63.659442449994117,138.7307],[120.501953125,63.65827057499412,144.1371],[120.48886718750003,63.65387604374412,136.0448],[120.48164062500001,63.64899323124412,133.4888],[120.47695312500002,63.643182684369123,125.8874],[120.474853515625,63.63617584843162,100.9072],[120.475341796875,63.62763092655662,95.0],[120.47988281250002,63.61554596561912,95.0],[120.48037109375002,63.611200262494123,95.0],[120.47900390625,63.60626862186912,95.0],[120.465576171875,63.586542059369123,100.1779],[120.46181640625002,63.579217840619123,95.5],[120.46005859375003,63.57147858280662,95.5],[120.46103515625003,63.56329987186912,95.5],[120.46826171875,63.54987213749412,95.5],[120.48837890625003,63.526629949994117,96.0],[120.49589843749999,63.51337311405662,96.0],[120.49677734375001,63.50531647343162,96.0],[120.49433593750001,63.49848053593162,96.0],[120.4892578125,63.49274323124412,100.927],[120.482421875,63.48822662968162,102.2961],[120.46279296875002,63.48126862186912,107.3373],[120.44091796875,63.47882721561912,111.1527],[120.35537109375002,63.479754949994117,109.0543],[120.27158203125003,63.49738190311912,110.6104],[120.23085937500002,63.511004949994117,115.3893],[120.15283203125,63.54852936405662,111.4451],[120.04248046875,63.57868073124412,111.7973],[119.92919921875,63.591180731244123,114.0357],[119.740625,63.57074616093162,105.943],[119.58046875000002,63.52130768436912,107.5094],[119.46328125000002,63.514178778119117,115.4394],[119.34853515625002,63.52057526249412,110.0715],[119.264892578125,63.51325104374412,114.4844],[119.233642578125,63.517206121869123,112.2798],[119.221923828125,63.516131903119117,113.0828],[119.11953125000002,63.47846100468162,100.4607],[119.11347656250001,63.478387762494123,100.4767],[119.0966796875,63.482196356244117,115.9963],[119.086669921875,63.48297760624412,110.8913],[119.016357421875,63.47211334843162,108.1156],[119.0029296875,63.47223541874412,113.2234],[118.99111328125002,63.47467682499412,113.0662],[118.95849609375,63.48676178593162,111.0921],[118.932861328125,63.490594793744123,109.235],[118.907470703125,63.49030182499412,114.5145],[118.883056640625,63.48480866093162,115.6261],[118.8603515625,63.472772528119123,119.7019],[118.84169921875002,63.451190496869117,101.194],[118.84765625,63.43463776249412,114.6412],[118.86835937500001,63.420917059369117,107.959],[118.89453125,63.407586981244123,119.9918],[118.91328125000001,63.40131256718162,115.8584],[118.92744140625001,63.39887116093162,117.9106],[118.93183593750001,63.39288971561912,109.9902],[118.92177734375002,63.37592194218162,117.4154],[118.91123046875003,63.36688873905662,107.3522],[118.89609375000003,63.35895416874412,114.7882],[118.8671875,63.349237371869123,117.6177],[118.76669921875003,63.34747955936912,119.3639],[118.73681640625,63.33869049686912,120.0343],[118.67011718750001,63.31110260624412,120.3803],[118.599853515625,63.295770574994123,112.2743],[118.45595703125002,63.28778717655662,124.2618],[118.33193359375002,63.29450104374412,119.5883],[118.291259765625,63.28778717655662,115.8874],[118.23398437500003,63.260028387494117,121.6319],[118.205322265625,63.249627996869123,124.7086],[118.173583984375,63.25141022343162,125.5476],[118.11337890625003,63.27655670780662,129.4566],[118.09248046875001,63.281024481244117,123.2263],[118.072265625,63.27973053593162,125.9662],[118.02978515625,63.269794012494117,121.9965],[117.875,63.26239655155662,131.149],[117.83173828125001,63.253045965619123,151.0439],[117.781494140625,63.22394440311912,134.3259],[117.70361328125,63.20783112186912,122.0859],[117.6884765625,63.202167059369117,129.2528],[117.62900390625003,63.17096588749412,155.5203],[117.602294921875,63.151239324994123,127.867],[117.57861328125,63.12335846561912,120.6557],[117.5361328125,63.05036041874412,126.0552],[117.5302734375,63.03021881718162,125.2358],[117.5283203125,63.01764557499412,119.9889],[117.51953125,62.99225494999412,126.9492],[117.51718750000003,62.97931549686912,123.4235],[117.51806640625,62.96723053593162,124.5737],[117.523681640625,62.94464752811912,151.1398],[117.5234375,62.931512762494123,147.3377],[117.51220703125,62.905389715619123,112.8984],[117.491455078125,62.88056061405662,108.493],[117.44482421875,62.83844635624412,126.1293],[117.44199218750003,62.82782623905662,125.1624],[117.45126953125003,62.81732819218162,126.5665],[117.49267578125,62.78876373905662,152.4437],[117.50244140625,62.779657293744123,145.1842],[117.50205078125003,62.76947662968162,109.333],[117.48916015625002,62.75336334843162,123.8959],[117.46103515625003,62.73615143436912,109.3715],[117.43183593750001,62.72333405155662,123.9907],[117.41845703125,62.705829168744117,127.7025],[117.437744140625,62.674579168744117,136.7399],[117.44423828125002,62.65692780155662,149.5995],[117.443603515625,62.631463934369123,108.5098],[117.43906250000003,62.60602448124412,148.6889],[117.43398437500002,62.58832428593162,133.6159],[117.41591796875002,62.55609772343162,130.0714],[117.41357421875,62.54425690311912,128.5751],[117.42138671875,62.528338934369117,124.3203],[117.439697265625,62.51935455936912,124.6038],[117.54404296875003,62.49176666874412,137.5062],[117.55810546875,62.47846100468162,126.9772],[117.558837890625,62.463739324994123,118.3048],[117.55097656250001,62.45197174686912,110.9282],[117.5302734375,62.43121979374412,129.6042],[117.5234375,62.420917059369117,110.9298],[117.51884765624999,62.41046784061912,111.374],[117.51894531250002,62.39923737186912,127.7144],[117.52685546875,62.38654205936912,122.5592],[117.53408203125002,62.371210028119123,125.1387],[117.529052734375,62.36029694218162,130.1923],[117.52138671875002,62.35224030155662,132.46],[117.520263671875,62.345575262494123,112.5114],[117.53564453125,62.33197662968162,129.2601],[117.55361328125002,62.322381903119123,127.8969],[117.62001953125002,62.29852936405662,154.4992],[117.62705078125003,62.294061590619123,157.3443],[117.6279296875,62.289813543744117,149.7951],[117.6259765625,62.277362371869117,150.6492],[117.62705078125003,62.27301666874412,149.1843],[117.650634765625,62.255145574994117,147.7318],[117.70908203125003,62.225213934369123,154.9395],[117.73291015625,62.208124090619123,140.6432],[117.73125,62.18842194218162,141.349],[117.66572265625001,62.14984772343162,124.9523],[117.6474609375,62.12958405155662,129.7732],[117.65078125000002,62.11810944218162,113.0074],[117.65830078125003,62.11261627811912,113.0801],[117.6630859375,62.105243231244117,113.2348],[117.657470703125,62.088006903119123,124.4602],[117.64316406250003,62.07831452030662,123.7746],[117.62607421875003,62.08454010624412,129.4535],[117.61005859375001,62.09613678593162,129.9655],[117.59902343750002,62.102313543744117,127.8526],[117.56601562500003,62.11322662968162,133.3636],[117.546142578125,62.11554596561912,139.0319],[117.52685546875,62.105731512494117,137.0321],[117.51767578125003,62.09406159061912,114.3457],[117.51259765625002,62.08429596561912,118.3997],[117.50507812500001,62.074969793744117,131.1521],[117.48916015625002,62.06476471561912,111.0],[117.4625,62.054461981244117,122.3859],[117.455078125,62.04767487186912,114.481],[117.452392578125,62.039569403119117,132.3901],[117.45595703125002,62.03400299686912,126.8811],[117.460693359375,62.02997467655662,122.6307],[117.4619140625,62.02655670780662,116.3439],[117.44843750000001,62.013299871869123,130.3582],[117.432373046875,62.00824616093162,130.3274],[117.39365234375003,62.006708074994123,134.5028],[117.35410156250003,61.99909088749412,134.2078],[117.32177734375,61.98554108280662,137.5052],[117.257080078125,61.947772528119117,115.1649],[117.17539062500003,61.92865631718162,128.5928],[116.76259765625002,61.98248932499412,139.0246],[116.65048828125003,61.97150299686912,139.7497],[116.64072265625003,61.97809479374412,117.0],[116.646484375,61.987811590619117,117.0],[116.65517578125002,61.99701569218162,155.4844],[116.65273437500002,62.00397369999412,158.5732],[116.514404296875,62.01422760624412,143.8174],[116.45458984375,62.006708074994123,141.9988],[116.42333984375,62.01740143436912,144.8015],[116.39462890625003,62.064325262494123,157.9112],[116.358642578125,62.074969793744117,164.3951],[116.28652343750002,62.074335028119123,134.3064],[116.2607421875,62.07953522343162,137.4345],[116.25,62.08478424686912,133.4984],[116.237060546875,62.09381744999412,142.2505],[116.226318359375,62.104022528119117,142.5296],[116.22177734375003,62.11286041874412,146.0779],[116.21142578125,62.121600653119117,149.1402],[116.13222656250002,62.14838287968162,144.2334],[116.12089843749999,62.15399811405662,141.6555],[116.11328125,62.16290924686912,142.6521],[116.11191406250003,62.17804596561912,139.3416],[116.15224609375002,62.227655340619123,124.5],[116.171630859375,62.258905340619123,136.2395],[116.163818359375,62.27301666874412,144.2126],[116.15146484375003,62.27741119999412,138.4923],[116.103759765625,62.30597565311912,159.3932],[116.08251953125,62.31110260624412,156.7275],[115.966552734375,62.31781647343162,151.6768],[115.94404296875001,62.32404205936912,131.9072],[115.8875,62.353290106244117,130.7506],[115.87021484375003,62.35980866093162,158.1127],[115.75537109375,62.36981842655662,145.1846],[115.73828125,62.37518952030662,149.0389],[115.725,62.38690827030662,152.2763],[115.72255859375002,62.39862702030662,148.9053],[115.754638671875,62.408221746869117,147.2325],[115.76884765624999,62.418817449994123,142.9814],[115.77734375,62.432245184369123,144.8911],[115.776123046875,62.44489166874412,143.2478],[115.762939453125,62.452411199994117,146.5047],[115.74453125000002,62.45563385624412,142.5167],[115.728125,62.461932684369117,142.4731],[115.72158203125002,62.47846100468162,131.8911],[115.728125,62.49249909061912,144.6137],[115.756103515625,62.51093170780662,132.2976],[115.7625,62.52374909061912,133.8571],[115.75849609375001,62.547479559369123,133.5226],[115.758056640625,62.55792877811912,146.5596],[115.77734375,62.58576080936912,133.8851],[115.74228515625003,62.59552643436912,147.0611],[115.65322265625002,62.59577057499412,134.4246],[115.57431640625003,62.576434637494117,149.6112],[115.53583984375001,62.577264715619123,150.631],[115.48593750000003,62.60871002811912,178.4233],[115.45,62.62494537968162,135.0748],[115.43408203125,62.62921784061912,135.1783],[115.39121093750003,62.630487371869123,135.3403],[115.36835937500001,62.63495514530662,139.8296],[115.3583984375,62.64728424686912,151.8195],[115.34921875000003,62.66461823124412,149.1586],[115.31015625000003,62.69611237186912,136.1081],[115.30322265625,62.71930573124412,147.6662],[115.308837890625,62.737323309369117,150.4637],[115.319580078125,62.74555084843162,151.76],[115.333251953125,62.75165436405662,174.7417],[115.37089843749999,62.78168366093162,158.4065],[115.38173828125002,62.795038153119123,172.1296],[115.37548828125,62.80121491093162,206.0577],[115.35625,62.804461981244117,137.1016],[115.31298828125,62.81891510624412,179.4709],[115.29072265625001,62.822284246869117,183.0909],[115.24892578125002,62.81427643436912,161.6232],[115.22705078125,62.81329987186912,155.0728],[115.20751953125,62.822284246869117,149.9693],[115.20351562500002,62.844501043744117,138.9865],[115.221435546875,62.871698309369123,176.5356],[115.24951171875,62.89728424686912,160.5111],[115.27587890625,62.914422918744123,139.2218],[115.294189453125,62.935565496869117,162.2182],[115.28603515625002,62.95990631718162,139.8784],[115.26425781250003,62.982928778119117,163.761],[115.24169921875,62.99982330936912,171.7348],[115.20751953125,63.01752350468162,140.4335],[115.086181640625,63.056659246869117,157.9128],[115.06582031250002,63.05951569218162,158.6806],[115.04335937500002,63.05756256718162,161.4352],[115.02138671875002,63.052020574994117,141.1339],[115.00205078125003,63.044208074994117,140.787],[114.99091796875001,63.035516668744123,141.5076],[114.97294921874999,63.01264069218162,178.0177],[114.96054687500003,63.00324127811912,155.3667],[114.918212890625,62.99213287968162,199.6367],[114.86386718750003,62.99030182499412,160.804],[114.81005859375,62.99677155155662,142.4502],[114.70595703125002,63.02887604374412,219.5348],[114.68671875000001,63.040790106244117,215.8154],[114.67978515625003,63.049335028119117,234.1577],[114.66855468750003,63.06732819218162,241.0868],[114.658935546875,63.07550690311912,231.5016],[114.62587890625002,63.08795807499412,188.9792],[114.61513671875002,63.095965887494117,199.3608],[114.611083984375,63.11310455936912,175.675],[114.61835937500001,63.122333074994117,156.3412],[114.666015625,63.154071356244117,186.9104],[114.68007812500002,63.16644928593162,145.2769],[114.67578125,63.177850653119123,145.4819],[114.66162109375,63.18671295780662,144.7223],[114.645263671875,63.19159577030662,144.8581],[114.624267578125,63.19232819218162,145.391],[114.4794921875,63.161981512494123,144.0],[114.373046875,63.154803778119117,145.8983],[114.2880859375,63.133661199994123,194.6045],[114.24375,63.12958405155662,243.8274],[114.17294921875003,63.13568756718162,230.6975],[114.158935546875,63.14008209843162,230.2007],[114.153076171875,63.14423248905662,228.2049],[114.14121093750003,63.15521881718162,236.212],[114.13496093750001,63.157489324994117,192.1073],[114.128173828125,63.16217682499412,147.0],[114.119384765625,63.18573639530662,184.4857],[114.1142578125,63.19501373905662,188.0819],[114.09560546875002,63.20490143436912,188.2332],[114.0703125,63.20868561405662,216.8241],[114.02207031250003,63.20587799686912,249.6535],[114.00439453125,63.199725653119117,303.4984],[113.98095703125,63.179559637494123,319.529],[113.968017578125,63.171161199994117,194.9309],[113.94736328125003,63.165155340619123,168.5033],[113.93271484375003,63.16754791874412,148.0],[113.921875,63.17682526249412,164.609],[113.912841796875,63.19159577030662,222.7995],[113.91064453125,63.20355866093162,325.4514],[113.91181640625001,63.21234772343162,370.0549],[113.906982421875,63.21930573124412,277.0692],[113.74306640625002,63.25568268436912,295.1035],[113.7,63.254266668744123,205.7892],[113.664794921875,63.24091217655662,156.9943],[113.63144531250003,63.21808502811912,182.9758],[113.572998046875,63.16120026249412,264.3481],[113.54541015625,63.144647528119123,150.5],[113.47158203125002,63.11554596561912,309.691],[113.45351562500002,63.09601471561912,189.3998],[113.47373046875003,63.096307684369123,241.4339],[113.49892578125002,63.09271881718162,251.5766],[113.51679687500001,63.083856512494123,177.7693],[113.514892578125,63.06806061405662,292.828],[113.496337890625,63.06049225468162,310.8096],[113.31669921874999,63.057001043744123,173.0],[113.27304687500003,63.040155340619123,200.767],[113.2548828125,63.00324127811912,185.9157],[113.267822265625,62.993524481244123,173.0],[113.29736328125,62.993036199994123,173.0],[113.373046875,63.00263092655662,194.0078],[113.38466796875002,63.00189850468162,191.0398],[113.39511718750003,62.996698309369123,173.0],[113.40283203125,62.988788153119117,186.3454],[113.40195312500003,62.98456452030662,204.2204],[113.39697265625,62.98041412968162,173.0],[113.39150390625002,62.97308991093162,173.0],[113.38496093750001,62.96686432499412,196.2104],[113.375,62.96063873905662,205.2741],[113.367431640625,62.95453522343162,207.0132],[113.3681640625,62.94830963749412,206.4502],[113.376953125,62.94208405155662,173.0],[113.42031250000002,62.92438385624412,173.0],[113.43408203125,62.91608307499412,174.6161],[113.445556640625,62.90509674686912,195.6986],[113.45351562500002,62.88996002811912,207.6189],[113.436279296875,62.88507721561912,195.1458],[113.423828125,62.87079498905662,173.0],[113.41347656250002,62.853143621869123,176.2053],[113.40234375,62.83844635624412,209.7298],[113.38496093750001,62.828241278119123,184.0652],[113.36240234375003,62.822137762494123,173.0],[113.33876953125002,62.82062409061912,173.0],[113.31787109375,62.82404205936912,173.0],[113.28339843750001,62.838641668744117,174.9761],[113.26914062500003,62.848895574994117,179.1808],[113.24365234375,62.87665436405662,175.4586],[113.23779296875,62.886249090619117,213.8732],[113.2353515625,62.896258856244117,236.7629],[113.23388671875,62.91107819218162,252.8685],[113.23447265625003,62.92438385624412,266.7917],[113.23671875000002,62.934588934369117,229.4285],[113.23583984375,62.944940496869123,217.6017],[113.22695312500002,62.95880768436912,175.6452],[113.21015625000001,62.97211334843162,239.4258],[113.18935546875002,62.98053619999412,265.8313],[113.16650390625,62.98493073124412,252.6017],[113.046630859375,62.986200262494123,226.5408],[112.99843750000002,62.995868231244117,283.3511],[112.95947265625,63.020282293744117,174.5],[112.974853515625,63.036737371869123,233.6112],[112.98125,63.05219147343162,262.4975],[112.97324218750003,63.063592840619123,176.5462],[112.94599609375001,63.06806061405662,177.3647],[112.89052734375002,63.065936590619117,266.7944],[112.837158203125,63.055047918744123,255.3811],[112.799072265625,63.04132721561912,290.1919],[112.782470703125,63.03143952030662,265.2813],[112.764892578125,63.01715729374412,277.1446],[112.7626953125,63.00311920780662,250.844],[112.7783203125,62.990106512494123,174.5],[112.810546875,62.97308991093162,234.8095],[112.81513671875001,62.957294012494117,257.0206],[112.804443359375,62.94647858280662,184.4099],[112.78457031250002,62.94037506718162,251.6748],[112.76171875,62.938348699994123,291.5306],[112.73837890625003,62.941180731244117,280.6628],[112.71494140625003,62.94843170780662,222.5375],[112.67236328125,62.969354559369123,190.4307],[112.62568359375001,62.98627350468162,199.1993],[112.526123046875,63.00165436405662,244.2835],[112.480224609375,63.020282293744117,316.7386]]}}