{"type":"Feature","properties":{"featurecla":"River","scalerank":6,"rivernum":269,"dissolve":"269River","name":"Vilyuy3","name_alt":null,"note":null,"min_zoom":5.0,"strokeweig":0.25,"name_en":"Vilyuy","min_label":6.0},
"geometry":{"type": "LineString","coordinates": [[107.41552734375,65.617938543744117,390.4984],[107.49853515625,65.62409088749412,442.1076],[107.56484375000002,65.63947174686912,418.2632],[107.58740234375,65.63837311405662,368.709],[107.679443359375,65.596795965619123,450.6748],[107.69492187500003,65.59186432499412,452.0352],[107.71425781250002,65.589960028119123,395.2247],[107.75927734375,65.59223053593162,406.6124],[107.781982421875,65.59052155155662,441.5786],[107.80029296875,65.583124090619123,406.9005],[107.807861328125,65.57453034061912,370.7059],[107.81943359375003,65.55206940311912,395.9227],[107.826904296875,65.541522528119117,384.0711],[107.837158203125,65.534295965619123,406.273],[107.846923828125,65.529901434369123,416.5368],[107.85361328125003,65.522967840619117,452.2613],[107.85498046875,65.50800202030662,505.1562],[107.84970703125003,65.49555084843162,415.8707],[107.828857421875,65.472186590619117,383.8711],[107.82080078125,65.459588934369123,408.5086],[107.84033203125,65.45575592655662,395.6979],[107.90214843749999,65.453387762494117,416.8424],[107.89199218750002,65.44342682499412,416.621],[107.84121093750002,65.41864655155662,357.1581],[107.85908203125001,65.40387604374412,366.2196],[107.904052734375,65.38629791874412,371.566],[107.92246093750003,65.370868231244117,378.8844],[107.92988281250001,65.35626862186912,372.9034],[107.94140625,65.32318756718162,360.7923],[107.950439453125,65.30878327030662,345.2641],[107.96923828125,65.294208074994117,367.3671],[107.9951171875,65.28290436405662,357.5122],[108.02255859375003,65.279559637494117,332.8031],[108.04599609375003,65.28827545780662,342.4188],[108.0478515625,65.29608795780662,342.1433],[108.046630859375,65.30756256718162,362.8704],[108.0478515625,65.31793854374412,387.8057],[108.056884765625,65.32245514530662,391.6939],[108.19667968750002,65.33759186405662,340.5127],[108.27255859375003,65.336688543744117,338.7573],[108.37216796875003,65.31024811405662,351.5177],[108.39306640625,65.29913971561912,353.3642],[108.39638671875002,65.29218170780662,377.3755],[108.39990234375,65.27460358280662,345.3782],[108.403564453125,65.26776764530662,333.5409],[108.417236328125,65.260126043744123,363.1672],[108.57626953125003,65.24701569218162,335.9045],[108.5947265625,65.233661199994117,332.612],[108.57177734375,65.22431061405662,332.0406],[108.584228515625,65.219501043744117,333.737],[108.62890625,65.21381256718162,333.4064],[108.64541015625002,65.20099518436912,321.5],[108.644775390625,65.19025299686912,336.688],[108.6328125,65.180926824994117,333.0923],[108.615234375,65.17218659061912,336.2106],[108.63125,65.16229889530662,331.8607],[108.65214843749999,65.158710028119117,340.9932],[108.69375,65.159198309369117,343.6206],[108.70888671875002,65.155292059369117,327.3041],[108.719482421875,65.14594147343162,328.2517],[108.73876953125,65.123797918744117,325.9664],[108.77431640625002,65.10468170780662,316.0],[108.82333984375003,65.088641668744117,361.2654],[108.872802734375,65.081805731244117,314.5],[108.91005859375002,65.09027741093162,313.5],[108.92138671875,65.10150787968162,380.944],[108.93544921875002,65.12689850468162,365.5142],[108.94482421875,65.137469793744117,433.7128],[108.96142578125,65.14618561405662,464.7025],[108.983642578125,65.15302155155662,334.7907],[109.00673828125002,65.15753815311912,385.7846],[109.026123046875,65.159198309369117,355.64],[109.046142578125,65.15827057499412,341.4661],[109.0634765625,65.155536199994117,325.0602],[109.18369140625003,65.113544012494117,321.3545],[109.20546875000002,65.09662506718162,319.4225],[109.21464843749999,65.077264715619123,320.4866],[109.22031250000003,65.05646393436912,307.0569],[109.232177734375,65.035028387494123,306.5],[109.264404296875,65.02313873905662,335.1162],[109.35693359375,65.01911041874412,313.3605],[109.376220703125,65.00433991093162,315.8652],[109.38330078125,64.987909246869123,308.3782],[109.400634765625,64.98114655155662,311.6539],[109.480712890625,64.98065827030662,364.4978],[109.49257812500002,64.976678778119123,328.4028],[109.49912109375003,64.970477606244117,316.8485],[109.49697265625002,64.965594793744117,329.3],[109.49257812500002,64.96039459843162,327.2546],[109.492919921875,64.953143621869117,346.5912],[109.5029296875,64.93121979374412,310.927],[109.50634765625,64.92023346561912,322.6693],[109.50644531250003,64.91217682499412,319.4495],[109.49658203125,64.899042059369123,312.2243],[109.44785156250003,64.86713287968162,370.2354],[109.4453125,64.86176178593162,342.4912],[109.44580078125,64.85504791874412,330.5138],[109.44833984375003,64.84857819218162,342.007],[109.45126953125003,64.84320709843162,345.8166],[109.381103515625,64.820428778119123,427.1359],[109.34365234375002,64.803485418744117,351.8749],[109.31757812500001,64.784930731244117,345.712],[109.3134765625,64.772235418744117,312.2244],[109.321533203125,64.761493231244117,312.455],[109.345458984375,64.74396393436912,297.7125],[109.34736328125001,64.73175690311912,303.331],[109.335693359375,64.72125885624412,345.9316],[109.32099609375001,64.710956121869117,349.9129],[109.31416015625001,64.69928619999412,329.2263],[109.32167968750002,64.68451569218162,292.1157],[109.33876953125002,64.677606512494123,310.0134],[109.376220703125,64.67194244999412,291.863],[109.432373046875,64.653436590619123,327.7344],[109.47597656250002,64.64984772343162,315.3849],[109.53544921874999,64.63275787968162,407.3992],[109.55556640625002,64.631952215619123,383.2366],[109.58310546875003,64.63446686405662,337.5326],[109.6103515625,64.633905340619123,357.9857],[109.62939453125,64.624139715619123,319.3657],[109.62460937500003,64.601581121869117,389.4996],[109.53544921874999,64.583124090619123,363.7317],[109.5126953125,64.56586334843162,342.7905],[109.51923828125001,64.555292059369123,322.391],[109.5302734375,64.548846746869117,325.0451],[109.53261718750002,64.543085028119123,285.5],[109.5126953125,64.53473541874412,343.6765],[109.491455078125,64.532342840619123,284.5],[109.44033203125002,64.535760809369123,299.4292],[109.417236328125,64.53473541874412,295.7018],[109.34619140625,64.520282293744117,348.3935],[109.32587890625001,64.503924871869117,324.0324],[109.33837890625,64.476434637494123,377.185],[109.36533203125003,64.44342682499412,309.9052],[109.417236328125,64.40509674686912,293.8396],[109.429443359375,64.387469793744117,309.4271],[109.427734375,64.37457916874412,360.5258],[109.4130859375,64.36676666874412,376.0706],[109.386474609375,64.36408112186912,401.7601],[109.36855468750002,64.35431549686912,342.5687],[109.35986328125,64.33405182499412,291.3076],[109.3486328125,64.31708405155662,277.5],[109.322998046875,64.317010809369123,353.2573],[109.27197265625,64.32953522343162,386.7893],[109.203125,64.337420965619117,356.3426],[109.13720703125,64.33307526249412,363.8301],[109.09511718750002,64.308856512494117,327.2918],[109.10976562500002,64.297870184369117,308.2987],[109.1181640625,64.286493231244123,275.0],[109.11660156250002,64.27423737186912,339.432],[109.101318359375,64.26044342655662,320.9097],[109.11337890625003,64.252313543744123,273.5],[109.107421875,64.243768621869123,291.7021],[109.08076171875001,64.22687409061912,308.6809],[109.06982421875,64.21503327030662,338.3165],[109.06210937500003,64.202899481244117,341.38],[109.04628906250002,64.15924713749412,269.1381],[109.04873046875002,64.15326569218162,299.4402],[109.060302734375,64.14435455936912,295.9046],[109.08261718750003,64.136346746869123,303.9884],[109.10761718750001,64.136590887494123,317.7928],[109.156494140625,64.14435455936912,337.9406],[109.223388671875,64.146991278119117,364.5942],[109.24521484375003,64.15119049686912,369.7559],[109.31416015625001,64.17853424686912,425.4529],[109.361328125,64.181756903119123,408.9889],[109.542236328125,64.15314362186912,375.4827],[109.579833984375,64.141131903119117,375.3392],[109.59970703125003,64.122186590619123,286.0421],[109.58164062500003,64.096551824994123,268.103],[109.56289062500002,64.08771393436912,266.994],[109.54238281250002,64.08356354374412,267.4452],[109.424072265625,64.079950262494123,272.8791],[109.40683593750003,64.07233307499412,251.5],[109.38662109375002,64.05390045780662,251.5],[109.38369140625002,64.046893621869117,266.3575],[109.38339843750003,64.01801178593162,263.5746],[109.3857421875,64.007098699994117,251.0],[109.39179687500001,63.99799225468162,264.2472],[109.40341796875003,63.990106512494123,262.3557],[109.455078125,63.97040436405662,271.4649],[109.46875,63.96246979374412,270.565],[109.469482421875,63.95258209843162,290.3636],[109.44443359375003,63.91095612186912,325.2966],[109.56533203125002,63.885126043744123,313.9337],[109.57705078125002,63.876825262494123,377.0745],[109.58164062500003,63.85980866093162,330.8257],[109.573974609375,63.84662506718162,244.5],[109.5556640625,63.83978912968162,271.5416],[109.519775390625,63.832147528119123,323.1526],[109.490234375,63.816034246869123,244.0],[109.48427734375002,63.80634186405662,255.1769],[109.47861328125003,63.787469793744123,260.58],[109.47568359375003,63.755389715619117,254.0365],[109.47236328125001,63.74652741093162,253.6546],[109.45644531250002,63.73261139530662,255.7501],[109.4365234375,63.726336981244117,244.0],[109.415625,63.722528387494123,252.3764],[109.37919921874999,63.71039459843162,243.5],[109.33974609375002,63.70709869999412,242.5],[109.239013671875,63.677606512494123,252.3624],[109.20576171875001,63.66339752811912,250.3002],[109.17832031250003,63.64533112186912,245.8927],[109.17431640625,63.62970612186912,248.1795],[109.211181640625,63.62299225468162,242.0],[109.29443359375,63.62787506718162,279.5816],[109.3369140625,63.61994049686912,245.1611],[109.35507812500003,63.592547918744117,274.1143],[109.35205078125,63.55158112186912,286.7336],[109.36835937500001,63.54498932499412,247.5495],[109.41425781250001,63.53510162968162,242.0],[109.424072265625,63.524286199994123,242.0],[109.4423828125,63.495233465619123,287.0037],[109.4853515625,63.49262116093162,268.5706],[109.53359375000002,63.498065496869117,338.1395],[109.56796875000003,63.49323151249412,242.0],[109.57080078125,63.48725006718162,256.3629],[109.571875,63.478045965619117,288.0723],[109.57460937500002,63.46784088749412,303.4193],[109.58681640625002,63.455438543744123,242.0]]}}