{"type":"Feature","properties":{"featurecla":"River","scalerank":9,"rivernum":1115,"dissolve":"1115River","name":"Ozhogina1","name_alt":null,"note":null,"min_zoom":7.1,"strokeweig":0.2,"name_en":"Ozhogina","min_label":8.1},
"geometry":{"type": "LineString","coordinates": [[145.84482421875003,66.66327545780662,582.5353],[145.87255859375,66.67621491093162,530.2087],[146.06259765625003,66.710467840619117,370.0615],[146.513671875,66.73517487186912,179.921],[146.55136718750003,66.745721746869123,172.3423],[146.5791015625,66.76178619999412,163.8258],[146.60537109375002,66.79999420780662,151.5513],[146.622314453125,66.81647369999412,145.3927],[146.64794921875,66.823260809369117,142.5122],[146.727783203125,66.82868073124412,136.54],[146.80625,66.844989324994117,128.6025],[146.84228515625,66.860711981244123,124.4656],[146.85400390625,66.86420319218162,122.6041],[146.87558593750003,66.864374090619123,121.5413],[146.92431640625,66.85858795780662,119.0601],[146.94277343750002,66.861102606244117,116.3691],[146.974609375,66.872577215619117,113.6628],[147.01318359375,66.88056061405662,113.5036],[147.05244140625,66.88153717655662,112.5801],[147.086181640625,66.87164948124412,108.0986],[147.088134765625,66.868768621869123,109.3371],[147.088134765625,66.865252996869117,109.0901],[147.0888671875,66.861444403119123,112.4451],[147.09345703125,66.85797760624412,107.5728],[147.1064453125,66.85260651249412,108.0448],[147.18603515625,66.847674871869117,101.5887],[147.2041015625,66.85114166874412,102.309],[147.21396484375003,66.85724518436912,103.153],[147.233154296875,66.87445709843162,100.2256],[147.2443359375,66.882196356244123,100.1493],[147.2666015625,66.88776276249412,99.1363],[147.3126953125,66.88300202030662,97.4759],[147.33310546875003,66.88593170780662,96.5212],[147.3283203125,66.89081452030662,96.389],[147.319580078125,66.905780340619117,98.528],[147.40830078125003,66.919452215619117,94.589],[147.44169921875005,66.92999909061912,92.5223],[147.45849609375,66.93317291874412,92.0797],[147.477294921875,66.933124090619117,92.0787],[147.465576171875,66.92523834843162,92.3027],[147.4484375,66.91620514530662,96.1771],[147.43886718750002,66.908807684369123,90.397],[147.44980468750003,66.905780340619117,87.8067],[147.57080078125,66.92536041874412,86.7501],[147.591796875,66.926044012494117,86.8551],[147.61376953125,66.919452215619117,89.7343],[147.62558593750003,66.91132233280662,87.9684],[147.634521484375,66.903094793744117,91.4049],[147.64501953125,66.89630768436912,87.2417],[147.66152343750002,66.89215729374412,87.3416],[147.78847656250002,66.88800690311912,83.2206],[147.90175781250002,66.85797760624412,81.446],[147.98427734375002,66.85797760624412,79.7884]]}}