{"type":"Feature","properties":{"featurecla":"River","scalerank":1,"rivernum":12,"dissolve":"12River","name":"Lena8","name_alt":null,"note":null,"min_zoom":2.0,"strokeweig":0.8,"name_en":"Lena","min_label":3.0},
"geometry":{"type": "LineString","coordinates": [[129.379638671875,63.489862371869123,66.4606],[129.39755859375003,63.478778387494117,69.7965],[129.419677734375,63.45587799686912,70.611],[129.45029296875003,63.408954168744117,71.7284],[129.47060546875002,63.38605377811912,71.1663],[129.633056640625,63.271844793744123,72.5415],[129.654541015625,63.24396393436912,71.356],[129.65576171875,63.21723053593162,76.878],[129.6142578125,63.15668366093162,76.2089],[129.58349609375,63.08356354374412,74.4408],[129.585693359375,63.06549713749412,77.8047],[129.60625,63.04840729374412,74.3973],[129.678955078125,63.000018621869117,76.8555],[129.71142578125,62.969745184369117,77.6624],[129.73193359375,62.93915436405662,81.83],[129.784912109375,62.806756903119123,77.0871],[129.84794921875005,62.694208074994123,77.414],[129.85302734375,62.669305731244123,76.9156],[129.85410156250003,62.64166901249412,80.7031],[129.859619140625,62.61456940311912,82.7644],[129.87763671875,62.591571356244117,83.7255],[129.90976562500003,62.574481512494117,86.6726],[129.977783203125,62.550165106244123,82.0],[129.99677734375,62.53864166874412,82.0],[130.01572265625003,62.514667059369117,82.0],[130.02382812500002,62.501336981244123,85.7037],[130.02988281250003,62.48566315311912,87.0577],[130.038818359375,62.469110418744123,87.2094],[130.05068359375002,62.45258209843162,82.0],[130.05869140625003,62.43353912968162,88.2587],[130.05654296875002,62.40949127811912,82.0],[130.04189453125002,62.36029694218162,82.0],[130.0390625,62.34015534061912,82.0],[130.039794921875,62.32343170780662,87.8821],[130.03847656250002,62.30560944218162,82.0],[130.029052734375,62.28497955936912,87.9118],[130.0109375,62.26618073124412,91.3833],[129.98349609375003,62.253924871869117,84.0],[129.92275390625002,62.23859284061912,85.0],[129.90214843750005,62.224627996869117,93.9318],[129.89404296875,62.20099518436912,85.0],[129.88955078125002,62.174090887494117,85.5],[129.87177734375,62.12274811405662,87.0],[129.87109375,62.088397528119117,87.5],[129.875244140625,62.046161199994117,87.5],[129.87451171875,62.003192449994117,93.0531],[129.86367187500002,61.966424871869123,88.0],[129.83798828125003,61.94281647343162,88.5],[129.76181640625003,61.90302155155662,88.5],[129.74423828125003,61.891131903119117,92.8038],[129.728271484375,61.87201569218162,88.5],[129.71669921875002,61.84857819218162,89.0],[129.7080078125,61.80304596561912,89.0],[129.697265625,61.78839752811912,89.0],[129.563232421875,61.67462799686912,89.0],[129.53408203125002,61.656512762494117,94.1256],[129.32919921875003,61.58063385624412,90.0],[129.301513671875,61.56207916874412,90.0],[129.259765625,61.52692291874412,90.0],[129.215576171875,61.49921295780662,90.0]]}}