{"type":"Feature","properties":{"featurecla":"River","scalerank":5,"rivernum":202,"dissolve":"202River","name":"Trofimovskaya","name_alt":null,"note":null,"min_zoom":4.7,"strokeweig":0.3,"name_en":"Trofimovskaya Protoka","min_label":5.7},
"geometry":{"type": "LineString","coordinates": [[126.511962890625,72.385858465619123,-0.1839],[126.48105468750003,72.436786199994117,4.5602],[126.461181640625,72.476434637494123,5.4079],[126.412353515625,72.51947662968162,4.3021],[126.421875,72.54877350468162,6.0398],[126.433837890625,72.55683014530662,7.0429],[126.46630859375,72.57099030155662,10.7891],[126.47988281250002,72.57953522343162,10.9034],[126.49091796875001,72.59125397343162,9.9575],[126.51093750000001,72.62421295780662,8.6917],[126.528076171875,72.63812897343162,8.3775],[126.5478515625,72.645379949994123,7.4006],[126.58974609375002,72.65521881718162,9.5833],[126.673828125,72.69489166874412,3.3443],[126.76083984375003,72.71320221561912,9.4529],[126.80898437500002,72.72992584843162,8.0907],[126.830078125,72.75519440311912,8.327],[126.83134765624999,72.76850006718162,6.9381],[126.83251953125,72.77411530155662,0.0],[126.829833984375,72.77875397343162,0.0],[126.8125,72.79779694218162,8.03],[126.804443359375,72.810565496869117,8.3279],[126.7978515625,72.82379791874412,7.79],[126.79580078125002,72.834002996869117,7.3607],[126.81630859375002,72.85956452030662,8.1631],[126.8583984375,72.87665436405662,6.0935],[127.0234375,72.92059967655662,4.7895],[127.06513671875001,72.941034246869123,6.3034],[127.08330078124999,72.96710846561912,4.1423],[127.105712890625,72.991083074994123,5.4306],[127.156982421875,73.01337311405662,1.1337],[127.24824218750001,73.03949616093162,1.6659],[127.35654296875003,73.046747137494123,3.792],[127.45468750000003,73.074579168744123,4.0323],[127.48779296875,73.079706121869123,2.0501],[127.52207031250003,73.07977936405662,4.1217],[127.568359375,73.06806061405662,4.2147],[127.58349609375,73.06610748905662,3.8486],[127.599609375,73.068231512494123,0.3924],[127.63222656250002,73.077655340619117,0.5],[127.6640625,73.081903387494123,1.7904],[127.694580078125,73.091327215619117,1.7723],[127.71035156250002,73.09345123905662,3.8303],[127.779541015625,73.08600494999412,0.0],[127.80244140625001,73.08722565311912,3.6066],[127.8525390625,73.101825262494117,2.7398],[128.0361328125,73.19013092655662,0.386],[128.16181640625,73.22308991093162,0.668],[128.234619140625,73.265399481244117,1.543]]}}