{"type":"Feature","properties":{"featurecla":"River","scalerank":8,"rivernum":973,"dissolve":"973River","name":"null78","name_alt":null,"note":null,"min_zoom":7.0,"strokeweig":0.3,"name_en":null,"min_label":8.0},
"geometry":{"type": "LineString","coordinates": [[125.760498046875,72.66889069218162,7.5468],[125.779296875,72.679071356244123,0.9199],[125.80322265625,72.68805573124412,8.7244],[125.828125,72.69440338749412,7.4827],[125.872314453125,72.700311590619123,7.4388],[125.87490234375002,72.709247137494117,4.0111],[125.86582031250003,72.72125885624412,8.1428],[125.853271484375,72.73407623905662,8.1384],[125.8505859375,72.743426824994117,7.4967],[125.8544921875,72.75177643436912,7.2969],[125.853271484375,72.761493231244117,5.7126],[125.82607421875002,72.78363678593162,8.3308],[125.82041015625003,72.795282293744123,8.1298],[125.82099609375001,72.80707428593162,4.2888],[125.8291015625,72.81598541874412,4.6982],[125.90380859375,72.84235260624412,1.084],[125.9228515625,72.85846588749412,7.6439],[125.892333984375,72.876581121869123,6.4612],[125.85361328125003,72.88043854374412,6.0684],[125.84189453125003,72.88580963749412,4.1392],[125.84248046875001,72.90167877811912,4.4713],[125.85214843750003,72.91412994999412,11.1986],[125.884375,72.932879949994117,2.1926],[125.89765625000001,72.943866278119117,-0.8024],[125.87343750000002,72.957049871869117,-1.4273],[125.787841796875,72.97052643436912,5.6681],[125.798583984375,72.97492096561912,2.5851],[125.822021484375,72.99103424686912,5.1851],[125.975,73.01703522343162,7.5414],[125.986328125,73.02558014530662,8.7328],[125.98105468750003,73.03351471561912,5.7762],[125.967041015625,73.03888580936912,1.1383],[125.952392578125,73.03949616093162,1.2592],[125.9853515625,73.05841705936912,8.0464],[125.993896484375,73.06610748905662,3.1863],[125.99453125000002,73.07208893436912,1.2697],[125.98916015625002,73.07587311405662,2.5251],[125.986083984375,73.081659246869123,4.6855],[125.993896484375,73.09345123905662,4.2905],[126.014404296875,73.106073309369123,8.8255],[126.09628906250003,73.134393621869123,1.2615],[126.18564453125003,73.17938873905662,1.4161],[126.20615234375003,73.19537994999412,2.0109],[126.19130859375002,73.202508856244123,11.2785],[126.1650390625,73.20917389530662,5.5872],[126.15156250000001,73.22382233280662,6.6126],[126.17011718750001,73.23187897343162,8.0344],[126.281982421875,73.23126862186912,7.8251],[126.3076171875,73.243182684369117,0.6689],[126.30673828125003,73.254901434369117,0.0],[126.296875,73.26850006718162,0.0],[126.29550781250003,73.28583405155662,1.877],[126.31113281250003,73.299432684369123,1.6422],[126.39267578125003,73.33173248905662,0.5907],[126.40322265625002,73.341327215619117,2.2243],[126.40380859375,73.35346100468162,-0.0425],[126.40878906250003,73.365497137494117,0.0922],[126.43212890625,73.374627996869123,0.2154]]}}