{"type":"Feature","properties":{"featurecla":"River","scalerank":7,"rivernum":632,"dissolve":"632River","name":"Yana2","name_alt":null,"note":null,"min_zoom":6.0,"strokeweig":0.3,"name_en":"Yana","min_label":7.0},
"geometry":{"type": "LineString","coordinates": [[135.247802734375,70.67804596561912,119.8318],[135.2919921875,70.706805731244117,47.7657],[135.34609375000002,70.73151276249412,68.0931],[135.373779296875,70.73432037968162,76.2004],[135.40048828125003,70.72870514530662,43.8894],[135.41416015625003,70.71539948124412,13.3192],[135.40234375,70.69513580936912,12.1467],[135.43105468750002,70.68024323124412,13.5015],[135.466015625,70.67975494999412,12.745],[135.533203125,70.68891022343162,11.69],[135.69091796875,70.67462799686912,11.0312],[135.685791015625,70.68305084843162,13.4086],[135.67783203125003,70.68817780155662,9.7598],[135.66787109375002,70.69000885624412,13.7604],[135.682861328125,70.70258209843162,13.2709],[135.834375,70.715594793744117,10.7909],[135.8251953125,70.70856354374412,10.1871],[135.81503906250003,70.70392487186912,4.1313],[135.80419921875,70.70197174686912,3.6981],[135.79267578125,70.70258209843162,8.2594],[135.83554687500003,70.682147528119117,12.9154],[135.908935546875,70.69403717655662,11.2852],[135.97304687500002,70.723016668744123,11.6153],[135.98828125,70.75409577030662,11.188],[135.98046875,70.77631256718162,9.7796],[135.99365234375,70.79071686405662,10.5593],[136.01708984375,70.79791901249412,11.0232],[136.039794921875,70.79877350468162,11.0864],[136.10458984375003,70.77789948124412,3.273],[136.13623046875,70.772821356244123,3.0],[136.1701171875,70.78449127811912,9.2405],[136.15273437500002,70.79682037968162,10.4856],[136.150634765625,70.813592840619123,6.8716],[136.15234375,70.832049871869117,10.07],[136.14599609375,70.84931061405662,11.0057],[136.15468750000002,70.868036199994123,9.7763],[136.19541015625003,70.88715241093162,9.7595],[136.24326171875003,70.90204498905662,8.8586],[136.34072265625002,70.91925690311912,8.9423],[136.35439453125002,70.927850653119123,9.6061],[136.357421875,70.94135162968162,8.5353],[136.35292968750002,70.952411199994117,7.2001],[136.34345703125,70.959833074994123,2.0],[136.3310546875,70.96259186405662,2.0],[136.29541015625,70.966571356244117,2.0],[136.25791015625003,70.977411199994123,1.0],[136.22265625,70.993768621869123,6.7931],[136.19394531250003,71.01410553593162,5.9922],[136.16679687500005,71.048602606244117,6.1941],[136.15,71.05829498905662,5.7059],[135.95517578125003,71.08808014530662,6.876],[135.919677734375,71.10968659061912,6.355],[135.912841796875,71.137225653119117,6.9557],[135.94013671875,71.15289948124412,5.218],[135.97861328125003,71.15973541874412,7.1358],[136.0048828125,71.16058991093162,5.1207],[136.09130859375,71.13654205936912,5.4093],[136.1375,71.13068268436912,2.2669],[136.16328125,71.147577215619123,6.0688],[136.141796875,71.151385809369117,6.3429],[136.08066406250003,71.18231842655662,6.1181],[136.12705078125003,71.21637604374412,4.7422],[136.12880859375002,71.23432037968162,4.421],[136.10117187500003,71.257440496869123,5.0918],[136.06005859375,71.27496979374412,4.8571],[136.03574218750003,71.28192780155662,5.1107],[135.97011718750002,71.28790924686912,3.1344],[135.94736328125003,71.294061590619123,4.6985],[135.93056640625002,71.30524323124412,3.5172],[135.96464843750005,71.317889715619117,4.1525],[136.09326171875,71.33881256718162,3.5331],[136.112060546875,71.345575262494123,0.0],[136.12880859375002,71.35419342655662,2.1196],[136.13583984375003,71.363885809369123,2.4959],[136.12890625,71.374530340619117,1.5798],[136.09414062500002,71.38641998905662,0.4489],[136.08066406250003,71.39398834843162,1.031],[136.11386718750003,71.410272528119123,1.0879],[136.120361328125,71.42121002811912,2.9845],[136.108642578125,71.43561432499412,2.3009],[136.13388671875003,71.446551824994117,2.5165],[136.16181640625,71.45001862186912,2.1745],[136.21845703125,71.448602606244123,2.5937],[136.21640625000003,71.453387762494117,1.9285],[136.213134765625,71.464960028119123,2.3863],[136.21103515625003,71.469745184369117,2.0444],[136.25107421875003,71.47174713749412,0.0],[136.48251953125003,71.51630280155662,1.1893],[136.51953125,71.51752350468162,2.6408]]}}