{"type":"Feature","properties":{"featurecla":"River","scalerank":9,"rivernum":1111,"dissolve":"1111River","name":"Selennyakh1","name_alt":null,"note":null,"min_zoom":7.1,"strokeweig":0.2,"name_en":"Selennyakh","min_label":8.1},
"geometry":{"type": "LineString","coordinates": [[137.43007812500002,69.56037018436912,497.4213],[137.53994140625002,69.55377838749412,463.0936],[137.5751953125,69.541278387494117,453.3057],[137.58837890625,69.520135809369123,450.5308],[137.60302734375,69.50348541874412,437.4545],[137.636962890625,69.49066803593162,427.4856],[137.6982421875,69.476092840619117,415.7062],[137.712158203125,69.470965887494117,412.0136],[137.72226562500003,69.464618231244117,410.174],[137.7392578125,69.448114324994123,484.5305],[137.74082031250003,69.44440338749412,434.6623],[137.743359375,69.433368231244117,396.953],[137.74609375,69.42829010624412,395.585],[137.75058593750003,69.425409246869123,455.5069],[137.7646484375,69.42059967655662,485.5732],[137.770263671875,69.41742584843162,525.3212],[137.7802734375,69.40997955936912,481.8883],[137.80244140625,69.39716217655662,384.1196],[137.825439453125,69.38043854374412,378.0878],[137.857177734375,69.37287018436912,375.6854],[137.8701171875,69.366229559369117,373.1922],[137.87919921875005,69.346210028119117,367.92],[137.87109375,69.30109284061912,358.0782],[137.87978515625002,69.280292059369117,353.2078],[137.86767578125,69.260028387494117,354.6565],[137.8283203125,69.238055731244117,355.3972],[137.80859375,69.220965887494117,350.7415],[137.85595703125,69.21539948124412,350.2905],[137.85400390625,69.21088287968162,354.3047],[137.85107421875,69.19953034061912,358.9585],[137.84912109375,69.19489166874412,361.599],[137.91064453125,69.183954168744123,351.7165],[137.94091796875,69.17340729374412,350.561],[137.9658203125,69.160174871869117,354.3331],[137.994873046875,69.13617584843162,370.9785],[138.00634765625,69.12970612186912,380.5215],[138.02285156250002,69.12616608280662,350.0233],[138.03769531250003,69.126239324994117,352.0086],[138.05078125,69.123797918744117,349.09],[138.06142578125002,69.11298248905662,351.5996],[138.05361328125002,69.10736725468162,350.1726],[138.0451171875,69.10309479374412,351.5319],[138.0361328125,69.10016510624412,348.8791],[138.02646484375003,69.09870026249412,347.5821],[138.04580078125002,69.07953522343162,350.4933],[138.07666015625,69.071307684369117,350.8586],[138.09970703125003,69.06146881718162,347.401],[138.095458984375,69.037225653119123,350.4308],[138.11953125000002,69.031610418744123,347.6461],[138.16796875,69.02741119999412,351.7003],[138.3017578125,68.978534246869117,353.1337],[138.4990234375,68.936542059369117,343.6843],[138.54736328125,68.93353912968162,348.3693],[138.55927734375,68.931512762494123,347.7292],[138.56904296875,68.927362371869123,343.8447],[138.570556640625,68.92279694218162,346.9003],[138.57177734375,68.906122137494123,347.5864],[138.5751953125,68.89948151249412,348.3948],[138.646240234375,68.871356512494117,348.0234],[138.66855468750003,68.856073309369123,348.2967],[138.63671875,68.845477606244117,348.5689],[138.66103515625002,68.82611725468162,342.054],[138.69775390625,68.806024481244123,346.0114],[138.73642578125003,68.79035065311912,344.5714],[138.76708984375,68.78400299686912,343.5516],[138.78310546875002,68.77850983280662,343.6111],[138.8076171875,68.754169012494117,346.1422],[138.845458984375,68.743426824994117,338.9942],[138.876953125,68.720331121869123,336.3381],[138.912109375,68.71198151249412,340.2745],[138.92910156250002,68.70392487186912,337.9532],[138.94394531250003,68.69293854374412,336.4044],[138.95263671875,68.68097565311912,335.3857],[138.95302734375002,68.66535065311912,335.584],[138.94082031250002,68.635760809369117,325.477],[138.93896484375,68.625751043744117,319.8196],[138.94921875,68.61505768436912,321.1558],[138.968017578125,68.60736725468162,318.1895],[139.04755859375,68.59039948124412,311.7518],[139.0548828125,68.58478424686912,313.3688],[139.05244140625,68.57501862186912,311.2068],[139.043212890625,68.57037994999412,311.2921],[139.03134765625003,68.56964752811912,310.2164],[139.02089843750002,68.57111237186912,324.5067],[139.029296875,68.567401434369117,311.528],[139.04746093750003,68.561639715619123,309.126],[139.0548828125,68.55744049686912,309.3728],[139.062255859375,68.549432684369123,307.4008],[139.06406250000003,68.542840887494123,310.587],[139.06503906250003,68.53668854374412,310.5959],[139.06875,68.53009674686912,307.6782],[139.08242187500002,68.51972077030662,303.3293],[139.11484375000003,68.50519440311912,297.9709],[139.13076171875002,68.49542877811912,299.2826],[139.13710937500002,68.487420965619123,295.5895],[139.14990234375,68.46430084843162,294.6625],[139.15810546875002,68.45441315311912,293.385],[139.196533203125,68.43183014530662,291.3691],[139.20595703125002,68.42023346561912,288.919],[139.16542968750002,68.41974518436912,287.0239],[139.146240234375,68.415643621869123,289.0441],[139.13076171875002,68.406024481244117,290.3512],[139.124755859375,68.398797918744123,292.5306],[139.1181640625,68.387469793744117,296.5718],[139.11679687500003,68.377069403119123,296.2863],[139.147216796875,68.364129949994123,281.9408],[139.16083984375,68.34479401249412,282.8883],[139.17138671875,68.32294342655662,292.6065],[139.181396484375,68.30731842655662,291.3623],[139.204296875,68.29266998905662,276.784],[139.21875,68.28595612186912,274.1628],[139.241943359375,68.278436590619123,271.7726],[139.24990234375002,68.26801178593162,269.9321],[139.25537109375,68.256708074994123,269.923],[139.260498046875,68.24957916874412,270.6189],[139.313720703125,68.23834869999412,267.9424],[139.322021484375,68.23224518436912,267.8565],[139.32773437500003,68.21832916874412,266.7056],[139.342041015625,68.21234772343162,265.9259],[139.3759765625,68.208026434369117,260.3003],[139.35996093750003,68.20184967655662,264.9666],[139.32470703125,68.20026276249412,265.8004],[139.30839843750005,68.194354559369117,276.0502],[139.356640625,68.18073151249412,261.6406],[139.34521484375,68.175067449994117,268.8398],[139.34023437500002,68.16766998905662,264.2761],[139.33652343750003,68.159784246869123,260.8557],[139.32871093750003,68.15277741093162,260.4512],[139.31777343750002,68.14826080936912,262.0774],[139.28095703125,68.13971588749412,264.307],[139.29375,68.119501043744123,253.7578],[139.312255859375,68.11139557499412,252.1889],[139.332275390625,68.10529205936912,255.2328],[139.349853515625,68.091327215619117,253.5771],[139.33974609375002,68.089862371869117,253.8655],[139.33544921875,68.08746979374412,253.0397],[139.32871093750003,68.077655340619117,257.9258],[139.39765625,68.06342194218162,296.8347],[139.38623046875,68.05426666874412,251.2561],[139.37548828125,68.05145905155662,251.4115],[139.366943359375,68.04791901249412,257.9917],[139.36289062500003,68.03668854374412,259.4127],[139.3671875,68.030633856244123,256.1192],[139.386474609375,68.01239655155662,249.3434],[139.39072265625003,68.005975653119123,246.9368],[139.40195312500003,67.98200104374412,243.4984],[139.42841796875,67.96930573124412,240.0198],[139.487060546875,67.95477936405662,249.9808],[139.474853515625,67.95636627811912,241.2188],[139.463623046875,67.95477936405662,241.517],[139.45371093750003,67.949579168744123,239.6383],[139.44599609375,67.94049713749412,238.9557],[139.45185546875,67.93781159061912,239.9013],[139.4609375,67.93036530155662,238.2639],[139.466552734375,67.92682526249412,234.9708],[139.45224609375003,67.91998932499412,237.9037],[139.47314453125,67.90607330936912,238.7115],[139.5234375,67.89484284061912,348.5074],[139.56582031250002,67.86981842655662,234.9849],[139.59521484375,67.859881903119117,236.8437],[139.626220703125,67.85346100468162,234.3819],[139.65126953125002,67.85114166874412,233.7638]]}}