{"type":"Feature","properties":{"featurecla":"River","scalerank":8,"rivernum":848,"dissolve":"848River","name":"Maya3","name_alt":null,"note":null,"min_zoom":7.0,"strokeweig":0.3,"name_en":"Maya","min_label":8.0},
"geometry":{"type": "LineString","coordinates": [[134.767578125,59.90277741093162,166.0],[134.76669921875003,59.918817449994123,184.5761],[134.771240234375,59.935321356244117,194.3644],[134.78271484375,59.953387762494117,193.8082],[134.802734375,59.974237371869123,175.9809],[134.81650390625003,60.00604889530662,165.0],[134.8048828125,60.040643621869123,169.9709],[134.764892578125,60.101190496869123,187.6745],[134.77001953125,60.11127350468162,162.6769],[134.764892578125,60.12164948124412,163.2219],[134.77255859375003,60.13275787968162,170.3882],[134.77001953125,60.13800690311912,168.5815],[134.76318359375,60.14203522343162,163.4488],[134.75527343750002,60.153924871869123,159.0999],[134.746337890625,60.16095612186912,167.9834],[134.7443359375,60.16632721561912,164.3208],[134.74550781250002,60.17096588749412,160.7228],[134.751220703125,60.183710028119123,171.1832],[134.75107421875003,60.194940496869123,184.289],[134.75302734375003,60.20062897343162,259.9409],[134.75068359375,60.206317449994117,306.6901],[134.73759765625005,60.21723053593162,306.7432],[134.72119140625,60.225116278119117,329.7469],[134.680419921875,60.235126043744117,299.5556],[134.60732421875002,60.266864324994117,250.9404],[134.5791015625,60.284442449994117,167.4686],[134.56689453125,60.303241278119117,156.4601],[134.60507812500003,60.33856842655662,160.5275],[134.61572265625,60.35895416874412,153.0853],[134.58740234375,60.36810944218162,154.1682],[134.59228515625,60.38934967655662,169.327],[134.582763671875,60.40949127811912,161.231],[134.5537109375,60.44379303593162,158.7294]]}}