{"type":"Feature","properties":{"featurecla":"River","scalerank":6,"rivernum":317,"dissolve":"317River","name":"Olenëk3","name_alt":null,"note":null,"min_zoom":5.0,"strokeweig":0.3,"name_en":"Olenëk","min_label":6.0},
"geometry":{"type": "LineString","coordinates": [[118.311279296875,69.28937409061912,170.6955],[118.35107421875,69.31635162968162,216.7541],[118.395263671875,69.33991119999412,181.2026],[118.41494140625002,69.36505768436912,173.653],[118.380859375,69.39691803593162,37.5137],[118.29833984375,69.41522858280662,51.5694],[118.25693359375003,69.431756903119123,62.703],[118.24335937500001,69.461786199994123,186.1195],[118.249267578125,69.47284577030662,163.7238],[118.2705078125,69.491473699994117,200.4269],[118.27744140625003,69.50275299686912,218.9126],[118.28017578125002,69.51801178593162,137.0087],[118.27714843749999,69.526971746869123,87.7214],[118.26767578125003,69.532831121869123,90.5265],[118.06923828125002,69.587762762494123,38.475],[118.05898437500002,69.59833405155662,47.6198],[118.068115234375,69.615497137494117,173.3141],[118.07822265625003,69.622919012494123,154.7629],[118.14150390625002,69.65070221561912,65.5978],[118.15576171875,69.65485260624412,75.255],[118.37587890625002,69.645624090619123,48.505],[118.44091796875,69.632928778119123,32.8663],[118.46748046875001,69.63226959843162,34.401],[118.61328125,69.654169012494123,82.4953],[118.79140625000002,69.70197174686912,153.97],[118.96152343750003,69.720477606244117,61.1579],[118.9970703125,69.730731512494117,60.2918],[119.220458984375,69.84491608280662,143.9248],[119.24326171875003,69.862323309369117,68.8674],[119.25634765625,69.88446686405662,120.5711],[119.260498046875,69.90924713749412,120.2813],[119.2646484375,69.91754791874412,118.0599],[119.279541015625,69.93280670780662,72.7029],[119.31591796875,69.954852606244117,29.0],[119.33056640625,69.96893952030662,29.0],[119.33984375,69.99262116093162,46.7503],[119.33984375,70.018915106244123,29.0],[119.334228515625,70.04523346561912,29.0],[119.32578125000003,70.06891510624412,28.5],[119.31210937500003,70.095477606244117,57.7747],[119.29384765625002,70.11933014530662,60.8779],[119.27138671875002,70.13934967655662,58.9098],[119.24550781250002,70.15412018436912,54.7827],[119.2177734375,70.162958074994123,28.0],[119.16152343750002,70.17352936405662,59.3647],[119.075,70.20355866093162,73.5085],[119.06201171875,70.21222565311912,46.5625],[119.04433593750002,70.22711823124412,27.5],[118.96396484375003,70.26080963749412,51.8947],[118.927001953125,70.285663153119117,27.0],[118.896484375,70.299432684369123,52.088],[118.89101562500002,70.30658600468162,50.4911],[118.8955078125,70.32269928593162,28.2645],[118.91103515625002,70.33771393436912,37.2497],[118.93027343750003,70.34967682499412,220.0751],[118.9462890625,70.35675690311912,201.6856],[118.96621093750002,70.35944244999412,168.9058],[118.988037109375,70.356561590619123,171.6587],[119.009375,70.34992096561912,188.849],[119.027587890625,70.341083074994117,155.6803],[119.07373046875,70.308124090619117,64.0155],[119.09033203125,70.301776434369117,65.0549],[119.10664062500001,70.30036041874412,39.9417],[119.12539062500002,70.30109284061912,26.0],[119.14384765624999,70.303827215619123,89.1556],[119.159423828125,70.30829498905662,122.7236],[119.20703125,70.33161041874412,121.8927],[119.224609375,70.33576080936912,171.506],[119.33173828125001,70.346063543744123,192.27],[119.45107421875002,70.343622137494123,222.71],[119.50996093750001,70.348749090619123,120.4173],[119.56669921874999,70.36676666874412,227.3709],[119.58203125,70.375116278119123,239.9741],[119.59423828125,70.383905340619123,167.9406],[119.60410156250003,70.39435455936912,159.682],[119.61318359375002,70.407733465619117,108.0335],[119.634375,70.452411199994117,144.6681],[119.654541015625,70.475946356244123,82.5507],[119.70078125000003,70.50031159061912,120.0728],[119.78515625,70.531268621869117,127.7162],[119.90195312500003,70.54486725468162,128.0219],[120.07480468750003,70.540643621869123,142.7653],[120.155517578125,70.52277252811912,53.2851],[120.216552734375,70.51837799686912,79.5218],[120.314697265625,70.492059637494123,91.6745],[120.3369140625,70.489618231244123,122.5189],[120.44677734375,70.503290106244123,138.7267],[120.89560546875003,70.497088934369117,147.6431],[120.92177734375002,70.50104401249412,159.9842],[120.971923828125,70.51825592655662,84.7476],[121.80996093750002,70.549188543744123,91.1092],[121.864501953125,70.54242584843162,69.7513],[121.91445312500002,70.529315496869117,166.0957],[122.004638671875,70.51679108280662,88.758],[122.27285156250002,70.57904694218162,51.2092],[122.434814453125,70.577997137494123,45.9629],[122.483642578125,70.58722565311912,60.8733],[122.49960937500003,70.59601471561912,16.0],[122.5166015625,70.61591217655662,67.8977],[122.526123046875,70.62311432499412,90.1413],[122.56679687500002,70.63495514530662,16.0],[122.58447265625,70.644061590619117,16.0],[122.59492187500001,70.66095612186912,16.0],[122.51816406250003,70.68439362186912,87.8865],[122.49130859375003,70.68891022343162,72.9631],[122.35546875,70.69513580936912,31.1011],[122.33154296875,70.699237371869117,20.6545],[122.31162109375003,70.70600006718162,14.2459],[122.30419921875,70.718524481244117,16.2056],[122.31748046875003,70.73981354374412,13.7253],[122.322509765625,70.75165436405662,13.7292],[122.3193359375,70.76520416874412,13.5],[122.31171875000001,70.77814362186912,28.2132],[122.30361328125002,70.78790924686912,34.2599],[122.29267578125001,70.818475653119123,62.9065],[122.31308593750003,70.84479401249412,93.5926],[122.3759765625,70.88068268436912,53.3304],[122.40976562500003,70.909295965619123,13.5],[122.39111328125,70.926141668744123,18.8417],[122.34921875000003,70.94074127811912,38.5366],[122.313720703125,70.96259186405662,76.4169],[122.32373046875,70.97858307499412,13.5],[122.33603515625003,70.99433014530662,67.8474],[122.35107421875,71.00629303593162,172.4792],[122.36875,71.01105377811912,224.032],[122.430419921875,71.017352606244117,12.0],[122.463134765625,71.025653387494117,11.0],[122.48505859375001,71.037713934369123,34.4381]]}}