{"type":"Feature","properties":{"featurecla":"River","scalerank":6,"rivernum":317,"dissolve":"317River","name":"Olenëk4","name_alt":null,"note":null,"min_zoom":5.0,"strokeweig":0.3,"name_en":"Olenëk","min_label":6.0},
"geometry":{"type": "LineString","coordinates": [[120.57343750000001,72.88861725468162,3.4361],[120.60175781250001,72.883661199994123,0.0],[120.76123046875,72.88165924686912,0.0],[120.802001953125,72.87482330936912,0.0],[120.841796875,72.86359284061912,0.0],[120.8779296875,72.848504949994123,0.0],[120.96689453125003,72.78864166874412,97.4008],[120.99375,72.77924225468162,99.8304],[121.02167968750001,72.77362702030662,68.4471],[121.120361328125,72.77094147343162,0.0],[121.162109375,72.774774481244123,8.1749],[121.225341796875,72.79193756718162,51.3025],[121.2625,72.79767487186912,123.8155],[121.28759765625,72.80475494999412,66.2004],[121.296142578125,72.80597565311912,87.8297],[121.341552734375,72.80292389530662,101.5505],[121.45546875000002,72.80951569218162,78.3992],[121.46669921875002,72.80707428593162,85.0421],[121.49755859375,72.79474518436912,0.0],[121.54091796875002,72.78375885624412,9.4636],[121.55478515625003,72.777118231244117,8.8403],[121.599609375,72.740497137494117,63.4199],[121.81699218750003,72.647479559369117,67.3679],[121.85546875,72.63641998905662,40.3758],[121.87343750000002,72.62836334843162,39.1802],[121.888427734375,72.615741278119117,21.0991],[121.90097656250003,72.60211823124412,15.1263],[121.9140625,72.59174225468162,13.192],[121.92880859375003,72.583758856244117,13.216],[122.16845703125,72.52838776249412,-0.4054],[122.48681640625,72.40033600468162,118.4272],[122.50888671875003,72.395624090619123,82.893],[122.5537109375,72.39142487186912,0.6884],[122.575439453125,72.38629791874412,0.349],[122.60537109375002,72.37531159061912,54.7036],[122.63193359375003,72.370965887494123,41.8235],[122.64052734375002,72.36823151249412,38.3581],[122.66806640625003,72.351190496869123,87.4721],[122.68447265625002,72.344110418744123,89.0095],[122.89794921875,72.31574127811912,48.4795],[122.935791015625,72.304071356244123,32.0694],[122.94873046875,72.301874090619123,29.1219],[122.96865234375002,72.30084869999412,22.8591],[122.978125,72.29901764530662,22.7877],[123.02988281250003,72.28082916874412,-1.8448],[123.084228515625,72.27081940311912,16.8206],[123.09707031250002,72.26691315311912,33.3472],[123.12646484375,72.253778387494123,53.3334],[123.2001953125,72.238544012494117,-1.8726],[123.2568359375,72.20758698124412,-0.1891],[123.37832031250002,72.16242096561912,-1.1757],[123.436279296875,72.147821356244123,74.8486],[123.47119140625,72.14581940311912,62.8751],[123.65712890625002,72.09723541874412,91.8019],[123.721923828125,72.07221100468162,11.7819],[123.73681640625,72.061639715619123,-1.4575],[123.74091796875001,72.045184637494117,13.5781],[123.73388671875,72.032245184369117,15.2721],[123.720703125,72.022967840619117,-1.6206],[123.69169921874999,72.00922272343162,15.8436],[123.67822265625,71.999139715619123,15.8942],[123.66767578125001,71.98761627811912,17.9726],[123.65,71.960467840619117,15.8938],[123.640625,71.94916412968162,16.2245],[123.60546875,71.91962311405662,16.5608],[123.59853515625002,71.91071198124412,3.2502],[123.59482421875003,71.901874090619117,7.1005],[123.59589843750001,71.89325592655662,5.7268],[123.60302734375,71.88519928593162,6.0461],[123.61591796875001,71.878534246869123,2.4262],[123.64462890625003,71.871356512494117,19.0958],[123.657470703125,71.86469147343162,19.5728],[123.664794921875,71.855487371869117,2.0022],[123.67255859375001,71.833514715619117,1.2392],[123.67978515625003,71.82355377811912,2.1538],[123.689453125,71.81671784061912,3.1799],[123.700439453125,71.81146881718162,3.1099],[123.76621093750003,71.793231512494117,5.5816],[123.78671875000003,71.782831121869123,1.3865],[123.79345703125,71.766961981244123,17.032],[123.78583984375001,71.75604889530662,17.674],[123.7724609375,71.75128815311912,20.5679],[123.727783203125,71.747430731244123,52.0157],[123.61347656250001,71.70917389530662,152.2763],[123.603125,71.702997137494123,154.5203],[123.59628906250003,71.692987371869123,160.9671],[123.59482421875003,71.679461981244117,29.2839],[123.60019531250003,71.670917059369117,15.1353],[123.61855468750002,71.657245184369117,16.7484],[123.61142578125003,71.654803778119117,2.9316],[123.548828125,71.64899323124412,113.5219],[123.42880859375003,71.612909246869123,167.0123],[123.36474609375,71.585809637494123,150.1317],[123.29736328125,71.574481512494117,198.911],[123.17783203125003,71.56879303593162,110.5739],[123.16083984375001,71.56500885624412,30.2299],[122.920654296875,71.46039459843162,31.3553],[122.82285156250003,71.39301178593162,6.8227],[122.78359375000002,71.37531159061912,107.3482],[122.65859375000002,71.340204168744123,235.2095],[122.627197265625,71.32575104374412,231.4248],[122.59824218750003,71.31659577030662,296.573],[122.59033203125,71.31134674686912,169.3223],[122.58583984375002,71.30048248905662,11.7901],[122.5927734375,71.292987371869117,14.0066],[122.6435546875,71.27692291874412,99.6241],[122.65537109375003,71.269159246869123,69.6348],[122.66357421875,71.25726959843162,35.7951],[122.66464843750003,71.24152252811912,12.2634],[122.655517578125,71.23187897343162,42.4837],[122.640869140625,71.22662994999412,50.1248],[122.5654296875,71.21259186405662,215.8091],[122.537841796875,71.20111725468162,22.1044],[122.51210937500002,71.18280670780662,24.2835],[122.50527343750002,71.176141668744123,22.5812],[122.498779296875,71.16815827030662,24.6116],[122.4951171875,71.15912506718162,9.5],[122.49658203125,71.14948151249412,9.5],[122.50087890625002,71.14447662968162,9.5],[122.51220703125,71.13678619999412,10.0],[122.5146484375,71.13104889530662,11.3835],[122.5126953125,71.124627996869123,16.4399],[122.508056640625,71.12140534061912,10.0],[122.50263671875001,71.11908600468162,10.0],[122.49814453125003,71.11554596561912,10.0],[122.49677734375001,71.09784577030662,23.2408],[122.506103515625,71.08026764530662,15.1738],[122.50917968750002,71.06049225468162,17.8342],[122.489013671875,71.03620026249412,10.0]]}}