{"type":"Feature","properties":{"featurecla":"River","scalerank":1,"rivernum":12,"dissolve":"12River","name":"Lena7","name_alt":null,"note":null,"min_zoom":2.0,"strokeweig":0.6,"name_en":"Lena","min_label":3.0},
"geometry":{"type": "LineString","coordinates": [[129.215576171875,61.49921295780662,90.0],[128.5966796875,61.264422918744117,102.7142],[128.54345703125,61.257586981244117,101.1342],[128.133056640625,61.27081940311912,94.0],[127.173095703125,61.098651434369117,103.0538],[126.66982421875002,61.116571356244123,106.3726],[126.51523437500003,61.07416412968162,99.0],[126.20566406250003,61.05560944218162,99.0],[126.15761718750002,61.046405340619117,111.2301],[126.126953125,61.02912018436912,104.5182],[126.10605468750003,61.01105377811912,99.0],[125.77285156250002,60.89008209843162,111.9113],[125.73525390625002,60.883319403119117,100.4629],[125.663818359375,60.88214752811912,263.9976],[125.63369140625002,60.873553778119117,110.8832],[125.60068359375003,60.859881903119117,107.0],[125.028076171875,60.77020905155662,103.524],[124.994873046875,60.75763580936912,107.0]]}}