{"type":"Feature","properties":{"featurecla":"River","scalerank":8,"rivernum":844,"dissolve":"844River","name":"Moma","name_alt":null,"note":null,"min_zoom":7.0,"strokeweig":0.2,"name_en":"Moma","min_label":8.0},
"geometry":{"type": "LineString","coordinates": [[147.17919921875,64.763934637494117,992.5559],[147.19521484375002,64.78156159061912,885.5904],[147.20068359375,64.79022858280662,838.6757],[147.2041015625,64.80170319218162,815.5078],[147.20322265625003,64.813251043744117,791.3069],[147.1982421875,64.822137762494123,772.474],[147.19248046875003,64.82953522343162,756.5659],[147.18916015625,64.83649323124412,743.4013],[147.19140625,64.857196356244117,718.4404],[147.2021484375,64.87641022343162,692.8076],[147.23007812500003,64.91156647343162,668.543],[147.22324218750003,64.91156647343162,663.4478],[147.22353515625002,64.92352936405662,684.4987],[147.2197265625,64.94464752811912,687.6198],[147.21201171875003,64.964715887494123,727.7175],[147.20009765625002,64.973651434369117,695.7568],[147.18496093750002,64.97992584843162,743.6308],[147.17275390625002,64.994403387494117,645.5026],[147.162841796875,65.010272528119117,623.131],[147.15439453125003,65.02081940311912,646.762],[147.12148437500002,65.039081121869117,614.0519],[147.11074218750002,65.051044012494117,610.4612],[147.10654296875003,65.07269928593162,605.9387]]}}