{"type":"Feature","properties":{"featurecla":"River","scalerank":9,"rivernum":1112,"dissolve":"1112River","name":"Bytantay2","name_alt":null,"note":null,"min_zoom":7.1,"strokeweig":0.25,"name_en":"Bytantay","min_label":8.1},
"geometry":{"type": "LineString","coordinates": [[131.27382812500002,67.85333893436912,292.7701],[131.35205078125,67.885272528119117,281.0563],[131.40380859375,67.91986725468162,272.2544],[131.43115234375,67.92682526249412,274.8134],[131.44130859375002,67.93219635624412,272.9946],[131.44921875,67.94391510624412,263.5],[131.455078125,67.955585028119117,261.5],[131.458740234375,67.96100494999412,267.4188],[131.47314453125,67.964471746869123,312.9037],[131.54345703125,68.000751043744117,257.3734],[131.568603515625,68.01984284061912,245.0],[131.59023437500002,68.043085028119123,244.6239],[131.59931640625,68.06708405155662,240.3814],[131.608154296875,68.08258698124412,239.2974],[131.7208984375,68.195184637494123,217.3359],[131.72900390625,68.21112702030662,215.3479],[131.74648437500002,68.22858307499412,213.8079],[131.78662109375,68.23895905155662,209.8444],[131.859375,68.24957916874412,203.5175],[131.95751953125,68.29108307499412,197.8445],[132.00478515625002,68.300067449994117,195.9822],[132.034423828125,68.314569403119123,190.4556],[132.05117187500002,68.317889715619117,187.4154],[132.088134765625,68.318622137494117,188.0843],[132.109619140625,68.32147858280662,226.8896],[132.12353515625,68.32782623905662,294.4915],[132.14902343750003,68.34577057499412,184.0494],[132.268310546875,68.38385651249412,174.9401],[132.43544921875002,68.410272528119123,282.9513],[132.59921875000003,68.46869537968162,162.0455],[132.64052734375002,68.49823639530662,158.5832],[132.66650390625,68.508172918744123,157.4191],[132.68603515625,68.531610418744123,153.5336],[132.69921875,68.536981512494123,149.7489],[132.71826171875,68.53656647343162,149.1065],[132.72763671875003,68.53754303593162,145.7913],[132.74169921875,68.54181549686912,145.198],[132.75332031250002,68.542499090619117,144.3911],[132.75751953125,68.54376862186912,146.5582],[132.76083984375003,68.548114324994117,150.8451],[132.7609375,68.552997137494117,147.8842],[132.759521484375,68.556659246869117,148.1308],[132.75751953125,68.55744049686912,148.6998],[132.8369140625,68.61749909061912,191.0719],[132.864013671875,68.625751043744117,140.9288],[132.92587890625003,68.631366278119117,136.6027],[132.939453125,68.63568756718162,139.6606],[132.95361328125,68.644159246869123,132.137],[132.97294921875005,68.65204498905662,137.3912],[132.993359375,68.65790436405662,133.719],[133.0107421875,68.66046784061912,128.4319],[133.280517578125,68.66083405155662,121.7516],[133.32041015625003,68.679217840619117,116.9877],[133.38330078125,68.692010809369123,120.6798],[133.463134765625,68.69525787968162,114.4941],[133.49091796875,68.69086334843162,118.5992],[133.51474609375003,68.67755768436912,120.3679],[133.5205078125,68.66986725468162,109.8371],[133.5224609375,68.664081121869117,110.8626],[133.5263671875,68.65888092655662,113.4061],[133.53828125,68.65302155155662,112.7482],[133.55263671875002,68.65143463749412,116.3098],[133.5791015625,68.65643952030662,111.5987],[133.59365234375002,68.65302155155662,114.2293],[133.590576171875,68.64911530155662,114.3787],[133.586181640625,68.63873932499412,108.4745],[133.60703125000003,68.63422272343162,112.3851],[133.62343750000002,68.63349030155662,108.0121],[133.63818359375,68.63056061405662,109.7344],[133.65439453125003,68.619501043744123,110.5011],[133.692578125,68.574823309369123,104.0745],[133.71005859375003,68.56659577030662,102.3124],[133.73623046875002,68.56366608280662,104.6813],[133.9814453125,68.57965729374412,101.3788],[134.031494140625,68.591571356244117,97.3043],[134.06992187500003,68.61579010624412,98.4459],[134.10009765625,68.64350006718162,91.8624],[134.11875,68.65582916874412,95.0182],[134.13486328125003,68.66046784061912,90.2356],[134.15380859375,68.654413153119123,92.24],[134.16835937500002,68.64386627811912,92.1693],[134.18505859375,68.636249090619117,94.2514],[134.2099609375,68.63873932499412,93.2074],[134.208984375,68.66083405155662,91.6975],[134.232177734375,68.664667059369123,90.8704],[134.28505859375002,68.66046784061912,91.3446],[134.302978515625,68.671991278119123,84.8401],[134.3154296875,68.68622467655662,90.2967],[134.32968750000003,68.69940827030662,87.3193],[134.35400390625,68.707635809369123,86.9035],[134.350341796875,68.71723053593162,87.5144],[134.343994140625,68.72504303593162,87.9075],[134.3359375,68.73102448124412,86.800299999999993],[134.32666015625,68.735614324994117,84.983],[134.3576171875,68.746600653119117,85.2356],[134.43007812500002,68.74970123905662,79.3929],[134.4638671875,68.76288483280662,85.563]]}}