{"type":"Feature","properties":{"featurecla":"River","scalerank":7,"rivernum":556,"dissolve":"556River","name":"Bol13","name_alt":null,"note":null,"min_zoom":6.0,"strokeweig":0.25,"name_en":"Bol’shaya Kuonamka","min_label":7.0},
"geometry":{"type": "LineString","coordinates": [[110.25996093750001,69.654169012494123,292.4297],[110.275390625,69.658465887494117,229.1817],[110.32832031250001,69.687762762494117,309.1403],[110.37939453125,69.703876043744117,202.1256],[110.42626953125,69.70880768436912,309.2137],[110.553125,69.70258209843162,275.087],[110.57080078125,69.70831940311912,299.9355],[110.60263671875003,69.728631903119123,207.1089],[110.624755859375,69.73834869999412,169.6178],[110.64511718750003,69.74115631718162,192.2906],[110.72177734375003,69.73578522343162,217.7137],[110.86142578125003,69.757831121869117,268.1489],[110.88583984375003,69.768426824994123,193.8707],[110.904296875,69.78388092655662,145.4023],[110.8701171875,69.805682684369117,195.2803],[110.78554687500002,69.82428619999412,143.6788],[110.75283203125002,69.84540436405662,146.6044],[110.77099609375,69.85761139530662,135.05],[110.82861328125,69.879510809369123,120.8343],[110.83251953125,69.88471100468162,137.2523],[110.83583984375002,69.892694403119123,178.5089],[110.840576171875,69.901141668744117,232.0915],[110.84912109375,69.907489324994117,216.6514],[110.86386718750003,69.90997955936912,202.214],[110.89599609375,69.907489324994117,172.8521],[110.94580078125,69.921649481244117,121.2743],[110.96005859375003,69.93134186405662,240.9196],[110.95556640625,69.945331121869117,313.1224],[110.94091796875,69.961297918744123,194.401],[110.94091796875,69.96967194218162,146.4112],[110.952392578125,69.97345612186912,186.4707],[111.0263671875,69.976922918744123,131.015],[111.19541015625003,69.96271393436912,321.2165],[111.287841796875,69.975702215619123,232.3187],[111.35488281250002,70.005975653119123,140.8582],[111.4765625,70.02411530155662,291.9475],[111.50136718750002,70.02252838749412,265.7596],[111.52158203125003,70.01813385624412,240.3481],[111.56162109375003,70.003045965619123,218.0487],[111.611328125,69.99518463749412,178.636],[111.70576171875001,70.00946686405662,195.4014],[111.75400390625003,70.003045965619123,189.5587],[111.759033203125,69.99884674686912,179.3708],[111.7626953125,69.98725006718162,142.0653],[111.76767578125003,69.983172918744117,134.356],[111.78134765625003,69.98114655155662,123.9977],[111.79550781250003,69.982928778119117,138.6453],[111.82236328125003,69.989374090619123,142.4505],[111.87412109375003,69.993426824994117,100.3135],[111.89990234375,69.99091217655662,103.1785],[111.92626953125,69.98480866093162,91.6577],[112.0703125,69.92243073124412,121.1392],[112.12177734375001,69.909198309369117,161.6737],[112.23408203125001,69.900751043744123,112.9899],[112.34189453125003,69.90448639530662,99.7546],[112.44736328125003,69.91962311405662,115.5931],[112.66357421875,69.92108795780662,103.4268],[112.757080078125,69.909540106244123,128.9557],[112.797119140625,69.910760809369123,82.8598],[112.822021484375,69.92316315311912,94.5098],[112.813232421875,69.951776434369123,151.4784],[112.797119140625,69.96308014530662,131.3548],[112.77431640625002,69.970477606244117,140.3764],[112.70791015625002,69.97907135624412,105.5814],[112.69140625,69.98810455936912,73.6317],[112.677978515625,70.00128815311912,90.2104],[112.6552734375,70.02924225468162,60.7999],[112.64667968750001,70.03681061405662,95.2134],[112.624267578125,70.05145905155662,103.676],[112.59912109375,70.07672760624412,91.3494],[112.587158203125,70.09186432499412,91.0383],[112.58642578125,70.09857819218162,104.0783],[112.57568359375,70.102899481244123,92.9989],[112.563720703125,70.11334869999412,64.6164],[112.556396484375,70.125995184369117,88.4189],[112.5615234375,70.14728424686912,54.4926],[112.5517578125,70.157733465619117,81.3116],[112.528076171875,70.174920965619123,86.5037],[112.52695312500003,70.180047918744123,72.4262],[112.53037109375003,70.18427155155662,45.9044],[112.53271484375,70.188983465619117,108.2598],[112.528076171875,70.195428778119123,123.2114],[112.515380859375,70.20148346561912,114.1862],[112.47294921874999,70.202264715619123,93.8032],[112.44843750000001,70.206659246869123,84.6735],[112.43896484375,70.212665106244117,66.399],[112.44296875000003,70.222040106244123,42.3252],[112.45986328125002,70.236444403119123,55.2152],[112.51679687500001,70.265985418744123,88.4832],[112.528076171875,70.277362371869117,81.8568],[112.52783203125,70.289569403119117,41.8498],[112.521484375,70.302997137494117,71.6004],[112.511474609375,70.313836981244123,90.1938],[112.50068359375001,70.318377996869117,96.148],[112.482421875,70.320331121869117,48.2192],[112.458984375,70.325555731244123,83.8882],[112.43662109375003,70.33319733280662,81.6302],[112.421630859375,70.34223053593162,66.7652],[112.419677734375,70.352655340619123,36.7888],[112.442138671875,70.37311432499412,69.7292],[112.44599609375001,70.387225653119117,64.6899],[112.43505859375,70.400897528119117,67.4949],[112.4150390625,70.408075262494123,75.9314],[112.39306640625,70.413446356244123,36.7834],[112.37656250000003,70.421405340619117,55.508],[112.36835937500001,70.432391668744117,46.5446],[112.36142578125003,70.454364324994117,62.8474],[112.333740234375,70.494159246869117,44.4192],[112.33212890625003,70.51447174686912,68.0954],[112.34765625,70.529901434369123,104.3691],[112.37880859375002,70.54315827030662,106.5135],[112.47216796875,70.542743231244117,104.1402],[112.51425781250003,70.552020574994117,66.1278],[112.50419921874999,70.582147528119123,82.936],[112.453125,70.61334869999412,92.1274],[112.427734375,70.63287994999412,35.7472],[112.418212890625,70.65412018436912,80.7317],[112.42685546875003,70.669452215619117,77.573],[112.44404296875001,70.678583074994123,94.6877],[112.480224609375,70.68891022343162,96.6564],[112.49863281250003,70.698358465619123,88.4348],[112.51308593750002,70.70905182499412,64.8776],[112.53828125000001,70.73297760624412,57.8908],[112.54794921875003,70.73859284061912,65.0326]]}}