{"type":"Feature","properties":{"featurecla":"River","scalerank":7,"rivernum":462,"dissolve":"462River","name":"Sartang1","name_alt":null,"note":null,"min_zoom":6.0,"strokeweig":0.2,"name_en":"Sartang","min_label":7.0},
"geometry":{"type": "LineString","coordinates": [[133.36259765625005,64.47748444218162,943.8314],[133.364013671875,64.48688385624412,951.3859],[133.36962890625,64.50433991093162,918.2212],[133.3701171875,64.51398346561912,1016.3295],[133.366943359375,64.52533600468162,1163.4355],[133.36083984375,64.53363678593162,951.4034],[133.34531250000003,64.549432684369123,907.4406],[133.34091796875003,64.55768463749412,891.0883],[133.33681640625002,64.574969793744117,875.448],[133.3330078125,64.583124090619123,890.8997],[133.32753906250002,64.58869049686912,882.7256],[133.30615234375,64.59882233280662,846.406],[133.29843750000003,64.604022528119117,840.4921],[133.29150390625,64.610467840619123,837.9923],[133.28564453125,64.617938543744117,831.252],[133.2734375,64.64264557499412,830.2764],[133.240234375,64.68488190311912,854.2791],[133.232421875,64.69183991093162,842.3384],[133.21464843750005,64.702508856244123,805.9555],[133.20644531250002,64.70892975468162,816.4342],[133.19199218750003,64.72907135624412,861.2039],[133.185546875,64.73432037968162,861.4454],[133.1759765625,64.73773834843162,821.7947],[133.15488281250003,64.741327215619123,759.2156],[133.14492187500002,64.74469635624412,757.8144],[133.130859375,64.754413153119117,751.1395],[133.118896484375,64.767694403119123,754.9275],[133.098876953125,64.79730866093162,793.3471],[133.0869140625,64.810419012494123,782.2655],[133.0419921875,64.83478424686912,809.4573],[133.02919921875002,64.84808991093162,822.7562],[133.01904296875,64.861590887494117,1125.9573],[133.00771484375002,64.87360260624412,1119.9767],[132.99072265625,64.88263580936912,796.7069],[132.947998046875,64.89911530155662,687.1413],[132.92919921875,64.911395574994117,681.5],[132.9142578125,64.92865631718162,680.6573],[132.90878906250003,64.93891022343162,678.0446],[132.90468750000002,64.951190496869117,676.0103],[132.90380859375,64.96356842655662,674.5305],[132.9083984375,64.974139715619117,699.9544],[132.9150390625,64.979022528119117,724.7808],[132.93056640625002,64.98578522343162,701.2798],[132.93691406250002,64.99176666874412,682.4064],[132.941162109375,65.00275299686912,664.8659],[132.943603515625,65.02594635624412,653.3052],[132.94931640625003,65.037469793744123,643.4578],[132.97861328125003,65.06818268436912,633.9048],[132.984619140625,65.07611725468162,630.3136],[132.98964843750002,65.085565496869123,720.8653],[132.99267578125,65.09564850468162,670.8658],[132.991943359375,65.10541412968162,618.9587],[132.985595703125,65.116961981244117,611.5843],[132.97841796875002,65.124872137494123,602.8064],[132.97431640625,65.13361237186912,687.475],[132.978515625,65.147333074994123,596.3006],[132.99072265625,65.16986725468162,585.6874],[132.998046875,65.19061920780662,569.903],[132.99560546875,65.210077215619123,691.8113],[132.978125,65.22907135624412,699.0737],[132.92421875000002,65.264911199994117,589.8107],[132.9150390625,65.26886627811912,529.4607],[132.88730468750003,65.277118231244117,527.8477],[132.878173828125,65.282586981244123,523.5624],[132.871337890625,65.289911199994123,521.298],[132.86669921875,65.298846746869117,517.8716],[132.86474609375,65.30890534061912,513.6157],[132.865234375,65.32684967655662,543.2411],[132.8623046875,65.33380768436912,593.2074],[132.853759765625,65.340106512494117,500.9916],[132.79375,65.37250397343162,481.4093],[132.76914062500003,65.39264557499412,472.9109],[132.75068359375,65.41864655155662,461.2726],[132.719482421875,65.484735418744123,434.4896],[132.71142578125,65.528192449994123,419.048],[132.689697265625,65.56806061405662,406.8862],[132.6818359375,65.589960028119123,396.6257],[132.68369140625003,65.61579010624412,387.421],[132.70947265625,65.652606512494117,374.6459],[132.71591796875003,65.675897528119123,367.3018],[132.70830078125005,65.69550202030662,362.2646],[132.67490234375003,65.73407623905662,351.1072],[132.668212890625,65.75507233280662,350.7027],[132.67841796875,65.783563543744123,340.9723],[132.696533203125,65.81281159061912,335.1841],[132.70712890625003,65.84393952030662,326.7431],[132.695556640625,65.877948309369117,322.647],[132.70458984375,65.89301178593162,314.7489],[132.71923828125,65.929461981244117,304.4161],[132.728125,65.98090241093162,295.6058],[132.734375,65.996356512494117,296.9471],[132.74619140625003,66.01129791874412,291.3971],[132.75263671875,66.015643621869117,288.588],[132.766796875,66.020135809369123,297.211],[132.773193359375,66.02362702030662,288.3579],[132.77822265625002,66.02985260624412,285.914],[132.77880859375,66.035907293744117,284.5406],[132.77783203125,66.04242584843162,285.1379],[132.777587890625,66.049920965619123,280.7569],[132.78330078125003,66.060565496869117,278.9359],[132.79443359375,66.06647369999412,284.5417],[132.81992187500003,66.07514069218162,273.8217],[132.83291015625002,66.08344147343162,288.9927],[132.83876953125002,66.08844635624412,273.2216],[132.843994140625,66.09393952030662,269.4099],[132.84804687500002,66.100213934369123,271.226],[132.85498046875,66.113788153119117,318.3018],[132.859619140625,66.119501043744123,348.6024],[132.87353515625,66.12824127811912,393.8012],[132.90761718750002,66.14044830936912,267.1339],[132.923095703125,66.14813873905662,263.5419],[132.96738281250003,66.180536199994123,255.9668],[133.0107421875,66.224969793744123,244.114],[133.03261718750002,66.27692291874412,238.8867],[133.011474609375,66.33185455936912,225.4404],[132.99697265625002,66.34223053593162,227.7387],[132.963623046875,66.35407135624412,231.34],[132.94931640625003,66.36456940311912,222.0892],[132.95673828125,66.37140534061912,218.4694],[132.94580078125,66.388544012494123,217.5098],[132.942138671875,66.411493231244123,214.6371],[132.94570312500002,66.43500397343162,212.9508],[132.95673828125,66.45392487186912,208.5596],[132.94091796875,66.48139069218162,209.1303],[132.901123046875,66.532342840619123,202.1919],[132.887939453125,66.56378815311912,197.1006],[132.88369140625002,66.630487371869123,187.725],[132.87177734375,66.65265534061912,191.5197],[132.83330078125005,66.67243073124412,183.3399],[132.846923828125,66.67987702030662,262.8877],[132.822021484375,66.68720123905662,444.3718],[132.769775390625,66.677997137494117,181.0116],[132.7431640625,66.67987702030662,181.1649]]}}