{"type":"Feature","properties":{"featurecla":"River","scalerank":7,"rivernum":460,"dissolve":"460River","name":"Olëkma3","name_alt":null,"note":null,"min_zoom":6.0,"strokeweig":0.3,"name_en":"Olëkma","min_label":7.0},
"geometry":{"type": "LineString","coordinates": [[120.65380859375,60.40668366093162,152.5826],[120.65078125000002,60.380877996869117,121.8761],[120.65175781250002,60.35382721561912,154.9656],[120.65576171875,60.33649323124412,132.4783],[120.66357421875,60.31964752811912,180.9964],[120.67421875000002,60.304217840619117,125.0927],[120.68613281250003,60.29096100468162,121.8558],[120.70087890625001,60.28192780155662,150.802],[120.71845703125001,60.27777741093162,168.8866],[120.75449218750003,60.276141668744117,196.1577],[120.768310546875,60.27887604374412,208.3927],[120.77919921875002,60.28668854374412,293.3369],[120.798583984375,60.30817291874412,181.3129],[120.81992187500003,60.32721588749412,295.0885],[120.84794921874999,60.34662506718162,369.6245],[120.878173828125,60.35980866093162,341.2059],[120.906494140625,60.36041901249412,356.5336],[121.00205078125003,60.35065338749412,209.8154],[121.032470703125,60.34064362186912,266.9575],[121.13496093750001,60.27435944218162,326.238],[121.16982421875002,60.242938543744117,241.9104],[121.210693359375,60.19159577030662,273.3996],[121.208984375,60.180780340619123,274.5177],[121.181640625,60.14594147343162,185.9822],[121.1796875,60.14154694218162,178.125],[121.17783203125003,60.13898346561912,172.1078],[121.164794921875,60.128680731244117,196.6728],[121.14804687500003,60.11115143436912,127.544],[121.140380859375,60.09516022343162,149.9388],[121.138427734375,60.08356354374412,209.3004],[121.138427734375,60.07904694218162,232.2594]]}}