{"type":"Feature","properties":{"featurecla":"River","scalerank":8,"rivernum":744,"dissolve":"744River","name":"Alazeya3","name_alt":null,"note":null,"min_zoom":7.0,"strokeweig":0.3,"name_en":"Alazeya","min_label":8.0},
"geometry":{"type": "LineString","coordinates": [[154.74111328125002,70.25006744999412,0.9281],[154.73105468750003,70.264911199994117,6.586],[154.71279296875002,70.27582428593162,5.6217],[154.69140625,70.282489324994117,5.5848],[154.67226562500002,70.28424713749412,5.7544],[154.677001953125,70.292596746869123,4.1634],[154.68349609375002,70.29975006718162,5.146],[154.7001953125,70.312127996869123,2.3835],[154.60107421875,70.326044012494123,5.1965],[154.56982421875,70.32514069218162,5.2528],[154.57607421875002,70.34003327030662,5.1545],[154.5673828125,70.350946356244123,2.8325],[154.53564453125,70.36676666874412,3.0373],[154.567578125,70.37921784061912,12.898],[154.57666015625,70.387225653119117,6.9638],[154.40468750000002,70.379754949994123,4.0178],[154.4142578125,70.394159246869123,4.557],[154.432861328125,70.40314362186912,1.8678],[154.45468750000003,70.407489324994117,3.5179],[154.4736328125,70.407733465619117,3.9498],[154.46474609375002,70.41815827030662,4.3855],[154.43837890625002,70.421405340619117,3.9232],[154.42578125,70.428241278119117,2.5475],[154.424560546875,70.43402741093162,3.4599],[154.42714843750002,70.45050690311912,4.6243],[154.42578125,70.45612213749412,4.1225],[154.40195312500003,70.468524481244117,4.2333],[154.30224609375,70.48285553593162,4.1094],[154.21425781250002,70.522577215619123,3.5816],[154.185546875,70.531268621869117,3.1591],[154.162841796875,70.53278229374412,3.4238],[154.042236328125,70.523797918744123,6.7556],[154.07626953125003,70.56537506718162,2.4024],[154.06064453125003,70.56976959843162,3.7885],[154.05136718750003,70.57819244999412,3.0384],[154.04443359375,70.58869049686912,2.291],[154.03544921875005,70.599481512494123,2.3049],[154.020263671875,70.611444403119123,2.2207],[154.00644531250003,70.61749909061912,2.3479],[153.98974609375,70.61969635624412,2.4636],[153.96640625000003,70.619989324994123,2.4761],[153.9287109375,70.62506744999412,1.7919],[153.93408203125,70.638690496869117,2.8811],[153.98691406250003,70.68146393436912,1.9354],[153.85654296875003,70.66779205936912,3.0581],[153.86044921875003,70.670770574994123,3.0506],[153.86767578125,70.67816803593162,3.4829],[153.87148437500002,70.68146393436912,1.9159],[153.846435546875,70.69562409061912,3.4348],[153.74667968750003,70.715594793744117,1.8528],[153.692138671875,70.736102606244117,1.4608],[153.638916015625,70.74445221561912,0.0],[153.62314453125003,70.750360418744123,2.7311],[153.64384765625005,70.766131903119117,3.0422],[153.685546875,70.78900787968162,1.2806],[153.70576171875,70.80499909061912,-0.5],[153.67099609375003,70.820331121869117,0.9776],[153.66162109375,70.832049871869117,1.1317],[153.66367187500003,70.86102936405662,0.9028]]}}