{"type":"Feature","properties":{"featurecla":"River","scalerank":8,"rivernum":844,"dissolve":"844River","name":"Moma1","name_alt":null,"note":null,"min_zoom":7.0,"strokeweig":0.2,"name_en":"Moma","min_label":8.0},
"geometry":{"type": "LineString","coordinates": [[147.10654296875003,65.07269928593162,605.9387],[147.10498046875,65.08344147343162,603.9658],[147.09375,65.118280340619123,601.0792],[147.086181640625,65.13068268436912,605.1993],[147.096923828125,65.13703034061912,647.1142],[147.09384765625003,65.14313385624412,608.4102],[147.08535156250002,65.14996979374412,590.9235],[147.079296875,65.15802643436912,588.8254],[147.07851562500002,65.168329168744123,585.5842],[147.08046875000002,65.18793366093162,587.4846],[147.079296875,65.199579168744123,585.2239],[147.071875,65.216815496869117,588.8813],[147.05898437500002,65.231952215619117,593.8011],[147.04248046875,65.24457428593162,597.0206],[147.02402343750003,65.25421784061912,598.2112],[146.92431640625,65.272088934369123,568.2093],[146.90175781250002,65.28839752811912,566.1046],[146.8974609375,65.307391668744117,562.5855],[146.90048828125003,65.33014557499412,563.0633],[146.90732421875003,65.35101959843162,558.7682],[146.91494140625002,65.36408112186912,558.2713],[146.90175781250002,65.36859772343162,563.194],[146.87802734375003,65.38104889530662,562.2493],[146.86708984375002,65.38519928593162,565.3035],[146.84970703125003,65.38678619999412,557.4694],[146.81582031250002,65.386346746869123,555.7162],[146.79873046875002,65.39142487186912,554.459],[146.80703125000002,65.395135809369123,553.5766],[146.814697265625,65.397577215619123,555.2662],[146.82285156250003,65.398700262494117,555.3873],[146.83291015625002,65.39826080936912,555.9736],[146.82138671875003,65.41864655155662,556.769],[146.79824218750002,65.426141668744123,553.2491],[146.744140625,65.43231842655662,552.3179],[146.7822265625,65.47211334843162,550.903],[146.79189453125002,65.48761627811912,546.0471],[146.767333984375,65.49860260624412,549.5014],[146.75537109375,65.51068756718162,546.748],[146.76181640625003,65.52155182499412,544.545],[146.79189453125002,65.529169012494123,567.6499],[146.77382812500002,65.542254949994117,568.9077],[146.74033203125003,65.54547760624412,556.8793],[146.67519531250002,65.542254949994117,548.0737],[146.68603515625,65.54950592655662,553.1126],[146.70068359375,65.554461981244117,556.3554],[146.712890625,65.56012604374412,560.857],[146.71630859375,65.56952545780662,567.7896],[146.70263671875,65.57733795780662,574.5692],[146.58994140625003,65.58832428593162,557.2891],[146.52548828125003,65.609149481244117,545.9709],[146.490234375,65.61115143436912,540.1445],[146.4794921875,65.607928778119117,539.6733],[146.47226562500003,65.604754949994117,538.3461],[146.4638671875,65.606219793744117,536.6736],[146.44863281250002,65.617303778119123,536.3652],[146.44150390625003,65.62726471561912,535.4515],[146.43564453125003,65.63873932499412,534.0299],[146.42685546875003,65.64813873905662,529.045],[146.41083984375,65.652118231244117,529.2921],[146.40283203125,65.65643952030662,532.5407],[146.40009765625,65.66681549686912,531.348],[146.40087890625,65.689325262494123,557.3018],[146.3916015625,65.694696356244123,562.6862],[146.33330078125005,65.70673248905662,556.459],[146.284912109375,65.72724030155662,546.3489],[146.24794921875002,65.72968170780662,526.6965],[146.230712890625,65.733417059369117,523.2285],[146.223388671875,65.74396393436912,519.1757],[146.22421875000003,65.749139715619123,521.7112],[146.22861328125003,65.758905340619123,526.5404],[146.2294921875,65.76508209843162,526.7736],[146.22646484375002,65.772088934369123,525.0572],[146.21230468750002,65.780145574994123,520.5178],[146.1884765625,65.81671784061912,563.716],[146.182373046875,65.82343170780662,568.6552],[146.169189453125,65.821063543744117,556.6232],[146.145263671875,65.801141668744123,525.8148],[146.134033203125,65.79547760624412,520.6174],[146.116455078125,65.79828522343162,518.9124],[146.107421875,65.808124090619117,525.2028],[146.10400390625,65.81854889530662,543.4645],[146.103515625,65.82343170780662,552.4005],[145.990234375,65.83405182499412,556.3949],[145.955322265625,65.843866278119123,548.5989],[145.94287109375,65.85004303593162,541.1193],[145.919921875,65.865350653119123,539.7676],[145.907470703125,65.87116119999412,532.7277],[145.85517578125,65.88117096561912,505.6036],[145.83251953125,65.892206121869123,500.4066],[145.72910156250003,65.91596100468162,511.9132],[145.2892578125,65.93585846561912,447.8831],[145.256103515625,65.94220612186912,446.4388],[145.18701171875,65.963983465619123,532.9315],[145.02626953125002,65.968133856244123,452.4666],[144.89316406250003,65.98725006718162,419.843]]}}