{"type":"Feature","properties":{"featurecla":"River","scalerank":9,"rivernum":1114,"dissolve":"1114River","name":"Chara3","name_alt":null,"note":null,"min_zoom":7.1,"strokeweig":0.3,"name_en":"Chara","min_label":8.1},
"geometry":{"type": "LineString","coordinates": [[120.77685546875,60.025506903119123,348.144],[120.93515625000003,60.099481512494123,178.6156],[120.95449218750002,60.11847565311912,338.8124],[120.96748046875001,60.141620184369117,222.6104],[120.97607421875,60.169549871869123,367.0583],[120.98593750000003,60.17706940311912,306.1594],[121.02353515625003,60.187030340619117,129.0182],[121.03271484375,60.196795965619117,129.0469],[121.029052734375,60.21491119999412,134.6764],[121.015625,60.227899481244123,200.5472],[120.99521484375003,60.235711981244123,229.8621],[120.97060546875002,60.23834869999412,298.6786],[120.93896484375,60.24872467655662,327.5728],[120.911376953125,60.27460358280662,298.0478],[120.89306640625,60.30805084843162,124.9765],[120.88876953125003,60.34137604374412,182.5057]]}}