{"type":"Feature","properties":{"featurecla":"River","scalerank":4,"rivernum":102,"dissolve":"102River","name":"Aldan1","name_alt":null,"note":null,"min_zoom":4.0,"strokeweig":0.2,"name_en":"Aldan","min_label":5.0},
"geometry":{"type": "LineString","coordinates": [[123.20468750000003,56.56098053593162,1007.0399],[123.17568359375002,56.56427643436912,1009.4409],[123.091796875,56.55353424686912,1045.5641],[123.06689453125,56.55744049686912,994.5765],[123.05712890625,56.570184637494116,967.2533],[123.05722656250003,56.58930084843162,1012.3563],[123.06201171875,56.612176824994116,972.9034],[123.06201171875,56.64765045780662,948.5366],[123.065673828125,56.658563543744116,964.1476],[123.07568359375,56.66950104374412,951.1072],[123.08759765625001,56.67951080936912,982.3201],[123.09765625,56.69074127811912,942.7497],[123.10205078125,56.70538971561912,926.9451],[123.11484375000003,56.72479889530662,918.5439],[123.14013671875,56.75250885624412,911.3307],[123.15839843750001,56.77814362186912,909.8115],[123.150390625,56.791376043744116,919.4878],[123.162109375,56.804071356244116,1013.165],[123.17031250000002,56.81574127811912,889.5825],[123.17373046875002,56.82880280155662,926.9351],[123.16767578125001,56.908319403119116,866.4115],[123.1708984375,56.92072174686912,1037.988],[123.17958984375002,56.92706940311912,1034.4812],[123.18984375000002,56.93244049686912,829.5006],[123.19765625000002,56.941913153119117,830.9658],[123.198974609375,56.950799871869116,825.6593],[123.1962890625,56.95880768436912,810.7236],[123.19257812500001,56.96600983280662,792.9108],[123.19091796875,56.97296784061912,847.7835],[123.19443359375003,56.998309637494117,944.5554],[123.20400390625002,57.011737371869117,846.8364],[123.2353515625,57.034686590619117,799.5781],[123.26357421875002,57.06842682499412,926.7382],[123.279541015625,57.08136627811912,836.9937],[123.32138671875003,57.09308502811912,750.5397],[123.34707031250002,57.10944244999412,928.1521],[123.3662109375,57.13007233280662,822.6565],[123.36757812500002,57.14972565311912,846.0935],[123.36093750000003,57.155145574994116,746.0605],[123.35292968750002,57.158075262494116,734.5762],[123.34609375000002,57.162127996869117,743.8765],[123.34326171875,57.171014715619116,822.5557],[123.35009765625,57.18720123905662,742.803],[123.36708984375002,57.19367096561912,794.032],[123.38720703125,57.194208074994116,850.8219],[123.404052734375,57.192743231244116,762.9271],[123.42861328125002,57.19489166874412,764.77],[123.451904296875,57.204461981244116,816.1284],[123.4931640625,57.23444244999412,807.0513],[123.52783203125,57.26605866093162,907.0927],[123.54160156250003,57.283807684369116,592.2547],[123.564453125,57.327411199994117,874.7466],[123.56699218750003,57.33502838749412,849.8651],[123.56796875000003,57.34320709843162,866.5366],[123.566162109375,57.34686920780662,842.5592],[123.56113281250003,57.34808991093162,808.6868],[123.55322265625,57.34906647343162,812.3007],[123.5400390625,57.35260651249412,726.7983],[123.53066406250002,57.35907623905662,595.6814],[123.5263671875,57.36908600468162,728.1676],[123.52822265625002,57.38312409061912,782.6593],[123.534423828125,57.392840887494117,768.9668],[123.54433593750002,57.40106842655662,573.0431],[123.57675781250003,57.421502996869116,632.9568],[123.584716796875,57.429803778119116,553.3916],[123.59902343750002,57.450311590619116,773.6196],[123.61630859375003,57.46784088749412,546.1542],[123.62148437500002,57.47785065311912,579.2468],[123.61708984375002,57.48969147343162,672.5457],[123.60117187500003,57.499286199994117,698.6062],[123.57929687500001,57.502069403119116,838.8901],[123.52265625000001,57.49848053593162,862.2238],[123.50742187500003,57.500116278119116,812.2964],[123.497314453125,57.506952215619116,705.7493],[123.49843750000002,57.521844793744116,542.2032],[123.5068359375,57.533319403119116,553.649],[123.52988281250003,57.55084869999412,629.7117],[123.53867187500003,57.561542059369117,809.097],[123.541259765625,57.569696356244116,651.6023],[123.5400390625,57.57697174686912,644.6852],[123.52822265625002,57.602167059369116,770.0522],[123.525634765625,57.61286041874412,630.9774],[123.525634765625,57.62372467655662,478.1683],[123.529052734375,57.63495514530662,484.7066],[123.53271484375,57.64093659061912,522.9917],[123.54755859375001,57.656122137494116,476.5657],[123.56201171875,57.67511627811912,462.476],[123.56748046875003,57.67633698124412,464.3004],[123.56982421875,57.68353912968162,479.2668],[123.5751953125,57.68903229374412,500.6779],[123.58212890625003,57.69306061405662,513.8018],[123.589111328125,57.69599030155662,505.2108],[123.59677734375003,57.69806549686912,520.4338],[123.6025390625,57.69806549686912,625.3998],[123.60791015625,57.696161199994116,574.9556],[123.70087890625001,57.645868231244116,449.1071],[123.7138671875,57.642596746869117,537.0539],[123.72226562500003,57.64276764530662,487.5126],[123.730712890625,57.644305731244117,457.3699],[123.74667968750003,57.64996979374412,440.955],[123.751708984375,57.65314362186912,438.7944],[123.763916015625,57.66522858280662,437.8454],[123.76748046875002,57.66742584843162,435.7774],[123.77480468750002,57.67059967655662,432.1506],[123.77822265625002,57.67255280155662,432.6088],[123.78652343750002,57.68024323124412,437.4136],[123.805419921875,57.708856512494116,427.7228],[123.830322265625,57.73309967655662,469.0887],[123.83642578125,57.74262116093162,426.5861],[123.83945312500003,57.75311920780662,430.1868],[123.83828125000002,57.76227448124412,464.566],[123.833740234375,57.770624090619116,451.402],[123.82089843750003,57.787958074994116,532.2059],[123.810791015625,57.807733465619116,434.158],[123.804443359375,57.81586334843162,420.0966],[123.79697265625003,57.82086823124412,421.1588],[123.779296875,57.829852606244117,418.4016],[123.770263671875,57.836297918744116,418.4459],[123.759765625,57.849139715619117,501.9145],[123.75439453125,57.86371491093162,422.9754],[123.75400390625003,57.87909577030662,410.2564],[123.759375,57.894647528119116,413.3401],[123.73398437500003,57.90228912968162,607.7233],[123.72021484375,57.908221746869117,432.8244],[123.711669921875,57.91510651249412,407.1356],[123.70595703125002,57.92841217655662,431.1914],[123.709716796875,57.93439362186912,407.3151],[123.7177734375,57.93927643436912,409.2466],[123.725341796875,57.94928619999412,581.056],[123.730712890625,57.96356842655662,490.3234],[123.728759765625,57.96588776249412,451.5573],[123.725341796875,57.976581121869117,403.0542],[123.71464843749999,57.991327215619116,407.8099],[123.711669921875,57.997674871869116,442.4908],[123.71035156250002,58.01349518436912,453.9892],[123.713623046875,58.02692291874412,442.6494],[123.74550781250002,58.100604559369117,469.0322],[123.7587890625,58.123163153119123,427.2512],[123.77597656250003,58.14252350468162,403.6452],[123.79306640625003,58.154413153119123,401.5063],[123.81191406250002,58.162713934369123,539.4258],[123.85175781250001,58.17413971561912,576.8546],[123.916015625,58.18097565311912,382.0875],[123.92988281250001,58.185419012494123,587.6632],[123.937744140625,58.194696356244123,461.3725],[123.95029296875003,58.219110418744123,413.8464],[123.96542968750003,58.231463934369117,551.6526],[123.9833984375,58.23627350468162,610.0303],[124.00244140625,58.23895905155662,596.5979],[124.02080078124999,58.24469635624412,595.6566],[123.98593750000003,58.266376043744117,387.7436],[123.97294921874999,58.27936432499412,482.5932],[124.00087890625002,58.291620184369123,367.1313],[124.02158203125003,58.320428778119123,420.3092],[124.03701171875002,58.32672760624412,481.4489],[124.04384765625002,58.325311590619123,549.5026],[124.06357421875003,58.31574127811912,558.0012],[124.06992187500003,58.31415436405662,544.7717],[124.07568359375,58.31378815311912,541.7763],[124.08779296875002,58.31464264530662,547.2003],[124.10429687499999,58.31378815311912,546.8241],[124.13613281250002,58.306512762494123,641.5977],[124.15244140625003,58.30475494999412,644.1489],[124.1669921875,58.30634186405662,627.5995],[124.1943359375,58.313104559369123,657.5529],[124.25673828125002,58.31757233280662,658.8553],[124.271875,58.32221100468162,614.8531],[124.29267578125001,58.333514715619117,542.939],[124.31142578125002,58.348993231244123,465.8005],[124.324462890625,58.36847565311912,565.4552],[124.3291015625,58.391961981244123,463.8285],[124.32763671875,58.405047918744117,348.6404],[124.32587890625001,58.41144440311912,336.0],[124.32363281250002,58.417499090619117,375.2212],[124.313232421875,58.43305084843162,338.0839],[124.31142578125002,58.43878815311912,391.8564],[124.31513671875001,58.461542059369123,441.4962],[124.32968750000003,58.47638580936912,396.7644],[124.369140625,58.498553778119117,534.4706],[124.37929687500002,58.507928778119123,430.9995],[124.383056640625,58.51679108280662,325.5154],[124.38291015625003,58.539911199994123,342.9213],[124.38515625000002,58.55133698124412,425.5132],[124.39013671875,58.56146881718162,406.4377],[124.43701171875,58.614374090619123,421.7411],[124.444580078125,58.628290106244123,330.429]]}}