{"type":"Feature","properties":{"featurecla":"River","scalerank":4,"rivernum":124,"dissolve":"124River","name":"Kolyma5","name_alt":null,"note":null,"min_zoom":4.0,"strokeweig":0.4,"name_en":"Kolyma","min_label":5.0},
"geometry":{"type": "LineString","coordinates": [[160.7580078125,68.56427643436912,2.9696],[160.63369140625002,68.55719635624412,4.802],[160.61591796875,68.55365631718162,4.8805],[160.55078125,68.52399323124412,5.5433],[160.524609375,68.50519440311912,5.4416],[160.51132812500003,68.498065496869117,5.1545],[160.49267578125,68.49445221561912,5.3986],[160.273193359375,68.54022858280662,5.7246],[160.23193359375,68.54035065311912,5.6402],[160.100830078125,68.556903387494117,5.0024],[160.03232421875003,68.557977606244123,5.5531],[160.009521484375,68.56146881718162,5.2977],[159.94970703125,68.58051178593162,6.8027],[159.928955078125,68.58356354374412,6.8724],[159.8828125,68.583514715619117,6.9873],[159.7890625,68.57269928593162,0.2472],[159.72031250000003,68.57538483280662,5.2685],[159.6375,68.593280340619117,4.7305],[159.5361328125,68.59857819218162,6.2411],[159.496826171875,68.61225006718162,0.9027],[159.428466796875,68.625751043744117,4.6175],[159.3671875,68.63080475468162,7.3497],[159.35986328125,68.633563543744117,7.1954],[159.34072265625002,68.645624090619123,2.0992],[159.32470703125,68.653338934369117,8.1802],[159.30703125000002,68.65875885624412,8.7004],[159.28867187500003,68.66193268436912,5.6429],[159.0693359375,68.67279694218162,-0.2797],[159.05839843750005,68.67084381718162,-1.6052],[159.05478515625003,68.67218659061912,-0.4061],[159.051025390625,68.67279694218162,-1.4243],[159.04296875,68.672479559369123,-1.2331],[159.04384765625002,68.67291901249412,-1.3072],[159.04443359375,68.67352936405662,-1.342],[159.044677734375,68.674335028119117,-1.4548],[159.044677734375,68.67523834843162,-1.5117],[159.0294921875,68.677752996869117,-1.1162],[159.02490234375,68.687518621869117,9.6934],[159.0283203125,68.69989655155662,9.2697],[159.03759765625,68.71027252811912,8.3287],[159.05185546875003,68.717401434369123,5.3985],[159.2353515625,68.74713776249412,0.0],[159.24658203125,68.75470612186912,8.1083],[159.228271484375,68.76837799686912,6.8191],[159.2099609375,68.778680731244123,3.9676],[159.190185546875,68.785419012494117,3.4117],[159.167236328125,68.78839752811912,3.5182],[158.88134765625,68.76129791874412,7.7671],[158.869873046875,68.75836823124412,7.8082],[158.8595703125,68.75214264530662,7.615],[158.73447265625003,68.733514715619123,8.2407],[158.685546875,68.735126043744117,8.8342],[158.67578125,68.73676178593162,-0.4938],[158.66660156250003,68.74115631718162,-0.7382]]}}