{"type":"Feature","properties":{"featurecla":"River","scalerank":7,"rivernum":462,"dissolve":"462River","name":"Sartang","name_alt":null,"note":null,"min_zoom":6.0,"strokeweig":0.2,"name_en":"Sartang","min_label":7.0},
"geometry":{"type": "LineString","coordinates": [[133.42910156250002,64.36981842655662,1179.1702],[133.427734375,64.382342840619117,1111.4199],[133.42226562500002,64.390252996869123,1304.2811],[133.4033203125,64.40241119999412,1310.855],[133.39384765625005,64.41046784061912,1410.3369],[133.386962890625,64.41974518436912,1251.0726],[133.3732421875,64.45087311405662,977.7501],[133.3681640625,64.458758856244117,963.1864],[133.364013671875,64.467059637494117,954.886],[133.36259765625005,64.47748444218162,943.8314]]}}