{"type":"Feature","properties":{"featurecla":"River","scalerank":7,"rivernum":627,"dissolve":"627River","name":"Anabar","name_alt":null,"note":null,"min_zoom":6.0,"strokeweig":0.25,"name_en":"Anabar","min_label":7.0},
"geometry":{"type": "LineString","coordinates": [[112.54794921875003,70.73859284061912,65.0326],[112.58056640625,70.757586981244117,100.8267],[112.620361328125,70.758661199994123,62.1637],[112.87021484375003,70.726581121869117,145.8065],[112.965576171875,70.75287506718162,134.6496],[112.99228515625003,70.754657293744117,149.6383],[113.04189453125002,70.74896881718162,112.7915],[113.170654296875,70.76105377811912,87.0231],[113.31689453125,70.79132721561912,55.8849],[113.35214843750003,70.80609772343162,51.0763],[113.45351562500002,70.876971746869117,28.5464],[113.4853515625,70.893915106244123,57.1952],[113.50136718750002,70.90570709843162,60.4876],[113.508056640625,70.91791412968162,59.2701],[113.51015625000002,70.93121979374412,55.7015],[113.515625,70.943475653119123,28.294],[113.52402343750003,70.95404694218162,109.8693],[113.53476562500003,70.96259186405662,141.9749],[113.558837890625,70.97052643436912,136.302],[113.613037109375,70.97077057499412,42.0642],[113.638427734375,70.97626373905662,56.6052],[113.65380859375,70.98480866093162,38.1445],[113.696533203125,71.02069733280662,57.8003],[113.711669921875,71.029901434369123,83.8046],[113.73007812500003,71.037127996869117,56.5627],[113.746337890625,71.04572174686912,8.3347],[113.75449218750003,71.059442449994123,26.4294],[113.7509765625,71.077508856244123,26.762],[113.73759765624999,71.08600494999412,72.779],[113.7,71.09638092655662,41.2845],[113.69716796875002,71.114520574994117,69.418],[113.7744140625,71.15961334843162,11.3567],[113.796142578125,71.18231842655662,6.3946],[113.781494140625,71.201288153119123,81.0145],[113.751708984375,71.21088287968162,84.1463],[113.73378906250002,71.22492096561912,75.8745],[113.75449218750003,71.257440496869123,59.3418],[113.801513671875,71.29218170780662,70.1747],[113.8173828125,71.311639715619123,73.8006],[113.82343750000001,71.34308502811912,120.5168],[113.81884765625,71.35504791874412,110.1163],[113.81142578125002,71.364374090619123,86.7596],[113.809814453125,71.373309637494117,87.3622],[113.82343750000001,71.38373444218162,33.106],[113.84169921875002,71.393915106244123,81.6483],[113.85664062500001,71.405047918744117,101.0796],[113.868896484375,71.41852448124412,46.5889],[113.878662109375,71.43561432499412,7.0725],[113.88828125000003,71.461297918744123,77.0018],[113.89423828125001,71.471795965619123,101.5058],[113.90595703125001,71.484002996869123,113.9018],[113.96533203125,71.514667059369117,10.8547],[113.97421875000003,71.528094793744117,15.1333],[113.968994140625,71.53851959843162,6.9167],[113.94599609375001,71.556903387494117,102.8291],[113.94082031250002,71.56903717655662,74.7183],[113.943359375,71.58527252811912,40.0575],[113.95068359375,71.59528229374412,5.8667],[113.97421875000003,71.61310455936912,35.6671],[113.995361328125,71.63800690311912,6.3814],[114.01923828125001,71.68195221561912,5.8703],[114.04257812500003,71.699725653119117,14.8736],[114.08164062500003,71.716327215619117,20.2584],[114.10205078125,71.727899481244123,16.2389],[114.11083984375,71.740350653119123,16.8142],[114.11826171875003,71.75849030155662,12.5788],[114.13662109375002,71.76654694218162,77.4753],[114.35693359375,71.799823309369117,16.807],[114.3857421875,71.81610748905662,7.6484]]}}