{"type":"Feature","properties":{"featurecla":"River","scalerank":6,"rivernum":317,"dissolve":"317River","name":"Olenëk2","name_alt":null,"note":null,"min_zoom":5.0,"strokeweig":0.25,"name_en":"Olenëk","min_label":6.0},
"geometry":{"type": "LineString","coordinates": [[109.33505859375003,67.117450262494117,208.1501],[109.35175781250001,67.12396881718162,209.0149],[109.361083984375,67.12897369999412,210.2928],[109.367431640625,67.13361237186912,208.8016],[109.36835937500001,67.14105866093162,210.379],[109.362060546875,67.162958074994123,226.5824],[109.36191406250003,67.17011139530662,239.8181],[109.372314453125,67.18024323124412,267.4859],[109.38339843750003,67.183710028119123,291.4001],[109.639892578125,67.15058014530662,305.0259],[109.7939453125,67.17108795780662,321.8167],[109.888671875,67.16083405155662,277.9474],[109.93222656250003,67.16132233280662,215.6397],[109.9794921875,67.17731354374412,205.6448],[110.017333984375,67.20014069218162,243.2759],[110.036376953125,67.20868561405662,237.8125],[110.05800781250002,67.212030340619123,326.4695],[110.14208984375,67.209247137494117,196.1153],[110.170654296875,67.212030340619123,193.7098],[110.1572265625,67.22846100468162,193.8363],[110.13593750000001,67.24445221561912,197.228],[110.12343750000002,67.26056549686912,235.1353],[110.13662109375002,67.277215887494123,293.1358],[110.174072265625,67.28375885624412,301.9973],[110.2625,67.28119537968162,202.6099],[110.29355468750003,67.30145905155662,236.2938],[110.23525390625002,67.32538483280662,278.6606],[110.225341796875,67.33551666874412,252.7549],[110.23388671875,67.347040106244123,214.6307],[110.2578125,67.354999090619117,216.44],[110.321875,67.36493561405662,210.9799],[110.329833984375,67.374774481244117,204.3581],[110.338623046875,67.40302155155662,225.127],[110.35048828125002,67.40973541874412,220.4901],[110.43789062500002,67.437762762494117,197.9013],[110.47958984375003,67.44647858280662,266.9169],[110.56640625,67.476190496869123,303.3966],[110.58896484375003,67.47894928593162,231.6824],[110.68857421875003,67.473016668744123,307.5816],[110.73476562500002,67.47662994999412,315.0109],[110.7802734375,67.49433014530662,252.7285],[110.84912109375,67.53534577030662,240.8388],[110.90732421875003,67.560419012494123,205.2022],[110.932861328125,67.565692449994117,253.797],[110.958984375,67.58075592655662,217.647],[110.97060546875002,67.58405182499412,196.5202],[110.99501953125002,67.58454010624412,196.666],[111.007080078125,67.587274481244123,195.4911],[111.027587890625,67.600116278119117,323.436],[111.02167968750001,67.60700104374412,285.5135],[110.91181640625001,67.624286199994117,173.3602],[110.91904296875003,67.64215729374412,174.2366],[110.950439453125,67.661249090619123,175.8268],[110.96240234375,67.677020574994117,176.1087],[110.94833984375003,67.687518621869117,166.7922],[110.91933593750002,67.699579168744123,171.6097],[110.904296875,67.70770905155662,209.6694],[110.90283203125,67.711053778119123,205.3546],[110.900390625,67.72308991093162,182.3206],[110.89697265625,67.72821686405662,171.0461],[110.888916015625,67.73285553593162,164.682],[110.87177734375001,67.737909246869123,181.1486],[110.86269531250002,67.74188873905662,181.1158],[110.8544921875,67.74323151249412,177.5226],[110.84462890625002,67.74323151249412,172.9266],[110.8369140625,67.74591705936912,162.6511],[110.83544921875,67.75556061405662,170.1804],[110.841552734375,67.75995514530662,213.72],[110.87646484375,67.76923248905662,193.2269],[110.88974609375003,67.78107330936912,189.8794],[110.900390625,67.79340241093162,271.664],[110.9130859375,67.800897528119123,381.5256],[110.97011718750002,67.79352448124412,166.1146],[111.01035156250003,67.80084869999412,190.7727],[111.048828125,67.81708405155662,169.9177],[111.07998046875002,67.83917877811912,166.0283],[111.10927734375002,67.86810944218162,198.4491],[111.12646484375,67.87933991093162,219.4767],[111.146240234375,67.88275787968162,332.6378],[111.16904296875003,67.87579987186912,281.7776],[111.18564453125003,67.865497137494117,344.9149],[111.203125,67.860126043744117,243.248],[111.22900390625,67.86823151249412,290.9862],[111.335693359375,67.92291901249412,267.4677],[111.36865234375,67.934833074994117,271.0206],[111.39892578125,67.936542059369117,258.5743],[111.41347656250002,67.917254949994117,270.7743],[111.423095703125,67.91278717655662,354.1735],[111.439697265625,67.89728424686912,159.5599],[111.44970703125,67.89166901249412,153.3351],[111.459716796875,67.89008209843162,161.084],[111.590576171875,67.885614324994123,186.1944],[111.593017578125,67.881952215619123,176.2346],[111.58876953125002,67.87543366093162,162.3335],[111.555908203125,67.84857819218162,154.0906],[111.54921875000002,67.83759186405662,173.6817],[111.550537109375,67.824481512494117,187.5628],[111.572998046875,67.80792877811912,222.3996],[111.60634765625002,67.81061432499412,297.038],[111.66875,67.82855866093162,339.195],[111.70859375000003,67.834833074994123,210.8274],[111.7568359375,67.85089752811912,155.7103],[111.77587890625,67.852801824994117,148.7703],[111.78525390625003,67.85480377811912,146.8376],[111.7919921875,67.85785553593162,149.5026],[111.805419921875,67.86603424686912,171.2026],[111.81240234375002,67.86933014530662,172.0448],[111.82753906250002,67.87323639530662,172.709],[111.84335937500003,67.874774481244117,169.3706],[111.859375,67.87409088749412,163.2024],[112.068603515625,67.82538483280662,144.2874],[112.22216796875,67.81073639530662,135.9421],[112.256591796875,67.812372137494123,149.3038],[112.28769531250003,67.817254949994123,143.3819],[112.324462890625,67.827264715619123,261.4266],[112.355712890625,67.844745184369117,255.4051],[112.370361328125,67.872186590619123,138.4628],[112.357421875,67.89850494999412,255.3513],[112.290283203125,67.91974518436912,133.3401],[112.27480468750002,67.944208074994123,135.2959],[112.28017578125002,67.953387762494117,134.304],[112.30361328125002,67.976190496869123,345.5622],[112.30898437500002,67.99201080936912,133.9554],[112.26806640625,68.02985260624412,133.5101],[112.225341796875,68.04743073124412,128.8322],[111.996337890625,68.080682684369123,128.7712],[111.97294921874999,68.08820221561912,154.8872],[111.9599609375,68.10150787968162,155.5219],[111.968994140625,68.113885809369123,161.8499],[112.00048828125,68.13226959843162,148.1111],[112.01162109375002,68.144794012494117,144.4467],[112.02968750000002,68.170282293744123,186.574],[112.04150390625,68.18073151249412,170.6404],[112.066162109375,68.19135162968162,156.3082],[112.09267578125002,68.195086981244117,149.1617],[112.16845703125,68.195331121869117,126.6853],[112.19169921874999,68.19891998905662,126.107],[112.21376953125002,68.20612213749412,122.4541],[112.2470703125,68.22821686405662,125.536],[112.296630859375,68.246112371869117,121.1939],[112.30898437500002,68.25580475468162,131.8961],[112.287109375,68.273797918744123,114.7201],[112.15869140625,68.27692291874412,119.0583],[112.1171875,68.28314850468162,225.3044],[112.115478515625,68.30304596561912,204.598],[112.15390625000003,68.31720612186912,149.8662],[112.24072265625,68.331561590619117,146.3701],[112.298828125,68.35956452030662,145.1674],[112.25732421875,68.39533112186912,113.7138],[112.18710937500003,68.43353912968162,107.9194],[112.15869140625,68.46869537968162,106.794],[112.17441406250003,68.48309967655662,186.5902],[112.19960937500002,68.492938543744117,145.9386],[112.24755859375,68.50287506718162,103.8441],[112.23935546875003,68.51264069218162,106.5509],[112.21787109375003,68.52960846561912,102.7757],[112.21259765625001,68.538104559369117,167.6402],[112.21630859375,68.552850653119123,201.7141],[112.2294921875,68.56293366093162,203.9194],[112.24814453125003,68.56928131718162,246.3164],[112.26806640625,68.572870184369123,293.027],[112.30087890625003,68.574237371869117,259.3479],[112.33046875000002,68.56964752811912,315.3517],[112.389404296875,68.54682037968162,103.5014],[112.451171875,68.50714752811912,124.7325],[112.47353515625002,68.49774811405662,194.5672],[112.48964843750002,68.494647528119117,187.5395],[112.53828125000001,68.493182684369117,180.1469],[112.58095703125002,68.49787018436912,174.6226],[112.65957031250002,68.51642487186912,194.5602],[112.701904296875,68.50897858280662,116.3256],[112.71933593750003,68.49982330936912,146.3004],[112.751220703125,68.477801824994117,99.9637],[112.76816406250003,68.46869537968162,99.5482],[112.79404296875003,68.46015045780662,126.1575],[112.85107421875,68.450213934369117,122.6636],[113.04794921875003,68.44721100468162,152.9411],[113.39248046875002,68.39704010624412,111.626],[113.41933593750002,68.40289948124412,119.3754],[113.50263671875001,68.43231842655662,173.2605],[113.55087890625003,68.436883856244123,183.3969],[113.64892578125,68.42865631718162,107.6645],[113.693115234375,68.440790106244123,98.7581],[113.67568359375002,68.451678778119117,144.7397],[113.682861328125,68.46161530155662,120.2772],[113.84726562500003,68.51898834843162,110.2089],[113.87089843749999,68.52179596561912,110.6872],[113.91875,68.514422918744117,105.3415],[113.98847656250001,68.536981512494123,121.7992],[114.031982421875,68.537616278119117,143.6296],[114.06884765625,68.526874090619117,115.511],[114.18359375,68.46918366093162,95.3049],[114.225830078125,68.461932684369117,158.117],[114.31630859375002,68.46869537968162,251.6409],[114.48251953125003,68.46283600468162,133.7681],[114.6279296875,68.48908112186912,156.4744],[114.67841796875001,68.489764715619117,144.6632],[114.720703125,68.47858307499412,89.3951],[114.73505859375001,68.45526764530662,111.8959],[114.697265625,68.43891022343162,129.0017],[114.609619140625,68.422235418744123,126.1781],[114.57626953125003,68.410028387494123,137.4622],[114.571533203125,68.40155670780662,142.6885],[114.589111328125,68.390985418744123,87.7919],[114.638916015625,68.37787506718162,100.1391],[114.85400390625,68.35687897343162,141.0255],[114.90585937500003,68.37250397343162,112.4502],[114.971923828125,68.414422918744123,87.8551],[115.00673828125002,68.42853424686912,97.2596],[115.05332031250003,68.43390534061912,152.1297],[115.24306640625002,68.43451569218162,84.025],[115.33339843750002,68.45062897343162,95.1973],[115.5,68.524530340619123,89.6667],[115.61220703125002,68.552362371869123,133.1007],[115.693115234375,68.54938385624412,152.144],[115.71201171875003,68.544794012494123,96.2314],[115.72929687499999,68.536151434369117,92.9499],[115.73876953125,68.522479559369117,125.1405],[115.73505859375001,68.50287506718162,80.5532],[115.72216796875,68.48639557499412,87.7732],[115.703857421875,68.47284577030662,94.8406],[115.68349609375002,68.462176824994117,93.7648],[115.6640625,68.45465729374412,95.5939],[115.63876953125003,68.44867584843162,94.4457],[115.56103515625,68.441424871869117,97.1775],[115.48916015625002,68.41840241093162,81.029],[115.45302734375002,68.39935944218162,79.005],[115.445556640625,68.38068268436912,116.3111],[115.45947265625,68.37030670780662,150.5172],[115.536376953125,68.342059637494117,81.6329],[115.57343750000001,68.33295319218162,82.6336],[115.7626953125,68.31464264530662,147.1668],[115.93515625000003,68.27228424686912,90.2052],[115.97236328125001,68.258905340619123,95.5184],[115.9912109375,68.24530670780662,90.2206],[115.98388671875,68.233172918744117,102.1996],[115.963134765625,68.223749090619123,101.4428],[115.94189453125,68.21869537968162,94.0457],[115.81396484375,68.215350653119117,135.2659],[115.81064453125003,68.207782293744117,77.8034],[115.81484375000002,68.20184967655662,91.7105],[115.82656250000002,68.193866278119117,104.6305],[115.83730468750002,68.18329498905662,99.5858],[115.8388671875,68.16998932499412,129.071],[115.828125,68.16071198124412,85.9401],[115.810791015625,68.151141668744117,77.5143],[115.7978515625,68.140741278119123,90.4872],[115.80009765624999,68.129169012494117,91.457],[115.83759765625001,68.116229559369117,76.8443],[115.89765625000001,68.11151764530662,76.0985],[115.959228515625,68.113544012494117,92.2502],[116.02158203125003,68.12445709843162,206.0946],[116.04677734375002,68.12409088749412,192.6283],[116.07099609375001,68.11884186405662,94.0211],[116.08837890625,68.108417059369117,198.3426],[116.09003906250001,68.09711334843162,75.2031],[116.068603515625,68.075311590619123,88.8044],[116.06416015625001,68.06342194218162,74.861],[116.072265625,68.05316803593162,117.0666],[116.10595703125,68.04035065311912,114.7529],[116.11933593750001,68.02985260624412,120.4383],[116.12587890625002,68.01618073124412,121.3324],[116.1240234375,68.006708074994123,112.4945],[116.10205078125,67.98517487186912,74.5395],[116.108642578125,67.97223541874412,205.3563],[116.15878906250003,67.92621491093162,73.5517],[116.174072265625,67.90631744999412,81.0816],[116.17587890625003,67.895282293744117,86.9302],[116.176513671875,67.87567780155662,108.805],[116.180908203125,67.86542389530662,97.6185],[116.19091796875,67.857440496869117,73.511],[116.205322265625,67.84870026249412,154.7629],[116.21523437500002,67.838983465619123,198.0472],[116.2119140625,67.82782623905662,74.0667],[116.15761718750002,67.779803778119117,86.3921],[116.14541015625002,67.754266668744123,72.0333],[116.167236328125,67.73505280155662,72.9152],[116.19277343750002,67.731219793744117,73.5405],[116.37841796875,67.72833893436912,107.6853],[116.400634765625,67.73126862186912,91.6397],[116.46630859375,67.74823639530662,86.7014],[116.53125,67.75592682499412,71.8499],[116.54482421875002,67.762567449994123,70.1597],[116.554443359375,67.77338287968162,69.841],[116.557861328125,67.786639715619117,69.8973],[116.55244140625001,67.800799871869117,78.8037],[116.53925781250001,67.81000397343162,83.1673],[116.50302734375003,67.82758209843162,70.0691],[116.49609375,67.840106512494117,70.161],[116.501220703125,67.849969793744123,68.9133],[116.5126953125,67.855243231244117,68.4743],[116.52597656250003,67.857294012494123,71.3948],[116.53681640625001,67.85773346561912,68.4449],[116.564453125,67.85590241093162,68.1693],[116.67539062500003,67.833270574994117,99.8088],[116.70615234375003,67.83051178593162,92.0599],[116.73681640625,67.83112213749412,89.0655],[116.76679687500001,67.836297918744123,78.8943],[116.78310546875002,67.84332916874412,68.3547],[116.810302734375,67.86420319218162,67.7027],[116.826171875,67.87311432499412,66.3152],[116.8583984375,67.88287994999412,196.7616],[116.87509765625003,67.885614324994123,158.8391],[117.001220703125,67.88178131718162,80.8587],[117.011962890625,67.883905340619123,79.9721],[117.0185546875,67.889422918744117,77.8316],[117.01708984375,67.90009186405662,99.9405],[117.00634765625,67.90961334843162,229.3055],[116.992431640625,67.916766668744117,153.9635],[116.9814453125,67.92023346561912,118.3103],[116.957763671875,67.92230866093162,88.5761],[116.947509765625,67.926629949994123,83.842],[116.94052734375003,67.93707916874412,83.9378],[116.945068359375,67.95954010624412,69.1373],[116.96787109375003,67.97394440311912,77.7335],[116.9951171875,67.98627350468162,64.3344],[117.01318359375,68.00226471561912,74.2761],[117.0224609375,68.01410553593162,89.9963],[117.036376953125,68.022577215619123,135.069],[117.06650390625003,68.032586981244123,186.838],[117.20566406250003,68.05475494999412,93.0849],[117.34921875000003,68.05329010624412,71.1532],[117.37685546875002,68.05731842655662,75.9042],[117.430419921875,68.077508856244123,71.9848],[117.44003906250003,68.08295319218162,61.5],[117.477783203125,68.11163971561912,72.1998],[117.50439453125,68.12372467655662,75.8633],[117.516357421875,68.13178131718162,88.6278],[117.531494140625,68.145038153119117,80.5001],[117.53955078125,68.15033600468162,73.2878],[117.54921875000002,68.154559637494117,61.0],[117.5810546875,68.16290924686912,97.549],[117.63232421875,68.16913483280662,61.0],[117.69970703125,68.19000885624412,70.837],[117.71240234375,68.19611237186912,71.861],[117.71826171875,68.20563385624412,127.1989],[117.71015625000001,68.219012762494117,172.8854],[117.69833984375003,68.225604559369117,185.4922],[117.682861328125,68.22943756718162,218.7015],[117.66689453125002,68.230731512494117,215.114],[117.59228515625,68.22296784061912,92.5016],[117.56113281250003,68.223993231244123,176.1119],[117.33896484375003,68.26947662968162,80.5247],[117.22109375000002,68.319842840619117,110.7589],[117.201904296875,68.33466217655662,56.0599],[117.203857421875,68.34821198124412,55.8807],[117.20957031250003,68.362079168744117,121.9948],[117.21826171875,68.374286199994117,88.6234],[117.22910156250003,68.382440496869123,81.737799999999993],[117.23398437500003,68.39240143436912,55.6875],[117.21748046875001,68.40253327030662,197.3053],[117.19404296875001,68.41034577030662,107.5991],[117.15224609375002,68.416034246869117,141.2975],[117.12939453125,68.42389557499412,107.6751],[117.109619140625,68.43720123905662,93.1324],[117.08701171875003,68.463006903119123,167.4767],[117.05820312500003,68.48786041874412,86.4441],[117.05126953125,68.496356512494117,76.8011],[117.0478515625,68.50556061405662,53.5634],[117.05029296875,68.51532623905662,118.1992],[117.063232421875,68.52606842655662,61.6684],[117.08134765624999,68.530877996869123,84.7019],[117.11767578125,68.53168366093162,81.7642],[117.14218750000003,68.535419012494117,79.6623],[117.208251953125,68.56195709843162,68.1588],[117.24277343750003,68.56952545780662,59.0439],[117.25771484375002,68.576190496869117,51.7131],[117.28994140625002,68.60162994999412,57.4675],[117.307861328125,68.611200262494123,100.3883],[117.327392578125,68.61725494999412,193.0984],[117.34951171875002,68.62042877811912,167.9142],[117.36767578125,68.619501043744123,199.5465],[117.38515625000002,68.614032293744117,174.6787],[117.400634765625,68.604510809369117,182.1819],[117.41357421875,68.591571356244117,97.9999],[117.418212890625,68.58295319218162,133.5126],[117.42597656250001,68.562030340619117,56.3778],[117.430908203125,68.55402252811912,51.2278],[117.44785156250003,68.541131903119123,54.1222],[117.53769531250003,68.511590887494123,162.7865],[117.54833984375,68.503045965619123,105.6321],[117.55283203125003,68.48798248905662,100.3489],[117.55332031250003,68.464960028119123,50.1441],[117.5546875,68.457782293744117,50.1271],[117.563720703125,68.44318268436912,105.4908],[117.57851562500002,68.43439362186912,95.0268],[117.59589843750001,68.43024323124412,89.6008],[117.613037109375,68.42938873905662,87.2771],[117.634521484375,68.43183014530662,81.2565],[117.652587890625,68.43805573124412,84.794],[117.70859375000003,68.47174713749412,165.066],[117.73134765625002,68.479364324994123,177.5607],[117.88710937500002,68.509637762494123,171.5558],[118.03759765625,68.56769440311912,189.724],[118.06191406250002,68.58222077030662,187.8352],[118.08154296875,68.60077545780662,157.9491],[118.09462890625002,68.62323639530662,70.1315],[118.102294921875,68.65985748905662,70.172],[118.11328125,68.68195221561912,65.5824],[118.113037109375,68.693963934369123,58.826],[118.09521484375,68.71271393436912,252.4926],[118.0673828125,68.71662018436912,197.4756],[118.03759765625,68.711297918744123,68.1734],[117.994873046875,68.69574616093162,92.1165],[117.9697265625,68.69135162968162,91.2276],[117.94482421875,68.69135162968162,80.1397],[117.92626953125,68.69794342655662,65.1335],[117.92148437500003,68.717303778119117,185.6016],[117.9482421875,68.73139069218162,79.1778],[118.00888671875003,68.74494049686912,70.935],[118.03095703125001,68.753924871869117,117.623],[118.07275390625,68.77887604374412,136.3814],[118.095703125,68.78400299686912,183.1302],[118.12744140625,68.781122137494123,172.1966],[118.216064453125,68.76288483280662,106.4379],[118.318359375,68.769891668744123,94.1316],[118.353271484375,68.76288483280662,227.4734],[118.37197265625002,68.75385162968162,178.843],[118.4287109375,68.718524481244117,44.2427],[118.444580078125,68.71198151249412,43.6689],[118.46152343750003,68.708124090619123,111.5028],[118.55429687500003,68.705585028119117,103.3264],[118.583984375,68.710223699994117,83.1527],[118.60664062500001,68.723504949994123,199.5273],[118.62070312500003,68.741083074994123,157.5611],[118.626220703125,68.75690338749412,116.6654],[118.62158203125,68.77277252811912,140.1097],[118.60488281250002,68.79035065311912,129.7982],[118.61386718750003,68.802020574994117,195.1879],[118.62783203125002,68.809100653119117,177.4703],[118.707763671875,68.83820221561912,236.5868],[118.723876953125,68.84186432499412,261.4321],[118.82675781250003,68.84357330936912,211.9205],[118.85732421875002,68.850458074994123,231.0131],[118.87246093750002,68.86481354374412,153.1463],[118.87021484375003,68.87421295780662,119.1135],[118.86220703125002,68.880731512494123,88.1618],[118.792236328125,68.91364166874412,138.6638],[118.748046875,68.92291901249412,65.2248],[118.66875,68.94977448124412,104.7959],[118.6279296875,68.955194403119123,192.2534],[118.608642578125,68.95551178593162,161.4072],[118.58964843749999,68.95380280155662,80.0368],[118.54052734375,68.937860418744123,186.8322],[118.5263671875,68.92890045780662,196.2247],[118.51708984375,68.916131903119123,271.5794],[118.514404296875,68.90595123905662,253.172],[118.51357421875002,68.89655182499412,217.1667],[118.511474609375,68.88727448124412,152.0203],[118.506103515625,68.87775299686912,169.1601],[118.500244140625,68.87177155155662,169.1849],[118.49335937500001,68.86713287968162,145.3702],[118.486083984375,68.86408112186912,108.5866],[118.477783203125,68.86273834843162,79.6639],[118.461669921875,68.86432526249412,50.7427],[118.4482421875,68.87006256718162,40.0],[118.399658203125,68.902948309369123,61.8467],[118.35986328125,68.92035553593162,185.5166],[118.34765625,68.922381903119117,216.1069],[118.233154296875,68.927362371869123,215.7028],[118.139892578125,68.92035553593162,71.0241],[118.09238281250003,68.92816803593162,152.3461],[118.057373046875,68.981463934369117,37.7806],[118.02333984375002,68.993768621869123,43.611],[117.86152343750001,69.011981512494117,188.8201],[117.84375,69.01178619999412,197.2876],[117.77548828125003,69.00311920780662,56.6718],[117.7587890625,69.00507233280662,36.4526],[117.74462890625,69.011346746869123,165.5459],[117.73867187500002,69.02033112186912,79.4202],[117.74169921875,69.03021881718162,110.7443],[117.754638671875,69.03912994999412,196.7894],[117.768310546875,69.043475653119117,218.8369],[117.9287109375,69.06268952030662,99.2249],[118.00146484375,69.089227606244123,155.7003],[118.0263671875,69.09296295780662,127.9558],[118.102783203125,69.08502838749412,104.2196],[118.298583984375,69.10553619999412,208.6019],[118.34658203125002,69.10468170780662,167.0226],[118.3720703125,69.107538153119123,134.8287],[118.39072265625003,69.116083074994123,71.1255],[118.39208984375,69.128680731244117,53.163],[118.375,69.13922760624412,180.2983],[118.33896484375003,69.153924871869123,190.9091],[118.32949218750002,69.17230866093162,232.2525],[118.3291015625,69.21454498905662,128.1791],[118.315673828125,69.23895905155662,61.9016],[118.30517578125,69.253680731244117,61.7865],[118.3017578125,69.266864324994117,58.2759],[118.30419921875,69.27863190311912,67.9588],[118.311279296875,69.28937409061912,170.6955]]}}