{"type":"Feature","properties":{"featurecla":"River","scalerank":9,"rivernum":1111,"dissolve":"1111River","name":"Selennyakh2","name_alt":null,"note":null,"min_zoom":7.1,"strokeweig":0.25,"name_en":"Selennyakh","min_label":8.1},
"geometry":{"type": "LineString","coordinates": [[139.65126953125002,67.85114166874412,233.7638],[139.7041015625,67.853876043744123,236.5897],[139.71914062500002,67.85114166874412,241.9252],[139.731640625,67.84369537968162,229.7333],[139.734619140625,67.83722565311912,260.0683],[139.73486328125,67.83100006718162,228.7762],[139.73974609375,67.82440827030662,229.229],[139.76699218750002,67.81122467655662,228.2725],[139.798828125,67.805292059369123,224.8289],[139.86376953125,67.80390045780662,221.8788],[139.85634765625002,67.798456121869123,223.7372],[139.84775390625003,67.79413483280662,226.4524],[139.838623046875,67.79120514530662,224.7758],[139.82900390625002,67.789667059369123,222.4089],[139.94150390625003,67.776483465619123,236.8284],[139.95947265625,67.758905340619123,213.6019],[139.974609375,67.73810455936912,212.189],[140.009521484375,67.72235748905662,217.8365],[140.169921875,67.691034246869123,198.7545],[140.251708984375,67.69855377811912,203.4263],[140.26035156250003,67.69721100468162,201.364],[140.28183593750003,67.68829987186912,190.7257],[140.30615234375,67.68463776249412,192.3365],[140.34287109375003,67.674188543744123,198.8182],[140.36337890625003,67.673602606244117,196.5471],[140.378173828125,67.67755768436912,192.3479],[140.3916015625,67.68317291874412,187.2088],[140.40634765625003,67.687372137494123,185.2819],[140.425537109375,67.68720123905662,185.0392],[140.485595703125,67.67511627811912,236.5726],[140.50771484375002,67.673602606244117,179.9649],[140.52509765625,67.67572662968162,179.0231],[140.55849609375002,67.68512604374412,175.0731],[140.70087890625,67.69953034061912,165.5363],[140.74423828125003,67.71393463749412,161.7814],[140.755615234375,67.715692449994123,161.4518],[140.86376953125,67.71454498905662,157.507],[140.87656250000003,67.717303778119117,259.3635],[140.90439453125003,67.73053619999412,151.1304],[140.91835937500002,67.73505280155662,153.0739],[140.961181640625,67.73651764530662,151.0895],[141.00058593750003,67.73261139530662,194.2644],[141.03828125,67.733270574994123,200.5379],[141.07666015625,67.748651434369123,243.2137],[141.10625,67.76569244999412,143.8671],[141.1349609375,67.77619049686912,139.8876],[141.167236328125,67.781366278119123,135.6579],[141.24257812500002,67.78522369999412,164.7412],[141.72431640625,67.904169012494123,112.4661],[141.91269531250003,67.90814850468162,98.3671],[142.07958984375,67.93244049686912,88.6562],[142.39580078125005,67.92780182499412,75.6842],[142.467041015625,67.940936590619117,70.9182],[142.56689453125,67.94049713749412,70.5927],[142.584228515625,67.943475653119123,67.238],[142.62021484375003,67.95416901249412,69.5698],[142.63730468750003,67.95294830936912,63.4759],[142.6583984375,67.948016668744117,67.3741],[142.70634765625005,67.94562409061912,63.9029],[142.728271484375,67.94794342655662,63.0298],[142.83408203125003,67.97211334843162,60.1497],[142.94677734375,67.977557684369117,56.4685],[142.98505859375,67.98444244999412,54.603],[143.0419921875,68.013934637494117,54.8412],[143.0810546875,68.01752350468162,55.1302],[143.12089843750005,68.01276276249412,51.7342],[143.21132812500002,67.977655340619123,51.6108],[143.24091796875,67.970819403119123,51.3722],[143.2763671875,67.968377996869123,49.8464],[143.263671875,67.98822662968162,49.7934],[143.27402343750003,68.00336334843162,48.9389],[143.29755859375,68.01288483280662,51.1259],[143.324462890625,68.01618073124412,45.8941],[143.3447265625,68.01447174686912,48.4483],[143.39990234375,68.002557684369123,45.8914],[143.46533203125,68.002948309369117,47.244],[143.48300781250003,67.995135809369117,47.0421],[143.46845703125,67.98749420780662,46.1207],[143.42031250000002,67.97528717655662,37.5],[143.4609375,67.964618231244117,42.7274],[143.545654296875,67.97943756718162,48.4045],[143.58486328125002,67.97528717655662,41.6403],[143.57958984375,67.955096746869117,39.0479],[143.62539062500002,67.95221588749412,43.5868],[143.721435546875,67.96100494999412,42.9587],[143.761962890625,67.96027252811912,44.2005],[143.78261718750002,67.955438543744123,44.5406],[143.80029296875,67.944208074994123,43.5808],[143.80917968750003,67.94061920780662,42.5762],[143.8212890625,67.94171784061912,42.4666],[143.8330078125,67.945819403119117,42.8783],[143.850830078125,67.957635809369123,43.0699],[143.85888671875,67.958026434369117,41.9345],[143.86767578125,67.955926824994123,43.9151],[143.87900390625003,67.95477936405662,44.3627],[143.98056640625003,67.95819733280662,42.573],[144.029296875,67.952997137494123,39.3714],[144.07822265625003,67.937372137494123,40.8281],[144.12929687500002,67.92975494999412,40.5424],[144.236328125,67.95111725468162,39.6027],[144.28369140625,67.94794342655662,38.3261],[144.266357421875,67.93744537968162,39.0721],[144.201171875,67.91998932499412,39.9506],[144.22646484375002,67.911981512494123,32.8734],[144.25146484375,67.91535065311912,39.2602],[144.276123046875,67.922723699994123,33.2327],[144.33017578125003,67.929461981244117,38.5715],[144.43173828125003,67.96063873905662,36.7145],[144.455078125,67.96100494999412,37.2571],[144.469921875,67.963251043744123,35.6781],[144.49648437500002,67.973016668744123,36.5695],[144.59707031250002,67.98102448124412,37.4277],[144.62636718750002,67.97528717655662,46.3072],[144.605712890625,67.955438543744123,36.9539],[144.5888671875,67.94953034061912,36.6179],[144.58925781250002,67.94623444218162,37.0256],[144.61953125000002,67.93427155155662,35.398],[144.653515625,67.91376373905662,35.1624],[144.66933593750002,67.90973541874412,33.5203],[144.77734375,67.921014715619123,33.8821],[144.814697265625,67.92084381718162,31.8237],[144.83115234375003,67.91010162968162,31.368],[144.8134765625,67.900409246869117,33.5656],[144.7021484375,67.892694403119123,33.1356],[144.71230468750002,67.88031647343162,35.2741],[144.749267578125,67.876727606244117,37.6708],[144.76621093750003,67.868768621869123,46.596],[144.7822265625,67.85895416874412,31.2877],[144.79990234375003,67.856317449994123,34.3036],[144.841796875,67.858514715619123,27.9814],[144.875,67.86517975468162,34.0475],[144.906982421875,67.876239324994117,32.7281],[144.93808593750003,67.878436590619117,32.584],[144.968994140625,67.858514715619123,31.924]]}}