{"type":"Feature","properties":{"featurecla":"River","scalerank":8,"rivernum":744,"dissolve":"744River","name":"Alazeya1","name_alt":null,"note":null,"min_zoom":7.0,"strokeweig":0.2,"name_en":"Alazeya","min_label":8.0},
"geometry":{"type": "LineString","coordinates": [[149.71835937500003,68.17328522343162,52.2214],[149.70449218750002,68.18488190311912,53.4745],[149.70205078125002,68.195819403119117,49.8899],[149.70947265625,68.20526764530662,61.1386],[149.7255859375,68.21259186405662,51.4687],[149.747314453125,68.216424871869123,47.1161],[149.764892578125,68.217059637494117,50.0479],[149.780517578125,68.22028229374412,48.4819],[149.79638671875,68.23224518436912,51.4111],[149.810302734375,68.237176824994123,47.1836],[149.88232421875,68.24957916874412,47.0913],[149.90625,68.24799225468162,48.6743],[150.00234375000002,68.224139715619117,45.4404],[150.02685546875,68.222040106244123,42.4586],[150.05117187500002,68.22321198124412,44.9267],[150.1650390625,68.25421784061912,41.4577],[150.1875,68.25714752811912,47.4526],[150.28164062500002,68.247186590619123,44.8845],[150.30009765625005,68.24017975468162,43.1796],[150.31689453125,68.22907135624412,37.9716],[150.35898437500003,68.192010809369123,39.1688],[150.37216796875003,68.184833074994117,42.1664],[150.38935546875,68.18073151249412,46.6513],[150.404541015625,68.18170807499412,42.3066],[150.430908203125,68.19171784061912,40.0848],[150.44404296875,68.194354559369117,40.8044],[150.45761718750003,68.192987371869123,39.9008],[150.478759765625,68.18475983280662,40.0687],[150.659912109375,68.14569733280662,40.4239],[150.86093750000003,68.06073639530662,34.7876],[150.90478515625,68.05365631718162,35.4118],[150.92441406250003,68.04291412968162,33.9081],[150.928125,68.03681061405662,35.3859],[150.9259765625,68.031756903119117,29.432],[150.92324218750002,68.027362371869117,34.6454],[150.92441406250003,68.02301666874412,34.9606],[150.93369140625003,68.015741278119123,35.3184],[150.96523437500002,67.99884674686912,34.302],[150.98779296875,67.992792059369123,30.4755],[151.03847656250002,67.991571356244123,26.0],[151.086181640625,67.976678778119123,33.0512],[151.11044921875003,67.97626373905662,32.6995],[151.16083984375,67.98151276249412,32.5233],[151.18505859375,67.978290106244117,34.2617],[151.23095703125,67.96417877811912,33.1194],[151.253173828125,67.96100494999412,31.1864],[151.52939453125003,67.965594793744117,30.4756],[151.70126953125003,68.006708074994123,26.1987],[151.72568359375003,68.02301666874412,25.4542],[151.7216796875,68.026874090619117,28.5349],[151.71142578125,68.03034088749412,26.0394],[151.701416015625,68.03522369999412,30.5619],[151.69785156250003,68.04291412968162,29.396],[151.70302734375002,68.050067449994117,30.5692],[151.73251953125003,68.06342194218162,30.5244],[151.75625,68.07977936405662,28.4757],[151.76904296875,68.08551666874412,27.6581],[151.96640625000003,68.137811590619123,24.1785],[151.990478515625,68.14105866093162,28.0345],[152.061279296875,68.12604401249412,24.5904],[152.294921875,68.15961334843162,26.4592],[152.3068359375,68.163934637494123,24.4751],[152.32851562500002,68.17694733280662,23.9194],[152.34248046875,68.180926824994117,24.5938],[152.40625,68.17731354374412,22.5482]]}}