{"type":"Feature","properties":{"featurecla":"River","scalerank":8,"rivernum":898,"dissolve":"898River","name":"Tyung2","name_alt":null,"note":null,"min_zoom":7.0,"strokeweig":0.25,"name_en":"Tyung","min_label":8.0},
"geometry":{"type": "LineString","coordinates": [[117.767333984375,66.624139715619123,221.7559],[117.787109375,66.620868231244117,208.7353],[117.846435546875,66.627557684369123,214.3981],[117.8671875,66.62604401249412,211.8453],[117.92050781250003,66.613885809369123,201.8679],[117.95859375000003,66.61286041874412,203.7357],[118.023681640625,66.61969635624412,226.5122],[118.095703125,66.603290106244117,216.1498],[118.129638671875,66.61225006718162,218.0712],[118.16201171875002,66.62616608280662,202.4304],[118.19492187500003,66.633807684369117,273.3933],[118.220458984375,66.630731512494123,222.7238],[118.22080078125003,66.62091705936912,191.2215],[118.211669921875,66.605731512494117,208.7019],[118.209228515625,66.58661530155662,198.1773],[118.22304687500002,66.57391998905662,210.6642],[118.298583984375,66.55866119999412,207.7431],[118.2841796875,66.542254949994117,214.8276],[118.26230468750003,66.540545965619117,223.1849],[118.23886718750003,66.54193756718162,216.2611],[118.219482421875,66.534784246869123,245.0361],[118.217041015625,66.51923248905662,185.6877],[118.240234375,66.512079168744123,211.562],[118.401123046875,66.517694403119123,215.394],[118.45322265625003,66.52960846561912,219.6572],[118.47988281250002,66.53046295780662,246.8877],[118.50341796875,66.517694403119123,179.0],[118.47089843750001,66.503290106244123,215.5858],[118.45468750000003,66.493915106244117,220.2747],[118.44257812500001,66.48297760624412,216.1735],[118.47031250000003,66.47223541874412,202.3126],[118.506103515625,66.46808502811912,199.9493],[118.5419921875,66.472186590619117,181.8146],[118.59726562500003,66.50495026249412,205.1552],[118.63144531250003,66.513788153119123,252.0295],[118.667724609375,66.51483795780662,191.8916],[118.73046875,66.50372955936912,235.3044],[118.759521484375,66.49494049686912,203.7629],[118.78652343750002,66.48273346561912,198.3272],[118.808837890625,66.466180731244123,216.0294],[118.837158203125,66.451922918744117,183.1937],[118.905517578125,66.44745514530662,205.4218],[118.93544921875002,66.435174871869123,188.0529],[118.943115234375,66.44147369999412,177.3316],[118.94970703125,66.44879791874412,212.7613],[118.929443359375,66.458758856244117,193.8578],[118.93789062500002,66.472430731244117,174.2553],[118.96044921875,66.48456452030662,244.2516],[118.98330078125002,66.48981354374412,233.3266],[118.99335937500001,66.48847077030662,245.3253],[119.006591796875,66.48444244999412,254.9572],[119.01845703125002,66.47797272343162,257.589],[119.02480468750002,66.46930573124412,236.3113],[119.02285156250002,66.45966217655662,221.8168],[119.00693359375003,66.44830963749412,177.9795],[119.00439453125,66.44196198124412,178.1203],[119.02412109375001,66.43036530155662,205.3049],[119.09736328125001,66.428338934369123,228.6103],[119.11347656250001,66.41840241093162,207.6554],[119.12548828125,66.39911530155662,187.8259],[119.15341796875003,66.39398834843162,209.6547],[119.185302734375,66.393182684369123,209.9322],[119.209228515625,66.38739655155662,180.6048],[119.193603515625,66.382098699994117,188.6174],[119.17490234375003,66.37982819218162,173.4255],[119.16318359375003,66.376239324994117,203.5217],[119.16875,66.36688873905662,181.9418],[119.18896484375,66.358026434369123,224.4499],[119.24843750000002,66.34772369999412,220.3868],[119.271240234375,66.34638092655662,201.4408],[119.28505859375002,66.341083074994117,213.9593],[119.299072265625,66.31757233280662,164.9172],[119.30908203125,66.312274481244117,203.1324],[119.35683593750002,66.31110260624412,231.1958],[119.38046875000003,66.306903387494117,227.5919],[119.40146484375003,66.297967840619123,216.3402],[119.38623046875,66.29315827030662,170.6752],[119.35498046875,66.286981512494123,203.869],[119.34003906250001,66.28119537968162,199.4761],[119.33144531250002,66.271502996869117,156.8074],[119.337158203125,66.26288483280662,179.3776],[119.34755859375002,66.25482819218162,197.4745],[119.36611328125002,66.23065827030662,207.1361],[119.39589843750002,66.21832916874412,220.8389],[119.42919921875,66.21344635624412,191.4169],[119.46630859375,66.22333405155662,227.2878],[119.48496093750003,66.222674871869117,213.5238],[119.503173828125,66.21857330936912,205.7165],[119.52871093750002,66.20380280155662,214.869],[119.5478515625,66.201190496869117,214.3055],[119.58652343750003,66.202411199994117,211.0186],[119.60205078125,66.199090887494123,205.3583],[119.63779296875003,66.18134186405662,186.6918],[119.67724609375,66.175555731244117,198.2647],[119.716552734375,66.164569403119117,206.9432],[119.755859375,66.143817449994117,204.3037],[119.77060546875003,66.12836334843162,188.0103],[119.7783203125,66.106219793744117,187.01],[119.77412109375001,66.08173248905662,166.953],[119.7578125,66.07172272343162,174.39],[119.736328125,66.06549713749412,182.4169],[119.71621093750002,66.05219147343162,163.0444],[119.70742187500002,66.03815338749412,172.6001],[119.708740234375,66.030389715619123,181.627],[119.713623046875,66.02472565311912,180.356],[119.71621093750002,66.01679108280662,179.6129],[119.7138671875,66.00678131718162,178.9904],[119.70458984375,65.985370184369117,170.5428],[119.70263671875,65.98334381718162,168.6732],[119.70791015625002,65.96112702030662,163.2942],[119.72060546875002,65.94391510624412,160.4356],[119.75048828125,65.914422918744123,149.2849],[119.71230468750002,65.91229889530662,151.0807],[119.677001953125,65.90497467655662,149.6951],[119.64492187500002,65.891229559369123,193.8972],[119.616943359375,65.86969635624412,149.6095],[119.58837890625,65.85626862186912,152.8472],[119.51748046875002,65.848504949994123,185.7291],[119.49091796875001,65.83246491093162,166.2413],[119.486328125,65.82245514530662,194.2947],[119.48095703125,65.799090887494117,142.771],[119.466064453125,65.77655670780662,149.6604],[119.446533203125,65.737079168744117,146.7339],[119.44248046875003,65.723993231244123,146.2474],[119.424560546875,65.70221588749412,161.8012],[119.35800781250003,65.67987702030662,148.3022],[119.360595703125,65.658807684369123,155.4526],[119.34238281250003,65.65582916874412,149.0151],[119.326416015625,65.648309637494123,130.5],[119.31552734375003,65.63580963749412,147.9613],[119.31289062500002,65.617938543744117,130.5],[119.31875,65.60578034061912,145.9996],[119.34326171875,65.58380768436912,147.5824],[119.353125,65.56940338749412,140.4337],[119.322509765625,65.56586334843162,143.4478],[119.260498046875,65.571161199994123,140.0531],[119.22958984375003,65.56940338749412,146.4493],[119.21474609375002,65.56391022343162,145.6845],[119.1943359375,65.55280182499412,139.0779],[119.176513671875,65.538934637494123,129.0],[119.16875,65.52509186405662,146.0011],[119.17597656250001,65.512079168744123,200.7841],[119.193115234375,65.50141022343162,182.8708],[119.298095703125,65.45722077030662,147.306],[119.31904296875001,65.453387762494117,138.0515],[119.305419921875,65.44306061405662,142.259],[119.2822265625,65.43817780155662,148.0776],[119.26376953125003,65.43219635624412,146.5377],[119.264404296875,65.41864655155662,146.8507],[119.282958984375,65.41034577030662,142.633],[119.344482421875,65.404657293744123,141.8871],[119.367431640625,65.39813873905662,146.8904],[119.35263671875003,65.387567449994123,142.6158],[119.319580078125,65.38214752811912,145.3088],[119.305419921875,65.370868231244117,142.7286],[119.318115234375,65.35919830936912,143.4409],[119.35107421875,65.351190496869123,140.3774],[119.367431640625,65.343524481244117,137.3859],[119.34248046875001,65.33844635624412,139.04],[119.31591796875,65.336688543744117,136.9974],[119.312255859375,65.33234284061912,140.6678],[119.31748046875003,65.32269928593162,126.0],[119.3271484375,65.313104559369123,141.1541],[119.33642578125,65.30878327030662,126.0],[119.35498046875,65.302362371869123,144.4522],[119.38623046875,65.27423737186912,140.6331],[119.39804687500003,65.26776764530662,130.0],[119.42744140625001,65.26386139530662,131.9573],[119.427001953125,65.253778387494123,138.6298],[119.41298828125002,65.24054596561912,126.0],[119.40146484375003,65.22687409061912,142.041],[119.40146484375003,65.20917389530662,145.7705],[119.40673828125,65.19208405155662,135.8161],[119.40585937500003,65.17694733280662,141.8619],[119.387939453125,65.16535065311912,141.1933],[119.41044921874999,65.147967840619117,170.1033],[119.524658203125,65.09833405155662,136.6379],[119.549072265625,65.09235260624412,126.0],[119.61533203125003,65.085956121869117,126.0],[119.67099609375003,65.06671784061912,145.2154],[119.70322265625003,65.06232330936912,160.2268],[119.810791015625,65.06329987186912,143.4682],[119.84658203125002,65.05548737186912,177.8751],[119.86865234375,65.04633209843162,146.6339],[119.87832031250002,65.036395574994117,134.8344],[119.88818359375,65.00092194218162,136.3134],[119.89072265625003,64.99542877811912,135.7368],[119.9052734375,64.976678778119123,129.6141],[119.930908203125,64.95892975468162,128.1678],[119.93593750000002,64.953143621869117,135.722],[119.937255859375,64.93805573124412,131.834],[119.929443359375,64.93402741093162,132.3849],[119.919677734375,64.931756903119123,133.5134],[119.91494140625002,64.921747137494123,135.1893],[119.91542968750002,64.91095612186912,132.4331],[119.91679687499999,64.906268621869117,136.2082],[119.91904296875003,64.901629949994117,126.0],[119.92236328125,64.89105866093162,138.5046],[119.93466796875003,64.872577215619117,133.2389],[119.93701171875,64.862079168744117,130.7502],[119.92578125,64.857538153119123,137.3509],[119.8955078125,64.85724518436912,134.329],[119.87841796875,64.85504791874412,139.6563],[119.8671875,64.850116278119117,134.9432],[119.92041015625,64.82196686405662,129.2328],[119.92919921875,64.815936590619117,126.0],[119.92050781250003,64.80878327030662,142.4665],[119.8671875,64.79486725468162,126.0],[119.87646484375,64.784540106244123,132.284],[119.908203125,64.75922272343162,136.5382],[119.91171875000003,64.75079987186912,140.1608],[119.89580078124999,64.74286530155662,140.7594],[119.87490234375002,64.735467840619123,138.5734],[119.86220703125002,64.72553131718162,130.0059],[119.87089843749999,64.70978424686912,129.0842],[119.916259765625,64.68305084843162,139.7423],[119.92919921875,64.67194244999412,132.8412],[119.93808593750003,64.65546295780662,134.7219],[119.927001953125,64.651629949994117,126.0],[119.90478515625,64.65094635624412,136.8869],[119.88076171875002,64.64398834843162,132.5813],[120.01425781250003,64.57526276249412,133.4993],[120.02001953125,64.56354401249412,131.8582],[119.998046875,64.55585358280662,160.8206],[120.03554687500002,64.54425690311912,132.9724],[120.11777343750003,64.53607819218162,125.6706],[120.15566406250002,64.527948309369123,134.6879],[120.19980468750003,64.509637762494123,129.6782],[120.216796875,64.507440496869123,124.0308],[120.23125,64.510126043744123,126.7838],[120.26015625000002,64.520526434369117,131.2711],[120.278564453125,64.521112371869123,132.9163],[120.26503906250002,64.50079987186912,136.1509],[120.26357421875002,64.48566315311912,129.2061],[120.27675781250002,64.47614166874412,187.0365],[120.306640625,64.47272369999412,136.1347],[120.40859375000002,64.477655340619123,135.6574],[120.44375,64.47272369999412,123.909],[120.43105468750002,64.461200262494117,129.7675],[120.41318359375003,64.459344793744123,134.8412],[120.39345703125002,64.46100494999412,125.2267],[120.37412109375003,64.45966217655662,158.7584],[120.35927734375002,64.45392487186912,135.2813],[120.346435546875,64.44574616093162,122.9318],[120.33544921875,64.43585846561912,138.1783],[120.326416015625,64.42487213749412,169.9949],[120.336181640625,64.414081121869117,122.0],[120.34726562500003,64.41303131718162,127.0137],[120.35986328125,64.414569403119117,126.7817],[120.37412109375003,64.411249090619123,137.8078],[120.3876953125,64.401483465619123,129.1051],[120.384375,64.39655182499412,127.4923],[120.374267578125,64.392108465619117,128.8522],[120.36728515625003,64.38397858280662,127.1494],[120.36855468750002,64.37018463749412,129.6706],[120.37656250000003,64.339862371869117,126.9172],[120.37412109375003,64.329364324994117,137.1905],[120.45,64.29523346561912,120.0911],[120.45810546875003,64.29340241093162,127.0732],[120.46435546875,64.294549871869123,125.4384],[120.47021484375,64.294305731244123,119.9605],[120.47714843750003,64.28839752811912,124.672],[120.47958984375003,64.282586981244123,127.6176],[120.4833984375,64.26398346561912,120.7005],[120.48398437500003,64.257342840619117,119.5787],[120.49609375,64.22394440311912,124.4967],[120.52626953125002,64.20905182499412,124.6051],[120.6044921875,64.205829168744117,124.3609],[120.61318359375002,64.202655340619117,124.2827],[120.630859375,64.18854401249412,124.8534],[120.642333984375,64.18537018436912,123.0854],[120.65185546875,64.18634674686912,123.9077],[120.67197265625003,64.190545965619123,139.8265],[120.68300781250002,64.191522528119123,122.4633],[120.69140625,64.19086334843162,122.7748],[120.70078125000003,64.18829987186912,123.7859],[120.70830078124999,64.183368231244117,123.8503],[120.711181640625,64.17511627811912,120.1281],[120.71738281250003,64.17157623905662,122.9401],[120.78857421875,64.17023346561912,122.6977],[120.79931640625,64.17169830936912,121.3531],[120.807861328125,64.176629949994123,149.1273],[120.816162109375,64.184100653119117,143.1948],[120.825439453125,64.187860418744123,140.3941],[120.8544921875,64.17255280155662,118.4191],[120.874755859375,64.17316315311912,119.7636],[120.892333984375,64.18244049686912,121.1952],[120.90234375,64.198993231244117,120.0786]]}}