{"type":"Feature","properties":{"featurecla":"River","scalerank":8,"rivernum":744,"dissolve":"744River","name":"Alazeya","name_alt":null,"note":null,"min_zoom":7.0,"strokeweig":0.15,"name_en":"Alazeya","min_label":8.0},
"geometry":{"type": "LineString","coordinates": [[149.12880859375002,68.15277741093162,59.9162],[149.12880859375002,68.15277741093162,59.9162],[149.12880859375002,68.15277741093162,59.9162],[149.12880859375002,68.15277741093162,59.9162],[149.12880859375002,68.15277741093162,59.9162],[149.14990234375,68.15363190311912,52.1416],[149.16044921875005,68.152460028119123,52.0043],[149.16982421875002,68.14935944218162,51.7123],[149.179443359375,68.147821356244123,51.6254],[149.18701171875,68.15167877811912,51.5795],[149.194580078125,68.15692780155662,61.4695],[149.20361328125,68.15961334843162,61.9822],[149.275390625,68.171161199994117,48.8732],[149.28955078125,68.17694733280662,49.5593],[149.31240234375002,68.202508856244123,50.1143],[149.337890625,68.22370026249412,51.637],[149.367431640625,68.23627350468162,60.3091],[149.402587890625,68.23590729374412,67.147],[149.41845703125,68.22968170780662,53.3813],[149.4484375,68.21173737186912,49.9809],[149.48349609375003,68.20258209843162,51.9671],[149.51708984375,68.17865631718162,49.8691],[149.532958984375,68.17328522343162,51.1936],[149.5693359375,68.16510651249412,59.4671],[149.60048828125002,68.14935944218162,54.2436],[149.634033203125,68.138690496869117,49.1595],[149.67685546875003,68.14594147343162,45.667],[149.675537109375,68.15863678593162,45.6404],[149.68642578125002,68.165643621869123,45.4246],[149.71835937500003,68.17328522343162,52.2214]]}}