{"type":"Feature","properties":{"featurecla":"River","scalerank":9,"rivernum":1112,"dissolve":"1112River","name":"Bytantay","name_alt":null,"note":null,"min_zoom":7.1,"strokeweig":0.15,"name_en":"Bytantay","min_label":8.1},
"geometry":{"type": "LineString","coordinates": [[128.207275390625,66.24103424686912,1248.7714],[128.26904296875,66.21222565311912,1007.9318],[128.33535156250002,66.200213934369117,889.2817],[128.402587890625,66.20514557499412,831.8179],[128.46728515625,66.22736237186912,789.0619],[128.533203125,66.263299871869123,740.2769]]}}