{"type":"Feature","properties":{"featurecla":"River","scalerank":9,"rivernum":1109,"dissolve":"1109River","name":"Markha","name_alt":null,"note":null,"min_zoom":7.1,"strokeweig":0.15,"name_en":"Markha","min_label":8.1},
"geometry":{"type": "LineString","coordinates": [[111.335693359375,66.111346746869117,643.5908],[111.27597656250003,66.06781647343162,628.61],[111.20068359375,65.995868231244117,615.9308],[111.19140625,65.98297760624412,620.4592],[111.185791015625,65.96845123905662,602.477],[111.18408203125,65.95331452030662,590.6938],[111.1845703125,65.938006903119117,618.0898],[111.18173828125003,65.91229889530662,617.2472],[111.14912109375001,65.84564850468162,537.0053],[111.14560546875003,65.825702215619117,587.3171],[111.15234375,65.81415436405662,569.8385],[111.167236328125,65.807879949994117,609.2834],[111.261474609375,65.78558991093162,459.6671],[111.37119140625003,65.786639715619117,645.839]]}}