{"type":"Feature","properties":{"featurecla":"River","scalerank":8,"rivernum":845,"dissolve":"845River","name":"Adycha1","name_alt":null,"note":null,"min_zoom":7.0,"strokeweig":0.2,"name_en":"Adycha","min_label":8.0},
"geometry":{"type": "LineString","coordinates": [[139.7880859375,65.459588934369123,960.4738],[139.778515625,65.45050690311912,935.4367],[139.76767578125003,65.43378327030662,914.2344],[139.76015625000002,65.42609284061912,905.815],[139.745361328125,65.41913483280662,898.7071],[139.709228515625,65.40973541874412,888.7571],[139.66953125000003,65.38837311405662,880.4759],[139.63232421875,65.381122137494117,875.4627],[139.08984375,65.35101959843162,812.6276],[138.9423828125,65.371844793744117,810.4376],[138.916259765625,65.37909577030662,807.584],[138.89736328125002,65.39191315311912,808.5664],[138.90214843750005,65.39679596561912,808.9033],[138.91103515625002,65.41181061405662,809.1409],[138.80605468750002,65.41229889530662,808.9417],[138.77392578125,65.422381903119117,823.0907],[138.75927734375,65.42255280155662,814.5817],[138.73935546875003,65.41718170780662,805.5121],[138.71875,65.41437409061912,828.0916],[138.69130859375002,65.427850653119123,798.7156],[138.609375,65.455585028119117,800.7233],[138.503662109375,65.467059637494117,794.3812],[138.502197265625,65.47064850468162,764.2047],[138.47314453125,65.49127838749412,774.927],[138.41757812500003,65.51422760624412,730.9218],[138.31240234375002,65.528827215619117,779.3008],[138.26894531250002,65.55377838749412,735.8094],[138.25,65.556415106244117,757.0924],[138.212158203125,65.555194403119117,777.1262],[138.19570312500002,65.557635809369117,781.1769],[138.02392578125,65.614862371869123,944.3712],[138.009033203125,65.613544012494117,1029.2308],[137.99794921875002,65.61591217655662,1116.4117],[137.9921875,65.61957428593162,1178.5645],[137.98154296875003,65.62946198124412,1000.2321],[137.97597656250002,65.63153717655662,935.3264],[137.96923828125,65.63519928593162,874.0052],[137.9384765625,65.658807684369123,928.0109],[137.90673828125,65.672479559369123,813.157],[137.84072265625002,65.686151434369123,839.5692],[137.78525390625003,65.72003815311912,678.0192],[137.63134765625,65.76496002811912,560.3264],[137.53095703125,65.818719793744123,650.1368],[137.4853515625,65.85065338749412,705.8831],[137.4580078125,65.86493561405662,792.0173],[137.398681640625,65.88556549686912,606.096],[137.34345703125,65.918817449994123,569.1894],[137.275390625,65.93634674686912,657.5895],[137.24570312500003,65.952997137494123,566.6531],[137.23779296875,65.96185944218162,570.8682],[137.22666015625003,65.979510809369117,624.6908],[137.218994140625,65.987811590619117,642.1804],[137.20830078125005,65.99408600468162,617.7697],[137.196533203125,65.999286199994117,592.5385],[137.1875,66.006366278119117,594.4389],[137.18369140625003,66.01850006718162,561.7731],[137.19082031250002,66.038446356244123,544.7453],[137.192578125,66.050653387494123,541.5267],[137.18740234375002,66.05609772343162,544.8799],[137.176513671875,66.06085846561912,537.9407],[137.14765625,66.08307526249412,494.9695],[137.13583984375003,66.090204168744123,551.1646],[137.11259765625005,66.09589264530662,528.8265],[137.07861328125,66.099139715619117,515.1124],[137.0732421875,66.10260651249412,518.0944],[137.068603515625,66.10700104374412,530.2711],[137.00546875000003,66.13861725468162,761.1028]]}}