{"type":"Feature","properties":{"featurecla":"River","scalerank":8,"rivernum":910,"dissolve":"910River","name":"Udzha","name_alt":null,"note":null,"min_zoom":7.0,"strokeweig":0.2,"name_en":"Udzha","min_label":8.0},
"geometry":{"type": "LineString","coordinates": [[117.94101562500003,70.428241278119117,201.0818],[117.957275390625,70.448016668744117,190.371],[118.00156250000003,70.48541901249412,174.3477],[118.01064453125002,70.503290106244123,200.5988],[118.006103515625,70.51337311405662,179.7537],[117.987060546875,70.53510162968162,164.4939],[117.98261718750001,70.54828522343162,169.7918],[117.98037109375002,70.56647369999412,152.8396],[117.9736328125,70.574481512494117,151.8107],[117.96396484375003,70.57953522343162,161.3592],[117.95205078125002,70.588983465619123,158.1333],[117.93886718750002,70.59674713749412,144.4829],[117.90244140625003,70.60590241093162,141.6662],[117.88710937500002,70.613153387494123,140.1562],[117.85664062500001,70.64423248905662,137.5537],[117.83310546875003,70.66351959843162,133.5639],[117.8115234375,70.67743561405662,130.466],[117.802978515625,70.69452545780662,129.9882],[117.81884765625,70.723016668744123,121.7422],[117.78037109375003,70.73920319218162,141.5827],[117.73525390625002,70.74310944218162,137.2742],[117.36630859375003,70.723016668744123,158.4733],[117.127197265625,70.740106512494123,130.1021],[117.092041015625,70.757831121869117,158.3315],[117.099609375,70.77936432499412,133.9745],[117.06787109375,70.794549871869123,157.2702],[117.023193359375,70.80731842655662,107.2444],[116.98476562500002,70.82587311405662,116.0461],[116.964111328125,70.82904694218162,117.6946],[116.954833984375,70.832294012494117,120.2073],[116.946533203125,70.83808014530662,98.5282],[116.919677734375,70.87213776249412,86.6963],[116.908935546875,70.88239166874412,77.2057],[116.88486328125003,70.890643621869117,115.1007],[116.873046875,70.89948151249412,120.5916],[116.855224609375,70.91791412968162,64.4469],[116.853271484375,70.930292059369123,109.1217],[116.865478515625,70.94074127811912,80.0788],[116.89267578125003,70.955829168744117,64.0343],[116.90029296875002,70.96784088749412,67.1298],[116.90869140625,70.98871491093162,67.2515],[116.917236328125,71.000506903119117,73.393],[116.94189453125,71.01251862186912,67.0885],[116.99824218750001,71.00507233280662,58.0391],[117.023681640625,71.01105377811912,58.1214],[116.99658203125,71.03253815311912,56.8629],[116.98916015625002,71.044305731244123,57.747],[116.99589843749999,71.059442449994123,76.6055],[117.01611328125,71.06842682499412,67.2074],[117.105712890625,71.07245514530662,55.569],[117.09794921874999,71.07733795780662,52.6219],[117.08945312500003,71.08136627811912,57.7475],[117.08056640625,71.08429596561912,56.3039],[117.071533203125,71.08612702030662,57.583],[117.08095703125002,71.096454168744117,56.9869],[117.0947265625,71.100116278119117,54.4748],[117.11074218750002,71.10175202030662,55.4807],[117.12607421875003,71.10602448124412,52.4758],[117.08310546875003,71.106073309369123,55.7489],[117.06337890625002,71.10993073124412,55.4131],[117.044189453125,71.11969635624412,78.4611],[117.034423828125,71.12738678593162,86.6147],[117.02685546875,71.13666412968162,77.6085],[117.02880859375,71.14435455936912,75.6216],[117.04726562500002,71.147577215619123,62.3088],[117.11083984375,71.14142487186912,50.2498],[117.13222656250002,71.14826080936912,71.1744],[117.119873046875,71.17487213749412,48.5501],[117.06015625000003,71.205682684369123,52.696],[117.04726562500002,71.21820709843162,49.8919],[117.09365234375002,71.224383856244117,51.4511],[117.10166015625003,71.22748444218162,50.6432],[117.105712890625,71.23285553593162,47.5288],[117.102294921875,71.240350653119123,51.8743],[117.09189453125003,71.24774811405662,46.7277],[117.08203125,71.24994537968162,50.2903],[117.057861328125,71.250604559369123,46.4982],[117.02041015625002,71.25629303593162,49.326],[117.00400390625003,71.26386139530662,49.2635],[116.99589843749999,71.27789948124412,50.0519],[117.030517578125,71.29840729374412,70.2336],[117.01162109375002,71.31207916874412,66.3163],[116.9853515625,71.321551824994117,46.5281],[116.93427734375001,71.33319733280662,45.1303],[116.936279296875,71.35712311405662,45.8406],[116.9248046875,71.36981842655662,44.4688],[116.90244140625003,71.37592194218162,42.8103],[116.77988281250003,71.390008856244123,42.2658],[116.74521484375003,71.403338934369117,42.783],[116.72890625000002,71.40766022343162,41.2163],[116.7125,71.40790436405662,43.5203],[116.66748046875,71.40143463749412,41.0506],[116.62177734375001,71.40790436405662,40.7085],[116.60595703125,71.404559637494117,38.333],[116.57578125000003,71.403094793744117,39.6983],[116.54453125000003,71.41327545780662,37.9935],[116.52822265625002,71.426874090619123,38.8739],[116.54335937500002,71.43561432499412,39.2655],[116.524658203125,71.44904205936912,39.5338],[116.49550781250002,71.44794342655662,38.3994],[116.46464843749999,71.43891022343162,36.5327],[116.44091796875,71.42877838749412,38.0208]]}}