{"type":"Feature","properties":{"featurecla":"River","scalerank":8,"rivernum":899,"dissolve":"899River","name":"Dulgalakh","name_alt":null,"note":null,"min_zoom":7.0,"strokeweig":0.15,"name_en":"Dulgalakh","min_label":8.0},
"geometry":{"type": "LineString","coordinates": [[130.26230468750003,64.953143621869117,1573.7435],[130.26230468750003,64.953143621869117,1573.7435],[130.26230468750003,64.953143621869117,1573.7435],[130.26230468750003,64.953143621869117,1573.7435],[130.26230468750003,64.953143621869117,1573.7435],[130.40380859375,64.93695709843162,1312.614],[130.47929687500005,64.93988678593162,1029.5769],[130.55039062500003,64.953143621869117,798.5894],[130.56416015625,64.95892975468162,990.5986],[130.58681640625002,64.974139715619117,919.2169],[130.59873046875003,64.98041412968162,895.0159]]}}