{"type":"Feature","properties":{"featurecla":"River","scalerank":7,"rivernum":632,"dissolve":"632River","name":"Yana","name_alt":null,"note":null,"min_zoom":6.0,"strokeweig":0.3,"name_en":"Yana","min_label":7.0},
"geometry":{"type": "LineString","coordinates": [[134.41044921875005,68.77265045780662,79.8878],[134.380615234375,68.78143952030662,82.1126],[134.36679687500003,68.78803131718162,82.483],[134.35400390625,68.79706452030662,82.1603],[134.338134765625,68.81561920780662,84.6138],[134.33935546875,68.82977936405662,85.2427],[134.349853515625,68.84479401249412,84.7892],[134.36142578125003,68.86591217655662,82.3696],[134.35341796875002,68.89435455936912,81.7495],[134.43027343750003,68.92926666874412,72.3658],[134.428955078125,68.962176824994117,77.2598],[134.43837890625002,68.98004791874412,76.8006],[134.441162109375,69.00067780155662,76.3955],[134.43798828125,69.02081940311912,75.1967],[134.428955078125,69.037225653119123,74.7282],[134.40283203125,69.05194733280662,73.5655],[134.39306640625,69.06207916874412,74.7348],[134.39833984375002,69.07514069218162,73.1387],[134.41162109375,69.08454010624412,72.9806],[134.44287109375,69.10175202030662,65.7313],[134.45703125,69.11298248905662,66.2846],[134.41005859375002,69.14362213749412,70.9739],[134.40175781250002,69.153924871869123,70.6698],[134.40439453125003,69.16535065311912,71.0887],[134.414794921875,69.17462799686912,70.8211],[134.44013671875,69.19147369999412,69.6487],[134.44482421875,69.20172760624412,69.782],[134.44296875000003,69.214129949994117,67.2843],[134.43701171875,69.22540924686912,68.0059],[134.4296875,69.23212311405662,66.6965],[134.415283203125,69.238885809369123,68.4736],[134.40537109375003,69.246210028119123,67.4217],[134.40234375,69.255975653119123,67.1759],[134.4091796875,69.270038153119117,66.2646],[134.416259765625,69.27558014530662,67.1967],[134.4365234375,69.28497955936912,65.2081],[134.44384765625,69.29047272343162,66.3442],[134.44541015625003,69.294452215619117,66.5278],[134.447265625,69.30585358280662,65.2927],[134.449462890625,69.31098053593162,64.3513],[134.46044921875,69.32465241093162,64.246],[134.47216796875,69.33551666874412,63.8197],[134.50537109375,69.355975653119117,64.4629],[134.564697265625,69.38141510624412,61.2501],[134.57373046875,69.389764715619123,61.6371],[134.576416015625,69.40167877811912,60.7787],[134.5830078125,69.41351959843162,59.7185],[134.60107421875,69.43451569218162,60.1233],[134.6357421875,69.45966217655662,59.4909],[134.87832031250002,69.565301824994123,55.4615],[134.91259765625,69.58869049686912,54.9877],[134.947021484375,69.62287018436912,52.7897],[135.015380859375,69.65350983280662,44.3197],[135.026123046875,69.664422918744123,52.3356],[135.034423828125,69.693133856244117,50.4418],[135.05478515625003,69.71442291874412,50.4162],[135.12070312500003,69.750116278119123,52.1491],[135.13662109375002,69.76166412968162,51.3877],[135.1474609375,69.775018621869123,49.1073],[135.14560546875003,69.787372137494117,55.7505],[135.126708984375,69.807001043744123,115.4764],[135.12158203125,69.817987371869123,111.4994],[135.12509765625003,69.828631903119117,84.0426],[135.140380859375,69.842303778119117,64.6473],[135.18994140625,69.873309637494117,44.3187],[135.2158203125,69.90045807499412,49.4256],[135.23085937500002,69.91303131718162,98.2542],[135.25146484375,69.92047760624412,103.895],[135.27597656250003,69.92047760624412,97.1526],[135.3828125,69.89203522343162,44.5644],[135.4677734375,69.893817449994117,41.8474],[135.4921875,69.897967840619117,44.134],[135.493896484375,69.90827057499412,44.1796],[135.48691406250003,69.921649481244117,44.35],[135.48486328125,69.93475983280662,36.4923],[135.497314453125,69.95062897343162,153.3357],[135.553125,69.983172918744117,117.8815],[135.5451171875,69.986200262494123,121.4318],[135.53623046875003,69.99164459843162,59.0491],[135.52880859375,69.998797918744117,30.3433],[135.52587890625,70.00678131718162,41.1947],[135.516796875,70.01813385624412,38.7215],[135.49609375,70.025165106244117,80.3905],[135.419189453125,70.03839752811912,157.1904],[135.29931640625,70.02411530155662,30.4606],[135.26455078125002,70.026239324994123,31.2075],[135.2443359375,70.035419012494117,234.4055],[135.24501953125002,70.050653387494123,180.6971],[135.27197265625,70.07135651249412,102.8921],[135.297119140625,70.086444403119117,88.0713],[135.31337890625002,70.10236237186912,98.69],[135.31416015625,70.12006256718162,35.5551],[135.29306640625003,70.14020416874412,173.8613],[135.25839843750003,70.152460028119123,116.5073],[135.08632812500002,70.16742584843162,24.548],[135.00185546875002,70.18500397343162,176.8138],[134.960693359375,70.18866608280662,134.3877],[134.93251953125002,70.19586823124412,102.8587],[134.919921875,70.21259186405662,129.809],[134.92509765625005,70.23114655155662,114.2196],[134.950439453125,70.24384186405662,49.419],[135.08408203125003,70.239276434369117,30.5208],[135.12167968750003,70.25006744999412,30.6876],[135.09775390625003,70.26605866093162,66.1424],[135.12109375,70.278680731244123,62.4742],[135.15830078125003,70.292499090619117,90.6407],[135.17636718750003,70.312127996869123,96.5545],[135.171142578125,70.322137762494123,66.8867],[135.153076171875,70.330194403119123,59.8536],[135.14902343750003,70.34223053593162,44.0784],[135.151123046875,70.352313543744117,27.4007],[135.15615234375002,70.362420965619123,15.5307],[135.16298828125002,70.371844793744117,166.7365],[135.1701171875,70.379754949994123,309.1656],[135.12548828125,70.39960358280662,248.9891],[135.0068359375,70.35565827030662,164.221],[134.950439453125,70.35309479374412,42.8479],[134.92832031250003,70.36432526249412,24.2384],[134.874755859375,70.407733465619117,18.1867],[134.78583984375,70.46295807499412,163.5293],[134.807373046875,70.473993231244123,124.5652],[134.83349609375,70.48212311405662,140.8096],[134.85107421875,70.494403387494117,98.3371],[134.84677734375003,70.51764557499412,10.4577],[134.82167968750002,70.535028387494123,50.4744],[134.74765625000003,70.55243561405662,72.9251],[134.723876953125,70.56537506718162,71.4252],[134.72265625,70.589471746869123,109.3949],[134.75537109375,70.59711334843162,135.5367],[135.00498046875003,70.59271881718162,82.0328],[135.029541015625,70.59662506718162,53.8762],[135.06396484375,70.60748932499412,56.3768],[135.0947265625,70.623895574994123,23.6407],[135.10800781250003,70.64423248905662,14.1838],[135.12705078125003,70.65473053593162,19.4191],[135.21728515625,70.66742584843162,173.6449],[135.247802734375,70.67804596561912,119.8318]]}}