{"type":"Feature","properties":{"featurecla":"River","scalerank":1,"rivernum":12,"dissolve":"12River","name":"Lena12","name_alt":null,"note":null,"min_zoom":2.0,"strokeweig":2.0,"name_en":"Lena","min_label":3.0},
"geometry":{"type": "LineString","coordinates": [[126.689697265625,72.29437897343162,2.9075],[126.80917968750003,72.201532293744123,4.9613],[126.83154296875,72.17218659061912,4.3587],[126.885498046875,72.061542059369117,0.0],[126.91611328125003,72.01166412968162,16.1119],[126.96591796875003,71.96881744999412,6.2169],[127.02578125000002,71.94818756718162,8.3881],[127.09414062500002,71.935907293744123,10.1524],[127.15214843749999,71.916766668744117,8.7644],[127.180908203125,71.87567780155662,0.0],[127.17421875000002,71.849627996869117,0.0],[127.136474609375,71.786883856244117,99.2812],[127.12900390625003,71.75409577030662,45.2825],[127.13808593750002,71.729022528119117,136.8944],[127.19296875000003,71.64862702030662,137.7436],[127.2470703125,71.534540106244123,97.2456],[127.26220703125,71.47064850468162,142.7582],[127.2490234375,71.41718170780662,120.0228],[127.249267578125,71.38715241093162,19.0993],[127.25,71.382098699994117,1.5],[127.25048828125,71.368915106244117,1.5],[127.247802734375,71.35089752811912,1.5],[127.2392578125,71.33087799686912,75.8299],[127.232421875,71.307977606244123,203.0537],[127.23388671875,71.281610418744123,189.2934],[127.24599609375002,71.23493073124412,82.6005],[127.25537109375,71.212518621869123,277.998],[127.27236328125002,71.184833074994117,283.8992],[127.29433593750002,71.15900299686912,254.8129],[127.31875,71.14215729374412,2.5],[127.50742187500003,71.05451080936912,49.3349],[127.52968750000002,71.03095123905662,68.7355],[127.52402343750003,71.003192449994117,141.9422],[127.5009765625,70.979852606244123,75.9052],[127.46337890625,70.95429108280662,216.8349],[127.44785156250003,70.94025299686912,91.093],[127.4365234375,70.921893621869117,155.9907],[127.43710937500003,70.90216705936912,2.2325],[127.45615234375003,70.88251373905662,2.6779],[127.54638671875,70.848993231244123,2.7032],[127.5751953125,70.83161041874412,6.0223],[127.57587890625001,70.809686590619123,224.1475],[127.53720703125003,70.781366278119123,185.4687],[127.47900390625,70.75849030155662,4.5],[127.37753906250003,70.73761627811912,28.6609],[127.16015625,70.64765045780662,141.6788],[127.12998046875003,70.62579987186912,160.7214],[127.113037109375,70.60626862186912,77.5338],[127.09121093750002,70.591424871869123,109.3866],[126.92910156250002,70.53827545780662,62.2579],[126.90156250000001,70.53314850468162,11.0],[126.51093750000001,70.529803778119117,12.0899],[126.36953125000002,70.547479559369123,3.54],[126.01699218750002,70.52179596561912,12.0],[125.86591796875001,70.486444403119123,61.3988],[125.81591796875,70.46686432499412,134.2581],[125.78369140625,70.44672272343162,149.8566],[125.75791015625003,70.422626043744117,100.9246],[125.75449218750003,70.396600653119123,12.0],[125.78925781250001,70.37091705936912,12.0],[125.96484375,70.31464264530662,13.0],[126.048828125,70.297235418744123,13.0],[126.068603515625,70.27924225468162,13.0],[126.04091796875002,70.245135809369117,13.0],[125.86962890625,70.10065338749412,13.5],[125.83515625000001,70.08283112186912,13.5],[125.74755859375,70.05560944218162,13.5],[125.6650390625,70.01886627811912,20.4499],[125.48476562500002,69.973651434369117,8.2583]]}}