{"type":"Feature","properties":{"featurecla":"River","scalerank":9,"rivernum":1109,"dissolve":"1109River","name":"Markha1","name_alt":null,"note":null,"min_zoom":7.1,"strokeweig":0.2,"name_en":"Markha","min_label":8.1},
"geometry":{"type": "LineString","coordinates": [[111.37119140625003,65.786639715619117,645.839],[111.40810546875002,65.786639715619117,570.9014],[111.42441406250003,65.788690496869123,459.6938],[111.4404296875,65.79621002811912,423.8598],[111.46435546875,65.814813543744123,430.7488],[111.47548828125002,65.81940338749412,486.2025],[111.502197265625,65.824969793744117,540.4357],[111.64384765624999,65.82587311405662,474.4753],[111.67001953125003,65.82135651249412,410.8454],[111.69394531250003,65.81232330936912,358.5515],[111.72236328125001,65.78668854374412,348.3374],[111.744384765625,65.754266668744123,350.8583],[111.76943359375002,65.72626373905662,341.3162],[111.80722656250003,65.71369049686912,369.0807],[111.85761718750001,65.72016022343162,338.5224],[111.87568359375001,65.718377996869123,340.5714],[111.89707031250003,65.709979559369117,331.8381],[111.907470703125,65.707635809369123,332.1754],[111.919921875,65.709833074994123,332.0862],[111.96533203125,65.733661199994117,370.5611],[111.98300781250003,65.737079168744117,350.6156],[112.119140625,65.727557684369117,467.6591],[112.18896484375,65.733026434369123,322.728],[112.242431640625,65.763299871869123,321.081],[112.24853515625,65.78009674686912,343.2237],[112.23330078125002,65.804461981244117,312.4555],[112.23886718750003,65.81940338749412,334.9681],[112.25253906250003,65.82709381718162,359.9048],[112.26923828125001,65.83124420780662,389.9005],[112.284912109375,65.838006903119123,399.6966],[112.294921875,65.85358307499412,367.0969],[112.29511718750001,65.86505768436912,319.078],[112.29042968750002,65.870965887494123,311.4363],[112.28427734375003,65.874872137494123,319.032],[112.28085937500003,65.88043854374412,309.911],[112.2822265625,65.891864324994117,317.5232],[112.29531250000002,65.93939850468162,348.9366],[112.32470703125,65.96588776249412,296.7721],[112.41552734375,65.989764715619117,292.5733],[112.4384765625,66.01325104374412,287.6552],[112.431884765625,66.02912018436912,287.6177],[112.41162109375,66.03583405155662,284.3724],[112.38916015625,66.03998444218162,282.5902],[112.37558593750003,66.04804108280662,283.3337],[112.3818359375,66.06329987186912,317.4037],[112.40478515625,66.078241278119123,289.7848],[112.45,66.097186590619117,331.8676],[112.4677734375,66.10028717655662,308.8387],[112.503173828125,66.09870026249412,282.341],[112.52167968750001,66.100702215619123,314.9479],[112.5341796875,66.10492584843162,292.0295],[112.545654296875,66.111102606244117,275.9542],[112.57480468750003,66.134540106244117,273.7492],[112.5830078125,66.13666412968162,278.4032],[112.59121093750002,66.134295965619117,277.4989],[112.60009765625,66.12775299686912,294.4685],[112.60888671875,66.12616608280662,296.2619],[112.68173828125003,66.146991278119117,320.7398],[112.69765625000002,66.15375397343162,311.9967],[112.713623046875,66.16596100468162,277.8552],[112.73154296875003,66.192401434369117,291.4693],[112.742431640625,66.202752996869123,291.7463],[112.80029296875,66.218036199994117,276.7036],[112.82080078125,66.22040436405662,273.3019],[112.82968750000003,66.210321356244123,279.1414],[112.833251953125,66.193475653119123,331.4234],[112.84384765625003,66.18720123905662,306.1568],[112.88427734375,66.185809637494117,278.8898],[112.92578125,66.179461981244117,276.6364],[112.94619140625002,66.180194403119117,266.3252],[112.962890625,66.18952057499412,275.5209],[112.978515625,66.19623444218162,280.9124],[113.067138671875,66.202167059369117,293.0244],[113.130859375,66.22431061405662,259.3454],[113.14736328125002,66.234002996869123,268.112],[113.169921875,66.25568268436912,348.601],[113.233642578125,66.296893621869117,317.0953],[113.24746093750002,66.303094793744123,379.6695],[113.271484375,66.30524323124412,330.7489],[113.326171875,66.30329010624412,294.0736],[113.385498046875,66.331561590619117,338.2834],[113.47802734375,66.33832428593162,288.6329],[113.514892578125,66.35712311405662,279.517],[113.52109375000003,66.369403387494117,263.4273],[113.520751953125,66.381219793744123,247.4518],[113.51894531250002,66.391473699994123,347.3318],[113.52109375000003,66.399286199994123,329.5456],[113.53164062500002,66.403192449994123,304.0402],[113.56298828125,66.40558502811912,269.8734],[113.576416015625,66.412372137494117,259.1034],[113.56064453125003,66.414813543744117,258.9507],[113.54248046875,66.419696356244117,255.3944],[113.52744140625003,66.426874090619123,248.6843],[113.52109375000003,66.43659088749412,271.5894],[113.53066406250002,66.45246002811912,364.6844],[113.55244140625001,66.457635809369123,379.8664],[113.577392578125,66.456170965619123,386.9972],[113.59531250000003,66.452020574994123,362.0769],[113.670654296875,66.424188543744123,273.0094],[113.69667968750002,66.41864655155662,274.7257],[113.775,66.412372137494117,251.1261],[113.793212890625,66.40595123905662,233.6924],[113.80332031250003,66.39740631718162,263.7212],[113.81142578125002,66.387713934369117,257.5894],[113.82343750000001,66.37763092655662,258.4531],[113.84433593750003,66.368915106244117,237.438],[113.869873046875,66.36420319218162,243.5435],[113.89599609375,66.36286041874412,244.9356],[113.91904296875003,66.36456940311912,256.5409],[114.00830078125,66.38202545780662,238.8346],[114.04970703125002,66.383563543744117,248.7934],[114.0419921875,66.36456940311912,335.769],[114.14560546875003,66.295672918744117,232.8905],[114.16943359375,66.27545807499412,224.941],[114.18359375,66.26666901249412,226.6628],[114.2001953125,66.26215241093162,249.7905],[114.22373046875003,66.26422760624412,250.0303],[114.26845703125002,66.279071356244117,333.1644],[114.292724609375,66.282586981244123,281.3623]]}}