{"type":"Feature","properties":{"featurecla":"River","scalerank":9,"rivernum":1115,"dissolve":"1115River","name":"Ozhogina2","name_alt":null,"note":null,"min_zoom":7.1,"strokeweig":0.25,"name_en":"Ozhogina","min_label":8.1},
"geometry":{"type": "LineString","coordinates": [[147.98427734375002,66.85797760624412,79.7884],[147.97607421875,66.849872137494117,80.426],[147.966015625,66.845086981244123,80.2092],[147.95498046875002,66.84357330936912,80.3404],[147.943359375,66.844989324994117,79.5548],[147.96435546875,66.829461981244123,77.1391],[147.98603515625,66.82526276249412,79.431],[148.03896484375002,66.830682684369123,79.3922],[148.03574218750003,66.82562897343162,79.2381],[148.033203125,66.820331121869117,76.2259],[148.02988281250003,66.81488678593162,78.321],[148.02451171875003,66.809588934369117,81.233],[148.14804687500003,66.79657623905662,76.734],[148.22314453125,66.79816315311912,74.2592],[148.2609375,66.793475653119117,73.6236],[148.31171875,66.768085028119117,68.1106],[148.3466796875,66.76178619999412,68.4436],[148.3818359375,66.762567449994123,67.2979],[148.40537109375003,66.772333074994123,71.9773],[148.42568359375002,66.77643463749412,70.0205],[148.45458984375,66.766473699994123,68.514],[148.505078125,66.741961981244117,69.0895],[148.4853515625,66.730340887494123,69.0945],[148.47763671875003,66.727655340619123,68.6094],[148.49609375,66.71430084843162,66.2959],[148.52001953125,66.70661041874412,68.1609],[148.544189453125,66.706805731244117,68.9437],[148.57099609375,66.72199127811912,66.9411],[148.58330078125005,66.72565338749412,66.9618],[148.595458984375,66.72687409061912,66.9046],[148.60400390625,66.724237371869123,67.8173],[148.606640625,66.71637604374412,66.144],[148.5986328125,66.70111725468162,68.0239],[148.60068359375003,66.69354889530662,67.7484],[148.62265625000003,66.68512604374412,67.2471],[148.80712890625,66.67890045780662,64.3557],[148.833984375,66.67243073124412,63.5212],[148.813720703125,66.66766998905662,59.843],[148.793212890625,66.66718170780662,62.899],[148.77392578125,66.66412994999412,64.2953],[148.75830078125,66.65192291874412,63.9398],[148.822509765625,66.64899323124412,64.2697],[148.8818359375,66.63825104374412,62.0907],[148.8818359375,66.632098699994117,61.5879],[148.87255859375,66.63056061405662,58.6876],[148.866455078125,66.628045965619123,62.3354],[148.85390625000002,66.618426824994117,63.2443],[148.94189453125,66.61920807499412,61.7057],[149.0146484375,66.599481512494123,59.0218],[149.03994140625002,66.597284246869123,58.2966],[149.0927734375,66.599139715619117,59.4293],[149.1123046875,66.59772369999412,57.9704],[149.12978515625002,66.59296295780662,54.7639],[149.148681640625,66.58429596561912,56.8152],[149.15439453125003,66.57062409061912,63.9498],[149.16074218750003,66.566522528119123,56.9796],[149.18310546875,66.579950262494123,57.0668],[149.19443359375003,66.58222077030662,58.0196],[149.204296875,66.57929108280662,58.0208],[149.210693359375,66.57001373905662,56.0765],[149.20058593750002,66.55939362186912,57.5406],[149.22646484375002,66.55182526249412,50.6611],[149.28652343750002,66.542743231244117,55.8796],[149.30263671875002,66.53266022343162,54.1477],[149.33261718750003,66.505633856244117,49.3325],[149.34726562500003,66.49494049686912,55.7638],[149.364501953125,66.487909246869123,53.1643],[149.38046875000003,66.485956121869123,53.3246],[149.443115234375,66.488788153119117,48.708],[149.45087890625,66.48749420780662,51.498],[149.454833984375,66.48444244999412,48.3063],[149.45595703125002,66.480340887494123,49.2065],[149.4560546875,66.47650787968162,50.6536],[149.45712890625003,66.47443268436912,51.9282],[149.54677734375002,66.45343659061912,50.7727],[149.574462890625,66.44025299686912,49.1999],[149.56201171875,66.435809637494117,47.8988],[149.53330078125003,66.434344793744117,52.0916],[149.52265625,66.429461981244117,50.132],[149.5234375,66.42267487186912,50.393],[149.53515625,66.41730377811912,49.1723],[149.582763671875,66.409198309369117,50.2657],[149.6251953125,66.39508698124412,48.0641],[149.649658203125,66.391864324994117,47.3011],[149.65957031250002,66.39447662968162,47.4573],[149.67529296875,66.407342840619123,49.0751],[149.68427734375,66.412372137494117,46.9714],[149.6982421875,66.414911199994123,49.528],[149.7998046875,66.405536199994117,46.1407],[149.86181640625,66.412372137494117,48.9762],[149.885498046875,66.40985748905662,48.7535],[149.897216796875,66.40204498905662,44.3759],[149.90488281250003,66.39069244999412,46.5068],[149.91650390625,66.37763092655662,46.4963],[149.93427734375,66.36945221561912,41.1688],[149.96689453125003,66.35883209843162,43.1069],[149.998046875,66.353387762494123,42.6503],[150.01210937500002,66.360858465619117,43.4644],[150.0185546875,66.377704168744117,39.6609],[150.03281250000003,66.38434479374412,49.0988],[150.047119140625,66.37933991093162,37.7225],[150.05361328125002,66.360858465619117,42.3491],[150.06875,66.351678778119123,44.8381],[150.16347656250002,66.33722565311912,45.021],[150.12900390625003,66.318866278119117,35.0],[150.123779296875,66.29840729374412,40.5618],[150.1435546875,66.282001043744117,40.346],[150.18408203125,66.27521393436912,39.3447],[150.19970703125,66.26984284061912,37.3568],[150.211669921875,66.25812409061912,39.6796],[150.21328125000002,66.24640534061912,35.9415],[150.19765625000002,66.24103424686912,38.2181],[150.17353515625,66.243768621869123,40.1451],[150.12705078125003,66.25433991093162,40.3158],[150.10205078125,66.25470612186912,39.242],[150.10205078125,66.24848053593162,39.665],[150.11328125,66.24457428593162,38.4449],[150.1376953125,66.241327215619123,41.3082],[150.14951171875003,66.23761627811912,38.2847],[150.15878906250003,66.23175690311912,38.6427],[150.1748046875,66.21820709843162,37.7413],[150.18408203125,66.213739324994123,40.4463],[150.24462890625,66.202752996869123,36.2416],[150.3068359375,66.199481512494117,38.6306],[150.30263671875002,66.20746491093162,37.5581],[150.29648437500003,66.21369049686912,37.0395],[150.28896484375002,66.218133856244123,37.2403],[150.28017578125002,66.221210028119117,37.2816],[150.30605468750002,66.226092840619117,37.8448],[150.344482421875,66.22113678593162,37.0052],[150.38339843750003,66.21076080936912,35.8986],[150.409912109375,66.199481512494117,35.4726],[150.427978515625,66.201190496869117,35.5915],[150.47470703125003,66.19013092655662,35.83],[150.49560546875,66.19635651249412,35.9241],[150.55771484375003,66.249139715619123,34.769],[150.56640625,66.253534246869123,34.0797],[150.575,66.25470612186912,30.1696],[150.58642578125,66.250848699994123,34.561],[150.59033203125,66.244989324994123,34.4202],[150.591552734375,66.23883698124412,34.2195],[150.59482421875003,66.23419830936912,33.7931],[150.59951171875002,66.22992584843162,34.4288],[150.602783203125,66.22565338749412,39.0101],[150.60898437500003,66.22235748905662,37.435],[150.622802734375,66.221210028119117,34.2301],[150.63242187500003,66.22260162968162,31.5543],[150.677734375,66.24323151249412,28.9504],[150.6943359375,66.24738190311912,34.6645],[150.735595703125,66.24848053593162,34.0399],[150.75048828125,66.244501043744123,31.4242],[150.78310546875002,66.226434637494123,35.2369],[150.80087890625003,66.221210028119117,36.0726],[150.81982421875,66.22138092655662,33.879],[150.839111328125,66.22479889530662,33.6462],[150.87509765625003,66.23761627811912,35.4342],[150.92246093750003,66.235126043744117,32.223],[150.94492187500003,66.23651764530662,33.1406],[150.9443359375,66.24848053593162,28.4125],[150.97324218750003,66.26654694218162,27.3659],[151.004638671875,66.25751373905662,29.0595],[151.03544921875005,66.24042389530662,29.2719],[151.06162109375003,66.23419830936912,35.3565]]}}