{"type":"Feature","properties":{"featurecla":"River","scalerank":4,"rivernum":102,"dissolve":"102River","name":"Aldan2","name_alt":null,"note":null,"min_zoom":4.0,"strokeweig":0.25,"name_en":"Aldan","min_label":5.0},
"geometry":{"type": "LineString","coordinates": [[124.444580078125,58.628290106244123,330.429],[124.471923828125,58.64716217655662,326.4218],[124.48349609375003,58.657342840619123,320.697],[124.4931640625,58.66925690311912,345.7058],[124.499755859375,58.69293854374412,352.3051],[124.5068359375,58.70502350468162,357.0494],[124.52099609375,58.710223699994117,316.5898],[124.5576171875,58.71796295780662,362.1065],[124.623046875,58.75116608280662,412.7255],[124.657470703125,58.75739166874412,368.4649],[124.67597656250001,58.753680731244117,349.3774],[124.70947265625,58.74042389530662,342.0014],[124.72929687499999,58.737567449994117,322.405],[124.74697265625002,58.74176666874412,359.919],[124.7568359375,58.75214264530662,371.6678],[124.767333984375,58.77912018436912,329.7203],[124.7734375,58.80280182499412,307.5],[124.77919921875002,58.81195709843162,316.3504],[124.79404296875003,58.820086981244117,457.8281],[124.814453125,58.82245514530662,460.3567],[124.876708984375,58.80646393436912,305.5],[124.90830078125003,58.808710028119123,307.5184],[124.95429687500001,58.81915924686912,311.6879],[124.99589843749999,58.83600494999412,303.251],[125.01376953125003,58.85736725468162,312.1906],[125.02255859375003,58.887811590619123,339.0367],[125.044921875,58.90070221561912,309.2951],[125.10996093750003,58.91571686405662,310.7514],[125.12607421875003,58.92304108280662,323.1342],[125.1396484375,58.93158600468162,350.9162],[125.148681640625,58.94245026249412,342.364],[125.15097656250003,58.956659246869123,305.9581],[125.14511718750003,58.968133856244123,296.994],[125.13623046875,58.974725653119123,297.3179],[125.132080078125,58.98175690311912,297.7766],[125.140869140625,58.99481842655662,296.3901],[125.15576171875,59.006463934369123,313.954],[125.20556640625,59.028924871869123,561.4011],[125.22109375000002,59.03290436405662,485.7932],[125.23642578125003,59.03095123905662,490.0708],[125.27773437500002,59.016717840619123,368.3973],[125.2890625,59.015985418744123,353.5916],[125.30019531250002,59.01752350468162,349.626],[125.31201171875,59.020868231244123,351.5135],[125.33076171875001,59.02948639530662,295.9384],[125.35302734375,59.04462311405662,350.4624],[125.367431640625,59.063251043744117,524.096],[125.36220703125002,59.08246491093162,480.0985],[125.35703125000003,59.08673737186912,445.5999],[125.31386718750002,59.10993073124412,292.3722],[125.30283203125003,59.118182684369117,417.5245],[125.29628906250002,59.12799713749412,513.5063],[125.29638671875,59.14179108280662,356.1804],[125.3046875,59.15228912968162,324.4631],[125.31689453125,59.16010162968162,300.3317],[125.32929687500001,59.165790106244117,312.4369],[125.3408203125,59.17340729374412,412.349],[125.34902343750002,59.18451569218162,477.494],[125.35117187500003,59.197040106244117,546.3893],[125.34521484375,59.209100653119123,339.7153],[125.33964843749999,59.213397528119117,471.7881],[125.326904296875,59.220721746869117,500.0466],[125.3212890625,59.22565338749412,413.8402],[125.31630859375002,59.23224518436912,613.46],[125.31240234375002,59.23944733280662,547.121],[125.30703125000002,59.25495026249412,299.1268],[125.3037109375,59.271112371869123,297.8476],[125.3037109375,59.28668854374412,390.0092],[125.307861328125,59.30133698124412,387.6806],[125.3173828125,59.31464264530662,442.2757],[125.34560546875002,59.330682684369123,508.2395],[125.375244140625,59.32916901249412,530.9816],[125.40380859375,59.31598541874412,462.5416],[125.45351562500002,59.28192780155662,435.0323],[125.47900390625,59.27655670780662,333.9575],[125.55244140625001,59.27423737186912,442.2383],[125.5703125,59.27045319218162,433.772],[125.5869140625,59.26386139530662,442.4549],[125.60166015625003,59.25336334843162,443.3959],[125.62646484375,59.22174713749412,307.9713],[125.63496093750001,59.21430084843162,292.9373],[125.64443359375002,59.208270574994117,284.2217],[125.687255859375,59.187372137494123,324.4604],[125.70556640625,59.17426178593162,359.4618],[125.76015625000002,59.121356512494117,323.9339],[125.78369140625,59.11151764530662,295.2277],[125.88007812500001,59.09039948124412,285.3167],[125.97509765625,59.05329010624412,320.0057],[126.00390625,59.04791901249412,461.0342],[126.09589843750001,59.05133698124412,421.7981],[126.126708984375,59.04535553593162,416.3178],[126.156982421875,59.033807684369123,407.8157],[126.23291015625,58.99115631718162,273.8965],[126.24326171875003,58.983514715619123,282.3684],[126.252197265625,58.97382233280662,288.1356],[126.265869140625,58.95270416874412,300.8899],[126.2744140625,58.942987371869123,296.9931],[126.301513671875,58.92841217655662,400.9785],[126.33173828125001,58.924432684369123,288.2953],[126.36328125,58.924188543744123,379.5384],[126.39365234375003,58.920526434369123,383.3533],[126.46621093750002,58.896991278119117,275.1795],[126.47929687499999,58.89032623905662,336.2606],[126.509375,58.86933014530662,272.803],[126.52841796875003,58.860126043744117,289.8359],[126.56923828125002,58.847430731244117,307.9396],[126.58876953125002,58.84479401249412,287.0368],[126.61083984375,58.845331121869123,270.2736],[126.63271484375002,58.848504949994123,286.2564],[126.68369140625003,58.86383698124412,360.1868],[126.69580078125,58.86408112186912,395.1834],[126.718017578125,58.857782293744123,493.1823],[126.75722656250002,58.834979559369117,412.2585],[126.779296875,58.82758209843162,476.5429],[126.848876953125,58.82672760624412,561.3176],[126.87177734375001,58.82367584843162,422.5909],[126.88251953125001,58.81867096561912,375.9955],[126.8984375,58.804315496869123,397.6109],[126.91005859375002,58.799432684369123,321.5683],[126.9208984375,58.79852936405662,371.869],[126.95468750000003,58.80133698124412,489.2689],[126.978271484375,58.79926178593162,350.1349],[127.0322265625,58.781756903119117,519.0161],[127.041015625,58.77716705936912,433.5783],[127.05029296875,58.76886627811912,384.0825],[127.073974609375,58.737567449994117,457.7207],[127.09853515625002,58.72357819218162,309.6161],[127.127197265625,58.72162506718162,388.6325],[127.156494140625,58.727557684369117,362.4307],[127.19443359375003,58.741961981244117,287.3017],[127.218994140625,58.75519440311912,295.7619],[127.2275390625,58.76337311405662,314.6418],[127.23330078125002,58.77570221561912,287.6177],[127.2412109375,58.802020574994117,310.2776],[127.25009765625003,58.81293366093162,358.7398],[127.2625,58.818622137494117,448.4419],[127.27714843750005,58.82099030155662,415.1076],[127.33730468750002,58.82111237186912,333.8605],[127.353125,58.818719793744123,313.0464],[127.36728515625003,58.81415436405662,341.0934],[127.40371093750002,58.788104559369117,314.549],[127.418212890625,58.78253815311912,380.7379],[127.43339843750005,58.781122137494123,311.1447],[127.49375,58.786493231244123,360.0079],[127.50732421875,58.78925202030662,351.6601],[127.5205078125,58.79389069218162,359.327],[127.533203125,58.80121491093162,351.9557],[127.545654296875,58.81244537968162,452.6353],[127.57753906250002,58.85065338749412,355.762],[127.6044921875,58.86225006718162,306.933],[127.63349609375001,58.85895416874412,300.8912],[127.687744140625,58.83405182499412,327.9657],[127.712158203125,58.81928131718162,298.4838],[127.72470703125003,58.813495184369117,283.3067],[127.739013671875,58.81073639530662,240.1376],[127.75263671875001,58.812616278119123,313.0758],[127.77714843750005,58.82318756718162,352.5786],[127.7900390625,58.82538483280662,416.3837],[127.81357421875003,58.81317780155662,482.5244],[127.818603515625,58.786249090619123,290.0073],[127.81650390625003,58.754754949994123,309.3213],[127.81923828125002,58.72882721561912,502.6674],[127.86074218750002,58.741571356244123,589.7119],[127.874755859375,58.74017975468162,646.032],[127.88876953125003,58.73371002811912,603.0195],[127.90156250000001,58.72443268436912,562.8101],[127.91220703125003,58.71271393436912,442.9211],[127.91884765625002,58.69928619999412,462.3882],[127.93671875000001,58.676776434369117,341.8412],[127.96435546875,58.675799871869117,351.7554],[128.021484375,58.69794342655662,395.2092],[128.03183593750003,58.704608465619117,358.2277],[128.0380859375,58.713251043744123,333.9467],[128.05341796875,58.757342840619117,253.5588],[128.06308593750003,58.777606512494117,251.9291],[128.07626953125003,58.79535553593162,251.5975],[128.094482421875,58.810077215619117,317.4464],[128.12089843750005,58.820086981244117,323.0054],[128.15126953125002,58.82330963749412,291.2638],[128.23886718750003,58.818377996869117,535.7537],[128.265625,58.810565496869117,426.5699],[128.27783203125,58.80280182499412,381.4922],[128.2833984375,58.79315827030662,465.4155],[128.29013671875003,58.76825592655662,521.7415],[128.305419921875,58.74591705936912,572.47],[128.327392578125,58.73371002811912,294.2043],[128.35019531250003,58.73541901249412,295.9091],[128.36855468750002,58.75519440311912,273.0951],[128.378173828125,58.77631256718162,223.0],[128.38486328125003,58.78449127811912,535.0497],[128.3955078125,58.790887762494123,575.9154],[128.40761718750002,58.79608795780662,526.1799],[128.41367187500003,58.800897528119123,466.7932],[128.41552734375,58.808221746869123,370.1171],[128.41445312500002,58.82111237186912,521.0826],[128.41943359375,58.843377996869123,221.6012],[128.436279296875,58.854852606244123,323.4806],[128.459228515625,58.856708074994117,519.735],[128.48125,58.850116278119117,275.0827],[128.49462890625,58.83783600468162,415.1893],[128.50068359375,58.822040106244117,265.3331],[128.504638671875,58.804803778119123,414.348],[128.51083984375003,58.788104559369117,515.6459],[128.53115234375002,58.75433991093162,246.6563],[128.53994140625002,58.73419830936912,258.2867],[128.5392578125,58.72016022343162,423.3724],[128.53378906250003,58.699335028119123,305.4179],[128.5546875,58.691669012494117,353.9908],[128.64404296875,58.689471746869117,365.7284],[128.662109375,58.68537018436912,402.8644],[128.67587890625003,58.67841217655662,340.4867],[128.68056640625002,58.67340729374412,221.7666],[128.68886718750002,58.661249090619123,215.3394],[128.70351562500002,58.64459869999412,214.9565],[128.707275390625,58.63861725468162,214.4662],[128.71035156250002,58.63117096561912,214.14],[128.71328125000002,58.61554596561912,227.0066],[128.713623046875,58.583612371869123,294.7],[128.71621093750002,58.568475653119123,258.5392],[128.723876953125,58.558465887494123,260.4367],[128.735595703125,58.55512116093162,317.2473],[128.85849609375003,58.54975006718162,430.3634],[128.91347656250002,58.53705475468162,222.9325],[128.967041015625,58.539813543744117,235.1986],[128.991455078125,58.537713934369123,223.0482],[129.01523437500003,58.531024481244117,223.3494],[129.0625,58.509149481244123,222.1293],[129.09130859375,58.504657293744117,209.5],[129.14804687500003,58.50653717655662,235.6322],[129.177734375,58.51239655155662,315.5936],[129.293212890625,58.55133698124412,446.0567],[129.354736328125,58.559442449994123,388.2678],[129.404541015625,58.557879949994117,288.7977],[129.47294921875005,58.543231512494117,209.468],[129.4931640625,58.54120514530662,243.6708],[129.511962890625,58.53717682499412,349.4327],[129.54179687500005,58.519549871869117,199.0],[129.56357421875003,58.51422760624412,212.69],[129.62656250000003,58.50775787968162,341.9595],[129.68701171875,58.483661199994117,271.8334],[129.74257812500002,58.480243231244117,207.1646],[129.79296875,58.49628327030662,244.6428],[129.891796875,58.54193756718162,301.8593],[130.00732421875,58.57477448124412,196.2471],[130.02197265625,58.58136627811912,200.3882],[130.037109375,58.592889715619123,190.5],[130.07021484375002,58.63373444218162,189.2886],[130.08515625,58.64472077030662,373.3166],[130.12109375,58.65582916874412,319.9485],[130.16367187500003,58.65802643436912,375.3433],[130.20634765625005,58.65277741093162,256.7866],[130.241943359375,58.64130280155662,195.8527],[130.28623046875003,58.61859772343162,201.4659],[130.303955078125,58.614032293744117,204.1827],[130.38623046875,58.614032293744117,211.1601],[130.50341796875,58.59796784061912,195.0023],[130.544189453125,58.600360418744117,186.9071],[130.57421875,58.61102936405662,210.7321],[130.59814453125,58.62909577030662,190.2718],[130.61416015625002,58.65241119999412,182.1564],[130.619873046875,58.679217840619117,197.45],[130.61767578125,58.691034246869123,187.9978],[130.60791015625,58.71063873905662,191.8502],[130.6044921875,58.726190496869123,184.2122],[130.60214843750003,58.729266668744117,182.0387],[130.599853515625,58.73126862186912,188.7516],[130.59873046875003,58.734149481244117,187.5255],[130.59931640625,58.75250885624412,180.6811],[130.59873046875003,58.75739166874412,188.2067],[130.576904296875,58.803241278119117,181.6835],[130.57763671875,58.820086981244117,177.9096],[130.59873046875003,58.836542059369123,275.0344],[130.62939453125,58.85004303593162,179.6244],[130.64306640625,58.858026434369123,177.5995],[130.6572265625,58.87067291874412,261.743],[130.673828125,58.88056061405662,268.6711],[130.6943359375,58.88263580936912,264.8532],[130.73593750000003,58.88153717655662,176.2494],[130.84716796875,58.904901434369123,184.0582],[131.006103515625,58.91791412968162,196.0815],[131.04384765625002,58.928729559369117,171.5],[131.08759765625,58.95294830936912,179.0499],[131.10595703125,58.956659246869123,186.8295],[131.126708984375,58.955829168744117,174.3052],[131.17539062500003,58.94660065311912,169.5],[131.19492187500003,58.939569403119123,172.3372],[131.202392578125,58.932977606244123,169.0],[131.21152343750003,58.92133209843162,168.5],[131.21923828125,58.90851471561912,182.7063],[131.2294921875,58.880877996869117,167.5],[131.24521484375003,58.87982819218162,173.098],[131.263427734375,58.88739655155662,182.2357],[131.305908203125,58.911737371869123,167.8299],[131.31689453125,58.92194244999412,167.2408],[131.32509765625002,58.936151434369123,191.454],[131.322509765625,58.96320221561912,177.3892],[131.32753906250002,58.97565338749412,163.0],[131.345458984375,58.973993231244123,163.7803],[131.42431640625,58.94354889530662,178.9191],[131.46533203125,58.93500397343162,179.3242],[131.503173828125,58.936151434369123,162.0],[131.53183593750003,58.95038483280662,183.8503],[131.55029296875,58.971210028119117,188.3726],[131.57099609375,58.99005768436912,164.2404],[131.60625,58.99823639530662,207.4456],[131.626953125,58.99494049686912,209.3066],[131.66679687500005,58.98041412968162,179.9352],[131.68808593750003,58.97711823124412,160.5111],[131.708984375,58.981219793744117,180.6059],[131.72119140625,58.99079010624412,181.0465],[131.73085937500002,59.00214264530662,162.0688],[131.74326171875003,59.01129791874412,159.4438],[131.76884765625005,59.015887762494117,178.9493],[131.794677734375,59.01471588749412,176.1314],[131.819580078125,59.01691315311912,177.583],[131.84169921875002,59.03192780155662,160.5157],[131.86376953125,59.05853912968162,158.9372],[131.87646484375,59.068719793744123,164.0175],[131.893310546875,59.07575104374412,159.2097],[131.921630859375,59.081659246869123,176.3268],[131.93544921875002,59.086688543744117,173.2195],[131.946533203125,59.095233465619117,172.9675],[131.951904296875,59.10871002811912,157.2055],[131.948974609375,59.12287018436912,159.7402],[131.943115234375,59.137323309369123,158.1791],[131.939453125,59.151727606244123,188.368],[131.95156250000002,59.177118231244123,174.908],[131.982177734375,59.18646881718162,157.2556],[132.080078125,59.18195221561912,194.802],[132.09531250000003,59.17914459843162,186.6227],[132.11093750000003,59.172381903119117,181.3825],[132.12646484375,59.162958074994123,176.3029],[132.1416015625,59.156024481244117,177.0952],[132.156982421875,59.15509674686912,181.844],[132.17333984375,59.16376373905662,174.4648],[132.20576171875,59.199335028119123,181.1435],[132.21982421875003,59.20844147343162,174.8653],[132.23623046875002,59.213885809369117,194.805],[132.306640625,59.222772528119123,171.7121],[132.36591796875,59.24188873905662,179.5848]]}}