{"type":"Feature","properties":{"featurecla":"River","scalerank":8,"rivernum":845,"dissolve":"845River","name":"Adycha2","name_alt":null,"note":null,"min_zoom":7.0,"strokeweig":0.25,"name_en":"Adycha","min_label":8.0},
"geometry":{"type": "LineString","coordinates": [[137.00546875000003,66.13861725468162,761.1028],[136.98593750000003,66.14520905155662,603.7091],[136.92431640625,66.15851471561912,488.6309],[136.90878906250003,66.16620514530662,522.3949],[136.875244140625,66.19330475468162,456.6366],[136.84130859375,66.201434637494117,416.5791],[136.8232421875,66.20844147343162,466.8663],[136.814453125,66.221210028119117,457.1395],[136.818115234375,66.23334381718162,473.4341],[136.83828125000002,66.25409577030662,473.3382],[136.84169921875002,66.26837799686912,370.3843],[136.83251953125,66.28497955936912,421.8708],[136.81416015625,66.294452215619117,367.6367],[136.75400390625003,66.30890534061912,372.6853],[136.74228515625003,66.31561920780662,369.3677],[136.74423828125003,66.32306549686912,375.509],[136.765869140625,66.33038971561912,453.0825],[136.740478515625,66.33038971561912,350.6159],[136.7265625,66.33283112186912,363.0094],[136.71826171875,66.33722565311912,353.9203],[136.71347656250003,66.34760162968162,499.7401],[136.71669921875002,66.353290106244117,361.0648],[136.72255859375002,66.35871002811912,350.212],[136.7255859375,66.36798737186912,351.9063],[136.728759765625,66.37421295780662,342.4196],[136.73583984375,66.38043854374412,340.4447],[136.742919921875,66.38837311405662,429.9968],[136.74609375,66.399286199994123,356.7859],[136.74375,66.401239324994123,351.3228],[136.7033203125,66.460809637494123,446.3939],[136.69082031250002,66.470721746869117,600.2465],[136.63955078125002,66.49457428593162,318.6044],[136.62568359375,66.50482819218162,398.1417],[136.61416015625002,66.517108465619117,393.7325],[136.60634765625002,66.527704168744123,384.0989],[136.6005859375,66.539813543744117,398.8435],[136.5947265625,66.55634186405662,384.8213],[136.594482421875,66.56268952030662,610.8511],[136.59658203125002,66.56696198124412,703.4196],[136.596923828125,66.572137762494123,710.1767],[136.59130859375,66.580585028119117,708.0831],[136.58154296875,66.58698151249412,800.9393],[136.55800781250002,66.59271881718162,725.4352],[136.546875,66.59796784061912,727.015],[136.53261718750002,66.61102936405662,303.8315],[136.5302734375,66.62103912968162,405.0716],[136.53271484375,66.632928778119123,308.4337],[136.53261718750002,66.65192291874412,618.6826],[136.5263671875,66.661249090619123,511.0621],[136.517333984375,66.671893621869117,373.8478],[136.515869140625,66.68292877811912,290.1804],[136.53261718750002,66.69354889530662,331.8288],[136.5380859375,66.71283600468162,282.6195],[136.5712890625,66.725702215619123,289.5445],[136.75009765625003,66.74567291874412,361.4795],[136.7802734375,66.75433991093162,279.4581],[136.75849609375,66.76447174686912,274.5195],[136.68398437500002,66.78229401249412,324.0917],[136.69394531250003,66.792010809369117,275.821],[136.70566406250003,66.79779694218162,387.8058],[136.71835937500003,66.80097077030662,406.5593],[136.73183593750002,66.80280182499412,358.4314],[136.6650390625,66.80573151249412,371.8428],[136.63076171875002,66.81342194218162,266.0413],[136.6328125,66.834100653119123,265.8342],[136.67041015625,66.861102606244117,360.772],[136.668212890625,66.873309637494117,355.1682],[136.65869140625,66.89594147343162,249.1257],[136.65673828125,66.905780340619117,249.1317],[136.66015625,66.915057684369117,306.6776],[136.67470703125002,66.932977606244123,411.4583],[136.67714843750002,66.939960028119117,456.4273],[136.67177734375002,66.94757721561912,486.6064],[136.63935546875,66.977801824994117,397.6623],[136.627197265625,66.995868231244117,531.3781],[136.61865234375,67.004901434369117,537.3936],[136.60888671875,67.00885651249412,506.0024],[136.59033203125,67.01239655155662,456.3633],[136.58056640625,67.021258856244117,347.6176],[136.57275390625,67.032342840619123,379.2349],[136.560546875,67.042987371869117,449.8541],[136.544921875,67.04889557499412,442.533],[136.49853515625,67.05597565311912,229.6348],[136.485595703125,67.06708405155662,402.7477],[136.47802734375,67.07025787968162,383.442],[136.46728515625,67.07147858280662,424.5051],[136.17734375000003,67.03851959843162,215.6867],[136.10292968750002,67.01422760624412,204.3696],[136.060546875,67.01459381718162,204.1633],[135.89052734375002,67.04828522343162,302.5913],[135.85361328125003,67.06696198124412,194.6457],[135.82685546875,67.09760162968162,182.5],[135.8271484375,67.10236237186912,184.878],[135.83173828125,67.10614655155662,186.6452],[135.835693359375,67.11090729374412,181.0],[135.834375,67.11871979374412,185.6755],[135.828857421875,67.12164948124412,184.9224],[135.79941406250003,67.132342840619117,184.9145],[135.78662109375,67.14227936405662,184.4025],[135.774658203125,67.16290924686912,176.2723],[135.765380859375,67.17328522343162,178.0938],[135.74951171875,67.18231842655662,175.1003],[135.66542968750002,67.20722077030662,163.5],[135.61093750000003,67.216327215619117,162.6797],[135.58759765625,67.22455475468162,165.859],[135.53037109375003,67.25519440311912,161.2104],[135.50380859375002,67.27606842655662,183.7129],[135.48486328125,67.30304596561912,153.5],[135.512939453125,67.323749090619117,156.4539],[135.557373046875,67.32904694218162,185.9352],[135.64892578125,67.32416412968162,155.4663],[135.664794921875,67.328143621869117,154.7463],[135.674072265625,67.338251043744123,153.6979],[135.67783203125003,67.351581121869117,154.152],[135.67724609375,67.36505768436912,151.0527],[135.672119140625,67.38153717655662,144.0],[135.66347656250002,67.390252996869123,150.6672],[135.64990234375,67.394794012494117,143.0],[135.62939453125,67.39862702030662,150.7682],[135.65097656250003,67.42243073124412,150.006],[135.638916015625,67.44403717655662,141.0],[135.608154296875,67.462030340619123,149.4425],[135.537841796875,67.484735418744123,144.2515],[135.52138671875002,67.49433014530662,140.0],[135.51904296875,67.50849030155662,144.4312],[135.5400390625,67.51886627811912,139.5],[135.57529296875003,67.515497137494123,139.0],[135.6357421875,67.50226471561912,146.4889],[135.6748046875,67.48688385624412,138.0],[135.69521484375002,67.483905340619117,138.0],[135.70400390625002,67.49860260624412,142.6983],[135.69814453125002,67.509149481244123,145.1702],[135.68398437500002,67.52142975468162,143.4187],[135.6669921875,67.53156159061912,143.6022],[135.65273437500002,67.535760809369123,144.5432],[135.584228515625,67.53925202030662,145.5437],[135.53574218750003,67.527362371869117,148.2991],[135.51025390625,67.52948639530662,142.9883],[135.4638671875,67.54328034061912,134.5],[135.49892578125002,67.55353424686912,146.0273],[135.59238281250003,67.564325262494123,143.0554],[135.615234375,67.584247137494117,142.4538],[135.59267578125002,67.593036199994117,143.4752],[135.583740234375,67.609247137494123,136.5],[135.58847656250003,67.62824127811912,144.6856],[135.60781250000002,67.64569733280662,144.4902],[135.63818359375,67.65143463749412,141.6826],[135.70058593750002,67.64142487186912,139.7141],[135.72509765625,67.65314362186912,195.7832],[135.7,67.65997955936912,144.0235],[135.70712890625003,67.67194244999412,142.3581],[135.7392578125,67.69403717655662,132.5],[135.6357421875,67.72821686405662,139.5339],[135.60263671875003,67.72907135624412,141.9223],[135.537109375,67.720965887494117,132.6535],[135.50537109375,67.72821686405662,142.9839],[135.517822265625,67.738788153119117,138.0],[135.53369140625,67.746454168744123,135.7539],[135.5673828125,67.75556061405662,144.6139],[135.57705078125002,67.755731512494123,141.4397],[135.59873046875003,67.753778387494123,140.4526],[135.60781250000002,67.75556061405662,138.113],[135.61337890625003,67.758807684369117,134.3977],[135.61923828125003,67.76337311405662,140.3239],[135.62021484375003,67.767450262494123,143.2402],[135.57675781250003,67.77655670780662,142.3675],[135.55898437500002,67.78412506718162,138.5406],[135.55654296875002,67.79303619999412,142.4099],[135.557373046875,67.804315496869123,131.7499],[135.54091796875002,67.811542059369117,131.7271],[135.47421875000003,67.819940496869123,140.4753],[135.46328125000002,67.82367584843162,140.9514],[135.43447265625002,67.840936590619123,139.2603],[135.4287109375,67.84589264530662,143.6603],[135.42958984375002,67.868768621869123,135.5719],[135.42421875000002,67.87470123905662,137.917],[135.40087890625,67.88593170780662,138.4396],[135.3955078125,67.896112371869123,130.1253],[135.39892578125,67.90839264530662,134.7248],[135.416259765625,67.92316315311912,129.9916],[135.42333984375,67.93427155155662,131.6837],[135.42255859375,67.954852606244117,207.043],[135.41044921875005,67.97455475468162,239.1375],[135.391796875,67.989276434369117,161.3272],[135.37158203125,67.995135809369117,121.9759],[135.33798828125003,67.99982330936912,125.7151],[135.23779296875,68.03668854374412,151.5851],[135.096923828125,68.06000397343162,118.6581],[135.05322265625,68.074237371869117,119.338],[135.032470703125,68.07855866093162,116.758],[134.986328125,68.07965729374412,125.4919],[134.96748046875,68.08820221561912,126.1882],[134.96015625,68.096942449994117,115.5],[134.958740234375,68.10419342655662,125.9169],[134.958740234375,68.11298248905662,121.1854],[134.95664062500003,68.12604401249412,121.929],[134.95664062500003,68.134540106244117,121.6577],[134.95908203125003,68.137958074994117,121.8527],[134.95703125,68.14044830936912,124.2681],[134.943603515625,68.14594147343162,111.5],[134.93349609375002,68.147723699994117,111.5],[134.89580078125005,68.14594147343162,118.6654],[134.850341796875,68.12995026249412,119.1028],[134.82763671875,68.12531159061912,122.3323],[134.806396484375,68.13226959843162,119.7316],[134.82578125000003,68.14581940311912,110.222],[134.86923828125003,68.14887116093162,112.9913],[134.882080078125,68.16705963749412,119.3924],[134.791015625,68.20587799686912,106.0],[134.784423828125,68.21600983280662,105.5],[134.790625,68.23334381718162,114.8398]]}}