{"type":"Feature","properties":{"featurecla":"River","scalerank":1,"rivernum":21,"dissolve":"21River","name":"Bykovskaya","name_alt":null,"note":null,"min_zoom":2.0,"strokeweig":1.5,"name_en":"Bykovskaya Protoka","min_label":3.0},
"geometry":{"type": "LineString","coordinates": [[126.689697265625,72.29437897343162,2.9075],[126.68310546875,72.31806061405662,3.7186],[126.7,72.35712311405662,9.1321],[126.69257812500001,72.375506903119117,3.3499],[126.688720703125,72.38861725468162,0.0],[126.685302734375,72.42169830936912,0.0],[126.64599609375,72.46539948124412,0.0],[126.661376953125,72.501239324994117,0.0],[126.70664062500003,72.527704168744123,6.0992],[126.75693359375003,72.54352448124412,4.7708],[126.810791015625,72.550555731244117,2.9947],[126.861083984375,72.548358465619117,7.3743],[127.18300781250002,72.491083074994123,0.0],[127.45419921875003,72.48309967655662,11.4936],[127.586669921875,72.46320221561912,4.5566],[127.66572265625001,72.430047918744123,8.3698]]}}