{"type":"Feature","properties":{"featurecla":"River","scalerank":8,"rivernum":973,"dissolve":"973River","name":"null77","name_alt":null,"note":null,"min_zoom":7.0,"strokeweig":0.3,"name_en":null,"min_label":8.0},
"geometry":{"type": "LineString","coordinates": [[126.31503906250003,72.46747467655662,4.8212],[126.201904296875,72.507440496869123,11.1177],[126.16083984375001,72.51911041874412,11.2909],[126.08261718750003,72.55219147343162,10.5429],[125.935791015625,72.56830475468162,0.4603],[125.904541015625,72.58698151249412,7.665],[125.90839843750001,72.58698151249412,9.9006],[125.913818359375,72.59223053593162,10.0497],[125.91796875,72.60004303593162,9.2484],[125.91806640625003,72.60748932499412,4.0329],[125.909912109375,72.614618231244123,9.9439],[125.89609375000003,72.618524481244123,10.0913],[125.85205078125,72.62262604374412,8.0295],[125.828857421875,72.628192449994117,5.7123],[125.806640625,72.636102606244123,4.1658],[125.764404296875,72.65961334843162,8.694],[125.760498046875,72.66547272343162,8.2967],[125.76015625000002,72.67206452030662,4.3755],[125.75830078125,72.67706940311912,9.4216],[125.75527343750002,72.68146393436912,9.4891],[125.750244140625,72.68622467655662,8.9121],[125.741455078125,72.69940827030662,7.6414],[125.7373046875,72.712420965619117,5.228],[125.73017578125001,72.723407293744117,0.6291],[125.71279296875002,72.730340887494123,9.0825],[125.72226562500003,72.73578522343162,0.5285],[125.739501953125,72.74994537968162,8.6118],[125.74677734375001,72.75824616093162,9.5449],[125.64443359375002,72.80609772343162,7.8137],[125.648193359375,72.80914948124412,7.8623],[125.65810546875002,72.81976959843162,0.487],[125.57568359375,72.83978912968162,5.4435],[125.4130859375,72.85065338749412,5.7851],[125.37705078125003,72.85736725468162,5.6969],[125.33740234375,72.86945221561912,4.4268],[125.314453125,72.87933991093162,5.5034],[125.29638671875,72.89069244999412,5.2868],[125.263671875,72.91901276249412,7.0046],[125.260498046875,72.926141668744123,3.7475],[125.26220703125,72.94342682499412,6.3668],[125.26025390625,72.950067449994123,6.3946],[125.24843750000002,72.958124090619123,5.4229],[125.19873046875,72.97736237186912,5.8475],[125.212158203125,72.98883698124412,5.5878],[125.21865234375002,72.999872137494123,3.1234],[125.21503906250001,73.008172918744123,5.5064],[125.19843750000001,73.01154205936912,3.9675],[125.10693359375,73.005487371869123,3.7726],[125.07587890625001,73.01154205936912,4.8487],[125.021875,73.03632233280662,4.7212],[124.99990234375002,73.03949616093162,5.4169],[124.507080078125,73.03668854374412,2.0186],[124.18359375,73.06903717655662,5.9952],[123.89453125,73.15509674686912,2.5297],[123.855712890625,73.15900299686912,14.5325],[123.814697265625,73.148065496869123,3.5368],[123.8056640625,73.132440496869123,10.3923],[123.80097656250001,73.128192449994117,7.302],[123.78857421875,73.125995184369117,15.3271],[123.76093750000001,73.128045965619123,9.715],[123.74794921875002,73.12641022343162,2.229],[123.695068359375,73.10858795780662,1.7575],[123.66933593750002,73.10297272343162,0.6765],[123.63925781250003,73.10089752811912,1.4476],[123.57460937500002,73.109002996869123,0.6228],[123.44931640625003,73.142938543744123,0.4942],[123.38330078125,73.148065496869123,0.0]]}}