{"type":"Feature","properties":{"featurecla":"River","scalerank":7,"rivernum":384,"dissolve":"384River","name":"Vitim","name_alt":null,"note":null,"min_zoom":6.0,"strokeweig":0.3,"name_en":"Vitim","min_label":7.0},
"geometry":{"type": "LineString","coordinates": [[112.591796875,59.462518621869123,191.586],[112.590576171875,59.46369049686912,191.586],[112.58935546875,59.46405670780662,191.1131],[112.588134765625,59.463739324994123,198.6646],[112.58701171875003,59.46271393436912,198.6646],[112.59365234375002,59.454950262494123,175.0],[112.769775390625,59.40058014530662,196.7082],[112.775634765625,59.40045807499412,197.2665]]}}