{"type":"Feature","properties":{"featurecla":"River","scalerank":7,"rivernum":556,"dissolve":"556River","name":"Bol12","name_alt":null,"note":null,"min_zoom":6.0,"strokeweig":0.2,"name_en":"Bol’shaya Kuonamka","min_label":7.0},
"geometry":{"type": "LineString","coordinates": [[106.77490234375,69.307879949994117,492.4971],[106.802734375,69.30744049686912,448.8428],[106.82724609375003,69.312518621869117,527.3272],[106.87607421875003,69.32941315311912,439.0543],[106.87851562500003,69.34015534061912,396.272],[106.88671875,69.34308502811912,384.2273],[106.890625,69.348407293744117,404.8573],[106.89365234375003,69.35455963749412,423.6617],[106.89892578125,69.35993073124412,428.9343],[106.905029296875,69.36273834843162,423.7338],[106.923583984375,69.36786530155662,415.2541],[107.03310546875002,69.42597077030662,480.6305],[107.0556640625,69.43207428593162,435.8356],[107.06669921874999,69.432635809369117,417.153],[107.09589843750001,69.427606512494123,399.9919],[107.11123046875002,69.428094793744123,383.5546],[107.178955078125,69.444354559369117,436.8521],[107.22294921874999,69.44989655155662,429.229],[107.26708984375,69.467792059369117,381.1724],[107.29208984375003,69.47394440311912,419.6329],[107.31777343750002,69.475360418744117,449.1574],[107.34189453125003,69.470575262494123,424.5259],[107.35439453125002,69.46332428593162,388.5868],[107.378662109375,69.44501373905662,360.6369],[107.403564453125,69.43927643436912,356.6501],[107.425537109375,69.430438543744117,353.0466],[107.437255859375,69.42829010624412,342.6396],[107.45166015625,69.430194403119117,356.5681],[107.47792968750002,69.439227606244117,423.0515],[107.491455078125,69.44135162968162,441.0069],[107.55839843749999,69.441766668744123,375.3269],[107.60703125000003,69.43305084843162,330.5333],[107.6767578125,69.448114324994123,401.9706],[107.70058593750002,69.446795965619117,382.8941],[107.74521484375003,69.436883856244123,336.1936],[108.334716796875,69.40778229374412,405.1988],[108.59531250000003,69.367059637494123,292.8801],[108.61923828125003,69.368768621869123,265.1935],[108.65419921875002,69.38043854374412,269.4156],[108.678125,69.385028387494117,260.4769],[108.69033203125002,69.389764715619123,223.0154],[108.7,69.397577215619123,252.5936],[108.70029296875003,69.40375397343162,235.0598],[108.697509765625,69.40900299686912,227.6122],[108.69716796875002,69.41400787968162,249.8092],[108.695068359375,69.41303131718162,246.2391],[108.69404296875001,69.41657135624412,276.6968],[108.694580078125,69.422479559369123,293.3777],[108.69716796875002,69.42829010624412,257.5961],[108.70576171875001,69.43317291874412,264.0161],[108.74560546875,69.44135162968162,292.2943],[108.77011718750003,69.44183991093162,304.1232],[108.8095703125,69.43854401249412,369.6443],[108.884765625,69.451776434369123,355.7635],[109.04042968750002,69.448114324994123,258.1301],[109.06171875000001,69.45392487186912,299.6226],[109.10097656250002,69.47052643436912,319.6849],[109.122314453125,69.476092840619117,381.9356],[109.24521484375003,69.476092840619117,316.3336],[109.28369140625,69.487176824994123,241.5365],[109.31826171875002,69.506366278119117,288.1845],[109.35439453125002,69.52094147343162,228.3352],[109.45,69.511590887494123,298.6581],[109.70947265625,69.54645416874412,252.8858],[109.73037109375002,69.55585358280662,301.1334],[109.74208984375002,69.55805084843162,316.5756],[109.8076171875,69.55805084843162,309.4113],[109.85068359375003,69.565301824994123,201.8663],[109.9794921875,69.60578034061912,218.7264],[110.00439453125,69.60956452030662,274.3964],[110.08251953125,69.61261627811912,260.3013],[110.10507812500003,69.61810944218162,334.4417],[110.14755859375003,69.634540106244117,277.1813],[110.23867187500002,69.652704168744123,308.8909],[110.25996093750001,69.654169012494123,292.4297]]}}