{"type":"Feature","properties":{"featurecla":"River","scalerank":4,"rivernum":102,"dissolve":"102River","name":"Aldan3","name_alt":null,"note":null,"min_zoom":4.0,"strokeweig":0.3,"name_en":"Aldan","min_label":5.0},
"geometry":{"type": "LineString","coordinates": [[132.36591796875,59.24188873905662,179.5848],[132.38193359375003,59.25153229374412,174.045],[132.392822265625,59.263055731244123,168.1774],[132.41259765625,59.290643621869123,156.0],[132.44013671875,59.31049225468162,230.1766],[132.47275390625003,59.314813543744123,228.0946],[132.53955078125,59.30731842655662,197.1559],[132.572509765625,59.314081121869123,176.935],[132.6005859375,59.333514715619117,192.2784],[132.6513671875,59.38080475468162,195.8609],[132.68710937500003,59.40119049686912,227.9597],[132.72900390625,59.41535065311912,163.293],[132.77285156250002,59.42133209843162,182.3339],[132.81386718750002,59.41730377811912,199.9257],[132.88466796875002,59.40094635624412,210.8775],[132.89394531250002,59.397333074994123,215.7759],[132.91982421875002,59.38300202030662,210.6537],[132.93007812500002,59.38056061405662,206.9263],[132.9482421875,59.380243231244123,196.0038],[133.025390625,59.398211981244117,156.0],[133.03671875000003,59.40253327030662,156.0],[133.04746093750003,59.409784246869123,156.0],[133.06884765625,59.43268463749412,156.0],[133.08583984375002,59.45917389530662,156.0],[133.0986328125,59.48822662968162,156.0],[133.1064453125,59.51837799686912,156.0],[133.108642578125,59.54071686405662,156.0],[133.1064453125,59.60431549686912,156.0],[133.12246093750002,59.629510809369123,156.0],[133.16015625,59.63800690311912,174.5201],[133.31240234375002,59.63971588749412,309.1706],[133.34755859375002,59.65082428593162,223.8986],[133.37763671875,59.673211981244123,248.6573],[133.3828125,59.68134186405662,315.3714],[133.38925781250003,59.69953034061912,254.4236],[133.39394531250002,59.70795319218162,205.0193],[133.400390625,59.71442291874412,159.2816],[133.478271484375,59.760370184369123,156.0],[133.51904296875,59.77631256718162,156.0],[133.6787109375,59.905536199994117,176.8939],[133.73974609375,59.94147369999412,156.0],[133.747314453125,59.947040106244117,160.2398],[133.778076171875,59.985711981244123,186.9024],[133.803955078125,60.00775787968162,191.669],[133.83339843750002,60.02496979374412,200.3178],[133.89501953125,60.052606512494123,213.3814],[133.91572265625,60.06696198124412,184.1371],[133.97216796875,60.13165924686912,182.8745],[134.0791015625,60.20844147343162,200.7754],[134.24472656250003,60.26569244999412,180.4815],[134.36767578125,60.34137604374412,180.8901],[134.41904296875003,60.36249420780662,177.5668],[134.46152343750003,60.39227936405662,159.1836],[134.527587890625,60.42304108280662,173.9357],[134.5537109375,60.44379303593162,158.7294]]}}