{"type":"Feature","properties":{"featurecla":"River","scalerank":1,"rivernum":12,"dissolve":"12River","name":"Lena13","name_alt":null,"note":null,"min_zoom":2.0,"strokeweig":2.0,"name_en":"Lena","min_label":3.0},
"geometry":{"type": "LineString","coordinates": [[125.48476562500002,69.973651434369117,8.2583],[125.4521484375,69.963739324994123,13.7711],[125.398193359375,69.936395574994123,11.8322],[125.258056640625,69.93268463749412,8.7005],[125.20087890625001,69.92511627811912,11.8322],[125.16044921874999,69.914081121869117,8.5945],[125.13251953125001,69.899286199994123,9.071],[125.10654296875003,69.880145574994117,8.8722],[125.0869140625,69.85724518436912,8.9714],[125.0703125,69.80341217655662,9.1173],[125.01455078125002,69.68378327030662,11.1747],[124.994873046875,69.66168854374412,14.8018],[124.89218750000003,69.59174225468162,9.7093],[124.802734375,69.489374090619123,14.6652],[124.713134765625,69.426288153119117,10.0439],[124.68857421875003,69.388544012494123,14.0],[124.658935546875,69.36127350468162,14.0],[124.62158203125,69.336444403119117,24.6443]]}}