{"type":"Feature","properties":{"featurecla":"River","scalerank":9,"rivernum":1112,"dissolve":"1112River","name":"Bytantay1","name_alt":null,"note":null,"min_zoom":7.1,"strokeweig":0.2,"name_en":"Bytantay","min_label":8.1},
"geometry":{"type": "LineString","coordinates": [[128.533203125,66.263299871869123,740.2769],[128.55654296875002,66.271844793744123,739.9176],[128.60976562500002,66.279803778119117,733.7257],[128.6787109375,66.304461981244117,797.6986],[128.78408203125002,66.359149481244117,720.7311],[128.813720703125,66.36456940311912,725.894],[128.81992187500003,66.366571356244123,717.6782],[128.83046875000002,66.37555573124412,719.2465],[128.8375,66.37763092655662,726.3717],[128.84921875000003,66.37665436405662,730.7059],[128.87109375,66.37238190311912,743.5589],[128.88232421875,66.37140534061912,733.0612],[128.90185546875,66.37262604374412,725.3146],[129.08212890625003,66.40460846561912,716.5465],[129.14101562500002,66.42413971561912,710.2947],[129.18056640625002,66.46698639530662,704.3071],[129.182373046875,66.47492096561912,693.955],[129.18417968750003,66.49030182499412,686.2742],[129.18740234375002,66.49494049686912,683.4425],[129.20009765625002,66.49811432499412,680.3873],[129.21337890625,66.49664948124412,687.9881],[129.2265625,66.49677155155662,692.5483],[129.23886718750003,66.50482819218162,688.6602],[129.25244140625,66.51898834843162,683.8243],[129.296630859375,66.55011627811912,701.03],[129.2880859375,66.580096746869117,659.7708],[129.3009765625,66.60138580936912,649.5529],[129.348388671875,66.63519928593162,662.8046],[129.3693359375,66.655877996869123,667.6263],[129.3740234375,66.66742584843162,634.8992],[129.35302734375,66.67658112186912,634.0201],[129.36484375000003,66.685907293744123,631.2804],[129.38466796875002,66.69537994999412,633.3509],[129.39951171875003,66.70038483280662,652.8458],[129.39951171875003,66.70722077030662,633.9007],[129.38632812500003,66.714862371869117,632.721],[129.39980468750002,66.72235748905662,630.3703],[129.441162109375,66.735126043744117,662.5605],[129.42080078125002,66.75238678593162,633.9297],[129.43017578125,66.76056549686912,667.0142],[129.45361328125,66.762713934369117,697.746],[129.499267578125,66.761737371869117,614.4519],[129.57470703125,66.76862213749412,659.0057],[129.577880859375,66.77155182499412,655.599],[129.605712890625,66.78974030155662,630.622],[129.617431640625,66.79352448124412,638.3224],[129.68027343750003,66.799920965619123,641.3647],[129.939453125,66.858172918744117,553.7859],[129.97294921875005,66.87494537968162,550.8042],[129.99697265625002,66.88373444218162,552.7515],[130.01513671875,66.89496491093162,568.823],[130.01279296875003,66.909198309369117,593.9282],[129.99462890625,66.91779205936912,537.7802],[129.973388671875,66.92426178593162,539.9893],[129.9609375,66.934198309369123,540.0522],[129.96884765625003,66.95355866093162,661.6872],[129.92041015625,66.96784088749412,528.0295],[129.92470703125002,66.97687409061912,521.5301],[129.93076171875003,66.98419830936912,539.499],[129.9384765625,66.98993561405662,558.6214],[129.94765625000002,66.99457428593162,568.1418],[129.93662109375003,67.02374909061912,593.5344],[129.96279296875002,67.047235418744123,655.6825],[130.0849609375,67.092059637494117,523.3854],[130.241943359375,67.11127350468162,467.5404],[130.43427734375,67.16583893436912,445.4282],[130.5099609375,67.177118231244123,435.5018],[130.530517578125,67.18695709843162,430.9947],[130.54150390625,67.19867584843162,429.5321],[130.55039062500003,67.213251043744123,434.3841],[130.554443359375,67.22662994999412,431.0887],[130.55039062500003,67.234735418744123,426.7782],[130.57861328125,67.26459381718162,418.8553],[130.60107421875,67.274286199994123,413.1185],[130.6044921875,67.28558991093162,412.4194],[130.60439453125002,67.29913971561912,409.6802],[130.60556640625003,67.31049225468162,410.0268],[130.61416015625002,67.32880280155662,401.0016],[130.62939453125,67.34772369999412,400.7957],[130.63095703125003,67.35602448124412,412.3235],[130.62548828125,67.36554596561912,395.5787],[130.617919921875,67.37567780155662,392.4986],[130.613037109375,67.38556549686912,388.9622],[130.65390625000003,67.417254949994117,385.614],[130.76953125,67.535760809369123,358.3143],[130.82382812500003,67.57404205936912,429.8087],[130.87841796875,67.60333893436912,417.1393],[130.93710937500003,67.62482330936912,599.6436],[131.05458984375002,67.64911530155662,331.5],[131.1220703125,67.671014715619123,332.1353],[131.13662109375002,67.673602606244117,588.4921],[131.16220703125003,67.683465887494123,340.394],[131.169189453125,67.706170965619123,321.1785],[131.166015625,67.73139069218162,313.5],[131.154541015625,67.76837799686912,307.4753],[131.169189453125,67.81647369999412,299.0856],[131.17714843750002,67.827020574994123,297.6998],[131.19150390625003,67.83124420780662,377.8639],[131.21083984375002,67.833124090619123,500.2443],[131.27382812500002,67.85333893436912,292.7701]]}}