{"type":"Feature","properties":{"featurecla":"River","scalerank":9,"rivernum":1113,"dissolve":"1113River","name":"Uchur3","name_alt":null,"note":null,"min_zoom":7.1,"strokeweig":0.25,"name_en":"Uchur","min_label":8.1},
"geometry":{"type": "LineString","coordinates": [[131.2880859375,57.38226959843162,460.3506],[131.27060546875003,57.38544342655662,517.7523],[131.259765625,57.39313385624412,872.3149],[131.23876953125,57.41632721561912,943.0616],[131.227783203125,57.42230866093162,753.5437],[131.216552734375,57.42230866093162,516.944],[131.193115234375,57.414422918744116,628.8182],[131.150634765625,57.40924713749412,939.8656],[131.021240234375,57.42865631718162,645.332],[130.990234375,57.427997137494117,797.9309],[130.95957031250003,57.430536199994116,523.3951],[130.92744140625,57.440057684369116,718.1451],[130.91611328125003,57.44037506718162,384.7557],[130.91005859375002,57.441278387494116,490.9511],[130.9052734375,57.443475653119116,611.3352],[130.89384765625005,57.45331452030662,833.2512],[130.88515625000002,57.45722077030662,695.8641],[130.87763671875,57.45783112186912,680.4395],[130.87050781250002,57.455438543744116,764.1709],[130.86328125,57.45014069218162,649.5407],[130.857177734375,57.44391510624412,569.0755],[130.85429687500005,57.44183991093162,371.7886],[130.848876953125,57.440301824994116,276.4575],[130.83203125,57.440692449994117,287.369],[130.8134765625,57.445819403119117,602.2158],[130.780029296875,57.46149323124412,653.9085],[130.769775390625,57.46881744999412,495.2196],[130.74589843750005,57.49640534061912,718.2496],[130.7216796875,57.51337311405662,826.5906],[130.66455078125,57.52997467655662,585.7592],[130.64111328125,57.54559967655662,719.2657],[130.63349609375,57.55536530155662,622.0767],[130.62939453125,57.558710028119116,558.4384],[130.61386718750003,57.56622955936912,667.8155],[130.6064453125,57.57111237186912,622.5665],[130.60019531250003,57.577264715619116,437.3537],[130.595703125,57.58502838749412,482.049],[130.59189453125003,57.59686920780662,392.412],[130.59072265625002,57.60944244999412,346.1862],[130.59218750000002,57.62189362186912,250.1695],[130.59628906250003,57.63349030155662,321.8757],[130.60751953125003,57.65082428593162,273.3893],[130.74677734375,57.81110260624412,320.4973],[130.763916015625,57.824579168744116,476.8045],[130.781982421875,57.82843659061912,845.0576],[130.791259765625,57.82501862186912,761.4849],[130.808837890625,57.812860418744116,414.5136],[130.818115234375,57.80829498905662,267.8855],[130.83017578125003,57.80585358280662,237.7283],[130.84267578125002,57.80573151249412,318.7932],[130.86757812500002,57.80914948124412,276.8537],[130.868896484375,57.81439850468162,293.1158],[130.877197265625,57.81867096561912,368.9268],[130.88349609375,57.825702215619117,602.8181],[130.90029296875002,57.852411199994116,360.6066],[130.903076171875,57.85516998905662,416.4785],[130.90927734375003,57.858905340619117,648.8015],[130.9140625,57.859149481244117,668.4899],[130.92519531250002,57.855487371869117,714.5248],[130.95068359375,57.85224030155662,726.931],[131.05703125000002,57.853387762494116,275.0202],[131.06972656250002,57.855243231244117,273.9937],[131.08154296875,57.86017487186912,301.773],[131.09130859375,57.868036199994116,440.9583],[131.1083984375,57.88641998905662,469.5911],[131.11875,57.89398834843162,363.2963],[131.130078125,57.89765045780662,297.9495],[131.140380859375,57.899042059369116,269.8864],[131.14902343750003,57.902460028119116,306.2928],[131.15517578125002,57.912225653119116,284.1988],[131.164794921875,57.95075104374412,238.1716],[131.17128906250002,57.96832916874412,225.8969],[131.18251953125002,57.98517487186912,222.2899],[131.247802734375,58.048700262494123,398.8256],[131.25634765625,58.06842682499412,514.9052],[131.24892578125002,58.08808014530662,641.7759],[131.23486328125,58.107538153119123,645.6048],[131.2236328125,58.126971746869117,552.7474],[131.22031250000003,58.15045807499412,512.201],[131.22177734375003,58.17169830936912,793.5016],[131.21982421875003,58.192010809369123,716.2633],[131.20654296875,58.212909246869117,417.3889],[131.16884765625002,58.24860260624412,525.8409],[131.15869140625,58.267840887494117,395.2157],[131.16162109375,58.29144928593162,208.8455],[131.169189453125,58.29889557499412,228.6828],[131.18125,58.30805084843162,208.509],[131.18955078125003,58.31842682499412,345.8259],[131.185791015625,58.32953522343162,207.5754],[131.174560546875,58.34296295780662,227.394],[131.17519531250002,58.35016510624412,222.7148],[131.18017578125,58.35651276249412,232.0283],[131.18212890625,58.36713287968162,221.821],[131.17636718750003,58.38751862186912,416.6039],[131.14794921875,58.436053778119117,202.9146],[131.15976562500003,58.44855377811912,247.9846],[131.17685546875003,58.448993231244117,316.9599],[131.19599609375,58.445184637494123,436.4204],[131.2138671875,58.444696356244123,421.1394],[131.2138671875,58.458270574994117,302.0819],[131.1982421875,58.48493073124412,222.6138],[131.194580078125,58.500262762494117,381.3918],[131.19785156250003,58.51483795780662,502.3241],[131.21962890625002,58.550897528119123,219.5321],[131.223388671875,58.57697174686912,421.8156],[131.21435546875,58.595331121869123,567.3179],[131.195556640625,58.60687897343162,636.882],[131.170654296875,58.61261627811912,579.4567],[131.103515625,58.613397528119123,464.0229],[130.978125,58.58539459843162,602.3855],[130.97128906250003,58.58209869999412,570.109],[130.9658203125,58.57770416874412,358.3251],[130.95351562500002,58.562518621869117,200.3493],[130.94013671875,58.55487702030662,229.7104],[130.92343750000003,58.551044012494117,217.1323],[130.89023437500003,58.549579168744117,197.3316],[130.8671875,58.551874090619123,413.6495],[130.81845703125003,58.56622955936912,241.9356],[130.797119140625,58.575458074994117,186.9695],[130.78945312500002,58.58368561405662,216.2799],[130.79042968750002,58.59430573124412,204.0777],[130.794677734375,58.60578034061912,223.3566],[130.79736328125,58.61640045780662,206.7363],[130.79628906250002,58.625360418744123,212.9905],[130.7900390625,58.650506903119123,184.8717],[130.78466796875,58.661737371869123,184.2711],[130.76113281250002,58.680926824994117,207.5464],[130.74365234375,58.712030340619123,182.2583],[130.71533203125,58.71527741093162,196.9626],[130.68339843750005,58.71478912968162,209.6068],[130.66025390625003,58.72382233280662,203.6576],[130.65585937500003,58.734637762494117,202.1612],[130.65771484375,58.755487371869123,197.6025],[130.654052734375,58.76483795780662,190.0801],[130.640380859375,58.775018621869123,189.7316],[130.62509765625003,58.779071356244117,189.9341],[130.59189453125003,58.77912018436912,195.4568]]}}