{"type":"Feature","properties":{"featurecla":"River","scalerank":4,"rivernum":124,"dissolve":"124River","name":"Kolyma4","name_alt":null,"note":null,"min_zoom":4.0,"strokeweig":0.3,"name_en":"Kolyma","min_label":5.0},
"geometry":{"type": "LineString","coordinates": [[158.66660156250003,68.74115631718162,-0.7382],[158.66015625,68.74689362186912,-0.7606],[158.64218750000003,68.76642487186912,-0.3391],[158.62373046875,68.778827215619117,-0.4512],[158.60146484375002,68.78851959843162,-0.2228],[158.556396484375,68.80084869999412,8.7063],[158.53271484375,68.80414459843162,8.4387],[158.50986328125003,68.80426666874412,5.9712],[158.4873046875,68.80133698124412,8.4889],[158.44580078125,68.78925202030662,8.9872],[158.42714843750002,68.780633856244123,7.3507],[158.41064453125,68.769159246869123,9.0057],[158.398681640625,68.754169012494117,8.2538],[158.39589843750002,68.74579498905662,8.4355],[158.39248046875002,68.72943756718162,7.4997],[158.388427734375,68.72186920780662,8.756],[158.38037109375,68.71466705936912,9.1552],[158.370361328125,68.70917389530662,8.6881],[158.25439453125,68.67133209843162,9.4441],[158.09423828125,68.641864324994117,8.9121],[158.03115234375002,68.63837311405662,7.6128],[157.95849609375,68.654559637494117,7.5721],[157.93496093750002,68.65155670780662,5.2379],[157.9248046875,68.63727448124412,7.5471],[157.93662109375003,68.617938543744117,2.4157],[157.95810546875003,68.59979889530662,-0.462],[157.9765625,68.589374090619117,79.8869],[158.0125,68.57404205936912,49.3819],[158.028515625,68.56293366093162,85.031],[158.04111328125003,68.548211981244123,-0.1588],[158.04755859375,68.51007721561912,-0.0451],[158.0265625,68.47626373905662,9.1923],[157.992431640625,68.44867584843162,9.0748],[157.888916015625,68.39520905155662,14.8449],[157.71669921875002,68.33539459843162,9.7586],[157.7033203125,68.32831452030662,10.6194],[157.69101562500003,68.319842840619117,0.2744],[157.68007812500002,68.30988190311912,11.1479],[157.67050781250003,68.29535553593162,9.8455],[157.67041015625,68.28266022343162,3.8771],[157.68359375,68.254022528119123,0.8533],[157.68671875,68.23725006718162,12.4088],[157.68212890625,68.22357819218162,11.8082],[157.67236328125,68.21173737186912,11.3954],[157.659912109375,68.20038483280662,11.6705],[157.64990234375,68.183954168744123,13.7229],[157.65185546875,68.167840887494123,7.5382999999999996],[157.655517578125,68.151874090619117,7.5748],[157.6513671875,68.13580963749412,11.1256],[157.64511718750003,68.13007233280662,11.214],[157.610107421875,68.11261627811912,12.8697],[157.4345703125,68.06806061405662,13.1388],[157.27822265625002,68.07233307499412,12.9324],[156.919677734375,68.02704498905662,10.1226],[156.83349609375,68.00104401249412,9.0851],[156.79335937500002,67.981952215619117,11.8245]]}}