{"type":"Feature","properties":{"featurecla":"River","scalerank":5,"rivernum":203,"dissolve":"203River","name":"Tumatskaya","name_alt":null,"note":null,"min_zoom":4.7,"strokeweig":0.3,"name_en":"Tumatskaya Protoka","min_label":5.7},
"geometry":{"type": "LineString","coordinates": [[126.55380859375003,72.33746979374412,4.5976],[126.511962890625,72.385858465619123,-0.1839],[126.37246093750002,72.428241278119117,9.5606],[126.31503906250003,72.46747467655662,4.8212],[126.292236328125,72.54047272343162,6.3867],[126.34091796875003,72.66547272343162,4.1121],[126.31650390625003,72.719842840619123,9.1867],[126.3837890625,72.78095123905662,5.4308],[126.36318359375002,72.82721588749412,2.3123],[126.32431640625003,72.873163153119123,6.1491],[126.33681640625002,72.933465887494123,7.0533],[126.39990234375,72.969256903119117,5.2245],[126.579833984375,72.99445221561912,6.0701],[126.654052734375,73.01557037968162,3.4087],[126.67666015625002,73.03339264530662,6.0816],[126.71259765625001,73.09882233280662,5.0522],[126.69287109375,73.138544012494123,3.0696],[126.65976562500003,73.16498444218162,3.5627],[126.6201171875,73.19147369999412,0.16],[126.56513671875001,73.23346588749412,1.6527]]}}