{"type":"Feature","properties":{"featurecla":"Lake Centerline","scalerank":6,"rivernum":269,"dissolve":"269Lake Centerline","name":"Vilyuy","name_alt":null,"note":null,"min_zoom":5.0,"strokeweig":0.25,"name_en":"Vilyuy","min_label":6.0},
"geometry":{"type": "LineString","coordinates": [[109.58681640625002,63.455438543744123,242.0],[109.59765625,63.45307037968162,279.9449],[109.61074218750002,63.46039459843162,308.833],[109.63388671875003,63.47186920780662,242.0],[109.65908203125002,63.47772858280662,242.0],[109.6865234375,63.47211334843162,288.0161],[109.72607421875,63.45538971561912,253.9413],[109.759765625,63.45001862186912,257.5388],[109.80419921875,63.45294830936912,253.6387],[109.852783203125,63.43659088749412,256.1325],[109.88916015625,63.41620514530662,262.2752],[109.935302734375,63.426776434369117,242.0],[110.00419921874999,63.47772858280662,286.2139],[110.03701171875002,63.48737213749412,242.0],[110.08798828125003,63.492059637494123,242.0],[110.13271484375002,63.48456452030662,242.0],[110.174560546875,63.471942449994117,253.2165],[110.305908203125,63.44489166874412,293.6031],[110.34619140625,63.42438385624412,256.0451],[110.42832031250003,63.388788153119123,280.616],[110.4625,63.355585028119123,242.0],[110.45566406250003,63.312127996869123,242.0],[110.42226562500002,63.28034088749412,242.0],[110.4091796875,63.25470612186912,242.0],[110.40683593750003,63.22223541874412,242.0],[110.406494140625,63.18353912968162,242.0],[110.43173828125003,63.16510651249412,245.1588],[110.47763671875003,63.167108465619123,259.4656],[110.526123046875,63.17462799686912,253.2264],[110.58701171875003,63.186297918744117,242.0],[110.6435546875,63.179461981244117,242.0],[110.67734375000003,63.15619537968162,253.9017],[110.67919921875,63.13080475468162,263.3566],[110.64169921875003,63.10968659061912,242.0],[110.59287109375003,63.10077545780662,242.0],[110.54599609375003,63.07953522343162,242.0],[110.54296875,63.044696356244117,242.0],[110.578857421875,63.022088934369123,242.0],[110.621337890625,63.02448151249412,277.5999],[110.68007812500002,63.04120514530662,242.0],[110.72080078125003,63.02789948124412,242.0],[110.751220703125,62.991961981244117,246.72559999999999],[110.79433593750002,62.97589752811912,242.8851],[110.841552734375,62.970086981244123,273.3968],[110.931884765625,62.94818756718162,256.1868],[110.9609375,62.93585846561912,280.4582],[110.99208984375002,62.907098699994123,244.9179],[111.03095703125001,62.89789459843162,242.0],[111.06601562500003,62.91535065311912,242.0],[111.08076171875001,62.936883856244123,242.0],[111.060546875,62.972772528119123,242.0],[111.0556640625,62.99677155155662,242.0],[111.09609375000002,63.02484772343162,242.0],[111.1328125,63.04743073124412,242.0],[111.17539062500003,63.05768463749412,242.0],[111.252197265625,63.082294012494117,242.0],[111.31503906250003,63.09870026249412,242.0],[111.37802734375003,63.09870026249412,242.0],[111.41845703125,63.087030340619123,242.0],[111.45458984375,63.07953522343162,337.4706],[111.50087890625002,63.079217840619123,300.3835],[111.53671875000003,63.08502838749412,322.2778],[111.56582031250002,63.09735748905662,320.0208],[111.58876953125002,63.10968659061912,250.5892],[111.60244140625002,63.12433502811912,272.1157],[111.60791015625,63.15338776249412,242.0],[111.61962890625,63.17975494999412,242.0],[111.63525390625,63.199969793744117,242.0],[111.645263671875,63.21576569218162,242.0],[111.6572265625,63.22736237186912,242.0],[111.672119140625,63.24445221561912,242.0],[111.695556640625,63.249286199994117,283.0238],[111.727294921875,63.243036199994123,242.0],[111.87607421875003,63.20819733280662,242.0],[111.898681640625,63.16986725468162,242.0],[111.900634765625,63.13153717655662,242.0],[111.90683593750003,63.10761139530662,242.0],[111.91708984375003,63.07953522343162,242.0],[111.896240234375,63.06207916874412,242.0],[111.80039062500003,63.03229401249412,242.0],[111.74208984375002,63.022088934369123,242.0],[111.72294921874999,62.999139715619123,242.0],[111.74472656250003,62.970086981244123,242.0],[111.77207031250003,62.94647858280662,242.0],[111.81591796875,62.92902252811912,242.0],[111.86962890625,62.91058991093162,242.0],[111.908935546875,62.879754949994123,296.1915],[111.938720703125,62.861346746869117,278.3392],[111.974609375,62.85516998905662,242.0],[112.013916015625,62.85065338749412,242.0],[112.05947265625002,62.85236237186912,253.399],[112.10429687499999,62.851678778119123,270.964],[112.16357421875,62.85516998905662,242.0],[112.21259765625001,62.88764069218162,242.0],[112.24560546875,62.94269440311912,242.0],[112.26376953125003,62.98859284061912,323.6974],[112.283935546875,63.03034088749412,242.0],[112.34033203125,63.05768463749412,242.0],[112.39882812500002,63.06037018436912,242.0],[112.45078125000003,63.03998444218162,246.4874],[112.47998046875,63.02057526249412,306.5132]]}}