{"type":"Feature","properties":{"GID_2":"RUS.60.14_1","GID_0":"RUS","country":"Russia","GID_1":"RUS.60_1","province":"Sakha","NL_NAME_1":"РеспубликаСаха","county":"Mirninskiyrayon","VARNAME_2":"NA","NL_NAME_2":"Мирнинскийрайон","TYPE_2":"Raion","ENGTYPE_2":"District","CC_2":"R65001","HASC_2":"RU.SK.MR","name":"Mirninskiyrayon.county"},
"geometry":{"type": "MultiPolygon","coordinates": [[[[110.511,61.0156,440.5152],[110.5635,61.0118,437.405],[110.6289,61.0004,440.4753],[110.784,60.9777,482.7864],[110.8443,60.9804,489.6492],[110.9965,61.0226,464.7457],[111.0627,60.9808,464.8839],[111.1339,60.9625,482.6733],[111.2576,60.9526,490.2616],[111.3531,60.9669,477.2867],[111.3905,60.9905,457.5579],[111.5279,60.9427,508.5813],[111.8018,60.9154,507.4285],[111.9384,60.935,464.5838],[112.1173,60.9224,484.6579],[112.4167,60.9164,475.1863],[112.5597,60.9468,439.741],[112.6195,61.013,424.9919],[112.6295,61.0635,457.6265],[112.6895,61.1122,497.4994],[112.79,61.1389,471.3671],[112.9066,61.1613,423.2591],[112.9167,61.1824,434.5747],[112.9807,61.2334,373.6573],[113.0474,61.2906,353.6],[113.1325,61.3396,406.3192],[113.3246,61.3896,400.2851],[113.4712,61.4299,383.2957],[113.5014,61.5041,370.4981],[113.5843,61.5807,377.8334],[113.6807,61.6477,380.2729],[113.7701,61.6841,387.2434],[113.8912,61.7064,375.2523],[114.0042,61.6926,351.5289],[114.1151,61.6394,349.3914],[114.2799,61.6129,379.6914],[114.3587,61.6345,340.2165],[114.4254,61.6875,342.4992],[114.5191,61.7525,364.683],[114.6537,61.8216,366.8724],[114.7443,61.8832,363.6718],[114.7968,61.9421,366.1228],[114.8092,61.9897,333.2174],[114.8008,62.0503,340.0417],[114.8182,62.1166,360.2306],[114.8381,62.1532,337.2722],[114.9246,62.2068,301.1176],[114.8026,62.2469,316.3495],[114.7608,62.2815,343.3696],[114.737,62.317,328.8079],[114.6955,62.3524,347.6146],[114.5967,62.3669,305.2103],[114.5283,62.3884,309.8823],[114.4318,62.4338,295.4261],[114.3391,62.5255,252.8362],[114.3348,62.5901,361.0426],[114.3641,62.6644,364.8886],[114.325,62.681,372.9946],[114.2101,62.7031,354.3574],[114.1177,62.7724,313.3918],[114.1624,62.8195,282.9511],[114.1614,62.8471,370.059],[114.0538,62.8986,356.5],[113.9619,62.9623,279.9543],[113.9693,63.0257,271.1577],[113.9136,63.0749,275.0544],[113.8119,63.1063,305.0149],[113.7258,63.1041,214.8275],[113.6807,63.1182,331.7061],[113.6634,63.1702,427.1626],[113.7198,63.177,404.3183],[113.8424,63.185,300.1037],[113.9772,63.1451,372.9442],[114.0618,63.1647,307.3787],[114.1196,63.1602,172.3731],[114.214,63.1275,198.8577],[114.2991,63.1323,145.5],[114.4277,63.1576,214.4515],[114.4999,63.1984,260.7513],[114.4706,63.2536,280.4757],[114.3154,63.3079,278.2979],[114.1814,63.3627,272.2577],[114.0067,63.4267,293.8132],[113.8803,63.5052,281.0229],[113.8252,63.5974,312.3639],[113.7984,63.6705,380.5387],[113.8817,63.7795,333.5459],[113.8491,63.844,344.2661],[113.7645,63.891,441.423],[113.6401,63.9433,490.7953],[113.6285,64.0004,510.4936],[113.6933,64.0332,400.0496],[113.8027,64.0438,349.2482],[113.8856,64.0282,357.836],[114.0105,64.0179,412.9426],[114.0839,64.0323,376.836],[114.1462,64.0782,362.4545],[114.2868,64.116,314.0104],[114.2965,64.1363,318.7936],[114.3129,64.2002,311.7167],[114.3012,64.2677,343.3152],[114.2935,64.3348,313.5158],[114.3198,64.4635,270.0565],[114.2686,64.4991,230.945],[114.2015,64.5163,297.3561],[114.1341,64.531,265.1649],[114.0825,64.5864,252.3579],[114.0732,64.6693,348.7474],[114.0498,64.7286,280.1861],[113.9913,64.7615,362.1626],[113.6773,64.806,407.6662],[113.5262,64.8022,380.6088],[113.3657,64.8156,430.6657],[113.2283,64.8554,395.4893],[113.1542,64.9194,428.3039],[113.062,64.9922,522.7654],[112.9781,65.0863,633.1761],[112.8485,65.1121,538.8072],[112.7512,65.0967,555.4048],[112.6464,65.1058,476.5138],[112.5865,65.1563,476.9088],[112.5709,65.2311,480.5928],[112.6354,65.2768,500.0895],[112.7563,65.3088,561.6362],[112.7942,65.3428,580.7946],[112.7905,65.3642,591.6397],[112.7095,65.4036,534.1138],[112.6682,65.4556,519.9996],[112.4891,65.4912,547.0861],[112.3356,65.499,617.2098],[112.248,65.5395,526.9374],[112.2786,65.5841,499.1968],[113.0215,65.8793,602.6702],[113.1458,65.9157,575.5215],[113.2119,65.9115,613.3184],[113.3122,65.8675,674.9292],[113.4036,65.8602,605.0704],[113.5073,65.8768,648.1041],[113.5369,65.9142,652.4843],[113.3952,66.0088,525.8719],[113.3391,66.1011,424.0284],[113.3293,66.1945,513.7086],[113.3428,66.2702,397.3496],[113.3233,66.3245,315.215],[113.2255,66.3867,354.292],[113.0146,66.4344,436.8489],[112.7379,66.5171,411.4571],[112.675,66.5717,424.6399],[112.552,66.5871,431.7588],[112.4035,66.6505,460.6786],[112.1938,66.693,468.9891],[111.8712,66.7079,381.5619],[111.6326,66.6907,357.4037],[111.2224,66.6022,503.8554],[110.6388,66.495,393.4497],[110.4229,66.4381,329.698],[110.2612,66.4054,331.6388],[110.1888,66.4353,357.071],[110.1304,66.4267,268.9909],[110.0036,66.3386,391.7932],[109.8034,66.3058,338.258],[109.5655,66.2483,492.744],[109.4779,66.2127,510.6551],[109.4451,66.1577,686.5902],[109.3924,66.145,758.634],[109.3082,66.1723,804.5845],[109.1418,66.1847,686.7828],[109.107,66.2322,615.9825],[109.261,66.3149,740.5948],[109.3363,66.376,633.3768],[109.3451,66.4213,607.123],[109.1927,66.4476,597.171],[109.129,66.4911,598.7755],[109.309,66.5194,547.5858],[109.342,66.5745,485.3678],[109.2834,66.6143,842.8846],[109.1006,66.6291,640.0943],[108.9408,66.6142,696.9917],[108.793,66.5931,680.0731],[108.672,66.5843,562.2681],[108.5721,66.5845,616.6445],[108.5243,66.6096,622.8866],[108.5992,66.64,689.4514],[108.7295,66.6575,569.2191],[108.8029,66.6759,645.9562],[108.8371,66.7091,587.0045],[108.8032,66.7547,606.701],[108.6722,66.7747,601.6876],[108.5844,66.7487,724.8173],[108.4982,66.739,591.6836],[108.3443,66.7471,445.1134],[108.222,66.7105,662.7491],[108.1534,66.6386,506.088],[107.9743,66.5413,416.3022],[107.857,66.5017,695.9072],[107.7031,66.5347,597.0624],[107.611,66.4966,706.2781],[107.5624,66.5342,658.3212],[107.3887,66.5423,672.068],[107.2538,66.5294,451.702],[107.1493,66.507,629.1942],[107.0171,66.5285,664.1882],[106.9258,66.5256,615.4232],[106.6155,66.4704,620.5695],[106.5753,66.5029,601.6037],[106.3093,66.4952,560.0619],[106.291,66.4704,544.1673],[106.1998,66.4259,525.5417],[106.186,66.181,499.2336],[106.2885,66.1635,454.0587],[106.4496,66.1133,537.2847],[106.5028,66.0542,520.314],[106.5196,65.9846,499.5513],[106.507,65.895,465.3145],[106.5004,65.8126,432.7453],[106.4761,65.7372,436.5092],[106.4958,65.6887,485.188],[106.694,65.6413,410.8943],[106.7714,65.5757,482.2827],[106.8527,65.542,400.3316],[107.006,65.5429,502.5448],[107.0436,65.5211,515.0442],[106.9752,65.4918,512.58],[106.8717,65.4686,579.8904],[106.8366,65.3801,550.7937],[106.7532,65.3955,536.2283],[106.6383,65.3883,573.5593],[106.5309,65.3559,572.9067],[106.4739,65.3114,613.2084],[106.4455,65.274,614.7351],[106.5268,65.2157,772.6829],[106.416,65.2156,609.9827],[106.312,65.1436,579.8853],[106.2007,65.1277,632.6142],[106.1662,65.0833,594.107],[106.0447,65.0787,586.9376],[106.0049,65.049,609.8826],[106.0143,64.9993,583.4737],[106.0909,64.9717,569.4885],[106.0919,64.9277,627.0978],[106.1915,64.8928,658.6382],[106.0829,64.8769,623.1752],[106.0222,64.9176,563.0075],[105.969,64.9131,580.1704],[105.9352,64.865,639.9222],[105.9697,64.8253,645.5968],[105.8976,64.7814,529.4014],[105.8637,64.7443,506.427],[105.9033,64.6962,519.0569],[105.8678,64.672,525.8607],[105.7257,64.6744,500.1897],[105.7692,64.5943,513.1354],[105.7255,64.5704,492.7912],[105.7955,64.5441,508.1838],[105.8082,64.5017,612.3083],[105.8636,64.4796,491.9175],[105.9276,64.4954,509.8703],[105.9918,64.5368,539.6497],[106.1261,64.5207,477.5984],[106.1417,64.4745,490.3343],[106.0985,64.4415,536.6631],[106.1611,64.4071,673.8488],[106.3052,64.4352,567.7426],[106.4564,64.4409,552.515],[106.5678,64.449,510.7237],[106.6132,64.4709,586.471],[106.5967,64.5099,611.5253],[106.6818,64.531,682.4708],[106.7197,64.512,604.4123],[106.7295,64.4522,612.9158],[106.7762,64.4137,625.6709],[106.8886,64.4188,512.2579],[106.9537,64.4195,593.416],[107.0107,64.3658,626.6472],[107.2071,64.3541,583.3773],[107.2739,64.3555,709.6],[107.306,64.2654,587.9249],[107.4452,64.2651,719.7324],[107.5185,64.2926,447.8271],[107.6217,64.2858,446.979],[107.7427,64.2514,649.72],[107.8539,64.2311,656.8323],[107.9335,64.1941,632.6923],[108.0575,64.194,688.0135],[108.0701,64.2308,505.227],[108.18,64.258,463.0796],[108.3204,64.2321,480.6471],[108.3611,64.2482,524.6124],[108.4375,64.2834,485.2593],[108.4911,64.2768,463.6884],[108.5149,64.2489,458.6377],[108.499,64.2086,480.7617],[108.5719,64.1825,482.431],[108.562,64.14,453.5404],[108.5189,64.124,482.0538],[108.5644,64.0363,491.9065],[108.6064,63.9974,464.9005],[108.7718,63.9851,445.3344],[108.839,63.9427,385.4853],[108.7934,63.8539,472.8274],[108.8488,63.8369,428.695],[108.8529,63.8009,424.2058],[108.7653,63.7622,460.4356],[108.6757,63.7583,502.5593],[108.5586,63.7477,445.4951],[108.4318,63.7577,449.1495],[108.3602,63.7499,415.1934],[108.3595,63.6833,367.3715],[108.2963,63.6312,410.8585],[108.2412,63.5988,407.7422],[108.1978,63.552,415.225],[108.2383,63.5088,414.5683],[108.3522,63.5206,389.4822],[108.4762,63.5445,401.6808],[108.6353,63.5471,364.857],[108.7758,63.5143,340.8044],[108.8953,63.4888,349.3577],[108.9854,63.4888,381.344],[109.1,63.5018,319.7278],[109.1651,63.4576,416.5104],[109.1885,63.4007,364.7935],[109.2784,63.3614,327.0153],[109.3057,63.318,256.9803],[109.4319,63.3356,253.8209],[109.4419,63.2461,292.9341],[109.4635,63.1524,263.8237],[109.5112,63.0399,282.9467],[109.4936,62.9866,271.9332],[109.5034,62.9335,336.0544],[109.5461,62.8829,316.3791],[109.6491,62.8402,294.2883],[109.6929,62.8066,291.4094],[109.683,62.7756,302.6574],[109.6254,62.7484,324.8381],[109.5619,62.7352,361.3911],[109.512,62.7012,318.5895],[109.4826,62.6533,313.6242],[109.4752,62.6248,343.0172],[109.4007,62.6005,342.0949],[109.3967,62.5619,348.374],[109.322,62.5312,346.5746],[109.3224,62.4471,343.7361],[109.3742,62.4013,347.9243],[109.4462,62.3733,348.8586],[109.4732,62.3454,351.9787],[109.5171,62.3697,396.3379],[109.5899,62.3823,339.1381],[109.6952,62.3719,322.3212],[109.8015,62.3777,319.4719],[109.8862,62.3849,362.3246],[109.9272,62.3695,370.085],[109.8983,62.3415,350.9789],[109.9471,62.3066,358.455],[109.9848,62.2625,313.9993],[109.955,62.2581,333.4989],[109.9417,62.2291,338.5457],[109.9704,62.1891,368.5349],[109.9993,62.1446,346.3708],[109.953,62.1061,268.3571],[109.9157,62.066,257.9192],[109.9277,62.0108,295.0109],[109.8396,61.985,285.8014],[109.7338,61.9648,256.0612],[109.6456,61.9126,263.8369],[109.5942,61.8625,253.182],[109.5705,61.8061,247.212],[109.6227,61.6959,308.7576],[109.7378,61.6131,268.5339],[109.8515,61.5249,355.081],[109.8357,61.4571,352.3864],[109.839,61.4016,352.6054],[109.8235,61.3446,359.2072],[109.8097,61.3029,355.6196],[109.8562,61.2581,342.3011],[109.9224,61.2472,318.3529],[110.0127,61.2664,346.9692],[110.0787,61.2428,384.1866],[110.1129,61.2232,413.351],[110.1444,61.1638,381.7166],[110.2632,61.1228,391.7922],[110.3549,61.1326,372.7158],[110.4336,61.1351,443.6391],[110.5093,61.1242,422.4717],[110.5443,61.0962,446.7827],[110.528,61.0356,384.873],[110.511,61.0156,440.5152]],
[[113.8946,62.493899999999996,343.1437],[113.8801,62.4902,358.7588],[113.8195,62.4945,343.2562],[113.8192,62.5114,341.899],[113.8469,62.5263,305.3173],[113.8884,62.5224,327.9558],[113.904,62.504,352.0375],[113.8946,62.493899999999996,343.1437]]]]}}