{"type":"Feature","properties":{"GID_3":"RUS.56.31.1_1","GID_0":"RUS","country":"Russia","GID_1":"RUS.56_1","province":"Primor'ye","NL_NAME_1":"Приморскийкрай","GID_2":"RUS.56.31_1","county":"Ussuriyskiyrayon","NL_NAME_2":"Уссурийскийрайон","city":"NA","VARNAME_3":"NA","NL_NAME_3":"NA","TYPE_3":"NA","ENGTYPE_3":"NA","CC_3":"NA","HASC_3":"NA","name":"N_A.city"},
"geometry":{"type": "MultiPolygon","coordinates": [[[[131.276,43.4787,690.0987],[131.2857,43.4724,695.7006],[131.2964,43.4721,689.3765],[131.3008,43.4685,695.8119],[131.3009,43.4559,695.8173],[131.288,43.4406,703.7391],[131.2877,43.4319,679.7461],[131.2949,43.417,678.6151],[131.3519,43.4287,624.158],[131.4116,43.458,597.0172],[131.5468,43.5033,365.6393],[131.5862,43.5515,351.2432],[131.6477,43.599,193.7129],[131.7427,43.665,118.6101],[131.8019,43.7111,160.9549],[131.9179,43.7245,29.1562],[131.9413,43.7116,10.293],[131.9548,43.6706,32.3714],[132.0392,43.654,151.0484],[132.0264,43.5931,143.5985],[132.056,43.5735,164.961],[132.0845,43.5766,63.8697],[132.1263,43.5748,161.2445],[132.1797,43.5452,167.3756],[132.1678,43.504,260.2068],[132.2067,43.4978,172.5609],[132.2453,43.5119,260.2005],[132.3049,43.5998,302.3488],[132.3398,43.5919,241.098],[132.3579,43.55,494.7856],[132.4106,43.548,175.9601],[132.4493,43.5895,356.8811],[132.4794,43.6045,454.2795],[132.5426,43.6418,295.8614],[132.5608,43.6953,319.1406],[132.4979,43.7427,371.4937],[132.4275,43.7558,373.5731],[132.4661,43.7994,314.6077],[132.5713,43.7856,309.1313],[132.4738,43.8716,140.9494],[132.4986,43.9149,181.5664],[132.1348,43.915,79.3046],[132.0585,43.8937,65.2999],[132.0069,43.916,31.0725],[132.0169,43.9504,43.9988],[131.9705,44.0529,101.0089],[131.9201,44.1029,96.2191],[131.8492,44.1225,110.8308],[131.7908,44.0923,120.2194],[131.7925,44.0138,70.7963],[131.8222,43.9417,52.1718],[131.8806,43.8749,32.5824],[131.6243,43.8975,58.6848],[131.4552,43.8676,149.1343],[131.4085,43.8949,238.4378],[131.3609,43.9826,162.8053],[131.2981,44.0776,156.3815],[131.2951,44.0684,152.4875],[131.2977,44.0539,89.8267],[131.294,44.0445,86.6243],[131.2505,44.0187,97.8059],[131.2486,44.0103,100.7829],[131.2507,43.992,102.094],[131.2388,43.9796,107.1506],[131.2411,43.9711,110.1521],[131.235,43.9659,113.1146],[131.236,43.9572,110.3818],[131.2523,43.9437,115.5505],[131.2589,43.9334,119.5063],[131.2486,43.8961,134.1409],[131.2418,43.885,140.9523],[131.228,43.8773,147.6789],[131.2242,43.8529,199.6317],[131.22,43.843,164.3327],[131.2035,43.8236,192.0431],[131.2157,43.8108,184.6828],[131.2047,43.7907,271.0855],[131.2054,43.7733,265.7391],[131.2181,43.7451,301.6096],[131.2072,43.7241,363.4635],[131.2122,43.7157,475.3799],[131.2129,43.709,344.8307],[131.21,43.6884,358.8085],[131.2239,43.6719,401.9007],[131.2271,43.645,383.6896],[131.2245,43.6332,389.44],[131.2119,43.6266,392.5045],[131.2097,43.6226,389.8518],[131.2139,43.6093,421.3875],[131.2253,43.6032,418.7235],[131.2285,43.5986,514.2854],[131.222,43.5856,428.3726],[131.2112,43.5869,458.138],[131.2053,43.5807,448.575],[131.1965,43.5763,456.0727],[131.2018,43.565,445.6378],[131.2009,43.5611,447.8797],[131.1876,43.5612,554.1311],[131.1841,43.5571,542.6199],[131.195,43.5433,468.1898],[131.1971,43.5366,475.4342],[131.1931,43.5257,523.8014],[131.2006,43.5185,631.7523],[131.2437,43.5018,610.687],[131.257,43.491,613.4423],[131.276,43.4787,690.0987]]]]}}