{"type":"Feature","properties":{"GID_2":"RUS.60.1_1","GID_0":"RUS","country":"Russia","GID_1":"RUS.60_1","province":"Sakha","NL_NAME_1":"РеспубликаСаха","county":"Abyyskiyrayon","VARNAME_2":"NA","NL_NAME_2":"Абыйскийрайон","TYPE_2":"Raion","ENGTYPE_2":"District","CC_2":"R65000","HASC_2":"RU.SK.AB","name":"Abyyskiyrayon.county"},
"geometry":{"type": "MultiPolygon","coordinates": [[[[141.1768,67.7579,202.1091],[141.196,67.7043,470.9703],[141.2247,67.6347,443.8142],[141.3189,67.5786,386.0339],[141.5405,67.5324,587.2101],[141.6397,67.5166,644.1479],[141.6631,67.5014,800.7297],[141.683,67.4693,757.3505],[141.8091,67.4516,546.9034],[142.0382,67.4803,466.5833],[142.2252,67.4914,481.4828],[142.4654,67.4786,134.5083],[142.6603,67.4398,86.8667],[142.778,67.4247,174.9368],[142.8434,67.3577,357.9739],[142.9423,67.3274,333.1688],[143.0973,67.2831,731.6192],[143.2925,67.21,1078.462],[143.3983,67.159,1266.651],[143.4542,67.1042,808.1382],[143.538,67.0479,1550.0671],[143.6196,67.0091,1350.9784],[143.7484,66.9825,1525.9685],[143.9207,66.9394,1508.9404],[144.0381,66.8963,1613.4954],[144.1366,66.853,1221.228],[144.1518,66.8324,1607.2362],[144.1511,66.8018,1231.984],[144.2159,66.7696,1377.9812],[144.307,66.7683,1350.6652],[144.3918,66.7632,1843.9117],[144.5207,66.7353,1555.6625],[144.5712,66.7107,1826.5643],[144.6749,66.7076,1568.9775],[144.8134,66.7352,1008.6016],[144.9164,66.7807,1232.6787],[144.9461,66.8396,1063.2917],[145.0206,66.8674,998.6656],[145.2506,67.0031,453.4547],[145.336,67.0937,277.1562],[145.3648,67.1705,202.5243],[145.4756,67.2267,127.5885],[145.635,67.2504,94.9196],[145.7826,67.2406,80.5946],[145.972,67.2315,85.1202],[146.1817,67.2473,85.7529],[146.2705,67.2392,85.861],[146.3135,67.2279,87.4114],[146.2851,67.2041,93.6506],[146.2729,67.167,97.4489],[146.3761,67.1283,103.4968],[146.5532,67.1222,114.4563],[146.6816,67.1527,95.9681],[146.7863,67.1661,99.0948],[146.8704,67.1472,99.2714],[146.9512,67.1352,94.0],[147.0138,67.1562,90.9378],[147.0571,67.2331,101.3245],[147.0017,67.3054,79.7836],[146.9378,67.3413,72.9477],[146.8734,67.3725,73.2429],[146.8823,67.3991,72.7174],[146.8483,67.4277,67.8045],[146.8049,67.4474,70.1301],[146.9048,67.4922,70.4435],[147.0163,67.5096,125.1039],[147.0631,67.4982,123.261],[147.0714,67.4695,144.8807],[146.9921,67.4289,132.6624],[146.9954,67.4007,223.7877],[147.105,67.3831,217.3566],[147.193,67.3713,131.4847],[147.2058,67.347,175.5705],[147.1807,67.3102,108.9442],[147.235,67.2689,121.3633],[147.3737,67.2616,169.8483],[147.631,67.3259,308.2421],[147.7329,67.3568,345.3642],[147.9465,67.482,486.4983],[147.8621,67.5312,368.8936],[147.824,67.577,674.4056],[147.8817,67.6167,559.8823],[148.0044,67.6433,610.417],[148.0777,67.6671,488.1402],[148.1637,67.7095,494.2711],[148.2751,67.7399,312.9485],[148.3997,67.7601,260.6608],[148.4875,67.8032,347.7526],[148.4754,67.848,339.2509],[148.3883,67.8947,192.9875],[148.4047,67.936,339.8599],[148.3766,67.986,119.3283],[148.2706,68.036,331.0068],[148.1415,68.0324,206.9815],[148.0394,68.0439,228.6748],[147.9879,68.0712,304.345],[148.0109,68.1091,287.0587],[148.0536,68.1468,389.6441],[148.0325,68.1655,395.5881],[147.9209,68.2047,372.1852],[147.8349,68.2512,182.221],[147.8411,68.2873,252.3472],[147.8982,68.324,207.299],[147.8899,68.3564,233.0921],[147.855,68.3972,316.5139],[147.9151,68.4448,360.9728],[147.8396,68.4698,262.5793],[147.79,68.512,149.6836],[147.7855,68.5586,156.8793],[147.832,68.6367,119.9451],[148.0283,68.6434,89.9864],[148.2224,68.6477,72.6992],[148.475,68.6468,44.0588],[148.7318,68.6595,50.8263],[148.8795,68.6856,80.7291],[148.9283,68.7219,72.014],[148.8641,68.7742,81.1015],[148.8648,68.8438,93.5489],[148.8405,68.8937,109.4149],[148.7532,68.906,112.0216],[148.6288,68.913,87.4559],[148.5363,68.9349,75.5422],[148.5567,68.9774,272.8381],[148.6516,69.0115,207.965],[148.7776,69.0609,105.9115],[148.8087,69.1016,93.1694],[148.862,69.1405,135.8119],[148.9538,69.1609,199.8985],[149.0908,69.1635,108.6868],[149.1709,69.2035,192.273],[149.211,69.262,236.0144],[149.2449,69.3399,151.7229],[149.143,69.3648,164.7393],[149.0829,69.4007,229.8385],[149.1033,69.4172,327.7505],[149.1589,69.4441,318.2741],[149.2012,69.4796,394.9149],[149.1858,69.5219,355.5826],[149.1058,69.5285,350.9776],[149.0083,69.5315,224.7818],[148.7977,69.4907,221.2943],[148.5416,69.4437,386.4377],[148.2121,69.401,239.1391],[148.1241,69.371,341.7386],[148.111,69.3533,173.3161],[148.1499,69.3199,93.854],[148.0792,69.3021,171.6823],[148.0325,69.308,197.0338],[147.9704,69.3461,122.4128],[147.8847,69.3688,117.5131],[147.7166,69.3708,16.3457],[147.4162,69.351,16.1066],[147.1398,69.2976,65.228],[146.8586,69.2516,32.6263],[146.5991,69.2566,32.2347],[146.4416,69.2839,41.9071],[146.4076,69.3162,141.7948],[146.3479,69.3486,223.5312],[146.2349,69.3767,100.5992],[146.1873,69.4022,184.5251],[146.1738,69.439,78.1831],[146.1017,69.4563,134.2722],[145.9463,69.459,63.1852],[145.8177,69.4805,74.5974],[145.6344,69.5185,119.5217],[145.4767,69.5291,63.9189],[145.3283,69.5073,139.1986],[145.1991,69.4571,392.2834],[145.0417,69.4364,88.0613],[144.9418,69.4399,81.0089],[144.837,69.4816,97.8015],[144.7658,69.4866,151.2809],[144.6407,69.4534,265.3154],[144.5767,69.41,178.7448],[144.3408,69.3547,186.869],[144.221,69.3726,140.927],[144.1533,69.4092,155.0331],[144.0199,69.4396,127.8615],[144.0451,69.484,113.4703],[144.1306,69.5144,112.3986],[144.1263,69.5451,176.0056],[144.0467,69.552,338.2576],[143.9615,69.5439,193.5898],[143.8146,69.5356,169.8061],[143.7766,69.5492,238.432],[143.7055,69.5805,323.5527],[143.5598,69.5897,357.4073],[143.4376,69.5428,285.7702],[143.3598,69.5396,288.3354],[143.2596,69.5704,332.3075],[143.1523,69.5759,408.7635],[143.0378,69.5337,290.6481],[142.7668,69.5691,284.7277],[142.5975,69.5869,355.4392],[142.3966,69.5633,412.278],[142.3018,69.5283,338.8818],[142.3511,69.48,288.2435],[142.5019,69.4593,320.6535],[142.5446,69.4092,271.4322],[142.5047,69.3747,268.3846],[142.6349,69.3153,374.9121],[142.7237,69.2787,248.3736],[142.6695,69.2156,231.6151],[142.5509,69.2006,229.0104],[142.3007,69.185,171.6289],[142.1563,69.1921,172.5776],[142.0417,69.217,219.1778],[141.9044,69.2265,237.5836],[141.7025,69.22,226.7733],[141.569,69.1917,358.7254],[141.505,69.1481,465.0172],[141.5031,69.0778,430.4807],[141.5126,69.0101,340.1075],[141.5214,68.9614,300.7106],[141.5202,68.9075,405.0731],[141.694,68.7832,197.4705],[141.7618,68.7291,298.8282],[141.8187,68.69,422.6513],[141.84,68.6522,419.4679],[141.745,68.5859,274.6212],[141.4648,68.4603,590.5943],[141.3696,68.4308,477.8656],[141.2413,68.4241,823.8318],[141.1611,68.426,829.5356],[141.0628,68.3994,825.3339],[140.9994,68.3253,851.6381],[140.9431,68.2649,492.1164],[141.0035,68.2119,457.0916],[141.0843,68.1755,330.6942],[141.0876,68.1327,268.9348],[140.9921,68.0748,247.6362],[140.9321,68.0088,230.9698],[140.9451,67.9414,194.0016],[141.0301,67.8663,225.0679],[141.1225,67.8155,174.2437],[141.1691,67.78,137.9178],[141.1768,67.7579,202.1091]]]]}}