{"type":"Feature","properties":{"GID_3":"RUS.56.20.1_1","GID_0":"RUS","country":"Russia","GID_1":"RUS.56_1","province":"Primor'ye","NL_NAME_1":"Приморскийкрай","GID_2":"RUS.56.20_1","county":"Nadezhdinskiyrayon","NL_NAME_2":"Надеждинскийрайон","city":"NA","VARNAME_3":"NA","NL_NAME_3":"NA","TYPE_3":"NA","ENGTYPE_3":"NA","CC_3":"NA","HASC_3":"NA","name":"N_A.city"},
"geometry":{"type": "MultiPolygon","coordinates": [[[[132.1678,43.504,260.2068],[132.1797,43.5452,167.3756],[132.1263,43.5748,161.2445],[132.0845,43.5766,63.8697],[132.056,43.5735,164.961],[132.0264,43.5931,143.5985],[132.0392,43.654,151.0484],[131.9548,43.6706,32.3714],[131.9413,43.7116,10.293],[131.9179,43.7245,29.1562],[131.8019,43.7111,160.9549],[131.7427,43.665,118.6101],[131.6477,43.599,193.7129],[131.5862,43.5515,351.2432],[131.5468,43.5033,365.6393],[131.4116,43.458,597.0172],[131.4018,43.4065,421.8104],[131.4464,43.3862,579.2922],[131.5065,43.3877,362.015],[131.5919,43.4043,200.0701],[131.6943,43.3997,48.1886],[131.7552,43.3837,0.0527],[131.7888,43.3608,0.0482],[131.789,43.3621,0.0531],[131.7957,43.3618,1.6926],[131.8007,43.3649,0.1092],[131.8085,43.366,-0.0042],[131.8087,43.3646,0.1448],[131.7985,43.3629,0.0],[131.7951,43.3599,0.0],[131.7949,43.3576,0.0],[131.7957,43.3549,-0.0257],[131.8018,43.3504,6.4712],[131.8035,43.3371,0.0],[131.8065,43.3329,2.2954],[131.8118,43.3329,4.3919],[131.8129,43.329,0.0],[131.8188,43.3299,-0.1498],[131.8196,43.3265,0.0],[131.8243,43.326,0.0],[131.8249,43.3318,-0.0797],[131.8224,43.3329,0.0014],[131.8221,43.3365,-0.2604],[131.8157,43.3385,-0.0163],[131.8146,43.3435,0.2994],[131.8163,43.3449,-0.0163],[131.8368,43.3454,0.658],[131.8382,43.344,0.658],[131.8401,43.3446,1.8961],[131.8429,43.3407,4.2676],[131.8465,43.3407,4.8014],[131.8493,43.3343,1.8898],[131.844,43.331,0.1706],[131.8451,43.3279,5.8074],[131.8349,43.3246,7.6498],[131.8229,43.3237,6.0394],[131.8201,43.3204,0.6279],[131.8221,43.3138,0.0],[131.8185,43.3093,3.3958],[131.8174,43.3015,0.0],[131.8229,43.2988,3.6341],[131.8221,43.2932,0.0],[131.8299,43.2979,8.0273],[131.8371,43.2979,0.0],[131.8415,43.3018,0.2972],[131.8443,43.2996,0.0],[131.8426,43.3035,3.5235],[131.8457,43.3054,0.0],[131.8521,43.3051,0.0],[131.8674,43.3096,0.0],[131.8685,43.3104,0.0],[131.8665,43.3126,0.0],[131.8676,43.3162,1.129],[131.881,43.3199,2.3795],[131.8924,43.3196,0.8234],[131.9001,43.3213,3.151],[131.9126,43.3182,-0.0591],[131.9176,43.3196,0.5969],[131.934,43.3168,0.0],[131.9407,43.314,0.0166],[131.9465,43.3154,0.1198],[131.9612,43.3099,0.0402],[131.9654,43.3063,0.0321],[131.9721,43.304,-0.0523],[131.974,43.3013,0.0],[131.9879,43.296,0.051],[131.9921,43.2885,0.5194],[131.991,43.2804,6.9339],[131.9876,43.2774,0.0],[131.981,43.2751,17.5046],[131.979,43.271,2.6165],[131.9749,43.2699,5.9228],[131.9729,43.2649,19.1876],[131.969,43.2612,0.0],[131.9713,43.2601,0.0],[131.9799,43.2651,0.0],[131.9796,43.2671,19.6853],[131.9824,43.2693,14.045],[131.9882,43.2704,0.0],[131.9888,43.274,0.0],[131.991,43.2762,0.4233],[132.0043,43.2762,2.8452],[132.0071,43.2799,0.3639],[132.0115,43.281,0.0],[132.0115,43.2846,0.0],[132.0085,43.2879,1.88],[131.9974,43.2907,0.0],[131.996,43.2954,4.4992],[131.9993,43.3004,0.0],[131.9993,43.3068,0.0],[132.0065,43.3124,0.2947],[132.0068,43.3218,2.3532],[132.0124,43.3274,10.7691],[132.0293,43.3315,0.1486],[132.0476,43.3312,0.0827],[132.0593,43.3296,0.1225],[132.0682,43.3207,2.4253],[132.0638,43.3188,-0.0416],[132.0876,43.3176,23.4025],[132.1075,43.3717,21.1968],[132.1218,43.4406,22.5525],[132.1478,43.4691,40.9229],[132.1678,43.504,260.2068]]]]}}