{"type":"Feature","properties":{"featurecla":"River","scalerank":7,"rivernum":382,"dissolve":"382River","name":"Chulym","name_alt":null,"note":null,"min_zoom":6.0,"strokeweig":0.2,"name_en":"Chulym","min_label":7.0},
"geometry":{"type": "LineString","coordinates": [[89.61279296875,54.598163153119117,429.7374],[89.63818359375,54.60993073124412,424.1789],[89.728906250000023,54.632928778119116,415.4445],[89.794677734375,54.66730377811912,407.0494],[89.8115234375,54.680047918744116,404.5317],[89.821679687500023,54.691180731244117,419.2336],[89.836669921875,54.71173737186912,402.2648],[89.84619140625,54.721698309369117,401.2524],[89.871972656250023,54.735858465619117,399.9906],[89.880615234375,54.74384186405662,399.058],[89.88037109375,54.75641510624412,398.9874],[89.861425781250034,54.76764557499412,398.6887],[89.82763671875,54.76984284061912,533.1133],[89.792871093750023,54.76691315311912,497.9131],[89.771093750000034,54.76264069218162,421.1213]]}}