{"type":"Feature","properties":{"featurecla":"River","scalerank":7,"rivernum":382,"dissolve":"382River","name":"Chulym2","name_alt":null,"note":null,"min_zoom":6.0,"strokeweig":0.2,"name_en":"Chulym","min_label":7.0},
"geometry":{"type": "LineString","coordinates": [[89.771093750000034,54.76947662968162,464.1819],[89.77001953125,54.77594635624412,435.4275],[89.770117187500034,54.78095123905662,402.4859],[89.768652343750034,54.78534577030662,395.2352],[89.763085937500023,54.78998444218162,394.7807],[89.800097656249989,54.84699127811912,402.5918],[89.8046875,54.86945221561912,388.9029],[89.80810546875,54.87799713749412,388.2482],[89.816308593750023,54.88800690311912,387.7772],[89.826416015625,54.89630768436912,388.2224],[89.835693359375,54.899774481244116,387.6287],[89.851953125000023,54.903680731244116,386.2725],[89.855371093750023,54.913104559369117,397.8079],[89.85302734375,54.92450592655662,409.379],[89.852441406250023,54.934588934369117,502.0162],[89.85693359375,54.94562409061912,476.6355],[89.868359375000011,54.964960028119116,518.826],[89.872949218750023,54.97553131718162,510.3424],[89.872949218750023,54.986102606244117,502.5713],[89.869042968750023,54.993670965619117,484.4014],[89.867919921875,55.00153229374412,408.5026],[89.876562500000034,55.01312897343162,412.5133],[89.88525390625,55.02985260624412,402.9743],[89.886132812500023,55.07172272343162,370.0578],[89.893945312500023,55.09223053593162,370.1447],[89.932373046875,55.11530182499412,439.2452],[89.991455078125,55.12628815311912,417.1954],[90.054785156250034,55.127069403119116,360.2852],[90.416796874999989,55.077020574994116,339.3443],[90.46875,55.07965729374412,335.7306],[90.517822265625,55.09223053593162,334.6459],[90.551513671875,55.10846588749412,333.6435],[90.619873046875,55.129022528119116,330.9395],[90.64013671875,55.143573309369117,330.1064],[90.650634765625,55.146844793744116,329.0699],[90.758203125000023,55.155633856244116,335.493],[90.77099609375,55.153680731244116,377.1672],[90.782470703125,55.147333074994116,416.3359],[90.803125,55.12946198124412,396.6992],[90.812402343750023,55.125751043744117,380.7959],[90.837158203125,55.120624090619117,328.3707],[90.85791015625,55.110370184369117,322.1838],[90.879492187500034,55.102655340619116,320.7168],[90.90771484375,55.10529205936912,319.8127],[90.918847656250023,55.110956121869116,320.0898],[90.9384765625,55.12689850468162,321.6658],[90.94921875,55.133172918744116,319.3685],[90.964746093750023,55.137713934369117,317.6315],[91.0146484375,55.14008209843162,317.1215],[91.0234375,55.143329168744117,316.998],[91.046777343750023,55.15888092655662,330.033],[91.051660156250023,55.16425202030662,314.519],[91.166796874999989,55.21991608280662,310.2027],[91.185302734375,55.23248932499412,309.2612],[91.2109375,55.24384186405662,308.0266],[91.276562500000011,55.244647528119117,306.2099],[91.304785156250034,55.248651434369116,305.6909],[91.346435546875,55.270379949994116,304.444],[91.362402343750034,55.27277252811912,304.2124],[91.415283203125,55.270379949994116,302.7583],[91.441308593750023,55.273309637494116,309.8102],[91.4677734375,55.28095123905662,372.0164],[91.491796875000034,55.29169342655662,298.1431],[91.510937500000011,55.30390045780662,371.5469],[91.53125,55.32623932499412,299.2531],[91.538183593750034,55.33185455936912,299.4403],[91.577880859375,55.34699127811912,297.3172],[91.58984375,55.35541412968162,328.1454],[91.599365234375,55.374872137494116,305.4943],[91.599365234375,55.398065496869116,294.8672],[91.592871093750034,55.441034246869116,296.5101],[91.595117187500023,55.445819403119117,293.5716],[91.604882812500023,55.44940827030662,298.7763],[91.607177734375,55.455340887494117,293.9675],[91.604296874999989,55.46002838749412,292.0349],[91.591064453125,55.46417877811912,293.6517],[91.586669921875,55.468377996869116,293.1588],[91.581347656249989,55.50409577030662,373.1182],[91.576416015625,55.50934479374412,360.671],[91.56640625,55.51264069218162,298.6371],[91.551855468750034,55.52716705936912,304.3048],[91.541601562500034,55.53046295780662,301.8684],[91.483007812500034,55.53729889530662,290.3424],[91.477783203125,55.540155340619116,290.1787],[91.476171875000034,55.544549871869116,288.9219],[91.473876953125,55.54852936405662,289.9294],[91.466552734375,55.550311590619117,289.3197],[91.454492187500023,55.550799871869117,288.8592],[91.4462890625,55.55255768436912,292.4175],[91.413671875000034,55.566913153119117,288.4196],[91.397070312500034,55.570184637494116,292.8954],[91.363476562500011,55.572040106244117,287.0712],[91.356054687500034,55.57514069218162,286.9209],[91.35400390625,55.58197662968162,286.9183],[91.35302734375,55.58881256718162,292.788],[91.349853515625,55.591913153119116,290.7232],[91.34033203125,55.59296295780662,292.9158],[91.322998046875,55.597674871869117,292.5695],[91.3154296875,55.59870026249412,285.6899],[91.13818359375,55.60480377811912,294.541],[91.106835937500023,55.61298248905662,380.2565],[91.10498046875,55.61481354374412,404.8596],[91.085693359375,55.62665436405662,422.6053],[91.07958984375,55.637323309369116,335.1089],[91.077880859375,55.64130280155662,437.7651],[91.07958984375,55.63971588749412,365.8811],[91.079003906250023,55.64398834843162,415.707],[91.08154296875,55.648065496869116,431.0793],[91.084716796875,55.651483465619116,468.5556],[91.085693359375,55.65399811405662,532.4938],[91.082763671875,55.656854559369116,504.1367],[91.07861328125,55.65863678593162,414.5775],[91.07275390625,55.660174871869117,458.1418],[91.068359375,55.666376043744116,510.4569],[91.056738281250034,55.67499420780662,331.9669],[91.051660156250023,55.681903387494117,383.275],[91.0693359375,55.68537018436912,463.9117],[91.077392578125,55.69367096561912,371.0979],[91.077880859375,55.706415106244116,382.8581],[91.07275390625,55.72284577030662,388.8509],[91.062890625000023,55.74005768436912,399.1998],[91.050683593750023,55.74774811405662,403.799],[91.034277343750034,55.74970123905662,341.7145],[91.011816406250034,55.749530340619117,368.0299],[91.011816406250034,55.75641510624412,275.0351],[91.03173828125,55.768573309369117,422.0668],[91.03564453125,55.78729889530662,314.6812],[91.031152343750023,55.82526276249412,262.8071],[91.052636718750023,55.85590241093162,260.299],[91.066308593750023,55.870135809369117,259.5874],[91.069238281250023,55.88080475468162,259.053],[91.06884765625,55.891961981244116,259.2009],[91.066503906250034,55.90033600468162,257.5632],[91.080664062500034,55.91168854374412,259.4546],[91.078125,55.926141668744116,256.0207],[91.06787109375,55.939715887494117,260.4096],[91.05908203125,55.94818756718162,251.3348],[91.078320312500011,55.95905182499412,263.0504],[91.085693359375,55.96185944218162,271.9509],[91.07666015625,55.968280340619117,264.6516],[91.056640625,55.974237371869116,266.1393],[91.048583984375,55.97919342655662,254.9803],[91.043359375000023,55.986688543744116,255.2323],[91.0375,56.00238678593162,265.1681],[91.031152343750023,56.01019928593162,262.4585],[91.009960937500011,56.02338287968162,267.9381],[90.990917968750011,56.025995184369116,262.688],[90.94921875,56.01703522343162,250.8077],[90.9296875,56.01727936405662,249.4811],[90.915722656250011,56.024676824994117,249.3755],[90.903222656250023,56.034930731244117,248.6188],[90.887109375000023,56.04376862186912,273.235],[90.872656250000034,56.04608795780662,259.9395],[90.8583984375,56.04425690311912,247.6591],[90.844824218750034,56.039813543744117,248.4205],[90.83251953125,56.03412506718162,246.828],[90.82275390625,56.032001043744117,246.0653],[90.802636718750023,56.036395574994117,247.9163],[90.79150390625,56.03754303593162,249.4823],[90.708984375,56.02448151249412,243.6922],[90.684472656250023,56.025995184369116,245.8328],[90.627050781250034,56.04376862186912,246.5735]]}}