{"type":"Feature","properties":{"featurecla":"River","scalerank":6,"rivernum":318,"dissolve":"318River","name":"Tom","name_alt":null,"note":null,"min_zoom":5.0,"strokeweig":0.2,"name_en":"Tom’","min_label":6.0},
"geometry":{"type": "LineString","coordinates": [[89.771093750000034,53.64606354374412,1243.9056],[89.751708984375,53.648309637494116,1253.8378],[89.730712890625,53.63910553593162,1127.6993],[89.669824218750023,53.598407293744117,1157.6166],[89.653222656250023,53.584588934369116,1046.4873],[89.652148437499989,53.57929108280662,1011.5665],[89.6533203125,53.57208893436912,868.2018],[89.653710937500023,53.565692449994117,1039.2607],[89.65,53.562860418744116,970.6401],[89.627636718750011,53.55573151249412,946.7636],[89.602783203125,53.54450104374412,704.3101],[89.548242187500023,53.527850653119117,895.3161],[89.521679687500011,53.49201080936912,687.0042],[89.462988281250034,53.46539948124412,632.6046],[89.462011718750034,53.447381903119116,754.3849],[89.4287109375,53.439471746869117,550.7613],[89.394775390625,53.43512604374412,555.9908]]}}