{"type":"Feature","properties":{"featurecla":"River","scalerank":4,"rivernum":145,"dissolve":"145River","name":"Verkhniy1","name_alt":null,"note":null,"min_zoom":4.0,"strokeweig":0.3,"name_en":"Verkhniy Yenisey","min_label":5.0},
"geometry":{"type": "LineString","coordinates": [[92.769238281250011,51.58112213749412,544.3756],[92.731201171875,51.58283112186912,679.5709],[92.71044921875,51.58734772343162,593.7773],[92.67626953125,51.601092840619117,538.1428],[92.658935546875,51.60394928593162,525.0],[92.650097656250011,51.607049871869116,525.7239],[92.639892578125,51.620721746869116,552.218],[92.63125,51.62384674686912,579.0834],[92.62109375,51.625604559369116,687.6991],[92.602929687500023,51.63434479374412,729.6039],[92.593457031250011,51.637469793744117,755.7506],[92.519140625000034,51.63434479374412,556.8817],[92.5009765625,51.64118073124412,553.7764],[92.485595703125,51.65131256718162,651.3893],[92.4482421875,51.66547272343162,853.5664],[92.425683593750023,51.67914459843162,982.3955],[92.405957031250011,51.684930731244116,823.1832],[92.386621093750023,51.688348699994116,786.2177],[92.379296875000023,51.694208074994116,732.002],[92.373779296875,51.70099518436912,736.6705],[92.367578125000023,51.70636627811912,704.5917],[92.334228515625,51.716913153119116,788.8674],[92.249755859375,51.73004791874412,1230.3137],[92.209716796875,51.74115631718162,762.9514],[92.215722656250023,51.754657293744117,1088.0153],[92.1943359375,51.765985418744116,988.6058],[92.1484375,51.782098699994116,743.4404],[92.138671875,51.80524323124412,599.3114],[92.14111328125,51.82367584843162,671.2006],[92.140380859375,51.84015534061912,530.5857],[92.120996093750023,51.857196356244117,852.5058],[92.0390625,51.899774481244116,1026.3298],[92.004003906250034,51.92536041874412,965.834],[91.97705078125,51.959588934369116,1025.4109],[92.005078125000011,51.994501043744116,545.2498],[92.3427734375,52.16913483280662,525.0],[92.373046875,52.19855377811912,793.6003],[92.422753906250023,52.26129791874412,611.1016],[92.454003906250023,52.31110260624412,525.0],[92.466796875,52.326434637494117,719.5632],[92.478271484375,52.34772369999412,1013.7659],[92.471777343750034,52.365497137494117,734.4933],[92.454980468750023,52.37995026249412,526.0],[92.355371093750023,52.43695709843162,531.8466],[92.3173828125,52.467303778119117,615.6322],[92.298583984375,52.50153229374412,821.9533],[92.302978515625,52.522821356244116,759.5296],[92.324804687500034,52.56537506718162,764.804],[92.322509765625,52.58063385624412,525.0],[92.303417968750011,52.59784577030662,687.9165],[92.285839843750011,52.60871002811912,589.5606],[92.265527343750023,52.614764715619117,1057.7303],[92.203222656250034,52.62103912968162,860.8528],[92.18994140625,52.617547918744116,1008.3341],[92.179785156250034,52.61127350468162,582.2604],[92.1591796875,52.594354559369116,525.0],[92.15185546875,52.590838934369117,525.0],[92.141992187500023,52.58771393436912,825.7228],[92.122314453125,52.57355377811912,530.9497],[92.11083984375,52.57037994999412,840.1321],[92.09326171875,52.57086823124412,653.6863],[92.083984375,52.57269928593162,535.151],[92.0595703125,52.58405182499412,1189.7599],[91.986328125,52.59601471561912,1001.8265],[91.946191406250023,52.618670965619117,743.4026],[91.923095703125,52.615838934369116,563.4294],[91.880859375,52.59772369999412,795.4915],[91.84912109375,52.590204168744116,1206.718],[91.813867187500023,52.58832428593162,862.2707],[91.779296875,52.59271881718162,610.8159],[91.75048828125,52.603876043744116,850.1249],[91.728759765625,52.62543366093162,525.0],[91.720458984375,52.639276434369116,552.2671],[91.726953125000023,52.64545319218162,861.2003],[91.78466796875,52.64545319218162,534.4669],[91.779052734375,52.653924871869116,784.5216],[91.7578125,52.674676824994116,582.2032],[91.75048828125,52.68024323124412,738.1683],[91.736914062500034,52.68475983280662,766.0992],[91.7041015625,52.691180731244117,611.403],[91.69287109375,52.69696686405662,939.1533],[91.66796875,52.702264715619116,751.8066],[91.596435546875,52.679559637494116,536.7175],[91.475488281250023,52.654803778119117,525.0],[91.442578125000011,52.65912506718162,678.1472],[91.427636718750023,52.66754791874412,525.0],[91.418212890625,52.67670319218162,525.0],[91.407958984375,52.68402741093162,525.0],[91.390869140625,52.68707916874412,525.0],[91.382519531250011,52.690692449994117,565.722],[91.364501953125,52.707879949994116,547.4201],[91.353271484375,52.713739324994116,525.0],[91.3525390625,52.71991608280662,530.5063],[91.331445312500023,52.733172918744117,525.0],[91.325878906250011,52.74481842655662,525.0],[91.32421875,52.76862213749412,525.0],[91.325878906250011,52.77716705936912,544.4802],[91.332763671875,52.78949616093162,525.0],[91.347070312500023,52.807733465619116,525.0],[91.362207031250023,52.820819403119117,525.0],[91.424072265625,52.85700104374412,332.3371],[91.43212890625,52.86469147343162,546.3354],[91.439355468750023,52.890399481244117,343.8411],[91.44970703125,52.893182684369116,359.502],[91.463134765625,52.89313385624412,393.1378],[91.476757812500011,52.89935944218162,324.0],[91.48046875,52.908075262494116,655.4208],[91.493896484375,52.95380280155662,323.5],[91.518310546875,52.98749420780662,497.0764],[91.47705078125,53.04865143436912,586.4773],[91.459716796875,53.06696198124412,342.1403],[91.447509765625,53.08405182499412,304.6997],[91.4462890625,53.10089752811912,315.9211],[91.452734375000034,53.117059637494116,318.326],[91.463134765625,53.132098699994117,301.8828],[91.466894531250034,53.13898346561912,297.9695],[91.469921875000011,53.14667389530662,294.0],[91.474609375,53.15387604374412,312.6321],[91.483007812500034,53.159442449994117,311.3258],[91.49755859375,53.16205475468162,311.1338],[91.598388671875,53.15704987186912,316.337],[91.6220703125,53.158710028119117,292.0881],[91.671630859375,53.171747137494116,296.0234],[91.727294921875,53.17987702030662,288.4439],[91.7470703125,53.19013092655662,281.5],[91.791406250000023,53.248163153119116,283.1644],[91.95849609375,53.37445709843162,278.9504],[91.97021484375,53.37848541874412,267.0],[91.933984375000023,53.43060944218162,268.3711],[91.90869140625,53.45673248905662,263.1228],[91.87744140625,53.467889715619116,326.2378],[91.840576171875,53.466180731244116,329.3459],[91.823339843750034,53.46881744999412,288.6759],[91.808837890625,53.47809479374412,266.0193],[91.767822265625,53.52594635624412,255.5],[91.748779296875,53.53522369999412,254.5],[91.7265625,53.536151434369117,352.8761],[91.70361328125,53.53449127811912,303.1897],[91.68212890625,53.53620026249412,282.9286],[91.663476562500023,53.54425690311912,277.1398],[91.656347656250034,53.554559637494116,268.6602],[91.653564453125,53.56781647343162,256.5435],[91.648046875000034,53.584588934369116,257.7903],[91.625683593750011,53.606073309369116,354.6142],[91.564550781250034,53.62677643436912,250.029],[91.545019531250034,53.64606354374412,254.8162],[91.562402343750023,53.65497467655662,256.7584],[91.581738281250011,53.66815827030662,298.3656],[91.596582031250023,53.68390534061912,249.8636],[91.600341796875,53.70062897343162,247.8351],[91.5888671875,53.714227606244116,244.5743],[91.536230468750034,53.724237371869116,245.7112],[91.510937500000011,53.73541901249412,247.9969]]}}