{"type":"Feature","properties":{"GID_2":"RUS.2.15_1","GID_0":"RUS","country":"Russia","GID_1":"RUS.2_1","province":"Altay","NL_NAME_1":"Алтайскийкрай","county":"Kalmanskiyrayon","VARNAME_2":"NA","NL_NAME_2":"Калманскийрайон","TYPE_2":"Raion","ENGTYPE_2":"District","CC_2":"R53091","HASC_2":"RU.AL.KA","name":"Kalmanskiyrayon.county"},
"geometry":{"type": "MultiPolygon","coordinates": [[[[83.5419,53.2933,197.9442],[83.4992,53.2786,214.9968],[83.4612,53.2711,213.3061],[83.4055,53.2497,214.0049],[83.3018,53.2006,201.4263],[83.1837,53.1527,197.8096],[82.9367,53.0615,215.6798],[82.991,53.0203,233.6582],[83.0149,52.9838,244.968],[83.1017,52.9504,218.0362],[83.117,52.9116,212.4732],[83.1659,52.8639,211.3729],[83.2208,52.878,200.8564],[83.2465,52.851,198.0727],[83.2646,52.8164,187.0816],[83.418,52.7827,167.0253],[83.4675,52.7986,163.1901],[83.5083,52.787,140.8989],[83.5963,52.8152,142.2141],[83.6537,52.8051,142.2843],[83.7466,52.7844,142.3357],[83.8167,52.7659,151.8945],[83.874,52.7668,154.1485],[83.9087,52.7887,168.1465],[83.9022,52.812,167.2666],[83.8693,52.8538,154.4433],[83.8639,52.8856,150.6984],[83.8379,52.9182,142.8182],[83.7674,52.9936,136.4558],[83.7582,53.0156,136.3898],[83.7683,53.0329,137.6082],[83.802,53.05,134.1275],[83.7984,53.0811,133.9318],[83.7841,53.1117,136.8059],[83.7643,53.1479,136.4457],[83.7255,53.1804,135.7586],[83.6431,53.2336,229.3662],[83.5419,53.2933,197.9442]]]]}}