{"type":"Feature","properties":{"GID_2":"RUS.2.44_1","GID_0":"RUS","country":"Russia","GID_1":"RUS.2_1","province":"Altay","NL_NAME_1":"Алтайскийкрай","county":"Slavgorod","VARNAME_2":"NA","NL_NAME_2":"Славгород","TYPE_2":"Gorsovet","ENGTYPE_2":"District","CC_2":"NA","HASC_2":"RU.AL.SG","name":"Slavgorod.county"},
"geometry":{"type": "MultiPolygon","coordinates": [[[[78.6385,52.9893,121.1096],[78.6431,52.9948,118.8912],[78.6401,52.9979,117.6827],[78.6306,52.9991,120.276],[78.6229,52.9946,122.8839],[78.6278,52.988,123.1275],[78.6385,52.9893,121.1096]]]]}}