{"type":"Feature","properties":{"GID_3":"RUS.80.4.1_1","GID_0":"RUS","country":"Russia","GID_1":"RUS.80_1","province":"Yamal-Nenets","NL_NAME_1":"Ямало-НенецкийАОк","GID_2":"RUS.80.4_1","county":"Nadymskiyrayon","NL_NAME_2":"Надымскийрайон","city":"NA","VARNAME_3":"NA","NL_NAME_3":"NA","TYPE_3":"NA","ENGTYPE_3":"NA","CC_3":"NA","HASC_3":"NA","name":"N_A.city"},
"geometry":{"type": "MultiPolygon","coordinates": [[[[71.5665,63.4108,114.4642],[71.594,63.35,117.491],[71.6449,63.2751,127.8452],[71.6789,63.1968,135.7927],[71.7768,63.202,142.9699],[71.8923,63.2314,139.0205],[72.0887,63.2434,139.1988],[72.1639,63.2576,138.6993],[72.2197,63.2954,137.2571],[72.3101,63.2859,136.8328],[72.4351,63.2841,147.4657],[72.5693,63.2752,137.5175],[72.7483,63.2907,134.0045],[72.8857,63.3618,148.1555],[72.9338,63.4105,131.9762],[72.9898,63.4174,142.0497],[73.1524,63.4114,128.8405],[73.2148,63.4735,123.7572],[73.2557,63.5323,111.4282],[73.7002,63.7453,104.3398],[73.7534,63.809,108.0],[73.8159,63.8587,113.6107],[73.9094,63.872,109.8392],[74.1089,63.9231,125.2138],[74.1938,63.9619,125.0118],[74.269,64.0251,109.9812],[74.3613,64.1206,97.0356],[74.5233,64.2487,87.194],[74.6869,64.3572,82.8572],[74.8556,64.4109,79.4724],[75.0665,64.4569,88.6367],[75.2872,64.5003,80.2947],[75.4346,64.5416,74.6891],[75.4768,64.6049,92.8658],[75.5015,64.6526,86.5803],[75.5146,64.6954,76.6396],[75.5595,64.7241,73.7408],[75.6269,64.7711,70.3855],[75.7238,64.8316,75.8007],[75.857,64.9066,70.6522],[75.9739,64.9923,75.8786],[75.9815,65.065,81.4357],[75.9787,65.1264,80.2395],[75.9221,65.1646,79.1593],[75.8368,65.1828,81.349],[75.7269,65.2095,82.6417],[75.6456,65.2583,94.2197],[75.5951,65.3093,96.431],[75.42,65.4935,110.7954],[75.3857,65.5268,98.587],[75.3721,65.5635,112.8088],[75.4111,65.6078,111.2664],[75.4609,65.646,111.503],[75.591,65.7009,89.2578],[75.8423,65.7526,96.5258],[76.1288,65.8005,91.5015],[76.6603,65.9248,61.4148],[76.8449,66.0125,55.5126],[76.9044,66.0821,37.9865],[76.8788,66.1421,57.8399],[76.7823,66.1683,68.2309],[76.6436,66.1794,52.1785],[76.3318,66.1884,68.3095],[76.0865,66.2062,79.2142],[75.9477,66.2266,86.4574],[75.8497,66.2834,84.5719],[75.8476,66.3395,77.5],[75.8364,66.4819,58.0333],[75.8411,66.7623,56.7398],[75.7826,66.8588,65.0482],[75.889,66.9061,67.0176],[75.9742,66.955,67.6176],[76.2551,67.1291,44.7473],[76.5533,67.2833,27.4296],[76.5888,67.339,25.5604],[76.5551,67.409,16.1249],[76.5935,67.4378,9.2804],[76.6633,67.4604,10.8456],[76.7374,67.4651,9.0942],[76.8142,67.4613,9.5772],[76.9323,67.4489,7.7131],[77.0324,67.458,6.6962],[77.2307,67.4866,9.4559],[77.4227,67.5362,0.4321],[77.6378,67.6022,1.1754],[77.6292,67.6074,0.0],[77.6208,67.6062,0.3967],[77.6151,67.6088,0.2114],[77.6141,67.612,1.0521],[77.6068,67.6151,1.2112],[77.6078,67.6182,0.0],[77.6062,67.6188,0.0],[77.5984,67.6182,0.0743],[77.5932,67.6109,1.9689],[77.5875,67.6062,-0.0909],[77.5693,67.6068,0.4246],[77.5724,67.6141,0.2924],[77.5693,67.6162,0.7951],[77.5917,67.6188,-0.5547],[77.5995,67.6224,2.1466],[77.5964,67.6234,5.89],[77.5974,67.6266,0.0],[77.5859,67.6318,1.7992],[77.587,67.6349,0.0],[77.5714,67.6422,2.4118],[77.5703,67.6453,0.0],[77.563,67.6464,0.0],[77.5521,67.6521,0.0],[77.5458,67.6521,0.0],[77.5375,67.6563,0.0],[77.5125,67.6583,8.7783],[77.4896,67.6646,0.0],[77.4771,67.6646,0.0],[77.4729,67.6667,0.0],[77.4625,67.6667,0.0],[77.4583,67.6687,0.0],[77.4417,67.6687,8.7301],[77.4333,67.6729,0.0],[77.4229,67.6729,0.9346],[77.4187,67.675,0.0],[77.4021,67.675,12.5432],[77.4005,67.6755,11.1425],[77.4016,67.6787,0.0],[77.3896,67.6792,0.0],[77.3854,67.6833,0.0],[77.3604,67.6854,0.0],[77.3375,67.6917,0.0],[77.3313,67.6917,11.9239],[77.3255,67.6943,9.4702],[77.3266,67.6974,0.0],[77.3187,67.6979,2.7123],[77.3104,67.7021,0.0],[77.3026,67.7026,7.7447],[77.2984,67.7047,5.6139],[77.2995,67.7078,0.0],[77.2917,67.7083,4.9337],[77.2708,67.7167,0.0],[77.2646,67.7167,4.1706],[77.2521,67.7208,0.0],[77.2396,67.7208,5.9861],[77.2203,67.7286,0.0],[77.2125,67.7292,0.0],[77.2083,67.7312,0.0],[77.1979,67.7312,8.0164],[77.1833,67.7354,0.0],[77.1729,67.7354,6.3386],[77.1646,67.7396,0.0],[77.1568,67.7401,5.9887],[77.15,67.7438,0.0],[77.1354,67.7458,5.4024],[77.1271,67.75,0.0],[77.1193,67.7505,4.8938],[77.1162,67.7536,0.0],[77.087,67.7682,0.0],[77.0792,67.7688,1.7919],[77.0734,67.7714,3.9139],[77.075,67.775,0.0],[77.0714,67.7786,3.1951],[77.0787,67.7797,0.0],[77.0807,67.7849,1.2054],[77.0734,67.7901,7.4707],[77.0766,67.7953,0.0],[77.0693,67.7984,1.5624],[77.0693,67.8016,0.0],[77.0755,67.8099,6.9244],[77.0807,67.8109,0.0],[77.0859,67.8161,0.0],[77.0911,67.8172,0.0],[77.0933,67.8195,0.0],[77.0782,67.8164,9.8065],[77.0622,67.8085,13.1456],[77.0571,67.8024,10.766],[76.8747,67.7853,16.6428],[76.7163,67.7769,17.7264],[76.6112,67.7903,23.772],[76.5737,67.8026,10.7985],[76.4854,67.8037,26.6468],[76.4384,67.8205,29.5663],[76.3649,67.8724,20.9949],[76.2865,67.9237,32.8548],[76.1868,67.9281,29.187],[76.0241,67.941,17.38],[75.8672,67.9556,22.0186],[75.7395,67.99,22.2324],[75.6941,68.0275,28.623],[75.6807,68.0745,36.2357],[75.6304,68.1269,35.2127],[75.5266,68.1648,39.0762],[75.4167,68.2263,48.504],[75.5204,68.3022,52.9988],[75.5581,68.3272,48.7044],[75.5496,68.3612,54.0049],[75.5259,68.4206,56.5623],[75.51,68.485,34.4472],[75.5195,68.5324,64.5386],[75.521,68.5748,68.6036],[75.5893,68.5756,66.1891],[75.665,68.5639,43.3259],[75.7328,68.5313,63.4205],[75.8342,68.4888,25.6247],[75.8992,68.4559,25.3703],[75.9809,68.443,32.9118],[76.0763,68.4504,37.8446],[76.1808,68.4699,46.2589],[76.2622,68.5046,28.6797],[76.352,68.5365,41.4949],[76.4004,68.5782,30.0087],[76.43,68.6125,32.3984],[76.4378,68.6632,34.0677],[76.4183,68.7015,12.7035],[76.3643,68.7264,9.1722],[76.2816,68.7346,9.3517],[76.2138,68.7517,5.6434],[76.1871,68.7861,15.8088],[76.1314,68.8147,5.7895],[76.0559,68.8443,5.4371],[75.9793,68.8827,4.8196],[75.9812,68.8829,4.5434],[75.8785,68.9313,1.3276],[75.8729,68.9292,2.6442],[75.8479,68.9292,0.9243],[75.8438,68.9313,0.9478],[75.8354,68.9313,0.0],[75.8313,68.9292,1.1479],[75.8104,68.9292,0.2852],[75.8063,68.9271,1.5587],[75.8,68.9292,0.0],[75.7958,68.9271,1.2543],[75.7813,68.9271,0.0],[75.7542,68.9187,1.3402],[75.7354,68.9187,0.0],[75.7312,68.9167,0.9113],[75.7271,68.9167,0.0],[75.6792,68.9,1.3131],[75.6479,68.9,0.0],[75.6438,68.8979,0.8335],[75.6292,68.8979,0.0],[75.6276,68.8964,0.0],[75.6307,68.8943,1.422],[75.6292,68.8938,1.4025],[75.6229,68.8958,0.0],[75.6167,68.8938,1.6434],[75.6125,68.8958,0.0],[75.5583,68.8958,0.0],[75.5484,68.8922,0.8897],[75.5682,68.8891,1.5502],[75.5682,68.8859,1.3951],[75.5661,68.8839,1.2226],[75.5604,68.8833,1.3106],[75.5589,68.8818,1.108],[75.5667,68.8812,1.2608],[75.5682,68.8797,0.7822],[75.5583,68.8792,1.4041],[75.5557,68.8755,1.8081],[75.5458,68.8729,1.2799],[75.5375,68.8729,1.489],[75.5328,68.8693,1.665],[75.5214,68.8662,1.7041],[75.5286,68.862,0.6133],[75.5266,68.8588,1.2289],[75.5026,68.8578,1.3007],[75.5042,68.8562,2.1549],[75.512,68.856,1.7144],[75.512,68.8526,1.6007],[75.5078,68.8484,2.3806],[75.4964,68.8453,1.4546],[75.4896,68.8396,1.1469],[75.4755,68.8401,1.9008],[75.4766,68.8432,1.04],[75.4729,68.8458,1.6932],[75.4745,68.8516,0.9829],[75.463,68.8568,0.6203],[75.4641,68.8599,0.89],[75.4625,68.8604,0.9185],[75.4417,68.8583,0.9799],[75.4354,68.8542,1.1885],[75.4213,68.8544,1.4694],[75.4213,68.856,1.4348],[75.4313,68.8562,0.5173],[75.4328,68.8578,0.4966],[75.4213,68.863,1.3336],[75.4203,68.8662,1.298],[75.4146,68.8688,1.5057],[75.3854,68.8688,0.438],[75.3807,68.8651,1.3064],[75.3708,68.8646,0.3266],[75.3667,68.8625,1.2609],[75.3417,68.8625,1.4616],[75.3375,68.8646,0.526],[75.325,68.8646,1.5171],[75.3193,68.8672,1.2916],[75.3229,68.8708,0.519],[75.337,68.8693,0.8957],[75.3443,68.8786,1.1985],[75.3521,68.8812,1.8132],[75.3604,68.8812,0.311],[75.362,68.8828,1.5248],[75.3479,68.8833,0.0],[75.3438,68.8812,2.886],[75.3292,68.8812,0.0],[75.3167,68.8771,0.6618],[75.3083,68.8771,0.0],[75.2979,68.8729,-0.1958],[75.2771,68.8708,0.0],[75.2583,68.8646,3.1204],[75.2354,68.8625,0.0],[75.2188,68.8562,-0.0262],[75.2083,68.8562,0.0],[75.1979,68.8521,2.3459],[75.1896,68.8521,0.0],[75.1563,68.8417,3.4469],[75.1417,68.8417,0.0],[75.125,68.8354,1.5849],[75.1042,68.8354,0.0],[75.1,68.8333,2.7321],[75.0854,68.8333,0.0],[75.0813,68.8313,2.5526],[75.0667,68.8313,0.0],[75.0563,68.8271,2.5302],[75.0479,68.8271,0.0],[75.0354,68.8229,2.6541],[75.0146,68.8208,0.0],[75.0104,68.8187,3.8291],[74.9896,68.8187,0.0],[74.9854,68.8167,0.0],[74.9771,68.8167,0.0],[74.9729,68.8146,0.0],[74.9479,68.8146,0.0],[74.9354,68.8104,1.0857],[74.9146,68.8083,0.0],[74.9104,68.8063,-0.9463],[74.9021,68.8063,0.0],[74.8979,68.8042,1.1337],[74.8833,68.8042,0.0],[74.8792,68.8021,0.0],[74.8583,68.8,0.0],[74.8542,68.7979,2.1182],[74.8438,68.7979,0.0],[74.8396,68.7958,0.0],[74.8187,68.7937,0.0],[74.8083,68.7896,0.0],[74.7875,68.7875,0.0],[74.7833,68.7854,2.8533],[74.7729,68.7854,0.0],[74.7688,68.7833,0.0],[74.7604,68.7833,0.0],[74.75,68.7792,1.0901],[74.7292,68.7771,0.0],[74.7167,68.7729,3.8562],[74.7042,68.7729,0.0],[74.6979,68.7688,0.0],[74.6896,68.7688,0.0],[74.6771,68.7646,1.9933],[74.6687,68.7646,0.0],[74.6583,68.7604,4.9269],[74.65,68.7604,0.0],[74.6312,68.7542,10.7991],[74.6229,68.7542,0.0],[74.6042,68.7479,27.2735],[74.5958,68.7479,0.0],[74.5583,68.7354,19.1634],[74.538,68.7307,0.0],[74.537,68.7276,39.2934],[74.5172,68.7224,0.0],[74.5141,68.7193,8.5715],[74.5026,68.7161,0.0],[74.4995,68.713,0.0],[74.4859,68.7078,0.0],[74.4828,68.7026,21.1693],[74.4755,68.7016,0.0],[74.4745,68.6984,3.7781],[74.4724,68.6964,20.8525],[74.4672,68.6953,0.0],[74.462,68.688,6.199],[74.4568,68.687,0.0],[74.4479,68.6729,0.0],[74.4516,68.6693,25.5307],[74.4464,68.6682,0.0],[74.4422,68.6641,0.0],[74.4474,68.6609,10.6489],[74.4401,68.6495,0.0],[74.4437,68.6458,0.0],[74.4396,68.6396,0.0],[74.4474,68.6318,1.8028],[74.4417,68.6312,0.0],[74.4401,68.6297,0.0],[74.4453,68.6286,0.0],[74.4443,68.6255,0.0],[74.4479,68.6229,0.0],[74.4417,68.6125,0.0],[74.4453,68.6099,0.1569],[74.4417,68.6021,0.0],[74.4453,68.5984,0.0],[74.438,68.5974,0.0],[74.4432,68.5953,0.0],[74.4396,68.5896,0.0],[74.4432,68.5859,0.2698],[74.438,68.5849,0.0],[74.4359,68.5818,0.0],[74.4432,68.5766,0.8131],[74.4401,68.5693,0.0],[74.4474,68.5641,0.0],[74.4464,68.5609,0.0],[74.45,68.5583,0.0],[74.4484,68.5547,0.0],[74.4516,68.5537,0.0],[74.4526,68.5505,0.0],[74.4599,68.5453,0.0],[74.4589,68.5422,0.0],[74.4661,68.5391,0.0],[74.4672,68.5359,0.0],[74.4703,68.5349,0.0],[74.4693,68.5318,0.0],[74.4745,68.5307,0.0],[74.4693,68.5214,0.0],[74.4724,68.5203,0.0],[74.4734,68.5172,0.0],[74.4766,68.5151,9.8639],[74.4714,68.5141,0.0],[74.4693,68.512,0.0],[74.4729,68.5083,0.0],[74.4703,68.5047,0.0],[74.4651,68.5036,0.0],[74.463,68.5016,0.0],[74.4667,68.4979,9.3955],[74.4661,68.4964,0.0],[74.4609,68.4953,0.0],[74.4641,68.4922,0.0],[74.462,68.4901,5.399],[74.4568,68.4891,0.0],[74.4537,68.4838,0.0],[74.4464,68.4828,0.0],[74.4516,68.4797,0.0],[74.4443,68.4786,0.0],[74.4411,68.4714,0.0],[74.4339,68.4703,0.0],[74.4307,68.463,0.0],[74.4234,68.462,0.0],[74.4266,68.4589,0.0],[74.4213,68.4578,0.0],[74.4182,68.4526,0.0],[74.4047,68.4474,0.0],[74.3995,68.438,0.0],[74.3922,68.437,0.0],[74.3891,68.4297,0.0],[74.3818,68.4287,0.0],[74.3786,68.4234,0.0],[74.3734,68.4224,0.0],[74.3703,68.4172,0.0],[74.3682,68.4151,0.0],[74.363,68.4141,0.0],[74.3599,68.4089,0.0],[74.3547,68.4078,0.0],[74.3495,68.4026,0.0],[74.3443,68.4016,0.0],[74.3411,68.3943,0.0],[74.3339,68.3932,0.0],[74.3307,68.388,0.0],[74.3255,68.387,0.0],[74.3203,68.3776,0.0],[74.313,68.3766,0.0],[74.313,68.3734,0.0],[74.3161,68.3714,0.0],[74.3125,68.3646,0.0],[74.3161,68.362,0.0],[74.3151,68.3588,0.0],[74.3245,68.3578,0.0],[74.3609,68.3401,0.0],[74.3688,68.3396,0.0],[74.3807,68.3349,0.0],[74.4068,68.3214,0.0],[74.412,68.3203,0.0],[74.4109,68.3172,0.0],[74.4203,68.3161,0.0],[74.4193,68.313,0.0],[74.437,68.3057,0.0],[74.4359,68.3005,0.0],[74.4484,68.2943,0.0],[74.4563,68.2937,0.0],[74.4646,68.2896,0.0],[74.4708,68.2896,0.0],[74.475,68.2875,0.0],[74.4932,68.2849,0.0],[74.4922,68.2818,0.0],[74.5016,68.2807,0.0],[74.5005,68.2776,0.0],[74.5083,68.2771,0.0],[74.5151,68.2734,0.0],[74.5349,68.2682,0.0],[74.5609,68.2547,0.0],[74.5661,68.2536,0.0],[74.5651,68.2505,0.0],[74.5745,68.2495,2.2357],[74.5734,68.2464,0.0],[74.5911,68.2391,8.178],[74.5901,68.2359,0.0],[74.5974,68.2307,0.0],[74.5964,68.2276,0.0],[74.6099,68.2224,0.0],[74.6088,68.2193,0.0],[74.6162,68.2161,0.0],[74.6172,68.213,0.0],[74.6245,68.2099,0.0],[74.6234,68.2047,0.0],[74.6307,68.2016,0.0],[74.6318,68.1984,0.0],[74.6391,68.1953,0.0],[74.638,68.1922,0.0],[74.6432,68.1911,3.9129],[74.6422,68.188,0.0],[74.6458,68.1854,0.0],[74.6443,68.1818,0.0],[74.6516,68.1787,0.0],[74.6526,68.1755,0.0],[74.6599,68.1724,0.0],[74.6589,68.1693,0.0],[74.6625,68.1667,0.0],[74.6609,68.163,0.0],[74.6641,68.162,0.0],[74.6651,68.1589,0.0],[74.6766,68.1536,26.1299],[74.6776,68.1505,0.0],[74.6807,68.1495,19.0819],[74.6797,68.1443,0.0],[74.687,68.1412,0.0],[74.6859,68.138,0.0],[74.6953,68.1349,15.6862],[74.6922,68.1297,0.0],[74.6974,68.1286,0.0],[74.6964,68.1255,0.0],[74.6995,68.1245,0.0],[74.7005,68.1214,0.0],[74.7078,68.1182,0.0],[74.7068,68.1151,0.0],[74.7161,68.112,11.9473],[74.713,68.1068,0.0],[74.7224,68.1036,3.0271],[74.7214,68.0984,0.0],[74.7286,68.0953,0.0],[74.7271,68.0917,0.0],[74.7307,68.0891,0.4335],[74.7297,68.0839,0.0],[74.7328,68.0828,0.3609],[74.7318,68.0776,0.0],[74.7349,68.0766,2.0686],[74.7276,68.0734,0.0],[74.737,68.0703,-0.9117],[74.7359,68.0672,0.0],[74.7432,68.0641,1.2119],[74.7443,68.0609,0.0],[74.7557,68.0557,0.3906],[74.7568,68.0526,0.0],[74.7641,68.0516,0.556],[74.763,68.0463,0.0],[74.7724,68.0453,0.0],[74.7714,68.0422,0.0],[74.7807,68.0391,0.0],[74.7797,68.0359,0.0],[74.7911,68.0307,0.0],[74.7922,68.0276,0.0],[74.7995,68.0245,0.5585],[74.7984,68.0193,0.0],[74.8057,68.0162,1.0683],[74.8042,68.0104,0.0],[74.8078,68.0078,0.0],[74.8068,68.0047,0.0],[74.8099,68.0026,0.4041],[74.8047,68.0016,0.0],[74.8026,67.9984,0.0],[74.8099,67.9932,0.0],[74.8089,67.9901,0.0],[74.8141,67.9891,-0.019],[74.8109,67.9838,0.0],[74.8161,67.9828,1.9892],[74.8109,67.9734,0.0],[74.8141,67.9724,0.0],[74.813,67.9672,0.0],[74.8203,67.962,1.2148],[74.8151,67.9589,0.0],[74.8182,67.9578,0.0],[74.8172,67.9547,0.0],[74.8208,67.9521,4.2482],[74.8167,67.9437,0.0],[74.8203,67.9401,0.0],[74.813,67.9391,0.0],[74.8182,67.937,0.0],[74.8146,67.9313,0.0],[74.8182,67.9276,0.0],[74.8125,67.9167,0.0],[74.8161,67.913,1.7946],[74.8109,67.912,0.0],[74.8089,67.9099,0.0],[74.812,67.9078,0.0],[74.8109,67.9026,0.0],[74.8141,67.9005,0.0],[74.8089,67.8995,0.0],[74.812,67.8974,0.0],[74.8099,67.8922,0.0],[74.8047,67.8912,0.0],[74.8078,67.8891,0.0],[74.8068,67.8839,0.0],[74.8099,67.8818,0.0],[74.8026,67.8776,0.0],[74.8057,67.8766,0.0],[74.8042,67.8729,0.0],[74.8078,67.8693,0.0],[74.8026,67.8682,0.0],[74.8005,67.8662,0.0],[74.8042,67.8625,0.0],[74.8026,67.8588,0.0],[74.8057,67.8568,0.0],[74.8005,67.8557,0.0],[74.8,67.8542,0.0],[74.8037,67.8516,0.0],[74.8021,67.8479,0.0],[74.8057,67.8443,21.1148],[74.7984,67.8432,0.0],[74.7943,67.8349,0.0],[74.7979,67.8313,0.0],[74.7953,67.8255,0.0],[74.788,67.8245,0.0],[74.7932,67.8224,0.0],[74.7901,67.8172,0.0],[74.7953,67.8161,2.6032],[74.7932,67.813,0.0],[74.788,67.812,0.0],[74.7911,67.8089,0.0],[74.7859,67.7995,0.0],[74.7896,67.7958,0.0],[74.788,67.7922,0.0],[74.7917,67.7896,0.0],[74.7901,67.7859,0.0],[74.7937,67.7833,0.0838],[74.7875,67.7729,0.0],[74.7911,67.7693,0.0],[74.7859,67.7589,0.0],[74.7896,67.7562,0.352],[74.7891,67.7547,0.4742],[74.7839,67.7536,0.0],[74.7797,67.7495,0.0],[74.7724,67.7338,0.0],[74.7651,67.7328,0.0],[74.7604,67.7229,0.0],[74.7641,67.7193,0.6268],[74.762,67.7151,0.0],[74.7568,67.7141,0.0],[74.7599,67.712,0.0],[74.7578,67.7068,0.0],[74.7516,67.6984,0.0],[74.7464,67.6974,0.0],[74.7432,67.6901,0.0],[74.737,67.6818,1.9543],[74.7276,67.6807,0.0],[74.7224,67.6734,1.3088],[74.7089,67.6682,0.0],[74.7057,67.663,1.7454],[74.6943,67.6599,0.0],[74.6828,67.6526,0.0],[74.6776,67.6516,0.0],[74.6766,67.6484,1.1984],[74.6693,67.6474,0.0],[74.6682,67.6443,0.0],[74.663,67.6432,0.0],[74.6516,67.6359,0.1749],[74.6464,67.6349,0.0],[74.6453,67.6318,3.7803],[74.6339,67.6307,0.0],[74.6307,67.6255,3.2188],[74.6193,67.6245,0.0],[74.6182,67.6214,0.0],[74.6047,67.6182,0.0],[74.6021,67.6146,0.0],[74.5922,67.6141,0.0],[74.5891,67.6109,0.0],[74.5776,67.6078,0.0],[74.5766,67.6047,4.6368],[74.5708,67.6042,0.0],[74.5505,67.5974,0.0],[74.5458,67.5938,0.0],[74.538,67.5932,0.0],[74.5349,67.588,18.991],[74.525,67.5875,0.0],[74.5188,67.5833,0.0],[74.5089,67.5828,0.0],[74.5057,67.5776,11.8985],[74.4964,67.5766,0.0],[74.4917,67.5729,15.5161],[74.4818,67.5724,0.0],[74.4807,67.5693,0.0],[74.4693,67.5661,0.0],[74.4661,67.563,6.2562],[74.4563,67.5625,0.0],[74.4484,67.5599,0.0],[74.4474,67.5568,10.6897],[74.4417,67.5563,0.0],[74.4,67.5417,0.0],[74.3943,67.5411,0.0],[74.3917,67.5375,12.2312],[74.3818,67.537,0.0],[74.3792,67.5333,16.5111],[74.3708,67.5333,0.0],[74.3646,67.5292,2.1921],[74.3484,67.5266,0.0],[74.3474,67.5234,0.0],[74.3214,67.5162,0.0],[74.3203,67.513,0.0],[74.288,67.5036,0.0],[74.287,67.5005,0.0],[74.2672,67.4953,0.0],[74.2662,67.4922,14.0518],[74.2214,67.4786,0.0],[74.2182,67.4755,0.0],[74.2104,67.475,0.0],[74.2026,67.4724,0.0],[74.1974,67.4672,0.0],[74.1464,67.4495,0.0],[74.1453,67.4464,0.0],[74.1318,67.4432,0.0],[74.1307,67.4401,0.7224],[74.1193,67.437,0.0],[74.1162,67.4318,0.0],[74.1088,67.4307,0.0],[74.1078,67.4276,0.0],[74.1026,67.4266,0.0],[74.1005,67.4245,0.0],[74.0974,67.4193,0.0],[74.0922,67.4182,0.0],[74.0911,67.4151,0.0],[74.0859,67.4141,0.0],[74.0787,67.4026,0.0],[74.0651,67.3974,0.0],[74.0682,67.3943,0.0],[74.063,67.3932,0.0],[74.0578,67.3818,0.0],[74.0526,67.3807,0.0],[74.0557,67.3776,1.1853],[74.0505,67.3766,0.0],[74.0453,67.3693,0.0],[74.0401,67.3682,0.0],[74.0349,67.3568,0.6164],[74.0297,67.3557,0.0],[74.0224,67.3443,0.637],[74.0172,67.3432,0.0],[74.0141,67.338,0.5666],[74.0089,67.337,0.0],[74.0036,67.3297,0.0],[73.9984,67.3287,0.0],[73.9974,67.3255,0.0],[73.9953,67.3234,0.0],[73.9901,67.3224,0.0],[73.987,67.3172,0.0],[73.9818,67.3161,0.0],[73.9807,67.313,0.0],[73.975,67.3125,0.0],[73.9458,67.3021,0.0],[73.9375,67.3021,0.0],[73.9234,67.2974,0.0],[73.9141,67.2776,0.0],[73.912,67.2755,0.0],[73.9068,67.2745,0.0],[73.9104,67.2708,0.0],[73.9089,67.2651,0.0],[73.9125,67.2625,0.0],[73.9104,67.2583,0.0],[73.9141,67.2557,0.0],[73.913,67.2526,0.0],[73.9203,67.2474,0.2848],[73.9193,67.2443,0.0],[73.9328,67.2391,1.9338],[73.9318,67.2359,0.0],[73.9391,67.2328,0.8497],[73.9339,67.2297,0.0],[73.9411,67.2266,0.0],[73.9396,67.2208,0.0],[73.9432,67.2182,0.0],[73.9422,67.213,0.0],[73.9495,67.2099,0.0],[73.9484,67.2047,0.0],[73.9521,67.2021,0.0],[73.9505,67.1984,0.0],[73.9542,67.1958,0.0],[73.9537,67.1943,0.0],[73.9484,67.1932,0.0],[73.9464,67.1911,0.0],[73.9516,67.1891,0.0],[73.9458,67.1771,0.0],[73.9495,67.1734,29.5765],[73.9359,67.1682,0.0],[73.9328,67.1609,0.0],[73.9307,67.1589,0.0],[73.9255,67.1578,0.0],[73.9203,67.1464,0.0],[73.9182,67.1443,0.0],[73.913,67.1432,0.0],[73.913,67.1401,0.0],[73.9203,67.1359,0.0],[73.9161,67.1276,2.088],[73.9109,67.1266,0.0],[73.9089,67.1245,0.0],[73.9026,67.112,0.0],[73.9063,67.1083,0.0],[73.9047,67.1026,0.0],[73.912,67.0974,0.0],[73.9109,67.0943,0.0],[73.9182,67.0911,0.0],[73.9193,67.088,0.0],[73.9224,67.087,0.9519],[73.9208,67.0833,0.0],[73.9245,67.0807,0.6065],[73.9234,67.0755,0.0],[73.9266,67.0734,1.4169],[73.9213,67.0724,0.0],[73.9182,67.0651,0.0],[73.913,67.0641,0.0],[73.9099,67.0609,0.0],[73.8958,67.0563,0.0],[73.8771,67.0542,0.0],[73.8734,67.0516,0.0],[73.8708,67.0458,0.0],[73.875,67.0417,0.8286],[73.8729,67.0375,0.0],[73.8766,67.0349,1.1128],[73.8755,67.0318,0.0],[73.8792,67.0292,0.7157],[73.8786,67.0276,1.2522],[73.8734,67.0255,0.0],[73.8807,67.0224,0.8768],[73.8797,67.0172,0.0],[73.8833,67.0146,0.4831],[73.8766,67.0005,0.0],[73.863,66.9953,0.0],[73.862,66.9922,0.0],[73.8568,66.9912,0.0],[73.8536,66.988,9.014],[73.8109,66.9745,0.0],[73.8078,66.9714,0.0],[73.7937,66.9667,0.0],[73.7875,66.9667,0.0],[73.7828,66.963,0.0],[73.775,66.9625,0.0],[73.7583,66.9563,0.0],[73.75,66.9563,0.0],[73.7396,66.9521,0.0],[73.7312,66.9521,0.0],[73.7208,66.9479,0.0],[73.7021,66.9458,0.0],[73.6917,66.9417,0.0],[73.6729,66.9396,0.0],[73.6583,66.9354,2.4618],[73.6396,66.9354,0.0],[73.6354,66.9333,1.3348],[73.6271,66.9333,0.0],[73.6193,66.9307,0.0],[73.6182,66.9276,0.0],[73.6068,66.9266,0.0],[73.6104,66.9229,0.0],[73.6088,66.9172,0.0],[73.6125,66.9146,0.0],[73.6078,66.9047,0.0],[73.6057,66.9026,0.0],[73.6005,66.9016,0.0],[73.5953,66.8922,0.0],[73.5901,66.8912,0.0],[73.5891,66.888,0.0],[73.5839,66.887,0.0],[73.5807,66.8818,4.5764],[73.5693,66.8786,0.0],[73.5661,66.8714,1.8433],[73.5609,66.8703,0.0],[73.5589,66.8682,0.0],[73.5589,66.8651,0.0],[73.562,66.8641,0.0],[73.5609,66.8609,0.0],[73.5641,66.8588,1.3207],[73.5589,66.8578,0.0],[73.5557,66.8505,0.0],[73.5318,66.8432,0.0],[73.5349,66.8401,0.0],[73.5234,66.837,0.0],[73.5224,66.8339,0.3289],[73.5109,66.8307,0.0],[73.5062,66.8271,0.5894],[73.5,66.8271,0.0],[73.4896,66.8229,1.2419],[73.4812,66.8229,0.0],[73.4604,66.8167,0.0],[73.4521,66.8167,0.0],[73.4354,66.8104,1.2121],[73.4167,66.8083,0.0],[73.4,66.8021,1.3116],[73.3812,66.8,0.0],[73.3771,66.7979,2.5146],[73.3688,66.7979,0.0],[73.3583,66.7937,19.1146],[73.3458,66.7937,0.0],[73.325,66.7875,23.5434],[73.3125,66.7875,0.0],[73.3083,66.7854,9.9625],[73.3,66.7854,0.0],[73.2854,66.7813,0.0],[73.2771,66.7813,0.0],[73.2625,66.7771,0.0],[73.2542,66.7771,0.0],[73.2312,66.7688,0.0],[73.225,66.7688,0.0],[73.2146,66.7646,0.0],[73.1958,66.7625,0.0],[73.1854,66.7583,0.0],[73.1729,66.7583,0.0],[73.1563,66.7521,0.0],[73.1479,66.7521,0.0],[73.1333,66.7479,24.335],[73.125,66.7479,0.0],[73.1104,66.7438,0.0],[73.1021,66.7438,0.0],[73.0875,66.7396,0.0],[73.075,66.7396,0.0],[73.0646,66.7354,19.0275],[73.0563,66.7354,0.0],[73.0521,66.7333,0.0],[73.0396,66.7333,0.0],[73.0292,66.7292,0.0],[73.0214,66.7286,0.0],[73.0167,66.725,0.0],[73.0104,66.725,0.0],[73.0026,66.7224,0.0],[73.0,66.7188,0.0],[72.9901,66.7182,0.0],[72.987,66.713,0.0],[72.9818,66.712,0.0],[72.9807,66.7089,0.0],[72.9755,66.7078,0.0],[72.9734,66.7057,0.0],[72.9734,66.7026,0.0],[72.9771,66.7,0.0],[72.9755,66.6943,0.0],[72.9828,66.6911,1.4333],[72.9812,66.6854,0.0],[72.9849,66.6828,0.0],[72.9776,66.6787,0.0],[72.9766,66.6734,0.0],[72.9745,66.6713,0.0],[72.9542,66.6646,0.3829],[72.9464,66.6641,0.0],[72.9417,66.6604,0.0],[72.9292,66.6604,0.0],[72.9213,66.6578,0.0],[72.9193,66.6505,0.0],[72.9287,66.6495,0.5512],[72.9276,66.6464,0.0],[72.9396,66.6458,1.3579],[72.95,66.6417,0.0],[72.9557,66.6412,0.0],[72.9542,66.6396,0.0],[72.9464,66.6391,0.0],[72.9417,66.6354,0.0],[72.9229,66.6438,0.4262],[72.8958,66.6438,0.0],[72.8625,66.6312,0.3672],[72.8542,66.6312,0.0],[72.8396,66.6271,0.0],[72.8271,66.6271,0.0],[72.8229,66.625,0.0],[72.8167,66.6271,0.0],[72.8125,66.625,0.0],[72.7625,66.625,0.0],[72.7583,66.6229,20.4475],[72.725,66.6229,0.0],[72.7208,66.6208,20.7904],[72.6917,66.6208,0.0],[72.6875,66.6188,0.0],[72.6708,66.6188,0.0],[72.6667,66.6167,14.1144],[72.6438,66.6167,0.0],[72.6333,66.6125,22.4843],[72.5938,66.6104,0.0],[72.5833,66.6062,12.2916],[72.5646,66.6042,0.0],[72.5604,66.6021,4.9931],[72.5437,66.6021,0.0],[72.5396,66.6,0.0],[72.5271,66.6,0.0],[72.5229,66.5979,2.4365],[72.4938,66.5979,0.0],[72.4896,66.5958,0.0],[72.4833,66.5979,0.0],[72.4792,66.5958,0.0],[72.4651,66.5953,0.0],[72.4745,66.5922,0.0],[72.4661,66.5859,0.0],[72.4609,66.5849,0.0],[72.4641,66.5818,0.667],[72.4589,66.5807,0.0],[72.4578,66.5776,0.0],[72.4526,66.5766,0.0],[72.4474,66.5651,0.0],[72.4422,66.5641,0.0],[72.4453,66.5609,0.9689],[72.4401,66.5599,0.0],[72.4391,66.5547,1.7452],[72.437,66.5526,2.1389],[72.4318,66.5516,0.0],[72.4287,66.5422,2.7881],[72.4172,66.5411,0.0],[72.4141,66.5339,0.0],[72.4026,66.5307,0.0],[72.3995,66.5255,1.3709],[72.375,66.5167,0.0],[72.3667,66.5167,0.0],[72.3458,66.5104,3.3406],[72.3151,66.5057,0.0],[72.312,66.5026,0.4377],[72.3068,66.5016,0.0],[72.3057,66.4964,2.2466],[72.3005,66.4953,0.0],[72.2984,66.4932,0.0],[72.3037,66.4912,0.982],[72.3026,66.4859,0.0],[72.3099,66.4828,0.0],[72.3109,66.4797,0.0],[72.3182,66.4766,0.0],[72.3172,66.4734,0.0],[72.3307,66.4682,0.0],[72.3297,66.4651,0.0],[72.3328,66.4641,0.0],[72.3354,66.4604,0.0],[72.3479,66.4604,0.0],[72.3495,66.462,0.0],[72.3443,66.463,0.8281],[72.3453,66.4661,0.0],[72.3422,66.4672,0.0],[72.3411,66.4703,0.0],[72.3339,66.4714,0.6221],[72.3333,66.475,0.0],[72.3349,66.4786,0.0],[72.3271,66.4792,0.0],[72.3214,66.4818,0.0],[72.3224,66.487,0.0],[72.3193,66.4891,2.6382],[72.3245,66.4901,0.0],[72.3255,66.4932,0.0],[72.3307,66.4943,0.0],[72.3318,66.4974,0.0],[72.337,66.4984,0.0],[72.3443,66.5036,0.391],[72.3521,66.5042,0.7653],[72.3708,66.4958,0.0],[72.3828,66.4953,0.0],[72.3953,66.4891,0.0],[72.3938,66.4833,0.0],[72.3974,66.4807,0.7074],[72.3974,66.4776,1.0904],[72.3833,66.4708,2.5114],[72.375,66.4708,0.0],[72.3708,66.4688,0.0],[72.363,66.4682,0.951],[72.3609,66.4661,0.0],[72.3547,66.4484,0.0],[72.362,66.4453,19.2829],[72.363,66.4422,0.0],[72.3703,66.4391,29.9348],[72.3651,66.4359,0.0],[72.3745,66.4349,34.6581],[72.3693,66.4318,0.0],[72.3766,66.4287,1.4205],[72.3776,66.4255,0.0],[72.3807,66.4245,6.3057],[72.3797,66.4193,0.0],[72.3891,66.4182,19.7442],[72.388,66.413,0.0],[72.3953,66.4099,1.6249],[72.3943,66.4047,0.0],[72.3995,66.4036,4.7081],[72.3984,66.4005,0.0],[72.4016,66.3995,8.7163],[72.4005,66.3901,0.0],[72.4078,66.387,16.9577],[72.4047,66.3786,0.0],[72.4083,66.375,0.0],[72.4057,66.3672,0.6309],[72.3943,66.363,0.0],[72.412,66.3599,-0.081],[72.4167,66.3562,0.0],[72.4161,66.3547,0.2852],[72.4109,66.3526,0.0],[72.4187,66.3521,-1.3565],[72.4203,66.3505,-0.7797],[72.3958,66.35,0.0],[72.3922,66.3474,0.0],[72.3912,66.3443,0.0],[72.3875,66.3438,0.8025],[72.3818,66.3464,1.0039],[72.3828,66.3495,0.0],[72.3812,66.35,0.0],[72.3708,66.35,1.2125],[72.3667,66.3521,0.0],[72.3604,66.3521,0.0],[72.3526,66.3495,1.3234],[72.3432,66.3422,0.0],[72.338,66.3411,0.0],[72.3359,66.3339,0.0],[72.3396,66.3333,0.0],[72.3411,66.3339,0.0],[72.3422,66.3391,1.0432],[72.3438,66.3396,0.9518],[72.3521,66.3396,0.0],[72.3625,66.3438,0.0],[72.3729,66.3438,0.0],[72.375,66.3417,0.0],[72.3734,66.3359,0.0],[72.3812,66.3354,0.4019],[72.387,66.3318,0.0],[72.3828,66.3255,0.6271],[72.3734,66.3224,0.0],[72.3703,66.3172,1.2152],[72.3588,66.3141,0.0],[72.3557,66.3089,1.231],[72.3495,66.3047,1.745],[72.3443,66.3037,0.0],[72.3432,66.3005,1.309],[72.3318,66.2974,0.0],[72.3307,66.2943,2.0047],[72.3167,66.2896,0.0],[72.3089,66.2901,0.0],[72.3203,66.2943,0.0],[72.3214,66.2974,0.0],[72.3266,66.2984,0.0],[72.325,66.3,0.0],[72.3146,66.3,0.0],[72.3099,66.2963,0.0],[72.3021,66.2937,0.5163],[72.2958,66.2937,0.5696],[72.2813,66.2896,1.0434],[72.2729,66.2896,0.0],[72.2589,66.2849,0.0],[72.2464,66.2786,0.9251],[72.2464,66.2755,0.0],[72.2495,66.2745,1.0735],[72.2495,66.2714,1.3635],[72.2417,66.2708,0.0],[72.2375,66.2729,0.0],[72.225,66.2729,0.0],[72.2172,66.2703,0.0],[72.2161,66.2651,1.1499],[72.2109,66.2641,0.0],[72.2089,66.262,0.0],[72.2089,66.2568,0.0],[72.212,66.2547,0.0],[72.2083,66.2521,1.5144],[72.2042,66.2542,0.0],[72.1917,66.2542,0.0],[72.1875,66.2521,0.0],[72.1667,66.2521,0.0],[72.1604,66.2479,1.2265],[72.1563,66.25,0.0],[72.1526,66.2495,0.0],[72.1516,66.2464,0.0],[72.1479,66.2438,0.0],[72.1375,66.2458,0.0],[72.1349,66.2422,0.5476],[72.1271,66.2396,0.0],[72.1208,66.2417,0.0],[72.1146,66.2417,0.0],[72.1068,66.2391,0.0],[72.1068,66.2359,0.0],[72.1099,66.2338,0.0],[72.1005,66.2328,1.7891],[72.0979,66.2292,1.0221],[72.088,66.2286,0.0],[72.0911,66.2255,0.0],[72.0859,66.2245,0.0],[72.0833,66.2167,0.0],[72.0839,66.2151,1.2867],[72.0911,66.212,1.8557],[72.0901,66.2068,0.0],[72.0979,66.2063,0.0],[72.1036,66.2037,0.0],[72.0984,66.2016,0.0],[72.1016,66.1995,0.0],[72.1016,66.1964,0.0],[72.0922,66.1964,0.0],[72.0932,66.2016,0.0],[72.0859,66.2047,2.0388],[72.0849,66.2078,0.0],[72.0734,66.213,1.8526],[72.0724,66.2161,0.0],[72.0693,66.2172,2.3799],[72.0703,66.2224,0.0],[72.0651,66.2234,2.7098],[72.0661,66.2286,0.0],[72.063,66.2297,1.2379],[72.0661,66.2391,0.0],[72.0604,66.2417,0.0],[72.0463,66.2391,0.0],[72.0432,66.2359,0.0],[72.038,66.2349,0.0],[72.0354,66.2312,0.0],[72.0313,66.2333,0.0],[72.0208,66.2333,0.0],[72.0167,66.2354,1.6318],[72.0104,66.2354,1.0885],[72.0026,66.2328,0.0],[71.9979,66.2229,0.0],[71.9984,66.2193,1.4956],[72.0016,66.2172,0.8872],[71.9964,66.2161,0.0],[71.9917,66.2104,0.0],[71.9854,66.2167,0.0],[71.9896,66.2271,0.0],[71.9891,66.2307,0.0],[71.9859,66.2318,1.1568],[71.988,66.2391,0.0],[71.9979,66.2438,0.0],[72.0057,66.2443,0.0],[72.0057,66.2474,0.0],[71.9875,66.2479,0.0],[71.9849,66.2443,0.0],[71.9771,66.2438,0.0],[71.9729,66.2458,0.0],[71.9651,66.2464,0.9016],[71.9661,66.2495,0.8426],[71.9646,66.25,0.0],[71.9521,66.25,0.0],[71.9432,66.2443,1.0441],[71.9354,66.2458,0.0],[71.9313,66.2417,1.4275],[71.925,66.2438,0.0],[71.9224,66.2401,0.0],[71.9146,66.2375,3.2021],[71.9083,66.2375,2.6732],[71.9042,66.2396,0.0],[71.8917,66.2396,0.0],[71.8875,66.2375,1.8163],[71.8833,66.2396,0.0],[71.8771,66.2375,3.0126],[71.8729,66.2396,0.0],[71.8667,66.2396,0.0],[71.8625,66.2375,1.8687],[71.85,66.2375,1.4263],[71.8458,66.2396,0.0],[71.8396,66.2396,0.0],[71.8354,66.2375,1.0583],[71.8146,66.2375,2.0121],[71.8104,66.2354,3.4191],[71.8042,66.2354,3.2829],[71.7984,66.238,0.0],[71.7974,66.2412,0.0],[71.7896,66.2417,1.1838],[71.7797,66.2464,2.1569],[71.7786,66.2495,0.0],[71.7651,66.2505,0.0],[71.7662,66.2536,0.0],[71.7589,66.2568,0.6102],[71.7583,66.2604,0.9337],[71.7599,66.2641,0.0],[71.7547,66.2651,1.1622],[71.7557,66.2682,0.0],[71.7526,66.2693,0.0],[71.7516,66.2745,0.7191],[71.7484,66.2755,1.1493],[71.7495,66.2786,0.0],[71.7464,66.2797,1.3771],[71.7453,66.2849,0.0],[71.7422,66.2859,0.0],[71.7432,66.2891,0.0],[71.738,66.2901,0.0],[71.7255,66.2963,0.0],[71.7229,66.3,0.0],[71.7167,66.2979,12.7772],[71.7042,66.3042,0.0],[71.6937,66.3042,0.0],[71.6896,66.3063,0.0],[71.675,66.3063,0.0],[71.6672,66.3089,0.0],[71.6682,66.312,0.0],[71.6667,66.3125,0.0],[71.6563,66.3125,0.0],[71.6521,66.3146,0.0],[71.6417,66.3146,0.0],[71.6375,66.3167,0.0],[71.6208,66.3167,2.2661],[71.6167,66.3187,0.0],[71.575,66.3187,0.0],[71.5708,66.3167,0.0],[71.5646,66.3167,0.0],[71.55,66.3229,0.0],[71.5458,66.3229,0.0],[71.5417,66.325,0.0],[71.5313,66.325,0.0],[71.5125,66.3313,0.0],[71.4958,66.3313,0.0],[71.4917,66.3333,0.0],[71.4771,66.3333,0.0],[71.4729,66.3354,0.0],[71.45,66.3354,15.9577],[71.4458,66.3375,0.0],[71.4313,66.3375,0.0],[71.4271,66.3396,0.0],[71.4063,66.3396,0.0],[71.4021,66.3417,0.0],[71.3708,66.3417,8.0876],[71.3667,66.3438,0.0],[71.35,66.3438,0.0],[71.3458,66.3458,0.0],[71.3146,66.3458,18.5201],[71.3104,66.3479,0.0],[71.2833,66.3479,12.0062],[71.2792,66.35,0.0],[71.2333,66.35,25.0715],[71.2292,66.3521,0.0],[71.1333,66.3521,0.0],[71.1292,66.35,1.8644],[71.1125,66.35,0.0],[71.1083,66.3479,5.1097],[71.1042,66.35,0.0],[71.0458,66.3479,0.0],[71.0396,66.35,0.0],[71.0354,66.3479,1.7872],[71.0208,66.3521,0.0],[71.0146,66.3521,0.0],[71.0021,66.3562,1.4362],[70.9854,66.3562,0.0],[70.9812,66.3542,1.5211],[70.9583,66.3542,0.0],[70.9542,66.3521,1.156],[70.9146,66.35,0.0],[70.9104,66.3479,21.6726],[70.9063,66.35,0.0],[70.8646,66.35,0.7985],[70.8604,66.3521,0.0],[70.8542,66.3521,0.0],[70.85,66.35,1.1007],[70.8271,66.35,0.0],[70.8167,66.3458,3.8136],[70.8104,66.3479,0.0],[70.8063,66.3458,0.0],[70.7937,66.3458,0.0],[70.7896,66.3438,0.0],[70.7625,66.3438,0.0],[70.7583,66.3417,0.0],[70.7521,66.3438,0.0],[70.7479,66.3417,0.0],[70.7354,66.3417,0.0],[70.7312,66.3396,0.0],[70.7104,66.3396,0.0],[70.7063,66.3375,26.7233],[70.6937,66.3375,0.0],[70.6896,66.3354,24.8769],[70.6396,66.3354,0.0],[70.6354,66.3333,0.0],[70.625,66.3333,0.0],[70.6208,66.3313,2.6437],[70.6146,66.3313,0.0],[70.6104,66.3333,0.0],[70.6,66.3333,0.0],[70.5958,66.3354,0.0],[70.5896,66.3333,25.5298],[70.5833,66.3333,26.7728],[70.5792,66.3354,0.0],[70.5687,66.3354,0.0],[70.5646,66.3333,15.8175],[70.5313,66.3333,0.0],[70.5271,66.3313,0.0],[70.5208,66.3333,0.0],[70.4896,66.3333,0.0],[70.4854,66.3313,0.0],[70.4688,66.3313,0.0],[70.4625,66.3333,0.0],[70.4583,66.3313,0.0],[70.4167,66.3313,0.0],[70.4125,66.3292,0.0],[70.4089,66.3297,0.0],[70.4099,66.3328,0.0],[70.4083,66.3333,0.0],[70.3958,66.3333,0.0],[70.3917,66.3292,0.0],[70.3792,66.3292,2.537],[70.3708,66.3333,0.0],[70.3604,66.3333,1.5486],[70.3562,66.3354,0.0],[70.3458,66.3354,3.9787],[70.3417,66.3375,0.0],[70.3313,66.3375,7.3063],[70.3271,66.3417,0.0],[70.3104,66.3417,25.5374],[70.3089,66.3422,32.3364],[70.3099,66.3453,0.0],[70.3083,66.3458,0.0],[70.3021,66.3458,0.0],[70.2979,66.3479,0.0],[70.2875,66.3479,15.6101],[70.2792,66.3521,0.0],[70.2625,66.3521,33.2991],[70.2396,66.3583,0.0],[70.1646,66.3583,0.0],[70.163,66.3588,0.0],[70.1641,66.362,0.0],[70.1563,66.3625,3.0074],[70.1479,66.3667,0.0],[70.1401,66.3672,9.9314],[70.125,66.375,0.0],[70.1125,66.375,6.1856],[70.1,66.3792,0.0],[70.0938,66.3792,26.0123],[70.0896,66.3812,0.0],[70.075,66.3833,0.0],[70.0708,66.3854,0.0],[70.0437,66.3854,36.6798],[70.0396,66.3875,0.0],[70.0292,66.3875,5.4508],[70.025,66.3896,0.0],[69.9979,66.3896,8.4033],[69.9833,66.3938,0.0],[69.9771,66.3917,17.5688],[69.9729,66.3938,0.0],[69.9417,66.3938,3.4684],[69.9292,66.3979,0.0],[69.9125,66.4,0.0],[69.9104,66.4021,0.0],[69.913,66.4078,0.0],[69.9182,66.4089,0.0],[69.9151,66.4109,0.0],[69.9141,66.4141,0.0],[69.9063,66.4146,0.0],[69.9021,66.4167,0.0],[69.8901,66.4172,0.0],[69.8912,66.4224,0.0],[69.8896,66.4229,0.0],[69.8771,66.4229,0.0],[69.8745,66.4193,0.0],[69.8693,66.4193,0.0],[69.8703,66.4224,0.0],[69.8609,66.4234,2.2872],[69.8604,66.4271,0.0],[69.862,66.4307,0.0],[69.8526,66.4318,2.4014],[69.8516,66.4349,0.0],[69.8484,66.4359,2.6591],[69.8536,66.438,0.0],[69.8542,66.4396,0.0],[69.8505,66.4422,0.0],[69.8495,66.4453,0.0],[69.8438,66.4479,0.0],[69.8359,66.4484,3.4049],[69.825,66.4542,0.0],[69.8187,66.4542,8.2996],[69.7958,66.4604,0.0],[69.7792,66.4604,20.8279],[69.775,66.4625,0.0],[69.7688,66.4625,26.9067],[69.7646,66.4646,0.0],[69.7542,66.4646,18.3764],[69.7396,66.4688,0.0],[69.7146,66.4688,12.6954],[69.7104,66.4708,0.0],[69.6625,66.4729,23.053],[69.6583,66.475,0.0],[69.6479,66.475,12.6425],[69.6438,66.4771,0.0],[69.6229,66.4771,19.9821],[69.6188,66.4792,0.0],[69.5813,66.4812,31.5932],[69.5771,66.4833,0.0],[69.5667,66.4833,0.0],[69.5625,66.4854,0.0],[69.5313,66.4854,30.2293],[69.5271,66.4875,0.0],[69.5062,66.4875,16.1959],[69.5,66.4896,0.0],[69.4958,66.4875,15.6338],[69.4729,66.4875,0.0],[69.4688,66.4854,5.7676],[69.4646,66.4875,0.0],[69.4583,66.4854,3.5212],[69.4521,66.4875,0.0],[69.4479,66.4854,3.3184],[69.4375,66.4896,0.0],[69.4271,66.4896,2.2516],[69.4245,66.4932,0.0],[69.4203,66.4953,0.0],[69.413,66.4964,0.0],[69.412,66.4995,0.0],[69.4,66.5,21.1903],[69.3854,66.5062,0.0],[69.3776,66.5068,18.7665],[69.3786,66.5099,0.0],[69.3708,66.5104,29.0106],[69.3625,66.5146,0.0],[69.3547,66.5151,31.7295],[69.3505,66.5172,25.8238],[69.3495,66.5203,0.0],[69.3401,66.5214,19.4873],[69.312,66.5349,0.0],[69.3026,66.5359,44.0702],[69.3016,66.5391,0.0],[69.2943,66.5401,22.3639],[69.2813,66.5458,0.0],[69.2734,66.5463,18.1315],[69.2453,66.5599,0.0],[69.2359,66.5609,37.917],[69.2349,66.5641,0.0],[69.2224,66.5703,0.0],[69.2068,66.5714,23.2986],[69.2078,66.5745,0.0],[69.2,66.575,6.8742],[69.1943,66.5776,7.9957],[69.1932,66.5807,0.0],[69.1839,66.5818,12.4486],[69.1891,66.5849,0.0],[69.1818,66.588,0.0],[69.1807,66.5911,0.0],[69.1713,66.5943,0.0],[69.1724,66.5974,0.0],[69.1672,66.5984,0.0],[69.1458,66.6083,0.0],[69.1434,66.6083,0.0],[69.1483,66.606,22.229],[69.0759,66.6044,3.1337],[68.9587,66.5955,8.8039],[68.8496,66.6067,64.5816],[68.755,66.6062,110.5338],[68.7191,66.5959,112.8218],[68.7331,66.5442,63.7152],[68.8224,66.4571,50.5483],[68.9507,66.3892,50.5501],[69.0437,66.3657,45.0338],[69.1069,66.3373,48.3751],[69.1608,66.308,49.2814],[69.2045,66.2809,49.1688],[69.3061,66.2806,56.017],[69.4716,66.2695,70.5576],[69.7692,66.2281,62.8083],[69.8953,66.2069,33.751],[69.971,66.1605,54.1387],[70.0084,66.1291,26.7642],[69.8983,66.0932,37.1656],[69.6774,66.0475,66.1896],[69.5299,66.01,61.6132],[69.4725,66.0015,65.4986],[69.4783,65.9863,61.2985],[69.543,65.9348,56.2768],[69.5693,65.8839,58.8395],[69.5587,65.8471,48.5816],[69.5355,65.825,55.7002],[69.6188,65.7805,46.3794],[69.6939,65.7446,47.0975],[69.8177,65.6696,55.084],[69.9133,65.595,65.3173],[69.9615,65.5457,76.9803],[70.033,65.556,67.0344],[70.0956,65.534,76.8693],[70.1006,65.5005,74.038],[70.1449,65.4667,67.8807],[70.2375,65.4376,69.688],[70.4094,65.3523,81.8434],[70.5419,65.3281,89.2403],[70.6548,65.3101,96.3651],[70.7587,65.2893,92.2097],[70.815,65.2631,88.0941],[70.8287,65.2276,82.6032],[70.7763,65.1779,85.3688],[70.6653,65.1247,87.6532],[70.5779,65.0679,90.2701],[70.5231,65.0378,85.0801],[70.4778,65.0247,82.7553],[70.5049,64.9968,80.5636],[70.5667,64.9468,83.4123],[70.6061,64.9205,78.9795],[70.6032,64.8978,79.6791],[70.5339,64.8597,89.295],[70.5309,64.8329,90.25],[70.5452,64.7633,93.3645],[70.5445,64.724,91.5049],[70.4993,64.6735,92.0725],[70.4206,64.5438,104.5467],[70.3795,64.4881,120.2919],[70.3651,64.459,113.3252],[70.3555,64.4279,113.3786],[70.3776,64.4084,117.0002],[70.3968,64.3872,116.7169],[70.4018,64.3661,106.1985],[70.3802,64.3436,117.528],[70.3726,64.3159,118.1193],[70.4089,64.2994,120.0719],[70.5034,64.2427,114.5],[70.6377,64.2023,112.0229],[70.7538,64.1822,109.0],[70.8001,64.1447,107.4912],[70.8133,64.0885,106.1058],[70.7731,64.0532,107.5472],[70.7373,64.0288,105.9029],[70.6518,64.0051,100.5],[70.6928,63.9576,99.0],[70.8051,63.879,95.9382],[70.89,63.8058,100.1772],[70.9362,63.6937,118.8331],[70.9856,63.682,118.2098],[71.1365,63.6803,112.9335],[71.3595,63.6882,110.3461],[71.4347,63.6648,107.7474],[71.5572,63.5686,105.5],[71.5783,63.4946,113.1645],[71.5665,63.4108,114.4642]],
[[73.4418,63.783,98.7973],[73.4268,63.787,97.6819],[73.4299,63.803,97.7652],[73.4682,63.8289,97.6244],[73.5216,63.8266,101.7969],[73.5458,63.7999,101.567],[73.5106,63.7822,102.6153],[73.4618,63.7776,98.5],[73.4418,63.783,98.7973]],
[[72.6198,65.5389,9.5344],[72.6391,65.5205,10.1973],[72.5935,65.5007,13.2172],[72.536,65.4904,57.9276],[72.492,65.4943,60.5815],[72.4677,65.5173,14.8762],[72.47,65.5404,15.4376],[72.5612,65.5566,20.1623],[72.6198,65.5389,9.5344]],
[[76.6463,66.0448,57.792],[76.6324,66.053,53.6244],[76.6527,66.0917,50.9083],[76.7111,66.1002,46.5169],[76.7449,66.0876,48.2375],[76.7558,66.0625,46.8555],[76.7117,66.0378,57.0751],[76.6562,66.0389,59.3306],[76.6463,66.0448,57.792]]],
[[[72.2354,66.2833,0.0],[72.2318,66.2797,0.0],[72.237,66.2797,0.0],[72.237,66.2828,0.0],[72.2354,66.2833,0.0]]],
[[[72.2453,66.3005,0.0],[72.2438,66.3021,0.0],[72.2375,66.3021,0.0],[72.2333,66.3042,0.9101],[72.2255,66.3016,0.0],[72.2286,66.2984,0.0],[72.2234,66.2963,0.0],[72.2417,66.2958,0.0],[72.2453,66.3005,0.0]]],
[[[72.2141,66.3016,0.0],[72.2104,66.3021,0.0],[72.2089,66.3005,0.0],[72.2125,66.3,0.0],[72.2141,66.3016,0.0]]],
[[[72.2417,66.3125,0.0],[72.2354,66.3125,0.0],[72.2312,66.3146,0.0],[72.2292,66.3125,0.0],[72.2297,66.3109,0.0],[72.2396,66.3063,0.0],[72.2562,66.3063,0.0],[72.2583,66.3083,0.0],[72.2562,66.3104,0.0],[72.2417,66.3125,0.0]]],
[[[72.3411,66.312,0.0],[72.338,66.3141,0.0],[72.3411,66.3224,0.0],[72.338,66.3234,0.0],[72.337,66.3266,0.0],[72.3339,66.3276,0.9475],[72.3313,66.3313,1.4938],[72.3234,66.3287,0.0],[72.3208,66.325,0.5239],[72.3083,66.325,0.0],[72.2917,66.3187,0.6559],[72.2854,66.3208,0.0],[72.2792,66.3208,0.0],[72.2714,66.3161,0.0],[72.2771,66.3125,0.0],[72.2833,66.3146,0.7396],[72.2953,66.3141,0.0],[72.2902,66.312,0.0],[72.288,66.3057,0.0],[72.2937,66.3021,0.0],[72.3063,66.3063,0.0],[72.3125,66.3063,0.0],[72.3229,66.3104,0.0],[72.3255,66.3068,0.0],[72.3333,66.3042,0.0],[72.3349,66.3047,0.0],[72.3359,66.3099,0.0],[72.3411,66.312,0.0]]],
[[[72.3662,66.3214,0.0],[72.3662,66.3224,0.0],[72.363,66.3224,0.0],[72.363,66.3214,0.0],[72.3662,66.3214,0.0]]],
[[[72.3016,66.3276,0.0],[72.3141,66.3318,0.0],[72.3167,66.3396,0.0],[72.313,66.3422,0.886],[72.3141,66.3474,0.0],[72.2917,66.3479,0.0],[72.2813,66.3438,0.0],[72.2714,66.3432,0.0],[72.2703,66.3401,1.4074],[72.2609,66.3391,0.0],[72.2578,66.3359,1.6635],[72.2464,66.3328,0.0],[72.2359,66.3287,0.0],[72.2328,66.3255,2.0606],[72.2276,66.3245,0.0],[72.2255,66.3172,0.0],[72.2307,66.3172,0.0],[72.2318,66.3224,1.2527],[72.2333,66.3229,0.9832],[72.2417,66.3229,0.0],[72.2688,66.3313,0.0],[72.2729,66.3292,0.0],[72.2854,66.3292,0.8345],[72.2896,66.3271,0.4995],[72.3016,66.3276,0.0]]],
[[[72.3609,66.3318,0.0],[72.3667,66.3292,0.0],[72.3703,66.3297,0.0],[72.3708,66.3313,0.0],[72.3703,66.3328,0.0],[72.3646,66.3354,0.0],[72.3609,66.3318,0.0]]],
[[[72.9099,66.6557,0.0],[72.9063,66.6563,0.0],[72.9047,66.6547,0.0],[72.9083,66.6542,0.0],[72.9099,66.6557,0.0]]],
[[[74.2911,68.3484,0.0],[74.2911,68.3495,0.0],[74.288,68.3495,0.0],[74.288,68.3484,0.0],[74.2911,68.3484,0.0]]],
[[[77.2099,67.8214,1.8196],[77.2169,67.8242,1.882],[77.1714,67.8167,0.0],[77.1771,67.8167,-0.6102],[77.1854,67.8125,0.0],[77.1896,67.8146,2.0566],[77.1979,67.8146,0.0],[77.2078,67.8172,0.0],[77.2099,67.8214,1.8196]]],
[[[75.4812,68.8562,1.4054],[75.4776,68.8526,0.0974],[75.4812,68.8521,0.653],[75.4891,68.8547,0.5947],[75.4875,68.8562,0.7345],[75.4812,68.8562,1.4054]]],
[[[75.4516,68.8682,1.1418],[75.4583,68.8646,0.3892],[75.462,68.8651,0.9915],[75.4625,68.8667,1.4432],[75.462,68.8682,1.5321],[75.4563,68.8708,0.7979],[75.4484,68.8703,0.2609],[75.4516,68.8682,1.1418]]],
[[[75.4771,68.8771,1.3443],[75.4734,68.8734,1.7242],[75.4771,68.8729,1.6884],[75.4807,68.8755,1.6864],[75.4771,68.8771,1.3443]]],
[[[71.9807,66.2641,0.0],[71.9776,66.2641,0.0],[71.9776,66.2609,0.0],[71.9807,66.2609,0.0],[71.9807,66.2641,0.0]]],
[[[71.9891,66.2724,0.0],[71.9859,66.2724,0.0],[71.9859,66.2693,0.0],[71.9891,66.2693,0.0],[71.9891,66.2724,0.0]]],
[[[72.1964,66.3099,0.0],[72.2021,66.3063,0.0],[72.2057,66.3068,0.0],[72.2063,66.3083,0.0],[72.2042,66.3104,0.0],[72.1964,66.3099,0.0]]],
[[[70.4245,66.3339,0.0],[70.4245,66.3349,0.0],[70.4213,66.3349,0.0],[70.4213,66.3339,0.0],[70.4245,66.3339,0.0]]],
[[[72.2453,66.3557,0.0],[72.225,66.3646,0.0],[72.2083,66.3646,0.0],[72.2057,66.3609,0.8612],[72.1943,66.3599,0.0],[72.1932,66.3547,1.0601],[72.188,66.3536,0.0],[72.1859,66.3516,0.0],[72.1828,66.3422,1.4533],[72.1776,66.3401,0.0],[72.1833,66.3375,0.0],[72.1896,66.3375,0.0],[72.1958,66.3417,0.0],[72.2063,66.3417,0.7413],[72.2146,66.3375,0.0],[72.2271,66.3375,0.0],[72.2286,66.338,0.0],[72.2307,66.3453,0.0],[72.2188,66.3458,0.0],[72.213,66.3484,0.8237],[72.2161,66.3505,0.0],[72.213,66.3526,0.8676],[72.2151,66.3578,0.0],[72.2229,66.3583,0.0],[72.2255,66.3547,0.0],[72.2328,66.3536,0.0],[72.2396,66.35,0.0],[72.2432,66.3505,0.0],[72.2453,66.3557,0.0]]],
[[[70.9828,66.3693,0.0],[70.9812,66.3708,0.0],[70.9734,66.3714,1.1589],[70.9708,66.375,0.0],[70.9667,66.3729,1.7356],[70.9568,66.3724,0.0],[70.9526,66.3703,0.9225],[70.9505,66.3672,1.1456],[70.9537,66.3662,0.6366],[70.9563,66.3625,0.0],[70.9688,66.3625,0.0],[70.9729,66.3646,0.0],[70.9849,66.3651,0.0],[70.9833,66.3667,0.0],[70.9776,66.3672,1.0095],[70.9828,66.3693,0.0]]],
[[[70.7542,66.3771,0.0],[70.7438,66.3771,1.79],[70.7375,66.3792,0.0],[70.7297,66.3766,0.0],[70.7292,66.375,0.0],[70.7338,66.3714,0.0],[70.7417,66.3708,1.2864],[70.7458,66.3688,1.264],[70.7521,66.375,1.1138],[70.7583,66.3729,0.7639],[70.7641,66.3734,1.6778],[70.7599,66.3766,0.0],[70.7542,66.3771,0.0]]],
[[[71.0172,66.3797,1.3439],[71.0089,66.3818,1.4133],[71.0078,66.3849,0.0],[71.0047,66.3859,1.3333],[71.0047,66.3891,0.6159],[71.0162,66.3922,0.0],[71.0104,66.3958,1.5227],[70.9943,66.3912,0.0],[70.9932,66.388,1.8931],[70.988,66.387,0.0],[70.9875,66.3854,0.0],[70.9912,66.3828,0.819],[70.9922,66.3797,0.0],[71.0005,66.3755,0.0],[71.0099,66.3745,0.0],[71.0089,66.3714,0.0],[71.0104,66.3708,0.0],[71.0167,66.3708,0.0],[71.0245,66.3734,0.9539],[71.0214,66.3755,0.0],[71.0203,66.3786,0.0],[71.0172,66.3797,1.3439]]],
[[[70.0849,66.3922,0.0],[70.0797,66.3901,0.0],[70.0875,66.3896,0.0],[70.0896,66.3917,0.0],[70.0875,66.3938,0.0],[70.0849,66.3922,0.0]]],
[[[69.9432,66.4255,0.0],[69.938,66.4234,0.0],[69.9537,66.4234,0.0],[69.9479,66.4271,0.0],[69.9432,66.4255,0.0]]],
[[[70.1292,66.4354,0.0],[70.1297,66.437,0.0],[70.1412,66.4411,0.0],[70.138,66.4422,0.0],[70.137,66.4453,0.0],[70.1312,66.4479,0.0],[70.1188,66.4479,1.499],[70.1146,66.4458,1.5081],[70.1083,66.4458,1.5993],[70.1021,66.4396,0.7845],[70.0958,66.4396,0.0],[70.0917,66.4417,0.0],[70.0854,66.4396,0.0],[70.0787,66.4432,0.0],[70.0708,66.4437,0.0],[70.0667,66.4458,0.0],[70.0604,66.4437,1.5504],[70.0563,66.4458,0.0],[70.0458,66.4458,0.0],[70.0443,66.4443,0.0],[70.0474,66.4422,0.0],[70.0396,66.4396,0.0],[70.0333,66.4396,0.0],[70.0193,66.4349,0.0],[70.0182,66.4297,0.0],[70.0083,66.4292,1.5845],[69.9938,66.425,0.0],[69.9833,66.425,0.0],[69.9755,66.4276,0.0],[69.9766,66.4307,0.0],[69.9688,66.4313,0.0],[69.9646,66.4333,0.0],[69.9604,66.4313,0.0],[69.9521,66.4313,0.0],[69.9505,66.4297,0.0],[69.9703,66.4287,0.0],[69.9714,66.4255,0.0],[69.9745,66.4234,0.0],[69.9667,66.4229,0.0],[69.9604,66.425,0.0],[69.9583,66.4229,0.0],[69.9604,66.4208,0.0],[69.9682,66.4203,0.0],[69.963,66.4172,0.0],[69.9724,66.4161,0.0],[69.9672,66.4141,0.0],[69.9688,66.4125,0.0],[69.9854,66.4125,0.0],[69.9896,66.4104,0.0],[69.9958,66.4104,0.0],[70.0016,66.413,0.0],[70.0062,66.4187,0.0],[70.0089,66.4151,0.0],[70.0182,66.4141,0.0],[70.0292,66.4083,0.0],[70.0417,66.4083,0.0],[70.0458,66.4125,0.0],[70.0521,66.4104,0.0],[70.0599,66.413,0.0],[70.0505,66.4161,1.4204],[70.0583,66.4187,0.0],[70.0708,66.4187,0.0],[70.075,66.4208,0.0],[70.0813,66.4208,0.0],[70.0854,66.425,0.0],[70.0932,66.4245,0.0],[70.0901,66.4224,0.0],[70.0917,66.4208,0.0],[70.1021,66.4208,0.0],[70.1083,66.4229,0.0],[70.1125,66.4208,0.0],[70.1188,66.4208,0.0],[70.1203,66.4213,0.0],[70.1208,66.4271,1.0478],[70.1172,66.4307,0.0],[70.1286,66.4339,0.0],[70.1292,66.4354,0.0]]],
[[[70.0042,66.4354,0.0],[70.0,66.4354,0.0],[69.9984,66.4339,0.0],[70.0078,66.4339,0.0],[70.0042,66.4354,0.0]]],
[[[71.0146,66.4021,0.0],[71.0292,66.4042,1.144],[71.0307,66.4057,1.2332],[71.0208,66.4104,1.2054],[71.0083,66.4104,0.0],[71.0057,66.4068,2.2128],[70.9943,66.4057,0.0],[70.9901,66.4036,0.0],[70.988,66.4005,0.0],[71.0021,66.4021,0.0],[71.0062,66.4042,0.0],[71.0146,66.4021,0.0]]],
[[[70.1563,66.4354,1.4229],[70.1521,66.4354,1.4078],[70.1505,66.4339,1.3895],[70.1641,66.4339,0.0],[70.1625,66.4354,1.2808],[70.1563,66.4354,1.4229]]],
[[[70.925,66.4417,0.0],[70.9313,66.4417,0.0],[70.9328,66.4432,1.2388],[70.9271,66.4458,0.0],[70.9104,66.4458,0.0],[70.9063,66.4437,1.8736],[70.9021,66.4458,0.0],[70.8854,66.4458,0.0],[70.8812,66.4437,1.6153],[70.8729,66.4437,0.0],[70.8708,66.4417,0.0],[70.8714,66.4401,0.0],[70.8792,66.4396,1.578],[70.8833,66.4375,0.7673],[70.9042,66.4375,0.0],[70.9104,66.4417,1.3689],[70.9167,66.4396,0.0],[70.9208,66.4417,0.7168],[70.925,66.4417,0.0]]],
[[[70.1396,66.4375,0.0],[70.1359,66.4359,0.0],[70.1453,66.4359,1.3115],[70.1438,66.4375,0.0],[70.1396,66.4375,0.0]]],
[[[70.025,66.4417,0.0],[70.0214,66.4411,0.0],[70.0214,66.4401,0.0],[70.0266,66.4401,0.0],[70.025,66.4417,0.0]]],
[[[70.0026,66.4432,0.0],[70.0005,66.4401,0.0],[70.0057,66.4401,0.0],[70.0057,66.4432,0.0],[70.0026,66.4432,0.0]]],
[[[69.9328,66.4453,0.0],[69.9297,66.4453,0.0],[69.9297,66.4443,0.0],[69.9328,66.4443,0.0],[69.9328,66.4453,0.0]]],
[[[70.0297,66.4495,0.0],[70.0297,66.4464,0.0],[70.0313,66.4458,0.0],[70.0391,66.4484,0.0],[70.0375,66.45,0.0],[70.0297,66.4495,0.0]]],
[[[70.1292,66.4583,0.0],[70.1255,66.4578,0.0],[70.1255,66.4568,0.0],[70.1307,66.4568,0.0],[70.1292,66.4583,0.0]]],
[[[69.2229,66.6146,0.0],[69.2193,66.613,0.0],[69.2328,66.613,0.0],[69.2312,66.6146,0.0],[69.2229,66.6146,0.0]]],
[[[75.3688,68.8854,1.9042],[75.3651,68.8849,1.3025],[75.3651,68.8839,2.474],[75.3703,68.8839,1.5249],[75.3688,68.8854,1.9042]]],
[[[75.4,68.8896,0.0],[75.3964,68.8891,0.0],[75.3964,68.888,1.3839],[75.4016,68.888,2.2215],[75.4,68.8896,0.0]]],
[[[75.5437,68.8896,1.131],[75.5401,68.8891,0.5736],[75.5401,68.888,0.5046],[75.5453,68.888,1.7091],[75.5437,68.8896,1.131]]],
[[[75.4583,68.8875,1.1238],[75.4641,68.888,1.5865],[75.4661,68.8912,1.1402],[75.4458,68.8917,2.2011],[75.4417,68.8896,1.7845],[75.4318,68.8891,2.0041],[75.4333,68.8875,1.7655],[75.4458,68.8875,1.2331],[75.4521,68.8896,1.0586],[75.4583,68.8875,1.1238]]],
[[[75.4167,68.8917,0.2261],[75.4151,68.8901,2.0276],[75.4307,68.8901,2.9102],[75.4292,68.8917,1.5752],[75.4167,68.8917,0.2261]]],
[[[75.525,68.8958,1.3847],[75.5188,68.8958,1.2878],[75.5146,68.8979,0.0],[75.4943,68.8974,0.0],[75.4958,68.8958,1.2578],[75.5083,68.8958,1.4387],[75.5167,68.8917,0.8712],[75.5271,68.8917,1.666],[75.5313,68.8896,0.6136],[75.5432,68.8922,0.7061],[75.5437,68.8938,1.4543],[75.5417,68.8958,1.1408],[75.525,68.8958,1.3847]]]]}}