{"type":"Feature","properties":{"GID_3":"RUS.35.46.1_1","GID_0":"RUS","country":"Russia","GID_1":"RUS.35_1","province":"Krasnoyarsk","NL_NAME_1":"Красноярскийкрай","GID_2":"RUS.35.46_1","county":"Severo-Eniseyskiyrayon","NL_NAME_2":"Северо-Енисейскийрайон","city":"NA","VARNAME_3":"NA","NL_NAME_3":"NA","TYPE_3":"NA","ENGTYPE_3":"NA","CC_3":"NA","HASC_3":"NA","name":"N_A.city"},
"geometry":{"type": "MultiPolygon","coordinates": [[[[91.6702,60.7658,415.6835],[91.6307,60.6973,451.7107],[91.5948,60.6593,528.9358],[91.5821,60.6155,560.3853],[91.5012,60.5763,449.2872],[91.4661,60.5649,573.2558],[91.465,60.5263,421.3129],[91.4573,60.4901,462.8178],[91.3609,60.4745,629.3056],[91.3131,60.4558,612.425],[91.3311,60.4102,441.1925],[91.3389,60.3749,430.5323],[91.2948,60.3289,445.9956],[91.3679,60.31,458.1539],[91.4566,60.3076,482.4475],[91.4531,60.2725,474.2741],[91.4696,60.2379,535.1998],[91.4336,60.1832,553.9139],[91.3848,60.1414,504.786],[91.2881,60.1175,497.0154],[91.1733,60.0931,309.5043],[91.1265,60.0403,277.7468],[91.103,59.9918,333.7077],[91.0748,59.8907,344.3898],[91.0809,59.8177,249.4725],[91.1183,59.7634,198.3754],[91.2797,59.6608,132.562],[91.5687,59.5171,129.875],[91.7547,59.4011,323.3474],[91.8211,59.3541,310.315],[91.92,59.1661,212.7621],[92.0112,59.0326,127.7818],[92.135,58.8957,314.0356],[92.2101,58.7638,191.1611],[92.2687,58.7217,84.7258],[92.3471,58.6991,126.5909],[92.4193,58.6972,100.0214],[92.5214,58.7027,160.1902],[92.6123,58.7174,212.8594],[92.6575,58.7229,143.8726],[92.7178,58.7238,290.2833],[92.7404,58.6564,170.8551],[92.807,58.5889,140.0157],[92.8557,58.545,144.9226],[92.9146,58.5082,240.8561],[92.9149,58.4679,287.1853],[92.9845,58.5141,303.5403],[93.0572,58.5541,278.7942],[93.139,58.6046,425.9703],[93.2216,58.6423,353.8412],[93.2208,58.6871,353.0707],[93.2384,58.7247,358.9095],[93.289,58.7385,375.6],[93.3551,58.7276,337.5512],[93.4345,58.742,412.4836],[93.4959,58.7654,428.3317],[93.5627,58.8047,402.82],[93.6447,58.8329,479.4365],[93.7683,58.8604,518.9691],[93.9231,58.9039,584.097],[94.0225,58.9748,548.5128],[94.1001,59.0435,493.196],[94.1774,59.1158,400.4635],[94.1963,59.1816,437.5342],[94.2004,59.2476,442.3171],[94.1723,59.2938,365.892],[94.154,59.3285,361.2006],[94.1743,59.3551,313.9811],[94.2045,59.3583,263.1371],[94.237,59.3279,261.892],[94.2708,59.3021,374.1347],[94.4231,59.3001,352.7943],[94.5761,59.2942,338.0152],[94.6975,59.3197,503.8205],[94.7399,59.3681,434.9572],[94.7661,59.424,469.8052],[94.7926,59.4735,557.1844],[94.8375,59.4982,390.9691],[94.896,59.5098,436.1596],[94.9164,59.5316,518.923],[94.9561,59.5589,547.0081],[95.0403,59.5678,455.5349],[95.1317,59.5916,439.3169],[95.1873,59.6494,396.9808],[95.1167,59.6694,579.0609],[95.0476,59.7504,452.3647],[95.0365,59.7855,467.8369],[95.043,59.8532,492.7541],[94.9236,59.9841,448.0883],[94.9551,60.0209,446.4486],[94.9854,60.0622,490.9276],[94.9421,60.0923,622.8484],[94.8968,60.1678,368.041],[94.9345,60.1894,410.0901],[94.9266,60.241,484.1861],[94.8288,60.2797,380.7456],[94.8736,60.3034,308.2469],[94.9242,60.3382,413.5264],[95.0191,60.393,376.8453],[95.0911,60.424,346.088],[95.2154,60.4479,296.4146],[95.2362,60.4832,514.1532],[95.1983,60.5508,441.0374],[95.2199,60.6062,448.4999],[95.2806,60.6438,697.795],[95.3713,60.6862,372.493],[95.3536,60.7437,339.9172],[95.3045,60.7582,374.8289],[95.2991,60.7961,220.0416],[95.3218,60.8206,403.3402],[95.3547,60.8844,279.58],[95.2992,60.9377,398.048],[95.2339,60.9689,352.1698],[95.1797,61.0159,482.8521],[95.1129,61.056,467.9296],[95.0274,61.1036,479.1379],[94.879,61.1314,557.8779],[94.6951,61.1532,304.188],[94.5635,61.1632,292.5905],[94.4302,61.1558,367.7724],[94.32,61.1247,210.2666],[94.1675,61.1072,212.1945],[94.0981,61.0777,243.8462],[94.0273,61.0072,299.5484],[93.9649,61.0107,201.6284],[93.8776,61.0585,370.7462],[93.7178,61.051,226.3328],[93.653,61.0697,482.7741],[93.5716,61.104,749.5732],[93.5205,61.1061,762.1283],[93.4331,61.0935,748.1339],[93.2765,61.0984,275.1802],[93.2358,61.1164,210.75],[93.2013,61.162,206.1463],[93.145,61.2284,220.9989],[93.081,61.2652,305.1226],[93.0643,61.2898,425.5781],[93.0909,61.3295,295.7158],[93.0169,61.3657,158.4212],[92.919,61.3533,209.8666],[92.8387,61.3719,233.4439],[92.7513,61.3635,176.6093],[92.6429,61.344,267.5219],[92.6045,61.3017,213.3295],[92.6618,61.2875,185.2187],[92.7163,61.2613,175.2851],[92.773,61.2151,123.0659],[92.8384,61.1384,112.7391],[92.8301,61.0696,112.8246],[92.7635,61.0769,165.9856],[92.7203,61.1047,117.1083],[92.6355,61.1657,177.9834],[92.5025,61.1738,169.2795],[92.3847,61.1553,263.7757],[92.3589,61.1264,272.1677],[92.3974,61.0619,148.5002],[92.384,61.0027,247.4236],[92.281,60.9822,223.0098],[92.162,60.9816,259.8701],[92.1197,60.9599,471.8996],[92.1058,60.9051,305.949],[92.0869,60.8436,192.9279],[92.0699,60.8115,193.5571],[91.9573,60.7873,273.6073],[91.7853,60.773,291.0264],[91.6702,60.7658,415.6835]]]]}}