{"type":"Feature","properties":{"GID_2":"RUS.60.15_1","GID_0":"RUS","country":"Russia","GID_1":"RUS.60_1","province":"Sakha","NL_NAME_1":"РеспубликаСаха","county":"Mirnyy","VARNAME_2":"NA","NL_NAME_2":"Мирный","TYPE_2":"Gorod","ENGTYPE_2":"City","CC_2":"NA","HASC_2":"RU.SK.MG","name":"Mirnyy.county"},
"geometry":{"type": "MultiPolygon","coordinates": [[[[113.8946,62.493899999999996,343.1437],[113.904,62.504,352.0375],[113.8884,62.5224,327.9558],[113.8469,62.5263,305.3173],[113.8192,62.5114,341.899],[113.8195,62.4945,343.2562],[113.8801,62.4902,358.7588],[113.8946,62.493899999999996,343.1437]]]]}}