{"type":"Feature","properties":{"GID_3":"RUS.12.4.1_1","GID_0":"RUS","country":"Russia","GID_1":"RUS.12_1","province":"Chukot","NL_NAME_1":"ЧукотскийАОк","GID_2":"RUS.12.4_1","county":"Chaunskiyrayon","NL_NAME_2":"Чаунскийрайон","city":"NA","VARNAME_3":"NA","NL_NAME_3":"NA","TYPE_3":"NA","ENGTYPE_3":"NA","CC_3":"NA","HASC_3":"NA","name":"N_A.city"},
"geometry":{"type": "MultiPolygon","coordinates": [[[[173.8822,68.0954,417.4015],[173.9773,68.1305,547.3984],[173.9493,68.1815,526.5228],[174.0297,68.2253,603.3145],[174.1004,68.2511,871.2386],[174.0327,68.2997,852.6533],[174.0467,68.3657,738.1619],[174.2201,68.3943,575.4859],[174.3051,68.4451,661.3495],[174.3499,68.4885,714.6943],[174.3531,68.5337,381.4996],[174.4318,68.5599,405.426],[174.4498,68.6279,485.0889],[174.4155,68.7023,557.0607],[174.362,68.7424,408.0871],[174.259,68.7847,548.1758],[174.1789,68.8234,480.8097],[174.1499,68.8941,341.126],[174.2371,68.9359,306.8249],[174.5037,69.0037,231.1384],[174.6181,69.0477,304.2332],[174.6838,69.0952,346.0243],[174.6321,69.1521,573.2797],[174.4943,69.1888,454.6859],[174.2948,69.232,351.5869],[174.2041,69.2707,279.2839],[174.1116,69.3341,182.3827],[174.0379,69.3937,235.7705],[173.8439,69.4391,148.8738],[173.806,69.5275,71.5156],[173.7079,69.6719,15.1634],[173.6907,69.7123,72.3446],[173.7955,69.7346,47.8591],[173.7351,69.7524,47.1047],[173.7838,69.7689,6.6542],[173.7688,69.7807,5.3643],[173.6406,69.7927,7.0755],[173.6183,69.825,15.3998],[173.5745,69.8366,17.0243],[173.4871,69.83,1.4936],[173.6207,69.8637,-0.1024],[173.7104,69.8625,0.3553],[173.7182,69.8662,0.0],[173.7083,69.8667,1.9032],[173.7042,69.8688,0.0],[173.7,69.8688,0.0],[173.6958,69.8708,0.0],[173.6875,69.8708,2.0757],[173.6833,69.8729,0.0],[173.6687,69.8729,6.8135],[173.6583,69.8771,0.3593],[173.65,69.8771,0.0],[173.6422,69.8745,3.4277],[173.6432,69.8714,2.6301],[173.6333,69.8708,2.6869],[173.6318,69.8724,2.8102],[173.6349,69.8734,1.0325],[173.6359,69.8766,2.2253],[173.6453,69.8776,0.0],[173.6453,69.8807,0.0],[173.6417,69.8812,0.2197],[173.6354,69.8792,0.0],[173.6313,69.8833,0.0],[173.6083,69.8854,3.5164],[173.6042,69.8896,0.0],[173.6,69.8896,0.0],[173.5958,69.8917,0.0],[173.5875,69.8917,0.6716],[173.5771,69.8958,0.4127],[173.5714,69.8964,1.1334],[173.5703,69.8995,0.0],[173.5568,69.9026,0.7012],[173.5557,69.9057,0.0],[173.5437,69.9063,0.683],[173.5412,69.9099,0.0],[173.5213,69.9151,0.6478],[173.5161,69.9224,0.0],[173.5109,69.9234,0.3937],[173.5099,69.9266,0.0],[173.5026,69.9276,0.4561],[173.5,69.9313,0.0],[173.4896,69.9313,0.4888],[173.4854,69.9333,0.0],[173.4542,69.9333,0.0],[173.45,69.9313,0.6165],[173.425,69.9313,0.0],[173.4208,69.9292,0.3416],[173.4021,69.9292,0.0],[173.3979,69.9271,0.7972],[173.3771,69.9271,0.0],[173.3729,69.925,0.7114],[173.3604,69.925,0.0],[173.3562,69.9229,6.427],[173.3438,69.9229,2.1124],[173.3396,69.9208,5.8964],[173.3271,69.9208,0.0],[173.3229,69.9187,11.308],[173.3083,69.9187,0.0],[173.3,69.9146,0.7782],[173.2875,69.9146,0.0],[173.2771,69.9104,0.5152],[173.2708,69.9104,0.0],[173.2521,69.9021,13.5504],[173.2422,69.9016,0.0],[173.2276,69.8953,0.0867],[173.2266,69.8922,0.6599],[173.2224,69.8901,0.595],[173.213,69.8891,0.0198],[173.212,69.8859,0.8819],[173.1984,69.8807,0.0],[173.1974,69.8776,0.6828],[173.1901,69.8724,0.3029],[173.1911,69.8672,0.657],[173.1859,69.8662,0.4822],[173.187,69.863,0.7756],[173.1818,69.862,-0.089],[173.1833,69.8583,0.9491],[173.1797,69.8547,0.3635],[173.1974,69.8526,0.0],[173.2016,69.8547,0.2758],[173.2026,69.8578,0.2287],[173.2057,69.8588,0.1272],[173.2047,69.8641,0.1158],[173.2099,69.8651,0.0],[173.2088,69.8682,0.6749],[173.2141,69.8693,0.0],[173.2068,69.8724,0.1287],[173.2224,69.8776,0.0],[173.2214,69.8807,0.0068],[173.2266,69.8818,0.0],[173.2255,69.8849,0.2371],[173.2479,69.8938,0.0],[173.2542,69.8938,0.0],[173.262,69.8964,0.0],[173.2609,69.8995,0.1221],[173.2708,69.9,4.5974],[173.2813,69.9042,0.344],[173.2859,69.9005,0.0],[173.2912,69.8995,2.0528],[173.2922,69.8964,0.0],[173.3057,69.8953,1.2231],[173.3005,69.8932,0.0],[173.3026,69.888,0.0],[173.3266,69.8891,-0.0092],[173.3266,69.8859,0.1483],[173.3224,69.8839,-0.077],[173.3125,69.8833,2.4791],[173.3026,69.8776,0.0],[173.3167,69.8729,0.0],[173.3271,69.8729,9.7373],[173.3313,69.8688,0.0],[173.3542,69.8667,0.146],[173.3583,69.8646,0.0],[173.3729,69.8646,7.4051],[173.387,69.8599,0.5099],[173.3901,69.8568,0.0],[173.3979,69.8542,0.0],[173.4083,69.8542,0.7452],[173.4162,69.8516,0.7846],[173.4162,69.8484,0.0],[173.4125,69.8458,0.0],[173.4151,69.8422,0.0],[173.4229,69.8396,0.0],[173.4333,69.8396,0.6073],[173.4474,69.8349,0.2813],[173.4438,69.8313,0.0],[173.4458,69.8292,0.0],[173.4792,69.8292,0.2888],[173.487,69.8266,0.0],[173.4891,69.8234,0.0],[173.4839,69.8214,0.0],[173.4896,69.8208,0.0],[173.4912,69.8193,0.0],[173.4818,69.8161,0.0],[173.4807,69.813,0.0],[173.4734,69.8089,0.0],[173.4833,69.8083,0.0],[173.4875,69.8063,0.0],[173.5021,69.8063,0.4935],[173.5036,69.8047,0.3435],[173.5005,69.8026,0.0],[173.5104,69.8021,0.1965],[173.5182,69.7995,0.3034],[173.5141,69.7963,0.9963],[173.4943,69.7891,0.0],[173.4932,69.7859,0.7075],[173.4839,69.7849,0.0],[173.4849,69.7818,1.0133],[173.4667,69.775,0.0],[173.4542,69.775,0.0],[173.4333,69.7688,0.2619],[173.4021,69.7688,0.0],[173.3979,69.7667,0.3652],[173.3917,69.7667,0.0],[173.3901,69.7682,0.0],[173.3932,69.7693,0.0],[173.3943,69.7724,0.0076],[173.3974,69.7745,0.0],[173.3813,69.775,0.0],[173.3667,69.7688,0.0],[173.363,69.7714,0.1975],[173.3599,69.7766,0.0],[173.35,69.7771,0.0],[173.3443,69.7745,0.472],[173.3432,69.7714,0.7306],[173.3333,69.7667,0.0],[173.3229,69.7708,0.0],[173.3146,69.7667,0.3719],[173.3083,69.7667,0.505],[173.3005,69.7641,0.3855],[173.2912,69.7568,0.451],[173.2833,69.7542,0.64],[173.2771,69.7542,0.0],[173.2755,69.7557,0.8676],[173.2828,69.7609,0.8002],[173.2792,69.7646,0.0],[173.2667,69.7646,0.0],[173.2604,69.7625,0.0],[173.2479,69.7667,0.0],[173.2312,69.7604,0.0],[173.225,69.7646,0.0],[173.2151,69.7651,-0.1713],[173.2125,69.7688,0.0],[173.1979,69.7688,0.0828],[173.1943,69.7714,0.0],[173.1943,69.7745,0.1252],[173.1979,69.7771,0.0],[173.1943,69.7849,2.4678],[173.2021,69.7854,0.0],[173.2125,69.7896,0.0],[173.2437,69.7896,6.7051],[173.2453,69.7901,0.0],[173.2443,69.7953,0.9623],[173.2484,69.7974,0.0],[173.2583,69.7979,0.0],[173.2625,69.8,10.2018],[173.2667,69.7979,0.0],[173.2703,69.7984,0.0],[173.2703,69.8016,0.0],[173.2505,69.8068,1.2354],[173.2474,69.8099,2.0583],[173.2422,69.8109,8.3559],[173.2422,69.8141,10.4312],[173.2453,69.8161,0.0],[173.2401,69.8172,13.7282],[173.237,69.8203,4.7748],[173.2292,69.8229,0.1095],[173.2083,69.8229,8.3993],[173.2047,69.8255,0.2088],[173.2063,69.8271,0.3045],[173.2188,69.8271,-0.3066],[173.2266,69.8307,0.0],[173.2167,69.8333,0.0],[173.2083,69.8333,2.0417],[173.2042,69.8354,2.4992],[173.1979,69.8333,2.9013],[173.1792,69.8333,0.0],[173.175,69.8313,2.9655],[173.1,69.8313,179.2929],[173.0958,69.8333,215.2693],[173.0859,69.8339,242.0832],[173.0833,69.8375,136.9391],[173.075,69.8354,270.1411],[173.0562,69.8438,0.0],[173.0354,69.8438,113.3164],[173.0255,69.8464,92.631],[173.0229,69.85,0.0],[173.0083,69.85,237.8348],[173.0042,69.8521,160.4482],[172.9937,69.8521,308.7452],[172.9859,69.8547,244.9606],[172.9828,69.8599,82.1556],[172.9776,69.8609,73.8206],[172.9745,69.8641,0.0],[172.9563,69.8667,162.111],[172.9422,69.8714,95.5543],[172.9391,69.8745,89.7389],[172.9312,69.8771,65.3796],[172.9208,69.8771,130.7742],[172.9167,69.8812,85.1134],[172.9083,69.8812,136.4291],[172.8958,69.8854,90.0172],[172.875,69.8875,92.6086],[172.8687,69.8917,0.0],[172.8479,69.8938,64.6031],[172.8432,69.8974,8.1214],[172.838,69.8984,5.0269],[172.8349,69.9016,0.0],[172.825,69.9021,3.677],[172.8026,69.9089,86.9942],[172.7995,69.912,88.3034],[172.7859,69.9172,99.2046],[172.7839,69.9203,148.0414],[172.7891,69.9224,121.6939],[172.787,69.9245,136.1299],[172.7818,69.9255,171.5426],[172.7849,69.9276,105.32],[172.7859,69.9307,89.8904],[172.7953,69.9339,122.0242],[172.7932,69.937,105.6726],[172.788,69.938,72.1995],[172.7912,69.9401,42.9851],[172.7912,69.9432,0.0],[172.7713,69.9484,28.1544],[172.7682,69.9537,0.0],[172.7609,69.9547,14.7486],[172.7599,69.9578,0.0],[172.7526,69.9589,62.9946],[172.75,69.9625,61.5904],[172.7417,69.9625,39.7344],[172.7271,69.9583,34.0587],[172.7188,69.9583,0.0],[172.7146,69.9563,33.214],[172.7021,69.9563,0.0],[172.6875,69.9521,151.4987],[172.6563,69.9521,139.0159],[172.6521,69.95,115.7345],[172.6375,69.95,0.0],[172.6292,69.9458,1.1612],[172.6229,69.9458,0.0],[172.6187,69.9437,10.666],[172.6042,69.9437,0.0],[172.6,69.9417,1.872],[172.3979,69.9417,4.6967],[172.3875,69.9458,0.6451],[172.3792,69.9458,3.7262],[172.3729,69.95,0.0],[172.3646,69.9479,10.6531],[172.3542,69.9521,0.0],[172.3375,69.9521,5.0284],[172.3333,69.9542,1.3852],[172.3125,69.9542,7.9562],[172.3083,69.9563,0.3742],[172.275,69.9583,6.6119],[172.2703,69.962,1.1014],[172.2651,69.963,1.6549],[172.262,69.9661,2.0],[172.2521,69.9667,0.5356],[172.2479,69.9688,0.0],[172.1771,69.9708,0.7319],[172.1687,69.9667,2.2944],[172.1604,69.9667,2.0498],[172.1563,69.9688,-0.4528],[172.1479,69.9688,-0.0627],[172.1438,69.9708,-0.595],[172.1333,69.9708,6.1537],[172.1292,69.975,0.0],[172.0479,69.975,4.5561],[172.0437,69.9771,0.0],[171.9979,69.9771,0.9423],[171.9937,69.9792,0.0],[171.9771,69.9792,6.0991],[171.9729,69.9812,5.8149],[171.9646,69.9812,2.5254],[171.9604,69.9833,0.0],[171.9396,69.9833,10.5083],[171.9354,69.9854,0.0],[171.9021,69.9854,15.0139],[171.8979,69.9875,0.0],[171.8771,69.9875,31.5447],[171.8729,69.9896,0.0],[171.8562,69.9896,55.812],[171.8521,69.9917,9.4815],[171.8422,69.9922,21.0721],[171.8401,69.9953,0.0],[171.8578,69.9964,0.0],[171.8562,69.9979,0.0],[171.8042,69.9979,12.3163],[171.8026,69.9995,2.9313],[171.8057,70.0005,0.0],[171.8042,70.0021,0.0],[171.7833,70.0021,9.6805],[171.7792,70.0042,0.0],[171.7646,70.0042,18.6896],[171.7604,70.0062,4.056],[171.7375,70.0083,3.8149],[171.7333,70.0104,1.6263],[171.7229,70.0104,9.7443],[171.7188,70.0125,1.1814],[171.7042,70.0125,13.8696],[171.7,70.0146,1.0167],[171.6917,70.0146,32.2077],[171.6875,70.0167,14.3555],[171.6812,70.0146,105.6608],[171.625,70.0146,247.7931],[171.6208,70.0167,251.9047],[171.6042,70.0167,262.3086],[171.5792,70.025,81.9022],[171.5688,70.025,21.048],[171.5583,70.0292,7.5845],[171.5375,70.0292,127.8289],[171.5333,70.0271,170.5877],[171.5188,70.0271,104.7786],[171.5172,70.0286,69.5867],[171.5271,70.0292,87.7775],[171.5328,70.0328,24.6817],[171.5229,70.0333,93.697],[171.5188,70.0354,106.0186],[171.5083,70.0354,190.3555],[171.4979,70.0396,13.1424],[171.4708,70.0396,191.1626],[171.4667,70.0417,200.3299],[171.45,70.0417,151.6024],[171.4422,70.0453,86.5519],[171.4516,70.0463,3.9237],[171.45,70.0479,1.8878],[171.4271,70.05,2.2834],[171.4229,70.0521,0.0],[171.4083,70.0521,2.3335],[171.4042,70.0542,0.0],[171.3979,70.0521,2.0899],[171.3542,70.0521,19.9443],[171.35,70.05,117.6442],[171.325,70.05,168.608],[171.3208,70.0479,158.0421],[171.3083,70.0479,213.0273],[171.3042,70.0458,205.6945],[171.2958,70.0458,268.4754],[171.2833,70.05,231.5817],[171.275,70.05,194.8996],[171.2563,70.0563,0.0],[171.2479,70.0542,24.3883],[171.2437,70.0563,0.0],[171.2354,70.0563,2.6783],[171.2312,70.0583,0.0],[171.1917,70.0583,104.1195],[171.1792,70.0625,16.9027],[171.1708,70.0625,103.6247],[171.1667,70.0646,0.0],[171.1604,70.0625,181.4768],[171.1542,70.0625,203.1258],[171.15,70.0604,247.8918],[171.1354,70.0604,238.9502],[171.1313,70.0625,233.1763],[171.1042,70.0625,231.6993],[171.1,70.0604,229.6971],[171.0854,70.0604,219.6219],[171.0838,70.0609,220.9397],[171.0818,70.0661,163.5464],[171.0854,70.0667,136.404],[171.0896,70.0646,174.6586],[171.1042,70.0646,196.81],[171.1057,70.0661,188.5565],[171.1037,70.0703,71.1977],[171.0979,70.0708,51.9284],[171.0875,70.075,0.0],[171.0833,70.075,4.6072],[171.0792,70.0771,0.0],[171.0708,70.0771,1.1634],[171.0646,70.075,12.2507],[171.062,70.0787,0.2484],[171.0521,70.0813,0.0],[171.0437,70.0813,1.4216],[171.0396,70.0833,0.0],[171.0313,70.0813,2.1027],[171.025,70.0833,1.38],[171.0104,70.0792,9.2073],[170.9958,70.0792,13.8537],[170.9917,70.0813,0.2295],[170.9521,70.0813,-1.1726],[170.9479,70.0792,3.8529],[170.9292,70.0792,0.5435],[170.925,70.0771,0.5452],[170.9125,70.0771,1.9905],[170.9068,70.0828,4.3085],[170.9229,70.0833,0.1336],[170.9245,70.0849,3.5102],[170.9021,70.0854,0.0],[170.8917,70.0813,5.5334],[170.85,70.0813,0.0],[170.8458,70.0792,31.8466],[170.8313,70.0792,84.29],[170.8271,70.0771,134.5268],[170.8188,70.0771,152.3964],[170.8146,70.0792,92.5806],[170.8,70.0792,56.1701],[170.7958,70.0813,0.0],[170.7583,70.0813,0.0],[170.7479,70.0771,0.0],[170.7417,70.0771,0.0],[170.7354,70.075,0.0],[170.7312,70.0771,0.0],[170.7214,70.0776,15.0154],[170.7245,70.0807,0.0],[170.7188,70.0813,3.028],[170.7172,70.0828,1.7925],[170.7271,70.0833,0.0],[170.7287,70.0849,1.5221],[170.7151,70.0859,0.0],[170.7151,70.0891,0.0],[170.7182,70.0911,1.7171],[170.7146,70.0938,0.0],[170.7063,70.0938,0.0],[170.7021,70.0958,24.0],[170.6875,70.0958,62.0016],[170.6833,70.0979,86.6241],[170.675,70.0979,106.6786],[170.6708,70.0958,79.1384],[170.65,70.0958,150.625],[170.6458,70.0979,163.5199],[170.6354,70.0979,109.4097],[170.6313,70.1,110.589],[170.6167,70.1,164.9374],[170.6125,70.1021,224.7471],[170.6089,70.1016,269.5238],[170.6099,70.0984,231.3443],[170.6047,70.0974,315.4879],[170.6057,70.0943,207.457],[170.5979,70.0938,295.4923],[170.5901,70.0911,188.9098],[170.5818,70.087,134.3874],[170.5828,70.0818,95.5687],[170.5734,70.0787,0.0],[170.575,70.0771,1.742],[170.5807,70.0766,8.432],[170.5755,70.0734,0.0],[170.5891,70.0724,54.9667],[170.5838,70.0693,47.5881],[170.5896,70.0687,123.8271],[170.5995,70.0641,145.7314],[170.5953,70.0609,136.1744],[170.5854,70.0604,34.2682],[170.5838,70.0589,0.0],[170.588,70.0547,84.7244],[170.5932,70.0537,90.1971],[170.5901,70.0505,112.9866],[170.5953,70.0484,179.8855],[170.5922,70.0463,199.7188],[170.5974,70.0453,199.4586],[170.5995,70.0422,187.5698],[170.5917,70.0417,124.983],[170.5797,70.037,0.0],[170.587,70.0339,23.3023],[170.5776,70.0307,0.0],[170.5797,70.0255,12.4659],[170.5854,70.025,58.4066],[170.587,70.0234,82.5353],[170.563,70.0141,0.0],[170.5646,70.0125,41.3405],[170.5703,70.012,48.8657],[170.5703,70.0089,99.225],[170.5583,70.0042,107.3742],[170.5505,70.0036,0.0],[170.5526,69.9984,0.0],[170.5599,69.9943,87.585],[170.5568,69.9932,69.1237],[170.5583,69.9896,66.8702],[170.5547,69.987,0.0],[170.5557,69.9838,28.8568],[170.5505,69.9828,0.0],[170.5516,69.9776,68.8085],[170.5443,69.9745,42.9105],[170.5437,69.9729,20.6075],[170.55,69.9625,11.0052],[170.5464,69.9589,0.0],[170.55,69.9521,59.8713],[170.5495,69.9505,68.4326],[170.5422,69.9474,0.0],[170.5474,69.9443,57.1271],[170.5401,69.9411,20.6357],[170.5391,69.938,29.7484],[170.5359,69.937,2.1018],[170.537,69.9339,20.95],[170.5318,69.9328,0.0],[170.5339,69.9297,0.0],[170.5391,69.9287,19.8262],[170.5412,69.9255,15.8752],[170.538,69.9245,6.5407],[170.5328,69.9172,0.0],[170.5297,69.9161,0.0],[170.5307,69.913,1.1514],[170.5255,69.9109,0.0],[170.5297,69.9047,1.0439],[170.5578,69.8974,6.4646],[170.5609,69.8922,0.0],[170.5651,69.888,0.0],[170.5703,69.887,2.8409],[170.5745,69.8807,1.1377],[170.5745,69.8776,1.0708],[170.5714,69.8766,0.0],[170.5724,69.8714,0.982],[170.5693,69.8693,0.0],[170.5771,69.8562,10.2409],[170.5734,69.8536,0.0],[170.575,69.85,6.3862],[170.5714,69.8464,0.0],[170.5766,69.8443,5.8836],[170.5734,69.8432,1.6962],[170.575,69.8396,3.291],[170.5714,69.8359,0.0],[170.5766,69.8349,0.0],[170.5786,69.8318,0.4536],[170.5693,69.8287,0.0],[170.5729,69.8229,0.8738],[170.5693,69.8203,0.0],[170.5703,69.8151,0.9637],[170.5672,69.8141,0.0],[170.5661,69.8109,1.3287],[170.563,69.8089,0.0],[170.5688,69.8083,1.342],[170.5703,69.8068,1.3104],[170.5651,69.8047,0.0],[170.5729,69.8042,1.2959],[170.5729,69.8021,0.6437],[170.5786,69.8016,0.6988],[170.5755,69.7984,0.0],[170.5891,69.7932,1.8324],[170.5911,69.7901,2.7951],[170.588,69.788,0.0],[170.5932,69.787,2.3745],[170.5953,69.7849,2.8479],[170.5922,69.7818,0.0],[170.5974,69.7807,1.987],[170.5995,69.7786,3.448],[170.5943,69.7766,0.0],[170.5984,69.7714,1.0926],[170.6182,69.7662,0.0],[170.6151,69.763,0.0],[170.6271,69.7604,0.0],[170.6286,69.7589,0.0],[170.6208,69.7562,0.0],[170.6167,69.7583,0.0],[170.6021,69.7583,1.3633],[170.5703,69.7443,1.897],[170.5609,69.7432,0.0],[170.562,69.7401,5.4853],[170.5521,69.7396,0.0],[170.5333,69.7312,5.1246],[170.5208,69.7312,0.0],[170.5125,69.7271,7.0322],[170.5,69.7271,0.0],[170.4854,69.7229,15.9901],[170.4354,69.7229,64.0555],[170.4312,69.725,25.3174],[170.4167,69.725,79.139],[170.4104,69.7229,136.7077],[170.4063,69.725,25.3687],[170.3938,69.725,21.2129],[170.3833,69.7208,84.6035],[170.3771,69.7208,62.7946],[170.3625,69.7167,109.2574],[170.3354,69.7125,5.8411],[170.3313,69.7083,20.3053],[170.3188,69.7083,4.9925],[170.3042,69.7042,8.1128],[170.2901,69.7037,5.7733],[170.2797,69.6995,3.0758],[170.2828,69.6943,33.583],[170.2776,69.6922,44.6481],[170.2875,69.6917,156.924],[170.2937,69.6937,144.7672],[170.2974,69.6911,215.4697],[170.2974,69.688,280.5935],[170.2917,69.6854,315.9099],[170.2771,69.6854,160.0734],[170.2667,69.6896,3.3447],[170.2604,69.6875,15.4804],[170.2542,69.6875,0.0],[170.2516,69.6839,0.0],[170.2443,69.6807,0.0],[170.2453,69.6776,18.1456],[170.2312,69.6771,0.0],[170.2287,69.6734,11.5805],[170.2151,69.6682,0.0679],[170.2182,69.663,19.9133],[170.2104,69.6604,6.2561],[170.2042,69.6604,-0.5],[170.1984,69.6578,2.3476],[170.1995,69.6547,0.9278],[170.1943,69.6536,0.0],[170.1953,69.6505,3.43],[170.188,69.6453,0.0],[170.1891,69.6422,28.1321],[170.1797,69.6391,0.0],[170.1807,69.6359,53.6474],[170.1714,69.6349,0.0],[170.1724,69.6297,82.6317],[170.163,69.6266,0.0],[170.1662,69.6214,111.9412],[170.1609,69.6203,68.2562],[170.162,69.6172,128.6729],[170.1547,69.612,6.3532],[170.1563,69.6083,42.1138],[170.1526,69.6047,0.0],[170.1578,69.5964,5.7712],[170.1526,69.5943,0.0],[170.1583,69.5938,5.6367],[170.1771,69.5875,0.0],[170.1854,69.5896,73.0996],[170.188,69.5859,25.0044],[170.1953,69.5849,29.8279],[170.1979,69.5813,0.0],[170.225,69.5813,51.1299],[170.2312,69.5792,0.0],[170.2375,69.5813,38.2485],[170.2417,69.5792,0.0],[170.2563,69.5792,0.0],[170.2604,69.5813,58.2454],[170.2646,69.5792,0.0],[170.2729,69.5792,0.0],[170.2771,69.5813,65.3673],[170.3146,69.5813,0.0],[170.3188,69.5833,38.3082],[170.3313,69.5833,0.0],[170.3328,69.5839,0.0],[170.3318,69.587,40.1366],[170.3333,69.5875,50.8298],[170.3625,69.5896,0.0],[170.3771,69.5938,4.8781],[170.3896,69.5938,0.0],[170.3938,69.5958,14.1513],[170.4021,69.5938,0.0],[170.4063,69.5958,4.557],[170.4354,69.5958,0.0],[170.4396,69.5979,0.0],[170.4833,69.5979,0.0],[170.4896,69.6,6.7457],[170.4937,69.5979,0.0],[170.5,69.6,7.4568],[170.5042,69.5979,0.0],[170.5125,69.5979,0.0],[170.5167,69.6,4.8103],[170.525,69.6,9.6803],[170.5313,69.5979,0.0],[170.5375,69.6,15.5944],[170.5417,69.5979,0.0],[170.55,69.5979,0.0],[170.5542,69.5958,0.0],[170.5625,69.5979,1.9235],[170.5667,69.5958,0.0],[170.575,69.5958,1.8792],[170.5854,69.5917,0.0],[170.6042,69.5875,5.2427],[170.612,69.5849,15.0901],[170.6172,69.5797,0.0],[170.6286,69.5766,9.6613],[170.6339,69.5714,0.0],[170.6391,69.5703,0.0],[170.6505,69.563,0.0],[170.6557,69.562,0.0],[170.6526,69.5589,0.0],[170.6662,69.5557,16.4512],[170.6693,69.5505,0.0],[170.6766,69.5495,13.1642],[170.6714,69.5463,0.0],[170.6734,69.5443,0.0],[170.6787,69.5432,7.2601],[170.6891,69.5286,11.3718],[170.6979,69.5125,0.0],[170.6943,69.5099,0.0],[170.6964,69.5047,0.0],[170.7036,69.5036,8.7056],[170.6984,69.5016,0.0],[170.7016,69.4964,13.1543],[170.6964,69.4953,0.0],[170.7,69.4896,26.018],[170.6964,69.487,0.0],[170.6995,69.4797,55.9959],[170.6943,69.4786,0.0],[170.6995,69.4703,55.1054],[170.6964,69.4672,49.4448],[170.7042,69.4646,39.4335],[170.7125,69.4646,40.5464],[170.7172,69.4609,0.0],[170.725,69.4583,0.0],[170.7417,69.4583,65.0852],[170.7443,69.4547,0.0],[170.7516,69.4537,33.5375],[170.7526,69.4505,0.0],[170.7599,69.4495,0.0],[170.7609,69.4464,0.0],[170.7682,69.4453,7.4175],[170.763,69.4432,0.0],[170.7688,69.4333,0.0],[170.7651,69.4297,0.0],[170.7724,69.4287,2.9116],[170.7729,69.4271,2.6285],[170.7693,69.4245,0.0],[170.7703,69.4193,0.0],[170.7667,69.4167,0.0],[170.7703,69.4109,0.9397],[170.7651,69.4099,0.0],[170.7682,69.4047,2.576],[170.763,69.4036,0.0],[170.7667,69.3979,1.6667],[170.763,69.3953,0.0],[170.7641,69.3901,0.0],[170.7604,69.3875,0.0],[170.7646,69.3812,1.264],[170.7609,69.3786,1.2391],[170.763,69.3734,1.8349],[170.7713,69.3693,0.0],[170.7786,69.3682,0.0],[170.7786,69.3651,0.0],[170.7755,69.363,0.0],[170.7833,69.3604,0.0],[170.8104,69.3604,0.0],[170.8208,69.3646,0.5481],[170.825,69.3625,0.0],[170.8349,69.362,0.5828],[170.8318,69.3588,0.0],[170.837,69.3578,0.681],[170.8401,69.3526,0.0],[170.8537,69.3516,4.4129],[170.8537,69.3484,2.739],[170.8505,69.3464,0.0],[170.8557,69.3443,5.0623],[170.8526,69.3422,0.0],[170.8599,69.3411,5.9279],[170.8609,69.338,0.0],[170.8682,69.337,4.9944],[170.8714,69.3297,0.0],[170.8786,69.3287,5.0222],[170.8818,69.3234,0.0],[170.887,69.3224,3.8884],[170.8922,69.3172,0.0],[170.8974,69.3161,5.6419],[170.8995,69.313,5.5812],[170.8943,69.3109,0.0],[170.9016,69.3099,6.2871],[170.8984,69.3078,0.0],[170.8984,69.3047,0.0],[170.9057,69.3037,6.1464],[170.9005,69.3005,0.0],[170.9047,69.2963,0.0],[170.9099,69.2953,2.2216],[170.913,69.2901,0.0],[170.9203,69.2891,2.1274],[170.9214,69.2859,0.0],[170.9287,69.2849,1.9291],[170.9318,69.2776,1.0845],[170.9349,69.2745,1.3015],[170.9375,69.2688,0.5328],[170.937,69.2672,0.0],[170.9297,69.2641,0.0],[170.9349,69.2609,0.0],[170.9318,69.2599,0.0],[170.9333,69.2562,0.0],[170.9297,69.2526,0.0],[170.9349,69.2505,0.0],[170.9318,69.2495,1.0939],[170.9328,69.2464,0.0],[170.9297,69.2443,0.0],[170.9349,69.2432,0.6189],[170.937,69.2412,0.0],[170.9318,69.238,1.2002],[170.9375,69.2292,0.0],[170.9339,69.2266,0.8917],[170.9349,69.2234,1.3355],[170.9255,69.2203,0.0],[170.9328,69.2172,1.9793],[170.9276,69.2161,0.0],[170.9287,69.213,2.14],[170.9214,69.2078,0.0],[170.9229,69.2042,0.0],[170.9193,69.2016,0.0],[170.9203,69.1964,2.4508],[170.913,69.1932,0.0],[170.9162,69.1859,0.858],[170.9068,69.1828,0.0],[170.9078,69.1776,2.4605],[170.9005,69.1745,0.0],[170.9016,69.1713,4.5615],[170.8963,69.1703,0.0],[170.8974,69.1672,37.4389],[170.8901,69.163,0.0],[170.9125,69.1563,0.0],[170.9187,69.1583,24.831],[170.9229,69.1563,0.0],[170.9458,69.1542,0.0],[170.9646,69.1458,0.0],[170.9745,69.1453,12.0147],[170.9859,69.138,0.0],[170.9912,69.137,0.0],[170.9984,69.1276,52.0695],[171.0036,69.1266,70.7214],[171.0005,69.1234,0.0],[171.0057,69.1224,52.0573],[171.0109,69.1151,0.0],[171.0182,69.1141,36.967],[171.0213,69.1068,0.0],[171.0286,69.1057,15.83],[171.0349,69.0953,2.9477],[171.0313,69.0917,2.5648],[171.0328,69.088,2.8647],[171.0234,69.0849,0.0],[171.0245,69.0818,0.8026],[171.0172,69.0766,0.4676],[171.0182,69.0714,0.3511],[171.0109,69.0682,0.5465],[171.0104,69.0667,-0.0201],[171.0161,69.0661,0.5967],[171.0182,69.063,0.9028],[171.0151,69.062,0.0053],[171.0141,69.0589,0.0534],[171.0109,69.0568,0.1096],[171.0151,69.0484,0.1277],[171.0224,69.0474,0.654],[171.0234,69.0443,0.0],[171.0307,69.0432,0.8034],[171.0328,69.038,2.1281],[171.0297,69.0359,0.0],[171.0349,69.0349,4.0604],[171.037,69.0328,3.0063],[171.0339,69.0307,2.9282],[171.0339,69.0276,0.0],[171.0412,69.0266,2.7678],[171.0422,69.0234,2.1923],[171.0537,69.0234,2.4948],[171.0661,69.0297,0.0],[171.0651,69.0349,0.0],[171.0667,69.0354,0.6335],[171.075,69.0354,0.0],[171.0854,69.0313,0.0],[171.1104,69.0313,0.0],[171.1187,69.0354,0.0],[171.1438,69.0354,0.0],[171.15,69.0313,0.0],[171.1599,69.0307,0.0],[171.1557,69.0276,0.8684],[171.1521,69.0271,1.1867],[171.1443,69.0297,0.0],[171.1396,69.0333,0.0],[171.1208,69.0333,0.0],[171.1193,69.0318,0.0],[171.1354,69.0313,0.0],[171.137,69.0297,0.0],[171.1,69.0292,0.0],[171.0958,69.0271,0.0],[171.088,69.0266,0.0],[171.075,69.0208,0.0],[171.0583,69.0188,0.0],[171.0458,69.0125,0.0],[171.0271,69.0125,0.0],[171.0193,69.0151,0.5788],[171.0161,69.0182,0.0],[171.0109,69.0193,1.843],[171.0068,69.0234,0.9921],[171.012,69.0255,0.0],[171.0089,69.0307,0.0],[171.0141,69.0318,0.0],[171.013,69.0349,0.4658],[171.0167,69.0375,0.0],[171.0141,69.0411,0.0],[171.0,69.0417,-0.0749],[170.9958,69.0396,0.9505],[170.9896,69.0396,-0.1379],[170.9734,69.0328,-0.1353],[170.9745,69.0297,0.672],[170.9651,69.0286,0.1872],[170.9661,69.0234,0.3497],[170.9568,69.0203,0.159],[170.9599,69.0151,0.6979],[170.9521,69.0146,0.3688],[170.9443,69.012,0.2538],[170.9453,69.0089,0.2484],[170.9438,69.0083,0.3369],[170.9255,69.0057,0.2606],[170.9266,69.0026,0.1285],[170.913,68.9974,0.2484],[170.9141,68.9943,0.1262],[170.8979,68.9958,0.2611],[170.8963,68.9953,0.3253],[170.8974,68.9922,0.2461],[170.8932,68.9901,0.1341],[170.8854,68.9896,0.1366],[170.8771,68.9854,-0.1117],[170.8693,68.9849,0.3282],[170.8682,68.9818,0.2199],[170.8651,68.9797,0.1406],[170.8703,68.9776,-0.0185],[170.8521,68.975,0.5702],[170.8438,68.9708,0.8406],[170.8354,68.9708,1.007],[170.8354,68.9688,0.8405],[170.8292,68.9667,0.7297],[170.8229,68.9688,1.1391],[170.8203,68.9651,0.7231],[170.8125,68.9646,1.2208],[170.8,68.9583,0.9871],[170.7922,68.9578,1.1018],[170.7896,68.9542,1.0146],[170.7833,68.9563,0.7313],[170.7724,68.9505,0.8495],[170.763,68.9495,0.9909],[170.7641,68.9443,0.9546],[170.7625,68.9437,0.5435],[170.7437,68.9458,0.5239],[170.7354,68.9417,1.0683],[170.7276,68.9411,0.7504],[170.7287,68.9359,0.5369],[170.7271,68.9354,0.3981],[170.7083,68.9375,0.8675],[170.7042,68.9354,0.6231],[170.6917,68.9354,1.096],[170.6875,68.9333,0.9078],[170.675,68.9333,0.0],[170.6708,68.9313,0.6665],[170.6646,68.9313,0.0],[170.663,68.9307,0.0],[170.6641,68.9276,0.7302],[170.6547,68.9266,0.4734],[170.6568,68.9234,0.3193],[170.6682,68.9203,0.2777],[170.6734,68.9151,0.0761],[170.6787,68.9141,0.2314],[170.6755,68.9109,0.0014],[170.6807,68.9099,0.7499],[170.6839,68.9047,0.0],[170.6911,68.9036,0.625],[170.6922,68.9005,0.0],[170.6995,68.8995,0.0],[170.7005,68.8964,0.0],[170.7141,68.8932,0.1052],[170.7188,68.8896,0.4219],[170.7474,68.887,2.1306],[170.7458,68.8854,0.9282],[170.7167,68.8854,0.7118],[170.7104,68.8833,0.2842],[170.7068,68.8859,0.3007],[170.7057,68.8891,0.1921],[170.6896,68.8917,0.0913],[170.6797,68.887,0.0252],[170.6787,68.8839,0.1405],[170.6755,68.8828,0.0423],[170.6776,68.8776,-0.319],[170.6849,68.8734,-0.0404],[170.6792,68.8708,0.1144],[170.6651,68.8703,-0.0791],[170.6667,68.8688,0.0239],[170.6724,68.8682,0.1223],[170.6734,68.8651,-0.1091],[170.6807,68.8641,0.4299],[170.6818,68.8609,-0.0634],[170.6891,68.8599,0.474],[170.6922,68.8544,-0.2747],[170.7057,68.8516,1.7573],[170.7109,68.8443,-1.1079],[170.7161,68.8432,0.2938],[170.713,68.8411,-1.0417],[170.7182,68.8391,1.5768],[170.7151,68.837,-0.0806],[170.7182,68.8297,0.1743],[170.7151,68.8276,-0.795],[170.7203,68.8266,-0.1578],[170.7224,68.8245,1.0738],[170.7193,68.8214,-1.0563],[170.7307,68.8182,0.2557],[170.7328,68.8161,0.8239],[170.7255,68.812,-0.6228],[170.7245,68.8089,2.4711],[170.7172,68.8057,-0.5976],[170.7182,68.8026,1.5863],[170.7167,68.8021,0.5021],[170.713,68.8026,-0.9173],[170.7109,68.8057,1.1205],[170.7182,68.8089,-0.4056],[170.7193,68.812,0.1373],[170.7224,68.8141,-0.5372],[170.7172,68.8151,1.5116],[170.7203,68.8182,-0.8897],[170.713,68.8193,1.627],[170.7099,68.8266,-0.5984],[170.7026,68.8276,0.8004],[170.7026,68.8307,0.8242],[170.7057,68.8328,-0.8377],[170.6922,68.8359,0.0296],[170.6953,68.8391,-0.7906],[170.6839,68.8401,0.2071],[170.6792,68.8458,-0.0358],[170.6729,68.8438,0.2037],[170.663,68.8443,-0.5238],[170.6599,68.8516,1.1003],[170.6563,68.8552,0.8421],[170.662,68.8578,-0.3735],[170.6578,68.862,0.6878],[170.6526,68.863,0.8876],[170.6557,68.8662,-0.649],[170.6505,68.8672,1.0919],[170.6463,68.8714,0.0427],[170.6516,68.8745,0.1801],[170.638,68.8755,2.2915],[170.6432,68.8776,0.2978],[170.6401,68.8818,1.9196],[170.6401,68.8849,1.4465],[170.6474,68.888,0.8169],[170.6443,68.8943,1.0961],[170.6479,68.8979,-0.3595],[170.6463,68.9036,0.2672],[170.6536,68.9078,0.3628],[170.6516,68.912,0.2791],[170.6443,68.913,0.1942],[170.6432,68.9161,0.4026],[170.6359,68.9172,0.2025],[170.6349,68.9203,0.3312],[170.625,68.9229,0.4945],[170.6109,68.9203,0.4278],[170.5589,68.8953,0.8553],[170.5578,68.8922,0.3404],[170.5484,68.8912,0.6358],[170.5229,68.8792,0.2503],[170.5188,68.8792,0.5095],[170.5083,68.875,0.9718],[170.5005,68.8745,0.6072],[170.4964,68.8724,0.8459],[170.4974,68.8693,0.7079],[170.4958,68.8688,0.775],[170.4833,68.8688,0.404],[170.475,68.8646,1.0413],[170.4479,68.8604,0.2989],[170.4396,68.8562,0.6191],[170.4318,68.856,0.2416],[170.4307,68.8544,0.7306],[170.4229,68.8542,0.3669],[170.4083,68.85,0.6972],[170.3813,68.8479,0.5834],[170.3771,68.8458,0.7631],[170.3646,68.8458,0.389],[170.3547,68.8411,0.4623],[170.3771,68.8333,-0.1452],[170.3953,68.8307,-0.1438],[170.3922,68.8276,-0.2805],[170.3974,68.8266,-0.0227],[170.4021,68.8229,-0.2362],[170.4167,68.8229,0.1054],[170.4208,68.8208,-0.0042],[170.4396,68.8208,-0.275],[170.4411,68.8214,1.5887],[170.4401,68.8245,2.1316],[170.4479,68.8271,2.4135],[170.4516,68.8234,2.6858],[170.4464,68.8224,1.6424],[170.4479,68.8208,-0.3196],[170.4625,68.8208,2.2071],[170.4667,68.8187,-0.8483],[170.4812,68.8187,0.601],[170.4854,68.8167,-0.752],[170.5063,68.8167,1.5306],[170.5104,68.8146,0.5497],[170.5354,68.8146,1.4699],[170.5396,68.8125,-0.9167],[170.5516,68.812,0.2407],[170.5516,68.8089,-1.0],[170.55,68.8083,0.4309],[170.5437,68.8104,-1.0],[170.5146,68.8104,-0.0168],[170.513,68.8089,-0.0073],[170.5151,68.8047,-0.3051],[170.5224,68.8037,0.3005],[170.5297,68.7901,-0.1391],[170.537,68.7891,0.6333],[170.537,68.7859,0.479],[170.5339,68.7839,-0.8774],[170.5359,68.7818,-0.883],[170.5412,68.7807,0.2654],[170.5464,68.7734,-0.8219],[170.5542,68.7708,-0.8099],[170.5661,68.7703,1.3799],[170.5688,68.7646,-0.0102],[170.5651,68.7609,-0.1174],[170.5672,68.7589,-0.3863],[170.5724,68.7578,1.1158],[170.5693,68.7547,-0.7594],[170.5917,68.7521,0.6038],[170.5958,68.75,-0.6788],[170.6042,68.75,-0.7996],[170.6083,68.7521,2.8694],[170.6208,68.7521,1.5282],[170.6307,68.7495,3.7056],[170.6229,68.7458,-0.6832],[170.6187,68.7479,0.7589],[170.6104,68.7479,-0.4017],[170.6042,68.7458,2.0731],[170.6,68.7479,1.6855],[170.5875,68.7479,0.1863],[170.5859,68.7474,0.1863],[170.587,68.7443,1.0308],[170.5838,68.7432,-0.5809],[170.5979,68.7375,-0.7445],[170.6187,68.7375,2.0844],[170.6234,68.7338,-0.678],[170.6286,68.7328,-0.4942],[170.6271,68.7312,-0.514],[170.6208,68.7312,2.5757],[170.6083,68.7354,1.3734],[170.5938,68.7354,3.0293],[170.5833,68.7396,-0.7836],[170.5776,68.7401,1.7531],[170.575,68.7458,2.3388],[170.5786,68.7495,-0.8118],[170.5651,68.7526,2.0572],[170.562,68.7578,-0.8531],[170.5547,68.7589,1.9137],[170.5547,68.762,0.6767],[170.5578,68.7641,-0.9012],[170.5417,68.7646,1.2407],[170.538,68.7672,1.0854],[170.537,68.7703,0.1493],[170.5297,68.7714,1.06],[170.5286,68.7745,0.0034],[170.5213,68.7755,0.1304],[170.5172,68.7828,1.6162],[170.5224,68.7849,-0.8431],[170.5151,68.7859,1.623],[170.512,68.7911,-0.4538],[170.5068,68.7922,0.4301],[170.5099,68.7953,-0.6834],[170.5026,68.7963,0.3987],[170.5016,68.7995,-0.0579],[170.4958,68.8042,-0.1727],[170.4901,68.8016,-1.0],[170.4953,68.7984,0.0612],[170.4896,68.7958,0.2083],[170.4833,68.7958,-1.0],[170.475,68.7917,-1.0],[170.4688,68.7917,-1.0],[170.4646,68.7896,0.989],[170.4458,68.7896,-0.2282],[170.4375,68.7854,0.1675],[170.4193,68.7828,0.1357],[170.4203,68.7797,0.074],[170.4187,68.7792,-0.6605],[170.4109,68.7797,1.8684],[170.4089,68.7828,0.9887],[170.4162,68.787,-0.5614],[170.4109,68.788,1.3058],[170.4089,68.7911,1.9686],[170.412,68.7922,0.1236],[170.413,68.7953,2.2354],[170.4224,68.7963,0.0153],[170.4162,68.8057,-0.256],[170.4109,68.8068,1.4498],[170.4063,68.8104,1.6031],[170.3963,68.8109,1.7661],[170.3932,68.8141,-0.2213],[170.3818,68.8172,0.8791],[170.3766,68.8224,-0.4464],[170.3714,68.8234,0.1372],[170.3682,68.8287,-0.234],[170.3562,68.8292,-0.0796],[170.3313,68.8375,0.4198],[170.3125,68.8375,0.2071],[170.2974,68.8297,0.7356],[170.288,68.8287,0.6447],[170.2771,68.8229,0.8315],[170.2708,68.8229,-0.032],[170.2625,68.8187,0.462],[170.2443,68.8161,0.0],[170.2432,68.813,0.3034],[170.2375,68.8104,0.6949],[170.2312,68.8104,0.5164],[170.2167,68.8063,0.6715],[170.2063,68.8063,1.0805],[170.1979,68.8021,1.306],[170.1687,68.8,0.0],[170.1646,68.7979,1.2967],[170.1542,68.7979,0.5185],[170.15,68.7958,1.1251],[170.1375,68.7958,0.0],[170.1333,68.7937,1.2584],[170.1042,68.7937,1.1604],[170.1,68.7917,1.2958],[170.0917,68.7917,0.7782],[170.0917,68.7896,-0.5],[170.0771,68.7896,-0.5],[170.0729,68.7917,0.6653],[170.0313,68.7917,0.0],[170.0271,68.7896,0.0],[170.0188,68.7896,0.9806],[170.0146,68.7917,0.0],[170.0083,68.7917,0.0],[170.0,68.7875,0.0],[169.9859,68.787,0.0],[169.987,68.7839,0.0],[169.9792,68.7813,0.0],[169.9729,68.7813,0.0],[169.9667,68.7854,0.0],[169.9542,68.7854,0.0],[169.95,68.7833,1.8869],[169.9375,68.7833,0.0],[169.925,68.7792,0.9294],[169.9125,68.7792,0.0],[169.9083,68.7771,1.5],[169.8896,68.7771,0.0],[169.8854,68.775,0.0],[169.8625,68.775,0.0],[169.8583,68.7729,5.9346],[169.8354,68.7729,0.0],[169.8313,68.7708,5.1151],[169.8083,68.7708,0.0],[169.8042,68.7688,5.3038],[169.7417,68.7667,0.0],[169.7375,68.7646,7.0744],[169.7312,68.7667,0.0],[169.725,68.7667,0.0],[169.7208,68.7646,6.6536],[169.6563,68.7646,3.0614],[169.65,68.7667,0.0],[169.6438,68.7646,14.3832],[169.6396,68.7667,0.0],[169.6146,68.7667,10.9146],[169.6104,68.7688,0.0],[169.6021,68.7688,7.5799],[169.5833,68.775,0.0],[169.5734,68.7755,15.4124],[169.5682,68.7807,0.0],[169.563,68.7818,14.3881],[169.5599,68.7849,0.0],[169.5547,68.7859,21.9212],[169.55,68.7896,0.0],[169.5292,68.7917,22.7978],[169.5167,68.7958,0.0],[169.5083,68.7958,12.0535],[169.5042,68.7979,0.0],[169.4958,68.7979,10.1465],[169.4912,68.8016,0.0],[169.4812,68.8021,8.5384],[169.4734,68.8047,10.892],[169.4703,68.8078,0.0],[169.463,68.8089,7.7528],[169.4599,68.8141,0.0],[169.4547,68.8151,7.079],[169.4505,68.8193,5.0204],[169.437,68.8411,0.0],[169.4297,68.8422,16.9933],[169.4245,68.8495,0.0],[169.4193,68.8505,9.5177],[169.4151,68.8544,15.5435],[169.4104,68.8625,15.7248],[169.4141,68.8651,0.0],[169.413,68.8682,0.0],[169.4167,68.8708,0.5159],[169.4151,68.8745,0.0],[169.4182,68.8766,0.0],[169.4109,68.8776,2.3373],[169.4068,68.8839,1.9975],[169.4068,68.887,2.6331],[169.4099,68.888,0.0],[169.4089,68.8932,2.7646],[169.412,68.8943,2.7038],[169.4109,68.8974,0.0],[169.4141,68.8984,1.8596],[169.413,68.9016,0.0],[169.4224,68.9047,2.064],[169.4214,68.9078,0.0],[169.4287,68.9109,2.3293],[169.4297,68.9141,3.0554],[169.4411,68.9193,0.0],[169.4401,68.9245,3.0583],[169.4432,68.9255,0.0],[169.4422,68.9287,1.6351],[169.4453,68.9297,0.0],[169.4443,68.9349,0.0],[169.4474,68.9359,0.0],[169.4453,68.9411,0.0],[169.438,68.9422,5.5805],[169.4417,68.9458,5.0886],[169.4359,68.9547,10.704],[169.4391,68.9578,0.0],[169.4339,68.9599,16.4584],[169.437,68.9609,4.7025],[169.4359,68.9641,0.0],[169.4391,68.9661,0.0],[169.4292,68.9812,6.6791],[169.4328,68.9838,0.0],[169.4276,68.9922,1.8941],[169.4307,68.9943,0.0],[169.4307,68.9974,0.0],[169.4287,68.9995,0.0],[169.4234,69.0005,8.734],[169.4266,69.0036,0.0],[169.4234,69.0068,0.0],[169.4214,69.012,3.9246],[169.4245,69.0141,0.0],[169.4224,69.0182,0.0],[169.4151,69.0193,10.3891],[169.4182,69.0224,0.0],[169.413,69.0234,13.4255],[169.4109,69.0255,22.7096],[169.4141,69.0276,4.5302],[169.4141,69.0307,0.0],[169.4099,69.0349,0.0],[169.4047,69.0359,22.0748],[169.4078,69.0391,0.0],[169.4026,69.0401,22.4494],[169.4005,69.0422,28.1686],[169.4036,69.0453,0.0],[169.3984,69.0463,38.9837],[169.3938,69.05,46.5776],[169.388,69.0505,62.5102],[169.3932,69.0526,0.0],[169.3917,69.0542,0.0],[169.3813,69.0542,60.0979],[169.3734,69.0568,53.1631],[169.3687,69.0604,0.0],[169.3526,69.0609,54.1395],[169.3495,69.0661,12.1542],[169.3422,69.0672,47.5935],[169.3411,69.0703,0.0],[169.3338,69.0714,60.8054],[169.3338,69.0745,49.1119],[169.337,69.0755,0.0],[169.3349,69.0787,0.0],[169.3083,69.0792,0.0],[169.3042,69.0771,40.0596],[169.2854,69.0771,0.0],[169.2813,69.075,48.422],[169.2479,69.075,0.0],[169.2437,69.0729,79.5952],[169.2292,69.0729,84.5012],[169.225,69.075,0.0],[169.2167,69.075,35.5844],[169.2125,69.0771,0.0],[169.1979,69.0771,76.9388],[169.1854,69.0813,0.0],[169.1542,69.0813,56.901],[169.15,69.0833,0.0],[169.1229,69.0833,48.2506],[169.1187,69.0854,16.4911],[169.1042,69.0854,41.9396],[169.0964,69.088,28.1693],[169.0932,69.0911,0.0],[169.0859,69.0922,14.7054],[169.0849,69.0953,0.0],[169.0776,69.0964,36.018],[169.0766,69.0995,15.0054],[169.0703,69.1057,15.8346],[169.0562,69.1104,0.0],[169.0396,69.1104,31.3375],[169.037,69.1141,0.0],[169.0297,69.1151,11.564],[169.0286,69.1182,0.0],[169.0151,69.1193,51.0249],[169.012,69.1245,0.0],[169.0063,69.125,69.4886],[168.9958,69.1292,0.0],[168.9875,69.1292,80.8915],[168.975,69.1333,20.2856],[168.9542,69.1354,39.3],[168.9495,69.1391,2.5199],[168.9422,69.1401,14.1063],[168.9411,69.1432,0.0],[168.9276,69.1443,20.3328],[168.9245,69.1495,0.0],[168.9172,69.1505,6.8618],[168.9162,69.1536,0.0],[168.9089,69.1547,4.9567],[168.9063,69.1583,0.0],[168.8958,69.1583,15.3875],[168.8917,69.1625,0.0],[168.875,69.1625,16.0344],[168.8708,69.1646,0.0],[168.8562,69.1646,10.9455],[168.8521,69.1667,0.0],[168.8438,69.1667,15.9756],[168.8375,69.1708,0.0],[168.8229,69.1708,12.5343],[168.8151,69.1734,12.0054],[168.8104,69.1771,0.0],[168.7875,69.1792,15.5404],[168.7688,69.1854,2.8276],[168.7542,69.1854,16.2659],[168.75,69.1875,6.966],[168.7292,69.1896,23.5139],[168.7245,69.1932,0.0],[168.7172,69.1943,32.3599],[168.7146,69.1979,21.6122],[168.675,69.1979,9.3109],[168.6708,69.2,0.0],[168.6625,69.2,0.0],[168.6583,69.2021,0.0],[168.5979,69.2021,0.0],[168.5938,69.2,12.0864],[168.5854,69.2021,0.0],[168.5813,69.2,12.6913],[168.4812,69.2,6.306],[168.4771,69.2021,0.0],[168.4271,69.2021,15.893],[168.4229,69.2042,0.0],[168.3833,69.2042,12.6122],[168.3792,69.2063,0.0],[168.3417,69.2063,0.0],[168.3229,69.2125,0.0],[168.3172,69.213,0.0],[168.3141,69.2161,0.0],[168.3089,69.2172,0.0],[168.2974,69.2245,0.0],[168.2901,69.2255,0.0],[168.2891,69.2286,0.0],[168.2818,69.2297,0.0],[168.2745,69.2412,0.0],[168.2609,69.2422,0.0],[168.2682,69.2464,0.0],[168.2682,69.2495,0.0],[168.2646,69.2521,0.0],[168.2589,69.2526,1.0122],[168.2568,69.2578,0.0],[168.2599,69.2599,0.0],[168.2547,69.2609,0.0],[168.2484,69.2672,1.0009],[168.2464,69.2724,0.8591],[168.2495,69.2745,0.0],[168.2443,69.2755,0.0],[168.2401,69.2797,1.4244],[168.2432,69.2828,0.0],[168.238,69.2839,3.0707],[168.2339,69.288,4.1286],[168.237,69.2911,0.0],[168.2318,69.2922,3.4594],[168.2297,69.2943,3.7119],[168.2328,69.2963,0.0],[168.2328,69.2995,0.0],[168.2255,69.3005,4.5902],[168.2287,69.3026,3.6376],[168.2255,69.3099,4.762],[168.2287,69.312,0.0],[168.2255,69.3182,0.0],[168.2287,69.3203,0.0],[168.2208,69.3313,4.063],[168.2245,69.3349,0.0],[168.2172,69.3359,4.2456],[168.2203,69.338,4.2349],[168.2214,69.3411,4.4096],[168.2245,69.3422,0.0],[168.2229,69.3438,0.0],[168.2172,69.3443,5.0022],[168.2208,69.3479,3.4891],[168.2172,69.3536,5.7611],[168.2203,69.3547,3.3979],[168.2193,69.3599,5.0008],[168.2224,69.3609,0.0],[168.2193,69.3682,8.0722],[168.2224,69.3703,0.0],[168.2151,69.3714,8.7933],[168.2203,69.3745,0.0],[168.2151,69.3807,6.123],[168.2245,69.3839,0.0],[168.2208,69.3896,0.0],[168.2245,69.3922,0.0],[168.2214,69.3964,2.2583],[168.225,69.4,0.0],[168.2234,69.4036,0.0],[168.2349,69.4089,0.0],[168.2297,69.412,0.0],[168.2391,69.413,0.0],[168.2359,69.4182,0.0],[168.2391,69.4203,0.0],[168.2063,69.4208,0.826],[168.2026,69.4234,1.3178],[168.2042,69.425,0.5406],[168.2167,69.425,0.0],[168.2229,69.4229,0.0],[168.2292,69.425,0.0],[168.2354,69.4229,0.0],[168.2412,69.4255,0.0],[168.2401,69.4287,0.0],[168.2453,69.4297,0.0],[168.2401,69.437,0.0],[168.2495,69.4401,0.0],[168.2484,69.4432,0.0],[168.2557,69.4464,0.0],[168.2526,69.4537,0.0],[168.2641,69.4589,0.0],[168.2589,69.462,0.0],[168.2661,69.4651,0.0],[168.2651,69.4682,0.0],[168.2703,69.4693,0.0],[168.2693,69.4724,0.0],[168.2724,69.4734,0.0],[168.2713,69.4766,0.0],[168.2745,69.4776,0.0],[168.2734,69.4828,2.2087],[168.2766,69.4849,0.0],[168.2713,69.487,6.1519],[168.2745,69.488,6.1358],[168.2734,69.4912,7.4517],[168.2766,69.4932,0.0],[168.2708,69.5021,4.6456],[168.2745,69.5057,0.0],[168.2672,69.5068,10.2871],[168.2703,69.5099,0.0],[168.2651,69.512,26.0863],[168.2724,69.5151,0.0],[168.2693,69.5224,0.5294],[168.2724,69.5234,0.0],[168.2713,69.5266,0.5727],[168.2766,69.5276,0.0],[168.2755,69.5307,0.4708],[168.2828,69.5339,0.0],[168.2813,69.5375,0.6645],[168.2849,69.5411,0.0],[168.2807,69.5453,0.8647],[168.2755,69.5463,0.8785],[168.2703,69.5516,0.0],[168.2542,69.5563,0.0],[168.2312,69.5583,4.0094],[168.2271,69.5604,4.9534],[168.2188,69.5604,3.5869],[168.2146,69.5625,0.0],[168.2063,69.5625,9.1403],[168.2021,69.5646,0.0],[168.1854,69.5646,6.9283],[168.1812,69.5667,0.0],[168.1729,69.5667,6.364],[168.1687,69.5687,0.0],[168.1583,69.5687,6.7445],[168.1333,69.5771,0.0],[168.1229,69.5771,8.3367],[168.1182,69.5807,0.0],[168.113,69.5818,4.926],[168.1099,69.5849,0.0],[168.0734,69.5943,5.6899],[168.0724,69.5974,0.0],[168.0583,69.6,6.6519],[168.0505,69.6026,9.6418],[168.0474,69.6057,0.0],[168.0339,69.6088,7.0185],[168.0271,69.6146,0.0],[168.0172,69.6151,18.3989],[168.0203,69.6182,0.0],[168.0089,69.6172,11.1105],[168.0057,69.6224,0.0],[167.9984,69.6234,0.6532],[167.9974,69.6266,0.0],[167.9901,69.6276,0.8482],[167.987,69.6307,0.752],[167.9792,69.6333,0.7429],[167.9672,69.6339,0.8687],[167.9703,69.637,0.5148],[167.9651,69.638,0.8664],[167.962,69.6412,0.7802],[167.9521,69.6417,0.813],[167.9474,69.6453,0.0],[167.9401,69.6464,0.6328],[167.9443,69.6495,0.0],[167.9521,69.6521,0.7917],[167.9583,69.6479,0.5526],[167.9807,69.6484,0.0],[167.9797,69.6516,0.9405],[167.9922,69.6578,0.0],[167.9974,69.6589,0.0],[167.9964,69.662,0.0],[168.013,69.6703,0.0],[168.0182,69.6713,0.0],[168.0172,69.6745,0.6858],[168.0266,69.6755,0.0],[168.0479,69.6854,0.0],[168.0604,69.6854,0.0],[168.0667,69.6813,0.0],[168.075,69.6813,0.7027],[168.0932,69.6766,0.3736],[168.088,69.6745,0.4014],[168.0917,69.6708,0.3951],[168.0995,69.6734,0.0],[168.0932,69.6849,0.4404],[168.0859,69.6859,0.6227],[168.0786,69.6953,0.0],[168.0734,69.6964,0.0],[168.0766,69.6984,0.0],[168.0745,69.7016,0.0],[168.0672,69.7026,0.0],[168.0672,69.7057,0.0],[168.0703,69.7078,0.0],[168.0568,69.7089,0.0],[168.062,69.7109,0.0],[168.0609,69.7141,0.0],[168.0641,69.7161,0.0],[168.0568,69.7266,0.0],[168.0646,69.7271,0.0],[168.0724,69.7307,0.0],[168.0667,69.7312,0.0],[168.062,69.7349,0.0],[168.0568,69.7359,0.0],[168.0547,69.7391,0.0],[168.0578,69.7412,0.0],[168.0557,69.7432,0.0],[168.0479,69.7458,0.0],[168.0375,69.7458,0.0],[168.0333,69.7479,0.0],[168.0125,69.7479,0.6444],[168.0083,69.75,0.0],[167.9937,69.75,0.6596],[167.9896,69.7521,0.2587],[167.9792,69.7521,0.7375],[167.9688,69.7562,0.6209],[167.9547,69.7589,0.5074],[167.9495,69.7662,0.6532],[167.9417,69.7688,0.0],[167.9271,69.7688,0.3044],[167.9208,69.7667,0.9575],[167.9146,69.7708,0.4938],[167.9063,69.7708,0.5516],[167.9005,69.7672,0.0],[167.9125,69.7667,0.6569],[167.9141,69.7651,0.0],[167.8979,69.7646,0.0],[167.8938,69.7667,0.0],[167.8854,69.7667,0.0],[167.8729,69.7708,0.0],[167.8229,69.7708,0.0],[167.8188,69.7688,0.0],[167.8062,69.7688,0.0],[167.8021,69.7667,0.0],[167.7958,69.7688,0.0],[167.7708,69.7688,0.0],[167.7646,69.7667,0.0],[167.7604,69.7688,0.0],[167.7458,69.7688,0.0],[167.7375,69.7646,0.0],[167.7312,69.7646,0.0],[167.7229,69.7604,0.0],[167.7167,69.7604,0.0],[167.7141,69.7568,0.0],[167.7068,69.7536,0.0],[167.7078,69.7505,0.0],[167.6984,69.7495,0.0],[167.6995,69.7464,0.0],[167.6854,69.7458,0.0],[167.6708,69.7396,0.0],[167.663,69.7391,0.0],[167.6641,69.7359,0.0],[167.6568,69.7328,0.0],[167.6557,69.7297,11.664],[167.6479,69.7292,0.0],[167.6396,69.725,0.0],[167.6318,69.7245,0.0],[167.6276,69.7224,0.0],[167.6286,69.7193,0.0],[167.6245,69.7172,0.0],[167.6167,69.7167,0.0],[167.6089,69.7141,0.0],[167.5682,69.6943,12.5421],[167.5589,69.6932,0.0],[167.5307,69.6797,4.4423],[167.5213,69.6787,0.0],[167.4807,69.6589,3.7176],[167.4729,69.6583,0.0],[167.4536,69.6484,1.9575],[167.4458,69.6458,4.1553],[167.438,69.6453,0.0],[167.4401,69.6422,13.2852],[167.4474,69.6412,11.4638],[167.4432,69.638,11.4731],[167.4396,69.6375,13.9478],[167.4354,69.6396,13.659],[167.4255,69.6391,0.0],[167.3901,69.6224,0.0],[167.3911,69.6193,0.8378],[167.3833,69.6188,0.0],[167.375,69.6146,15.7943],[167.3687,69.6146,0.0],[167.3604,69.6104,8.3414],[167.3526,69.6099,0.0],[167.3516,69.6068,0.0],[167.3474,69.6047,4.4708],[167.338,69.6036,0.0],[167.312,69.5901,12.8957],[167.3,69.5854,9.2596],[167.2922,69.5849,0.0],[167.2729,69.575,4.2286],[167.2651,69.5745,0.0],[167.2609,69.5724,0.0],[167.262,69.5693,3.5386],[167.2578,69.5672,0.9265],[167.25,69.5667,0.0],[167.2396,69.5625,0.0],[167.2333,69.5625,0.0],[167.2318,69.562,0.0],[167.2328,69.5589,0.0],[167.2234,69.5578,0.0],[167.2255,69.5547,0.0],[167.2328,69.5537,0.0],[167.2328,69.5505,0.0],[167.2208,69.55,0.0],[167.213,69.5474,0.0],[167.2141,69.5443,0.0],[167.2125,69.5437,0.0],[167.1896,69.5437,0.0],[167.1787,69.538,1.0325],[167.1708,69.5375,0.0],[167.1589,69.5328,0.4605],[167.2077,69.5206,1.0593],[167.3155,69.4773,1.3622],[167.4519,69.4311,22.4363],[167.4454,69.3834,25.297],[167.3254,69.3249,3.6722],[167.1477,69.2641,59.5428],[167.0004,69.1827,113.6186],[166.9118,69.1272,362.852],[166.976,69.0723,152.9056],[167.0953,69.0523,217.9837],[167.216,69.0189,181.6744],[167.2752,68.9631,309.8045],[167.381,68.8861,170.4838],[167.4685,68.7812,215.6738],[167.4334,68.7336,575.7819],[167.2947,68.6913,447.7718],[167.2125,68.6525,410.5499],[167.1195,68.5868,416.2428],[167.1776,68.5506,558.1796],[167.0418,68.5082,434.873],[167.0875,68.437,845.7052],[167.2816,68.3729,772.0146],[167.4234,68.3398,542.5419],[167.5804,68.3443,786.4411],[167.6926,68.374,884.0154],[167.6407,68.2949,780.9734],[167.6378,68.2651,707.1224],[167.5356,68.2213,606.7881],[167.3564,68.1597,676.6293],[167.2808,68.1097,673.9657],[167.3028,68.0643,490.6735],[167.3344,68.0198,516.9483],[167.4296,67.9898,620.1321],[167.4455,67.9523,543.5455],[167.512,67.9153,706.8111],[167.6394,67.9158,717.4483],[167.7435,67.8781,698.001],[167.7642,67.8474,734.9083],[167.8524,67.8207,533.7027],[167.9759,67.8194,686.4172],[168.0266,67.7678,964.8467],[168.0662,67.7394,668.8808],[168.2121,67.6843,830.9953],[168.373,67.6718,1086.2316],[168.4572,67.62,1289.0782],[168.5859,67.5778,649.1932],[168.6925,67.5806,1011.5902],[168.9664,67.6338,780.4642],[169.0354,67.6226,971.616],[169.1252,67.5745,946.0159],[169.2881,67.5396,673.0226],[169.4149,67.5373,658.5281],[169.4577,67.4933,915.1551],[169.5458,67.4745,760.7894],[169.7722,67.4867,805.6891],[169.8201,67.5086,1043.9873],[169.9082,67.4904,980.7903],[169.9832,67.4551,1077.0686],[170.1116,67.4587,1182.2119],[170.1112,67.4288,884.9],[170.0709,67.3964,1080.2775],[170.1466,67.3674,1092.6886],[170.2492,67.3428,751.3409],[170.3012,67.3184,792.1953],[170.3151,67.2671,756.8508],[170.3804,67.2621,879.7902],[170.4548,67.2484,908.7274],[170.47,67.2101,802.0368],[170.5822,67.2085,627.431],[170.6395,67.1787,878.5513],[170.6993,67.1579,582.0105],[170.7997,67.1481,620.2374],[170.8827,67.1312,669.7202],[170.9638,67.0888,629.1537],[171.0216,67.087,770.952],[171.1007,67.0925,702.5679],[171.1561,67.1191,861.4475],[171.2854,67.1231,777.4886],[171.3689,67.1478,620.9151],[171.3595,67.1942,702.321],[171.3147,67.2365,731.0247],[171.397,67.2741,708.9687],[171.507,67.3107,877.5786],[171.6101,67.2958,551.4541],[171.7237,67.298,507.8279],[171.8783,67.3281,475.1168],[171.9428,67.3728,554.1036],[171.9369,67.4157,639.421],[171.9933,67.4588,490.3506],[172.0761,67.4895,490.2124],[172.1556,67.5303,490.438],[172.1692,67.6011,507.1683],[172.246,67.6784,424.0961],[172.4137,67.7383,490.7165],[172.5311,67.7379,575.2558],[172.6197,67.7049,456.0567],[172.7924,67.7152,398.3292],[173.1671,67.7271,565.856],[173.3304,67.7351,559.5814],[173.5327,67.7558,736.1329],[173.5249,67.7897,533.1172],[173.5006,67.8312,621.9387],[173.4286,67.8976,427.3364],[173.5014,67.9456,390.5017],[173.5279,67.9862,404.6046],[173.5645,68.036,475.9604],[173.5113,68.0736,830.4622],[173.6203,68.1061,743.5947],[173.7231,68.0981,575.6996],[173.7969,68.0893,391.9727],[173.8822,68.0954,417.4015]]],
[[[170.6875,68.8521,-0.5513],[170.687,68.8536,-0.5688],[170.6771,68.8562,0.1176],[170.6693,68.8557,-0.0014],[170.6714,68.8526,-0.1373],[170.6828,68.8495,0.5744],[170.6859,68.8464,-0.1773],[170.7036,68.8422,-0.0785],[170.7036,68.8453,-0.3014],[170.6964,68.8464,-0.2729],[170.6953,68.8495,-0.6753],[170.688,68.8505,0.0829],[170.6875,68.8521,-0.5513]]],
[[[170.8313,68.9729,1.2894],[170.8297,68.9714,1.1948],[170.8354,68.9708,1.007],[170.8354,68.9729,1.1494],[170.8391,68.9745,1.2681],[170.8354,68.975,1.0837],[170.8313,68.9729,1.2894]]],
[[[171.0083,69.0667,0.0948],[171.0068,69.0651,0.4168],[171.0099,69.0651,0.0926],[171.0104,69.0667,-0.0201],[171.0083,69.0667,0.0948]]],
[[[170.0875,68.7937,0.0],[170.0859,68.7922,1.4949],[170.0917,68.7917,0.7782],[170.0917,68.7937,0.0],[170.0875,68.7937,0.0]]],
[[[170.4891,68.8089,-0.0878],[170.4875,68.8104,0.0725],[170.4818,68.8109,0.0452],[170.4792,68.8146,-0.1348],[170.4708,68.8146,-0.1074],[170.4693,68.813,-0.1244],[170.4724,68.8089,-0.1053],[170.463,68.8078,-0.1423],[170.462,68.8047,-0.0929],[170.4547,68.8005,-0.3538],[170.4583,68.7979,-0.2384],[170.4646,68.7979,-0.1312],[170.4891,68.8089,-0.0878]]],
[[[170.0875,69.7,0.5],[170.087,69.7016,0.0],[170.0771,69.7042,0.0],[170.0625,69.7042,0.0],[170.0583,69.7021,3.7856],[170.0505,69.7016,0.0],[170.038,69.6953,0.0],[170.0375,69.6937,11.8417],[170.0401,69.6901,0.0],[170.0562,69.6854,0.0],[170.0688,69.6854,0.0],[170.0714,69.6891,0.1577],[170.0813,69.6896,0.2277],[170.0828,69.688,0.3741],[170.0776,69.6859,2.3321],[170.0875,69.6854,0.7365],[170.0891,69.687,0.1209],[170.0854,69.6937,0.689],[170.0891,69.6964,0.5649],[170.0875,69.7,0.5]]],
[[[170.2583,69.7042,3.6448],[170.2547,69.7026,3.3197],[170.2828,69.7026,2.4827],[170.2813,69.7042,4.1753],[170.2583,69.7042,3.6448]]],
[[[170.5672,69.8016,0.0],[170.5688,69.8,0.0],[170.5729,69.8,0.0],[170.5729,69.8021,0.6437],[170.5672,69.8016,0.0]]],
[[[170.5646,70.0875,190.6922],[170.5625,70.0854,20.4079],[170.5646,70.0833,2.4555],[170.5729,70.0833,68.8971],[170.575,70.0854,130.9618],[170.5729,70.0875,152.3716],[170.5646,70.0875,190.6922]]],
[[[170.5938,70.1021,437.0327],[170.5901,70.1005,452.5862],[170.6,70.1,377.3941],[170.6021,70.1021,385.0256],[170.6016,70.1036,345.3509],[170.5979,70.1042,388.6731],[170.5938,70.1021,437.0327]]],
[[[170.5813,70.1125,90.6046],[170.5776,70.112,127.5517],[170.5776,70.1109,134.151],[170.5828,70.1109,66.0186],[170.5813,70.1125,90.6046]]],
[[[170.5667,70.0938,313.2102],[170.5651,70.0922,326.8932],[170.5703,70.0922,379.3361],[170.5703,70.0932,359.3314],[170.5667,70.0938,313.2102]]],
[[[170.5604,70.1125,315.3123],[170.5417,70.1146,394.2084],[170.5375,70.1125,456.9806],[170.5313,70.1125,467.5484],[170.525,70.1104,414.9897],[170.5104,70.1146,303.1934],[170.5063,70.1125,392.3792],[170.4646,70.1125,286.4684],[170.4604,70.1104,303.4241],[170.4521,70.1104,260.773],[170.4479,70.1083,251.0275],[170.4292,70.1083,10.5013],[170.4276,70.1068,24.0698],[170.4349,70.1057,150.8643],[170.4297,70.1026,43.0227],[170.4339,70.0984,20.6993],[170.4417,70.0958,0.0],[170.4521,70.0958,34.0139],[170.4563,70.0938,0.0],[170.4771,70.0938,33.3958],[170.4875,70.0896,0.0],[170.5104,70.0896,39.9569],[170.5146,70.0875,0.0],[170.5521,70.0875,138.7299],[170.5599,70.0901,282.9201],[170.5589,70.0932,194.7907],[170.5708,70.0979,285.9179],[170.5792,70.0958,400.9866],[170.5849,70.0984,436.4312],[170.5807,70.1057,273.71],[170.5693,70.1068,281.5184],[170.5672,70.1099,263.9754],[170.5703,70.112,225.4948],[170.5604,70.1125,315.3123]]],
[[[168.2521,69.6542,0.0],[168.2516,69.6557,0.0],[168.2443,69.6568,0.0],[168.2396,69.6604,0.0],[168.2271,69.6604,0.0],[168.2255,69.6599,0.0],[168.2266,69.6568,0.0],[168.2214,69.6547,0.0],[168.2255,69.6505,0.0],[168.2307,69.6484,0.0],[168.2125,69.6479,0.0],[168.2068,69.6422,0.0],[168.2141,69.6412,9.721],[168.2167,69.6375,0.0],[168.2333,69.6375,5.8938],[168.2375,69.6354,0.0],[168.2458,69.6354,0.0],[168.262,69.6401,0.0],[168.2604,69.6417,0.0],[168.2547,69.6422,0.0],[168.2526,69.6443,0.0],[168.2526,69.6474,0.0],[168.2557,69.6495,0.0],[168.2521,69.6542,0.0]]],
[[[168.0917,69.6667,0.5324],[168.088,69.6661,0.9408],[168.088,69.6652,0.0],[168.0932,69.6651,0.3973],[168.0917,69.6667,0.5324]]],
[[[168.0729,69.7271,0.0],[168.0693,69.7266,0.0],[168.0693,69.7255,0.0],[168.0745,69.7255,0.0],[168.0729,69.7271,0.0]]],
[[[167.8214,69.7786,0.0],[167.8234,69.7755,0.0],[167.8286,69.7755,0.0],[167.8266,69.7786,0.0],[167.8214,69.7786,0.0]]],
[[[167.7542,69.7854,0.0],[167.7505,69.7849,0.0],[167.7505,69.7839,0.0],[167.7557,69.7839,0.0],[167.7542,69.7854,0.0]]],
[[[167.7937,69.7875,0.0],[167.7901,69.7859,0.0],[167.8141,69.7859,0.0],[167.8125,69.7875,0.0],[167.7937,69.7875,0.0]]],
[[[168.5313,70.0167,0.6118],[168.5208,70.0208,0.4434],[168.5125,70.0208,0.5173],[168.4979,70.0146,1.1052],[168.4854,70.0188,1.1299],[168.4792,70.0167,0.3024],[168.4708,70.0167,0.2759],[168.4646,70.0188,1.3291],[168.463,70.0182,0.5345],[168.4641,70.0151,0.5897],[168.4604,70.0146,0.5897],[168.4568,70.0172,0.5346],[168.4557,70.0203,0.651],[168.4521,70.0208,0.5754],[168.4495,70.0172,0.5678],[168.4375,70.0125,0.883],[168.4339,70.0151,0.4617],[168.4307,70.0203,1.2148],[168.4271,70.0208,0.6967],[168.4125,70.0146,0.5172],[168.4083,70.0167,-0.0059],[168.4,70.0167,0.2717],[168.3938,70.0146,0.3771],[168.3875,70.0167,0.4438],[168.3833,70.0146,0.4959],[168.3542,70.0125,0.2072],[168.3438,70.0083,0.2885],[168.3313,70.0083,0.6661],[168.325,70.0104,0.0248],[168.3188,70.0083,0.2987],[168.3062,70.0125,0.3949],[168.2979,70.0125,0.641],[168.2964,70.0109,0.089],[168.3021,70.0104,0.2514],[168.3037,70.0089,-0.1787],[168.2958,70.0083,0.1392],[168.2917,70.0062,0.1021],[168.2833,70.0083,0.045],[168.2776,70.0057,0.1939],[168.275,70.0021,1.0085],[168.2708,70.0042,-0.051],[168.2646,70.0021,0.4694],[168.2609,70.0026,0.4694],[168.2641,70.0047,-0.0474],[168.2625,70.0062,-0.1258],[168.2563,70.0042,0.4742],[168.2312,70.0042,0.8499],[168.2297,70.0036,0.6041],[168.2307,70.0005,0.3536],[168.2292,70.0,0.6201],[168.2125,70.0042,0.0032],[168.2109,70.0036,0.4782],[168.212,70.0005,0.364],[168.2083,70.0,0.6241],[168.2021,70.0021,0.2955],[168.2005,70.0016,0.2382],[168.2016,69.9984,0.4555],[168.1938,69.9979,0.4947],[168.1896,69.9958,0.515],[168.175,69.9958,0.5402],[168.1708,69.9979,0.4521],[168.1625,69.9979,0.941],[168.1583,69.9958,0.8546],[168.1505,69.9953,0.0],[168.1463,69.9932,0.8126],[168.1453,69.9901,0.3496],[168.1396,69.9875,0.6455],[168.1313,69.9896,0.0],[168.1271,69.9875,0.4296],[168.1208,69.9875,0.0],[168.1151,69.9849,0.4759],[168.1162,69.9818,0.4152],[168.112,69.9797,0.5249],[168.1021,69.9792,0.6255],[168.0938,69.975,0.52],[168.0813,69.975,0.0],[168.0568,69.9641,0.5053],[168.0599,69.9599,0.4699],[168.0599,69.9568,0.2331],[168.0474,69.9505,-0.4465],[168.0396,69.95,-1.0],[168.0354,69.9479,0.109],[168.0271,69.9479,-1.0],[168.0208,69.95,0.5525],[168.0182,69.9464,0.3706],[168.0141,69.9443,0.4934],[168.0047,69.9432,0.4311],[167.9896,69.9354,13.3281],[167.9797,69.9349,0.0],[167.9432,69.9172,8.376],[167.9354,69.9167,0.0],[167.9297,69.9141,0.0],[167.9287,69.9109,10.7795],[167.912,69.9026,0.0],[167.9068,69.9016,0.0],[167.9078,69.8984,20.045],[167.9005,69.8953,10.8487],[167.8995,69.8922,32.9196],[167.8901,69.8912,0.0],[167.8859,69.8891,0.0],[167.887,69.8859,0.0],[167.8734,69.8807,0.0],[167.8745,69.8776,28.4467],[167.8672,69.8745,0.0],[167.8662,69.8714,36.4795],[167.8505,69.8641,0.0],[167.8495,69.8609,28.1046],[167.838,69.8557,0.0],[167.8391,69.8526,38.7814],[167.8297,69.8495,0.0],[167.8307,69.8464,35.5297],[167.8172,69.8411,0.0],[167.8182,69.838,0.0],[167.8068,69.8328,0.0],[167.8057,69.8297,0.0],[167.7984,69.8266,0.0],[167.7995,69.8234,0.0],[167.7964,69.8224,0.0],[167.7953,69.8193,10.3213],[167.788,69.8161,0.0],[167.7891,69.813,0.0],[167.7797,69.8089,0.0],[167.7833,69.8063,0.0],[167.7917,69.8083,0.0],[167.7958,69.8063,0.0],[167.8,69.8063,5.2071],[167.8078,69.8037,0.0],[167.8109,69.8005,0.0],[167.8161,69.7995,0.0],[167.8208,69.7958,0.0],[167.825,69.7958,0.0],[167.8292,69.7937,0.0],[167.8375,69.7937,0.6441],[167.85,69.7896,0.0],[167.8833,69.7896,0.0],[167.8958,69.7854,0.0],[167.9292,69.7833,23.5117],[167.9339,69.7797,0.0],[167.9396,69.7792,0.0],[167.9583,69.7729,0.0],[167.9688,69.7729,5.8337],[167.9792,69.7688,0.0],[167.9958,69.7688,18.7693],[168.0,69.7667,0.0],[168.0083,69.7667,0.0],[168.0125,69.7646,0.0],[168.0229,69.7646,14.0195],[168.0333,69.7604,0.0],[168.0562,69.7583,8.2045],[168.0625,69.7542,0.0],[168.0708,69.7562,14.3258],[168.0786,69.7536,2.8826],[168.0833,69.75,0.0],[168.1083,69.7458,0.291],[168.1109,69.7422,0.3871],[168.1182,69.7412,0.9498],[168.1151,69.738,0.2812],[168.1182,69.7318,1.0203],[168.1089,69.7307,0.0],[168.1104,69.7292,0.0],[168.1162,69.7286,5.9373],[168.1109,69.7255,0.0],[168.1182,69.7161,0.5471],[168.1109,69.7089,0.0],[168.1182,69.7078,0.5043],[168.1214,69.7026,0.0],[168.1286,69.7016,0.4667],[168.1401,69.6943,0.0],[168.1536,69.6911,0.0],[168.1609,69.6818,0.0],[168.1667,69.6813,0.0],[168.1854,69.675,0.0],[168.2042,69.6771,0.0],[168.2083,69.675,0.0],[168.2312,69.6729,0.0],[168.2375,69.6687,0.0],[168.2521,69.6687,0.6482],[168.2682,69.6641,3.9584],[168.2729,69.6604,0.0],[168.2833,69.6604,0.4429],[168.3021,69.6542,0.0],[168.3104,69.6542,3.222],[168.312,69.6526,0.0],[168.3089,69.6516,0.0],[168.3104,69.65,0.0],[168.3188,69.6521,5.5127],[168.3234,69.6484,0.0],[168.3313,69.6458,0.0],[168.3417,69.6458,4.3328],[168.3443,69.6422,0.0],[168.3542,69.6396,0.0],[168.3771,69.6375,4.1653],[168.3813,69.6354,0.0],[168.3896,69.6354,1.8775],[168.3938,69.6333,0.0],[168.4146,69.6333,0.0],[168.4271,69.6292,0.0],[168.4354,69.6292,1.5168],[168.4401,69.6255,0.0],[168.45,69.6229,0.0],[168.4646,69.6229,4.9744],[168.4833,69.6167,0.0],[168.4937,69.6167,6.5836],[168.4979,69.6125,0.0],[168.5021,69.6125,0.0],[168.5063,69.6104,0.0],[168.5146,69.6104,4.0541],[168.5271,69.6062,0.0],[168.5604,69.6062,0.0],[168.5646,69.6042,0.0],[168.5729,69.6042,0.0],[168.5891,69.5995,0.0],[168.5859,69.5964,0.0],[168.5979,69.5958,0.0],[168.6083,69.5917,0.0],[168.6187,69.5917,0.0],[168.6229,69.5896,0.0],[168.6375,69.5896,2.1614],[168.6417,69.5875,0.0],[168.65,69.5875,0.0],[168.6542,69.5854,0.0],[168.6771,69.5833,0.0],[168.6812,69.5813,0.0],[168.7021,69.5813,7.8225],[168.7146,69.5771,0.0],[168.7292,69.5771,7.9478],[168.7333,69.575,0.0],[168.7437,69.575,0.0],[168.7479,69.5729,0.0],[168.7688,69.5729,0.0],[168.7729,69.5708,0.0],[168.8,69.5708,12.521],[168.8188,69.5646,0.0],[168.8646,69.5625,0.0],[168.8687,69.5604,0.0],[168.8792,69.5604,0.0],[168.8833,69.5583,0.0],[168.8979,69.5583,11.2212],[168.9021,69.5563,0.0],[168.9104,69.5563,0.0],[168.9146,69.5542,0.0],[168.9521,69.5542,0.0],[168.9563,69.5563,0.8614],[168.9812,69.5563,0.0],[168.9896,69.5604,0.0],[169.0021,69.5604,0.0],[169.0167,69.5646,0.0],[169.0417,69.5646,0.8489],[169.0458,69.5625,0.0],[169.0667,69.5625,0.0],[169.0708,69.5604,0.0],[169.0875,69.5604,0.0],[169.0917,69.5583,0.0],[169.0979,69.5583,0.0],[169.1042,69.5604,0.0],[169.1083,69.5583,0.0],[169.1479,69.5583,16.1946],[169.1521,69.5563,0.0],[169.1667,69.5563,14.1285],[169.1708,69.5542,0.0],[169.187,69.5547,0.0],[169.1911,69.5568,0.0],[169.1901,69.5599,20.4416],[169.1953,69.5609,0.0],[169.2088,69.5682,27.8582],[169.2182,69.5693,0.0],[169.2193,69.5724,25.8899],[169.2266,69.5755,0.0],[169.2255,69.5787,33.1104],[169.2391,69.5839,0.0],[169.238,69.587,33.3105],[169.2432,69.588,0.0],[169.2422,69.5911,35.137],[169.2495,69.5943,0.0],[169.2505,69.5974,19.6249],[169.262,69.6026,0.0],[169.263,69.6057,0.0],[169.2661,69.6068,0.0],[169.2651,69.6099,0.0],[169.2682,69.6109,0.0],[169.2693,69.6141,0.0],[169.2766,69.6172,0.0],[169.2755,69.6203,0.0],[169.2807,69.6214,0.0],[169.2797,69.6245,0.0],[169.2828,69.6255,7.474],[169.2818,69.6286,16.2387],[169.2912,69.6318,0.0],[169.2901,69.6349,0.0],[169.2932,69.6359,0.0],[169.2943,69.6391,0.0],[169.3016,69.6422,0.0],[169.3005,69.6474,0.0],[169.3037,69.6495,0.0],[169.3005,69.6557,19.7185],[169.3037,69.6578,0.0],[169.2984,69.6589,32.2945],[169.3016,69.662,15.1895],[169.2964,69.6703,23.6471],[169.3016,69.6724,0.0],[169.2943,69.6734,16.3293],[169.2917,69.6771,25.8792],[169.2953,69.6797,0.0],[169.2922,69.687,0.0],[169.2953,69.688,0.0],[169.2953,69.6911,0.0],[169.2917,69.6937,0.0],[169.2859,69.6943,16.3413],[169.2912,69.6964,0.0],[169.2891,69.6995,0.0],[169.2818,69.7005,11.7068],[169.2786,69.7057,0.0],[169.2651,69.7089,0.0],[169.263,69.712,4.8673],[169.2682,69.713,0.0],[169.2672,69.7161,0.0],[169.2755,69.7203,0.0],[169.2937,69.725,0.0],[169.3062,69.725,0.0],[169.312,69.7286,15.8965],[169.3047,69.7297,16.987],[169.3037,69.7328,0.0],[169.2964,69.7338,0.0],[169.2849,69.7412,2.1956],[169.2797,69.7422,4.0019],[169.2828,69.7453,0.0],[169.2807,69.7474,0.0],[169.2755,69.7484,0.0],[169.2713,69.7526,0.0],[169.2713,69.7557,0.0],[169.2875,69.7625,0.0],[169.2922,69.7589,0.0],[169.3021,69.7562,0.0],[169.3146,69.7562,0.0],[169.3188,69.7583,0.0],[169.3458,69.7583,0.0],[169.35,69.7562,0.0],[169.3646,69.7562,0.0],[169.3687,69.7542,0.0],[169.3896,69.7562,1.084],[169.3938,69.7542,0.0],[169.4,69.7542,0.0],[169.4078,69.7568,0.0],[169.4068,69.7599,3.0144],[169.4141,69.763,0.0],[169.4146,69.7646,0.0],[169.412,69.7682,0.0],[169.4068,69.7693,0.0],[169.4047,69.7724,5.5239],[169.4125,69.7729,0.0],[169.4208,69.7771,2.1519],[169.4287,69.7776,0.0],[169.4276,69.7828,0.0],[169.437,69.7859,0.0],[169.4505,69.7932,0.0],[169.4557,69.7943,0.0],[169.4526,69.7995,0.0],[169.4578,69.8005,0.0],[169.4563,69.8021,0.0],[169.4505,69.8026,4.7227],[169.4578,69.8068,0.3217],[169.4563,69.8125,0.0],[169.4599,69.8151,0.0],[169.4557,69.8224,0.0],[169.4484,69.8234,0.0],[169.4536,69.8266,0.0],[169.4464,69.837,0.0],[169.4516,69.8391,0.0],[169.4474,69.8432,0.0],[169.4422,69.8443,0.0],[169.438,69.8484,0.0],[169.4432,69.8516,0.0],[169.4297,69.8547,0.0],[169.4328,69.8578,0.0],[169.4208,69.8583,0.0],[169.4104,69.8625,0.0],[169.4063,69.8625,0.0],[169.4021,69.8646,0.0],[169.3938,69.8646,0.1108],[169.3813,69.8688,0.0],[169.3458,69.8729,0.5929],[169.3396,69.8771,0.0],[169.3042,69.8792,0.0],[169.3,69.8812,0.0],[169.2792,69.8812,0.6129],[169.2688,69.8854,0.0],[169.2568,69.8859,0.0],[169.2521,69.8917,0.0],[169.2417,69.8917,0.0],[169.2229,69.8979,0.0],[169.1917,69.8979,0.0],[169.1875,69.8958,0.0],[169.1604,69.8958,0.0],[169.1563,69.8979,0.0],[169.1417,69.8979,0.0],[169.1375,69.9,0.0],[169.1271,69.9,0.0],[169.1193,69.9026,0.0],[169.1141,69.9078,0.0],[169.0943,69.913,0.0],[169.0891,69.9182,0.0],[169.0838,69.9193,0.0],[169.0786,69.9245,0.0],[169.0708,69.9271,0.0],[169.0604,69.9271,0.0],[169.0578,69.9307,0.0],[169.0505,69.9318,0.0],[169.0537,69.9339,0.0],[169.0484,69.9359,0.0],[169.0516,69.9391,0.0],[169.0443,69.9401,0.0],[169.0412,69.9453,0.0],[169.0359,69.9464,0.0],[169.0375,69.9479,0.0],[169.0437,69.9479,0.0],[169.0479,69.9458,0.0],[169.0578,69.9464,0.0],[169.05,69.95,-0.1566],[169.0292,69.95,0.0],[169.0229,69.9479,0.0],[169.0182,69.9516,0.0],[169.0083,69.9521,0.0],[169.0042,69.9542,0.6477],[168.9875,69.9542,0.0],[168.9833,69.9563,0.0],[168.9563,69.9563,0.0],[168.9521,69.9583,0.3241],[168.9375,69.9583,-0.5528],[168.9333,69.9604,0.7783],[168.9063,69.9604,-0.3314],[168.9,69.9583,-0.0503],[168.8813,69.9646,0.0],[168.8583,69.9667,0.128],[168.8542,69.9688,0.0],[168.8396,69.9688,0.0],[168.8354,69.9708,0.0],[168.8146,69.9708,0.4988],[168.8104,69.9688,-0.0232],[168.8021,69.9688,-0.2126],[168.7958,69.9729,0.523],[168.7833,69.9729,-0.5965],[168.7792,69.9708,-0.1013],[168.7708,69.9708,-0.2075],[168.7609,69.9734,-0.3077],[168.7599,69.9766,-0.1808],[168.7563,69.9792,0.0],[168.7396,69.9792,-0.1848],[168.7292,69.9833,0.0],[168.7125,69.9833,0.7524],[168.7083,69.9854,0.0],[168.7,69.9854,0.6302],[168.6958,69.9875,0.0],[168.6792,69.9875,0.5621],[168.675,69.9896,0.0],[168.6542,69.9896,0.5214],[168.65,69.9917,0.2607],[168.6396,69.9917,1.6693],[168.6354,69.9938,-0.0188],[168.6292,69.9917,16.5385],[168.625,69.9938,-0.1016],[168.6146,69.9938,5.0643],[168.6083,69.9979,0.2466],[168.6,69.9979,0.1299],[168.5938,70.0021,-0.0335],[168.5838,70.0026,0.3106],[168.587,70.0057,-0.0227],[168.5797,70.0068,0.1673],[168.5771,70.0104,0.1098],[168.5729,70.0104,0.4789],[168.5688,70.0125,0.7393],[168.5568,70.013,0.6324],[168.562,70.0151,0.5752],[168.5604,70.0167,0.602],[168.5458,70.0167,0.5609],[168.5396,70.0146,0.8443],[168.5354,70.0167,0.6184],[168.5313,70.0167,0.6118]]],
[[[167.7849,69.7943,0.0],[167.775,69.7979,0.0],[167.7672,69.7953,0.0],[167.7708,69.7917,0.0],[167.7771,69.7917,0.0],[167.7849,69.7943,0.0]]],
[[[170.2266,69.7662,0.0],[170.2193,69.7703,22.5049],[170.225,69.7729,1.2654],[170.2312,69.7729,0.0],[170.2328,69.7745,0.6623],[170.1875,69.775,0.0],[170.1833,69.7729,42.3908],[170.1417,69.7729,0.0],[170.1375,69.7708,33.1358],[170.1187,69.7708,0.0],[170.1146,69.7688,13.5313],[170.1021,69.7688,0.0],[170.0875,69.7646,7.0658],[170.0792,69.7646,0.0],[170.0646,69.7604,7.7679],[170.0583,69.7604,0.0],[170.05,69.7562,16.5385],[170.0437,69.7562,0.0],[170.0333,69.7521,0.0],[170.0271,69.7521,0.0],[170.0161,69.7464,0.0],[170.0109,69.7453,0.0],[169.9984,69.738,0.0],[170.0036,69.737,0.333],[170.0083,69.7333,0.0],[170.0182,69.7328,0.5519],[170.0151,69.7307,0.0],[170.0167,69.7292,0.0],[170.025,69.7312,0.3022],[170.0292,69.7292,0.0],[170.0437,69.7292,0.2829],[170.0479,69.7271,0.0],[170.0542,69.7292,0.3462],[170.0625,69.7292,0.3429],[170.0667,69.7271,0.4253],[170.075,69.7271,0.0],[170.0792,69.725,0.0],[170.0938,69.725,0.0],[170.0984,69.7214,0.0],[170.1037,69.7203,0.0],[170.1089,69.713,0.0],[170.1162,69.712,11.423],[170.1125,69.7083,0.0],[170.1151,69.7047,0.0],[170.125,69.7042,0.0],[170.1333,69.7083,5.2287],[170.1411,69.7089,0.0],[170.1401,69.712,28.321],[170.15,69.7125,0.0],[170.1557,69.7151,0.0],[170.1547,69.7182,0.0],[170.1682,69.7234,0.0],[170.1672,69.7266,23.6481],[170.175,69.7271,0.0],[170.1828,69.7297,0.0],[170.1818,69.7328,13.6359],[170.1995,69.7401,0.0],[170.2005,69.7432,5.4461],[170.2078,69.7464,0.0],[170.2088,69.7495,13.6756],[170.2161,69.7526,0.0],[170.2151,69.7578,37.1023],[170.2224,69.7609,0.0],[170.2234,69.7641,0.0],[170.2266,69.7662,0.0]]],
[[[169.3641,69.8974,0.0],[169.3672,69.8943,0.0],[169.3724,69.8943,0.0],[169.3682,69.8995,0.3401],[169.363,69.8995,0.0],[169.3641,69.8974,0.0]]],
[[[169.1938,69.9396,0.0],[169.1854,69.9396,6.1318],[169.1812,69.9417,0.0],[169.1734,69.938,0.0],[169.187,69.9349,13.2301],[169.1922,69.9276,0.0],[169.2078,69.9245,0.0],[169.2104,69.9208,0.0],[169.2271,69.9208,0.0],[169.2312,69.9187,0.0],[169.2563,69.9187,0.0],[169.2625,69.9208,0.2802],[169.2667,69.9187,0.0],[169.2771,69.9187,0.0],[169.2875,69.9146,0.0],[169.2958,69.9167,1.2035],[169.3,69.9146,0.0],[169.3042,69.9146,0.5299],[169.3057,69.913,0.0],[169.3005,69.9109,0.0],[169.3062,69.9104,0.0],[169.325,69.9042,0.0],[169.3333,69.9063,0.0],[169.3438,69.9021,0.0],[169.3521,69.9021,0.0],[169.3542,69.9042,0.0],[169.3537,69.9057,0.0],[169.3438,69.9083,0.0],[169.3338,69.9089,0.0],[169.3307,69.912,0.0],[169.3234,69.913,2.5559],[169.3224,69.9161,0.0],[169.3104,69.9167,2.4047],[169.3042,69.9208,0.0],[169.2979,69.9187,1.2428],[169.2917,69.9229,0.0],[169.2833,69.9229,15.4621],[169.2625,69.9292,0.0],[169.2396,69.9313,11.03],[169.2354,69.9333,0.0],[169.2271,69.9333,10.016],[169.2146,69.9375,0.0],[169.1938,69.9396,0.0]]],
[[[169.1396,69.9458,0.0],[169.1333,69.9458,8.3244],[169.1292,69.9479,0.0],[169.0854,69.9479,0.0],[169.0797,69.9422,0.0],[169.0896,69.9375,0.0],[169.0958,69.9396,0.0],[169.1057,69.9391,0.0],[169.1042,69.9375,0.0],[169.0964,69.937,0.0],[169.0979,69.9354,0.0],[169.1062,69.9354,0.0],[169.1125,69.9375,0.0],[169.1229,69.9333,0.0],[169.1266,69.9339,0.0],[169.1276,69.937,0.0],[169.1333,69.9396,0.0],[169.1724,69.9401,2.5034],[169.1625,69.9437,0.0],[169.1479,69.9437,8.9002],[169.1438,69.9458,0.0],[169.1396,69.9458,0.0]]],
[[[169.1062,69.9333,0.0],[169.1047,69.9318,0.0],[169.1162,69.9318,0.0],[169.1125,69.9354,0.0],[169.1062,69.9333,0.0]]],
[[[168.5437,70.0208,0.46],[168.5422,70.0193,0.2625],[168.5453,70.0193,0.4057],[168.5453,70.0203,0.5371],[168.5437,70.0208,0.46]]]]}}