{"type":"Feature","properties":{"featurecla":"Plateau","name":"CENTRAL SIBERIAN PLATEAU","namealt":null,"region":"Asia","subregion":null,"min_label":3.5,"max_label":7.0,"scalerank":2},
"geometry":{"type": "Polygon","coordinates": [[[113.65306410250261,59.415919208742963,983.7247],[114.39344323008376,59.921026922650327,688.9518],[115.01408632679713,59.891014292341765,621.1785],[115.85201089076784,59.850494514875294,523.8716],[118.16102135508376,59.738836981244134,174.263],[121.39905846445876,60.660650946087856,126.6716],[123.2046004566462,60.587347723431549,111.3066],[129.48658287852126,61.542120672650356,132.7223],[129.6201278003962,61.636297918744077,142.1842],[129.7360945972712,61.759466864056606,95.0367],[129.9149276050837,62.041449285931606,92.6573],[130.05860436289626,62.389960028119134,82.0],[129.42249596445876,63.554877020306634,83.8339],[129.30347740977126,63.683661199994077,138.0861],[129.12562096445876,63.817084051556577,264.0247],[128.87794030039626,63.940924383587884,505.114],[128.54920494883376,64.0407778992128,331.1463],[126.7837020191462,64.2614199890566,86.0115],[124.8922225269587,65.086310125775327,56.7043],[124.3525496753962,65.421637274212827,38.8006],[124.11378014414626,65.654669500775384,48.6249],[123.7683211597712,66.1491153015566,35.0],[123.57837975352126,66.566473699994134,33.2527],[123.51905358164626,66.768988348431577,41.8805],[123.4443465503962,67.6109683289003,117.3242],[123.4743758472712,67.770209051556634,131.022],[124.3549910816462,69.110419012494049,91.1695],[125.76038658945876,70.164740301556577,62.4835],[124.4853621753962,70.773993231244134,256.425],[122.18323815195876,71.411932684369049,129.9805],[90.0188094410212,70.054327703900356,632.8354],[88.9708358082087,69.6665103210878,390.8698],[88.3670760425837,68.635809637494077,315.2446],[88.414805534771261,66.702704168744077,74.1278],[89.630259636333761,63.456610418744106,179.817],[93.2858992847712,58.879217840619049,340.1676],[98.651621941021261,58.513739324994106,166.869],[101.6359969410212,59.089606024212827,319.2068],[103.7601424488337,58.924627996869077,307.7288],[106.01124108164626,58.345404364056606,526.1245],[108.3960067066462,58.1203677429628,410.0724],[110.9774276050837,58.454840399212827,402.6477],[112.82340120318767,58.988607871911626,298.7577],[113.17628014414626,59.090643621869049,586.5574],[113.65306410250261,59.415919208742963,983.7247]],
[[107.19996178477126,67.649969793744049,286.0554],[106.4630233082087,67.264960028119049,525.7773],[105.6220809253962,67.1099917664003,452.3373],[105.4419051441462,67.122565008587884,465.608],[105.30848229258376,67.1701724304628,434.2587],[105.22547448008376,67.2163760437441,439.3484],[105.1591903003962,67.236578680462827,409.5538],[105.0993758472712,67.237250067181577,422.7172],[104.72425377695876,67.1715762390566,446.5129],[103.9130965503962,67.238348699994049,401.646],[103.8411971363337,67.2326113953066,430.5337],[103.77247155039626,67.209662176556549,489.8522],[103.6021834644587,67.114264227337884,476.9228],[103.48389733164626,67.089422918744077,431.274],[102.5825301441462,67.186407782025327,317.4343],[102.5087996753962,67.2163760437441,357.8685],[102.34730065195876,67.315130926556549,271.2736],[102.28968346445876,67.326544500775356,284.6201],[102.21876061289626,67.3148867859316,289.4826],[102.0158797535212,67.2273013367128,371.046],[101.8906356128962,67.204962469525384,385.0835],[101.63013756602126,67.212164617962827,326.1268],[101.4080916675837,67.260199285931549,332.6958],[101.3308211597712,67.288641668744077,276.3346],[101.08253014414626,67.4278628601503,279.9936],[101.03333580820876,67.466437078900356,346.3029],[101.00147545664626,67.510748602337827,442.1809],[100.9951278003962,67.561773992962827,374.0439],[101.0227156910212,67.620245672650327,357.1223],[101.0583602222712,67.7351748718691,311.65],[101.03760826914626,67.887152410931549,263.7389],[100.62391198008376,68.739447332806549,472.5605],[100.46656334727126,69.3090274109316,394.7287],[100.48231041758376,69.4154727234316,554.4747],[100.5243026050837,69.5440127624941,632.2901],[100.5924178394587,69.680548407025327,490.0179],[100.6864119800837,69.8112246765566,594.2447],[100.7496444019587,69.8662783874941,319.0501],[100.8277694019587,69.9093692078066,313.1129],[100.99976647227126,69.965521551556577,321.5793],[101.2061873707087,69.996771551556549,251.0274],[101.7559920582087,70.175848699994134,429.0444],[102.70350182383376,70.280218817181577,342.1519],[106.31238854258376,69.9517276062441,551.8384],[106.39612877695876,69.916083074994049,615.7827],[106.47852623789626,69.860785223431577,649.1102],[106.5681258472712,69.770819403119134,524.8029],[107.0206404957087,68.924261785931549,235.1291],[107.26636803477126,67.7543399109316,345.6168],[107.2474471363337,67.702337957806577,268.0726],[107.19996178477126,67.649969793744049,286.0554]]]}}