{"type":"Feature","properties":{"GID_2":"RUS.29.7_1","GID_0":"RUS","country":"Russia","GID_1":"RUS.29_1","province":"Khakass","NL_NAME_1":"РеспубликаХакасия","county":"Sayanogorsk","VARNAME_2":"NA","NL_NAME_2":"Саяногорск","TYPE_2":"Gorsovet","ENGTYPE_2":"District","CC_2":"NA","HASC_2":"RU.KK.SA","name":"Sayanogorsk.county"},
"geometry":{"type": "MultiPolygon","coordinates": [[[[91.4301,53.108,297.0],[91.4214,53.1055,310.9165],[91.4119,53.0989,319.3829],[91.4151,53.0898,319.9362],[91.4213,53.083,306.2593],[91.44,53.0808,302.6405],[91.4562,53.0842,315.8423],[91.4574,53.0959,323.9391],[91.4505,53.1055,321.9051],[91.4301,53.108,297.0]]]]}}