{"type":"Feature","properties":{"ISO3166-1-Alpha-3":"RUS","country":"Russia","fill":"#FF0","id":"2399","name":"Altay"},
"geometry":{"type": "Polygon","coordinates": [[[85.46779,54.20388,375.2881],[85.44877,54.20444,352.7061],[85.43482,54.21155,384.9709],[85.41032,54.23455,386.938],[85.16,54.48717,346.0801],[85.15132,54.48804,329.9271],[85.14315,54.48737,356.5367],[85.09158,54.4712,423.2212],[85.07939,54.46939,442.1679],[84.69326,54.33741,265.8452],[84.64954,54.29787,302.1563],[84.59011,54.25472,322.4736],[84.58484,54.24992,330.8571],[84.58081,54.2446,340.5691],[84.57874,54.23922,325.7143],[84.57523,54.20656,289.9338],[84.57068,54.19943,277.668],[84.56376,54.19145,269.5607],[84.55022,54.18028,248.6679],[84.53193,54.16972,260.8725],[84.4726,54.14605,274.4905],[84.45793,54.14161,254.7628],[84.44594,54.13982,282.0247],[84.43891,54.14207,269.0078],[84.43488,54.146,286.5844],[84.43333,54.15091,305.2858],[84.43302,54.15618,291.4719],[84.43353,54.16171,303.9638],[84.43291,54.1669,294.6857],[84.43105,54.17163,290.3538],[84.42547,54.17556,274.6135],[84.39002,54.18775,235.7943],[84.37855,54.18858,240.1954],[84.36615,54.18698,240.7651],[84.34992,54.17943,275.3553],[84.32863,54.1737,252.9833],[84.29494,54.17132,259.2009],[84.28894,54.17215,208.5323],[84.28677,54.17597,216.6064],[84.28863,54.18134,230.052],[84.29494,54.19359,251.2643],[84.29649,54.19925,280.2049],[84.29607,54.20429,285.7963],[84.29111,54.20754,290.159],[84.28626,54.20997,300.5043],[84.27354,54.21437,283.3368],[84.26559,54.21571,258.6908],[84.25835,54.21406,242.6904],[84.22517,54.19509,223.3708],[84.21298,54.19178,265.0427],[84.20295,54.19137,264.111],[84.18187,54.19468,238.5144],[84.1551,54.19522,290.3059],[84.05175,54.1552,294.0994],[84.03501,54.15091,276.1115],[84.00927,54.14711,261.4743],[84.00266,54.1445,260.0586],[83.96648,54.12011,281.0628],[83.92008,54.09799,294.6799],[83.9053,54.09535,272.6536],[83.89786,54.09675,267.9636],[83.89786,54.10215,234.3607],[83.90085,54.10822,233.3073],[83.90488,54.11432,224.2373],[83.91429,54.12584,242.4154],[83.91791,54.13132,285.7862],[83.91822,54.13664,287.6162],[83.91212,54.13995,281.0039],[83.90034,54.14099,239.7962],[83.87522,54.13323,247.1796],[83.86447,54.13168,244.0888],[83.85269,54.13282,254.4858],[83.84236,54.13527,262.8167],[83.82582,54.13639,264.7137],[83.81094,54.13375,258.8553],[83.78737,54.12719,247.4343],[83.77001,54.12429,254.5342],[83.75647,54.12357,253.173],[83.67709,54.13065,232.2588],[83.58594,54.12936,240.5908],[83.56785,54.12641,243.4979],[83.55514,54.1229,256.0904],[83.4923,54.08564,191.1573],[83.48837,54.08238,196.3531],[83.48817,54.07815,186.5278],[83.49385,54.06399,232.3072],[83.49602,54.05391,213.6658],[83.49757,54.02231,197.4981],[83.50098,54.01112,196.6966],[83.5017,54.00719,196.7596],[83.50377,54.00079,183.9425],[83.50408,53.999,180.333],[83.50377,53.99655,175.361],[83.5017,53.99319,174.6637],[83.49891,53.99081,184.6377],[83.48248,53.98146,193.4819],[83.4769,53.97751,198.4373],[83.47266,53.97288,196.8342],[83.47101,53.96769,198.5733],[83.47039,53.96239,194.511],[83.46894,53.95702,191.9133],[83.46233,53.95128,193.0085],[83.45272,53.94803,197.5294],[83.41075,53.94095,195.2187],[83.4061,53.94058,195.7107],[83.39949,53.94095,193.6772],[83.39339,53.94213,193.4535],[83.38874,53.94534,195.4975],[83.38502,53.94942,194.9176],[83.36001,53.98575,206.4753],[83.34874,53.99929,204.6314],[83.34626,54.00443,208.8871],[83.32011,54.03954,224.0832],[83.30389,54.07329,215.0858],[83.30017,54.07804,210.7289],[83.2949,54.083,218.5792],[83.28807,54.08352,226.5002],[83.28136,54.08202,230.2988],[83.27547,54.07848,227.1956],[83.27205,54.07339,221.804],[83.26689,54.06182,209.9734],[83.26317,54.05634,217.1103],[83.25541,54.05107,209.5955],[83.24663,54.04936,214.5913],[83.23733,54.04864,219.4237],[83.22865,54.04923,225.2047],[83.22058,54.05112,228.1472],[83.21531,54.05469,228.0732],[83.20519,54.06308,234.8279],[83.19681,54.06631,236.1592],[83.18968,54.06538,238.2498],[83.18317,54.06218,234.8706],[83.0855,54.00226,222.3855],[83.01739,53.96942,233.681],[82.73297,53.7869,170.0777],[82.73576,53.78271,170.0174],[82.7587,53.76328,173.5716],[82.76346,53.75796,172.2969],[82.6632,53.69388,173.7975],[82.65545,53.6853,168.6895],[82.64749,53.6745,169.2823],[82.65121,53.66864,160.426],[82.65204,53.66101,153.3064],[82.64687,53.64732,163.4743],[82.64036,53.639,151.5605],[82.63323,53.63192,148.4395],[82.55034,53.56701,125.3236],[82.54321,53.55565,125.8784],[82.5428,53.54769,127.3555],[82.59086,53.51784,124.3039],[82.59602,53.51384,123.7237],[82.59974,53.51007,130.912],[82.60078,53.50681,124.8194],[82.59664,53.50536,126.681],[82.56925,53.50903,125.3805],[82.55995,53.50929,124.9035],[82.5521,53.50795,125.0881],[82.54569,53.50521,124.5868],[82.54073,53.50237,124.11],[82.52802,53.49206,123.7525],[82.50487,53.4773,123.5771],[82.48554,53.46862,124.5083],[82.48037,53.46867,125.0621],[82.47417,53.47012,126.7502],[82.46394,53.47705,124.519],[82.44823,53.49555,124.7417],[82.43769,53.50477,124.4404],[82.42776,53.51188,124.0365],[82.42167,53.51534,123.3355],[82.39242,53.52262,124.0589],[82.3856,53.52503,124.1272],[82.36555,53.53508,128.3737],[82.31542,53.55348,123.4979],[82.25568,53.59099,122.674],[82.24865,53.5944,122.6971],[82.23832,53.59678,122.6303],[82.22468,53.59797,122.5619],[82.19067,53.59694,121.5405],[82.17982,53.59828,121.7937],[82.17393,53.60153,122.0628],[82.17124,53.60613,121.5294],[82.17155,53.61161,122.4606],[82.17372,53.61745,122.0871],[82.17734,53.62334,120.528],[82.20638,53.65151,117.0],[82.21083,53.65714,136.0665],[82.21351,53.66251,124.9304],[82.21506,53.66742,126.0313],[82.21579,53.67269,124.411],[82.2161,53.67858,125.1636],[82.21599,53.68463,125.0478],[82.21362,53.69207,125.3335],[82.21103,53.69525,131.8603],[82.20514,53.69789,124.6272],[82.16866,53.67579,120.9077],[82.15967,53.67135,121.5339],[82.12659,53.66153,121.0749],[82.11306,53.66122,120.9028],[82.10375,53.6622,120.3963],[82.09125,53.66758,120.3796],[82.06531,53.68174,120.4109],[82.00691,53.70848,119.8174],[81.96784,53.71874,125.5816],[81.92826,53.72031,121.2365],[81.911,53.719,118.9536],[81.89674,53.71403,118.9444],[81.88589,53.71124,118.7395],[81.87193,53.70944,117.4308],[81.84568,53.70985,118.5813],[81.83483,53.71305,118.1276],[81.82863,53.7175,117.6931],[81.82646,53.72768,133.676],[81.82108,53.74287,119.7952],[81.81705,53.74817,126.1534],[81.80661,53.75476,120.4529],[81.7629,53.7731,118.1936],[81.75556,53.77785,129.3427],[81.74791,53.79496,175.3877],[81.7261,53.84054,219.6563],[81.73241,53.85366,216.779],[81.83845,53.89534,260.1259],[81.84692,53.89976,270.6637],[81.84961,53.90469,285.8392],[81.85023,53.90989,298.0735],[81.8494,53.91511,305.1014],[81.84806,53.92009,299.3287],[81.84754,53.92534,291.8841],[81.84754,53.93082,291.4764],[81.85395,53.95175,288.9887],[81.85591,53.96257,308.9656],[81.85457,53.96864,316.9546],[81.8494,53.97164,314.2267],[81.84186,53.97208,315.4415],[81.78119,53.96797,277.7012],[81.7722,53.96849,303.6782],[81.76393,53.96978,293.1441],[81.75804,53.97293,289.3725],[81.73954,53.98931,267.8205],[81.72827,53.99583,268.9796],[81.71442,53.99898,258.6524],[81.60828,53.96229,221.3292],[81.56239,53.93557,206.7785],[81.55402,53.93503,205.0935],[81.54947,53.93759,197.0606],[81.54916,53.94299,216.2947],[81.54978,53.95397,213.7087],[81.55505,53.97707,216.675],[81.55743,53.98314,213.9104],[81.56094,53.98921,217.2451],[81.57913,54.01159,224.8223],[81.58172,54.01665,221.5378],[81.57521,54.02141,223.2167],[81.52446,54.02885,201.1829],[81.50958,54.03272,178.7536],[81.5011,54.03665,178.4292],[81.48622,54.0613,123.3918],[81.48126,54.06618,114.1152],[81.47361,54.07169,110.0],[81.4641,54.07458,110.0],[81.43155,54.0799,110.5],[81.35703,54.08187,111.5],[81.34607,54.08486,114.0653],[81.31672,54.09685,169.4255],[81.3037,54.10013,172.7336],[81.29295,54.10094,172.2157],[81.26866,54.0998,169.8348],[81.24727,54.10099,179.4212],[81.23435,54.10342,180.4285],[81.22391,54.10652,179.3513],[81.17988,54.12683,182.5006],[81.13131,54.13401,186.9819],[81.12231,54.13768,187.8294],[81.11622,54.14199,190.6091],[81.11374,54.14677,194.318],[81.11188,54.15168,200.2561],[81.10661,54.19912,231.5139],[81.10371,54.21256,233.1442],[80.99395,54.2648,225.1705],[80.99054,54.26878,223.6711],[80.98796,54.27343,224.9066],[80.98579,54.27834,219.3517],[80.9769,54.31389,206.1415],[80.95271,54.36681,183.6693],[80.94941,54.37131,181.6077],[80.92481,54.39606,169.7018],[80.82021,54.34769,174.016],[80.80171,54.33017,179.8261],[80.82528,54.29338,193.4605],[80.83241,54.28465,197.7409],[80.8413,54.27586,202.7437],[80.84481,54.2709,206.7712],[80.84729,54.26506,208.7444],[80.84419,54.26062,209.2628],[80.83861,54.25713,209.9891],[80.83179,54.25493,208.6036],[80.82425,54.25447,207.7522],[80.8168,54.25638,204.7414],[80.78631,54.26909,194.0244],[80.77536,54.26935,194.3902],[80.76265,54.26702,192.531],[80.65537,54.20434,203.1203],[80.647,54.20093,202.6197],[80.63945,54.19912,201.8654],[80.63201,54.20072,199.9468],[80.61785,54.20682,198.2814],[80.60431,54.20661,194.2404],[80.58509,54.20253,196.9382],[80.54736,54.1861,195.9434],[80.53176,54.17737,195.7502],[80.52504,54.16977,198.0159],[80.52742,54.16517,199.4538],[80.54147,54.14726,208.7797],[80.54364,54.14228,210.0886],[80.54292,54.13633,212.3513],[80.53806,54.13246,211.6242],[80.48794,54.10957,211.8732],[80.47016,54.10864,211.6006],[80.43926,54.12662,201.8916],[80.42975,54.12786,198.1784],[80.42158,54.12683,196.105],[80.38024,54.10941,197.754],[80.33032,54.09564,192.5547],[80.31864,54.09024,194.758],[80.31244,54.08445,195.9957],[80.30986,54.07908,198.2816],[80.30531,54.07417,199.9218],[80.29715,54.07014,200.7933],[80.22211,54.04613,196.3056],[80.20557,54.04285,195.4621],[80.18945,54.04582,189.8359],[80.15049,54.06998,176.4608],[80.13819,54.07448,171.2582],[80.12847,54.07515,169.6051],[80.10295,54.06182,170.7508],[80.07473,54.05091,174.4301],[80.06181,54.04445,174.1751],[80.05747,54.04042,174.0448],[80.05551,54.036,175.6932],[80.05675,54.03143,174.9422],[80.06233,54.02218,180.909],[80.06388,54.01727,182.5883],[80.05716,54.00999,183.0029],[80.04352,54.00115,187.7666],[79.86647,53.93247,195.7186],[79.86182,53.92472,196.2721],[79.86461,53.92084,199.6932],[79.86802,53.91482,204.2614],[79.86523,53.90999,206.0141],[79.85397,53.90022,207.8227],[79.85407,53.89563,210.2871],[79.85707,53.89123,213.6823],[79.86172,53.88555,216.5645],[79.86585,53.87893,221.14],[79.87019,53.86813,231.67],[79.8674,53.86229,229.4954],[79.86244,53.85769,231.174],[79.81097,53.83656,233.3753],[79.77521,53.82591,228.9577],[79.76777,53.82638,228.1456],[79.75878,53.82808,228.1622],[79.74038,53.83615,223.6383],[79.72106,53.84054,218.893],[79.70741,53.84007,218.0097],[79.69119,53.83666,218.9095],[79.67393,53.82938,216.3542],[79.62494,53.79935,227.2552],[79.61967,53.79486,223.0895],[79.61543,53.79057,223.2018],[79.61388,53.78594,222.4318],[79.61481,53.78127,220.9781],[79.61905,53.7716,216.2735],[79.61936,53.76566,212.5674],[79.61512,53.75822,203.8136],[79.60251,53.74739,197.1054],[79.57151,53.73274,188.3297],[79.4419,53.69295,192.292],[79.42412,53.69104,193.0799],[79.41307,53.69243,191.382],[79.40903,53.69667,196.8849],[79.39911,53.71018,206.0689],[79.39436,53.71424,211.0854],[79.38888,53.71768,209.5411],[79.38185,53.72013,208.6176],[79.30434,53.71626,203.3082],[79.29142,53.71326,196.5457],[79.28294,53.70923,195.158],[79.27902,53.70509,199.9913],[79.26858,53.69187,194.9618],[79.26269,53.68665,192.1858],[79.25463,53.68125,197.8243],[79.24522,53.67998,191.2738],[79.11582,53.67931,170.2644],[79.10766,53.68091,167.6667],[79.08678,53.69073,167.7844],[79.07882,53.69305,164.2296],[79.0688,53.69357,160.8212],[79.0627,53.6899,156.6997],[79.05732,53.68494,161.8751],[79.0472,53.67347,157.338],[79.03975,53.66778,158.152],[79.02777,53.66091,153.2076],[79.01691,53.65962,153.1094],[79.00668,53.66003,152.5578],[78.93206,53.67626,140.9547],[78.88566,53.6821,141.6579],[78.85868,53.67838,138.4517],[78.72474,53.64257,127.2849],[78.70189,53.64303,138.3246],[78.69538,53.64489,127.8954],[78.66562,53.65605,129.6841],[78.61136,53.62923,127.1094],[78.60257,53.61606,126.8947],[78.60433,53.61099,122.3936],[78.61301,53.59166,121.9439],[78.62417,53.55084,121.3555],[78.62634,53.53818,121.949],[78.62686,53.52939,117.5749],[78.62221,53.52573,116.7121],[78.61477,53.52397,118.07],[78.55441,53.52813,112.8725],[78.54376,53.52779,112.8728],[78.5016,53.51823,110.2043],[78.47224,53.51673,113.9065],[78.44113,53.50852,117.5417],[78.40837,53.4956,116.8618],[78.3908,53.49069,116.3839],[78.37664,53.4881,109.8579],[78.25985,53.49549,111.989],[78.25221,53.49746,111.3253],[78.24559,53.49994,111.2717],[78.24445,53.50082,111.9748],[78.24259,53.50245,112.1584],[78.2397,53.50591,112.6466],[78.2336,53.51456,111.7989],[78.22885,53.52402,113.5226],[78.21645,53.58678,114.0378],[78.21676,53.59797,115.3087],[78.21614,53.60342,114.2714],[78.21345,53.60825,113.7534],[78.20446,53.61192,117.3725],[78.19061,53.61383,114.6188],[78.16818,53.61448,115.4565],[78.15805,53.61045,112.3459],[78.15133,53.60464,118.6822],[78.14658,53.59815,115.5392],[78.13893,53.59161,110.7923],[78.13087,53.58893,112.1701],[78.12312,53.58753,116.5182],[77.96375,53.57658,112.6531],[77.93884,53.57084,110.7531],[77.925299999999993,53.56484,104.9898],[77.92499,53.50764,105.4008],[77.9254,53.50335,105.5862],[77.92602,53.50102,105.6875],[77.92633,53.50004,105.5922],[77.92747,53.49953,105.5922],[77.93005,53.49875,107.1731],[78.02008,53.49906,109.0941],[78.04023,53.49694,112.4008],[78.04912,53.49503,108.9418],[78.05532,53.49183,108.5789],[78.05811,53.48723,110.4889],[78.05966,53.48216,112.4453],[78.06049,53.47674,111.7481],[78.05966,53.47095,111.1708],[78.0577,53.46516,112.3417],[78.05191,53.45932,109.5345],[78.04426,53.45689,109.2177],[77.96499,53.45299,109.2063],[77.94566,53.44955,108.1025],[77.93605,53.4449,108.44],[77.92995,53.43976,114.4859],[77.92871,53.43459,109.1978],[77.93088,53.4301,108.6428],[77.9345,53.42583,108.5344],[77.93925,53.4218,108.4724],[77.94783,53.41346,109.5308],[77.95011,53.40865,107.4611],[77.95042,53.40341,107.2661],[77.94566,53.39638,106.7811],[77.93698,53.38925,107.1917],[77.91972,53.37943,107.9359],[77.90866,53.37602,106.5881],[77.89998,53.37602,108.0156],[77.87745,53.38542,105.6168],[77.86835,53.38754,106.4843],[77.85564,53.38858,107.0255],[77.84758,53.38622,105.42],[77.84055,53.38274,103.9457],[77.81885,53.36504,106.8927],[77.79973,53.34574,108.1266],[77.78466,53.32744,105.166],[77.8668,53.27233,106.0522],[77.97636,53.16851,109.5738],[78.04385,53.09692,129.2401],[78.15195,52.98217,129.8934],[78.26006,52.86739,131.8326],[78.36827,52.75265,131.9391],[78.47648,52.63793,129.9591],[78.61797,52.47662,137.763],[78.75956,52.31526,142.2117],[78.90126,52.15392,156.2033],[79.04275,51.99259,163.4655],[79.04275,51.99251,163.4655],[79.04285,51.99251,163.4655],[79.04296,51.99251,163.4655],[79.14972,51.86758,148.8451],[79.25638,51.74255,159.2778],[79.30432,51.68638,160.3094],[79.36304,51.61757,162.1443],[79.46981,51.49259,163.8229],[79.55921,51.3725,188.6444],[79.6485,51.25243,241.8305],[79.73801,51.13244,292.0199],[79.8273,51.01239,234.377],[79.8736,50.95017,253.1402],[79.92693,50.8785,260.6127],[79.95525,50.82599,251.0001],[79.96652,50.81018,260.889],[79.99008,50.78812,269.6381],[80.0213,50.76688,269.6153],[80.05499,50.75287,279.606],[80.08599,50.75215,279.1203],[80.03111,50.80879,254.5523],[80.0154,50.83948,249.1552],[80.0493,50.85235,258.5879],[80.06698,50.84661,263.8539],[80.1016,50.82155,275.8267],[80.11917,50.81494,284.3543],[80.14274,50.81711,293.1017],[80.15452,50.82723,294.475],[80.16816,50.85984,285.584],[80.18129,50.87566,287.6774],[80.19545,50.88232,285.3084],[80.23482,50.89323,287.619],[80.24371,50.89865,289.7154],[80.25818,50.91131,283.9993],[80.26728,50.91565,281.0792],[80.27957,50.91715,278.9997],[80.3204,50.9141,280.6104],[80.36019,50.91922,289.3489],[80.40287,50.93374,282.7415],[80.43905,50.95813,274.9907],[80.45941,50.99265,269.9431],[80.46313,51.00784,265.1633],[80.46499,51.02578,267.3765],[80.46447,51.04371,272.8745],[80.46106,51.05895,274.3174],[80.45166,51.0735,281.4515],[80.42406,51.0921,244.7103],[80.41052,51.10484,249.6874],[80.40711,51.11722,239.8579],[80.40763,51.13574,225.9053],[80.41342,51.16843,241.1255],[80.422,51.18757,218.7786],[80.4344,51.20062,215.5619],[80.45207,51.20793,232.6559],[80.47615,51.20964,230.9162],[80.56131,51.2021,223.7369],[80.59925,51.20855,222.4562],[80.61247,51.23388,218.0177],[80.61413,51.24966,222.8312],[80.62147,51.26455,216.0951],[80.63242,51.27796,227.1221],[80.64503,51.28925,219.5251],[80.66456,51.30015,220.4042],[80.68275,51.30201,220.5818],[80.8166,51.26101,225.1288],[80.84254,51.25752,224.3954],[80.85453,51.26462,219.3941],[80.86409,51.27584,219.0],[80.88248,51.28486,221.9983],[80.90574,51.28356,219.5],[80.91421,51.27018,223.2371],[80.91628,51.23538,223.6015],[80.92424,51.21607,224.007],[80.93607,51.20569,224.0844],[80.97602,51.19109,227.4918],[81.02211,51.17739,230.437],[81.04485,51.17352,230.1667],[81.07012,51.17199,235.6208],[81.09834,51.19091,233.3608],[81.11286,51.19595,234.1021],[81.13275,51.19447,242.9533],[81.15203,51.18654,244.3122],[81.15864,51.17427,249.358],[81.15596,51.15742,240.5825],[81.14717,51.13595,245.0866],[81.08051,51.03087,243.4245],[81.05405,50.96986,250.9375],[81.05152,50.9557,256.4143],[81.05829,50.94707,259.9033],[81.07792,50.94066,269.6798],[81.10438,50.93669,274.9874],[81.15885,50.93824,268.7465],[81.27745,50.96268,258.6673],[81.4008,50.95911,271.1463],[81.40121,50.92299,284.023],[81.41609,50.88966,295.9716],[81.4395,50.85969,309.1208],[81.46612,50.83375,327.6448],[81.44472,50.81339,347.8002],[81.42612,50.78817,416.6375],[81.41878,50.76248,456.7233],[81.43108,50.74073,450.1559],[81.46023,50.73034,460.0524],[81.67412,50.73603,476.9969],[81.69721,50.74502,439.0066],[81.72574,50.77463,449.8939],[81.74414,50.78491,481.0244],[81.76346,50.78434,511.4556],[81.80088,50.76786,610.9696],[81.82243,50.76574,530.2908],[81.89503,50.77421,495.4135],[81.94536,50.7692,488.0574],[81.99032,50.75964,543.135],[82.01254,50.75013,571.6797],[82.07311,50.71567,574.8506],[82.09554,50.70812,527.6223],[82.14732,50.70161,554.3903],[82.17367,50.70306,536.1406],[82.19879,50.70879,562.421],[82.21661,50.71944,588.4916],[82.2363,50.73448,558.1241],[82.25573,50.74522,555.0527],[82.27315,50.74305,601.1281],[82.28839,50.73742,634.3321],[82.30116,50.74093,666.2152],[82.31366,50.74776,689.8214],[82.32839,50.7521,697.8081],[82.34121,50.75029,632.1545],[82.35133,50.74553,630.11],[82.3625,50.74212,629.6058],[82.40828,50.74838,591.9796],[82.4303,50.74114,625.1064],[82.47582,50.71401,704.3787],[82.60424,50.76905,881.0619],[82.67276,50.78977,758.4719],[82.69803,50.81096,791.8076],[82.7,50.88098,837.9993],[82.72645,50.90072,891.6298],[82.76454,50.90666,781.1057],[82.84412,50.89173,726.7725],[82.9759,50.88191,839.0332],[83.02147,50.89178,656.4977],[83.05785,50.91715,760.1731],[83.08607,50.95255,1012.9868],[83.10757,50.99265,1439.9149],[83.11739,50.99456,1594.0797],[83.12741,50.99523,1521.8739],[83.13754,50.99467,1239.4938],[83.16327,50.98847,956.5972],[83.1796,50.98728,1187.0459],[83.19593,50.98878,1453.6899],[83.21206,50.99265,1559.2365],[83.32378,51.00242,1465.6118],[83.43396,50.99265,1675.8987],[83.46202,50.96433,1703.8042],[83.477,50.95338,1900.8706],[83.49834,50.94542,1822.0334],[83.60976,50.93203,1828.7186],[83.63265,50.9248,1787.0396],[83.69058,50.89183,1699.3323],[83.7128,50.88222,1742.1414],[83.73265,50.87963,1643.272],[83.77817,50.87943,1633.1929],[83.80045,50.87566,1849.5581],[83.8205,50.86801,1794.2009],[83.83827,50.85628,2031.4521],[83.86969,50.8214,2111.0271],[83.88282,50.81199,1666.6785],[83.92199,50.80072,1610.5635],[83.95057,50.78042,1637.757],[83.94974,50.71789,1564.4467],[83.97584,50.68636,1581.0215],[84.0886,50.63461,1939.1663],[84.08865,50.63464,1913.4619],[84.10591,50.64296,1626.2089],[84.15789,50.6568,1946.896],[84.1828,50.66063,2035.5305],[84.3617,50.67158,1462.7278],[84.44356,50.70114,1752.7297],[84.45669,50.70287,1982.0763],[84.46723,50.70269,2119.0225],[84.5002,50.68993,1907.7104],[84.52273,50.68797,1678.1045],[84.53286,50.68915,1638.5328],[84.54164,50.69107,1651.6798],[84.54753,50.6943,1695.7532],[84.5527,50.69871,1695.0486],[84.55704,50.70414,1664.0247],[84.56117,50.71148,1686.3865],[84.56324,50.71825,1724.0343],[84.56386,50.72517,1827.1738],[84.56138,50.75024,2077.6235],[84.56148,50.7567,1967.6272],[84.56314,50.76259,2065.5176],[84.56572,50.76786,2082.4653],[84.56975,50.7722,2256.3628],[84.58898,50.78791,2319.9326],[84.59321,50.7923,2254.0723],[84.59766,50.79773,2072.635],[84.60231,50.80501,1897.3612],[84.60727,50.81705,2180.5513],[84.60851,50.82305,2090.0164],[84.60903,50.82951,1999.3097],[84.60872,50.83617,1852.3818],[84.60727,50.84269,1724.8031],[84.60562,50.84842,1562.3931],[84.60314,50.85354,1576.1956],[84.59983,50.85839,1663.2103],[84.59569,50.86263,1805.1227],[84.59022,50.86615,2027.5793],[84.5836,50.86852,2004.0601],[84.57523,50.87013,2046.2114],[84.5372,50.8739,2001.3113],[84.53131,50.87684,1919.3995],[84.528,50.88139,1880.552],[84.5279,50.88702,1828.3151],[84.53327,50.9111,1397.4639],[84.53379,50.91762,1543.3184],[84.53358,50.92413,1765.8315],[84.53265,50.9302,1545.9906],[84.531,50.93575,1683.7749],[84.52883,50.94082,1506.4905],[84.52572,50.94552,1282.5975],[84.52169,50.94978,1361.8105],[84.51704,50.95384,1317.8126],[84.50567,50.95994,1415.2919],[84.47126,50.97317,1130.3246],[84.35488,50.99038,1373.1569],[84.31034,51.01048,751.5851],[84.30259,51.01224,847.2074],[84.29401,51.0127,1034.6438],[84.28615,51.01146,1200.6606],[84.27974,51.00872,1402.0961],[84.27396,51.00534,1591.2675],[84.26776,51.0027,1573.2302],[84.2599,51.00169,1554.8239],[84.25153,51.00237,1652.5275],[84.01795,51.06383,744.9117],[84.0102,51.06706,883.0725],[84.00731,51.07259,881.9194],[84.00617,51.079,949.3566],[84.00493,51.12657,616.8621],[84.00865,51.13373,692.2862],[84.01444,51.1376,734.2321],[84.06922,51.14225,1047.022],[84.07821,51.14148,1267.4856],[84.08606,51.13949,1278.8229],[84.09257,51.13662,1053.9773],[84.09805,51.13285,1164.188],[84.10673,51.12489,1319.0134],[84.11665,51.11776,1121.4265],[84.12337,51.11551,1162.3037],[84.13123,51.11505,1323.1475],[84.13805,51.11675,1364.1346],[84.14415,51.11972,1399.5162],[84.15469,51.12706,1367.407],[84.17195,51.1438,1213.3997],[84.26951,51.27519,1929.1106],[84.27396,51.27945,2005.433],[84.27912,51.28302,2036.891],[84.29525,51.28648,2176.5684],[84.34134,51.29028,1995.4681],[84.34847,51.28873,1829.3081],[84.35375,51.28555,1761.3589],[84.37287,51.27018,1833.7861],[84.37876,51.26723,1824.681],[84.38589,51.2656,1846.248],[84.39416,51.26602,1817.2004],[84.488,51.28953,1355.7833],[84.50288,51.29904,1255.3147],[84.50898,51.31589,1054.3855],[84.65802,51.36172,896.8799],[84.70525,51.39547,898.7083],[84.71548,51.39947,895.1989],[84.72571,51.40162,917.1294],[84.78214,51.40697,1054.1405],[84.8641,51.42591,1320.603],[84.87919,51.42735,1390.7563],[84.88725,51.42699,1284.3489],[84.90214,51.42477,1154.8558],[84.92436,51.42415,1288.0277],[84.93686,51.42963,1136.0573],[84.95743,51.45133,960.4055],[84.98906,51.48006,1238.8577],[85.00766,51.489,1337.5587],[85.08259,51.49722,1041.0122],[85.15318,51.49619,1599.6223],[85.16186,51.49458,1545.0713],[85.17674,51.48978,1463.5729],[85.18346,51.48683,1597.8142],[85.18894,51.48363,1594.5557],[85.19979,51.47541,1442.4412],[85.20754,51.47117,1398.8506],[85.22222,51.46761,1364.527],[85.23152,51.46838,1289.8188],[85.23907,51.47076,1088.5825],[85.29229,51.50004,1122.7754],[85.29395,51.50143,1233.7876],[85.29674,51.50425,1201.1683],[85.29973,51.50841,1121.9851],[85.30252,51.5136,1005.9861],[85.3047,51.51903,931.7538],[85.30542,51.52461,892.8043],[85.30408,51.52972,860.3121],[85.30015,51.53396,846.7205],[85.29116,51.54197,946.9772],[85.28723,51.54636,1022.7069],[85.28557,51.55179,1040.943],[85.28682,51.55791,1238.0923],[85.29457,51.56548,955.9802],[85.30346,51.56853,944.7574],[85.31348,51.56926,981.6569],[85.42769,51.55975,958.7542],[85.45187,51.56207,638.1357],[85.46376,51.56497,669.1082],[85.4713,51.56853,581.1548],[85.48887,51.58667,853.7863],[85.49207,51.59148,894.4874],[85.49383,51.59677,941.575],[85.49331,51.60228,905.2711],[85.49083,51.60734,955.8218],[85.4837,51.61657,886.5891],[85.48112,51.62119,1046.4119],[85.48019,51.62636,1094.196],[85.48236,51.63116,1031.1211],[85.4868,51.63519,939.8701],[85.50499,51.64579,787.6757],[85.50975,51.64925,861.1271],[85.51367,51.65344,999.1976],[85.51709,51.65824,1032.8782],[85.51957,51.66382,1127.5537],[85.52504,51.68191,1193.9636],[85.52752,51.6877,1121.147],[85.53104,51.69354,1120.8186],[85.53683,51.7001,1168.7581],[85.54437,51.70338,972.8511],[85.55357,51.70491,995.6202],[85.57651,51.70555,846.4984],[85.59315,51.7079,958.3893],[85.60287,51.71116,908.1838],[85.63925,51.73023,949.0644],[85.64948,51.73751,883.2753],[85.66095,51.74749,763.3766],[85.66994,51.75397,765.5852],[85.6777,51.75462,785.6315],[85.68483,51.7532,855.7046],[85.70095,51.7426,599.2413],[85.71325,51.73648,499.6718],[85.72751,51.73198,326.6309],[85.74539,51.72966,442.8448],[85.73774,51.74263,514.4117],[85.74157,51.76036,453.5655],[85.73909,51.76614,452.6783],[85.74033,51.77867,307.1252],[85.74694,51.78966,319.6636],[85.75655,51.7973,518.5003],[85.76162,51.80588,411.1469],[85.75469,51.81963,464.9046],[85.78198,51.83761,424.4873],[85.7888,51.84696,732.1897],[85.74033,51.86061,296.0043],[85.7581,51.8742,290.2781],[85.80689,51.88639,297.6704],[85.83459,51.90231,375.6503],[85.87655,51.91942,477.899],[85.87231,51.92867,357.9886],[85.84223,51.95993,277.1644],[85.83417,51.97132,294.4655],[85.83717,51.98293,260.5618],[85.85433,52.00086,298.7615],[85.90724,52.03662,252.5541],[85.91913,52.05238,251.0693],[85.92099,52.07212,245.9204],[85.93959,52.07499,255.3473],[86.1496,52.07016,405.949],[86.16449,52.06711,402.6988],[86.16738,52.06222,392.346],[86.16831,52.05631,493.615],[86.16852,52.05057,606.5334],[86.17069,52.04561,597.0732],[86.17472,52.04132,632.1525],[86.17968,52.03755,503.8778],[86.19394,52.03036,382.5746],[86.22061,52.02101,418.4144],[86.26536,52.01238,506.8494],[86.3684,52.01016,348.0139],[86.40592,52.01388,376.593],[86.42628,52.01832,340.8909],[86.43992,52.02292,360.0996],[86.44829,52.02706,415.2981],[86.45398,52.03176,477.6752],[86.45739,52.03667,359.4539],[86.46008,52.0421,340.0584],[86.46163,52.04809,301.2601],[86.46163,52.05424,277.3502],[86.46266,52.0608,373.2014],[86.46545,52.06742,300.3903],[86.48602,52.08199,338.1792],[86.49046,52.08695,341.2542],[86.48943,52.09139,325.6198],[86.48664,52.09581,348.8288],[86.48488,52.10124,347.4442],[86.48571,52.10741,400.8991],[86.49201,52.11542,400.7958],[86.49852,52.11852,445.006],[86.50524,52.12002,511.1555],[86.54452,52.12054,739.114],[86.64167,52.1101,598.2561],[86.70978,52.11325,567.2322],[86.75443,52.10871,729.5002],[86.7661,52.11062,787.9916],[86.77386,52.1131,705.8074],[86.78874,52.12199,635.7416],[86.81447,52.14472,668.2301],[86.82212,52.15842,509.6117],[86.82429,52.17185,534.8915],[86.82471,52.17953,524.3237],[86.82409,52.18875,654.2277],[86.82192,52.19521,576.3494],[86.81778,52.20002,710.9666],[86.80817,52.2073,826.5782],[86.79029,52.21805,646.3868],[86.7844,52.22343,666.0189],[86.78006,52.23307,429.0436],[86.78068,52.23971,468.5325],[86.78357,52.24503,450.1445],[86.80155,52.26156,483.7741],[86.8061,52.26697,388.2893],[86.81013,52.27324,433.8512],[86.81385,52.28249,369.3873],[86.81137,52.288,408.5634],[86.8059,52.29216,342.9366],[86.67701,52.34502,578.0667],[86.64477,52.35355,375.3083],[86.63629,52.35727,369.2004],[86.62792,52.36223,322.59],[86.61769,52.37174,405.7654],[86.61583,52.37856,389.5276],[86.61666,52.38502,428.8323],[86.61955,52.38993,374.0596],[86.70234,52.49964,269.0898],[86.70296,52.5001,269.0898],[86.70306,52.50062,277.257],[86.71133,52.51256,337.6761],[86.7321,52.53276,310.8449],[86.7752,52.54268,352.8417],[86.78636,52.54961,350.0398],[86.79277,52.55591,374.4924],[86.79473,52.56217,305.8609],[86.79525,52.56837,334.4935],[86.79463,52.57447,354.7471],[86.79153,52.58568,382.0365],[86.7906,52.59209,496.4102],[86.79101,52.59981,472.0802],[86.79473,52.61131,611.6045],[86.80083,52.61958,575.8577],[86.80672,52.62557,553.9381],[86.82812,52.64121,465.6854],[86.84073,52.64831,453.6619],[86.84982,52.65115,400.8243],[86.85757,52.65033,379.3747],[86.86419,52.64759,424.7123],[86.87628,52.64128,414.1186],[86.8922,52.63705,497.1339],[86.93137,52.63371,545.5428],[86.95214,52.63462,604.0096],[87.11657,52.66779,448.0677],[87.11988,52.66635,439.4338],[87.12298,52.66381,418.0401],[87.1327,52.65022,512.5325],[87.14903,52.63291,570.5342],[87.17321,52.61162,575.5758],[87.18716,52.6249,641.5644],[87.18706,52.62924,604.313],[87.18747,52.63503,636.4338],[87.17507,52.70603,461.8206],[87.16815,52.71926,416.2108],[87.16143,52.722,386.5582],[87.15275,52.72469,378.9232],[87.11905,52.72712,437.0221],[87.10944,52.72629,438.5807],[87.10159,52.72428,442.6343],[87.09632,52.72074,430.1341],[87.08991,52.71115,435.0168],[87.08443,52.70738,437.1596],[87.07999,52.70882,458.0584],[87.07637,52.71218,445.9666],[87.07358,52.71678,434.6372],[87.06273,52.7404,460.083],[87.05033,52.75978,428.4818],[87.04474,52.76572,429.892],[87.03534,52.76996,370.7963],[87.00206,52.77895,351.4616],[86.99276,52.7837,330.006],[86.987799999999993,52.78882,366.893],[86.98614,52.7989,389.817],[86.98594,52.80409,314.5918],[86.98087,52.81254,320.7267],[86.9724,52.82355,325.4259],[86.94883,52.84442,353.7382],[86.94408,52.85512,413.6891],[86.94449,52.86241,368.4324],[86.97622,52.8808,416.1562],[87.01818,52.91083,388.3931],[87.02314,52.9155,359.8757],[87.02614,52.92101,394.4012],[87.02686,52.92796,380.0051],[87.02407,52.96137,412.8196],[87.02469,52.97403,398.0212],[87.02273,52.99904,428.6537],[87.02304,53.0008,449.4369],[87.02428,53.00323,445.9603],[87.028,53.00653,434.8614],[87.03358,53.00994,430.6674],[87.05994,53.02297,452.6881],[87.06552,53.027,450.5941],[87.06976,53.03196,421.5218],[87.07162,53.0372,345.3067],[87.0772,53.06332,451.7301],[87.07699,53.07521,398.7716],[87.0711,53.08007,357.3437],[87.06324,53.08255,350.2274],[87.01601,53.08792,380.7979],[86.94325,53.07953,319.1848],[86.93385,53.08167,337.2596],[86.92703,53.0842,359.1616],[86.91204,53.0934,364.3285],[86.87917,53.12053,356.8049],[86.85757,53.13045,292.3249],[86.79184,53.15205,270.4396],[86.78233,53.15688,309.6187],[86.77675,53.16089,313.1137],[86.77241,53.16513,298.7589],[86.76435,53.17644,259.8119],[86.75711,53.18451,270.2129],[86.74822,53.18843,292.2225],[86.70523,53.19634,256.2281],[86.69872,53.20011,262.7984],[86.695,53.2045,277.4419],[86.69138,53.21422,299.502],[86.68704,53.22068,274.2364],[86.66844,53.24192,234.5319],[86.66658,53.24988,235.7669],[86.66844,53.25541,235.0343],[86.67526,53.25737,236.7502],[86.6826,53.2569,237.0197],[86.68942,53.25499,237.8381],[86.70089,53.24864,237.3607],[86.7074,53.24605,235.1831],[86.71484,53.24471,235.6583],[86.72321,53.24502,237.0658],[86.73065,53.24688,244.1919],[86.73737,53.24957,240.6318],[86.74326,53.25285,240.1892],[86.7505,53.26063,244.7623],[86.75319,53.26414,245.8022],[86.75567,53.26533,241.0086],[86.81726,53.27029,272.6064],[86.82471,53.27233,260.2523],[86.85075,53.2859,244.0315],[86.86946,53.29788,273.2244],[86.88093,53.307,301.7186],[86.98346,53.40744,295.3832],[86.98862,53.41488,299.3531],[86.98718,53.41969,388.0121],[86.98129,53.42258,338.9463],[86.94573,53.42573,411.4339],[86.93695,53.42811,405.6317],[86.93013,53.4324,434.9347],[86.92547,53.43775,450.5221],[86.92279,53.44558,468.4717],[86.92672,53.45002,459.8262],[86.93354,53.45312,456.5479],[87.00857,53.47348,434.0912],[87.01436,53.47661,400.7664],[87.01942,53.48144,410.5229],[87.01942,53.48612,437.1795],[87.01787,53.49105,444.2532],[87.0156,53.49524,462.9875],[87.01415,53.49849,474.147],[87.01198,53.50206,446.4873],[87.00537,53.5081,397.4095],[87.00041,53.50965,386.6178],[86.99637,53.50996,386.8612],[86.95896,53.50273,377.4098],[86.85044,53.47575,362.4246],[86.79938,53.47436,254.2047],[86.72342,53.48407,392.5941],[86.67619,53.49549,397.2057],[86.61542,53.51596,465.3199],[86.5688,53.53802,316.2717],[86.55444,53.54815,312.321],[86.54679,53.55683,363.3669],[86.53067,53.58458,340.4791],[86.5133,53.6019,361.7609],[86.50007,53.605,340.1976],[86.46721,53.60657,389.8541],[86.45977,53.6098,393.9261],[86.45481,53.61404,420.9642],[86.44085,53.64288,335.3681],[86.43507,53.65197,350.8475],[86.39507,53.69525,373.7932],[86.40561,53.75093,420.891],[86.38515,53.78499,426.156],[86.29172,53.87625,452.2],[86.28004,53.88136,485.0134],[86.27011,53.88296,481.0007],[86.25327,53.88167,445.9984],[86.24314,53.88296,446.4046],[86.23229,53.8865,454.6725],[86.22019,53.89351,427.1201],[86.21379,53.89909,478.4755],[86.20934,53.90436,489.1539],[86.20666,53.90896,493.3601],[86.1957,53.94188,499.8743],[86.1894,53.94994,484.7074],[86.18319,53.95567,519.762],[86.139169999999993,53.98776,527.5832],[86.11932,53.99944,475.6483],[86.11746,54.00022,467.2235],[86.06899,54.01177,508.8788],[86.04946,54.01381,537.8936],[85.94383,54.03991,525.1628],[85.89629,54.06383,535.4146],[85.81081,54.12621,455.3253],[85.75965,54.15153,415.7555],[85.72813,54.15292,429.9241],[85.70612,54.15956,481.1855],[85.63656,54.21912,442.895],[85.6254,54.22501,462.4124],[85.60287,54.2339,456.5063],[85.57703,54.23183,468.4842],[85.46779,54.20388,375.2881]]]}}