{"type":"Feature","properties":{"ISO3166-1-Alpha-3":"RUS","country":"Russia","name":"Chukchi Autonomous Okrug"},
"geometry":{"type": "MultiPolygon","coordinates": [[[[181.26529,71.57038,1.0],[180.92543,71.60004,1.0],[180.79534,71.5832,1.0],[180.75713,71.56908,1.0],[180.71282,71.56293,1.0],[180.69317,71.55756,1.0],[180.67323,71.55549,1.0],[180.62794,71.56908,1.0],[180.38917,71.58519,1.0],[180.3213,71.57368,1.0],[180.3025,71.57734,1.0],[180.28456,71.58324,1.0],[180.26405,71.58641,1.0],[180.24256,71.5832,1.0],[180.20118,71.56908,1.0],[180.09925,71.5585,1.0],[180.08778,71.55585,1.0],[180.13714,71.53864,1.0],[180.00001,71.53669,0.0],[180.0,71.53669,0.0],[180.0,71.05263,0.0],[180.0,70.99201,0.0],[180.00001,70.99201,0.0],[180.09246,70.99677,1.0],[180.11122,70.9936,1.0],[180.14662,70.97944,1.0],[180.33399,70.96548,1.0],[180.49879,70.91966,1.0],[180.54249,70.91551,1.0],[180.63551,70.93024,1.0],[180.67774,70.9217,1.0],[180.66375,70.91108,1.0],[180.65789,70.90803,1.0],[181.0197,70.95067,1.0],[181.12407,70.98102,1.0],[181.40697,70.99732,1.0],[181.68987,71.01362,1.0],[181.79339,71.0384,1.0],[182.06951,71.04145,1.0],[182.12233,71.05256,1.0],[182.18072,71.08466,1.0],[182.2481,71.09296,1.0],[182.31585,71.11099,1.0],[182.36236,71.11701,1.0],[182.41883,71.14761,1.0],[182.4922,71.17377,1.0],[182.54225,71.20938,1.0],[182.55409,71.22264,1.0],[182.55657,71.23701,1.0],[182.54029,71.2499,1.0],[182.51299,71.25873,1.0],[182.49379,71.26862,1.0],[182.50135,71.28474,1.0],[182.48589,71.2934,1.0],[182.46888,71.29633,1.0],[182.45143,71.29487,1.0],[182.4124,71.28596,1.0],[182.34462,71.29316,1.0],[182.32972,71.30183,1.0],[182.31788,71.30488,1.0],[182.29359,71.3039,1.0],[182.28163,71.30524,1.0],[182.22014,71.3332,1.0],[182.0291,71.39643,1.0],[181.96009,71.40766,1.0],[181.9699,71.41348,1.0],[181.97377,71.41511,1.0],[181.96656,71.41779,1.0],[181.95293,71.42573,1.0],[181.94581,71.42878,1.0],[181.9828,71.44139,1.0],[181.99427,71.44864,1.0],[181.87554,71.48188,1.0],[181.85222,71.48517,1.0],[181.80653,71.47663,1.0],[181.78468,71.47801,1.0],[181.67754,71.50544,1.0],[181.65846,71.51752,1.0],[181.67652,71.51512,1.0],[181.69512,71.51313,1.0],[181.74037,71.51069,1.0],[181.67681,71.51838,1.0],[181.60515,71.54072,1.0],[181.26529,71.57038,1.0]]]]}}