{"type":"Feature","properties":{"ISO3166-1-Alpha-3":"RUS","country":"Russia","id":"2321","name":"Chukchi Autonomous Okrug"},
"geometry":{"type": "MultiPolygon","coordinates": [[[[180.0,71.53642,0.0],[179.84864,71.51752,0.0],[179.86606,71.50755,0.0],[179.86541,71.49885,0.0],[179.85288,71.49262,0.0],[179.83465,71.49018,0.0],[179.79274,71.49164,0.0],[179.77182,71.49014,0.0],[179.75294,71.48404,0.0],[179.75847,71.48029,0.0],[179.76661,71.46971,0.0],[179.70004,71.45856,0.0],[179.56349,71.45148,0.0],[179.49977,71.4322,0.0],[179.44028,71.39228,0.0],[179.39129,71.38329,0.0],[179.18295,71.30353,0.0],[178.90545,71.23701,0.0],[178.85467,71.21263,0.0],[178.84897,71.20995,0.0],[178.84864,71.20966,0.0],[178.85467,71.21255,0.0],[178.8558,71.21308,0.0],[178.85955,71.2145,0.0],[178.86394,71.21393,0.0],[178.86915,71.20966,0.0],[178.84767,71.18378,0.0],[178.8213,71.16852,0.0],[178.69695,71.11542,0.0],[178.66765,71.09903,0.0],[178.63404,71.06948,105.225],[178.62648,71.06094,0.0],[178.62224,71.05101,0.0],[178.62273,71.03775,0.0],[178.65691,70.9868,154.7845],[178.66896,70.97895,216.2765],[178.68165,70.96833,487.2595],[178.69321,70.9558,214.5106],[178.70191,70.94245,-0.5],[178.71372,70.92866,0.0],[178.73878,70.89435,0.0],[178.74586,70.88198,0.0],[178.78346,70.84284,1.2996],[178.7881,70.83442,0.0],[178.78956,70.81293,1.4225],[178.7933,70.805,3.4956],[178.83204,70.80854,2.5198],[179.13103,70.87873,22.2384],[179.21713,70.8806,19.1364],[179.30626,70.87922,17.4527],[179.45255,70.87349,3.669],[179.66699,70.87478,0.0],[179.80698,70.9131,0.0],[179.86624,70.94239,0.0],[179.87487,70.96035,0.6613],[180.0,70.99242,0.0],[180.0,71.05263,0.0],[180.0,71.53642,0.0]]]]}}