{"type":"Feature","properties":{"GID_2":"RUS.60.8_1","GID_0":"RUS","country":"Russia","GID_1":"RUS.60_1","province":"Sakha","NL_NAME_1":"РеспубликаСаха","county":"Eveno-Bytantayskiyrayon","VARNAME_2":"NA","NL_NAME_2":"NA","TYPE_2":"Raion","ENGTYPE_2":"District","CC_2":"R65000","HASC_2":"RU.SK.EV","name":"Eveno-Bytantayskiyrayon.county"},
"geometry":{"type": "MultiPolygon","coordinates": [[[[126.6563,68.7198,146.2861],[126.7299,68.676,132.5952],[126.8222,68.6288,234.7934],[126.9248,68.571,379.1774],[127.0132,68.5617,246.0352],[127.062,68.5293,361.51],[127.0285,68.4912,667.0269],[126.9617,68.471,379.643],[126.9528,68.4666,367.8592],[126.9285,68.4411,732.4952],[126.9218,68.4128,541.5895],[126.9239,68.3913,788.049],[126.804,68.3891,765.4798],[126.6826,68.3595,735.5845],[126.5986,68.3092,576.7224],[126.4714,68.1711,797.3867],[126.4935,68.1221,238.5736],[126.5399,68.1095,260.0197],[126.6384,68.0984,715.8226],[126.7281,68.0783,848.3315],[126.7529,68.0685,693.6471],[126.762,68.0523,642.9216],[126.766,68.0196,813.9752],[126.7204,67.9788,895.3126],[126.6305,67.9359,757.1509],[126.5253,67.9021,182.4951],[126.511,67.8561,577.7847],[126.5141,67.8331,539.9093],[126.5753,67.7878,727.8353],[126.5513,67.6724,864.4046],[126.7638,67.6547,823.3074],[127.0089,67.6276,613.1738],[127.1134,67.596,1203.3837],[127.1437,67.5202,971.412],[127.1474,67.4278,550.6479],[127.0795,67.3176,936.0569],[127.0353,67.2301,288.5469],[127.0481,67.1974,1073.975],[127.0953,67.1492,1405.2209],[127.0778,67.0869,862.656],[127.0476,67.0119,318.8992],[127.013,66.916,1315.4474],[127.025,66.8261,1039.5969],[127.0556,66.7628,1596.3396],[127.1467,66.7071,1081.3239],[127.2449,66.6491,1356.2615],[127.4731,66.663,1424.0996],[127.6073,66.6431,939.7258],[127.7826,66.6101,1321.5496],[127.8557,66.5736,1308.3112],[127.8743,66.5148,931.7271],[127.9272,66.4838,1292.4994],[128.0512,66.5118,1532.7295],[128.1965,66.5819,1331.7633],[128.3545,66.595,1138.9299],[128.4959,66.5949,1151.7087],[128.614,66.561,1011.7763],[128.7813,66.5171,916.6412],[128.9848,66.5094,859.4463],[129.1757,66.5157,704.3899],[129.318,66.5178,801.435],[129.4786,66.5063,847.3866],[129.5547,66.4842,845.1859],[129.6588,66.491,746.694],[129.7918,66.5095,821.631],[129.9735,66.4573,830.1272],[130.1096,66.369,987.5227],[130.1294,66.2724,1076.6847],[130.3006,66.1477,1055.8611],[130.4896,66.0615,1026.5465],[130.6978,66.0085,737.4555],[130.826,65.9842,867.7745],[130.8824,65.9578,741.3787],[130.8917,65.9113,502.9106],[130.9486,65.8715,815.939],[131.0622,65.8437,549.3071],[131.1166,65.8347,516.4841],[131.112,65.791,676.3642],[131.1561,65.7679,662.7204],[131.3307,65.7517,786.3701],[131.4855,65.7476,584.5825],[131.6063,65.7156,638.1177],[131.6417,65.6956,736.4826],[131.7566,65.7587,409.2467],[132.5108,66.2709,472.0724],[133.4784,67.4876,563.3297],[133.5993,69.2805,304.7762],[133.214,69.5758,297.4003],[133.1702,69.5615,381.245],[133.0318,69.5633,419.6153],[132.9417,69.5368,358.2626],[132.9483,69.4946,278.2263],[132.8622,69.4643,263.9177],[132.7992,69.4461,352.807],[132.8087,69.4095,316.6422],[132.7822,69.3428,309.8983],[132.7184,69.29,468.8205],[132.6769,69.2291,331.334],[132.7698,69.1536,464.5775],[132.6914,69.1221,552.5854],[132.5145,69.1382,665.0939],[132.3577,69.1239,355.73],[132.1621,69.0677,567.5641],[132.0515,69.0245,623.7408],[131.8983,69.0196,410.0493],[131.7113,69.0561,189.7719],[131.6596,69.1019,405.1689],[131.5961,69.1253,464.6587],[131.438,69.1066,339.8729],[131.2809,69.1018,261.4996],[131.1657,69.1108,308.1495],[131.0702,69.1164,360.9382],[130.858,69.0512,518.8165],[130.7754,69.0382,524.8139],[130.6558,69.0437,502.7306],[130.5661,69.0359,521.67],[130.4284,69.0091,548.7114],[130.3086,68.9722,621.46],[130.2048,68.9476,792.1378],[130.1105,68.9375,651.2869],[130.0303,68.9129,799.2484],[129.9213,68.8831,933.9659],[129.758,68.8188,779.9725],[129.7559,68.8218,766.5818],[129.6217,68.7652,981.5637],[129.4669,68.7219,1168.187],[129.357,68.7019,1194.2175],[129.0792,68.6995,1215.5865],[128.8997,68.7346,1412.4252],[128.7636,68.7769,1394.0098],[128.5898,68.7901,1319.6621],[128.4028,68.7814,756.201],[128.1926,68.7375,913.7682],[127.9865,68.7167,472.1495],[127.3158,68.7242,628.0522],[126.8548,68.7211,115.965],[126.7488,68.7182,105.8346],[126.6563,68.7198,146.2861]]]]}}