{"type":"Feature","properties":{"GID_3":"RUS.28.16.1_1","GID_0":"RUS","country":"Russia","GID_1":"RUS.28_1","province":"Khabarovsk","NL_NAME_1":"Хабаровскийкрай","GID_2":"RUS.28.16_1","county":"Solnechnyyrayon","NL_NAME_2":"Солнечныйрайон","city":"NA","VARNAME_3":"NA","NL_NAME_3":"NA","TYPE_3":"NA","ENGTYPE_3":"NA","CC_3":"NA","HASC_3":"NA","name":"N_A.city"},
"geometry":{"type": "MultiPolygon","coordinates": [[[[136.1935,50.5372,718.5739],[136.2203,50.5665,1170.0967],[136.2555,50.5977,906.7936],[136.399,50.6082,618.7022],[136.5155,50.579,446.0086],[136.6132,50.5589,463.8882],[136.806,50.6217,224.1067],[136.9625,50.6577,107.4409],[137.0891,50.7074,101.9119],[137.2237,50.8225,228.9356],[137.2295,50.8528,309.6178],[137.1789,50.9666,69.7889],[137.1991,50.9966,66.1264],[137.226,51.0018,81.6795],[137.31,51.0083,392.4961],[137.363,51.0432,114.7307],[137.3843,51.1249,35.2097],[137.4454,51.1915,76.0458],[137.5075,51.2427,186.4498],[137.4994,51.3076,360.0756],[137.5139,51.3369,271.95],[137.5171,51.4161,403.7909],[137.649,51.4378,311.3075],[137.7419,51.4154,387.92],[137.8558,51.4023,930.7264],[137.8871,51.4154,716.9521],[137.953,51.4545,737.9262],[138.0442,51.5167,585.2371],[138.1205,51.5902,965.8588],[138.149,51.6504,567.184],[138.1486,51.7098,991.9164],[138.1208,51.7359,1323.3961],[138.0504,51.7366,614.1342],[137.977,51.7254,466.9315],[137.876,51.7311,398.3979],[137.8207,51.773,294.8981],[137.756,51.779,293.6737],[137.6813,51.8007,315.5095],[137.6314,51.836,190.2035],[137.6066,51.8956,197.072],[137.5108,51.9262,175.854],[137.5091,51.9672,227.0165],[137.4251,51.989,487.1357],[137.4264,52.0289,386.3978],[137.472,52.0654,431.8304],[137.6442,52.1516,448.0423],[137.6725,52.1815,598.7668],[137.6058,52.2132,429.458],[137.6242,52.2776,402.8313],[137.5322,52.3078,421.281],[137.4745,52.2604,483.4705],[137.2996,52.1835,672.0207],[137.1964,52.141,269.138],[137.0618,52.0992,180.4415],[136.9998,52.0721,134.4059],[136.9424,52.0191,97.9759],[136.8242,52.0212,105.8566],[136.7804,51.9937,98.1386],[136.8688,51.9048,116.0922],[136.8865,51.857,80.2062],[136.8456,51.8308,78.0877],[136.7538,51.8514,131.1416],[136.6841,51.842,113.8315],[136.6709,51.798,81.183],[136.4958,51.7526,97.7721],[136.3996,51.7341,87.5786],[136.3613,51.758,90.8656],[136.3398,51.7925,94.419],[136.2365,51.7734,100.6494],[136.0722,51.8307,125.023],[135.9805,51.8217,118.8006],[135.8249,51.7606,159.3288],[135.6635,51.7047,277.8636],[135.5966,51.744,421.8879],[135.5776,51.7688,657.8735],[135.5398,51.7805,1136.9501],[135.494,51.7512,931.6578],[135.4092,51.7486,1062.9998],[135.3695,51.6983,670.3748],[135.3316,51.6953,474.2118],[135.3113,51.7247,593.9458],[135.2094,51.7229,695.2905],[135.1668,51.682,760.7104],[135.1439,51.6496,783.2462],[135.0311,51.634,1069.4485],[134.9608,51.6155,1540.4652],[134.8584,51.5774,1467.8398],[134.7811,51.5229,1259.0529],[134.677,51.4977,1301.4905],[134.6068,51.4336,844.6312],[134.56,51.3995,878.6387],[134.5673,51.3442,469.1479],[134.6786,51.2903,371.7046],[134.7579,51.2433,328.4324],[134.8126,51.1835,756.5913],[134.8387,51.1483,687.3763],[134.9687,51.1212,660.5263],[134.9908,51.0925,927.0646],[134.9708,51.0387,737.0355],[135.0398,50.9859,872.9502],[135.067,50.9223,1224.1392],[135.0931,50.8705,1586.7899],[135.2424,50.7613,1074.4924],[135.2349,50.7289,1206.413],[135.1461,50.6789,1132.2998],[135.1024,50.6165,873.2993],[135.0179,50.5855,1143.9277],[134.9805,50.5322,1203.2944],[134.9589,50.4836,926.4073],[134.9341,50.4607,1395.8992],[134.9724,50.4047,1764.7004],[135.0442,50.3548,1014.395],[135.0911,50.3489,779.4159],[135.1653,50.3927,955.8671],[135.2288,50.4178,882.7681],[135.3281,50.4214,954.3678],[135.4116,50.4586,821.0747],[135.4937,50.4405,708.1873],[135.6229,50.4533,994.0402],[135.6857,50.498,840.7237],[135.7301,50.5083,959.6831],[135.7834,50.4914,1096.7151],[135.8371,50.5105,934.2985],[135.921,50.4965,695.9875],[136.0093,50.4993,724.4774],[136.0779,50.5096,735.1685],[136.1203,50.5184,707.2546],[136.1935,50.5372,718.5739]]]]}}