{"type":"Feature","properties":{"GID_3":"RUS.60.33.1_1","GID_0":"RUS","country":"Russia","GID_1":"RUS.60_1","province":"Sakha","NL_NAME_1":"РеспубликаСаха","GID_2":"RUS.60.33_1","county":"Verkhnevilyuyskiyrayon","NL_NAME_2":"Верхневилюйскийрайон","city":"NA","VARNAME_3":"NA","NL_NAME_3":"NA","TYPE_3":"NA","ENGTYPE_3":"NA","CC_3":"NA","HASC_3":"NA","name":"N_A.city"},
"geometry":{"type": "MultiPolygon","coordinates": [[[[122.2446,62.3883,375.3987],[122.2335,62.4232,366.3857],[122.2023,62.4612,375.8051],[122.2135,62.5143,356.8907],[122.2572,62.6495,288.0186],[122.2345,62.6937,280.9938],[122.1412,62.7696,260.8133],[122.0012,62.8392,253.8061],[121.9231,62.8899,229.1121],[121.8811,62.9407,234.5829],[121.8586,63.0094,215.8381],[121.86,63.0763,206.0228],[121.9282,63.1655,189.4669],[121.9719,63.231,175.8011],[121.9592,63.2936,167.2489],[121.9045,63.3359,162.2884],[121.7966,63.3557,159.3489],[121.7484,63.3818,149.7651],[121.6924,63.4289,145.4846],[121.6053,63.4719,137.3172],[121.5131,63.4929,135.2807],[121.3049,63.5116,143.6987],[121.1952,63.5537,124.8548],[121.0839,63.612,110.1469],[121.0137,63.6625,106.0231],[120.9707,63.7299,106.3883],[120.9931,63.8015,161.5716],[121.0634,63.8266,176.2095],[121.2848,63.8068,139.7444],[121.3658,63.8189,158.9166],[121.4209,63.8509,146.6015],[121.4263,63.888,155.6492],[121.4272,63.9343,163.6004],[121.4548,63.9626,147.9595],[121.5311,63.9982,140.3704],[121.5264,64.0425,138.9608],[121.476,64.098,140.6282],[121.3991,64.1639,109.5121],[121.3502,64.2552,181.0677],[121.2944,64.3018,132.8096],[121.1784,64.3237,155.5317],[121.0538,64.3173,154.995],[120.9589,64.2801,151.1521],[120.8549,64.2177,130.5598],[120.7535,64.1767,121.6741],[120.6733,64.1725,125.7366],[120.5749,64.1906,128.6998],[120.4049,64.238,176.6102],[120.3459,64.2817,146.0752],[120.2915,64.3985,179.9358],[120.3116,64.4497,194.4856],[120.3619,64.4865,129.623],[120.3005,64.5089,134.5683],[120.1751,64.4998,153.8103],[120.0979,64.5185,129.8949],[120.0303,64.5424,127.8635],[119.9879,64.5951,129.6719],[119.9161,64.6704,126.0],[119.9335,64.7438,138.5004],[119.938,64.8075,146.5755],[119.9809,64.8994,140.0822],[119.9944,64.9478,131.0369],[119.9703,64.9868,132.9489],[119.9119,65.0369,136.569],[119.8407,65.0535,178.0331],[119.7101,65.0785,136.2982],[119.5788,65.1233,138.5086],[119.5227,65.1624,135.0],[119.503,65.2206,145.4859],[119.4948,65.267,156.2013],[119.4351,65.3027,142.387],[119.2488,65.3964,156.3511],[119.2139,65.4412,136.9554],[119.2377,65.5206,148.6746],[119.2644,65.5987,177.5228],[119.3145,65.6381,130.5],[119.4033,65.6756,160.3326],[119.5022,65.7242,165.0606],[119.6211,65.8045,182.3067],[119.7014,65.8962,160.156],[119.7285,65.9811,176.9819],[119.7259,66.045,182.2942],[119.6927,66.1117,197.1659],[119.6504,66.1709,182.2676],[119.5674,66.2179,220.0739],[119.4607,66.2581,227.9456],[119.2854,66.3083,190.0013],[119.1296,66.3748,190.85],[119.0185,66.4142,210.3369],[118.8965,66.4652,241.9225],[118.7882,66.4841,202.4564],[118.6455,66.4899,198.3483],[118.5438,66.4616,261.8066],[118.4473,66.4554,193.149],[118.3178,66.4651,236.2075],[118.2071,66.4434,282.41],[118.0906,66.3581,224.8485],[118.0645,66.2742,284.1355],[118.2026,66.2166,277.9407],[118.3092,66.1773,272.165],[118.3472,66.1061,283.0048],[118.3503,66.0558,270.0633],[118.3089,65.984,270.3795],[118.2308,65.9297,273.6582],[118.1446,65.879,269.4775],[118.0914,65.8058,253.0674],[118.0968,65.7751,262.0194],[118.2076,65.7947,252.9279],[118.2887,65.8128,215.9724],[118.3553,65.8091,222.8188],[118.4144,65.7816,236.8429],[118.4265,65.7519,239.182],[118.4551,65.7156,211.5295],[118.5079,65.6954,208.9075],[118.6267,65.5666,191.7047],[118.6323,65.5141,204.896],[118.5719,65.4269,215.7955],[118.7087,65.3571,168.8904],[118.8192,65.2903,201.7518],[118.8892,65.2264,179.2719],[118.9721,65.1221,157.3818],[119.0155,65.034,181.7905],[119.0694,64.9407,148.0356],[119.1032,64.8282,146.5173],[119.0804,64.4378,135.4757],[119.1177,64.3317,136.5384],[119.1606,64.2343,177.1059],[119.2657,64.1431,137.3851],[119.4062,64.0727,125.147],[119.5196,63.9765,127.4112],[119.6078,63.8843,174.4257],[119.6124,63.788,122.2079],[119.6101,63.716,113.0235],[119.6356,63.6244,114.3845],[119.669,63.5657,110.3183],[119.755,63.5177,182.1636],[119.7721,63.463,121.5879],[119.7676,63.4101,174.3312],[119.7244,63.352,199.2716],[119.649,63.2843,132.9069],[119.5098,63.1977,160.9082],[119.4565,63.1046,203.8405],[119.4534,63.0377,256.2796],[119.487,62.9696,235.5522],[119.5587,62.9171,243.2975],[119.5867,62.8666,261.7167],[119.5894,62.813,249.2172],[119.5716,62.7583,285.2716],[119.6659,62.7176,236.88],[119.7743,62.6889,283.6457],[119.872,62.6718,311.6406],[119.8004,62.6198,302.9241],[119.8966,62.5917,317.4864],[119.9356,62.6126,282.3221],[120.0115,62.6115,256.0927],[120.081,62.5719,289.8177],[120.0977,62.5209,269.917],[120.0928,62.4532,299.2823],[120.1109,62.417,345.0255],[120.2393,62.3831,346.5967],[120.3246,62.402,350.0568],[120.3852,62.3785,327.4589],[120.3903,62.3515,269.2719],[120.3608,62.3219,288.2599],[120.3697,62.2981,319.728],[120.4695,62.2492,283.7567],[120.4886,62.1931,245.3041],[120.4452,62.1214,258.0222],[120.3925,62.0661,221.1953],[120.343,62.0376,223.1886],[120.3008,61.9855,222.4838],[120.255,61.8954,209.8276],[120.2154,61.8505,223.1643],[120.2623,61.8447,206.407],[120.4022,61.8528,242.5152],[120.6337,61.854,251.104],[120.849,61.8525,290.5688],[120.9632,61.8337,324.6785],[121.0879,61.8425,328.7453],[121.1982,61.8156,330.314],[121.2924,61.776,315.4621],[121.5351,61.773,312.1775],[121.6143,61.7448,267.7696],[121.6075,61.7081,303.9998],[121.6848,61.6962,283.1729],[121.787,61.6992,323.6106],[121.9071,61.707,333.9859],[122.0158,61.7097,355.4206],[122.1716,61.6728,385.8181],[122.36,61.6409,321.4781],[122.5269,61.6245,306.0478],[122.6445,61.6339,353.0179],[122.707,61.6664,395.1446],[122.752,61.7036,383.4389],[122.8236,61.7194,398.5562],[122.8283,61.7679,374.8036],[122.8424,61.8159,356.5693],[122.8313,61.8518,328.6199],[122.7773,61.8738,332.5208],[122.7451,61.9056,338.5492],[122.8436,61.9162,314.5645],[122.9344,61.9384,302.7526],[122.9358,61.9789,322.2085],[122.8951,62.0092,258.0471],[122.8397,62.0552,273.3223],[122.8028,62.1152,334.3649],[122.7269,62.1615,300.6476],[122.5893,62.2072,256.7607],[122.4897,62.205,256.8445],[122.4037,62.2158,260.1931],[122.3274,62.2524,333.3798],[122.2671,62.2988,296.3418],[122.2438,62.344,332.3499],[122.2446,62.3883,375.3987]]]]}}