{"type":"Feature","properties":{"GID_3":"RUS.16.7.1_1","GID_0":"RUS","country":"Russia","GID_1":"RUS.16_1","province":"Gorno-Altay","NL_NAME_1":"РеспубликаАлтай","GID_2":"RUS.16.7_1","county":"Shebalinskiyrayon","NL_NAME_2":"Шебалинскийрайон","city":"NA","VARNAME_3":"NA","NL_NAME_3":"NA","TYPE_3":"NA","ENGTYPE_3":"NA","CC_3":"NA","HASC_3":"NA","name":"N_A.city"},
"geometry":{"type": "MultiPolygon","coordinates": [[[[84.9561,51.4765,1300.9009],[84.984,51.4515,1040.8643],[84.91,51.4213,1105.1681],[84.8999,51.3627,1142.7261],[84.9686,51.3641,1330.1638],[85.0209,51.307,1353.1332],[84.9934,51.289,1507.5955],[85.0418,51.2341,1465.2885],[85.0695,51.2437,1209.1896],[85.109,51.2427,1340.0426],[85.1508,51.1887,1674.7504],[85.1374,51.1728,1555.0922],[85.2533,51.0299,1367.7234],[85.2687,51.005,1799.0073],[85.2586,50.9764,1577.5073],[85.3439,50.9752,1349.3748],[85.421,50.9719,1641.7903],[85.3942,51.0356,1469.9633],[85.4206,51.0645,1421.9132],[85.4471,51.1094,1603.6919],[85.487799999999993,51.1439,1568.3575],[85.5183,51.1425,1645.9744],[85.556,51.1374,1571.5361],[85.5556,51.1186,1273.9746],[85.5373,51.0956,1521.8107],[85.5561,51.0851,1628.4995],[85.672,51.1065,1769.6971],[85.7059,51.1316,1732.7469],[85.7492,51.1356,1796.9315],[85.8039,51.1541,1829.5297],[85.8046,51.1515,1963.5334],[85.8622,51.1489,1636.496],[85.9031,51.131,1369.0914],[85.9502,51.0953,1098.3817],[85.9693,51.0548,1514.9039],[85.9728,51.0161,1454.0082],[86.0693,51.0036,1527.9802],[86.0936,50.9769,1843.0885],[86.1721,50.9732,1424.8329],[86.2355,50.932,881.7057],[86.3011,50.8827,1211.5056],[86.2804,50.9972,1142.7141],[86.2804,51.0241,1005.6356],[86.1853,51.1909,802.147],[86.0526,51.3219,829.4752],[85.8277,51.6873,886.7631],[85.8103,51.6861,876.261],[85.7456,51.6728,540.2974],[85.7049,51.6804,711.0086],[85.6913,51.7047,934.7259],[85.6462,51.736,1008.1911],[85.5929,51.7205,745.7278],[85.5255,51.6824,1172.7837],[85.4615,51.6355,1027.6431],[85.4848,51.5743,859.0617],[85.3918,51.5644,1175.2122],[85.3202,51.5424,887.6478],[85.2319,51.5087,1062.8386],[85.1543,51.5026,1517.2498],[85.0983,51.5069,1138.8621],[85.0274,51.495,915.4175],[84.9561,51.4765,1300.9009]]]]}}