{"type":"Feature","properties":{"GID_2":"RUS.28.21_1","GID_0":"RUS","country":"Russia","GID_1":"RUS.28_1","province":"Khabarovsk","NL_NAME_1":"Хабаровскийкрай","county":"Vaninskiyrayon","VARNAME_2":"NA","NL_NAME_2":"Ванинскийрайон","TYPE_2":"Raion","ENGTYPE_2":"District","CC_2":"R67090","HASC_2":"RU.KH.VA","name":"Vaninskiyrayon.county"},
"geometry":{"type": "MultiPolygon","coordinates": [[[[140.3282,49.0519,6.9685],[140.3252,49.0537,3.1157],[140.3199,49.0501,6.4063],[140.3152,49.0511,0.0],[140.3133,49.0424,3.5484],[140.31,49.0387,13.1085],[140.3072,49.038,3.7065],[140.3058,49.0341,1.3426],[140.3008,49.0312,0.0],[140.2993,49.0258,0.0],[140.3015,49.0246,0.0],[140.3045,49.0254,0.0],[140.3136,49.0357,4.8011],[140.3317,49.044,0.0],[140.3331,49.0528,0.0],[140.3314,49.0537,4.1305],[140.3282,49.0519,6.9685]]],
[[[140.3501,49.1682,0.0],[140.35,49.1699,0.0],[140.3472,49.1678,0.0],[140.349,49.1668,0.0],[140.3501,49.1682,0.0]]],
[[[140.3364,49.2789,0.2174],[140.3394,49.2808,0.0],[140.3342,49.2797,0.0],[140.3347,49.2783,0.0],[140.3364,49.2789,0.2174]]],
[[[138.6198,49.4728,1247.6952],[138.6683,49.4762,912.1622],[138.7663,49.5202,1179.0979],[138.8159,49.5167,1314.7152],[138.7871,49.444,819.1516],[138.7974,49.3645,793.1549],[138.7194,49.2849,858.6151],[138.6727,49.2886,977.7097],[138.6322,49.2221,908.2183],[138.5717,49.1939,807.1979],[138.53,49.1495,899.1295],[138.4704,49.1382,649.439],[138.5099,49.0826,877.6725],[138.5226,49.0448,835.4182],[138.5322,48.9998,791.7196],[138.5209,48.9387,793.2132],[138.5083,48.9222,841.1763],[138.5854,48.9278,755.8979],[138.6401,48.9274,715.2159],[138.8488,48.8445,753.8765],[138.9638,48.8093,745.175],[139.0432,48.8069,873.4153],[139.1308,48.8408,1105.7794],[139.225,48.8829,967.8954],[139.2957,48.871,883.3424],[139.3504,48.8279,967.3843],[139.4189,48.834,1166.3853],[139.4562,48.8791,1034.7065],[139.484,48.9185,943.7354],[139.4563,48.9874,873.5091],[139.5,49.0225,800.4321],[139.6008,49.0382,565.954],[139.7541,49.0483,528.4202],[139.8824,49.0513,474.6558],[139.9404,49.04,332.3357],[140.0086,49.0078,247.6656],[140.1056,49.0226,225.7531],[140.2128,49.0515,106.8046],[140.2675,49.0267,58.7645],[140.2741,49.0281,48.6504],[140.2867,49.0256,6.3323],[140.2928,49.0321,1.0025],[140.2911,49.0355,11.1893],[140.2952,49.0372,0.0],[140.2962,49.041,0.0],[140.3025,49.0454,0.0],[140.3052,49.0455,1.1732],[140.3098,49.0504,0.5567],[140.3138,49.0513,0.2501],[140.3108,49.0536,0.0],[140.312,49.055,0.0],[140.309,49.0582,6.5184],[140.3132,49.0619,0.0],[140.3196,49.0633,2.2587],[140.3245,49.0673,3.0587],[140.3229,49.0707,0.0],[140.3123,49.065,13.0954],[140.3054,49.0631,4.5336],[140.3044,49.0665,0.0],[140.3111,49.07,0.0],[140.3089,49.0725,0.0],[140.3038,49.072,13.0751],[140.3006,49.074,8.0687],[140.3056,49.0754,0.0],[140.3066,49.0775,0.0],[140.2974,49.079,0.0],[140.2915,49.0842,0.0],[140.2782,49.0857,0.0],[140.2704,49.0827,0.7943],[140.267,49.0783,1.6984],[140.2651,49.0791,0.0],[140.2622,49.0762,1.3385],[140.2492,49.0725,2.0312],[140.2442,49.0678,6.0087],[140.2399,49.0687,14.0582],[140.2514,49.0761,5.6828],[140.2611,49.0771,0.0],[140.2725,49.0884,0.4869],[140.2813,49.0933,2.2208],[140.2924,49.0919,0.0],[140.3025,49.0873,0.0],[140.3055,49.0919,0.0],[140.3153,49.0909,2.4793],[140.3169,49.0942,2.6244],[140.3236,49.0961,2.5091],[140.3303,49.0933,0.0],[140.3458,49.0943,0.0],[140.3451,49.0982,13.5933],[140.3509,49.1037,1.4826],[140.3441,49.1089,0.0],[140.3416,49.109,0.0],[140.3407,49.1064,3.8158],[140.3356,49.1036,2.8564],[140.3276,49.1065,1.0781],[140.3308,49.1106,8.9804],[140.3286,49.1161,11.8916],[140.3324,49.1164,0.0],[140.3339,49.118899999999996,3.5657],[140.3302,49.1207,0.874],[140.3288,49.1253,2.103],[140.3382,49.1297,0.0],[140.3462,49.129,0.0],[140.3476,49.1316,0.0],[140.3515,49.1329,0.0],[140.3519,49.1343,0.7753],[140.3498,49.1359,0.0],[140.3532,49.14,4.8375],[140.3477,49.1441,0.0],[140.3489,49.148,0.0],[140.3538,49.15,0.0],[140.3588,49.1484,0.0],[140.3616,49.1501,8.3096],[140.3594,49.1549,10.7096],[140.3555,49.1576,1.8338],[140.3508,49.1562,5.931],[140.3478,49.1571,0.0],[140.3416,49.1627,0.0],[140.3336,49.165,1.7943],[140.3329,49.1685,2.5066],[140.3357,49.1721,0.0],[140.3305,49.1758,2.3484],[140.3306,49.1776,0.0],[140.3346,49.1807,3.9437],[140.3422,49.1794,0.0],[140.3437,49.1807,0.0],[140.3422,49.1881,4.2404],[140.3465,49.1949,0.0],[140.3456,49.2035,0.0],[140.3423,49.2022,0.0],[140.3431,49.1982,1.7087],[140.3364,49.1961,5.348],[140.3321,49.1967,2.925],[140.3322,49.1897,0.3321],[140.3308,49.1917,0.0],[140.325,49.1914,1.6604],[140.3171,49.196,0.0],[140.3111,49.2022,0.0],[140.3106,49.205,0.0],[140.3124,49.2075,0.0],[140.3109,49.2161,0.0],[140.3163,49.2202,0.0],[140.3209,49.2179,0.0],[140.3249,49.2198,0.0],[140.3256,49.2225,9.4279],[140.3294,49.2256,0.0],[140.328,49.2283,22.1151],[140.3292,49.2355,0.0],[140.3319,49.2372,0.0],[140.3317,49.2389,2.4312],[140.3352,49.2427,0.0],[140.3442,49.247,1.6036],[140.3418,49.2489,0.0],[140.3359,49.2493,0.5387],[140.3368,49.2531,16.9017],[140.3407,49.2542,2.137],[140.3389,49.2596,0.0],[140.3443,49.2605,8.2599],[140.3468,49.2573,8.4769],[140.3532,49.2535,0.0],[140.3581,49.2527,11.6016],[140.3599,49.249,10.6178],[140.3668,49.2508,6.952],[140.3704,49.2499,0.0],[140.3741,49.2514,0.0],[140.3752,49.2545,0.0],[140.3718,49.2552,16.0776],[140.3728,49.2592,0.0],[140.3688,49.2619,0.0],[140.3687,49.2644,1.8375],[140.3767,49.2637,0.0],[140.3768,49.2657,0.0],[140.3745,49.2672,0.0],[140.3761,49.2699,1.9327],[140.3841,49.2654,0.0],[140.3879,49.2668,2.559],[140.3831,49.2722,0.0],[140.3736,49.2756,0.0],[140.3726,49.2786,0.0],[140.3755,49.2829,0.0],[140.3707,49.2855,0.0],[140.3593,49.2816,0.0],[140.3565,49.2785,13.4196],[140.3452,49.2797,3.5388],[140.3273,49.2711,21.2237],[140.3248,49.2757,0.3052],[140.3271,49.2782,0.0772],[140.3248,49.2826,-0.1704],[140.3289,49.2842,0.0],[140.3328,49.2883,0.0413],[140.3275,49.2936,0.0674],[140.3278,49.2964,1.3658],[140.3403,49.2951,0.0],[140.3478,49.2959,8.3701],[140.3587,49.2896,0.0],[140.37,49.2897,1.1803],[140.3726,49.2872,0.4772],[140.3804,49.2853,0.0],[140.3886,49.2912,0.0],[140.4119,49.3001,0.4781],[140.4159,49.2962,10.6721],[140.4205,49.2941,9.6746],[140.4244,49.2952,4.396],[140.4274,49.3063,28.5826],[140.4216,49.3138,0.0],[140.4128,49.3211,14.3529],[140.4133,49.3285,0.0],[140.418,49.3367,0.0],[140.4156,49.3411,0.0],[140.4152,49.35,103.2912],[140.4229,49.3547,24.9633],[140.4253,49.363,62.2799],[140.4274,49.3646,0.0],[140.4246,49.3671,83.3179],[140.4253,49.3698,80.0527],[140.4342,49.3762,0.0],[140.4344,49.3778,0.0],[140.4319,49.3838,0.0],[140.4253,49.3865,76.805],[140.4186,49.3922,0.0],[140.417,49.3968,10.0623],[140.418,49.4024,9.6009],[140.4261,49.4168,0.0],[140.4355,49.4224,20.618],[140.4389,49.4311,11.5265],[140.4561,49.4457,15.6948],[140.4556,49.4471,34.1717],[140.4646,49.4556,47.2589],[140.4684,49.4633,29.4774],[140.4744,49.4671,55.8608],[140.4755,49.47,16.6835],[140.4851,49.4775,124.0125],[140.4973,49.4819,0.0],[140.5061,49.4817,0.0],[140.5089,49.4844,0.0],[140.5085,49.4859,14.1028],[140.5117,49.4885,9.4645],[140.5094,49.4917,58.3167],[140.511,49.4944,21.1455],[140.5089,49.4991,18.3111],[140.5114,49.5086,25.9189],[140.5074,49.5117,23.9912],[140.5042,49.5187,0.0],[140.5061,49.5227,0.0],[140.5061,49.5296,0.0],[140.5041,49.5307,0.0],[140.5049,49.5331,0.0],[140.5089,49.5348,0.0],[140.5167,49.532,0.0],[140.5234,49.5347,0.0],[140.5284,49.5452,103.3034],[140.5419,49.5567,0.0],[140.5473,49.5649,0.0],[140.5469,49.569,102.7405],[140.5437,49.5723,22.1464],[140.5419,49.5787,13.0376],[140.5425,49.5863,62.728],[140.5402,49.5923,14.7],[140.5392,49.6022,0.0],[140.5347,49.6076,8.9594],[140.5333,49.612,0.0],[140.5325,49.6167,23.3046],[140.5345,49.6193,3.2345],[140.5261,49.6259,25.4309],[140.5218,49.6327,69.8566],[140.5146,49.639,0.0],[140.5132,49.6444,5.5663],[140.5152,49.6467,0.0],[140.5129,49.6515,0.0],[140.5127,49.6568,0.0],[140.5097,49.6605,47.8274],[140.5098,49.6657,15.9286],[140.4992,49.6792,43.1376],[140.5002,49.6919,0.0],[140.4984,49.7024,0.0],[140.5014,49.7062,19.7195],[140.4985,49.7152,13.5309],[140.514,49.7406,45.0693],[140.5236,49.7462,1.1655],[140.5183,49.7618,12.5109],[140.5225,49.7661,0.0],[140.5287,49.7857,6.1413],[140.522,49.7897,23.1816],[140.5142,49.788,30.2815],[140.5054,49.7889,0.0],[140.4921,49.7877,0.6884],[140.4861,49.7914,19.2572],[140.4704,49.797,11.0014],[140.4662,49.8002,32.1573],[140.4585,49.8023,0.0],[140.4474,49.8089,14.8716],[140.4469,49.814,3.4704],[140.4439,49.8179,26.6703],[140.4429,49.8226,0.0],[140.4399,49.8238,55.2865],[140.4341,49.831,0.0],[140.4325,49.8372,0.0],[140.4158,49.8497,0.0],[140.4049,49.8633,50.6347],[140.3992,49.8732,0.0],[140.4,49.8819,0.0],[140.4022,49.8864,0.0],[140.4052,49.8868,0.0],[140.4064,49.8897,1.0094],[140.4111,49.8898,4.96],[140.4164,49.8925,41.594],[140.4225,49.8922,25.5758],[140.4301,49.8977,32.611],[140.4347,49.8969,0.0],[140.4322,49.9035,14.4122],[140.4356,49.9206,7.0205],[140.4443,49.9294,0.0],[140.4533,49.9349,0.0],[140.4589,49.9422,102.1723],[140.4624,49.9426,31.6554],[140.4633,49.947,0.0],[140.4612,49.9534,0.0],[140.4734,49.9701,4.4906],[140.4717,49.9735,14.5642],[140.4728,49.9784,31.6631],[140.4714,49.9826,4.4977],[140.4848,49.9962,41.0174],[140.4983,50.0014,0.0],[140.4989,50.0031,14.8501],[140.5041,50.0055,11.8679],[140.5236,50.0118,0.0],[140.5232,50.0132,12.9507],[140.5309,50.0175,12.688],[140.5415,50.0214,3.7761],[140.5661,50.0283,0.0],[140.5737,50.0285,0.0],[140.5809,50.0325,44.6418],[140.6015,50.0385,16.5011],[140.6047,50.038,0.0],[140.6072,50.0405,56.8366],[140.6153,50.0432,1.9895],[140.6325,50.0456,4.0261],[140.6409,50.0572,46.854],[140.66,50.0615,18.7818],[140.6624,50.0677,0.0],[140.6617,50.074,92.4849],[140.6678,50.0815,2.9962],[140.6879,50.0899,1.4188],[140.6866,50.096,13.0438],[140.6765,50.0991,0.0],[140.6687,50.0971,8.3328],[140.6647,50.0944,21.9728],[140.6534,50.0945,1.0895],[140.6501,50.0916,5.4405],[140.6491,50.0952,1.4486],[140.625,50.0986,1.447],[140.5811,50.1081,0.6299],[140.5433,50.1194,0.6301],[140.535,50.1239,0.0],[140.5255,50.1347,0.0],[140.5189,50.139,8.4184],[140.5069,50.1569,78.7605],[140.5023,50.1682,0.0],[140.5022,50.1844,0.0],[140.4956,50.1972,1.8526],[140.4933,50.2064,22.3531],[140.4944,50.2106,0.0],[140.506,50.2239,0.0],[140.5032,50.2294,10.915],[140.5027,50.2367,0.372],[140.5061,50.2395,10.1076],[140.5073,50.2441,60.3044],[140.4983,50.2539,47.475],[140.4928,50.2658,5.3744],[140.4928,50.2684,6.2603],[140.4958,50.272,0.0],[140.4951,50.2738,0.0],[140.4979,50.2774,0.0],[140.4944,50.2903,0.0],[140.4961,50.2947,0.0],[140.4939,50.2953,0.0],[140.4932,50.3016,2.391],[140.4978,50.3075,0.0],[140.4972,50.3086,80.9953],[140.4995,50.3097,57.986],[140.5011,50.3147,5.4244],[140.5056,50.3181,3.2962],[140.505,50.3211,6.9419],[140.5111,50.3275,17.8215],[140.5209,50.3338,8.5622],[140.528,50.3357,3.5334],[140.5317,50.34,20.9172],[140.5283,50.345,16.7077],[140.5202,50.3486,38.4042],[140.5068,50.358,35.5222],[140.4989,50.3683,32.7758],[140.5,50.3711,0.0],[140.4975,50.3751,83.0126],[140.4967,50.3789,78.6126],[140.4978,50.38,0.0],[140.495,50.3864,2.2994],[140.4961,50.3886,0.0],[140.4944,50.3897,0.0],[140.4941,50.3988,0.0],[140.4956,50.4025,0.0],[140.4872,50.4228,73.485],[140.4878,50.4278,0.0],[140.4828,50.4353,23.0451],[140.4839,50.4367,6.666],[140.4767,50.4444,1.1997],[140.4778,50.45,0.6549],[140.4844,50.4577,11.3567],[140.48,50.4647,0.0],[140.4739,50.47,14.4026],[140.4644,50.4753,53.5483],[140.4511,50.4861,5.5718],[140.4433,50.4892,5.8933],[140.4228,50.5075,32.0398],[140.425,50.5106,0.0],[140.4217,50.5147,0.0],[140.4222,50.5175,0.0],[140.4195,50.5226,0.0],[140.4206,50.5242,0.0],[140.4161,50.5289,46.6503],[140.4133,50.5419,6.3715],[140.4172,50.5547,15.034],[140.4351,50.5734,0.0],[140.4368,50.5767,39.2154],[140.4346,50.579,0.0],[140.4352,50.5809,3.7198],[140.4406,50.5839,8.014],[140.4433,50.5931,20.1979],[140.4528,50.6031,0.0],[140.4517,50.6056,145.7915],[140.4544,50.6086,0.0],[140.4654,50.6148,0.0],[140.471,50.6157,16.2052],[140.4721,50.6169,16.2052],[140.47,50.623,0.0],[140.4746,50.6244,6.7387],[140.4818,50.6208,16.6573],[140.4933,50.6289,0.0],[140.4811,50.6333,0.0],[140.4706,50.6425,26.0825],[140.4711,50.6442,0.0],[140.465,50.6544,0.0],[140.465,50.6575,12.0412],[140.4678,50.66,0.0],[140.4617,50.665,151.9129],[140.4628,50.6664,0.0],[140.4528,50.6792,0.0],[140.4472,50.6908,0.0],[140.444,50.6942,16.4618],[140.443,50.6964,15.2799],[140.4454,50.701,0.0],[140.4334,50.711,0.0],[140.4296,50.7175,3.6155],[140.4367,50.7267,1.5746],[140.4463,50.7282,0.0],[140.4505,50.7326,11.1746],[140.4511,50.7369,33.6774],[140.4461,50.7417,32.9289],[140.4456,50.7461,5.004],[140.4511,50.7561,13.4869],[140.4718,50.7689,48.6518],[140.478,50.7706,7.6652],[140.4813,50.7761,0.0],[140.4911,50.7819,0.0],[140.4939,50.7956,0.0],[140.501,50.8047,9.5812],[140.5071,50.8097,16.5878],[140.508,50.8135,13.7845],[140.5133,50.8178,0.0],[140.5106,50.8189,0.0],[140.51,50.8208,17.0251],[140.5173,50.8276,0.0],[140.5189,50.8333,21.026],[140.5128,50.8439,0.0],[140.5048,50.8479,0.0],[140.5007,50.8537,21.1791],[140.4983,50.8678,38.8048],[140.5064,50.8748,10.4748],[140.5146,50.8789,0.0],[140.526,50.888,18.69],[140.53,50.8892,0.0],[140.5283,50.8928,15.6645],[140.5233,50.8943,3.0844],[140.5234,50.8983,14.9885],[140.5256,50.9006,6.2042],[140.5457,50.916,49.4682],[140.5544,50.9197,13.9569],[140.5544,50.9211,75.6652],[140.567,50.93,6.9762],[140.5796,50.935,0.0],[140.5814,50.938,10.8883],[140.5918,50.9415,2.8063],[140.5913,50.9472,11.1332],[140.5938,50.9468,0.5],[140.5977,50.9431,0.0],[140.6066,50.9447,0.0],[140.6123,50.9435,0.0],[140.6162,50.9466,6.5154],[140.6355,50.9494,4.1715],[140.6478,50.9565,0.0],[140.6507,50.9607,0.0],[140.6493,50.9622,146.4866],[140.6513,50.9647,0.0],[140.6487,50.9778,0.0],[140.6411,50.9824,0.0],[140.6352,50.9888,0.0],[140.6331,50.9947,52.3957],[140.6335,50.9978,0.0],[140.5821,50.972,246.1946],[140.5258,50.9536,412.3962],[140.4993,50.9101,235.5358],[140.4649,50.8795,162.3861],[140.3911,50.8299,218.4234],[140.3216,50.8152,333.4489],[140.2918,50.8355,638.5007],[140.2172,50.8345,962.2128],[140.168,50.8366,882.8418],[140.1203,50.8681,446.1287],[140.0776,50.9075,576.58],[139.9901,50.9288,777.3702],[139.9565,50.9571,770.5488],[139.9631,50.9936,558.6722],[139.893,51.0243,940.7383],[139.8341,50.9715,592.7841],[139.7678,50.9346,670.1313],[139.7281,50.9295,583.244],[139.6685,50.9811,656.3621],[139.6063,50.9522,496.6593],[139.5638,50.9591,703.1426],[139.5037,50.9924,562.0585],[139.4231,51.0328,707.1106],[139.3458,51.0588,1025.5076],[139.2782,51.0396,875.1975],[139.2079,50.9996,1229.8386],[139.1585,50.933,888.8459],[139.1277,50.957,887.6137],[139.0904,50.9673,1106.959],[139.0364,50.9318,947.4419],[138.9583,50.9373,838.3525],[138.8362,50.9098,773.0864],[138.7498,50.8555,828.7162],[138.6855,50.7719,866.0809],[138.5925,50.72,530.9365],[138.5944,50.6683,605.017],[138.6497,50.6544,715.6038],[138.7538,50.6465,1093.4739],[138.7426,50.6107,586.1444],[138.7393,50.5783,483.6032],[138.8141,50.571,469.122],[138.8691,50.5691,682.108],[138.9113,50.5495,585.0309],[138.9949,50.5289,760.2371],[139.009,50.5006,1178.6567],[138.8793,50.4405,879.287],[138.7032,50.3952,603.5016],[138.7816,50.3637,842.3076],[138.8393,50.1867,478.6999],[138.8349,50.1106,733.9684],[139.2793,49.8807,673.7755],[139.3758,49.9657,943.1611],[139.4243,49.9473,822.328],[139.4066,49.8975,781.2893],[139.4246,49.8705,797.8971],[139.4809,49.8479,566.2792],[139.4684,49.8276,745.4769],[139.4013,49.7988,888.3273],[139.4032,49.7575,765.5109],[139.4486,49.7162,874.0168],[139.2511,49.5655,507.3894],[139.1909,49.6202,838.8308],[139.2264,49.6692,1182.5117],[139.1926,49.7166,909.3124],[139.1404,49.7811,691.4263],[139.0571,49.7262,612.2604],[138.9197,49.7092,510.8217],[138.7462,49.7238,722.016],[138.6696,49.7454,836.6756],[138.6366,49.7919,782.4836],[138.6453,49.8523,1134.6519],[138.59,49.834,846.7372],[138.5126,49.7627,592.46],[138.4678,49.7479,705.8148],[138.452,49.6906,641.3632],[138.4892,49.6201,811.8811],[138.4991,49.5883,1013.7873],[138.4632,49.5487,727.3553],[138.5266,49.5033,840.4614],[138.6198,49.4728,1247.6952]]]]}}