{"type":"Feature","properties":{"GID_3":"RUS.30.20.1_1","GID_0":"RUS","country":"Russia","GID_1":"RUS.30_1","province":"Khanty-Mansiy","NL_NAME_1":"Ханты-МансийскийАОк","GID_2":"RUS.30.20_1","county":"Surgut","NL_NAME_2":"Сургут","city":"NA","VARNAME_3":"NA","NL_NAME_3":"NA","TYPE_3":"NA","ENGTYPE_3":"NA","CC_3":"NA","HASC_3":"NA","name":"N_A.city"},
"geometry":{"type": "MultiPolygon","coordinates": [[[[73.5556,61.3608,61.7838],[73.543,61.3902,62.8201],[73.4797,61.4026,65.6947],[73.4391,61.3573,69.781],[73.4425,61.3385,53.516],[73.4899,61.3292,57.0575],[73.5556,61.3608,61.7838]]]]}}