{"type":"Feature","properties":{"GID_2":"RUS.71.8_1","GID_0":"RUS","country":"Russia","GID_1":"RUS.71_1","province":"Tuva","NL_NAME_1":"РеспубликаТыва","county":"Kyzyl","VARNAME_2":"NA","NL_NAME_2":"Кызыл","TYPE_2":"Gorod","ENGTYPE_2":"City","CC_2":"NA","HASC_2":"RU.TU.KG","name":"Kyzyl.county"},
"geometry":{"type": "MultiPolygon","coordinates": [[[[94.2628,51.7287,805.6289],[94.2965,51.6619,614.4536],[94.4011,51.6112,753.479],[94.5448,51.731,688.9604],[94.5415,51.756,798.9446],[94.4261,51.8158,718.4657],[94.379,51.8184,913.7567],[94.2628,51.7287,805.6289]]]]}}