{"type":"Feature","properties":{"GID_3":"RUS.35.21.1_1","GID_0":"RUS","country":"Russia","GID_1":"RUS.35_1","province":"Krasnoyarsk","NL_NAME_1":"Красноярскийкрай","GID_2":"RUS.35.21_1","county":"Igarkagorsovet","NL_NAME_2":"Игарка(горсовет)","city":"NA","VARNAME_3":"NA","NL_NAME_3":"NA","TYPE_3":"NA","ENGTYPE_3":"NA","CC_3":"NA","HASC_3":"NA","name":"N_A.city"},
"geometry":{"type": "MultiPolygon","coordinates": [[[[85.0055,67.3365,118.2269],[85.238,67.3572,95.4678],[85.2986,67.3308,122.3469],[85.307,67.2783,103.7771],[85.244,67.2231,71.5518],[85.3407,67.1242,71.314],[85.3231,67.0488,76.3708],[85.4219,66.9931,103.4293],[85.5501,66.9362,106.8427],[85.5988,66.8266,67.6222],[85.5407,66.7627,67.6913],[85.5826,66.6982,68.2507],[85.4522,66.6475,61.6686],[85.5054,66.6102,64.5913],[85.6625,66.5868,82.8008],[85.7087,66.5368,71.1991],[85.6579,66.4558,85.8485],[85.7142,66.4086,64.9409],[85.9046,66.3824,65.6841],[86.0252,66.3239,60.1959],[86.2962,66.2028,52.9746],[86.3706,66.1255,55.8816],[86.6793,66.0704,52.2429],[86.9356,66.0635,42.1171],[87.0906,66.192,58.2049],[87.1587,66.2299,42.7754],[87.301,66.3199,32.0704],[87.5474,66.4436,37.3846],[87.4851,66.5168,28.5345],[87.389,66.5884,57.8899],[87.3782,66.646,30.241],[87.3715,66.7281,56.6059],[87.4003,66.8315,103.8703],[87.533,66.9019,90.7512],[87.679,66.9322,99.3034],[87.8661,66.9784,115.3012],[88.0695,67.0784,101.2933],[88.4958,67.3768,528.0375],[88.3878,67.4158,495.2149],[88.307,67.389,487.0809],[88.1144,67.3738,210.1674],[88.0212,67.4164,268.9616],[87.9029,67.4098,143.9899],[87.7781,67.3544,138.957],[87.5994,67.3628,87.1368],[87.5114,67.3386,72.2827],[87.363,67.3871,76.4105],[87.1949,67.499,93.7205],[86.9478,67.5956,77.3457],[86.8313,67.7159,72.2037],[86.7062,67.8384,46.1223],[86.5975,67.9612,50.2919],[86.4977,68.0651,42.5139],[86.3319,68.0809,46.6715],[86.1512,68.0451,44.5264],[85.7605,68.0393,110.1435],[85.6042,68.0197,144.3727],[85.5177,67.8722,103.7296],[85.3875,67.848,113.6063],[85.3852,67.7833,74.9106],[85.2695,67.7827,108.0001],[85.2504,67.7371,73.7269],[85.1834,67.6526,101.5067],[85.3084,67.5757,92.0621],[85.2312,67.5138,73.2124],[85.059,67.4817,75.4173],[85.0535,67.4559,100.6756],[84.9666,67.4257,78.7145],[84.916,67.3537,125.5364],[85.0055,67.3365,118.2269]]]]}}