{"type":"Feature","properties":{"GID_3":"RUS.60.32.1_1","GID_0":"RUS","country":"Russia","GID_1":"RUS.60_1","province":"Sakha","NL_NAME_1":"РеспубликаСаха","GID_2":"RUS.60.32_1","county":"Verkhnekolymskiyrayon","NL_NAME_2":"Верхнеколымскийрайон","city":"NA","VARNAME_3":"NA","NL_NAME_3":"NA","TYPE_3":"NA","ENGTYPE_3":"NA","CC_3":"NA","HASC_3":"NA","name":"N_A.city"},
"geometry":{"type": "MultiPolygon","coordinates": [[[[153.7748,65.8682,603.5908],[153.7219,65.9071,417.834],[153.6676,65.9439,495.5763],[153.6183,66.006,481.5429],[153.5541,66.0623,366.5783],[153.4193,66.0925,226.0828],[153.2641,66.1191,159.3096],[153.1604,66.1649,126.553],[153.1414,66.201,124.0601],[153.058,66.2331,125.9916],[152.9454,66.251,145.373],[152.7542,66.2498,369.5318],[152.6314,66.2522,344.621],[152.6196,66.2837,529.6299],[152.5739,66.3415,506.1992],[152.497,66.3985,286.6873],[152.3375,66.4441,130.6493],[152.1822,66.494,176.1342],[152.0437,66.5524,27.7945],[151.9136,66.63,47.4787],[151.8344,66.6803,50.1207],[151.6917,66.7519,56.3566],[151.5548,66.797,58.2885],[151.14,66.9146,64.9166],[150.9086,66.9819,35.7149],[150.7895,67.0563,40.3606],[150.733,67.1128,45.7052],[150.5844,67.1514,45.517],[150.3621,67.195,53.2643],[150.2178,67.2339,59.9116],[150.1779,67.2739,59.2722],[150.1128,67.3288,132.7991],[150.0547,67.3553,97.9803],[149.8831,67.3712,190.0364],[149.7017,67.3768,202.0051],[149.4914,67.4032,139.4504],[149.3777,67.458,184.7495],[149.291,67.5096,207.8444],[149.109,67.5314,319.4356],[149.0618,67.5656,319.3979],[149.0439,67.614,347.3321],[148.9058,67.6907,378.3394],[148.7598,67.7045,364.6289],[148.5865,67.6863,389.3755],[148.437,67.6242,477.3002],[148.3145,67.6227,461.4431],[148.166,67.6382,500.6035],[148.0044,67.6433,610.417],[147.8817,67.6167,559.8823],[147.824,67.577,674.4056],[147.8621,67.5312,368.8936],[147.9465,67.482,486.4983],[147.7329,67.3568,345.3642],[147.8617,67.3715,500.0213],[147.9595,67.344,393.7509],[148.0107,67.2971,594.8256],[148.1162,67.2501,740.5508],[148.257,67.2305,533.4997],[148.3762,67.2325,543.7346],[148.4106,67.1981,646.1663],[148.3863,67.1258,442.7794],[148.3317,67.0721,451.9111],[148.213,67.0089,150.1543],[148.1846,66.9658,115.2376],[148.2279,66.9222,106.2861],[148.2967,66.9217,169.6935],[148.4006,66.9392,136.7696],[148.4796,66.94,137.5263],[148.5336,66.9118,114.149],[148.4756,66.8702,130.9084],[148.4739,66.8251,97.0375],[148.5319,66.7726,69.7085],[148.5686,66.7055,68.9415],[148.4973,66.6566,69.6193],[148.2883,66.6083,69.5],[147.9657,66.5402,105.567],[147.7874,66.4742,161.6124],[147.5623,66.3563,309.8083],[147.3119,66.2367,597.0187],[147.1896,66.1308,731.3696],[147.1581,66.0739,793.8604],[147.2654,66.0122,724.631],[147.3605,65.9986,948.4059],[147.4353,65.9812,1013.5983],[147.4699,65.9371,1052.4154],[147.4901,65.8954,920.7922],[147.6098,65.8503,988.1809],[147.8174,65.7405,734.8743],[147.946,65.6939,811.6274],[148.0635,65.6582,756.47],[148.1743,65.6524,730.8598],[148.2757,65.6354,795.4297],[148.3218,65.6068,871.7419],[148.2729,65.5821,697.532],[148.2031,65.5529,600.5565],[148.2566,65.5241,794.0685],[148.4202,65.5157,524.6421],[148.4828,65.4858,589.7836],[148.4815,65.456,570.6514],[148.4739,65.4177,843.9775],[148.4975,65.3812,891.5328],[148.6229,65.3305,1142.7504],[148.7323,65.2745,707.7831],[148.7862,65.2352,797.496],[148.8137,65.208,749.2712],[148.8129,65.1731,574.7601],[148.8815,65.1366,472.9267],[148.9584,65.114,592.3166],[148.981,65.0861,566.083],[148.881,65.0686,849.9607],[148.8052,65.0447,612.119],[148.7594,64.9973,546.9354],[148.7399,64.9561,448.1397],[148.651,64.9189,578.9913],[148.5513,64.9075,751.9924],[148.4806,64.8927,651.379],[148.4266,64.8535,926.1187],[148.4083,64.8108,623.6104],[148.3977,64.7471,1005.2881],[148.3311,64.6766,701.8232],[148.2609,64.6317,598.3215],[148.2225,64.5942,706.4159],[148.2663,64.5646,795.7792],[148.3327,64.547,948.444],[148.3689,64.5286,872.0504],[148.4835,64.5036,1039.3511],[148.502,64.4484,664.4489],[148.6504,64.415,826.8078],[148.7646,64.4492,792.7379],[148.8816,64.4057,1004.5956],[148.9269,64.4515,605.4023],[149.0697,64.4332,645.0321],[149.18,64.3821,564.9204],[149.3149,64.3762,729.8521],[149.2921,64.4205,777.8112],[149.4086,64.3985,536.2493],[149.4808,64.4145,732.6022],[149.6019,64.474,654.022],[149.6611,64.4804,641.292],[149.7561,64.5097,415.2158],[149.8048,64.5534,271.7939],[149.9454,64.544,512.848],[149.9437,64.505,518.9907],[150.1034,64.4666,650.5297],[150.0966,64.4297,653.5571],[149.9976,64.3922,498.8582],[150.0385,64.3549,643.3292],[150.0224,64.2995,480.121],[150.0956,64.269,545.6222],[150.1765,64.2428,642.1951],[150.2128,64.1922,901.6642],[150.3584,64.2006,618.7236],[150.5101,64.159,635.059],[150.6194,64.1569,678.6354],[150.6104,64.228,714.976],[150.6064,64.2947,1108.2454],[150.6642,64.335,785.7124],[150.7413,64.3349,541.9814],[150.8112,64.3177,450.1071],[150.8812,64.3117,373.0153],[151.0444,64.3202,220.6053],[151.1476,64.3572,151.7294],[151.1941,64.3318,154.0527],[151.2993,64.3679,259.0553],[151.3418,64.3516,264.9409],[151.4099,64.3057,302.2145],[151.4852,64.3175,365.1101],[151.5356,64.3498,360.5007],[151.5383,64.3944,258.3879],[151.5938,64.4221,346.5232],[151.6894,64.423,282.1837],[151.7856,64.4542,200.6212],[151.869,64.4526,284.9718],[151.9092,64.4664,322.0043],[152.0219,64.4575,275.7588],[152.0991,64.4301,522.4386],[152.041,64.3675,289.2168],[152.1098,64.35,468.5321],[152.2168,64.365,497.7966],[152.356,64.3765,517.831],[152.4015,64.4254,379.2249],[152.3756,64.4635,454.7787],[152.2892,64.5013,440.6658],[152.319,64.5273,591.3361],[152.4125,64.5276,477.8322],[152.4544,64.5382,474.7214],[152.5038,64.565,435.0425],[152.5517,64.6182,184.3942],[152.647,64.6308,218.2508],[152.751,64.6681,432.884],[152.7966,64.7148,217.7112],[152.7783,64.7433,396.2071],[152.701,64.7592,162.5668],[152.6236,64.7777,81.2892],[152.5653,64.8836,393.8736],[152.4938,64.9973,315.8329],[152.6222,65.0277,321.0645],[152.6238,65.0709,430.7451],[152.634,65.1364,505.6595],[152.7172,65.1819,505.3565],[152.716,65.2147,435.4354],[152.7608,65.2311,499.3222],[152.8631,65.2312,528.5431],[152.9917,65.2749,353.1531],[153.1575,65.2523,566.2789],[153.2398,65.2647,570.1761],[153.2406,65.3021,565.5322],[153.303,65.3294,379.8676],[153.4182,65.3292,349.5116],[153.5018,65.3777,412.4367],[153.5208,65.426,391.0445],[153.4062,65.4688,351.2333],[153.4341,65.5238,334.6866],[153.5292,65.5584,368.7346],[153.5866,65.6025,312.0464],[153.5502,65.6373,419.9904],[153.6021,65.6967,443.0058],[153.5921,65.7178,393.2118],[153.5215,65.7288,541.5933],[153.5508,65.8159,502.093],[153.702,65.8356,566.9423],[153.7748,65.8682,603.5908]]]]}}