{"type":"Feature","properties":{"ISO3166-1-Alpha-3":"RUS","country":"Russia","id":"2321","name":"Ayon Island"},
"geometry":{"type": "MultiPolygon","coordinates": [[[[169.41228,69.77025,0.0],[169.40846,69.78482,9.1639],[169.41538,69.79218,9.3077],[169.42774,69.79711,6.6036],[169.43963,69.80439,6.0088],[169.45143,69.81867,0.0],[169.45265,69.82624,0.0],[169.44899,69.83405,0.0],[169.44646,69.84911,0.0],[169.42384,69.87299,0.0871],[169.37233,69.88475,0.0],[169.2767,69.89558,0.0],[169.22771,69.90729,0.0],[168.82984,69.93989,10.2238],[168.76808,69.96271,0.3415],[168.6836,69.97085,2.1774],[168.63787,69.98603,14.0296],[168.26466,70.02412,0.0],[168.25318,70.02204,0.0],[168.23414,70.01264,0.0],[168.2234,70.01048,0.0],[168.1941,70.00898,0.0],[167.99106,69.9571,0.0],[167.82252,69.88101,0.0],[167.78566,69.8583,0.0],[167.75375,69.83234,0.0],[167.79086,69.80834,0.0],[167.88233,69.79824,15.9678],[167.96909,69.77558,24.6397],[168.05991,69.76366,22.8572],[168.09986,69.73957,0.0],[168.13364,69.7132,5.8352],[168.17254,69.69522,2.9315],[168.52353,69.63154,9.7024],[168.87452,69.56786,19.0106],[169.03932,69.57787,31.6486],[169.14015,69.57197,47.6945],[169.18946,69.57518,55.6762],[169.23471,69.59211,51.4891],[169.27898,69.62401,14.4563],[169.30055,69.64533,0.0],[169.30991,69.66446,0.0],[169.30047,69.68773,0.0],[169.28386,69.70392,0.0],[169.27849,69.71996,0.0],[169.3025,69.74299,0.0],[169.28256,69.75043,0.0],[169.2776,69.75951,0.0],[169.28566,69.76708,1.0064],[169.30592,69.77025,5.7997],[169.41228,69.76341,0.0],[169.41228,69.77025,0.0]]]]}}