{"type":"Feature","properties":{"GID_3":"RUS.28.8.1_1","GID_0":"RUS","country":"Russia","GID_1":"RUS.28_1","province":"Khabarovsk","NL_NAME_1":"Хабаровскийкрай","GID_2":"RUS.28.8_1","county":"Khabarovsk","NL_NAME_2":"Хабаровск","city":"NA","VARNAME_3":"NA","NL_NAME_3":"NA","TYPE_3":"NA","ENGTYPE_3":"NA","CC_3":"NA","HASC_3":"NA","name":"N_A.city"},
"geometry":{"type": "MultiPolygon","coordinates": [[[[135.0857,48.3742,50.6344],[135.1233,48.412,61.4848],[135.0984,48.4523,41.1941],[135.0402,48.4613,31.0],[134.9807,48.4169,34.9821],[135.0098,48.3784,34.1607],[135.044,48.3719,40.5272],[135.0857,48.3742,50.6344]]]]}}