{"type":"Feature","properties":{"featurecla":"River","scalerank":8,"rivernum":848,"dissolve":"848River","name":"Maya1","name_alt":null,"note":null,"min_zoom":7.0,"strokeweig":0.2,"name_en":"Maya","min_label":8.0},
"geometry":{"type": "LineString","coordinates": [[139.63046875000003,59.53204987186912,585.51],[139.591796875,59.52216217655662,620.1297],[139.47646484375002,59.52753327030662,573.9558],[139.436279296875,59.51996491093162,641.0598],[139.36220703125002,59.487079168744117,543.8635],[139.322021484375,59.479754949994117,547.7946],[139.140625,59.47772858280662,896.9681],[139.10195312500002,59.46869537968162,671.4516],[138.92470703125002,59.46674225468162,526.1626],[138.90380859375,59.461932684369117,632.3767],[138.86328125,59.447870184369123,556.8001],[138.84248046875,59.44501373905662,628.5416],[138.81513671875,59.43720123905662,681.5737],[138.798828125,59.418231512494117,536.449],[138.78623046875003,59.39472077030662,487.9234],[138.769775390625,59.37311432499412,484.9736],[138.75595703125003,59.36456940311912,484.8544],[138.72519531250003,59.35651276249412,482.6096],[138.71015625,59.350604559369117,480.9398],[138.69169921875005,59.33710358280662,479.4036],[138.607421875,59.23444244999412,464.5566],[138.58730468750002,59.198260809369117,469.8566],[138.5673828125,59.176044012494117,460.8466],[138.470703125,59.10944244999412,447.2694],[138.41884765625002,59.08392975468162,609.5604],[138.40273437500002,59.06928131718162,800.4517],[138.34824218750003,58.99481842655662,461.3535],[138.33740234375,58.975360418744117,439.657],[138.32998046875002,58.95453522343162,434.1452],[138.32265625000002,58.91950104374412,431.821],[138.314697265625,58.897577215619123,428.4638],[138.30908203125,58.88727448124412,428.8751],[138.29892578125003,58.874774481244117,427.2661],[138.2880859375,58.86798737186912,427.1251],[138.26259765625002,58.857928778119117,450.0134],[138.19736328125003,58.82013580936912,416.0],[138.17148437500003,58.81427643436912,782.5777],[138.09248046875,58.810907293744123,432.8398],[138.068115234375,58.80353424686912,456.0516]]}}