{"type":"Feature","properties":{"featurecla":"River","scalerank":8,"rivernum":848,"dissolve":"848River","name":"Maya2","name_alt":null,"note":null,"min_zoom":7.0,"strokeweig":0.25,"name_en":"Maya","min_label":8.0},
"geometry":{"type": "LineString","coordinates": [[138.068115234375,58.80353424686912,456.0516],[138.063232421875,58.799335028119117,466.9058],[138.05820312500003,58.787958074994123,549.5916],[138.05332031250003,58.783075262494123,509.0208],[138.04550781250003,58.78070709843162,490.0749],[138.0263671875,58.778583074994117,506.2137],[138.019775390625,58.776239324994123,583.6256],[138.009033203125,58.76666901249412,787.0566],[138.0029296875,58.756708074994123,465.7787],[138.0,58.74530670780662,417.9904],[137.999267578125,58.731561590619123,415.678],[137.99169921875,58.71808502811912,409.0443],[137.97431640625,58.71283600468162,408.9289],[137.955078125,58.71015045780662,473.5628],[137.94169921875005,58.704608465619117,663.1779],[137.938720703125,58.699335028119123,644.3663],[137.93789062500002,58.688592840619123,415.2133],[137.934814453125,58.68378327030662,410.9932],[137.9259765625,58.68244049686912,407.0118],[137.90732421875003,58.69330475468162,405.2222],[137.896875,58.69208405155662,407.5074],[137.8875,58.682391668744117,405.1604],[137.87685546875002,58.65875885624412,398.5],[137.8701171875,58.65106842655662,408.2264],[137.85214843750003,58.64777252811912,501.4875],[137.827880859375,58.64984772343162,404.9475],[137.74091796875,58.67304108280662,727.1519],[137.69375,58.67023346561912,821.8932],[137.58945312500003,58.63788483280662,390.6902],[137.5734375,58.635370184369123,391.9476],[137.5568359375,58.634637762494123,391.2246],[137.51318359375,58.63861725468162,399.7284],[137.489013671875,58.63764069218162,401.6778],[137.46689453125003,58.629999090619123,392.2192],[137.44599609375,58.61273834843162,387.2294],[137.4318359375,58.59662506718162,383.692],[137.424560546875,58.594012762494117,383.1292],[137.381103515625,58.588495184369123,384.0599],[137.367919921875,58.584002996869117,384.8011],[137.35556640625003,58.57477448124412,387.848],[137.334716796875,58.55219147343162,381.405],[137.325439453125,58.538104559369117,378.0096],[137.321533203125,58.524188543744117,379.8098],[137.31777343750002,58.51581452030662,376.033],[137.30917968750003,58.51190827030662,374.0884],[137.2998046875,58.509637762494123,375.0882],[137.29355468750003,58.50653717655662,374.4282],[137.29140625000002,58.50018952030662,374.8322],[137.29140625000002,58.48627350468162,374.0123],[137.287353515625,58.47919342655662,372.9071],[137.23769531250002,58.438006903119117,368.0424],[137.23544921875003,58.43134186405662,369.808],[137.2412109375,58.42633698124412,366.9517],[137.18369140625003,58.39667389530662,429.7432],[137.191162109375,58.39044830936912,406.4157],[137.17919921875,58.38007233280662,431.2464],[137.173095703125,58.377704168744117,449.3942],[137.163818359375,58.37677643436912,485.9914],[137.17294921875003,58.35663483280662,444.6753],[137.169189453125,58.340838934369117,388.454],[137.155517578125,58.32916901249412,467.9921],[137.13583984375003,58.321551824994117,434.5516],[137.13525390625,58.29950592655662,361.2971],[137.10068359375003,58.28815338749412,519.6918],[137.02685546875,58.277118231244117,528.9727],[136.966796875,58.24335358280662,429.0066],[136.93505859375,58.23090241093162,434.6514],[136.89560546875003,58.225946356244123,405.656],[136.89912109375,58.22504303593162,530.0288],[136.90214843750005,58.22504303593162,530.0288],[136.903515625,58.22382233280662,600.1034],[136.903076171875,58.219110418744123,544.5056],[136.87705078125003,58.21869537968162,480.3243],[136.86474609375,58.215204168744123,600.357],[136.86474609375,58.20514557499412,513.9603],[136.875244140625,58.18500397343162,346.2621],[136.81582031250002,58.19147369999412,366.2514],[136.788818359375,58.189081121869123,366.2628],[136.786376953125,58.17072174686912,354.0338],[136.74697265625002,58.177508856244117,343.3569],[136.70908203125003,58.195086981244117,345.7505],[136.671630859375,58.20477936405662,379.9635],[136.6328125,58.18805573124412,346.6692],[136.6181640625,58.17767975468162,341.359],[136.60498046875,58.172967840619123,344.2034],[136.59121093750002,58.169794012494123,341.5513],[136.57412109375002,58.16388580936912,340.2506],[136.55869140625003,58.154413153119123,340.066],[136.51953125,58.116083074994123,334.4979],[136.34248046875,57.98786041874412,442.7755],[136.333984375,57.979510809369117,510.5603],[136.33837890625,57.97028229374412,338.0959],[136.37558593750003,57.93793366093162,321.0379],[136.37070312500003,57.92755768436912,321.0885],[136.37089843750005,57.90729401249412,320.7898],[136.3681640625,57.896991278119117,318.155],[136.35605468750003,57.882928778119116,321.9121],[136.32382812500003,57.863544012494117,366.9994],[136.2765625,57.81818268436912,317.4719],[136.21845703125,57.78095123905662,315.4707],[136.20029296875003,57.76251862186912,316.7894],[136.1818359375,57.737909246869116,313.1462],[136.17050781250003,57.713251043744116,313.2431],[136.17490234375003,57.68598053593162,301.9517],[136.17138671875,57.67365143436912,301.3975],[136.16552734375,57.66144440311912,380.3112],[136.159912109375,57.65338776249412,310.765],[136.14599609375,57.642938543744116,357.6711],[136.11767578125,57.632342840619117,499.9561],[136.10117187500003,57.62262604374412,577.6906],[136.092041015625,57.61261627811912,367.2618],[136.08212890625003,57.59113190311912,301.0352],[136.074462890625,57.581659246869116,300.2546],[136.059814453125,57.574579168744116,311.9502],[136.02265625,57.56903717655662,443.9091],[136.005615234375,57.56427643436912,648.9073],[135.988037109375,57.561542059369117,594.6385],[135.96689453125003,57.56476471561912,519.5611],[135.9298828125,57.578241278119116,322.139],[135.91982421875002,57.57965729374412,295.9002],[135.91083984375,57.57562897343162,297.3669],[135.90224609375002,57.57013580936912,301.2408],[135.892333984375,57.567401434369117,301.3486],[135.88076171875002,57.568475653119116,305.0725],[135.8720703125,57.57147858280662,299.8587],[135.801513671875,57.61432526249412,288.729],[135.77285156250002,57.62567780155662,290.635],[135.72207031250002,57.63165924686912,287.3656],[135.685302734375,57.641131903119117,550.6622],[135.67343750000003,57.646844793744116,658.3263],[135.65957031250002,57.650995184369116,467.4827],[135.50693359375003,57.66571686405662,536.1461],[135.49521484375003,57.669794012494116,613.35],[135.474609375,57.68781159061912,360.2841],[135.458984375,57.70770905155662,418.8463],[135.45371093750003,57.728143621869116,480.4315],[135.45751953125,57.77350494999412,285.494],[135.45458984375,57.77350494999412,281.5086],[135.44863281250002,57.775995184369116,289.3961],[135.443603515625,57.780633856244116,277.1914],[135.44326171875002,57.787127996869117,273.1624],[135.449462890625,57.79315827030662,271.6331],[135.45839843750002,57.79657623905662,277.4391],[135.466796875,57.79865143436912,278.226],[135.47119140625,57.80072662968162,273.8407],[135.47509765625,57.813104559369116,272.4497],[135.47431640625,57.82391998905662,270.7203],[135.46933593750003,57.83429596561912,270.649],[135.46054687500003,57.84516022343162,274.0037],[135.458984375,57.84992096561912,269.9416],[135.463134765625,57.859491278119116,270.681],[135.46054687500003,57.86591217655662,271.4047],[135.45351562500002,57.87225983280662,275.7879],[135.44638671875003,57.87506744999412,272.2586],[135.43886718750002,57.876727606244117,277.1973],[135.43017578125,57.879901434369117,268.8035],[135.42236328125,57.881463934369116,270.6179],[135.39580078125005,57.876483465619117,276.8655],[135.384033203125,57.879266668744116,270.1945],[135.38349609375,57.885614324994116,265.0034],[135.3875,57.89252350468162,265.8846],[135.38925781250003,57.896991278119117,262.7546],[135.39052734375002,57.89777252811912,270.256],[135.39462890625003,57.90448639530662,324.6187],[135.3955078125,57.90692780155662,329.9302],[135.39394531250002,57.91156647343162,311.2894],[135.39013671875,57.91327545780662,298.0893],[135.38564453125002,57.91449616093162,289.0497],[135.37539062500002,57.922870184369117,304.8669],[135.35947265625003,57.92780182499412,296.9208],[135.35400390625,57.93109772343162,268.5043],[135.35341796875002,57.936395574994116,262.4308],[135.3623046875,57.94647858280662,264.5802],[135.361328125,57.95160553593162,265.201],[135.35214843750003,57.95575592655662,265.0385],[135.3408203125,57.95770905155662,264.0643],[135.33115234375003,57.960956121869117,282.1985],[135.3271484375,57.96893952030662,411.0285],[135.33515625,57.99115631718162,361.2539],[135.35146484375002,58.00739166874412,312.4553],[135.364013671875,58.02570221561912,263.8139],[135.361328125,58.05402252811912,260.1479],[135.34580078125003,58.07721588749412,262.1923],[135.275634765625,58.132831121869117,257.0834],[135.26230468750003,58.15180084843162,251.0725],[135.2482421875,58.19476959843162,257.9026],[135.23095703125,58.21222565311912,290.9102],[135.15810546875002,58.235126043744117,506.3989],[134.99755859375,58.24005768436912,444.0581],[134.92255859375,58.26007721561912,354.7825],[134.898193359375,58.27753327030662,308.359],[134.868359375,58.31903717655662,470.327],[134.828125,58.36041901249412,237.5],[134.82480468750003,58.37384674686912,244.3253],[134.83203125,58.389520574994123,235.375],[134.840576171875,58.417743231244117,293.7312],[134.834716796875,58.44586823124412,247.1965],[134.81015625000003,58.45502350468162,419.5822],[134.7443359375,58.45184967655662,235.877],[134.7208984375,58.463495184369123,275.5193],[134.72695312500002,58.48969147343162,290.3882],[134.751220703125,58.53375885624412,429.3953],[134.73740234375003,58.54303619999412,447.2045],[134.71494140625003,58.540155340619123,452.6229],[134.6759765625,58.527606512494117,345.0882],[134.65771484375,58.52826569218162,278.8468],[134.64804687500003,58.53485748905662,286.0848],[134.63173828125002,58.558368231244117,380.4306],[134.59814453125,58.57721588749412,439.7304],[134.56435546875002,58.575799871869123,275.5247],[134.52919921875002,58.568377996869117,261.7171],[134.4912109375,58.56915924686912,259.4297],[134.4091796875,58.58844635624412,289.5682],[134.37050781250002,58.591180731244123,561.0255],[134.352783203125,58.59564850468162,480.5631],[134.33681640625002,58.606073309369123,297.7856],[134.33076171875,58.614862371869123,290.6026],[134.327880859375,58.62506744999412,283.4317],[134.32666015625,58.64740631718162,479.1595],[134.31689453125,58.66120026249412,633.2585],[134.294189453125,58.67194244999412,362.3894],[134.2509765625,58.68463776249412,370.41],[134.22412109375,58.69684479374412,219.8912],[134.2041015625,58.714715887494123,291.1266],[134.19814453125002,58.737323309369117,368.3424],[134.21337890625,58.76373932499412,227.8535],[134.22666015625003,58.77448151249412,220.0737],[134.24365234375,58.784442449994117,355.3398],[134.26171875,58.79169342655662,268.9829],[134.301513671875,58.799676824994123,217.4878],[134.31435546875002,58.81305573124412,210.4617],[134.333740234375,58.85089752811912,209.2641],[134.35546875,58.870624090619117,316.5918],[134.3837890625,58.88434479374412,254.0503],[134.44228515625002,58.90375397343162,289.0041],[134.45859375000003,58.912127996869117,280.1166],[134.50234375000002,58.94476959843162,442.8618],[134.51923828125,58.952167059369117,493.6768],[134.53408203125002,58.95380280155662,576.441],[134.586181640625,58.94684479374412,488.1625],[134.7443359375,58.945331121869117,450.3004],[134.761962890625,58.948504949994117,462.7837],[134.798095703125,58.96259186405662,380.7776],[134.81640625,58.965838934369117,263.2018],[134.85878906250002,58.96649811405662,420.9199],[134.87802734375003,58.964715887494123,482.6113],[134.96337890625,58.943231512494123,414.8213],[134.99501953125002,58.940692449994117,367.6656],[135.026123046875,58.945331121869117,229.9401],[135.1064453125,58.987811590619117,449.7772],[135.138916015625,58.99371979374412,509.3601],[135.26513671875,58.99371979374412,350.7004],[135.290283203125,59.00104401249412,207.3799],[135.31416015625,59.01825592655662,193.0],[135.34765625,59.055194403119117,299.0429],[135.33330078125005,59.12360260624412,193.4297],[135.3234375,59.14020416874412,242.2655],[135.2939453125,59.16034577030662,229.9539],[135.26406250000002,59.17182037968162,208.8911],[135.130615234375,59.184100653119117,307.5359],[135.05712890625,59.20441315311912,199.729],[135.002197265625,59.242450262494117,187.2556],[134.99814453125003,59.30158112186912,209.6254],[135.01718750000003,59.322381903119123,193.5357],[135.06992187500003,59.357928778119117,190.1584],[135.08076171875,59.38043854374412,188.8869],[135.08076171875,59.46674225468162,187.9466],[135.06298828125,59.532586981244123,189.7868],[135.060302734375,59.55170319218162,178.6409],[135.05820312500003,59.557391668744117,177.5],[135.054443359375,59.56195709843162,177.5],[135.05263671875002,59.56647369999412,179.2845],[135.05927734375,59.57587311405662,186.5158],[135.0654296875,59.58820221561912,186.3931],[135.06650390625003,59.59271881718162,182.6844],[135.061279296875,59.60431549686912,182.3955],[135.026123046875,59.63739655155662,185.1846],[135.02080078125005,59.65412018436912,173.5],[135.02080078125005,59.69000885624412,174.0731],[135.015380859375,59.70258209843162,187.43],[134.99941406250002,59.71552155155662,185.5188],[134.92099609375003,59.75580475468162,182.1238],[134.81093750000002,59.796014715619123,171.0],[134.799072265625,59.808465887494123,171.7965],[134.767578125,59.90277741093162,166.0]]}}