{"type":"Feature","properties":{"featurecla":"River","scalerank":8,"rivernum":849,"dissolve":"849River","name":"Kukhtuy1","name_alt":null,"note":null,"min_zoom":7.0,"strokeweig":0.2,"name_en":"Kukhtuy","min_label":8.0},
"geometry":{"type": "LineString","coordinates": [[143.029296875,61.59638092655662,1147.4985],[143.16650390625,61.431268621869123,867.1635],[143.12939453125,61.378778387494123,769.996],[143.09072265625002,61.335711981244117,752.1789],[143.1076171875,61.31513092655662,742.1369],[143.169921875,61.27081940311912,729.1998],[143.218017578125,61.253192449994117,846.8279],[143.219482421875,61.24823639530662,723.1265],[143.2490234375,61.219598699994123,728.8603],[143.2548828125,61.20526764530662,709.2828],[143.25439453125,61.19879791874412,731.8],[143.24755859375,61.19574616093162,729.5169],[143.2353515625,61.19171784061912,709.7895],[143.22763671875003,61.19110748905662,706.7399],[143.20742187500002,61.19342682499412,724.0897],[143.20058593750002,61.19171784061912,726.0937],[143.19619140625002,61.18585846561912,707.921],[143.1943359375,61.17914459843162,730.3049],[143.19638671875003,61.17352936405662,711.6058],[143.20400390625002,61.17121002811912,725.3045],[143.209716796875,61.16657135624412,712.1807],[143.20703125,61.156268621869117,712.9767],[143.201171875,61.14569733280662,701.1288],[143.19716796875002,61.14020416874412,713.9159],[143.18671875,61.13397858280662,728.9095],[143.18027343750003,61.13092682499412,734.3336],[143.1759765625,61.129657293744117,719.373],[143.17226562500002,61.12653229374412,737.832],[143.17666015625002,61.11969635624412,720.7443],[143.18701171875,61.109735418744123,693.6295],[143.18896484375,61.11078522343162,699.207],[143.19169921875005,61.107196356244117,708.0197],[143.19375,61.101434637494123,697.585],[143.19375,61.09613678593162,708.0051],[143.1884765625,61.095233465619117,702.3571],[143.16611328125003,61.09650299686912,738.908],[143.15966796875,61.09613678593162,736.0],[143.128662109375,61.05829498905662,681.0873],[143.10947265625003,61.04413483280662,698.8145],[143.09130859375,61.03534577030662,776.1678],[143.07558593750002,61.02509186405662,736.4488],[143.0634765625,61.006708074994123,758.8343],[143.0568359375,60.986932684369123,766.7429],[143.05419921875,60.967889715619123,713.0505],[143.05703125000002,60.95026276249412,670.6001],[143.067138671875,60.93475983280662,619.2516],[143.08173828125,60.92023346561912,614.3265],[143.088134765625,60.910907293744117,610.8174],[143.091796875,60.89459869999412,629.2256],[143.09414062500002,60.89154694218162,706.3422],[143.096435546875,60.88959381718162,755.0484],[143.09765625,60.886590887494123,724.7477],[143.09531250000003,60.87958405155662,602.6779],[143.09072265625002,60.876581121869123,599.5792],[143.08603515625003,60.87433502811912,626.1639],[143.08388671875002,60.86957428593162,630.0065],[143.0849609375,60.83234284061912,573.5018],[143.08046875000002,60.814715887494117,633.3954],[143.060302734375,60.78998444218162,596.9183],[143.05244140625,60.77240631718162,550.5497],[143.04638671875,60.763446356244117,540.4802],[143.00917968750002,60.740838934369123,763.6062],[143.00205078125003,60.73236725468162,533.4471],[143.00341796875,60.71112702030662,604.6922],[143.013671875,60.694940496869123,499.7085],[143.01884765625005,60.67780182499412,496.9804],[143.00546875000003,60.653583074994117,478.0157]]}}