{"type":"Feature","properties":{"featurecla":"Lake Centerline","scalerank":3,"rivernum":72,"dissolve":"72Lake Centerline","name":"Amur1","name_alt":null,"note":null,"min_zoom":3.0,"strokeweig":1.5,"name_en":"Amur","min_label":4.0},
"geometry":{"type": "LineString","coordinates": [[140.114013671875,51.76361725468162,6.8422],[140.08974609375002,51.74884674686912,4.0],[140.05419921875,51.721942449994117,7.6273],[139.97216796875,51.645379949994116,5.5],[139.919189453125,51.60224030155662,5.9787],[139.89785156250002,51.58905670780662,7.5276],[139.87216796875003,51.58161041874412,9.6814],[139.8576171875,51.57880280155662,7.1787]]}}