{"type":"Feature","properties":{"featurecla":"River","scalerank":3,"rivernum":72,"dissolve":"72River","name":"Amur5","name_alt":null,"note":null,"min_zoom":3.0,"strokeweig":1.0,"name_en":"Amur","min_label":4.0},
"geometry":{"type": "LineString","coordinates": [[138.674560546875,51.20709869999412,7.9497],[138.6552734375,51.201678778119117,13.1448],[138.63720703125,51.193377996869117,6.9766],[138.62158203125,51.181512762494116,11.58],[138.59951171875002,51.148553778119116,7.5627],[138.587890625,51.13617584843162,8.6159],[138.57373046875,51.12689850468162,9.4722],[138.5548828125,51.11945221561912,7.7244],[138.44970703125,51.10126373905662,8.8082],[138.44091796875,51.09784577030662,8.7037],[138.432861328125,51.09271881718162,8.2269],[138.37763671875,51.034295965619116,6.9842],[138.361328125,51.02167389530662,6.9031],[138.2763671875,50.971307684369116,22.9674],[138.251708984375,50.962176824994117,11.7634],[138.207763671875,50.952752996869116,21.0472],[138.1943359375,50.947040106244117,24.2568],[138.18271484375003,50.93744537968162,7.9435],[138.158935546875,50.89826080936912,8.0],[138.14931640625002,50.88605377811912,8.5],[138.138427734375,50.87641022343162,8.5],[138.12548828125,50.869745184369116,18.3329],[138.110595703125,50.86627838749412,27.5265],[138.0654296875,50.86347077030662,9.5],[138.05078125,50.86005280155662,14.461],[138.03857421875,50.854608465619116,22.9153],[137.91757812500003,50.762225653119117,14.7871],[137.86591796875,50.73895905155662,14.2824],[137.6884765625,50.689081121869116,10.7897],[137.591015625,50.67645905155662,14.4289],[137.49677734375,50.68231842655662,12.3153],[137.40878906250003,50.67121002811912,11.0],[137.36777343750003,50.670672918744117,11.0],[137.233154296875,50.64020416874412,20.9508],[137.210693359375,50.62933991093162,11.5],[137.19052734375003,50.61481354374412,11.5],[137.15390625000003,50.577508856244116,39.7972],[137.112060546875,50.54559967655662,245.9768],[137.056396484375,50.514764715619116,11.5],[137.04873046875002,50.506366278119117,11.5],[137.04628906250002,50.49506256718162,11.5],[137.04990234375003,50.48444244999412,47.8346],[137.06396484375,50.465448309369116,54.5684],[137.06982421875,50.45404694218162,91.6342]]}}