{"type":"Feature","properties":{"featurecla":"River","scalerank":9,"rivernum":1113,"dissolve":"1113River","name":"Uchur","name_alt":null,"note":null,"min_zoom":7.1,"strokeweig":0.15,"name_en":"Uchur","min_label":8.1},
"geometry":{"type": "LineString","coordinates": [[134.12177734375,55.804950262494117,1134.8627],[134.15283203125,55.80719635624412,1158.2417],[134.1669921875,55.81110260624412,1099.9568],[134.180419921875,55.817987371869116,1053.1638],[134.21533203125,55.84772369999412,1285.1738],[134.228271484375,55.85150787968162,1404.3887],[134.3349609375,55.84503815311912,1333.9387],[134.365478515625,55.85150787968162,1123.4131],[134.389892578125,55.878778387494116,1031.8723],[134.39404296875,55.96112702030662,882.2183],[134.4169921875,55.99982330936912,992.6669],[134.48525390625002,56.07147858280662,1007.2611]]}}