{"type":"Feature","properties":{"featurecla":"River","scalerank":8,"rivernum":849,"dissolve":"849River","name":"Kukhtuy2","name_alt":null,"note":null,"min_zoom":7.0,"strokeweig":0.25,"name_en":"Kukhtuy","min_label":8.0},
"geometry":{"type": "LineString","coordinates": [[143.00546875000003,60.653583074994117,478.0157],[142.9943359375,60.63056061405662,440.8975],[143.0001953125,60.60980866093162,428.0269],[143.04345703125,60.55646393436912,509.0719],[143.04755859375,60.54669830936912,466.3301],[143.0498046875,60.53436920780662,443.5272],[143.048095703125,60.521258856244117,450.6152],[143.037841796875,60.49994537968162,374.9724],[143.03554687500002,60.48969147343162,618.4883],[143.03945312500002,60.46430084843162,450.1784],[143.05009765625005,60.44782135624412,481.3671],[143.1240234375,60.395379949994123,505.2892],[143.15625,60.36615631718162,585.3157],[143.150634765625,60.35504791874412,401.9693],[143.0771484375,60.32147858280662,608.198],[143.04843750000003,60.30390045780662,262.8846],[143.029052734375,60.286639715619117,255.8314],[143.016796875,60.26459381718162,250.8856],[143.0087890625,60.23273346561912,224.877],[143.00869140625002,60.22601959843162,224.7243],[143.0099609375,60.21112702030662,223.3406],[143.0087890625,60.20477936405662,222.4528],[143.00283203125002,60.19830963749412,218.1977],[142.986083984375,60.18976471561912,258.1337],[142.9814453125,60.184344793744117,242.6554],[142.9826171875,60.16864655155662,233.8325],[142.99648437500002,60.14472077030662,198.9212],[142.99589843750005,60.12970612186912,185.1024],[142.98193359375,60.11066315311912,182.4954],[142.93515625000003,60.06647369999412,197.8959],[142.92001953125003,60.04779694218162,171.944],[142.915283203125,60.03241608280662,142.7191],[142.91572265625,60.01959869999412,146.9873],[142.91845703125,60.007098699994117,140.99],[142.92001953125003,59.992547918744123,128.5967],[142.9189453125,59.977167059369123,127.3828],[142.914794921875,59.96784088749412,119.6734],[142.89218750000003,59.944110418744117,118.6544],[142.8984375,59.936053778119117,110.0637],[142.9083984375,59.927264715619117,113.5904],[142.919921875,59.92023346561912,104.8706],[142.94140625,59.91364166874412,100.9489],[142.94912109375002,59.90424225468162,98.7257],[143.01064453125002,59.80914948124412,78.3382],[143.029296875,59.79266998905662,70.4461],[143.060791015625,59.785419012494117,66.8125],[143.074462890625,59.77899811405662,65.949],[143.073974609375,59.76850006718162,62.6597],[143.06513671875,59.75714752811912,65.6061],[143.06005859375,59.74738190311912,63.4983],[143.05927734375,59.73700592655662,62.3141],[143.0634765625,59.72382233280662,55.3073],[143.08251953125,59.703241278119123,55.5414],[143.13525390625,59.68585846561912,47.4287],[143.15283203125,59.669794012494123,42.2261],[143.14697265625,59.66657135624412,43.3646],[143.14423828125,59.66327545780662,46.6643],[143.14248046875002,59.65973541874412,45.6911],[143.13916015625,59.655536199994117,38.3805],[143.15712890625002,59.65155670780662,46.5375],[143.16494140625002,59.639667059369117,39.2811],[143.17080078125002,59.627215887494117,40.4784],[143.182861328125,59.62140534061912,34.9934],[143.195556640625,59.61908600468162,41.4418],[143.24160156250002,59.60089752811912,27.8931],[143.28994140625002,59.570672918744123,23.3999],[143.32363281250002,59.56244537968162,21.0952],[143.321533203125,59.55231354374412,19.1388],[143.30361328125002,59.53204987186912,150.3562],[143.30517578125,59.516131903119117,116.1061],[143.32089843750003,59.493036199994123,21.5453],[143.32480468750003,59.48114655155662,26.0322],[143.32041015625003,59.469354559369123,28.4089],[143.31044921875002,59.460711981244117,28.2829],[143.29892578125003,59.45294830936912,6.6472],[143.2900390625,59.443866278119117,6.9701],[143.28769531250003,59.432489324994123,3.318],[143.287109375,59.41876862186912,3.0421],[143.28183593750003,59.40717194218162,1.1376],[143.265869140625,59.40228912968162,0.886],[143.251220703125,59.39996979374412,0.4275],[143.21230468750002,59.383661199994123,0.622]]}}