{"type":"Feature","properties":{"featurecla":"River","scalerank":9,"rivernum":1113,"dissolve":"1113River","name":"Uchur1","name_alt":null,"note":null,"min_zoom":7.1,"strokeweig":0.2,"name_en":"Uchur","min_label":8.1},
"geometry":{"type": "LineString","coordinates": [[134.48525390625002,56.07147858280662,1007.2611],[134.501220703125,56.09406159061912,877.1163],[134.51230468750003,56.11530182499412,870.1742],[134.51621093750003,56.13349030155662,750.1992],[134.5107421875,56.146991278119117,742.9684],[134.51220703125,56.149286199994116,745.8802],[134.515625,56.16376373905662,855.3261],[134.51611328125,56.168573309369116,971.6859],[134.513916015625,56.17511627811912,1050.3341],[134.5099609375,56.18109772343162,853.6041],[134.50009765625003,56.19098541874412,835.0045],[134.49160156250002,56.197284246869117,1032.3491],[134.48291015625,56.20111725468162,1071.9948],[134.47373046875003,56.20331452030662,1018.5926],[134.38134765625,56.20941803593162,963.5074],[134.35625,56.205926824994116,832.2876],[134.30712890625,56.19257233280662,911.2918],[134.263916015625,56.19110748905662,1070.8171],[134.25,56.186883856244116,791.5839],[134.23046875,56.174188543744116,738.7695],[134.2119140625,56.15912506718162,663.1958],[134.19169921875005,56.14777252811912,682.7139],[134.167236328125,56.14630768436912,684.9766],[134.14072265625003,56.158563543744116,648.8873],[134.12265625000003,56.17914459843162,657.0353],[134.091552734375,56.22418854374412,775.2072],[134.07363281250002,56.23151276249412,849.1653],[134.048828125,56.23737213749412,624.7314],[134.031982421875,56.24640534061912,622.0633],[134.037109375,56.26300690311912,704.3071],[134.01318359375,56.28497955936912,1114.4067],[133.92666015625002,56.32196686405662,604.6601],[133.91982421875002,56.33002350468162,603.7269],[133.916015625,56.348749090619116,685.0734],[133.91015625,56.35236237186912,671.5281],[133.90439453125003,56.35748932499412,629.543],[133.90830078125003,56.368915106244117,607.3356],[133.91982421875002,56.38715241093162,683.1594],[133.921630859375,56.398309637494116,677.5534],[133.919921875,56.40180084843162,657.0017],[133.92177734375002,56.40460846561912,620.5098],[133.93349609375002,56.413836981244117,583.773],[133.959375,56.42694733280662,580.7652],[133.970458984375,56.43439362186912,577.481],[133.975,56.445184637494116,580.8735],[133.9755859375,56.46784088749412,583.5649],[133.978759765625,56.48505280155662,572.236],[133.987060546875,56.50018952030662,566.6194],[134.0029296875,56.516864324994117,563.3357],[133.97763671875003,56.532245184369117,600.5894],[133.96572265625002,56.541620184369116,677.1587],[133.96142578125,56.551629949994116,776.9091],[133.968994140625,56.561786199994117,951.9807],[134.012939453125,56.595721746869117,730.1323],[134.01669921875003,56.60346100468162,600.7075],[134.01767578125003,56.614862371869116,549.1643],[134.0166015625,56.636981512494117,548.4347],[134.01767578125003,56.64313385624412,545.817],[134.02236328125002,56.65265534061912,543.994],[134.0234375,56.65778229374412,542.9134],[134.021484375,56.663836981244117,542.8998],[134.01699218750002,56.67108795780662,543.666],[134.01220703125,56.67584869999412,550.4456],[134.00927734375,56.67450592655662,549.1897],[134.02841796875003,56.698114324994116,591.4944],[134.09716796875,56.74237702030662,536.3883],[134.11220703125002,56.760516668744117,531.2324],[134.11533203125003,56.80805084843162,526.3261],[134.108154296875,56.825799871869116,525.1072],[134.04189453125002,56.878290106244116,583.1968],[133.92275390625002,56.92780182499412,546.7806],[133.89638671875002,56.933221746869116,575.9929],[133.81630859375002,56.93976471561912,520.8771],[133.79160156250003,56.946161199994116,531.0757],[133.745361328125,56.964862371869117,578.2688],[133.721435546875,56.96869537968162,543.574],[133.70849609375,56.967157293744116,616.052],[133.68300781250002,56.960809637494116,633.6472],[133.67031250000002,56.96002838749412,614.8666],[133.655517578125,56.963495184369116,657.7817],[133.615625,56.984393621869117,614.6473],[133.60205078125,56.98798248905662,515.8711],[133.56259765625003,56.99164459843162,507.6381],[133.548095703125,56.99811432499412,505.8834],[133.5400390625,57.007440496869116,507.7582],[133.5333984375,57.018817449994117,537.1867],[133.523681640625,57.03143952030662,577.2265],[133.50419921875005,57.044794012494116,557.7056],[133.48193359375,57.051532293744117,505.552],[133.435546875,57.05939362186912,559.0363],[133.39453125,57.08063385624412,578.4987],[133.37089843750005,57.11554596561912,699.1533],[133.35898437500003,57.15863678593162,652.3222],[133.352294921875,57.20453522343162,497.3505],[133.292236328125,57.223993231244116,542.0701],[133.200439453125,57.243036199994116,560.1829]]}}