{"type":"Feature","properties":{"featurecla":"River","scalerank":3,"rivernum":72,"dissolve":"72River","name":"Amur8","name_alt":null,"note":null,"min_zoom":3.0,"strokeweig":1.5,"name_en":"Amur","min_label":4.0},
"geometry":{"type": "LineString","coordinates": [[140.70664062500003,53.11102936405662,71.105],[140.66025390625003,53.096063543744116,149.8199],[140.59423828125,53.08405182499412,150.2621],[140.583740234375,53.08490631718162,150.6698],[140.5771484375,53.08673737186912,173.3616],[140.55839843750005,53.09467194218162,38.7883],[140.50156250000003,53.110614324994117,0.0],[140.48408203125,53.11969635624412,0.0],[140.45576171875,53.138934637494117,0.1863],[140.441162109375,53.14667389530662,0.0],[140.4091796875,53.15717194218162,0.0],[140.338134765625,53.200702215619117,0.0],[140.30419921875,53.21356842655662,2.2253],[140.26318359375,53.22174713749412,2.0335],[139.99033203125003,53.21491119999412,0.0],[139.96621093750002,53.21771881718162,0.0],[139.91572265625,53.213006903119116,21.019],[139.890380859375,53.203973699994116,39.3633],[139.869873046875,53.18842194218162,0.0],[139.85908203125,53.165790106244117,66.0523],[139.85800781250003,53.14252350468162,226.7805],[139.85585937500002,53.13544342655662,111.5982],[139.8544921875,53.133417059369116,147.5766],[139.85048828125002,53.12958405155662,72.3768],[139.84873046875003,53.12738678593162,45.3087],[139.84736328125,53.123895574994116,88.2259],[139.844921875,53.11273834843162,91.7882],[139.83173828125,53.084100653119116,51.451],[139.81982421875,53.06574127811912,8.3326],[139.80507812500002,53.04962799686912,0.3459],[139.798583984375,53.04535553593162,1.6306],[139.792236328125,53.04303619999412,2.2616],[139.77792968750003,53.04022858280662,2.5989],[139.77109375000003,53.03668854374412,2.5272],[139.75283203125002,53.017596746869117,2.4534],[139.72519531250003,52.997333074994117,1.8237],[139.71230468750002,52.98541901249412,0.0],[139.70351562500002,52.97162506718162,0.0],[139.70224609375003,52.96149323124412,0.0],[139.70634765625005,52.95319244999412,0.0],[139.713623046875,52.94660065311912,0.0],[139.7529296875,52.92511627811912,0.0],[139.87167968750003,52.881610418744117,0.0],[139.935302734375,52.86591217655662,4.3073],[140.00039062500002,52.837030340619116,0.0],[140.03125,52.81207916874412,0.0],[140.052734375,52.79950592655662,0.0],[140.05820312500003,52.794794012494116,0.0],[140.06748046875003,52.78424713749412,0.0],[140.0734375,52.780047918744117,0.0],[140.09375,52.772577215619116,21.6445],[140.09970703125003,52.76788971561912,34.7455],[140.10654296875003,52.75824616093162,25.1798],[140.109375,52.752704168744117,24.1606],[140.11083984375,52.74738190311912,20.0965],[140.106640625,52.73212311405662,5.2465],[140.08730468750002,52.70770905155662,2.7764],[140.08798828125003,52.692645574994117,3.2319],[140.12783203125002,52.626971746869117,0.5],[140.13525390625,52.618915106244117,1.2237],[140.14980468750002,52.60858795780662,1.5],[140.16650390625,52.601581121869117,1.5],[140.20175781250003,52.59418366093162,4.8634],[140.22119140625,52.59332916874412,2.0],[140.2599609375,52.595819403119116,1.5],[140.279052734375,52.59479401249412,1.5],[140.30419921875,52.58295319218162,1.5],[140.322509765625,52.56110260624412,1.5],[140.353271484375,52.513446356244117,3.2276],[140.373046875,52.49408600468162,1.5],[140.384765625,52.48602936405662,72.6385],[140.397216796875,52.48114655155662,314.0808],[140.3994140625,52.475702215619116,324.2397],[140.4033203125,52.470819403119116,304.6887],[140.40830078125003,52.466913153119116,248.7142],[140.413818359375,52.464618231244117,240.3459],[140.41689453125002,52.458514715619117,112.1873],[140.427978515625,52.448504949994117,51.7111],[140.432373046875,52.443133856244117,28.5775],[140.43798828125,52.42963287968162,1.5],[140.44101562500003,52.415301824994117,2.3021],[140.44013671875,52.38751862186912,36.8718],[140.44101562500003,52.378436590619117,38.5791],[140.44472656250002,52.369891668744117,32.1555],[140.44980468750003,52.36371491093162,1.5],[140.453857421875,52.35724518436912,1.8935],[140.4541015625,52.34760162968162,1.5],[140.44921875,52.333856512494116,1.5],[140.441162109375,52.31903717655662,1.5],[140.43125,52.305292059369116,1.5],[140.4111328125,52.28644440311912,1.5],[140.40488281250003,52.27899811405662,4.7336],[140.401123046875,52.27008698124412,2.9409],[140.39892578125,52.25726959843162,4.1273],[140.39882812500002,52.23322174686912,1.5],[140.3955078125,52.22357819218162,5.3815],[140.3759765625,52.197772528119117,4.5069],[140.372314453125,52.188251043744117,93.4974],[140.37050781250002,52.16815827030662,42.2857],[140.36767578125,52.15875885624412,1.5],[140.36083984375,52.151239324994116,1.5],[140.35107421875,52.14728424686912,4.4792],[140.33056640625,52.14350006718162,5.646],[140.31972656250002,52.139911199994117,5.5229],[140.31044921875002,52.134881903119116,4.5438],[140.251953125,52.09296295780662,4.5887],[140.22548828125002,52.06635162968162,5.3054],[140.17441406250003,52.02680084843162,5.7391],[140.163818359375,52.009051824994117,5.5349],[140.1650390625,51.99433014530662,5.8468],[140.205078125,51.94086334843162,3.0],[140.21152343750003,51.92865631718162,6.4718],[140.22119140625,51.901483465619116,3.0],[140.24179687500003,51.85980866093162,7.6744],[140.242919921875,51.845086981244116,5.8687],[140.23671875000002,51.83075592655662,9.0804],[140.22509765625,51.819598699994117,6.8212],[140.114013671875,51.763690496869117,6.8422]]}}