{"type":"Feature","properties":{"featurecla":"River","scalerank":8,"rivernum":843,"dissolve":"843River","name":"Amgun3","name_alt":null,"note":null,"min_zoom":7.0,"strokeweig":0.3,"name_en":"Amgun’","min_label":8.0},
"geometry":{"type": "LineString","coordinates": [[138.97939453125002,52.913592840619117,16.941],[139.030517578125,52.91095612186912,4.3976],[139.05820312500003,52.91437409061912,6.0272],[139.079296875,52.924432684369116,4.2806],[139.08828125000002,52.92719147343162,4.5466],[139.10585937500002,52.92011139530662,33.0926],[139.11337890625003,52.92291901249412,99.2387],[139.12919921875005,52.941522528119116,53.3612],[139.13808593750002,52.948260809369117,35.5852],[139.150634765625,52.953973699994116,122.1201],[139.21591796875003,52.959735418744117,5.0809],[139.226318359375,52.95709869999412,4.8289],[139.23291015625,52.947381903119116,4.9038],[139.2482421875,52.949579168744116,24.4995],[139.28095703125,52.96015045780662,4.8519],[139.29052734375,52.958368231244116,3.8053],[139.29501953125003,52.95416901249412,4.6037],[139.29775390625002,52.94965241093162,3.9947],[139.30214843750002,52.946551824994117,3.6377],[139.34238281250003,52.940301824994116,3.9902],[139.418212890625,52.919208074994117,1.0],[139.493896484375,52.919208074994117,3.335],[139.51455078125002,52.923456121869116,3.2238],[139.54697265625003,52.942254949994116,1.3715],[139.56591796875,52.946551824994117,4.0405],[139.59091796875003,52.943133856244117,1.9547],[139.605712890625,52.93475983280662,0.0],[139.618359375,52.923846746869117,2.8765],[139.637939453125,52.91303131718162,3.1196],[139.66083984375,52.90936920780662,3.0681],[139.676513671875,52.917010809369117,2.4848],[139.70634765625005,52.95319244999412,0.0]]}}