{"type":"Feature","properties":{"featurecla":"River","scalerank":8,"rivernum":950,"dissolve":"950River","name":"Uda","name_alt":null,"note":null,"min_zoom":7.0,"strokeweig":0.2,"name_en":"Uda","min_label":8.0},
"geometry":{"type": "LineString","coordinates": [[130.503173828125,54.00849030155662,595.9916],[130.51455078125002,54.039667059369116,555.0294],[130.51611328125,54.05011627811912,544.5282],[130.514404296875,54.059930731244116,534.3525],[130.50527343750002,54.074823309369116,521.7665],[130.503173828125,54.08112213749412,516.4075],[130.50498046875003,54.093524481244117,507.817],[130.51025390625,54.09845612186912,502.986],[130.517822265625,54.101581121869117,499.1392],[130.52714843750005,54.10846588749412,496.2593],[130.53164062500002,54.11078522343162,494.7048],[130.54208984375003,54.11273834843162,490.9505],[130.544189453125,54.11530182499412,489.7053],[130.545654296875,54.12152741093162,485.0763],[130.54931640625,54.128290106244116,473.6687],[130.553955078125,54.134637762494116,469.9157],[130.55849609375002,54.13947174686912,467.9368],[130.57412109375002,54.15241119999412,462.2852],[130.59433593750003,54.16571686405662,455.4673],[130.61630859375003,54.17621491093162,454.3539],[130.65380859375,54.185174871869116,450.2541],[130.69785156250003,54.20490143436912,433.0719],[130.72226562500003,54.207782293744117,426.701],[130.8095703125,54.18573639530662,416.9665],[130.876220703125,54.159295965619116,415.2913],[130.925537109375,54.11762116093162,419.3231],[130.938720703125,54.112323309369117,397.189],[130.952392578125,54.118036199994116,420.6956],[130.97216796875,54.13605377811912,386.3987],[130.99267578125,54.14215729374412,383.8852],[131.01601562500002,54.13190338749412,409.2541],[131.05126953125,54.10468170780662,417.6151],[131.06826171875002,54.09613678593162,402.978],[131.09228515625,54.091083074994117,399.0823],[131.11279296875,54.091083074994117,358.6259],[131.129638671875,54.08576080936912,399.5907],[131.16318359375003,54.08270905155662,351.4977],[131.2294921875,54.06378815311912,341.8449],[131.28134765625003,54.05524323124412,345.2137],[131.388427734375,54.056170965619117,315.0591],[131.494140625,54.07001373905662,307.3303],[131.66083984375,54.07123444218162,278.6393],[131.751220703125,54.059198309369116,270.3681],[131.782470703125,54.07135651249412,261.3366],[131.82275390625,54.07746002811912,251.3281],[131.8283203125,54.080194403119116,252.3341],[131.84902343750002,54.093524481244117,246.6125],[131.859375,54.097919012494117,241.615],[131.887939453125,54.100213934369116,252.6779],[131.97226562500003,54.091083074994117,228.5943],[131.98134765625002,54.08795807499412,225.1298],[132.00537109375,54.07294342655662,235.359],[132.01718750000003,54.059930731244116,225.0505],[132.0333984375,54.057001043744116,224.7854],[132.17226562500002,54.057001043744116,213.2277],[132.29697265625003,54.07416412968162,197.8776],[132.35605468750003,54.07428619999412,213.2052],[132.53183593750003,54.13666412968162,210.8838],[132.548095703125,54.149432684369117,165.7782],[132.57167968750002,54.15717194218162,177.7534],[132.60654296875003,54.153680731244116,174.9575],[132.668212890625,54.13947174686912,162.4898],[132.696875,54.136737371869117,169.3309],[132.778076171875,54.13947174686912,153.1563],[132.80576171875003,54.13519928593162,147.8713],[132.857421875,54.116327215619116,147.5948],[132.887939453125,54.11212799686912,141.0184],[132.91103515625002,54.11542389530662,140.109],[132.95712890625003,54.12946198124412,148.3754],[132.9765625,54.13263580936912,140.7406],[132.98876953125,54.130389715619117,140.8988],[133.001953125,54.120624090619117,141.6096],[133.013916015625,54.11835358280662,135.8728],[133.02978515625,54.11957428593162,140.5914],[133.0419921875,54.122674871869116,148.3783],[133.0859375,54.14020416874412,135.2059],[133.1064453125,54.14569733280662,135.5933],[133.11386718750003,54.146258856244117,129.5145],[133.13427734375,54.14569733280662,133.5151],[133.15576171875,54.15216705936912,141.4029],[133.16464843750003,54.15314362186912,130.2486],[133.17617187500002,54.15741608280662,137.0935],[133.182373046875,54.16681549686912,127.0387],[133.18671875,54.176141668744116,136.625],[133.192578125,54.18048737186912,136.4283],[133.23681640625,54.178973699994117,135.4759],[133.2509765625,54.18048737186912,135.0539],[133.3095703125,54.204217840619116,133.1933],[133.41328125,54.21918366093162,114.1409],[133.43593750000002,54.22821686405662,116.3431],[133.46230468750002,54.24506256718162,111.9519],[133.47011718750002,54.24872467655662,114.8704],[133.5125,54.25507233280662,112.4003],[133.52158203125003,54.259295965619117,109.2665],[133.537353515625,54.27399323124412,120.1339],[133.55576171875003,54.28461334843162,118.786],[133.671875,54.31500885624412,107.624],[133.76904296875,54.319452215619116,93.4342],[133.792236328125,54.32440827030662,100.9714],[133.81406250000003,54.33637116093162,101.9814],[133.83408203125003,54.350946356244116,92.0582],[133.85546875,54.35993073124412,90.5575],[133.903076171875,54.352411199994116,93.4804],[133.92910156250002,54.35919830936912,87.1435],[133.97031250000003,54.37909577030662,90.764],[133.9873046875,54.39227936405662,83.5404],[133.997314453125,54.397479559369117,86.4208],[134.011962890625,54.39960358280662,90.4835],[134.02451171875003,54.39557526249412,82.098],[134.0361328125,54.38873932499412,87.0936],[134.04843750000003,54.386346746869116,88.8837],[134.06308593750003,54.39581940311912,86.8587],[134.07314453125002,54.40399811405662,87.6169],[134.093994140625,54.415301824994117,72.4041],[134.103759765625,54.423456121869116,81.8762],[134.1103515625,54.43366119999412,84.3322],[134.11337890625003,54.44318268436912,74.5825],[134.11767578125,54.452264715619116,88.7759],[134.12744140625,54.46100494999412,69.1308],[134.149658203125,54.468524481244117,73.7351],[134.19863281250002,54.473895574994117,67.0],[134.22021484375,54.48517487186912,76.4113],[134.22265625,54.49445221561912,72.4722],[134.219482421875,54.504657293744117,73.8163],[134.21982421875003,54.51288483280662,61.5],[134.23388671875,54.516229559369116,67.1096],[134.29248046875,54.509393621869116,70.1305],[134.30712890625,54.50983307499412,71.4992],[134.334716796875,54.51520416874412,60.8648],[134.34716796875,54.516229559369116,57.0],[134.36289062500003,54.51361725468162,63.9036],[134.39013671875,54.50409577030662,60.0012],[134.433837890625,54.499872137494116,70.7179],[134.45517578125003,54.49420807499412,66.2219],[134.499267578125,54.47528717655662,50.7668],[134.54921875000002,54.461542059369116,48.9918],[134.59091796875003,54.46320221561912,56.6843],[134.62919921875005,54.477557684369117,47.8949],[134.712158203125,54.52716705936912,37.5],[134.73505859375,54.53424713749412,42.5289],[134.78173828125,54.54071686405662,39.6788],[134.82480468750003,54.56159088749412,35.8255],[134.8615234375,54.58490631718162,37.8374],[134.873779296875,54.58954498905662,26.0],[134.943359375,54.591815496869117,23.8159],[134.95361328125,54.594745184369117,22.0],[134.96542968750003,54.601678778119116,21.0],[134.99658203125,54.608661199994117,20.666],[135.01962890625003,54.62274811405662,19.0397],[135.0361328125,54.62824127811912,22.2016],[135.05322265625,54.631708074994116,16.4432],[135.067138671875,54.632928778119116,15.0],[135.08144531250002,54.637323309369116,21.4608],[135.09316406250002,54.64752838749412,34.983],[135.103759765625,54.658954168744117,15.8886],[135.11484375000003,54.66705963749412,11.6261],[135.1298828125,54.67108795780662,16.4693],[135.17636718750003,54.67389557499412,7.125],[135.20166015625,54.683124090619117,7.0987],[135.22402343750002,54.69379303593162,13.8167],[135.24267578125,54.70368073124412,7.8193]]}}