{"type":"Feature","properties":{"featurecla":"Lake Centerline","scalerank":3,"rivernum":72,"dissolve":"72Lake Centerline","name":"Amur","name_alt":null,"note":null,"min_zoom":3.0,"strokeweig":1.0,"name_en":"Amur","min_label":4.0},
"geometry":{"type": "LineString","coordinates": [[137.06982421875,50.45404694218162,91.6342],[137.07480468750003,50.43585846561912,37.8358],[137.08535156250002,50.36078522343162,16.5356],[137.087890625,50.32440827030662,18.0755],[137.09267578125002,50.29425690311912,12.0],[137.10107421875,50.265399481244117,12.0],[137.11181640625,50.24616119999412,12.0],[137.094482421875,50.21954987186912,14.3916],[137.05859375,50.195819403119117,12.5],[137.03378906250003,50.17694733280662,18.2851],[137.00419921875005,50.15949127811912,14.0],[136.96337890625,50.145770574994117,14.0],[136.923095703125,50.13886139530662,14.0],[136.891357421875,50.12445709843162,16.1924],[136.870361328125,50.10211823124412,15.0],[136.85693359375,50.078631903119117,15.0],[136.83681640625002,50.05133698124412,15.0],[136.81435546875002,50.01801178593162,18.088],[136.7978515625,49.95905182499412,17.0],[136.78583984375,49.92975494999412,17.0],[136.775,49.90656159061912,17.0],[136.7568359375,49.88019440311912,17.0],[136.75693359375003,49.85248444218162,23.6011],[136.76357421875002,49.82013580936912,17.0],[136.76513671875,49.800067449994117,17.0],[136.77685546875,49.78632233280662,17.0],[136.7880859375,49.77289459843162,17.0],[136.810546875,49.759295965619117,17.4227]]}}