{"type":"Feature","properties":{"featurecla":"River","scalerank":8,"rivernum":847,"dissolve":"847River","name":"Bikin2","name_alt":null,"note":null,"min_zoom":7.0,"strokeweig":0.25,"name_en":"Bikin","min_label":8.0},
"geometry":{"type": "LineString","coordinates": [[135.834375,46.719110418744116,339.9852],[135.79052734375,46.70844147343162,354.443],[135.742431640625,46.704852606244117,291.0112],[135.71728515625,46.711053778119116,279.4604],[135.697509765625,46.723895574994117,281.9011],[135.67685546875003,46.73407623905662,292.2835],[135.64931640625002,46.73273346561912,356.7859],[135.64267578125003,46.726825262494117,230.8964],[135.6357421875,46.716424871869116,224.8926],[135.62705078125003,46.706170965619116,176.5839],[135.615234375,46.70087311405662,175.6122],[135.6025390625,46.701044012494116,176.3129],[135.572265625,46.70673248905662,169.2371],[135.56015625000003,46.71112702030662,183.9148],[135.53476562500003,46.71491119999412,170.5672],[135.50986328125003,46.70636627811912,166.1584],[135.48789062500003,46.691522528119116,165.7061],[135.45468750000003,46.661493231244116,163.2578],[135.44863281250002,46.653827215619117,159.535],[135.44326171875002,46.64215729374412,153.4468],[135.44140625,46.629754949994116,155.2891],[135.442138671875,46.618915106244117,154.0766],[135.44091796875,46.608514715619116,150.474],[135.43339843750005,46.597772528119116,148.1534],[135.3828125,46.54767487186912,147.6755],[135.361328125,46.532977606244117,149.6708],[135.310302734375,46.51727936405662,137.6155],[135.04843750000003,46.570184637494116,138.1544],[135.03720703125003,46.56793854374412,129.1877],[135.032470703125,46.55683014530662,147.8091],[135.026123046875,46.549579168744117,130.7432],[135.01181640625003,46.549579168744117,114.9898],[134.984619140625,46.55341217655662,108.8558],[134.96523437500002,46.54572174686912,108.5008],[134.929443359375,46.523797918744116,98.1857],[134.905517578125,46.519305731244117,105.781],[134.87646484375,46.52069733280662,95.5964],[134.8525390625,46.52472565311912,100.5678],[134.806396484375,46.53974030155662,87.5178],[134.75849609375,46.54999420780662,83.6895],[134.70957031250003,46.549335028119117,84.9071],[134.57919921875003,46.523211981244117,72.4857],[134.4560546875,46.474872137494117,61.7639],[134.444580078125,46.47797272343162,62.4853],[134.428955078125,46.49201080936912,64.2288],[134.42490234375003,46.498553778119117,64.3737],[134.4189453125,46.513934637494117,61.8468],[134.416015625,46.519305731244117,62.2321],[134.409912109375,46.523456121869117,62.0984],[134.39462890625003,46.52948639530662,60.4396],[134.38935546875,46.532977606244117,61.9801],[134.39404296875,46.54291412968162,62.0057],[134.39306640625,46.551629949994116,59.3326],[134.38818359375,46.55939362186912,62.6095],[134.38134765625,46.56647369999412,64.8865],[134.366943359375,46.574481512494117,61.0573],[134.35634765625002,46.572528387494117,61.0714],[134.34775390625003,46.56757233280662,62.6341],[134.34033203125,46.56647369999412,62.7655],[134.32753906250002,46.57929108280662,57.482],[134.33134765625005,46.59577057499412,69.0417],[134.35400390625,46.629169012494117,60.9047],[134.362060546875,46.64996979374412,60.9029],[134.3642578125,46.669696356244117,56.9033],[134.36142578125003,46.711053778119116,59.1236],[134.362060546875,46.722528387494116,81.244],[134.36376953125,46.73175690311912,91.7923],[134.3642578125,46.73908112186912,59.3469],[134.36142578125003,46.74518463749412,65.7996],[134.34873046875003,46.75287506718162,56.3956],[134.33779296875002,46.75079987186912,56.03],[134.326416015625,46.745965887494116,56.2318],[134.31298828125,46.74518463749412,68.3365],[134.296875,46.75360748905662,56.326],[134.2509765625,46.80048248905662,54.847],[134.22900390625,46.81378815311912,53.1323],[134.21005859375003,46.81867096561912,52.9442],[134.191162109375,46.81769440311912,50.3018],[134.11474609375,46.79889557499412,50.3855],[134.09384765625003,46.80048248905662,48.528],[134.052978515625,46.820917059369116,47.3673],[134.04726562500002,46.82855866093162,51.1893],[134.0392578125,46.85443756718162,50.5208]]}}