{"type":"Feature","properties":{"featurecla":"River","scalerank":3,"rivernum":72,"dissolve":"72River","name":"Amur6","name_alt":null,"note":null,"min_zoom":3.0,"strokeweig":1.0,"name_en":"Amur","min_label":4.0},
"geometry":{"type": "LineString","coordinates": [[136.810546875,49.759295965619117,17.4227],[136.825439453125,49.75311920780662,17.0],[136.84121093750002,49.74469635624412,17.0],[136.85009765625,49.73346588749412,17.0],[136.853271484375,49.719110418744116,17.0],[136.84609375000002,49.669208074994117,23.5679],[136.84736328125,49.65387604374412,23.2098],[136.85410156250003,49.61994049686912,18.2566],[136.85244140625002,49.60443756718162,17.0],[136.84658203125002,49.589862371869117,17.0],[136.836669921875,49.575702215619117,17.0],[136.81591796875,49.55341217655662,21.5918],[136.7919921875,49.532586981244116,22.3515],[136.765625,49.51508209843162,22.2332],[136.73779296875,49.50275299686912,22.816],[136.71933593750003,49.49835846561912,23.7188],[136.64414062500003,49.49054596561912,17.0],[136.53125,49.46588776249412,17.0],[136.450439453125,49.42877838749412,17.0],[136.43515625000003,49.41852448124412,17.0],[136.42587890625003,49.406122137494116,17.25],[136.42138671875,49.390985418744116,18.25],[136.4201171875,49.35565827030662,25.8138],[136.416015625,49.34332916874412,24.8843],[136.4072265625,49.333612371869116,21.5],[136.37841796875,49.31293366093162,22.0],[136.368896484375,49.300067449994117,25.4103],[136.35458984375003,49.26874420780662,26.1431],[136.34326171875,49.25458405155662,26.0238],[136.32763671875,49.246844793744117,25.1883],[136.29296875,49.23602936405662,22.5],[136.26943359375002,49.213495184369116,25.871],[136.2724609375,49.185077215619117,23.5],[136.2998046875,49.12494537968162,24.0],[136.30244140625,49.10773346561912,27.2351],[136.302734375,49.09015534061912,24.0],[136.299072265625,49.07330963749412,24.0],[136.29072265625,49.05792877811912,24.0],[136.2765625,49.04364655155662,24.0],[136.149658203125,48.96478912968162,30.0287],[136.11386718750003,48.954461981244116,26.0],[136.00830078125,48.94025299686912,27.7518],[135.99404296875002,48.93451569218162,27.9512],[135.980712890625,48.92597077030662,28.4024],[135.971435546875,48.91364166874412,26.5544],[135.9677734375,48.899530340619116,27.1343],[135.9658203125,48.884637762494116,26.9048],[135.960693359375,48.87006256718162,29.5874],[135.94003906250003,48.847772528119116,26.9426],[135.912353515625,48.834979559369117,27.3565],[135.817578125,48.817157293744117,31.809]]}}