{"type":"Feature","properties":{"featurecla":"River","scalerank":8,"rivernum":843,"dissolve":"843River","name":"Amgun","name_alt":null,"note":null,"min_zoom":7.0,"strokeweig":0.2,"name_en":"Amgun’","min_label":8.0},
"geometry":{"type": "LineString","coordinates": [[134.33115234375003,51.207294012494117,1099.251],[134.34072265625002,51.191669012494117,1319.5464],[134.34560546875002,51.171649481244117,1060.4086],[134.3458984375,51.151385809369117,1088.9969],[134.34130859375,51.13495514530662,1059.7975],[134.326416015625,51.11469147343162,1195.824],[134.30673828125003,51.09992096561912,998.5189],[134.28369140625,51.090838934369117,992.9661],[134.23291015625,51.08405182499412,1032.2222],[134.21630859375,51.073846746869116,911.88],[134.19052734375003,51.03937409061912,863.8829],[134.173828125,51.023553778119116,884.5287],[134.13613281250002,51.002460028119117,848.6247],[134.11826171875003,50.98786041874412,816.9977],[134.10898437500003,50.982538153119116,812.1172],[134.08730468750002,50.97955963749412,874.2206],[134.077880859375,50.974481512494116,852.271]]}}