{"type":"Feature","properties":{"featurecla":"River","scalerank":9,"rivernum":1113,"dissolve":"1113River","name":"Uchur2","name_alt":null,"note":null,"min_zoom":7.1,"strokeweig":0.25,"name_en":"Uchur","min_label":8.1},
"geometry":{"type": "LineString","coordinates": [[133.200439453125,57.243036199994116,560.1829],[133.16875,57.23810455936912,505.3796],[133.1349609375,57.226581121869117,557.1],[133.108642578125,57.22589752811912,605.0889],[133.090576171875,57.269549871869117,558.9662],[133.0734375,57.27387116093162,544.6921],[133.0392578125,57.270379949994116,564.5344],[133.0185546875,57.27179596561912,551.4062],[132.96083984375002,57.284686590619117,519.4067],[132.9484375,57.28510162968162,498.4247],[132.93359375,57.27899811405662,504.8488],[132.921142578125,57.278924871869116,521.048],[132.86386718750003,57.29108307499412,810.6085],[132.84218750000002,57.292596746869116,793.8962],[132.80410156250002,57.28534577030662,753.5403],[132.77080078125005,57.26764557499412,527.1061],[132.70830078125005,57.22370026249412,520.0383],[132.62763671875,57.18842194218162,591.5242],[132.6103515625,57.18439362186912,738.8046],[132.55625,57.18073151249412,622.4418],[132.53759765625,57.175409246869116,924.3009],[132.51953125,57.167743231244117,988.5126],[132.50634765625,57.158807684369116,683.7922],[132.49853515625,57.14826080936912,755.8127],[132.49648437500002,57.13837311405662,821.959],[132.49550781250002,57.114520574994117,464.0239],[132.473388671875,57.05939362186912,633.6805],[132.43359375,57.015741278119116,518.5169],[132.38193359375003,56.982049871869116,853.3507],[132.30751953125002,56.950946356244117,873.4542],[132.27490234375,56.943963934369116,1050.2286],[132.23183593750002,56.94037506718162,1202.8789],[132.2216796875,56.94257233280662,1233.3688],[132.21376953125002,56.94708893436912,1021.3979],[132.19873046875,56.96027252811912,895.5338],[132.19101562500003,56.963006903119116,955.8107],[132.176513671875,56.97357819218162,834.4235],[132.13232421875,57.03937409061912,754.634],[132.094921875,57.06085846561912,785.1301],[132.08457031250003,57.072870184369116,867.1644],[132.077880859375,57.087176824994117,623.4443],[132.07431640625003,57.098163153119117,638.3772],[132.065673828125,57.10516998905662,984.9724],[131.975,57.114520574994117,531.2905],[131.95654296875,57.11884186405662,837.9957],[131.95273437500003,57.12958405155662,847.6808],[131.95498046875002,57.14301178593162,706.319],[131.95419921875003,57.15546295780662,717.0869],[131.95058593750002,57.16522858280662,962.4891],[131.95058593750002,57.168475653119117,939.9814],[131.948974609375,57.170526434369116,870.9328],[131.940673828125,57.17658112186912,750.3071],[131.93007812500002,57.181170965619117,850.3787],[131.88623046875,57.19330475468162,1059.2899],[131.8662109375,57.20490143436912,691.8153],[131.81005859375,57.249872137494116,983.4753],[131.78857421875,57.258905340619116,939.7276],[131.74326171875003,57.26923248905662,566.5355],[131.703857421875,57.29413483280662,451.468],[131.680419921875,57.29950592655662,788.9868],[131.6318359375,57.30512116093162,929.4971],[131.5771484375,57.32306549686912,853.5283],[131.5478515625,57.32623932499412,538.1563],[131.52509765625,57.315057684369116,632.4003],[131.50732421875,57.30939362186912,627.0143],[131.43212890625,57.32562897343162,1018.4123],[131.38046875000003,57.319598699994117,988.2871],[131.356640625,57.32221100468162,763.1135],[131.33310546875003,57.336200262494117,618.3583],[131.30615234375,57.363397528119116,523.2983],[131.29042968750002,57.374042059369117,695.4432],[131.26884765625005,57.380243231244116,356.985]]}}