{"type":"Feature","properties":{"featurecla":"River","scalerank":4,"rivernum":124,"dissolve":"124River","name":"Kolyma","name_alt":null,"note":null,"min_zoom":4.0,"strokeweig":0.15,"name_en":"Kolyma","min_label":5.0},
"geometry":{"type": "LineString","coordinates": [[145.60556640625003,61.89923737186912,990.5511],[145.4365234375,61.87811920780662,993.4905],[145.39833984375002,61.865008856244117,1006.7275],[145.23818359375002,61.854754949994117,1176.8751],[145.21591796875003,61.855829168744123,1157.8759]]}}