{"type":"Feature","properties":{"featurecla":"River","scalerank":8,"rivernum":843,"dissolve":"843River","name":"Amgun2","name_alt":null,"note":null,"min_zoom":7.0,"strokeweig":0.25,"name_en":"Amgun’","min_label":8.0},
"geometry":{"type": "LineString","coordinates": [[135.99501953125002,51.72687409061912,139.2507],[136.01171875,51.73346588749412,130.7423],[136.04453125000003,51.76483795780662,129.1062],[136.060302734375,51.775262762494116,127.2638],[136.05341796875,51.782098699994116,119.9999],[136.0830078125,51.79901764530662,121.1322],[136.091552734375,51.806268621869116,126.871],[136.09707031250002,51.81635162968162,123.6853],[136.09375,51.83112213749412,127.3674],[136.09814453125,51.84015534061912,111.6018],[136.1162109375,51.85712311405662,120.3965],[136.123046875,51.865252996869117,118.2273],[136.12919921875005,51.877704168744117,114.0231],[136.13125,51.88812897343162,113.2776],[136.13037109375,51.89472077030662,114.6488],[136.13046875000003,51.90131256718162,103.9184],[136.13583984375003,51.91181061405662,106.7897],[136.16845703125,51.95404694218162,221.2892],[136.1759765625,51.97589752811912,120.7617],[136.16679687500005,51.99811432499412,106.828],[136.16513671875003,52.01557037968162,90.2181],[136.20595703125002,52.05060455936912,101.015],[136.21845703125,52.069452215619116,97.7972],[136.20654296875,52.07611725468162,98.8075],[136.20263671875,52.08417389530662,89.9048],[136.204833984375,52.104266668744117,81.6901],[136.20703125,52.11005280155662,88.7821],[136.2158203125,52.11322662968162,93.1315],[136.21845703125,52.117938543744117,92.0315],[136.2177734375,52.12384674686912,83.6663],[136.2119140625,52.13226959843162,79.7091],[136.20986328125002,52.16193268436912,88.4785],[136.21103515625003,52.17194244999412,86.7247],[136.2158203125,52.18280670780662,80.863],[136.22158203125002,52.19171784061912,81.2173],[136.22402343750002,52.200946356244117,82.0123],[136.21845703125,52.21283600468162,72.4473],[136.225,52.224383856244117,81.9837],[136.236083984375,52.23285553593162,75.5783],[136.250244140625,52.234881903119117,72.0051],[136.266357421875,52.22711823124412,68.5],[136.28271484375,52.23871491093162,94.5539],[136.310546875,52.241717840619117,74.7394],[136.3400390625,52.23920319218162,71.1653],[136.380078125,52.23126862186912,73.7083],[136.40214843750005,52.23114655155662,70.8023],[136.42617187500002,52.234393621869117,67.5268],[136.45058593750002,52.24079010624412,77.1228],[136.47929687500005,52.25958893436912,68.0321],[136.48486328125,52.26471588749412,62.0],[136.48828125,52.273553778119116,64.8336],[136.4970703125,52.276385809369117,64.9113],[136.50849609375,52.27765534061912,98.2469],[136.51953125,52.28180573124412,102.0803],[136.532958984375,52.295282293744116,105.8734],[136.55898437500002,52.331317449994117,70.3378],[136.57412109375002,52.34442780155662,71.9427],[136.56191406250002,52.351678778119116,67.1233],[136.53623046875003,52.38165924686912,66.5857],[136.52587890625,52.38776276249412,63.3277],[136.51503906250002,52.39032623905662,65.0164],[136.50527343750002,52.39459869999412,60.5],[136.49853515625,52.405877996869116,64.6962],[136.54150390625,52.404413153119116,64.0444],[136.56289062500002,52.40595123905662,70.694],[136.58154296875,52.412127996869117,68.2144],[136.638427734375,52.462274481244116,65.2433],[136.6533203125,52.46393463749412,64.0677],[136.66875,52.45636627811912,67.6813],[136.72275390625003,52.44196198124412,63.2378],[136.742431640625,52.43939850468162,59.5],[136.78457031250002,52.440545965619116,59.9689],[136.80166015625002,52.44660065311912,62.7258],[136.79384765625002,52.46051666874412,62.5787],[136.81162109375003,52.46466705936912,62.9703],[136.832275390625,52.457294012494117,64.2405],[136.85410156250003,52.446161199994116,59.302],[136.875244140625,52.43939850468162,73.149],[136.937255859375,52.43256256718162,73.7384],[136.94921875,52.435077215619117,61.8285],[136.97128906250003,52.44476959843162,61.8121],[136.98193359375,52.44684479374412,61.9915],[137.0265625,52.46198151249412,76.2313],[137.09580078125003,52.53119537968162,67.4843],[137.13583984375003,52.55048248905662,65.889],[137.13271484375002,52.55487702030662,64.685],[137.13095703125003,52.558368231244117,55.3351],[137.12841796875,52.56146881718162,81.7938],[137.122802734375,52.56476471561912,100.6214],[137.141357421875,52.57037994999412,90.2901],[137.20468750000003,52.57758209843162,345.3038],[137.22216796875,52.574335028119116,123.6333],[137.23095703125,52.56720612186912,103.8686],[137.2443359375,52.55939362186912,83.1939],[137.25839843750003,52.55304596561912,63.383],[137.27001953125,52.55048248905662,62.0313],[137.28525390625003,52.55329010624412,58.9269],[137.288818359375,52.560174871869116,55.5659],[137.28867187500003,52.56915924686912,59.9169],[137.29355468750003,52.577752996869116,74.326],[137.30361328125002,52.582635809369116,76.1638],[137.32568359375,52.58661530155662,58.9377],[137.33505859375003,52.591424871869116,56.4076],[137.34248046875,52.59931061405662,58.6128],[137.341796875,52.603631903119116,59.5568],[137.33759765625,52.60968659061912,61.4479],[137.33505859375003,52.62274811405662,79.9468],[137.346923828125,52.62335846561912,68.2882],[137.40175781250002,52.64850494999412,54.0545],[137.41767578125,52.66034577030662,52.3608],[137.41767578125,52.67047760624412,58.308],[137.412353515625,52.67877838749412,147.2175],[137.41298828125002,52.68463776249412,217.4283],[137.4306640625,52.687616278119116,98.8783],[137.43896484375,52.68463776249412,91.6137],[137.486083984375,52.65790436405662,52.9543],[137.49843750000002,52.659051824994116,53.6057],[137.50839843750003,52.666034246869117,78.2483],[137.5126953125,52.67743561405662,67.5476],[137.508056640625,52.68573639530662,53.0269],[137.499267578125,52.69379303593162,49.0734],[137.49375,52.70319244999412,142.5338],[137.4990234375,52.715594793744117,219.0484],[137.520263671875,52.72247955936912,263.4321],[137.54775390625002,52.71405670780662,95.2969],[137.57568359375,52.70111725468162,138.6241],[137.5986328125,52.694452215619116,51.8782],[137.620361328125,52.69769928593162,51.8859],[137.66201171875002,52.71210358280662,68.9136],[137.6845703125,52.715594793744117,119.3159],[137.79384765625002,52.70880768436912,101.0322],[137.8212890625,52.71393463749412,72.6749],[137.83896484375003,52.72601959843162,64.2023],[137.85458984375003,52.73969147343162,276.8535],[137.87636718750002,52.74970123905662,124.916],[137.93017578125,52.75006744999412,57.7688],[137.959716796875,52.75372955936912,44.0189],[137.98505859375,52.77606842655662,214.9934],[138.01416015625,52.78217194218162,212.0408],[138.046142578125,52.784540106244116,103.8609],[138.068115234375,52.78327057499412,117.23],[138.11240234375003,52.76361725468162,54.372],[138.13857421875002,52.75763580936912,37.2967],[138.16103515625002,52.76618073124412,42.2075],[138.17617187500002,52.777704168744116,53.8851],[138.197265625,52.78937409061912,112.9798],[138.219921875,52.79877350468162,93.9774],[138.239501953125,52.803729559369117,127.5805],[138.25439453125,52.803338934369116,75.8951],[138.28017578125002,52.79730866093162,83.5924],[138.29404296875003,52.796893621869117,25.7836],[138.30625,52.80109284061912,31.0358],[138.3291015625,52.814960028119117,84.2082],[138.35830078125002,52.822528387494117,45.829],[138.42441406250003,52.85211823124412,45.32],[138.46044921875,52.860858465619117,33.7709],[138.47216796875,52.86579010624412,34.0356],[138.503662109375,52.88629791874412,37.1239],[138.5234375,52.88959381718162,24.1652],[138.5810546875,52.917596746869116,19.2696],[138.63076171875002,52.933465887494116,7.5792],[138.68212890625,52.94245026249412,80.7717],[138.72451171875002,52.94403717655662,6.5359],[138.885498046875,52.93146393436912,6.0565],[138.97939453125002,52.913592840619117,16.941]]}}