{"type":"Feature","properties":{"featurecla":"River","scalerank":8,"rivernum":848,"dissolve":"848River","name":"Maya","name_alt":null,"note":null,"min_zoom":7.0,"strokeweig":0.2,"name_en":"Maya","min_label":8.0},
"geometry":{"type": "LineString","coordinates": [[139.473388671875,59.85419342655662,882.4683],[139.51035156250003,59.84821198124412,795.1152],[139.54550781250003,59.833124090619123,762.0214],[139.666259765625,59.75104401249412,642.6103],[139.694580078125,59.73676178593162,640.3595],[139.76259765625002,59.72467682499412,737.2367],[139.79257812500003,59.70734284061912,625.6915],[139.81689453125,59.68305084843162,669.5272],[139.82900390625002,59.655536199994117,712.2469],[139.8154296875,59.61456940311912,628.4793],[139.78525390625003,59.60077545780662,631.8486],[139.76796875000002,59.590448309369123,609.1136],[139.76015625000002,59.57672760624412,594.9944],[139.743359375,59.55390045780662,588.2568],[139.704833984375,59.54279205936912,583.4168],[139.63046875000003,59.53204987186912,585.51]]}}