{"type":"Feature","properties":{"ISO3166-1-Alpha-3":"RUS","country":"Russia","fill":"#FF0","id":"2402","name":"Khakass"},
"geometry":{"type": "Polygon","coordinates": [[[88.75978,55.34409,765.8907],[88.69095,55.41099,584.6063],[88.63607,55.42471,507.9701],[88.60878,55.44558,349.206],[88.60877,55.44559,349.206],[88.58356,55.41817,429.744],[88.57147,55.39954,446.6283],[88.56155,55.38809,405.706],[88.50264,55.3406,507.1132],[88.49871,55.33833,456.5551],[88.43556,55.31365,551.2388],[88.42223,55.30593,650.6982],[88.41603,55.30143,530.3242],[88.40466,55.29079,601.296],[88.40001,55.28495,564.1409],[88.3965,55.279,518.4425],[88.39433,55.27334,504.3222],[88.39278,55.26779,526.0186],[88.39319,55.26169,656.5239],[88.39526,55.25523,802.0272],[88.40239,55.2466,783.3396],[88.40807,55.24087,764.3237],[88.47246,55.20118,725.1589],[88.48166,55.19286,703.9942],[88.48579,55.18645,753.6866],[88.49654,55.16619,633.7463],[88.49933,55.15883,603.5346],[88.5015,55.15048,680.0103],[88.5014,55.13847,730.5307],[88.50233,55.12987,700.2677],[88.50429,55.12183,893.644],[88.5108,55.11312,736.6644],[88.51701,55.10749,802.2742],[88.5414,55.09069,714.9528],[88.54998,55.08336,619.5338],[88.55153,55.07829,612.4174],[88.55287,55.07033,635.9033],[88.55163,55.04633,703.7298],[88.54946,55.03494,796.9451],[88.5478,55.02956,748.1927],[88.54667,55.02321,786.032],[88.54842,55.01675,859.6229],[88.5568,55.00879,846.8016],[88.56641,55.00478,1075.1011],[88.58656,55.00031,1109.9377],[88.58811,54.99974,1116.1858],[88.59462,54.9906,1040.9337],[88.60207,54.97783,1132.4893],[88.60889,54.97117,1113.8628],[88.61788,54.96739,1053.9583],[88.62687,54.96703,1004.1185],[88.66149,54.96869,1182.2766],[88.66914,54.96714,1155.1799],[88.67359,54.96269,1058.9318],[88.677,54.95654,1004.1313],[88.67906,54.94698,942.7629],[88.67906,54.93913,981.5579],[88.67669,54.93091,1051.625],[88.66397,54.91153,1065.7753],[88.65994,54.90301,1110.9497],[88.66025,54.89308,1050.8955],[88.66201,54.88642,987.8558],[88.66449,54.88084,917.6461],[88.668,54.87686,904.4316],[88.67359,54.87433,875.9974],[88.68041,54.87471,945.3839],[88.68774,54.87681,1008.5709],[88.72154,54.895,861.9131],[88.72898,54.89722,871.6832],[88.73663,54.89789,904.4856],[88.74345,54.89544,882.4535],[88.74759,54.89014,889.8898],[88.75658,54.83278,1209.5088],[88.75627,54.81758,1223.7026],[88.75306,54.80456,1155.2351],[88.74045,54.78697,1139.844],[88.72919,54.77428,1166.2787],[88.71772,54.76415,1022.2052],[88.708,54.76152,922.4208],[88.6986,54.76079,1030.7083],[88.65219,54.76281,1042.1311],[88.64392,54.75997,1132.3741],[88.63731,54.75472,1155.2773],[88.63059,54.74653,1121.2048],[88.6308,54.73862,1066.4326],[88.63152,54.73247,1156.4557],[88.63493,54.72234,1108.7416],[88.63452,54.71651,1026.3984],[88.63359,54.71191,1000.8843],[88.61261,54.69687,1087.4849],[88.61343,54.68627,1224.636],[88.61064,54.6131,1299.1556],[88.60951,54.60788,1232.6211],[88.60641,54.60251,1192.9318],[88.58046,54.57812,1180.3401],[88.58036,54.57284,1170.8405],[88.58222,54.56732,1177.2755],[88.60331,54.53672,1219.1794],[88.60506,54.53187,1136.2025],[88.60548,54.52693,1105.4319],[88.603,54.52169,1197.5829],[88.59803,54.51714,1144.7344],[88.59194,54.51277,1069.4994],[88.5692,54.49998,1183.2109],[88.56806,54.4989,1171.1616],[88.56589,54.49644,1139.2434],[88.56424,54.49254,1143.6929],[88.56372,54.48773,1254.0652],[88.56527,54.47761,1237.8555],[88.56589,54.4675,1079.0532],[88.56434,54.46267,1033.8992],[88.56062,54.45843,1088.5889],[88.54336,54.44523,1152.5837],[88.53892,54.43967,1205.8444],[88.53365,54.42836,1247.5597],[88.53054,54.42319,1240.9994],[88.52538,54.4188,1285.0322],[88.51856,54.41606,1321.3213],[88.45561,54.40247,1373.5446],[88.38823,54.39717,1433.8652],[88.3813,54.39578,1453.166],[88.37686,54.39291,1450.3726],[88.378,54.38852,1399.9011],[88.38265,54.38371,1248.6453],[88.39526,54.3788,1195.4358],[88.53251,54.34433,1116.2826],[88.54016,54.34077,1139.4709],[88.54543,54.33674,1088.1676],[88.54791,54.33198,1043.632],[88.55184,54.30118,894.6636],[88.55308,54.29617,921.7943],[88.55566,54.29152,990.1777],[88.56083,54.28775,1152.3312],[88.57116,54.28702,1137.6866],[88.58439,54.28899,1216.522],[88.60382,54.2988,1106.4828],[88.61374,54.30619,1134.562],[88.62088,54.31327,1058.8625],[88.62739,54.31803,995.9909],[88.63524,54.32165,1022.7573],[88.64826,54.32196,1238.875],[88.65943,54.32327,1289.1188],[88.67069,54.32573,1236.1602],[88.68289,54.33353,1252.4487],[88.69023,54.33999,1276.6667],[88.69591,54.34676,1298.3252],[88.70366,54.3587,1308.1738],[88.71348,54.3648,1282.4976],[88.72857,54.37084,1135.0027],[88.76154,54.37792,1361.2103],[88.77559,54.38423,1252.9539],[88.78407,54.39032,1271.3462],[88.79151,54.4018,1185.6675],[88.79771,54.40707,1023.1393],[88.80577,54.41053,1082.3511],[88.81714,54.41327,1115.4283],[88.84474,54.41567,1162.613],[88.8713,54.4096,1104.3367],[88.93517,54.37821,884.4309],[88.95481,54.36916,846.4698],[88.9608,54.36449,806.9297],[88.96287,54.3588,835.8102],[88.9608,54.35074,914.1271],[88.95233,54.33198,1111.9084],[88.9514,54.32614,1179.8147],[88.95233,54.3203,1135.1193],[88.95915,54.3141,1088.5605],[88.96545,54.3093,1199.1555],[89.00431,54.29012,1259.1479],[89.01124,54.2887,1206.2623],[89.01837,54.28961,1091.7566],[89.02385,54.29369,1123.7345],[89.04783,54.32356,1095.7034],[89.05351,54.32883,1259.7781],[89.06012,54.33234,1284.8881],[89.06726,54.33511,1410.5842],[89.12916,54.35048,1339.7284],[89.13774,54.35053,1277.5995],[89.14653,54.34883,1215.9076],[89.16203,54.34237,1223.9579],[89.17516,54.33477,1217.2767],[89.18601,54.32676,1130.7568],[89.19004,54.32185,973.4232],[89.19283,54.31632,1011.4536],[89.19035,54.30816,1201.5991],[89.18632,54.30129,1242.3708],[89.18167,54.29467,1167.2231],[89.17805,54.2887,1155.2877],[89.17619,54.28268,1200.1567],[89.17774,54.27689,1158.2004],[89.18456,54.27067,1101.1429],[89.19324,54.26646,1095.8666],[89.21216,54.25953,1094.7761],[89.21929,54.2554,1228.37],[89.22249,54.25031,1284.5513],[89.21856,54.24253,1305.4382],[89.18167,54.20124,1109.1255],[89.17888,54.19488,1084.5043],[89.17888,54.18806,1079.9061],[89.19262,54.15757,1081.2585],[89.19376,54.15323,1104.649],[89.19262,54.14972,1057.0865],[89.18725,54.14739,1060.9845],[89.04679,54.11737,1180.9097],[89.01765,54.10703,1199.9614],[89.00524,54.10057,1027.1746],[88.99729,54.09391,1050.0194],[88.98829,54.08352,1073.6334],[88.98457,54.07768,1087.2982],[88.98209,54.07148,1318.2788],[88.98147,54.06523,1487.9801],[88.98437,54.0582,1324.5092],[88.98747,54.05277,1236.8362],[88.99512,54.04342,1192.1656],[89.04648,53.99195,1331.1195],[89.05258,53.98291,1290.4579],[89.05764,53.97366,1522.6561],[89.06106,53.96394,1404.4534],[89.06157,53.95885,1333.5723],[89.0654,53.95479,1438.472],[89.07273,53.95257,1429.5588],[89.12286,53.95996,1115.5592],[89.14622,53.95841,1134.9146],[89.19717,53.94772,1504.333],[89.21433,53.9412,1200.3271],[89.21991,53.93722,1233.6381],[89.21991,53.93255,1252.5524],[89.18301,53.90115,1310.2251],[89.17867,53.8949,1391.4011],[89.17619,53.88767,1556.8569],[89.17888,53.87826,1532.9355],[89.18208,53.87206,1564.8794],[89.18694,53.86684,1580.76],[89.19221,53.86348,1441.5582],[89.1982,53.86144,1461.6063],[89.24699,53.86441,1433.8326],[89.25505,53.86348,1546.7474],[89.26166,53.86111,1646.2717],[89.26683,53.85754,1800.0961],[89.27086,53.85346,2032.694],[89.27376,53.84912,1849.5176],[89.27024,53.84281,1717.7725],[89.26042,53.8348,1559.9441],[89.20213,53.8055,1510.8485],[89.18146,53.78075,1300.6377],[89.16451,53.77878,1118.7811],[89.10219,53.78152,1269.179],[89.09423,53.78008,1241.4338],[89.07501,53.76829,1225.7717],[89.06106,53.7622,1674.1766],[89.0316,53.75313,1406.3837],[89.02447,53.74871,1493.106],[89.01827,53.74225,1336.1802],[89.01331,53.73008,1397.8004],[89.01145,53.7223,1179.0518],[89.01083,53.71564,962.6083],[89.01238,53.69135,845.6244],[89.01124,53.67936,817.7569],[89.00866,53.67357,658.7209],[89.0038,53.66763,708.3156],[88.99295,53.66073,876.2363],[88.91223,53.6252,529.1306],[88.8992,53.6129,956.6171],[88.89135,53.59957,808.2821],[88.88256,53.59595,755.3922],[88.87357,53.59554,810.9325],[88.86489,53.59722,853.4489],[88.85683,53.59694,917.1445],[88.84246,53.59195,1045.3635],[88.83719,53.58831,1121.9731],[88.83389,53.58461,1044.9207],[88.8375,53.57931,944.9487],[88.84246,53.57479,1044.7844],[88.87161,53.55477,1075.0415],[88.87543,53.54885,1366.6403],[88.87626,53.54118,1273.4042],[88.86417,53.49981,932.296],[88.86303,53.4802,1046.6172],[88.86076,53.4741,962.3622],[88.85621,53.46762,921.2408],[88.84432,53.45906,933.6398],[88.79988,53.43669,1357.0774],[88.79461,53.43149,1229.2694],[88.79141,53.42573,1137.161],[88.7911,53.41679,1117.8132],[88.79203,53.40733,1172.1892],[88.7881,53.39638,1243.7227],[88.76981,53.37659,1135.8262],[88.76123,53.36506,1148.5179],[88.76206,53.35961,1098.9353],[88.7665,53.35473,1050.5417],[88.77932,53.35013,1095.6675],[88.78934,53.34837,1170.1448],[88.79947,53.34775,1180.4438],[88.80753,53.34806,1265.056],[88.81435,53.34956,1302.384],[88.81849,53.35287,1291.566],[88.82562,53.36744,1086.8826],[88.83099,53.37111,1106.7761],[88.88184,53.38656,993.7523],[88.88887,53.38754,1057.7343],[88.89517,53.38661,1050.1866],[88.96318,53.35049,869.2009],[88.96876,53.34558,819.8885],[88.97372,53.33964,834.6026],[88.97631,53.32959,739.5524],[88.97972,53.32243,744.0488],[88.98654,53.31504,905.3596],[89.004,53.30088,801.5804],[89.05062,53.24944,888.0],[89.05289,53.24393,902.1635],[89.05237,53.23745,959.8682],[89.04555,53.22755,1036.4008],[89.03201,53.21634,1046.1914],[89.00752,53.1998,987.8724],[89.00586,53.19231,978.6288],[89.00679,53.18487,1068.9253],[89.03098,53.15688,891.6429],[89.04648,53.14477,1015.5279],[89.0502,53.14032,965.2983],[89.05144,53.13562,975.3853],[89.04907,53.13045,1042.9579],[89.02695,53.11593,1079.3367],[89.02147,53.11087,1130.343],[89.01703,53.10472,1250.6721],[89.0099,53.08425,1183.5104],[89.00648,53.07953,1166.2758],[89.00008,53.07604,1145.4688],[88.97899,53.07061,1166.7706],[88.97186,53.06808,1271.5815],[88.93166,53.04839,1195.1228],[88.9082,53.03253,1032.4119],[88.90603,53.0286,1096.4117],[88.90913,53.02472,1090.4696],[88.91347,53.02059,1079.9709],[88.91564,53.01573,1033.0221],[88.91336,53.01025,899.6357],[88.89817,52.99568,841.8865],[88.89548,52.99118,846.4797],[88.89507,52.98736,923.925],[88.89848,52.98204,864.6279],[88.90479,52.97811,971.7466],[88.94737,52.96095,1049.9988],[88.98581,52.95052,838.2906],[88.99946,52.94979,913.8589],[89.05093,52.95566,1568.614],[89.05878,52.95537,1569.9631],[89.06509,52.95403,1594.7317],[89.07067,52.95098,1392.0212],[89.11821,52.91997,793.6942],[89.12172,52.91558,875.863],[89.12348,52.91083,798.784],[89.12379,52.90566,797.3883],[89.12296,52.90029,834.504],[89.1211,52.89476,779.3457],[89.11201,52.87719,843.937],[89.11025,52.87155,828.8248],[89.11108,52.86675,837.1268],[89.11635,52.86339,909.0936],[89.12327,52.86163,942.3445],[89.13092,52.8622,996.0309],[89.15366,52.86716,910.7653],[89.16927,52.86887,792.9371],[89.17671,52.86819,795.762],[89.18229,52.86561,773.5029],[89.23562,52.81003,1014.718],[89.23469,52.80432,956.112],[89.22787,52.79766,974.9288],[89.17805,52.76572,993.9041],[89.16348,52.75138,960.511],[89.15025,52.73528,1031.9222],[89.14436,52.73048,991.3552],[89.05444,52.71368,1005.0656],[89.04752,52.71084,980.1514],[89.04214,52.70645,1061.7751],[89.03935,52.69926,976.9119],[89.03811,52.69327,1204.454],[89.03821,52.68756,1076.0328],[89.03976,52.68268,967.2561],[89.04318,52.67813,912.7696],[89.04907,52.6742,999.3591],[89.06994,52.66319,876.4818],[89.10291,52.63927,884.1073],[89.11211,52.6309,967.5469],[89.11511,52.6264,1026.5343],[89.11676,52.62154,1000.8376],[89.118,52.61658,947.7495],[89.11831,52.61147,940.9775],[89.11924,52.60656,910.1034],[89.11852,52.60185,981.5682],[89.11542,52.59777,1039.1718],[89.08927,52.59291,1075.0415],[89.08049,52.59012,972.7845],[89.07149,52.58568,966.851],[89.06044,52.57602,927.6311],[89.03759,52.54922,909.7109],[89.03015,52.54333,860.7365],[89.02168,52.53775,885.5911],[88.99873,52.5293,921.5789],[88.98344,52.52532,960.4341],[88.9762,52.5215,981.4526],[88.96948,52.51623,1004.3909],[88.96297,52.50744,878.8727],[88.95708,52.49685,935.5811],[88.95233,52.49246,925.6664],[88.94458,52.48796,1029.146],[88.89207,52.46941,921.5312],[88.8713,52.45682,811.7474],[88.85735,52.44646,862.811],[88.75213,52.4059,1034.7744],[88.745,52.40088,1083.6223],[88.73704,52.39158,842.7727],[88.7326,52.38466,915.1643],[88.72547,52.37737,990.2545],[88.71565,52.37063,1082.0945],[88.67607,52.35246,1002.4489],[88.66955,52.34851,941.5076],[88.66428,52.34401,888.4998],[88.66118,52.33748,950.1458],[88.66397,52.33277,983.4697],[88.67079,52.32885,1056.5242],[88.70862,52.32001,927.8085],[88.7171,52.31701,893.7867],[88.72237,52.31314,889.3196],[88.72237,52.30802,876.9686],[88.71906,52.30234,892.5397],[88.7048,52.28518,1011.7153],[88.68805,52.25668,1243.7686],[88.68185,52.25107,1187.0417],[88.67328,52.24648,1143.0459],[88.65808,52.24467,1050.3317],[88.637,52.2441,1124.1813],[88.62842,52.24275,1098.3013],[88.62119,52.23934,1132.1533],[88.61467,52.23185,1088.559],[88.60847,52.22601,1101.8804],[88.59969,52.22126,1115.8452],[88.58419,52.2203,1142.0232],[88.56176,52.22198,1035.9884],[88.54853,52.22043,1138.6428],[88.53344,52.21583,1193.2053],[88.50615,52.20291,1041.5844],[88.49468,52.19449,1298.9286],[88.4861,52.18669,1442.73],[88.48228,52.18092,1561.8171],[88.46781,52.17547,1280.073],[88.45592,52.17216,1378.574],[88.36477,52.168,1542.6438],[88.34575,52.13346,1421.365],[88.32973,52.12491,1184.6121],[88.26658,52.12064,1264.8644],[88.24953,52.11641,1113.908],[88.24219,52.11134,1284.4287],[88.23806,52.10576,1228.6565],[88.23723,52.10028,1172.9598],[88.23816,52.09517,1226.7688],[88.24219,52.09085,1269.8252],[88.25759,52.07855,1210.964],[88.26193,52.07432,1165.1152],[88.26358,52.06935,1333.0851],[88.25862,52.06607,1420.6206],[88.24922,52.06261,1413.02],[88.21956,52.05563,981.5955],[88.21025,52.05501,1008.2674],[88.20106,52.05631,1189.3025],[88.19351,52.05923,1372.3987],[88.18669,52.06271,1144.0913],[88.13966,52.09393,1528.5806],[88.13295,52.09721,1296.8844],[88.12147,52.09827,1098.5808],[88.11093,52.09488,978.0526],[88.09512,52.0868,873.7621],[88.07817,52.07537,845.924],[88.07259,52.07059,873.858],[88.06732,52.06514,924.683],[88.05822,52.0531,1208.1362],[88.05481,52.04716,1374.2722],[88.05233,52.04132,1503.4945],[88.05295,52.03636,1470.4652],[88.05585,52.03171,1435.4346],[88.05791,52.02659,1412.5706],[88.05771,52.02096,1420.7854],[88.03972,52.00287,892.6837],[88.03538,51.99259,892.5505],[88.03011,51.98933,1059.1183],[87.99476,51.97636,1232.5031],[87.98619,51.97109,1230.0524],[87.98153,51.96551,1244.1562],[87.97761,51.93874,1114.4241],[87.97626,51.93319,1206.4578],[87.97409,51.92758,1245.5259],[87.97079,51.92184,1330.6262],[87.90536,51.85725,1279.1801],[87.8603,51.82903,1157.5507],[87.84718,51.8189,909.2054],[87.83911,51.81064,1028.394],[87.83694,51.8049,1178.8989],[87.83539,51.79927,1263.4583],[87.83457,51.79374,1316.8179],[87.83519,51.78842,1232.778],[87.83725,51.78361,1339.4351],[87.84015,51.77911,1401.1279],[87.84387,51.77498,1507.0905],[87.84904,51.77214,1515.0576],[87.85534,51.7717,1574.9608],[87.86175,51.77358,1621.052],[87.88831,51.78656,1642.3409],[87.89544,51.78893,1534.3877],[87.90288,51.79043,1521.7241],[87.91094,51.79095,1581.3262],[87.91973,51.78986,1749.6407],[87.92862,51.78754,1784.8956],[87.9434,51.78066,1920.7252],[87.97688,51.75782,2009.2214],[87.98288,51.75568,2020.1221],[87.9896,51.7555,1884.3607],[88.0853,51.77741,1302.8829],[88.09202,51.77743,1490.177],[88.09708,51.77462,1530.902],[88.1007,51.77069,1644.4438],[88.1037,51.76609,1661.3311],[88.10587,51.76141,1662.7131],[88.10597,51.75426,1639.4473],[88.10432,51.74516,1889.6263],[88.09843,51.72919,1661.8054],[88.09264,51.72031,1769.4993],[88.08644,51.71364,1710.4589],[87.99972,51.66212,1711.4789],[87.98443,51.6486,2139.7319],[87.98184,51.64212,1835.8513],[87.98102,51.63612,1753.7042],[87.98215,51.63122,1701.9697],[87.98277,51.62517,1779.3575],[87.98184,51.61824,1808.7209],[87.97854,51.60817,1661.0984],[87.97347,51.60228,1566.8082],[87.96738,51.59757,1772.2839],[87.86154,51.54936,2086.7202],[87.89079,51.5167,1759.21],[87.91001,51.49029,2068.0039],[87.92345,51.47903,2231.4504],[87.93317,51.47541,2180.2056],[87.95993,51.48626,2164.7632],[87.96758,51.48745,2140.2478],[87.97606,51.48712,2018.0012],[88.07352,51.45164,2177.4897],[88.0946,51.44074,2186.729],[88.10566,51.43218,2083.5544],[88.10711,51.42218,2028.0947],[88.11114,51.40751,1877.0104],[88.11341,51.40229,1923.5413],[88.11992,51.39526,2062.613],[88.1316,51.38591,1972.5225],[88.17119,51.36715,2065.0759],[88.18369,51.36379,1867.6268],[88.26193,51.36022,2400.9048],[88.29872,51.34886,2176.2415],[88.35009,51.32431,2204.6606],[88.36373,51.31981,2333.1995],[88.5077,51.31635,2064.6758],[88.51453,51.31764,2066.4861],[88.52135,51.31992,2209.2915],[88.55339,51.33648,2366.5186],[88.55897,51.34098,2169.2385],[88.56424,51.34627,2017.1379],[88.59121,51.3826,2119.77],[88.59648,51.38797,2129.4402],[88.60207,51.39226,2282.1116],[88.60847,51.39578,2077.082],[88.63586,51.40611,2416.5186],[88.65509,51.41562,2045.6289],[88.66077,51.41929,2076.0112],[88.66542,51.42363,2030.9602],[88.66697,51.42859,1955.0771],[88.66759,51.43371,2020.4359],[88.66676,51.449,2093.8796],[88.66852,51.47019,2157.2219],[88.66831,51.48063,2215.5278],[88.66707,51.48559,2369.1238],[88.65963,51.49985,2014.0125],[88.65664,51.50916,2080.3938],[88.6525,51.51841,2087.6797],[88.65126,51.52316,2272.6453],[88.65126,51.52781,2341.5281],[88.65405,51.53153,2270.5415],[88.65932,51.53489,2208.1899],[88.7357,51.55939,1974.1216],[89.03253,51.60008,2284.3311],[89.04276,51.60383,2640.1111],[89.04907,51.60832,2464.7078],[89.05217,51.61339,2143.6318],[89.05444,51.61881,2050.8152],[89.05692,51.62377,2103.3445],[89.06044,51.62765,2335.1069],[89.12627,51.63349,2313.9316],[89.15242,51.6399,2633.001],[89.1672,51.64744,2314.25],[89.19376,51.65814,2390.6028],[89.20616,51.6585,2904.4155],[89.21743,51.65703,2498.3071],[89.22621,51.65375,2499.5161],[89.23159,51.64977,2449.2954],[89.23272,51.64481,2419.1033],[89.23097,51.63923,2366.0427],[89.22125,51.61638,2264.0422],[89.21433,51.59422,2214.0042],[89.2134,51.58884,2199.4775],[89.21309,51.5784,2039.3087],[89.21402,51.57334,1985.7161],[89.21557,51.56853,1973.115],[89.21856,51.56398,1968.243],[89.22311,51.55985,1998.4198],[89.23128,51.55577,2228.4258],[89.24234,51.55225,2271.1912],[89.25908,51.54864,2309.9268],[89.26993,51.54822,2528.6079],[89.27944,51.5489,2719.1074],[89.28657,51.55101,2548.8267],[89.29308,51.55417,2634.5234],[89.29897,51.55851,2451.4209],[89.32388,51.5877,2550.8638],[89.33649,51.59344,2447.7095],[89.35561,51.59819,2327.2183],[89.42093,51.60538,2403.229],[89.43747,51.60496,2453.5737],[89.47416,51.59884,2078.5364],[89.48284,51.59654,2200.052],[89.49059,51.59375,2234.2429],[89.54237,51.56349,2334.563],[89.55167,51.5597,2249.6929],[89.56325,51.55623,2319.6216],[89.58061,51.55303,2407.8894],[89.59177,51.55251,2299.9932],[89.60138,51.55303,2095.0996],[89.63642,51.56176,2084.2268],[89.68427,51.56827,2562.8142],[89.73037,51.58223,2369.1328],[89.75114,51.59592,2133.9668],[89.77729,51.62522,2059.7034],[89.94286,51.75017,2142.2217],[89.96498,51.76141,2444.502],[89.97252,51.75942,2266.5981],[89.97986,51.75663,2339.0674],[90.00033,51.74589,2216.3948],[90.02689,51.7372,2354.8071],[90.03557,51.73571,2184.5659],[90.0487,51.73607,2161.8254],[90.06409,51.73844,2512.3252],[90.08952,51.74542,2333.3457],[90.10089,51.7509,2381.3809],[90.10678,51.75689,2194.6409],[90.10709,51.76123,2069.6707],[90.10461,51.76769,2047.4277],[90.06833,51.82107,2084.7119],[90.058,51.84056,1833.1969],[90.05645,51.84634,1837.3665],[90.05572,51.85247,1958.6982],[90.05696,51.87218,2200.521],[90.05645,51.88929,1990.9476],[90.05107,51.92071,1659.7428],[90.02968,51.9653,1808.1003],[90.02699,51.97626,2004.8252],[90.02751,51.98437,1941.21],[90.03154,51.98887,1684.3928],[90.0365,51.99269,1587.7888],[90.05986,52.00608,1523.199],[90.0734,52.01832,1706.3077],[90.07918,52.02153,1658.4965],[90.10616,52.03228,1757.585],[90.11298,52.03703,1881.4585],[90.11887,52.0438,1772.4935],[90.12404,52.05718,1645.2996],[90.12538,52.06607,1435.8704],[90.126,52.07419,1323.1923],[90.12373,52.1286,1829.2407],[90.12941,52.13522,1960.3446],[90.1383,52.13801,2176.355],[90.17789,52.13457,1795.7075],[90.19866,52.13501,1941.6018],[90.21633,52.13767,1815.2202],[90.22377,52.14059,1727.3918],[90.23029,52.14462,1803.0483],[90.243,52.15506,2148.2957],[90.24889,52.15899,1972.3367],[90.2553,52.16204,1965.4031],[90.26243,52.16426,2006.6406],[90.27121,52.1655,1977.9178],[90.29064,52.16612,2121.1172],[90.29902,52.16767,2135.6514],[90.30615,52.16999,2115.2261],[90.31814,52.17656,2299.9844],[90.32837,52.18415,2232.3391],[90.33436,52.18767,2004.5935],[90.3417,52.19025,2076.0764],[90.35007,52.19159,2030.1533],[90.35937,52.1918,2096.3582],[90.36806,52.19059,1925.7759],[90.39813,52.18123,2111.3813],[90.41601,52.17829,1999.5868],[90.43585,52.17811,2263.377],[90.47659,52.1834,1880.4487],[90.48794,52.20271,1996.2069],[90.52815,52.25712,1494.6849],[90.60618,52.33257,1308.4424],[90.62664,52.38052,1050.1417],[90.70033,52.45819,1444.5631],[90.79842,52.5278,1502.2806],[90.844,52.55023,1584.8313],[90.89919,52.5772,1310.2089],[90.99551,52.60129,888.05],[91.03799,52.6602,1615.3114],[91.13586,52.69898,1216.3931],[91.2419,52.74748,1375.0387],[91.32645,52.79874,530.6611],[91.39631,52.86799,705.9506],[91.40799,52.94705,924.057],[91.37792,53.02364,662.7993],[91.35115,53.07748,376.2573],[91.38474,53.09206,331.9392],[91.42174,53.10808,309.7648],[91.45047,53.10544,321.9051],[91.51196,53.10622,333.5704],[91.57387,53.12224,332.6069],[91.65986,53.15849,289.1129],[91.72735,53.1968,293.0931],[91.78564,53.23629,278.0],[91.84125,53.28827,279.8085],[91.84641,53.35194,324.7035],[91.81861,53.38739,275.5271],[91.74399,53.44671,311.0621],[91.72601,53.45346,362.7859],[91.65283,53.48077,390.3958],[91.55021,53.47999,414.6725],[91.46969,53.51389,378.6204],[91.46587,53.53647,371.5649],[91.47238,53.56727,306.7607],[91.4544,53.60613,298.6431],[91.41347,53.66791,253.094],[91.33327,53.75765,252.533],[91.32655,53.81666,249.0344],[91.36221,53.85527,275.7001],[91.42163,53.89299,290.2941],[91.46515,53.96603,237.0],[91.46391,54.05655,486.5464],[91.41244,54.11654,294.1459],[91.36582,54.16589,246.9304],[91.31167,54.22289,330.2391],[91.25172,54.27483,335.2922],[91.20955,54.33823,302.1057],[91.19798,54.3849,347.5809],[91.18671,54.43885,239.931],[91.15901,54.48789,369.6252],[91.09473,54.5238,526.6599],[90.96637,54.57465,361.9867],[90.85495,54.62674,314.0432],[90.87066,54.66374,232.0],[90.91531,54.79107,232.0],[90.84048,54.83888,246.0369],[90.71491,54.83118,325.452],[90.72349,54.87125,309.9975],[90.68483,54.90466,341.0114],[90.53404,54.88549,526.1237],[90.45828,54.87076,464.4474],[90.44846,54.89463,479.4822],[90.48267,54.92781,448.4555],[90.47017,54.95238,414.0078],[90.43554,55.01633,417.8932],[90.36589,55.04703,341.8911],[90.26243,55.04997,346.2322],[90.22884,55.06628,348.6561],[90.23721,55.10553,359.1694],[90.19587,55.15141,427.1287],[90.14657,55.137,356.1265],[90.12921,55.10522,354.5444],[90.0549,55.08858,529.6107],[90.00694,55.09808,563.3417],[89.904,55.0861,486.65],[89.82576,55.04873,454.6493],[89.72944,55.03354,538.1015],[89.65781,55.00308,423.8656],[89.62702,55.03147,592.7283],[89.56728,55.05803,564.2807],[89.55002,55.04636,598.9489],[89.44718,55.03855,465.4489],[89.42537,54.98605,676.237],[89.39168,54.97365,667.4496],[89.34672,54.99969,603.7051],[89.20079,54.99039,779.6971],[89.14735,55.0763,802.6345],[89.0379,55.08413,668.3099],[89.06705,55.13201,648.7994],[88.96607,55.18477,779.4556],[88.96979,55.23118,865.1392],[88.95016,55.28908,771.7612],[88.87688,55.30954,697.9452],[88.82221,55.34747,737.3295],[88.75978,55.34409,765.8907]]]}}