{"type":"Feature","properties":{"GID_2":"RUS.28.8_1","GID_0":"RUS","country":"Russia","GID_1":"RUS.28_1","province":"Khabarovsk","NL_NAME_1":"Хабаровскийкрай","county":"Khabarovsk","VARNAME_2":"NA","NL_NAME_2":"Хабаровск","TYPE_2":"Gorod","ENGTYPE_2":"City","CC_2":"NA","HASC_2":"RU.KH.KG","name":"Khabarovsk.county"},
"geometry":{"type": "MultiPolygon","coordinates": [[[[135.0857,48.3742,50.6344],[135.1233,48.412,61.4848],[135.0984,48.4523,41.1941],[135.0402,48.4613,31.0],[134.9807,48.4169,34.9821],[135.0098,48.3784,34.1607],[135.044,48.3719,40.5272],[135.0857,48.3742,50.6344]]]]}}