{"type":"Feature","properties":{"GID_2":"RUS.2.67_1","GID_0":"RUS","country":"Russia","GID_1":"RUS.2_1","province":"Altay","NL_NAME_1":"Алтайскийкрай","county":"Zmeinogorskiyrayon","VARNAME_2":"NA","NL_NAME_2":"Змеиногорскийрайон","TYPE_2":"Raion","ENGTYPE_2":"District","CC_2":"R53091","HASC_2":"RU.AL.ZN","name":"Zmeinogorskiyrayon.county"},
"geometry":{"type": "MultiPolygon","coordinates": [[[[83.0849,51.0063,1406.0736],[83.0806,51.0073,1378.3192],[83.0215,51.0401,1687.7731],[82.9916,51.0946,1343.347],[82.9345,51.0579,1508.6885],[82.9135,51.0544,1508.1813],[82.8933,51.0596,1279.6149],[82.8971,51.0782,959.012],[82.9107,51.1049,857.3256],[82.9277,51.1445,652.9168],[82.9395,51.2096,874.9346],[82.9022,51.2328,747.4954],[82.875,51.2094,773.867],[82.8637,51.1774,781.1918],[82.8327,51.1458,700.842],[82.7757,51.1223,739.2259],[82.7324,51.1255,702.9363],[82.6391,51.1364,622.8881],[82.5572,51.1482,541.1161],[82.453,51.2062,688.993],[82.3808,51.2658,637.3063],[82.3094,51.3132,485.5897],[82.2781,51.3126,511.6356],[82.2368,51.3433,359.2584],[82.1899,51.3665,336.5],[82.1281,51.3598,351.0898],[82.0894,51.4108,344.405],[82.0881,51.4266,327.8807],[82.097,51.4499,326.218],[82.1272,51.4825,318.9137],[82.0961,51.5007,296.3463],[82.0532,51.4887,286.6352],[82.0213,51.4889,283.5134],[81.9525,51.5195,284.2656],[81.9621,51.5477,276.0247],[81.9543,51.5643,261.8997],[81.8709,51.5319,245.3891],[81.8204,51.5231,286.891],[81.8389,51.4838,268.0313],[81.8273,51.441,295.8611],[81.8042,51.4096,327.4602],[81.793,51.3981,344.6911],[81.7493,51.4009,307.575],[81.726,51.3797,352.0753],[81.7571,51.317,395.2343],[81.747,51.2746,385.1567],[81.727,51.2625,394.3992],[81.7094,51.2679,389.7413],[81.6821,51.2489,361.6953],[81.7593,51.1971,311.5135],[81.832,51.1673,368.2272],[81.8976,51.1589,402.7274],[81.9999,51.136,298.3865],[82.0808,51.1397,341.7778],[82.1224,51.092,450.3572],[82.1808,51.017,344.8753],[82.2153,50.9548,436.4217],[82.2514,50.9477,357.4462],[82.3129,50.9801,418.3042],[82.3985,50.9824,471.8188],[82.4711,50.9806,538.5783],[82.5326,50.9701,554.459],[82.5584,50.9859,637.3185],[82.539,51.0223,620.5311],[82.608,51.0386,790.7781],[82.6591,51.0113,841.7987],[82.6823,50.9727,790.621],[82.7376,50.9658,740.8764],[82.7901,50.9651,765.3637],[82.8036,50.9407,977.7417],[82.8477,50.9289,1004.5771],[82.9053,50.9199,1015.6298],[82.9358,50.9171,679.7125],[82.9597,50.9179,728.5898],[82.976,50.9224,747.0393],[82.9859,50.928,843.6743],[83.003,50.9462,719.1432],[83.0145,50.9543,710.9568],[83.0219,50.9557,801.9901],[83.0243,50.9588,808.0975],[83.0488,50.9708,854.6145],[83.0752,50.9912,1070.5017],[83.0849,51.0063,1406.0736]]]]}}