{"type":"Feature","properties":{"GID_2":"RUS.28.22_1","GID_0":"RUS","country":"Russia","GID_1":"RUS.28_1","province":"Khabarovsk","NL_NAME_1":"Хабаровскийкрай","county":"Verkhnebureinskiyrayon","VARNAME_2":"NA","NL_NAME_2":"Верхнебуреинскийрайон","TYPE_2":"Raion","ENGTYPE_2":"District","CC_2":"R67090","HASC_2":"RU.KH.VE","name":"Verkhnebureinskiyrayon.county"},
"geometry":{"type": "MultiPolygon","coordinates": [[[[131.3881,49.2532,839.1657],[131.4811,49.2264,695.953],[131.5541,49.2642,646.4785],[131.6014,49.2831,896.5048],[131.6534,49.2944,627.1334],[131.7533,49.3425,793.6053],[131.7926,49.3407,878.6703],[131.8555,49.3272,805.359],[131.9064,49.2851,994.8515],[131.9727,49.2956,977.363],[131.9664,49.3675,893.3664],[132.0189,49.3886,930.0908],[132.0408,49.4593,815.6398],[132.149,49.4893,813.6678],[132.2043,49.4761,1071.2825],[132.2708,49.4357,955.0827],[132.3771,49.4134,1192.1963],[132.4072,49.3688,1110.9583],[132.3872,49.3197,1071.5437],[132.4668,49.2798,1084.8179],[132.553,49.3116,756.5886],[132.6508,49.2928,637.5928],[132.6994,49.3007,638.3641],[132.739,49.3229,541.5938],[132.7525,49.361,754.6807],[132.7583,49.4281,490.5966],[132.7836,49.4693,673.7067],[132.8468,49.4987,501.0623],[132.8076,49.5395,575.748],[132.8126,49.5987,784.7234],[132.7247,49.6203,767.0839],[132.7421,49.6733,658.2274],[132.75,49.7377,792.8853],[132.8501,49.7343,787.6495],[132.9644,49.8256,521.5086],[133.0207,49.8979,1034.7515],[133.1185,49.886,554.7025],[133.1488,49.9265,585.3189],[133.1456,49.953,573.7021],[133.1041,50.0149,699.1597],[133.2053,49.9947,529.5036],[133.2786,50.0235,489.6342],[133.3307,50.1074,727.2224],[133.3772,50.1576,669.1678],[133.4578,50.191,596.7787],[133.4905,50.1278,586.5615],[133.558,50.1107,771.041],[133.6568,50.1406,581.8215],[133.7217,50.1762,1050.3207],[133.8173,50.1674,802.4413],[133.8344,50.1951,1009.53],[133.9791,50.2312,1113.6012],[133.9224,50.2745,1222.4904],[133.9764,50.3169,1512.0598],[134.0602,50.2864,1333.2274],[134.1181,50.313,1491.4836],[134.1676,50.3007,1650.7404],[134.2584,50.3238,1769.3359],[134.3011,50.2872,1762.6139],[134.3429,50.3491,1523.3319],[134.4489,50.4137,1616.2251],[134.4718,50.466,1785.8043],[134.5081,50.4951,1607.849],[134.6274,50.5088,1144.7615],[134.6508,50.487,1561.8435],[134.699,50.4656,1552.1537],[134.9341,50.4607,1395.8992],[134.9589,50.4836,926.4073],[134.9805,50.5322,1203.2944],[135.0179,50.5855,1143.9277],[135.1024,50.6165,873.2993],[135.1461,50.6789,1132.2998],[135.2349,50.7289,1206.413],[135.2424,50.7613,1074.4924],[135.0931,50.8705,1586.7899],[135.067,50.9223,1224.1392],[135.0398,50.9859,872.9502],[134.9708,51.0387,737.0355],[134.9908,51.0925,927.0646],[134.9687,51.1212,660.5263],[134.8387,51.1483,687.3763],[134.8126,51.1835,756.5913],[134.7579,51.2433,328.4324],[134.6786,51.2903,371.7046],[134.5673,51.3442,469.1479],[134.56,51.3995,878.6387],[134.6068,51.4336,844.6312],[134.677,51.4977,1301.4905],[134.7811,51.5229,1259.0529],[134.8584,51.5774,1467.8398],[134.9608,51.6155,1540.4652],[134.919,51.6409,1289.6632],[134.9161,51.6846,1308.6354],[134.8812,51.7127,1071.7255],[134.8176,51.7353,880.7109],[134.8719,51.8284,942.4888],[134.9055,51.8363,891.017],[134.9536,51.8431,1216.8473],[135.007,51.8886,1151.8064],[135.0533,51.9546,1162.6283],[135.0369,52.0127,1360.3655],[134.9565,52.0635,1084.2695],[134.8274,52.0926,1504.4932],[134.7948,52.1251,1241.51],[134.7366,52.1133,1084.0331],[134.7166,52.0765,1153.1158],[134.6616,52.0489,1548.2363],[134.6473,52.0102,1186.1584],[134.5718,52.018,1080.7063],[134.571,52.0496,1658.6294],[134.5393,52.0721,1422.6637],[134.5248,52.1064,1627.9987],[134.551,52.1525,1613.5803],[134.5432,52.2022,1246.1344],[134.4827,52.2307,1054.2997],[134.443,52.2675,1475.7745],[134.4981,52.3099,1566.1641],[134.5266,52.3658,1510.1697],[134.5115,52.4134,1737.2317],[134.4415,52.4399,1643.4275],[134.3627,52.4443,1389.2635],[134.2672,52.444,1493.1956],[134.2208,52.4663,1815.3997],[134.0634,52.4651,1454.5498],[133.9837,52.505,1384.5469],[133.8646,52.5121,1568.2697],[133.8145,52.5417,1204.2776],[133.7147,52.563,1578.6912],[133.6467,52.5672,1284.7491],[133.5334,52.6022,1120.511],[133.4552,52.6367,1157.9812],[133.3406,52.6666,1149.3699],[133.276,52.6662,1275.9575],[133.2085,52.6097,1006.3835],[133.2307,52.5401,896.9997],[133.2881,52.4972,920.5912],[133.2217,52.4529,1139.3799],[133.2415,52.3998,975.2195],[133.3416,52.3519,944.2243],[133.3932,52.2912,1093.1311],[133.3757,52.236,1035.5054],[133.2861,52.1822,1368.6831],[133.1867,52.1544,1029.2571],[133.0124,52.1616,1149.9034],[132.932,52.151,1125.8389],[132.8904,52.1534,1158.2991],[132.8508,52.1674,1035.6879],[132.7484,52.133,1006.903],[132.6117,52.0656,935.1322],[132.5542,52.034,678.9247],[132.51,52.0032,446.8626],[132.4733,51.9547,558.7035],[132.4105,51.9392,401.7882],[132.4017,51.8848,412.9238],[132.383,51.8397,446.9969],[132.3188,51.7941,561.1584],[132.2366,51.7705,620.2349],[132.2012,51.7758,622.2682],[132.1057,51.7392,812.3461],[132.034,51.7407,692.3812],[131.997,51.7393,945.4706],[131.9368,51.7096,862.9539],[131.8685,51.7192,813.2039],[131.7924,51.6833,961.0484],[131.6994,51.664,951.7424],[131.6148,51.6541,1416.0249],[131.4857,51.6733,847.3094],[131.4505,51.6499,940.6147],[131.4768,51.6214,785.9001],[131.4365,51.5651,633.8594],[131.4572,51.5171,643.5548],[131.5237,51.4275,705.3564],[131.5198,51.3923,739.949],[131.495,51.3606,1075.3044],[131.4178,51.3575,933.9845],[131.3645,51.3641,742.5449],[131.3152,51.325,815.2972],[131.2653,51.2577,864.7534],[131.2132,51.2325,588.7032],[131.1581,51.2325,798.2783],[131.112,51.2277,611.0394],[131.0449,51.1234,802.7334],[130.9796,51.0106,656.2725],[130.928,50.9862,624.7628],[130.8466,50.9701,730.6539],[130.8024,50.9485,961.6394],[130.821,50.9186,879.9439],[130.8577,50.8851,1090.0186],[130.862,50.8556,880.3896],[130.8258,50.8336,815.5094],[130.7906,50.7942,825.5667],[130.762,50.7426,723.3666],[130.7469,50.7061,681.9019],[130.7092,50.6885,848.46],[130.7169,50.643,614.0168],[130.7602,50.6207,688.0928],[130.8785,50.6746,649.63],[130.9447,50.6753,460.5387],[130.9911,50.6408,601.0547],[131.0282,50.5921,466.7253],[131.0316,50.5368,413.1667],[130.977,50.4975,326.6985],[130.9338,50.4638,281.924],[130.9238,50.4177,314.1395],[130.9885,50.3886,246.0],[131.0317,50.4012,397.1511],[131.0611,50.4172,262.9465],[131.1518,50.4069,309.0026],[131.1678,50.3767,328.7162],[131.2197,50.3715,411.6522],[131.2825,50.393,641.1486],[131.3086,50.3284,665.0304],[131.3087,50.2982,503.6197],[131.418,50.2757,553.2113],[131.4315,50.2282,578.3438],[131.4798,50.2108,399.639],[131.4999,50.1701,524.2616],[131.459,50.1198,426.6046],[131.4088,50.0854,562.7794],[131.415,50.0613,575.0123],[131.4805,50.0515,520.3672],[131.4979,50.0117,507.2955],[131.4819,49.9665,373.3876],[131.5405,49.9124,397.562],[131.5387,49.8879,447.905],[131.5128,49.8508,474.7079],[131.5028,49.8278,456.2148],[131.5311,49.7996,425.4111],[131.5192,49.7621,470.8075],[131.4673,49.7315,478.5342],[131.4352,49.7206,445.7939],[131.4028,49.6847,408.669],[131.4317,49.6533,440.7467],[131.4808,49.6153,391.1396],[131.5078,49.5673,414.2067],[131.5032,49.5113,411.291],[131.4966,49.4822,502.6378],[131.5082,49.4351,516.4587],[131.5097,49.3902,641.7387],[131.4895,49.3484,593.2581],[131.4756,49.2995,577.6064],[131.45,49.2665,632.98],[131.3881,49.2532,839.1657]]]]}}