{"type":"Feature","properties":{"GID_2":"RUS.30.18_1","GID_0":"RUS","country":"Russia","GID_1":"RUS.30_1","province":"Khanty-Mansiy","NL_NAME_1":"Ханты-МансийскийАОк","county":"Raduga","VARNAME_2":"NA","NL_NAME_2":"NA","TYPE_2":"Gorod","ENGTYPE_2":"City","CC_2":"NA","HASC_2":"RU.KM.RA","name":"Raduga.county"},
"geometry":{"type": "MultiPolygon","coordinates": [[[[77.5023,62.0912,68.0049],[77.527,62.1064,69.1051],[77.4833,62.1503,65.6018],[77.3953,62.1364,68.3736],[77.3734,62.0995,67.22],[77.4364,62.0807,66.4478],[77.5023,62.0912,68.0049]]]]}}