{"type":"Feature","properties":{"GID_3":"RUS.28.17.1_1","GID_0":"RUS","country":"Russia","GID_1":"RUS.28_1","province":"Khabarovsk","NL_NAME_1":"Хабаровскийкрай","GID_2":"RUS.28.17_1","county":"SovetskayaGavan","NL_NAME_2":"СоветскаяГавань","city":"NA","VARNAME_3":"NA","NL_NAME_3":"NA","TYPE_3":"NA","ENGTYPE_3":"NA","CC_3":"NA","HASC_3":"NA","name":"N_A.city"},
"geometry":{"type": "MultiPolygon","coordinates": [[[[140.3503,48.9537,123.9872],[140.3493,48.9655,59.1862],[140.3359,48.9741,82.9915],[140.311,48.9731,54.0761],[140.2948,48.9613,35.8781],[140.2928,48.9491,31.6234],[140.3165,48.935,83.6884],[140.3279,48.9333,179.1982],[140.3503,48.9537,123.9872]]]]}}