{"type":"Feature","properties":{"GID_3":"RUS.35.37.1_1","GID_0":"RUS","country":"Russia","GID_1":"RUS.35_1","province":"Krasnoyarsk","NL_NAME_1":"Красноярскийкрай","GID_2":"RUS.35.37_1","county":"Minusinskiyrayon","NL_NAME_2":"Минусинскийрайон","city":"NA","VARNAME_3":"NA","NL_NAME_3":"NA","TYPE_3":"NA","ENGTYPE_3":"NA","CC_3":"NA","HASC_3":"NA","name":"N_A.city"},
"geometry":{"type": "MultiPolygon","coordinates": [[[[91.7261,53.4535,362.7859],[91.7459,53.5055,261.2395],[91.8466,53.5289,289.2338],[91.9057,53.5591,315.7846],[92.0092,53.5734,357.6355],[92.0465,53.556,400.6183],[92.101,53.5528,579.872],[92.151,53.5775,363.8105],[92.2654,53.5685,372.0426],[92.3028,53.5951,447.5025],[92.379,53.6061,489.2337],[92.3758,53.6424,459.7118],[92.4908,53.6836,397.8758],[92.4344,53.7015,402.996],[92.3887,53.7211,370.3768],[92.362799999999993,53.7549,388.0461],[92.4107,53.7703,332.4716],[92.4204,53.7984,300.1112],[92.3854,53.8315,269.1297],[92.3378,53.851,347.0454],[92.2576,53.8424,292.8271],[92.1942,53.8424,275.9726],[92.1816,53.879,257.6455],[92.1496,53.9114,298.8658],[92.0626,53.9169,253.4256],[92.0008,53.8821,328.2873],[91.9423,53.8877,332.9671],[91.9327,53.9556,247.2046],[91.9022,53.968,246.362],[91.8424,53.9644,244.2655],[91.7986,53.9436,240.9267],[91.7727,53.8812,305.343],[91.684,53.8744,437.5085],[91.6086,53.8914,422.382],[91.5113,53.8956,239.0168],[91.4423,53.8645,237.6682],[91.3622,53.8553,275.7001],[91.3266,53.8167,249.0344],[91.3333,53.7577,252.533],[91.4135,53.668,253.094],[91.4544,53.6062,298.6431],[91.4724,53.5673,306.7607],[91.4659,53.5365,371.5649],[91.4697,53.5139,378.6204],[91.5502,53.48,414.6725],[91.6528,53.4808,390.3958],[91.7261,53.4535,362.7859]],
[[91.4528,53.7017,248.8637],[91.4439,53.6974,249.0782],[91.4251,53.6989,249.8798],[91.4303,53.7145,250.3651],[91.4395,53.7174,253.2901],[91.4508,53.711,248.9905],[91.4528,53.7017,248.8637]],
[[91.7098,53.7309,269.0936],[91.6889,53.725,262.5128],[91.6612,53.7281,285.2674],[91.6486,53.7409,397.29],[91.6452,53.7573,461.9239],[91.6537,53.7695,442.1568],[91.6828,53.7716,335.2609],[91.719,53.7518,317.2185],[91.7098,53.7309,269.0936]]]]}}