{"type":"Feature","properties":{"GID_2":"RUS.9.17_1","GID_0":"RUS","country":"Russia","GID_1":"RUS.9_1","province":"Buryat","NL_NAME_1":"РеспубликаБурятия","county":"Severobaykal'sk","VARNAME_2":"Severobaykalsk","NL_NAME_2":"Северобайкальск","TYPE_2":"Raion","ENGTYPE_2":"District","CC_2":"NA","HASC_2":"RU.BU.SR","name":"Severobaykal'sk.county"},
"geometry":{"type": "MultiPolygon","coordinates": [[[[109.3161,55.6188,467.089],[109.3238,55.6291,500.586],[109.318,55.6368,516.1233],[109.3087,55.6412,521.543],[109.2784,55.6392,479.2727],[109.2831,55.6163,503.0113],[109.3033,55.614,475.2495],[109.3161,55.6188,467.089]]]]}}