{"type":"Feature","properties":{"GID_2":"RUS.71.10_1","GID_0":"RUS","country":"Russia","GID_1":"RUS.71_1","province":"Tuva","NL_NAME_1":"РеспубликаТыва","county":"Mongun-Tayginskiyrayon","VARNAME_2":"NA","NL_NAME_2":"Монгун-Тайгинскийрайон","TYPE_2":"Raion","ENGTYPE_2":"District","CC_2":"R61000","HASC_2":"RU.TU.MO","name":"Mongun-Tayginskiyrayon.county"},
"geometry":{"type": "MultiPolygon","coordinates": [[[[89.9895,50.0051,1886.8728],[90.0047,50.0115,1949.1279],[90.0267,50.0169,1914.9744],[90.0361,50.0244,2004.2466],[90.0867,50.0377,1952.4496],[90.0981,50.0381,1950.0492],[90.1314,50.0323,1837.8824],[90.1447,50.0316,1838.9221],[90.1905,50.0355,1867.8447],[90.2018,50.0339,1884.4878],[90.2377,50.0181,1862.8715],[90.2517,50.0155,1879.7017],[90.2643,50.0157,1905.9227],[90.2741,50.0181,1853.4606],[90.2834,50.0251,1832.929],[90.2875,50.0323,1857.0159],[90.2912,50.0567,2077.4873],[90.2969,50.0757,2184.166],[90.3038,50.0864,2172.3806],[90.3275,50.1145,2193.4509],[90.3573,50.1387,2246.7795],[90.3683,50.1445,2294.3848],[90.4181,50.1549,2513.6631],[90.4627,50.1605,2707.8125],[90.4883,50.1687,2741.2542],[90.5123,50.1702,2781.5806],[90.5422,50.1775,2652.4756],[90.5671,50.1791,2318.479],[90.5829,50.1783,2201.0034],[90.6162,50.1725,2093.4763],[90.6474,50.1645,1845.4741],[90.6579,50.1635,1820.7729],[90.6625,50.1636,1806.551],[90.6754,50.1683,1838.5615],[90.6811,50.1737,1760.5422],[90.6841,50.1819,1806.6396],[90.6837,50.1869,1829.8815],[90.6761,50.1977,1849.6876],[90.6762,50.2006,1862.5972],[90.6516,50.2568,1733.8485],[90.6134,50.3338,2364.8457],[90.6253,50.3976,2473.8562],[90.6725,50.4422,2354.9907],[90.6493,50.4896,2147.8604],[90.5914,50.5498,2593.2808],[90.58,50.589,2385.9204],[90.5733,50.6453,2162.4421],[90.5273,50.6673,2335.7275],[90.4792,50.604,2983.0474],[90.4433,50.5914,2886.0374],[90.3978,50.6012,2760.188],[90.3317,50.5829,2533.5024],[90.2738,50.5495,3089.0771],[90.2009,50.579,2675.6201],[90.0689,50.5581,2718.4634],[89.9624,50.4946,2882.0867],[89.8586,50.5433,3005.8174],[89.7738,50.5425,2879.1611],[89.7612,50.5359,2816.7959],[89.8428,50.502,2570.436],[89.8659,50.4593,2276.7915],[89.8508,50.4196,2416.1082],[89.7967,50.3743,2307.5493],[89.7104,50.3502,2457.9219],[89.6342,50.356,2439.2686],[89.5913,50.3734,2222.9255],[89.5409,50.4508,2288.4509],[89.4855,50.4594,2216.5659],[89.4847,50.4154,2248.7666],[89.5274,50.3578,2497.0549],[89.5115,50.3403,2446.7361],[89.4473,50.3266,2560.0229],[89.4023,50.311,2873.4783],[89.3885,50.2787,2769.3472],[89.3668,50.2616,2764.1355],[89.3271,50.2361,2941.1294],[89.3318,50.1992,2925.3889],[89.49,50.1782,2784.8955],[89.5149,50.1328,2869.6694],[89.546,50.1096,2775.3191],[89.5835,50.0954,2803.1052],[89.6078,50.0584,2573.6311],[89.5882,50.0133,3122.2192],[89.5762,49.9906,3001.9072],[89.6057,49.9672,3112.2715],[89.6053,49.9466,2968.772],[89.6076,49.9591,3059.6013],[89.6133,49.968,3160.2969],[89.6207,49.974,3214.2017],[89.6389,49.9789,2800.7881],[89.6649,49.9805,3201.8071],[89.6943,49.975,2686.0076],[89.7103,49.9752,2802.405],[89.7193,49.9775,3185.479],[89.7445,49.9948,3198.4539],[89.7531,49.9983,3266.9773],[89.7651,50.0001,3122.4153],[89.7803,49.9975,2942.8271],[89.8365,49.9981,3196.3237],[89.8428,49.9949,2943.3911],[89.8557,49.9921,2720.0398],[89.9008,49.9846,2137.1851],[89.9305,49.9855,2113.8711],[89.9533,49.9899,2027.709],[89.9716,49.9955,1971.9261],[89.9895,50.0051,1886.8728]]]]}}