{"type":"Feature","properties":{"GID_2":"RUS.71.2_1","GID_0":"RUS","country":"Russia","GID_1":"RUS.71_1","province":"Tuva","NL_NAME_1":"РеспубликаТыва","county":"Bay-Tayginskiyrayon","VARNAME_2":"NA","NL_NAME_2":"Бай-Тайгинскийрайон","TYPE_2":"Raion","ENGTYPE_2":"District","CC_2":"R61000","HASC_2":"RU.TU.BT","name":"Bay-Tayginskiyrayon.county"},
"geometry":{"type": "MultiPolygon","coordinates": [[[[89.7612,50.5359,2816.7959],[89.7738,50.5425,2879.1611],[89.8586,50.5433,3005.8174],[89.9624,50.4946,2882.0867],[90.0689,50.5581,2718.4634],[90.2009,50.579,2675.6201],[90.2738,50.5495,3089.0771],[90.3317,50.5829,2533.5024],[90.3978,50.6012,2760.188],[90.4433,50.5914,2886.0374],[90.4792,50.604,2983.0474],[90.5273,50.6673,2335.7275],[90.4864,50.6869,1910.4302],[90.4489,50.7291,1819.1445],[90.3956,50.7671,1723.8489],[90.3138,50.8331,1696.832],[90.2864,50.8817,1359.0601],[90.3019,50.9186,1133.2411],[90.2964,50.9711,1004.626],[90.2401,51.0142,971.6614],[90.2117,51.0822,928.4768],[90.1594,51.1237,999.6501],[90.1737,51.165,1371.3074],[90.1503,51.1944,2032.7438],[90.0802,51.2128,2277.9731],[90.0166,51.1816,2141.2944],[89.9371,51.1609,2225.3689],[89.8689,51.1878,2077.6448],[89.7667,51.2084,2142.1597],[89.7779,51.2735,1449.8973],[89.7326,51.3118,1608.3149],[89.621,51.3174,1823.1111],[89.5731,51.3757,2064.1023],[89.667,51.4583,2176.0759],[89.6726,51.4727,2217.4795],[89.5871,51.5217,2374.925],[89.5508,51.5236,2058.6304],[89.4854,51.5467,1960.907],[89.442,51.5747,2211.3218],[89.3148,51.5581,2313.2749],[89.2325,51.5228,1915.1858],[89.17,51.5396,2429.7812],[89.215,51.6016,2251.3994],[89.1999,51.6287,2563.4082],[89.0231,51.6013,2327.8989],[88.9815,51.5645,2421.2756],[88.9185,51.5505,2550.0493],[88.8078,51.5518,2383.1655],[88.7881,51.5414,2417.1724],[88.81,51.538,2332.5381],[88.8477,51.5104,2529.0005],[88.8654,51.4686,2648.3169],[88.9272,51.4341,2071.3787],[88.9704,51.4172,1935.5819],[88.9939,51.3917,2104.7273],[88.977,51.3566,2399.4146],[88.9563,51.3247,2158.5256],[88.9358,51.2864,2120.7625],[88.9969,51.1886,2339.9998],[89.0451,51.1415,2738.1318],[89.0352,51.1024,2783.6838],[89.037,51.0579,2307.2556],[89.0853,51.0256,2335.6379],[89.141,51.0042,2594.5488],[89.1881,50.9811,2696.3865],[89.2007,50.9172,2254.1785],[89.2913,50.861,2360.3223],[89.3662,50.8647,2563.9062],[89.386,50.8499,2736.1455],[89.3918,50.816,2784.9905],[89.4271,50.7859,2523.0588],[89.4966,50.7526,2536.2039],[89.5417,50.7234,2523.2744],[89.5413,50.6842,2414.0376],[89.5593,50.6468,2657.6636],[89.6186,50.6236,2663.469],[89.6438,50.6101,3069.5559],[89.6554,50.586,2874.1577],[89.706,50.5563,2686.1924],[89.7612,50.5359,2816.7959]]]]}}