{"type":"Feature","properties":{"GID_3":"RUS.35.2.1_1","GID_0":"RUS","country":"Russia","GID_1":"RUS.35_1","province":"Krasnoyarsk","NL_NAME_1":"Красноярскийкрай","GID_2":"RUS.35.2_1","county":"Achinskiyrayon","NL_NAME_2":"Ачинскийрайон","city":"NA","VARNAME_3":"NA","NL_NAME_3":"NA","TYPE_3":"NA","ENGTYPE_3":"NA","CC_3":"NA","HASC_3":"NA","name":"N_A.city"},
"geometry":{"type": "MultiPolygon","coordinates": [[[[90.9291,55.9572,294.9729],[90.9283,56.0048,249.8387],[90.8983,56.0382,254.1657],[90.8773,56.0796,359.0944],[90.9087,56.1179,416.8837],[90.9575,56.1576,332.4625],[90.9808,56.1999,315.489],[90.9467,56.2587,308.9154],[90.9968,56.2966,267.8484],[91.0814,56.3464,326.2132],[91.1715,56.3387,312.923],[91.2396,56.3375,337.0432],[91.2744,56.3824,340.9951],[91.2556,56.4232,390.5279],[91.2184,56.4947,359.4467],[91.2371,56.5201,337.0728],[91.1534,56.5136,333.1544],[91.0708,56.5109,302.2348],[90.8655,56.4911,226.9178],[90.779,56.4704,233.7138],[90.7145,56.4496,249.0053],[90.6644,56.4217,286.6553],[90.6254,56.3927,280.0137],[90.6055,56.3755,279.4521],[90.5018,56.3707,296.0263],[90.4478,56.3846,194.489],[90.4238,56.4332,189.9734],[90.4289,56.4723,199.0854],[90.3783,56.4966,193.5088],[90.3457,56.516,198.2361],[90.2476,56.5133,227.0371],[90.1221,56.4944,265.498],[90.0285,56.4781,262.6185],[89.9523,56.4614,249.883],[89.9576,56.4113,238.3769],[89.9639,56.3851,220.1595],[90.0237,56.3589,238.8269],[90.0895,56.3351,213.2184],[90.1505,56.2925,241.3296],[90.1718,56.2308,201.2027],[90.1645,56.1815,220.2452],[90.1663,56.1421,422.063],[90.1606,56.1039,436.0588],[90.1254,56.0815,238.0611],[90.1497,56.0505,246.373],[90.2149,56.0184,255.6865],[90.3139,56.0011,283.4093],[90.427,56.0281,238.7249],[90.5031,56.0225,243.1132],[90.6487,55.9675,249.9552],[90.7383,55.9592,307.9214],[90.8049,55.9793,306.0838],[90.8803,55.9753,290.7539],[90.9291,55.9572,294.9729]]]]}}