{"type":"Feature","properties":{"GID_2":"RUS.71.1_1","GID_0":"RUS","country":"Russia","GID_1":"RUS.71_1","province":"Tuva","NL_NAME_1":"РеспубликаТыва","county":"Barun-Khemchikskiyrayon","VARNAME_2":"NA","NL_NAME_2":"Барун-Хемчикскийрайон","TYPE_2":"Raion","ENGTYPE_2":"District","CC_2":"R61000","HASC_2":"RU.TU.BK","name":"Barun-Khemchikskiyrayon.county"},
"geometry":{"type": "MultiPolygon","coordinates": [[[[89.5871,51.5217,2374.925],[89.6726,51.4727,2217.4795],[89.667,51.4583,2176.0759],[89.5731,51.3757,2064.1023],[89.621,51.3174,1823.1111],[89.7326,51.3118,1608.3149],[89.7779,51.2735,1449.8973],[89.7667,51.2084,2142.1597],[89.8689,51.1878,2077.6448],[89.9371,51.1609,2225.3689],[90.0166,51.1816,2141.2944],[90.0802,51.2128,2277.9731],[90.1503,51.1944,2032.7438],[90.1737,51.165,1371.3074],[90.1594,51.1237,999.6501],[90.2117,51.0822,928.4768],[90.2401,51.0142,971.6614],[90.2964,50.9711,1004.626],[90.3019,50.9186,1133.2411],[90.2864,50.8817,1359.0601],[90.3138,50.8331,1696.832],[90.3956,50.7671,1723.8489],[90.4489,50.7291,1819.1445],[90.4864,50.6869,1910.4302],[90.5733,50.6453,2162.4421],[90.58,50.589,2385.9204],[90.5914,50.5498,2593.2808],[90.6222,50.518,1810.951],[90.7447,50.53,2426.8201],[90.9505,50.5435,2779.2427],[91.1113,50.5602,2407.9233],[91.0754,50.588,2230.0552],[91.0174,50.6372,1895.3408],[90.9419,50.7622,2070.4346],[90.8917,50.783,2003.25],[90.9034,50.8269,2283.7234],[90.8636,50.8626,1849.5107],[90.8764,50.8777,1441.652],[90.8812,50.921,1358.7853],[90.8271,50.9609,1299.7853],[90.864,51.0489,1158.3042],[90.8247,51.1059,993.1723],[90.8031,51.1505,1158.0909],[90.7968,51.2094,843.8751],[90.7665,51.2634,865.989],[90.7492,51.3008,1069.2905],[90.683,51.2958,1251.2037],[90.6294,51.3318,902.5366],[90.6336,51.3637,1255.8173],[90.6152,51.3973,1136.9785],[90.5411,51.4323,1627.5909],[90.4773,51.5015,2074.4666],[90.4944,51.5374,1656.1895],[90.4838,51.5642,1824.085],[90.3971,51.6173,1867.2224],[90.4391,51.7435,2466.9795],[90.3842,51.792,2602.23],[90.3084,51.7822,2242.8516],[90.2575,51.8301,1950.3175],[90.1995,51.8265,2184.488],[90.1181,51.7568,2243.6379],[90.061,51.743,2359.769],[90.0198,51.7131,2291.02],[89.984,51.7199,2075.0671],[89.8809,51.6951,2248.3989],[89.8577,51.653,2236.8999],[89.7586,51.6099,1878.8416],[89.7257,51.5604,2325.2495],[89.6227,51.5197,2227.9243],[89.5871,51.5217,2374.925]]]]}}