{"type":"Feature","properties":{"GID_3":"RUS.2.6.1_1","GID_0":"RUS","country":"Russia","GID_1":"RUS.2_1","province":"Altay","NL_NAME_1":"Алтайскийкрай","GID_2":"RUS.2.6_1","county":"Belokurikha","NL_NAME_2":"Белокуриха","city":"NA","VARNAME_3":"NA","NL_NAME_3":"NA","TYPE_3":"NA","ENGTYPE_3":"NA","CC_3":"NA","HASC_3":"NA","name":"N_A.city"},
"geometry":{"type": "MultiPolygon","coordinates": [[[[84.9399,52.007,260.9238],[84.9334,52.0063,279.0027],[84.9333,52.0047,274.9693],[84.9336,52.0047,274.9693],[84.9399,52.007,260.9238]]]]}}