{"type":"Feature","properties":{"GID_2":"RUS.2.33_1","GID_0":"RUS","country":"Russia","GID_1":"RUS.2_1","province":"Altay","NL_NAME_1":"Алтайскийкрай","county":"Pavlovskiyrayon","VARNAME_2":"NA","NL_NAME_2":"Павловскийрайон","TYPE_2":"Raion","ENGTYPE_2":"District","CC_2":"R53093","HASC_2":"RU.AL.PA","name":"Pavlovskiyrayon.county"},
"geometry":{"type": "MultiPolygon","coordinates": [[[[83.3804,53.4298,131.4644],[83.3124,53.4402,131.4438],[83.2756,53.4627,131.4973],[83.2462,53.4938,143.3738],[83.2086,53.5143,132.1163],[83.1659,53.5173,126.1481],[83.1094,53.5153,129.5427],[83.022,53.5002,128.5978],[82.9948,53.5185,131.2738],[82.9381,53.5098,129.5362],[82.8449,53.5115,136.8999],[82.7688,53.5212,126.4325],[82.7492,53.493899999999996,140.9479],[82.8812,53.4122,235.278],[82.8581,53.3535,220.3012],[82.7123,53.3103,225.8257],[82.6751,53.3157,240.3533],[82.6432,53.2948,217.551],[82.5841,53.2677,216.0928],[82.5873,53.2466,216.3525],[82.6068,53.2244,209.5339],[82.6539,53.1831,207.1083],[82.6621,53.1507,220.8226],[82.7205,53.1261,208.389],[82.7448,53.0962,246.3799],[82.7355,53.0572,247.153],[82.7508,53.0334,244.7398],[82.8073,52.9983,213.7549],[82.9367,53.0615,215.6798],[83.1837,53.1527,197.8096],[83.3018,53.2006,201.4263],[83.4055,53.2497,214.0049],[83.4612,53.2711,213.3061],[83.4992,53.2786,214.9968],[83.5419,53.2933,197.9442],[83.4976,53.3269,245.368],[83.4577,53.3462,258.7412],[83.3822,53.3704,217.9623],[83.4463,53.3911,195.9896],[83.4508,53.4104,228.4989],[83.4088,53.4266,137.078],[83.3804,53.4298,131.4644]]]]}}