{"type":"Feature","properties":{"GID_2":"RUS.16.6_1","GID_0":"RUS","country":"Russia","GID_1":"RUS.16_1","province":"Gorno-Altay","NL_NAME_1":"РеспубликаАлтай","county":"Ongudayskiyrayon","VARNAME_2":"NA","NL_NAME_2":"Онгудайскийрайон","TYPE_2":"Raion","ENGTYPE_2":"District","CC_2":"R53010","HASC_2":"RU.GA.ON","name":"Ongudayskiyrayon.county"},
"geometry":{"type": "MultiPolygon","coordinates": [[[[86.3011,50.8827,1211.5056],[86.2355,50.932,881.7057],[86.1721,50.9732,1424.8329],[86.0936,50.9769,1843.0885],[86.0693,51.0036,1527.9802],[85.9728,51.0161,1454.0082],[85.9693,51.0548,1514.9039],[85.9502,51.0953,1098.3817],[85.9031,51.131,1369.0914],[85.8622,51.1489,1636.496],[85.8046,51.1515,1963.5334],[85.8039,51.1541,1829.5297],[85.7492,51.1356,1796.9315],[85.7059,51.1316,1732.7469],[85.672,51.1065,1769.6971],[85.5561,51.0851,1628.4995],[85.5373,51.0956,1521.8107],[85.5556,51.1186,1273.9746],[85.556,51.1374,1571.5361],[85.5183,51.1425,1645.9744],[85.487799999999993,51.1439,1568.3575],[85.4471,51.1094,1603.6919],[85.4206,51.0645,1421.9132],[85.3942,51.0356,1469.9633],[85.421,50.9719,1641.7903],[85.3439,50.9752,1349.3748],[85.2586,50.9764,1577.5073],[85.2266,50.9588,1518.0292],[85.2189,50.924,1289.3362],[85.2493,50.8946,1635.0488],[85.2582,50.8631,1428.0359],[85.2719,50.8425,1372.642],[85.3363,50.8169,1410.7976],[85.3785,50.8031,1212.2676],[85.3965,50.7822,1330.8173],[85.3597,50.7499,1394.8682],[85.356,50.7279,1478.5087],[85.3984,50.7132,1779.9457],[85.4389,50.7076,1687.1741],[85.4457,50.6889,1695.3129],[85.3825,50.636,1533.6796],[85.3793,50.5925,1494.46],[85.3523,50.5578,1528.9532],[85.3067,50.5335,1708.2804],[85.3138,50.498,1631.5833],[85.3571,50.4919,1826.2399],[85.4625,50.5133,1681.4929],[85.5089,50.5273,1577.5654],[85.559,50.5351,1620.0601],[85.5984,50.5603,1573.2582],[85.6591,50.5593,2030.907],[85.7059,50.5311,2191.0449],[85.7072,50.4985,2307.8901],[85.696,50.4679,2152.7471],[85.7176,50.4315,2279.8643],[85.7496,50.3947,2097.1455],[85.7673,50.34,1502.335],[85.8028,50.3889,2454.1021],[85.8306,50.4142,1730.5243],[85.9194,50.4534,2396.9124],[85.9844,50.4855,2354.6748],[86.0369,50.4776,2195.3218],[86.0655,50.4112,2213.335],[86.112,50.3949,2180.4749],[86.1275,50.3707,2105.1924],[86.1384,50.3469,1920.0378],[86.2195,50.3446,2315.1416],[86.2772,50.3241,2065.0708],[86.3744,50.2722,2764.4656],[86.399,50.237,2521.2749],[86.4695,50.2658,2508.7017],[86.527,50.2723,2467.73],[86.7305,50.243899999999996,1423.3845],[86.7497,50.2061,1759.4681],[86.7572,50.1733,943.5447],[86.776,50.1916,2045.2916],[86.8157,50.2172,1866.4722],[86.859,50.2133,2035.8717],[86.9278,50.2107,1752.8251],[86.9283,50.2369,1868.9004],[86.9668,50.2576,2316.7959],[86.9994,50.241,1958.0065],[87.0209,50.2231,1665.321],[87.0884,50.2249,2016.0986],[87.1387,50.2403,2326.3115],[87.218,50.2219,1843.4316],[87.2388,50.2058,2568.4536],[87.32,50.2239,2411.0403],[87.3272,50.2772,2029.3624],[87.3415,50.2967,2448.2146],[87.3569,50.3275,2353.613],[87.376,50.3504,1079.8099],[87.3985,50.4298,2044.0706],[87.3977,50.4895,2077.5735],[87.4392,50.5159,2119.7466],[87.4722,50.546,1870.9613],[87.4855,50.5979,1968.5298],[87.4585,50.6573,1703.3516],[87.4233,50.7241,2006.6815],[87.4002,50.7979,1936.8521],[87.3538,50.894,2249.1436],[87.3258,50.9773,1992.0703],[87.2814,51.0056,1787.0503],[87.2013,51.0752,2382.1392],[87.1444,51.1587,2249.2053],[87.0917,51.2241,2039.5056],[87.0414,51.1649,2192.2725],[87.0217,51.157,2198.801],[86.9721,51.1723,2178.6191],[86.9082,51.1813,1911.8525],[86.8256,51.1618,1974.5822],[86.7621,51.2089,1846.7268],[86.7288,51.2672,2138.5146],[86.6971,51.3164,1799.4956],[86.6652,51.331,1979.4169],[86.606,51.3292,1888.7986],[86.5907,51.2956,2289.0403],[86.5874,51.2663,1360.985],[86.5797,51.2327,2152.6624],[86.5629,51.212,2029.8811],[86.4821,51.1616,1923.3065],[86.4752,51.143,1687.5276],[86.4829,51.0992,1505.6532],[86.4957,51.0747,1824.972],[86.4924,51.0584,1726.389],[86.4277,51.0269,1594.5652],[86.4383,50.9918,1596.9637],[86.4484,50.9455,1961.0676],[86.4333,50.9118,1889.2726],[86.404,50.8894,801.8068],[86.3609,50.8773,665.2092],[86.3055,50.8795,1128.3851],[86.3011,50.8827,1211.5056]]]]}}