{"type":"Feature","properties":{"featurecla":"River","scalerank":6,"rivernum":261,"dissolve":"261River","name":"Biya1","name_alt":null,"note":null,"min_zoom":5.0,"strokeweig":0.25,"name_en":"Biya","min_label":6.0},
"geometry":{"type": "LineString","coordinates": [[87.391992187500023,51.761590887494116,433.5],[87.359082031250011,51.785907293744117,500.0193],[87.31640625,51.79572174686912,507.7083],[87.24755859375,51.79633209843162,666.2086],[87.238037109375,51.798358465619117,580.5031],[87.138769531250034,51.857196356244117,650.3245],[87.12841796875,51.86188385624412,535.2028],[87.119238281250034,51.864374090619116,533.0186],[87.111328125,51.868426824994117,527.1473],[87.104736328125,51.877704168744117,481.3281],[87.103125,51.887225653119117,472.4948],[87.10595703125,51.90900299686912,419.1631],[87.104736328125,51.91864655155662,401.8916],[87.096435546875,51.92853424686912,544.7159],[87.086523437500034,51.933856512494117,475.1569],[87.079003906250023,51.94025299686912,474.8285],[87.077246093750034,51.95343659061912,529.6929],[87.083251953125,51.96393463749412,422.0721],[87.094140625000023,51.96808502811912,421.9728],[87.106835937500023,51.970086981244116,392.064],[87.118261718750034,51.973895574994117,407.4383],[87.1357421875,51.990106512494116,488.3788],[87.133886718750034,52.00311920780662,394.4454],[87.104736328125,52.03534577030662,393.9996],[87.094482421875,52.057489324994116,398.1763],[87.094335937500034,52.075946356244117,384.724],[87.09765625,52.09467194218162,371.4957],[87.098535156250023,52.117938543744117,366.5791],[87.095898437500011,52.127704168744117,371.1376],[87.08740234375,52.141376043744117,359.8766],[87.084082031250034,52.15204498905662,350.7757],[87.085546875000034,52.16156647343162,344.2864],[87.089648437499989,52.170038153119116,388.6691],[87.091064453125,52.178094793744116,357.5995],[87.084082031250034,52.186151434369116,332.8626],[87.09521484375,52.19708893436912,397.8403],[87.094824218750034,52.20673248905662,384.2654],[87.090917968750034,52.216327215619117,374.7088],[87.091064453125,52.22711823124412,349.3065],[87.09814453125,52.235614324994117,338.037],[87.120898437499989,52.252557684369116,327.8784],[87.125683593750011,52.258172918744116,334.3301],[87.114355468750034,52.269159246869116,448.9036],[87.060791015625,52.276385809369117,309.7231],[87.043212890625,52.28180573124412,324.0496],[87.040283203125,52.288836981244117,324.0748],[87.038818359375,52.309344793744117,345.6935],[87.036376953125,52.31647369999412,352.4576],[87.02783203125,52.32318756718162,310.7801],[87.01513671875,52.329852606244117,304.9939],[87.001953125,52.334979559369117,352.0276],[86.975830078125,52.34137604374412,378.2329],[86.95654296875,52.352069403119117,314.8585],[86.938378906250023,52.365350653119116,308.4445],[86.926513671875,52.37799713749412,302.7096],[86.920117187500011,52.39459869999412,329.12],[86.912988281250023,52.43366119999412,272.8687],[86.90234375,52.45026276249412,273.5515],[86.8818359375,52.459979559369117,345.3343],[86.855371093750023,52.46259186405662,443.0189],[86.775097656250011,52.46137116093162,279.3469],[86.763769531250034,52.463397528119117,279.2473],[86.754638671875,52.46735260624412,262.6862],[86.730712890625,52.49201080936912,318.2219],[86.727294921875,52.49811432499412,261.6282],[86.615917968750011,52.53998444218162,264.5276],[86.6015625,52.552606512494116,255.7785],[86.573974609375,52.58746979374412,239.8832],[86.558203125000034,52.59686920780662,237.6692],[86.4951171875,52.617547918744116,247.3476],[86.486328125,52.624383856244116,239.3057],[86.480566406250034,52.630487371869116,258.1235],[86.4736328125,52.63556549686912,276.3678],[86.4609375,52.639276434369116,352.1336],[86.448974609375,52.639032293744116,287.1617],[86.387304687500034,52.62958405155662,224.822],[86.362207031250023,52.61981842655662,225.3189],[86.3505859375,52.617547918744116,220.5675],[86.341552734375,52.612323309369117,221.2523],[86.345117187500023,52.600702215619116,240.9023],[86.35302734375,52.58917877811912,230.241],[86.357324218750023,52.58405182499412,243.2487],[86.3564453125,52.55975983280662,249.9416],[86.34423828125,52.54962799686912,237.741],[86.330078125,52.542108465619116,212.2801],[86.3232421875,52.52570221561912,244.9653],[86.310156250000034,52.507831121869117,295.2462],[86.2802734375,52.50458405155662,211.5048],[86.248046875,52.50922272343162,226.9406],[86.188720703125,52.528338934369117,211.5333],[86.17236328125,52.540301824994117,215.4386],[86.16552734375,52.559833074994117,213.8189],[86.16455078125,52.577899481244117,230.1467],[86.159570312500023,52.592059637494117,227.7437],[86.1474609375,52.604510809369117,229.6982],[86.125244140625,52.617547918744116,232.8538],[86.082763671875,52.63239166874412,232.8119],[86.057861328125,52.63507721561912,239.4218],[86.039160156250034,52.628436590619117,226.8513],[86.024121093750011,52.620868231244117,227.1172],[85.9716796875,52.60602448124412,198.2311],[85.953857421875,52.603876043744116,211.2815],[85.951416015625,52.567254949994116,192.2778],[85.903222656250023,52.56110260624412,188.8778],[85.802978515625,52.57721588749412,190.3173],[85.767333984375,52.575702215619117,179.8784],[85.754638671875,52.57721588749412,181.3728],[85.743554687500023,52.58405182499412,181.735],[85.720800781250034,52.60651276249412,179.658],[85.7099609375,52.61139557499412,177.7602],[85.494238281250034,52.58405182499412,210.5567],[85.482421875,52.58075592655662,199.4145],[85.461669921875,52.56622955936912,174.2287],[85.45361328125,52.56293366093162,173.5738],[85.441308593750023,52.56439850468162,173.7712],[85.4189453125,52.57013580936912,175.8094],[85.305908203125,52.57037994999412,176.6345],[85.28564453125,52.56720612186912,162.5],[85.2666015625,52.559100653119117,162.5],[85.22705078125,52.53620026249412,167.3508],[85.20849609375,52.52057526249412,166.9772],[85.190136718750011,52.49970123905662,196.9607],[85.16943359375,52.48139069218162,165.588],[85.14453125,52.47357819218162,161.6009],[85.112402343750034,52.47272369999412,161.0],[85.099218750000034,52.46796295780662,165.8642],[85.086181640625,52.45709869999412,166.7862],[85.0771484375,52.44721100468162,170.2622],[85.067578125000011,52.43891022343162,166.4636],[85.05615234375,52.433612371869117,174.0322]]}}