{"type":"Feature","properties":{"featurecla":"River","scalerank":6,"rivernum":344,"dissolve":"344River","name":"Chulyshman","name_alt":null,"note":null,"min_zoom":5.0,"strokeweig":0.2,"name_en":"Chulyshman","min_label":6.0},
"geometry":{"type": "LineString","coordinates": [[89.656347656250034,50.504510809369116,2200.6831],[89.630078125000011,50.51154205936912,2204.7451],[89.535839843750011,50.531610418744116,2151.5508],[89.469482421875,50.56244537968162,2115.1577],[89.427832031250034,50.57550690311912,2059.3716],[89.418212890625,50.584344793744116,2073.8547],[89.39697265625,50.61139557499412,2093.7393],[89.390380859375,50.617059637494116,2102.3394],[89.31787109375,50.629266668744116,1980.8182],[89.290625,50.630145574994117,1977.3213],[89.071533203125,50.60797760624412,2094.772],[89.044677734375,50.60224030155662,1912.9689],[88.998925781250023,50.584491278119117,2030.8757],[88.974707031250034,50.580682684369116,2086.6816],[88.821533203125,50.601336981244117,1592.8025],[88.784912109375,50.61981842655662,1642.4321],[88.68798828125,50.70465729374412,1869.1965],[88.6669921875,50.71869537968162,1694.4282],[88.633056640625,50.73200104374412,1476.3469],[88.624121093750034,50.749530340619117,1338.1727],[88.6123046875,50.78839752811912,1441.5491],[88.574462890625,50.818377996869117,1117.5967],[88.525976562500034,50.822870184369116,915.3455],[88.474365234375,50.82037994999412,878.0811],[88.426660156250023,50.829364324994117,1595.6494],[88.4033203125,50.84479401249412,1593.4558],[88.35693359375,50.86188385624412,1703.082],[88.324804687500034,50.869891668744117,1664.5887],[88.262792968750034,50.91815827030662,1514.1718],[88.062890625000023,51.01300690311912,1531.1542],[88.044531250000034,51.02606842655662,1460.9949],[88.031347656250034,51.06159088749412,1581.293],[88.017333984375,51.07721588749412,769.6241],[87.999414062500023,51.08966705936912,495.7999],[87.981640625000011,51.09686920780662,489.5566],[87.93125,51.10126373905662,476.1459],[87.904541015625,51.10736725468162,874.9696],[87.892968750000023,51.12042877811912,1383.9294],[87.88330078125,51.12494537968162,1174.082],[87.80517578125,51.180292059369116,1138.017],[87.773193359375,51.209588934369116,450.284],[87.769433593750023,51.21698639530662,450.9565],[87.7646484375,51.242059637494116,514.7527],[87.753027343750034,51.256463934369116,473.5508],[87.739501953125,51.26727936405662,458.8824],[87.728417968750023,51.28180573124412,443.4395],[87.727929687500023,51.30536530155662,444.3568],[87.737597656249989,51.33283112186912,440.024],[87.749414062500023,51.355340887494116,438.5648],[87.755761718750023,51.364374090619116,434.6737]]}}