{"type":"Feature","properties":{"featurecla":"River","scalerank":7,"rivernum":497,"dissolve":"497River","name":"Katun2","name_alt":null,"note":null,"min_zoom":6.0,"strokeweig":0.25,"name_en":"Katun","min_label":7.0},
"geometry":{"type": "LineString","coordinates": [[85.775781250000023,51.695575262494117,533.8765],[85.782324218750034,51.70160553593162,436.9771],[85.791406250000023,51.70404694218162,468.5489],[85.795117187500011,51.70856354374412,605.4837],[85.758056640625,51.74738190311912,841.4291],[85.741601562500023,51.760370184369116,453.5655],[85.739013671875,51.76618073124412,452.6783],[85.740332031250034,51.77875397343162,315.2577],[85.746972656250023,51.78974030155662,319.6636],[85.756591796875,51.797381903119117,518.5003],[85.761621093750023,51.805926824994117,411.1469],[85.754638671875,51.81964752811912,464.9046],[85.781982421875,51.837665106244117,424.4873],[85.788818359375,51.84699127811912,732.1897],[85.740332031250034,51.86066315311912,296.0043],[85.758056640625,51.87421295780662,290.2781],[85.806884765625,51.88641998905662,297.6704],[85.834570312500034,51.902362371869117,375.6503],[85.87646484375,51.91950104374412,477.899],[85.872314453125,51.928729559369117,357.9886],[85.84228515625,51.959979559369117,277.1644],[85.834228515625,51.97138092655662,294.4655],[85.837158203125,51.98297760624412,260.5618],[85.854296874999989,52.00092194218162,298.7615],[85.9072265625,52.03668854374412,252.5541],[85.919189453125,52.05243561405662,251.0693],[85.922753906250023,52.08966705936912,249.4822],[85.909570312500023,52.13373444218162,239.5729],[85.871337890625,52.216913153119116,233.8299],[85.8349609375,52.27020905155662,223.0895],[85.829687500000034,52.288934637494116,222.0667],[85.83203125,52.32721588749412,218.1943],[85.828515625000023,52.34308502811912,213.9609],[85.816015625000034,52.361590887494117,213.3372],[85.785449218749989,52.39166901249412,209.7841],[85.768847656249989,52.41864655155662,258.2218],[85.764892578125,52.422967840619116,241.4359],[85.743261718750034,52.42584869999412,222.982],[85.678955078125,52.443475653119116,209.0781],[85.530029296875,52.441913153119117,192.2533],[85.48095703125,52.449725653119117,194.1526],[85.460058593750034,52.45795319218162,193.303],[85.44375,52.46710846561912,193.393],[85.426025390625,52.47455475468162,193.4347],[85.31640625,52.49066803593162,193.0779],[85.15869140625,52.47077057499412,165.568],[85.155517578125,52.464862371869117,166.9184],[85.153222656250023,52.454706121869116,165.5955],[85.1484375,52.44403717655662,167.4219],[85.1376953125,52.436639715619116,167.627],[85.11767578125,52.44440338749412,166.4792],[85.091796875,52.44599030155662,165.3284],[85.05615234375,52.433612371869117,174.0322]]}}