{"type":"Feature","properties":{"featurecla":"River","scalerank":7,"rivernum":497,"dissolve":"497River","name":"Katun1","name_alt":null,"note":null,"min_zoom":6.0,"strokeweig":0.2,"name_en":"Katun","min_label":7.0},
"geometry":{"type": "LineString","coordinates": [[85.99609375,49.61029694218162,1969.9205],[85.752343750000023,49.620624090619117,1550.8879],[85.735595703125,49.624139715619116,1332.9563],[85.726318359375,49.63349030155662,1541.8586],[85.71484375,49.66095612186912,1675.7069],[85.703222656250034,49.67829010624412,1438.3793],[85.691503906250034,49.68695709843162,1701.4292],[85.678417968750011,49.693719793744116,1732.6743],[85.663183593750034,49.70563385624412,1809.1864],[85.650976562500034,49.71076080936912,1626.1577],[85.636328125000034,49.71185944218162,1686.2762],[85.623779296875,49.71491119999412,1877.7805],[85.618554687500023,49.72614166874412,1569.2948],[85.614990234375,49.74091217655662,1735.8123],[85.606054687500034,49.752948309369117,1519.8408],[85.540625,49.80756256718162,1734.6736],[85.518945312500023,49.82172272343162,1532.8982],[85.49560546875,49.83222077030662,1492.4088],[85.502197265625,49.848993231244116,1369.208],[85.496337890625,49.861590887494117,1634.2958],[85.486425781250034,49.87238190311912,1312.4697],[85.4814453125,49.883807684369117,1340.4528],[85.480859375000023,49.91315338749412,1296.699],[85.482812500000023,49.92584869999412,1342.4071],[85.488867187500034,49.94208405155662,1563.0693],[85.466552734375,49.949823309369116,2152.9268],[85.444433593750034,49.964471746869116,1543.2426],[85.431640625,49.982440496869117,1209.7487],[85.437255859375,50.00018952030662,1128.3591],[85.442138671875,50.00983307499412,1220.17],[85.440332031250023,50.02069733280662,1073.8586],[85.43603515625,50.03143952030662,1060.5225],[85.43359375,50.04144928593162,1058.5546],[85.436425781250023,50.048456121869116,1257.8701],[85.449804687500034,50.069452215619116,1048.0472],[85.45458984375,50.07929108280662,1037.3842],[85.4794921875,50.147967840619117,1015.4983],[85.4814453125,50.15778229374412,1013.7122],[85.482177734375,50.182489324994116,1005.9011],[85.48583984375,50.20172760624412,1000.7864],[85.494238281250034,50.216815496869117,994.5381],[85.50927734375,50.229510809369117,990.5612],[85.520117187500034,50.233905340619117,997.162],[85.5458984375,50.23908112186912,975.7039],[85.55712890625,50.24310944218162,983.4191],[85.56689453125,50.25092194218162,1046.2598],[85.584082031250034,50.267840887494117,1001.4684],[85.647705078125,50.292596746869116,1126.6943],[85.664453125000023,50.29144928593162,1066.6832],[85.757226562500023,50.26605866093162,984.9678],[85.802148437500023,50.26178619999412,955.212],[85.851464843750023,50.250506903119117,972.1068],[85.928320312500034,50.21942780155662,944.1885],[85.976660156250034,50.214862371869117,954.4827],[86.0,50.209979559369117,951.032],[86.020263671875,50.201532293744116,937.0652],[86.036865234375,50.18915436405662,959.4296],[86.043212890625,50.18036530155662,966.0599],[86.0478515625,50.17145416874412,1119.6039],[86.0537109375,50.16266510624412,1047.9598],[86.064160156250011,50.154413153119116,1128.0485],[86.078320312500011,50.14813873905662,955.6324],[86.09033203125,50.14630768436912,1236.4692],[86.234375,50.14887116093162,1283.5132],[86.27587890625,50.16120026249412,1045.8571],[86.309277343750011,50.17914459843162,1038.8235],[86.317773437500023,50.18170807499412,1208.0691],[86.562890625000023,50.170038153119116,1230.837],[86.612890625000034,50.18170807499412,1344.1624],[86.626953125,50.19110748905662,1347.734],[86.655029296875,50.217303778119117,970.4132],[86.6640625,50.222674871869117,835.0099],[86.665136718750034,50.22882721561912,776.791],[86.720312500000034,50.27948639530662,759.8058],[86.72314453125,50.28912994999412,901.3605],[86.71826171875,50.30084869999412,831.4371],[86.714746093750023,50.32257721561912,1046.2202],[86.709716796875,50.34015534061912,954.2019],[86.692285156250023,50.376581121869116,730.2441],[86.69482421875,50.38776276249412,891.2227],[86.69482421875,50.39398834843162,887.6584],[86.683984375000023,50.401971746869116,793.4427],[86.66064453125,50.43622467655662,974.9921],[86.65380859375,50.43939850468162,905.5139],[86.644775390625,50.441424871869117,981.1013],[86.636816406250034,50.444842840619117,865.7833],[86.633398437500034,50.45233795780662,810.6729],[86.635351562500034,50.46222565311912,713.2941],[86.644433593750023,50.47626373905662,802.729],[86.64697265625,50.48334381718162,795.365],[86.647705078125,50.50299713749412,1310.5305],[86.642578125,50.50983307499412,1339.5626],[86.612890625000034,50.51813385624412,997.9968],[86.59375,50.52960846561912,817.731],[86.58935546875,50.538104559369117,747.2076],[86.589111328125,50.546405340619117,724.6583],[86.582617187500034,50.557245184369116,718.5875],[86.532812500000034,50.59186432499412,930.2241],[86.52099609375,50.611590887494117,814.3639],[86.534912109375,50.639520574994116,1007.3109],[86.539257812500011,50.66815827030662,1048.1169],[86.4921875,50.70380280155662,789.6808],[86.517675781250034,50.72577545780662,746.3219],[86.514550781250023,50.74054596561912,1144.7366],[86.53662109375,50.75897858280662,626.4933],[86.531494140625,50.772967840619117,807.0182],[86.518164062500034,50.777215887494116,967.2593],[86.478515625,50.775751043744116,660.1768],[86.4625,50.780389715619116,839.9441],[86.482617187500011,50.79376862186912,590.7885],[86.475830078125,50.804803778119116,751.4983],[86.458984375,50.81635162968162,652.7164],[86.449462890625,50.831317449994117,825.989],[86.445214843750023,50.83527252811912,749.0891],[86.435546875,50.838739324994116,618.3257],[86.426025390625,50.84381744999412,593.001],[86.421630859375,50.85236237186912,608.1417],[86.419335937500023,50.868524481244116,558.8547],[86.412695312500034,50.876092840619116,617.8264],[86.387451171875,50.882831121869117,562.2416],[86.35009765625,50.88715241093162,700.8917],[86.339648437499989,50.890252996869116,931.5488],[86.32861328125,50.89801666874412,537.1445],[86.32470703125,50.90473053593162,547.24],[86.322265625,50.91181061405662,525.4664],[86.315136718750011,50.92072174686912,787.8597],[86.297460937500034,50.93146393436912,514.7185],[86.288281250000011,50.93903229374412,570.4219],[86.284423828125,50.94830963749412,519.172],[86.283300781250034,50.960809637494116,529.3725],[86.2802734375,50.971942449994117,631.22],[86.270117187500034,50.992694403119117,837.7851],[86.22314453125,51.03388092655662,559.2179],[86.215576171875,51.04425690311912,547.4608],[86.207910156250023,51.06842682499412,712.4086],[86.190673828125,51.08209869999412,864.8391],[86.172558593750011,51.09308502811912,521.0027],[86.161523437500023,51.109393621869117,530.9802],[86.16796875,51.12482330936912,484.3265],[86.193359375,51.15778229374412,652.4127],[86.184667968750034,51.16400787968162,734.4161],[86.158398437500011,51.165057684369117,525.5334],[86.131591796875,51.16901276249412,609.1808],[86.1083984375,51.17755768436912,495.015],[86.092675781250023,51.19196198124412,526.1947],[86.08935546875,51.20246002811912,745.7286],[86.093359375000034,51.22089264530662,467.5518],[86.092675781250023,51.232928778119117,729.6218],[86.088134765625,51.240252996869117,730.7136],[86.081152343750034,51.247088934369117,764.0047],[86.074804687500034,51.25617096561912,543.0804],[86.072021484375,51.270135809369116,885.4586],[86.048583984375,51.31146881718162,921.4718],[86.038476562500023,51.322626043744116,919.271],[86.034423828125,51.33185455936912,663.8481],[86.031152343750023,51.35578034061912,411.4085],[86.03173828125,51.36237213749412,443.0374],[86.033935546875,51.36749909061912,558.0996],[86.032958984375,51.37360260624412,736.2162],[86.024316406250023,51.38312409061912,495.5051],[86.009765625,51.390008856244116,409.805],[86.00146484375,51.388055731244116,442.0528],[85.997802734375,51.38971588749412,408.4809],[85.9970703125,51.40729401249412,400.2534],[85.998144531250034,51.41596100468162,432.4886],[85.999267578125,51.41974518436912,436.6615],[85.99658203125,51.424188543744116,443.3353],[85.986523437500011,51.43463776249412,451.7272],[85.982031250000034,51.44586823124412,391.8552],[85.987060546875,51.45697662968162,405.7298],[85.994384765625,51.468133856244116,587.9523],[85.9970703125,51.47931549686912,421.0145],[85.986914062500034,51.495379949994117,457.4228],[85.923242187500023,51.54523346561912,622.5266],[85.917578125000034,51.55170319218162,390.505],[85.914257812500011,51.56085846561912,377.3188],[85.913476562500023,51.57636139530662,523.5609],[85.908105468750023,51.58270905155662,686.9341],[85.895605468750034,51.587518621869116,546.0117],[85.872460937500023,51.593768621869117,723.2377],[85.836669921875,51.61078522343162,793.0121],[85.800683593750023,51.63495514530662,699.162],[85.77490234375,51.663934637494116,408.2923],[85.77001953125,51.695575262494117,342.2097]]}}