{"type":"Feature","properties":{"GID_3":"RUS.83.5.1_1","GID_0":"RUS","country":"Russia","GID_1":"RUS.83_1","province":"Zabaykal'ye","NL_NAME_1":"Забайкальскийкрай","GID_2":"RUS.83.5_1","county":"Baleyskiyrayon","NL_NAME_2":"Балейскийрайон","city":"NA","VARNAME_3":"NA","NL_NAME_3":"NA","TYPE_3":"NA","ENGTYPE_3":"NA","CC_3":"NA","HASC_3":"NA","name":"N_A.city"},
"geometry":{"type": "MultiPolygon","coordinates": [[[[117.3132,51.18,1281.1256],[117.2748,51.2102,1026.4148],[117.2399,51.2485,1054.1721],[117.2466,51.2819,949.9259],[117.2947,51.3153,928.1995],[117.3211,51.3704,933.7432],[117.3147,51.4107,909.8646],[117.3531,51.4476,976.2448],[117.3742,51.4958,894.5154],[117.3533,51.5211,810.8925],[117.299,51.5461,751.2969],[117.2929,51.5777,844.4388],[117.3085,51.6315,722.3712],[117.3059,51.6892,769.2186],[117.2763,51.734,700.0616],[117.2739,51.7659,728.8828],[117.3011,51.8254,764.574],[117.3162,51.8639,903.6586],[117.2917,51.8888,913.2781],[117.2764,51.9303,1133.4438],[117.2242,51.9195,969.2366],[117.1598,51.8878,952.6263],[117.1173,51.8784,886.3086],[117.0291,51.8656,694.7833],[117.0052,51.8313,1036.0732],[116.9556,51.819,859.485],[116.8819,51.8258,997.624],[116.843,51.8099,1017.5442],[116.7191,51.712,934.8127],[116.6138,51.6558,1060.8931],[116.5618,51.6342,1012.3081],[116.5278,51.6032,945.2078],[116.4927,51.5914,1121.2281],[116.4239,51.6086,1059.7682],[116.3953,51.5805,917.1622],[116.3058,51.5988,892.2715],[116.2498,51.5987,986.2082],[116.201,51.5602,875.786],[116.1968,51.5427,985.7817],[116.1518,51.5371,890.7709],[116.1119,51.5573,695.43],[115.9738,51.492,546.0857],[116.0258,51.4261,699.7698],[115.9875,51.383,792.2653],[115.9225,51.3478,552.9006],[115.8889,51.2935,604.0125],[116.014,51.3017,661.6914],[116.0405,51.2709,848.7844],[116.0076,51.2069,713.5763],[116.0354,51.1826,748.5695],[116.0805,51.197,831.0669],[116.1239,51.2307,825.7766],[116.1735,51.2308,758.5206],[116.2205,51.2611,791.8773],[116.2027,51.3068,767.1244],[116.2528,51.3184,634.6727],[116.3024,51.3109,759.3415],[116.3348,51.3241,671.4772],[116.3501,51.3467,900.5782],[116.4007,51.3533,939.1248],[116.4042,51.3212,980.3574],[116.418,51.3066,986.2479],[116.5033,51.3232,919.9442],[116.5416,51.3173,868.4004],[116.5853,51.3058,867.6144],[116.6437,51.3408,910.2563],[116.6896,51.3288,1016.7031],[116.7092,51.2885,1069.9833],[116.7757,51.2743,1358.0508],[116.8072,51.2454,1010.0751],[116.7629,51.2111,1084.9655],[116.7222,51.1897,1005.2262],[116.7302,51.1434,911.5998],[116.7747,51.0874,1091.7208],[116.7966,51.0389,1153.8325],[116.8015,50.9968,1249.3699],[116.7922,50.9493,1179.1709],[116.8425,50.9557,1114.4781],[116.8939,50.9678,1088.8745],[116.9441,50.9906,1196.474],[117.1226,51.1043,1110.2988],[117.2102,51.1439,1197.1311],[117.3132,51.18,1281.1256]],
[[116.6148,51.6004,801.9905],[116.6013,51.5995,941.9202],[116.5819,51.6048,1005.2019],[116.5811,51.6145,1026.0409],[116.596,51.6248,992.1583],[116.6042,51.6272,943.5236],[116.6267,51.6208,927.6821],[116.6272,51.6162,984.7141],[116.623,51.6058,895.1813],[116.6148,51.6004,801.9905]]]]}}