{"type":"Feature","properties":{"GID_3":"RUS.60.29.1_1","GID_0":"RUS","country":"Russia","GID_1":"RUS.60_1","province":"Sakha","NL_NAME_1":"РеспубликаСаха","GID_2":"RUS.60.29_1","county":"Ust'-Aldanskiyrayon","NL_NAME_2":"Усть-Алданскийрайон","city":"NA","VARNAME_3":"NA","NL_NAME_3":"NA","TYPE_3":"NA","ENGTYPE_3":"NA","CC_3":"NA","HASC_3":"NA","name":"N_A.city"},
"geometry":{"type": "MultiPolygon","coordinates": [[[[132.4315,62.4824,207.1784],[132.4665,62.5961,208.9448],[132.4672,62.7291,225.9001],[132.5157,62.8621,199.904],[132.543,62.9462,181.5566],[132.6942,63.0778,191.449],[132.8031,63.2133,163.3367],[132.8358,63.2914,101.5218],[132.8435,63.3396,92.0548],[132.7581,63.4432,134.3243],[132.7227,63.5167,183.1183],[132.6529,63.5949,316.7819],[132.5065,63.6539,337.6044],[132.3805,63.6846,266.8696],[132.2735,63.6977,323.9796],[131.9768,63.6944,471.5143],[131.6198,63.6716,372.1699],[131.4459,63.6494,307.8482],[131.2455,63.6409,266.9957],[131.1081,63.6557,252.6627],[130.8922,63.6972,177.0131],[130.717,63.7236,251.5729],[130.5783,63.754,259.4763],[130.4248,63.7323,277.9285],[130.1902,63.6129,168.1177],[130.1192,63.5958,143.9701],[130.1198,63.5819,145.6447],[130.0923,63.5706,150.8925],[130.0338,63.5658,127.2114],[129.9496,63.5445,127.7431],[129.8645,63.4896,114.2923],[129.8389,63.4354,105.312],[129.8818,63.3691,81.4306],[129.9383,63.3296,85.5021],[129.9735,63.2846,100.0968],[129.9638,63.241,88.7001],[129.9316,63.1864,88.1412],[129.9382,63.1405,86.205],[130.0155,63.1035,108.3598],[130.0845,63.0484,124.7784],[130.1538,62.9802,127.0657],[130.1311,62.9048,122.4736],[130.0997,62.8482,114.1962],[130.1558,62.8154,114.7954],[130.2286,62.8105,113.6264],[130.3703,62.8064,127.8407],[130.3768,62.7653,141.1738],[130.3295,62.72,146.2767],[130.2568,62.6654,129.2635],[130.1846,62.6187,128.086],[130.1107,62.5495,108.9713],[130.0612,62.4818,88.7275],[130.0408,62.4396,85.0232],[130.0356,62.3935,82.0],[130.0931,62.4199,82.0],[130.1601,62.4317,95.4523],[130.2392,62.427,120.6428],[130.3322,62.4181,146.7441],[130.4334,62.4154,147.3893],[130.5496,62.4211,147.3697],[130.6109,62.4563,149.9122],[130.6562,62.4761,140.0832],[130.7276,62.494,147.9436],[130.7878,62.4894,136.6173],[130.8202,62.466,155.2764],[130.832,62.4372,150.5702],[130.8362,62.4112,154.127],[130.8709,62.3892,147.9694],[130.9858,62.3428,190.7093],[131.0852,62.33,210.8099],[131.2034,62.3248,210.9679],[131.371,62.288,202.7663],[131.4324,62.3059,157.8819],[131.4921,62.3263,187.9495],[131.6504,62.3286,221.4931],[131.7745,62.3035,231.096],[131.9152,62.2977,248.5846],[132.0558,62.3262,239.8586],[132.125,62.3665,187.6672],[132.1796,62.4063,206.84],[132.2406,62.4364,181.8502],[132.4315,62.4824,207.1784]]]]}}