{"type":"Feature","properties":{"GID_2":"RUS.28.1_1","GID_0":"RUS","country":"Russia","GID_1":"RUS.28_1","province":"Khabarovsk","NL_NAME_1":"Хабаровскийкрай","county":"Amursk","VARNAME_2":"NA","NL_NAME_2":"Аму́рск","TYPE_2":"Gorod","ENGTYPE_2":"City","CC_2":"NA","HASC_2":"RU.KH.AG","name":"Amursk.county"},
"geometry":{"type": "MultiPolygon","coordinates": [[[[136.9158,50.2384,86.2325],[136.9227,50.2525,76.5561],[136.9158,50.2645,128.0237],[136.9023,50.2698,103.0342],[136.872,50.2656,46.2496],[136.8647,50.2441,55.286],[136.8725,50.2343,25.9396],[136.8997,50.2312,50.0967],[136.9158,50.2384,86.2325]]]]}}