{"type":"Feature","properties":{"GID_1":"RUS.2_1","GID_0":"RUS","country":"Russia","province":"Altay","VARNAME_1":"AltayskiyKray","NL_NAME_1":"Алтайскийкрай","TYPE_1":"Kray","ENGTYPE_1":"Territory","CC_1":"NA","HASC_1":"RU.AL","ISO_1":"NA","name":"Altay.province"},
"geometry":{"type": "MultiPolygon","coordinates": [[[[82.7466,50.949,704.1943],[82.752,50.9488,739.0902],[82.7588,50.9516,779.3373],[82.8477,50.9289,1004.5771],[82.9053,50.9199,1015.6298],[82.9358,50.9171,679.7125],[82.9597,50.9179,728.5898],[82.976,50.9224,747.0393],[82.9859,50.928,843.6743],[83.003,50.9462,719.1432],[83.0145,50.9543,710.9568],[83.0219,50.9557,801.9901],[83.0243,50.9588,808.0975],[83.0488,50.9708,854.6145],[83.0752,50.9912,1070.5017],[83.0864,51.0086,1467.2532],[83.0843,51.0218,1406.1698],[83.0798,51.0327,1567.2585],[83.0837,51.0362,1394.1254],[83.0929,51.0375,1228.5417],[83.1197,51.0354,1491.4674],[83.1311,51.0275,1353.3174],[83.1496,51.0241,1303.7959],[83.1638,51.003,1148.7985],[83.1696,50.9994,1274.9353],[83.1785,51.0013,1449.6061],[83.1841,50.9929,1300.235],[83.19,50.9892,1405.3549],[83.1958,50.9897,1453.6899],[83.2072,50.9948,1636.8749],[83.2205,51.0065,1644.5139],[83.235,51.0108,1322.4159],[83.2567,51.0102,1617.2928],[83.2803,51.014,1791.9062],[83.2934,51.0144,1668.821],[83.3323,51.0075,1587.1523],[83.3582,51.0055,1516.3728],[83.3821,51.0012,1533.2264],[83.4054,51.0141,1587.3645],[83.4101,51.0149,1546.8351],[83.3898,50.9973,1299.8376],[83.3899,50.9904,1132.292],[83.3972,50.986,1176.1736],[83.4703,50.9659,1818.4033],[83.4917,50.9654,1768.4178],[83.5061,50.9689,1669.4921],[83.5608,50.9609,1943.566],[83.6186,50.9438,1962.0852],[83.6581,50.9249,1831.8389],[83.6849,50.9066,1896.6587],[83.6891,50.9051,2030.1211],[83.7025,50.9023,1985.1116],[83.7642,50.8999,1773.2668],[83.7921,50.8933,1703.8906],[83.8119,50.8849,1934.1034],[83.944,50.7902,1641.4281],[83.9522,50.7644,1999.6238],[83.9597,50.7286,1918.851],[83.97,50.717,1842.134],[84.0134,50.6902,1781.8292],[84.0349,50.6721,2188.4985],[84.0506,50.6478,1614.6396],[84.2326,50.673,1862.5815],[84.3241,50.6888,1673.7253],[84.3874,50.72,1596.8816],[84.4374,50.7059,1666.2512],[84.5099,50.7365,2050.3772],[84.4988,50.7837,1879.756],[84.5816,50.8186,2245.1731],[84.6041,50.8369,1932.5376],[84.5923,50.8558,1691.1771],[84.5217,50.8725,1681.2249],[84.4732,50.886,2167.9814],[84.5012,50.9202,2220.1992],[84.4991,50.9668,1259.9445],[84.3625,50.9764,1678.6423],[84.292,50.9959,1144.5994],[84.2359,50.994,1754.8331],[84.1968,51.0021,1307.0132],[84.1647,51.0442,914.749],[84.1038,51.0613,819.6991],[84.0402,51.0412,738.381],[83.9918,51.0535,1033.1216],[83.9754,51.1149,976.0182],[84.0204,51.1256,880.6204],[84.0912,51.1468,1232.0847],[84.1396,51.1127,1432.5144],[84.1615,51.1837,1776.3499],[84.1748,51.2393,1802.4783],[84.1939,51.2694,1731.0839],[84.2777,51.2707,1919.8589],[84.3836,51.28,1441.308],[84.4468,51.2912,1388.8442],[84.4986,51.3232,1175.1849],[84.5811,51.3503,1291.3376],[84.675299999999993,51.3894,850.6604],[84.7371,51.4311,1165.6724],[84.8276,51.4311,1286.0205],[84.8969,51.4391,1179.3669],[84.9561,51.4765,1300.9009],[85.0274,51.495,915.4175],[85.0983,51.5069,1138.8621],[85.1543,51.5026,1517.2498],[85.2319,51.5087,1062.8386],[85.3202,51.5424,887.6478],[85.3918,51.5644,1175.2122],[85.4848,51.5743,859.0617],[85.4615,51.6355,1027.6431],[85.5255,51.6824,1172.7837],[85.5929,51.7205,745.7278],[85.6462,51.736,1008.1911],[85.6791,51.7413,716.2548],[85.7187,51.7653,550.7825],[85.752,51.7939,588.48],[85.7491,51.8345,321.3655],[85.7527,51.8573,299.2475],[85.7985,51.8773,277.2229],[85.8509,51.8879,285.5194],[85.8296,51.9289,265.4188],[85.8298,51.982,263.2456],[85.8077,52.0126,315.5028],[85.7844,52.0384,368.7087],[85.8055,52.0477,408.7713],[85.8977,52.0625,268.2852],[86.0432,52.0739,314.3644],[86.1205,52.067,347.5294],[86.1778,52.0521,523.1885],[86.2893,52.0262,494.7912],[86.353,52.0315,451.3123],[86.4067,52.0605,402.3473],[86.4131,52.0984,364.4159],[86.4338,52.1261,267.174],[86.4817,52.1376,290.4447],[86.5661,52.1406,510.4153],[86.6184,52.122,522.8718],[86.6733,52.1176,604.1125],[86.7194,52.1297,445.0979],[86.7292,52.181,417.067],[86.7206,52.2457,370.3763],[86.7107,52.2788,380.4539],[86.6576,52.3039,396.3933],[86.6639,52.3742,403.6339],[86.6923,52.4341,311.4894],[86.6646,52.4742,276.6806],[86.6446,52.5144,247.4417],[86.6644,52.5372,266.3174],[86.7124,52.5365,288.2615],[86.7565,52.5696,309.5808],[86.8185,52.6047,393.0527],[86.9097,52.636,506.5783],[87.0021,52.6459,481.1615],[87.0733,52.6312,535.2406],[87.1155,52.5973,510.3727],[87.1133,52.6359,537.0173],[87.1152,52.6675,448.0677],[87.0825,52.696,418.362],[87.0341,52.6885,488.6234],[86.9897,52.6916,491.1602],[86.9632,52.7384,444.8817],[86.9449,52.7834,493.945],[86.9469,52.851,390.0011],[87.0269,52.8992,421.3923],[87.0318,52.9588,392.4571],[87.008,53.0068,413.9465],[86.9601,53.0381,323.1713],[86.917,53.069,396.3893],[86.8429,53.0945,252.8367],[86.6982,53.1614,335.0993],[86.6279,53.2249,301.9771],[86.6501,53.2562,233.9647],[86.7211,53.2729,245.9728],[86.8018,53.2889,297.5275],[86.8471,53.3127,321.0096],[86.8768,53.3457,348.0889],[86.9029,53.3893,410.4703],[86.9155,53.4359,375.2818],[86.9041,53.4696,460.5735],[86.8635,53.464,342.8397],[86.7642,53.4689,290.9887],[86.7042,53.4877,331.2383],[86.6215,53.4853,432.3949],[86.5142,53.4993,354.5771],[86.4925,53.5253,320.1481],[86.4533,53.5879,415.3165],[86.4143,53.6091,377.1791],[86.356,53.6353,378.44],[86.3375,53.6653,395.0722],[86.2711,53.7948,454.6028],[86.1859,53.8196,390.9453],[86.1798,53.8677,444.0062],[86.1606,53.9171,502.6865],[86.1098,53.9607,526.8325],[86.004,54.0014,549.899],[85.9141,54.0153,435.9817],[85.9016,54.0451,553.4193],[85.8101,54.067,454.8324],[85.7623,54.1313,451.3469],[85.6528,54.1491,407.6079],[85.602,54.1815,394.9002],[85.517,54.2106,453.8192],[85.3902,54.1964,362.6971],[85.3612,54.226,363.9721],[85.2779,54.2912,364.4028],[85.1902,54.3966,454.6729],[85.1413,54.4181,394.7591],[85.0858,54.4063,394.6145],[85.0806,54.3825,384.037],[85.0132,54.3765,341.2288],[84.9036,54.3623,388.5431],[84.6155,54.2805,291.0256],[84.5402,54.2426,337.1608],[84.5407,54.2092,249.5437],[84.485,54.1673,267.3227],[84.419,54.1352,292.5999],[84.402,54.157,314.5927],[84.3774,54.1657,273.7869],[84.3372,54.1612,299.4633],[84.29,54.1659,255.4646],[84.2391,54.1876,228.0766],[83.9537,54.1006,287.4223],[83.8898,54.099,230.1583],[83.8545,54.1173,252.7977],[83.8031,54.1165,274.7702],[83.6861,54.1027,231.6151],[83.4841,54.0877,206.4158],[83.4803,54.048,195.9059],[83.4985,54.0021,191.3798],[83.4451,53.9655,199.4562],[83.4068,53.9422,193.6654],[83.3276,53.9613,191.7229],[83.305,53.9981,197.116],[83.2878,54.0339,204.9658],[83.2413,54.0438,220.3347],[83.1566,54.0416,227.6742],[83.07,54.0148,228.8268],[83.0469,53.9796,214.6312],[82.9384,53.9371,222.1362],[82.8851,53.9085,188.1956],[82.7526,53.8416,170.9754],[82.7019,53.8011,165.9742],[82.7208,53.745,173.0211],[82.7087,53.7113,170.3036],[82.6326,53.6743,161.6526],[82.6523,53.6343,147.2516],[82.6268,53.6163,162.9188],[82.5539,53.5834,132.2085],[82.526,53.5603,134.4252],[82.5577,53.5362,134.3192],[82.4529,53.5141,123.8268],[82.3531,53.5264,119.0],[82.3069,53.5641,123.807],[82.2591,53.5809,131.0141],[82.1565,53.6124,120.4603],[82.1876,53.6624,116.0],[82.1347,53.6793,120.7578],[82.021,53.6788,119.7703],[81.955,53.7029,122.1323],[81.8719,53.7223,118.6204],[81.8166,53.7067,119.1381],[81.7842,53.724,117.8801],[81.7178,53.7986,178.9552],[81.7163,53.8285,191.614],[81.7561,53.8463,202.2957],[81.8199,53.868,204.0058],[81.8159,53.9002,248.7282],[81.8285,53.9211,282.6395],[81.7879,53.931399999999996,254.6152],[81.7134,53.9183,268.1357],[81.6782,53.9341,274.6662],[81.6238,53.9393,247.691],[81.5675,53.9254,222.4916],[81.5595,53.9485,227.3056],[81.5574,53.9792,221.526],[81.563,54.0178,200.1157],[81.4732,54.0519,142.3014],[81.4477,54.0872,110.0],[81.4234,54.0869,110.5],[81.3521,54.0798,111.5],[81.2802,54.0838,173.8002],[81.2422,54.1142,171.3006],[81.2093,54.1247,189.9602],[81.1111,54.1158,206.0315],[81.0961,54.1359,190.3205],[81.0932,54.174,226.0954],[81.0782,54.1941,223.1036],[81.0281,54.2253,238.7292],[80.9485,54.2694,217.6865],[80.9232,54.3188,196.6234],[80.913,54.3614,180.8219],[80.8569,54.3652,172.8063],[80.8018,54.3445,173.1174],[80.7813,54.3174,179.7229],[80.8174,54.2792,199.0858],[80.8191,54.2502,205.7055],[80.7488,54.2467,196.6971],[80.6554,54.2278,195.8269],[80.6289,54.2063,199.6725],[80.5778,54.2069,193.8987],[80.5079,54.1684,193.83],[80.5288,54.1219,208.5788],[80.4625,54.1019,211.914],[80.4102,54.1145,198.1042],[80.3466,54.0769,203.3456],[80.2908,54.068,199.8135],[80.2456,54.0364,203.4809],[80.1858,54.0258,198.8516],[80.1657,54.0393,191.0161],[80.1462,54.0699,175.8954],[80.1002,54.0579,172.5429],[80.0379,54.0307,173.6706],[80.066,53.9903,191.0588],[79.8465,53.9102,203.3893],[79.8438,53.8727,223.8994],[79.8209,53.8487,227.9521],[79.7595,53.827,227.0327],[79.7204,53.8361,221.0899],[79.6696,53.8277,216.9511],[79.6008,53.8076,214.645],[79.5806,53.7583,207.4846],[79.5334,53.7315,194.5683],[79.4918,53.7276,200.9045],[79.4619,53.7079,200.1932],[79.3661,53.6844,190.6128],[79.3108,53.7111,197.3335],[79.265,53.7177,193.5641],[79.2597,53.6978,210.409],[79.1827,53.6786,182.6599],[79.0882,53.6703,163.7855],[79.0284,53.6961,156.9371],[78.9972,53.6587,148.5605],[78.9596,53.6649,143.1696],[78.9265,53.6834,143.9929],[78.6933,53.6559,128.9252],[78.6401,53.6323,127.5516],[78.6142,53.5977,124.0852],[78.629,53.5605,121.7694],[78.5905,53.5282,121.3034],[78.4451,53.5161,117.367],[78.3654,53.4937,108.6856],[78.2906,53.4828,110.2495],[78.2075,53.5056,112.9092],[78.1784,53.5362,113.4768],[78.1962,53.5923,112.2796],[78.1726,53.6106,114.946],[78.1289,53.5961,114.1325],[78.0996,53.5626,110.1881],[78.0529,53.5534,110.732],[78.022,53.5673,115.316],[77.9558,53.5579,109.5946],[77.9587,53.4867,108.2287],[77.9788,53.4744,106.4819],[78.0587,53.4655,110.8957],[78.063,53.4501,108.5421],[78.0423,53.4383,106.776],[77.9602,53.4343,106.9529],[77.9425,53.4202,108.3051],[77.9791,53.3883,100.883],[77.9573,53.3619,101.3421],[77.9158,53.3718,106.8724],[77.8717,53.3065,106.8612],[77.9115,53.2785,102.1323],[77.9334,53.2594,107.5081],[77.9774,53.2143,102.3985],[78.0285,53.1666,113.6917],[78.0923,53.0987,128.1287],[78.1231,53.0731,128.9255],[78.1683,53.0285,125.1334],[78.202,53.0007,124.6667],[78.2405,52.9602,124.9201],[78.2499,52.9543,125.8934],[78.2753,52.9229,127.8197],[78.2895,52.9094,128.392],[78.3079,52.8869,127.7493],[78.3438,52.853,129.47],[78.403,52.7904,135.2664],[78.4338,52.7567,135.0202],[78.4373,52.7487,133.8858],[78.4446,52.7532,135.2094],[78.534,52.6457,130.6078],[78.5577,52.6196,132.0132],[78.5496,52.6162,131.3947],[78.8736,52.2661,147.5651],[78.8878,52.2448,150.1159],[78.9134,52.2141,155.1242],[78.9328,52.1813,149.9905],[78.9769,52.1366,159.5616],[79.0216,52.0969,161.601],[79.0343,52.0757,162.1489],[79.074,52.0417,158.3147],[79.0916,52.0164,164.7196],[79.1421,51.9582,168.1595],[79.1509,51.9614,164.9931],[79.1611,51.9496,163.7988],[79.153,51.9457,162.8961],[79.1841,51.9044,147.3159],[79.1973,51.8907,148.262],[79.202,51.8808,148.0215],[79.2323,51.8423,152.5395],[79.2436,51.8332,153.3749],[79.2521,51.8304,153.5039],[79.2547,51.827,152.9504],[79.2513,51.8218,152.4401],[79.4795,51.5242,173.4214],[79.5097,51.4778,165.491],[79.5222,51.4721,168.6268],[79.5326,51.4599,168.5956],[79.5529,51.4267,174.7192],[79.5702,51.411,176.6158],[79.5905,51.3745,190.7537],[79.6358,51.3171,197.5683],[79.6386,51.3093,200.8516],[79.649,51.2999,204.3019],[79.6829,51.2582,238.4406],[79.739,51.184,295.725],[79.7589,51.154,303.4744],[79.7951,51.1143,250.6402],[79.8042,51.0939,238.452],[79.8502,51.0319,236.7193],[79.869,51.01,233.4403],[79.9184,50.9427,255.8065],[79.9297,50.9343,253.4366],[79.9481,50.9012,247.8937],[79.9493,50.8998,251.6583],[79.9559,50.9137,254.8094],[79.9685,50.891,259.0339],[80.0208,50.8297,249.8229],[80.0363,50.8156,258.9557],[80.0683,50.7682,278.0332],[80.0787,50.7571,277.1556],[80.0817,50.7623,277.1833],[80.072,50.7846,271.9599],[80.0647,50.8203,264.8956],[80.0652,50.847,263.8539],[80.0696,50.8495,260.6646],[80.0851,50.8496,263.5485],[80.092,50.8317,270.209],[80.1377,50.8293,285.3248],[80.1713,50.8295,301.2923],[80.1926,50.832,308.6624],[80.1905,50.8878,281.8741],[80.1941,50.9022,274.3852],[80.2,50.906,276.886],[80.2387,50.9089,283.5737],[80.246,50.9125,281.9703],[80.251,50.927,275.9337],[80.2738,50.9287,274.4272],[80.3223,50.9282,279.0506],[80.3246,50.9348,279.3246],[80.3387,50.937,281.4457],[80.3767,50.9361,284.4242],[80.3819,50.9406,281.4107],[80.3914,50.9449,280.0028],[80.411,50.9614,274.3451],[80.4297,50.9742,272.9514],[80.4688,50.9745,268.4748],[80.4654,50.9937,270.0048],[80.4673,51.0106,264.5752],[80.4787,51.0313,265.1164],[80.4782,51.0809,269.4407],[80.4744,51.1012,250.6685],[80.4426,51.1201,226.5355],[80.4359,51.1268,227.0976],[80.4409,51.2058,227.5311],[80.4446,51.2092,229.5633],[80.4727,51.2103,232.2713],[80.6225,51.207,221.2073],[80.6292,51.2128,219.789],[80.6309,51.2224,218.2561],[80.6281,51.2483,226.4208],[80.6312,51.266,217.6338],[80.6469,51.2931,220.7738],[80.6574,51.3021,221.4122],[80.6715,51.3081,221.1434],[80.6824,51.3082,220.3697],[80.7197,51.301,220.7815],[80.7464,51.2935,221.9573],[80.7849,51.2869,222.7497],[80.8206,51.278,236.2461],[80.8311,51.2742,228.5189],[80.85,51.2636,221.4688],[80.9039,51.2565,223.2449],[80.8979,51.2447,223.7574],[80.9006,51.2394,223.9248],[80.9096,51.2352,223.9952],[81.0001,51.2141,227.3661],[81.0361,51.1953,230.5014],[81.0515,51.1898,232.8487],[81.0558,51.1904,231.5218],[81.0763,51.1999,233.1335],[81.1022,51.2258,232.8788],[81.1102,51.2264,231.0436],[81.1161,51.2243,230.9953],[81.115,51.2225,230.8538],[81.1244,51.2208,231.3998],[81.1388,51.2089,237.6313],[81.1447,51.2017,247.4799],[81.1471,51.1893,249.5974],[81.1451,51.1631,245.9335],[81.1237,51.1001,238.464],[81.0946,51.0702,240.9983],[81.083,51.0624,241.3911],[81.0768,51.0531,236.8357],[81.0754,51.035,237.859],[81.0708,51.0198,235.8751],[81.0568,50.9958,244.6071],[81.0584,50.9722,250.1213],[81.0615,50.9594,250.7718],[81.1583,50.9575,262.1968],[81.2116,50.9674,265.9265],[81.2727,50.9825,255.7366],[81.3226,50.9969,257.9116],[81.391,50.9963,263.5259],[81.3947,50.991,264.366],[81.3951,50.9827,266.0286],[81.4038,50.9823,266.8253],[81.4075,50.977,268.5521],[81.4089,50.9511,274.3346],[81.4252,50.9467,277.6141],[81.4344,50.9196,286.9135],[81.4263,50.909,289.2945],[81.4129,50.9008,291.272],[81.4181,50.8961,294.3331],[81.4195,50.8887,296.6729],[81.4254,50.8845,297.3522],[81.4484,50.882,323.9177],[81.4547,50.8688,306.4568],[81.4613,50.868,307.9554],[81.4776,50.8334,333.1281],[81.4792,50.8208,344.6699],[81.4737,50.8111,363.7309],[81.4547,50.7911,411.7532],[81.4499,50.7825,410.0832],[81.4493,50.7629,423.4438],[81.4518,50.7615,424.2333],[81.4794,50.7582,388.0127],[81.5407,50.7588,404.9302],[81.593,50.7531,440.0901],[81.619,50.7542,413.6587],[81.6692,50.7629,417.7059],[81.6908,50.7636,397.3801],[81.763,50.7721,534.0893],[81.7697,50.7749,561.6554],[81.7744,50.8144,451.6436],[81.7803,50.8172,442.8526],[81.79,50.8163,443.9374],[81.7948,50.8125,455.8416],[81.7933,50.7958,486.4707],[81.8184,50.808,482.1385],[81.8621,50.8212,514.6082],[81.8739,50.8206,492.0737],[81.8924,50.8156,510.9739],[81.9873,50.8099,396.4024],[82.0075,50.8042,427.7225],[82.0413,50.785,520.5444],[82.0624,50.7701,672.5524],[82.0888,50.7591,580.9092],[82.12,50.751,567.9641],[82.1411,50.7489,475.2561],[82.1673,50.7482,468.3174],[82.1964,50.7525,533.459],[82.2164,50.7595,612.1245],[82.2281,50.7679,612.9301],[82.2333,50.7764,639.525],[82.2468,50.7834,576.5917],[82.2617,50.786,661.8521],[82.308,50.7829,626.3888],[82.3372,50.7882,628.6938],[82.3553,50.7882,605.6573],[82.397,50.7806,575.3104],[82.4384,50.7808,839.3524],[82.4969,50.7668,643.6855],[82.5141,50.7652,665.3834],[82.5297,50.7659,699.8307],[82.5483,50.7692,714.5715],[82.6495,50.8106,698.5913],[82.6728,50.8234,752.6641],[82.6927,50.8383,744.841],[82.7021,50.8527,899.9434],[82.7011,50.8781,821.4862],[82.7033,50.9011,853.9277],[82.7134,50.9395,828.4348],[82.7188,50.9444,810.4347],[82.7307,50.9474,768.9159],[82.7466,50.949,704.1943]]]]}}