{"type":"Feature","properties":{"GID_1":"RUS.16_1","GID_0":"RUS","country":"Russia","province":"Gorno-Altay","VARNAME_1":"Gorno-AltayskayaA.Obl.|Respubli","NL_NAME_1":"РеспубликаАлтай","TYPE_1":"Respublika","ENGTYPE_1":"Republic","CC_1":"NA","HASC_1":"RU.GA","ISO_1":"NA","name":"Gorno-Altay.province"},
"geometry":{"type": "MultiPolygon","coordinates": [[[[86.6213,49.7809,2743.7314],[86.6082,49.7901,2966.373],[86.607,49.7961,3444.0449],[86.6138,49.8035,3530.2981],[86.6259,49.8056,3599.9082],[86.7005,49.8041,2976.0798],[86.7113,49.8027,2987.7974],[86.8032,49.8032,3043.1912],[86.806,49.7942,2711.2317],[86.7677,49.7431,2512.7087],[86.7664,49.7331,2729.937],[86.7689,49.7265,2943.8367],[86.7834,49.711,2531.1008],[86.7539,49.6946,2623.9048],[86.699,49.6745,2473.6331],[86.6884,49.677,2583.124],[86.6799,49.6812,2390.4299],[86.6688,49.6806,2636.3647],[86.6322,49.6525,2212.9431],[86.6216,49.6413,2217.3323],[86.618,49.6316,2504.5044],[86.6198,49.6136,2402.0803],[86.6271,49.5932,1994.8215],[86.6342,49.5817,2233.8162],[86.6493,49.5701,2418.9138],[86.6572,49.5666,2392.9268],[86.6814,49.5702,2732.9458],[86.7096,49.5722,2490.363],[86.7336,49.5633,2572.4097],[86.796,49.5475,2599.1357],[86.8019,49.5442,2534.7664],[86.8043,49.5394,2566.374],[86.7849,49.5267,2533.8013],[86.7926,49.5198,2596.9363],[86.818,49.5107,2585.1992],[86.8236,49.5059,2494.395],[86.8234,49.4963,2531.1865],[86.8076,49.4721,2249.1138],[86.8074,49.46,2345.3179],[86.8131,49.4497,2352.7878],[86.8214,49.4445,2652.9116],[86.9088,49.4142,2712.3967],[86.9131,49.4063,2400.3501],[86.9166,49.3865,2247.45],[86.9161,49.3728,2500.9507],[86.9029,49.3606,2257.7771],[86.902,49.3508,2309.9219],[86.9257,49.3342,2706.533],[86.9313,49.3278,2691.7891],[86.9362,49.3128,2490.0938],[86.9421,49.3034,2404.8708],[86.9523,49.2974,2321.1829],[86.9662,49.296,2427.8962],[86.9816,49.2984,2634.3984],[87.0008,49.2977,2675.4043],[87.0068,49.2934,2530.8267],[87.0294,49.2642,2010.7579],[87.0373,49.2568,2185.0645],[87.0471,49.2547,2284.9954],[87.0775,49.2562,2378.3574],[87.0918,49.2554,2556.0491],[87.1133,49.2497,2498.1562],[87.1719,49.2517,2652.7361],[87.1895,49.2479,2892.9814],[87.2397,49.2296,2601.2283],[87.2684,49.2165,2391.7156],[87.279,49.207,2439.2961],[87.2823,49.2006,2458.3523],[87.2925,49.1643,2792.606],[87.3127,49.1163,2999.2959],[87.3126,49.0997,3301.3599],[87.3264,49.0983,3120.0381],[87.3621,49.0862,2958.8638],[87.3772,49.0844,3157.9653],[87.4102,49.0831,3257.8591],[87.4381,49.0847,2730.2275],[87.4652,49.0978,2511.7324],[87.4953,49.102,3346.2305],[87.5058,49.1058,3355.6055],[87.5113,49.1132,2926.363],[87.5061,49.1357,3192.5459],[87.512,49.1416,3123.2732],[87.528,49.1407,3276.4082],[87.5432,49.1317,3106.8918],[87.5574,49.1265,3339.335],[87.5693,49.127,2970.9827],[87.5864,49.1305,2799.5266],[87.6505,49.1504,2812.1362],[87.6794,49.1632,2845.6445],[87.7023,49.1697,3129.6567],[87.733,49.1687,3030.74],[87.7826,49.1736,3486.686],[87.8488,49.1749,3693.2026],[87.8999,49.1669,3316.335],[87.9175,49.1709,3540.0239],[87.9378,49.1821,3580.5015],[87.9485,49.1845,3577.1418],[87.9743,49.1783,3118.3862],[87.9849,49.1791,3316.0901],[87.9943,49.1863,3371.6733],[88.0,49.2202,3276.4072],[88.0048,49.2255,3202.3579],[88.0087,49.2359,3044.0342],[88.0366,49.2441,2894.3687],[88.0447,49.2527,3234.8762],[88.0504,49.2627,3084.4668],[88.0553,49.2664,2925.7583],[88.0687,49.2694,3180.2419],[88.0997,49.2659,3018.5498],[88.1096,49.2604,3336.8237],[88.1212,49.2446,3314.0212],[88.1286,49.2447,3337.8945],[88.1363,49.25,3257.7891],[88.1489,49.2541,3044.4539],[88.1533,49.2585,3099.6689],[88.1575,49.2709,2900.626],[88.1669,49.2781,2832.3535],[88.1845,49.2807,2864.5112],[88.1921,49.2831,2770.0906],[88.1968,49.2874,2689.6848],[88.1982,49.2944,2659.2988],[88.1964,49.3,2721.3667],[88.1759,49.3109,2772.4832],[88.1654,49.3211,2881.5159],[88.1466,49.3448,2866.8904],[88.1329,49.3536,2817.1572],[88.103,49.3656,3086.0042],[88.0968,49.3701,2918.9998],[88.0969,49.3745,2887.5864],[88.1057,49.3841,3057.0317],[88.1185,49.3885,3114.2856],[88.1385,49.4117,2946.6604],[88.1603,49.4243,2649.7539],[88.1882,49.4299,2689.4548],[88.1895,49.4365,2753.0544],[88.1772,49.4531,3047.2993],[88.1771,49.4588,2914.4968],[88.1829,49.4677,2708.1479],[88.1937,49.4771,2853.5894],[88.2051,49.4833,2784.3022],[88.2233,49.4899,2754.6284],[88.2923,49.4963,2781.6919],[88.3074,49.4987,2562.3916],[88.322,49.5053,2536.5254],[88.3398,49.5081,2587.7886],[88.3627,49.5017,2725.2883],[88.3785,49.5037,2865.5479],[88.3963,49.5033,2927.4207],[88.4113,49.5009,2856.7886],[88.4223,49.4967,2891.4893],[88.4453,49.4801,2788.1414],[88.4547,49.4789,2904.3899],[88.4827,49.4841,2931.229],[88.509,49.4925,2743.0911],[88.5243,49.49,3052.3225],[88.5417,49.4825,3285.6643],[88.5515,49.4825,3328.6157],[88.5554,49.4844,3219.031],[88.5649,49.5037,2926.219],[88.5755,49.5123,2898.6858],[88.6209,49.5263,3103.7986],[88.6323,49.5277,3067.7778],[88.6419,49.5261,3322.3447],[88.65,49.5201,3072.4058],[88.6543,49.4993,2973.6658],[88.6669,49.4849,3191.627],[88.6791,49.4751,3105.6707],[88.7121,49.4661,3113.8416],[88.7274,49.4653,3218.7029],[88.7581,49.4695,2874.7305],[88.7696,49.4663,2899.9395],[88.7785,49.4663,3154.6289],[88.7892,49.4693,3269.9331],[88.8034,49.4687,3336.0417],[88.8151,49.4662,3039.1748],[88.8307,49.4564,3214.3354],[88.8406,49.4528,3060.3699],[88.8527,49.4501,2984.5713],[88.8633,49.4502,3045.8003],[88.8684,49.457,3319.323],[88.8574,49.4706,3354.7336],[88.8571,49.4743,3273.5581],[88.8627,49.4819,2998.3811],[88.8632,49.4855,3179.6816],[88.8606,49.4932,3205.6179],[88.8505,49.5,3319.1704],[88.845,49.5088,2902.0552],[88.8465,49.5162,2693.5469],[88.855,49.5291,2707.9355],[88.8799,49.5502,2880.4607],[88.8911,49.5558,2888.2329],[88.9183,49.5595,2790.124],[88.9255,49.5592,2756.4536],[88.9302,49.5563,2834.7646],[88.9261,49.5383,2925.6921],[88.9269,49.5303,2846.0095],[88.9477,49.5101,2926.3616],[88.9639,49.4847,2766.9768],[88.9719,49.4778,2783.1045],[88.9783,49.4758,2759.5259],[88.9917,49.4771,2772.2473],[89.0279,49.4925,2776.5242],[89.0363,49.493899999999996,2737.9573],[89.0537,49.4933,2632.5049],[89.0995,49.4999,2809.0786],[89.1275,49.5071,2802.5371],[89.1411,49.5124,2763.4482],[89.1589,49.5231,2656.2881],[89.1731,49.5267,2587.5073],[89.1783,49.5301,2613.8071],[89.1885,49.5419,2666.4409],[89.1977,49.5472,2717.1865],[89.2209,49.5467,2755.2141],[89.2254,49.5504,2798.1667],[89.2267,49.5592,2859.1782],[89.2236,49.5664,2908.0137],[89.2159,49.574,2869.2749],[89.2003,49.5839,2912.6494],[89.1929,49.5917,2790.1411],[89.1899,49.5985,2638.0981],[89.1954,49.6155,2458.7773],[89.2017,49.6256,2436.8413],[89.2235,49.6463,2518.9941],[89.2401,49.6535,2480.7793],[89.2498,49.654,2529.6226],[89.2843,49.6448,2425.6201],[89.3127,49.6345,2485.4351],[89.3305,49.6257,2351.5081],[89.3437,49.6171,2376.7107],[89.3697,49.5959,2614.311],[89.3773,49.5947,2683.8604],[89.3878,49.6037,2542.6396],[89.4005,49.6208,2494.512],[89.4107,49.6307,2394.8157],[89.4449,49.6589,2567.9619],[89.4611,49.6631,2622.636],[89.4765,49.6619,2601.6143],[89.4915,49.6634,2579.6162],[89.5059,49.6681,2580.1318],[89.5409,49.6841,2673.8086],[89.6101,49.6941,2757.1235],[89.6271,49.6993,2856.1753],[89.6349,49.7043,2641.8354],[89.6447,49.7037,2746.0583],[89.6818,49.7097,2995.0747],[89.6999,49.7222,3315.6814],[89.7159,49.7435,3566.0613],[89.7218,49.7568,3496.3721],[89.7222,49.7757,3264.5146],[89.7385,49.7945,3356.6716],[89.7359,49.7994,3419.4258],[89.7284,49.8044,3632.5366],[89.7182,49.8078,3067.2476],[89.7002,49.8116,3042.9331],[89.6533,49.8155,2896.4678],[89.6406,49.8192,3368.4238],[89.6359,49.8259,2901.3662],[89.6367,49.8317,2977.4272],[89.6449,49.8505,2972.5811],[89.6461,49.8584,3169.9104],[89.6444,49.864,3191.498],[89.6329,49.8793,2900.594],[89.6386,49.9047,2631.394],[89.6372,49.9106,2670.311],[89.6306,49.9159,2773.1201],[89.6074,49.9271,2900.689],[89.603,49.9339,2955.2878],[89.6053,49.9466,2968.772],[89.6057,49.9672,3112.2715],[89.5762,49.9906,3001.9072],[89.5882,50.0133,3122.2192],[89.6078,50.0584,2573.6311],[89.5835,50.0954,2803.1052],[89.546,50.1096,2775.3191],[89.5149,50.1328,2869.6694],[89.49,50.1782,2784.8955],[89.3318,50.1992,2925.3889],[89.3271,50.2361,2941.1294],[89.3668,50.2616,2764.1355],[89.3885,50.2787,2769.3472],[89.4023,50.311,2873.4783],[89.4473,50.3266,2560.0229],[89.5115,50.3403,2446.7361],[89.5274,50.3578,2497.0549],[89.4847,50.4154,2248.7666],[89.4855,50.4594,2216.5659],[89.5409,50.4508,2288.4509],[89.5913,50.3734,2222.9255],[89.6342,50.356,2439.2686],[89.7104,50.3502,2457.9219],[89.7967,50.3743,2307.5493],[89.8508,50.4196,2416.1082],[89.8659,50.4593,2276.7915],[89.8428,50.502,2570.436],[89.7737,50.531,2722.1851],[89.706,50.5563,2686.1924],[89.6554,50.586,2874.1577],[89.6438,50.6101,3069.5559],[89.6186,50.6236,2663.469],[89.5593,50.6468,2657.6636],[89.5413,50.6842,2414.0376],[89.5417,50.7234,2523.2744],[89.4966,50.7526,2536.2039],[89.4271,50.7859,2523.0588],[89.3918,50.816,2784.9905],[89.386,50.8499,2736.1455],[89.3662,50.8647,2563.9062],[89.2913,50.861,2360.3223],[89.2007,50.9172,2254.1785],[89.1881,50.9811,2696.3865],[89.141,51.0042,2594.5488],[89.0853,51.0256,2335.6379],[89.037,51.0579,2307.2556],[89.0352,51.1024,2783.6838],[89.0451,51.1415,2738.1318],[88.9969,51.1886,2339.9998],[88.9358,51.2864,2120.7625],[88.9563,51.3247,2158.5256],[88.977,51.3566,2399.4146],[88.9939,51.3917,2104.7273],[88.9704,51.4172,1935.5819],[88.9272,51.4341,2071.3787],[88.8654,51.4686,2648.3169],[88.8477,51.5104,2529.0005],[88.81,51.538,2332.5381],[88.7416,51.5486,2359.2905],[88.6907,51.508,2013.9929],[88.6711,51.4058,2573.4949],[88.624,51.3683,2200.7034],[88.5961,51.3366,2548.1172],[88.5152,51.3039,2220.3435],[88.4061,51.2922,2028.6613],[88.3304,51.3277,2281.8311],[88.333,51.354,2297.6475],[88.2597,51.3758,2365.9602],[88.1713,51.393,1811.8674],[88.1222,51.4322,2135.4614],[88.0681,51.4681,2001.8096],[87.9963,51.4787,1860.4255],[87.9357,51.4914,2001.5159],[87.9024,51.536,1991.4182],[87.9058,51.5876,1991.3181],[88.0046,51.6068,1911.4329],[88.0204,51.6429,1997.5964],[88.0586,51.6795,1971.5237],[88.1131,51.7217,1853.8059],[88.0985,51.7692,1549.1478],[88.0097,51.7502,1745.6476],[87.9566,51.7665,1874.1978],[87.9161,51.8093,1346.3571],[87.9789,51.8783,1302.213],[88.0151,51.9463,1181.7148],[88.0478,51.9823,1268.5834],[88.0539,52.0357,1470.4652],[88.1559,52.0681,1176.8403],[88.2749,52.0698,1077.7865],[88.3095,52.1105,1429.8303],[88.3955,52.1418,1259.0995],[88.4223,52.1835,1211.2544],[88.4206,52.2193,884.0743],[88.4154,52.252,738.1971],[88.4158,52.2909,839.9973],[88.4457,52.3383,1022.8342],[88.4158,52.3721,914.7555],[88.3993,52.4165,967.4197],[88.3633,52.4247,841.8107],[88.2834,52.4366,798.9869],[88.2163,52.4165,749.0969],[88.166,52.4111,978.5492],[88.0869,52.4543,597.1834],[88.0132,52.4851,626.4189],[87.9674,52.5188,754.1353],[87.9173,52.5466,742.9559],[87.8539,52.5434,755.61],[87.7724,52.4956,633.678],[87.7016,52.4341,575.3632],[87.6342,52.4294,747.5938],[87.6042,52.4417,593.6964],[87.5055,52.4721,985.363],[87.3972,52.4893,777.6924],[87.3203,52.5083,680.9837],[87.337,52.5462,670.8782],[87.2957,52.5877,688.2531],[87.2139,52.593,735.2789],[87.1632,52.5696,465.9895],[87.1155,52.5973,510.3727],[87.0733,52.6312,535.2406],[87.0021,52.6459,481.1615],[86.9097,52.636,506.5783],[86.8185,52.6047,393.0527],[86.7565,52.5696,309.5808],[86.7124,52.5365,288.2615],[86.6644,52.5372,266.3174],[86.6446,52.5144,247.4417],[86.6646,52.4742,276.6806],[86.6923,52.4341,311.4894],[86.6639,52.3742,403.6339],[86.6576,52.3039,396.3933],[86.7107,52.2788,380.4539],[86.7206,52.2457,370.3763],[86.7292,52.181,417.067],[86.7194,52.1297,445.0979],[86.6733,52.1176,604.1125],[86.6184,52.122,522.8718],[86.5661,52.1406,510.4153],[86.4817,52.1376,290.4447],[86.4338,52.1261,267.174],[86.4131,52.0984,364.4159],[86.4067,52.0605,402.3473],[86.353,52.0315,451.3123],[86.2893,52.0262,494.7912],[86.1778,52.0521,523.1885],[86.1205,52.067,347.5294],[86.0432,52.0739,314.3644],[85.8977,52.0625,268.2852],[85.8055,52.0477,408.7713],[85.7844,52.0384,368.7087],[85.8077,52.0126,315.5028],[85.8298,51.982,263.2456],[85.8296,51.9289,265.4188],[85.8509,51.8879,285.5194],[85.7985,51.8773,277.2229],[85.7527,51.8573,299.2475],[85.7491,51.8345,321.3655],[85.752,51.7939,588.48],[85.7187,51.7653,550.7825],[85.6791,51.7413,716.2548],[85.6462,51.736,1008.1911],[85.5929,51.7205,745.7278],[85.5255,51.6824,1172.7837],[85.4615,51.6355,1027.6431],[85.4848,51.5743,859.0617],[85.3918,51.5644,1175.2122],[85.3202,51.5424,887.6478],[85.2319,51.5087,1062.8386],[85.1543,51.5026,1517.2498],[85.0983,51.5069,1138.8621],[85.0274,51.495,915.4175],[84.9561,51.4765,1300.9009],[84.8969,51.4391,1179.3669],[84.8276,51.4311,1286.0205],[84.7371,51.4311,1165.6724],[84.675299999999993,51.3894,850.6604],[84.5811,51.3503,1291.3376],[84.4986,51.3232,1175.1849],[84.4468,51.2912,1388.8442],[84.3836,51.28,1441.308],[84.2777,51.2707,1919.8589],[84.1939,51.2694,1731.0839],[84.1748,51.2393,1802.4783],[84.1615,51.1837,1776.3499],[84.1396,51.1127,1432.5144],[84.0912,51.1468,1232.0847],[84.0204,51.1256,880.6204],[83.9754,51.1149,976.0182],[83.9918,51.0535,1033.1216],[84.0402,51.0412,738.381],[84.1038,51.0613,819.6991],[84.1647,51.0442,914.749],[84.1968,51.0021,1307.0132],[84.2359,50.994,1754.8331],[84.292,50.9959,1144.5994],[84.3625,50.9764,1678.6423],[84.4991,50.9668,1259.9445],[84.5012,50.9202,2220.1992],[84.4732,50.886,2167.9814],[84.5217,50.8725,1681.2249],[84.5923,50.8558,1691.1771],[84.6041,50.8369,1932.5376],[84.5816,50.8186,2245.1731],[84.4988,50.7837,1879.756],[84.5099,50.7365,2050.3772],[84.4374,50.7059,1666.2512],[84.3874,50.72,1596.8816],[84.3241,50.6888,1673.7253],[84.2326,50.673,1862.5815],[84.0506,50.6478,1614.6396],[84.0593,50.6416,1715.3777],[84.0615,50.6423,1750.5552],[84.0659,50.6349,1860.8865],[84.0739,50.6349,1900.3955],[84.1208,50.6071,2030.3269],[84.1723,50.5606,1959.0741],[84.1907,50.5477,1775.6416],[84.2041,50.5421,1847.7389],[84.2189,50.5323,1604.9161],[84.2332,50.5154,1545.9351],[84.2389,50.5014,1585.1786],[84.2362,50.496,1666.7909],[84.2193,50.4825,1522.6943],[84.2113,50.4714,1760.1677],[84.2096,50.453,1990.1632],[84.217,50.4343,2034.1953],[84.2479,50.3853,1701.2849],[84.2571,50.3583,1820.0989],[84.2559,50.3437,2069.5479],[84.2345,50.3142,2068.8657],[84.2354,50.3025,2069.3462],[84.2413,50.2917,2164.9077],[84.2626,50.2697,2249.4297],[84.3241,50.2245,2220.4919],[84.3364,50.2198,2332.1848],[84.3748,50.2188,1932.0176],[84.4102,50.222,1850.3524],[84.4305,50.2302,2195.0249],[84.4597,50.2493,2075.1904],[84.4641,50.2509,2055.884],[84.4776,50.2502,2193.2432],[84.4924,50.2422,2101.6528],[84.5191,50.2226,2237.6201],[84.5593,50.2024,2309.0308],[84.5924,50.1926,2077.823],[84.6159,50.1887,1914.5197],[84.6477,50.1863,1753.0858],[84.6668,50.1824,1911.2096],[84.6937,50.1714,1796.6327],[84.7355,50.1442,1897.4351],[84.7554,50.1382,1977.8799],[84.7773,50.1364,1845.0966],[84.7977,50.137,1929.8469],[84.8145,50.1346,2023.4847],[84.8221,50.1296,1927.5991],[84.8293,50.121,1987.7095],[84.8307,50.1033,1867.5676],[84.8342,50.0967,1715.3765],[84.8474,50.0937,1842.3042],[84.9068,50.0958,1718.9497],[84.9321,50.0906,1901.3928],[84.998,50.0561,1686.1855],[85.0139,50.0436,1496.571],[85.0258,50.0274,1653.7443],[85.0323,50.0144,1673.4559],[85.0341,50.0029,1713.4824],[85.0329,49.999,1628.2577],[85.0223,49.9936,1468.866],[84.999,50.0035,1653.0874],[84.9928,50.0025,1613.6118],[84.9881,49.9956,1664.5562],[84.9912,49.9808,1733.375],[84.9806,49.9692,1817.9646],[84.9772,49.9591,1906.3862],[84.981,49.9208,1741.9199],[84.9956,49.9013,2026.5612],[85.0158,49.892,1853.6774],[85.0516,49.8835,1892.2727],[85.0919,49.8795,1710.326],[85.1048,49.8747,1792.9064],[85.1137,49.8639,1831.0981],[85.1179,49.8525,1968.8285],[85.118,49.8302,2179.5378],[85.1659,49.7693,2353.4775],[85.1965,49.7376,2460.8684],[85.2053,49.7179,2227.1838],[85.2082,49.6934,2211.0303],[85.1955,49.6677,2097.3596],[85.1942,49.655,2110.6616],[85.1989,49.6423,2061.4507],[85.2123,49.6268,2505.6802],[85.2344,49.6184,1949.9491],[85.2476,49.6196,1920.7029],[85.2547,49.6148,1939.7981],[85.271,49.5938,1934.8492],[85.2783,49.5897,1832.7019],[85.2879,49.588,1799.2159],[85.3162,49.5938,2062.2188],[85.3259,49.5928,2093.0085],[85.3536,49.5807,1473.354],[85.3584,49.5715,1377.0466],[85.3645,49.5669,1453.1796],[85.3705,49.5672,1464.2012],[85.3882,49.5733,1432.9563],[85.3982,49.5739,1445.0013],[85.4208,49.5637,1408.6154],[85.4311,49.5666,1415.6671],[85.4401,49.5739,1357.2537],[85.4452,49.5858,1522.9723],[85.453,49.5913,1458.198],[85.4914,49.602,1598.7805],[85.5257,49.6048,1479.4058],[85.5516,49.6036,1528.5818],[85.5752,49.6006,1745.2073],[85.6142,49.5895,1612.134],[85.6242,49.5822,1795.287],[85.6375,49.5689,1747.8137],[85.6513,49.5612,1732.8873],[85.6747,49.5568,2227.2378],[85.6923,49.557,2044.901],[85.7537,49.5706,2126.0491],[85.7681,49.5702,2295.1948],[85.7861,49.5652,2027.4435],[85.8268,49.5481,1819.6052],[85.8429,49.5476,1942.8306],[85.8981,49.5544,2052.0073],[85.9193,49.5543,1960.4692],[85.9313,49.5524,2028.8123],[85.9433,49.5425,2195.8135],[85.9436,49.5322,2043.3545],[85.93,49.5055,2060.4255],[85.9297,49.5009,2167.2676],[85.9351,49.4974,2287.7253],[85.9503,49.4948,2256.2432],[85.9723,49.4864,2232.1182],[85.9797,49.4862,2191.5229],[86.012,49.5053,2103.9258],[86.0339,49.5129,2134.7043],[86.0621,49.5181,2047.0411],[86.0847,49.5185,2391.4023],[86.1056,49.5168,2156.0906],[86.1147,49.5114,2074.8901],[86.1236,49.498,1818.6521],[86.1606,49.4622,2097.3818],[86.1693,49.4612,2132.6497],[86.1926,49.4716,2391.3567],[86.2043,49.4814,2193.489],[86.203,49.487,2080.4534],[86.1937,49.5005,1972.1012],[86.1918,49.5068,1898.1123],[86.1939,49.5138,1840.0544],[86.2017,49.5213,1842.8467],[86.2276,49.5389,1794.4304],[86.2354,49.5488,1829.8751],[86.2363,49.5551,1807.7068],[86.2325,49.577,1763.2783],[86.2387,49.583,1769.0526],[86.25,49.5878,1863.913],[86.2998,49.595,1978.0052],[86.3201,49.6033,1734.5173],[86.3598,49.6113,1668.7915],[86.3704,49.6161,1654.9983],[86.3777,49.6221,1626.9216],[86.4265,49.6387,1671.9259],[86.47,49.6758,2115.0071],[86.4703,49.6779,2105.6384],[86.4864,49.6924,1718.2487],[86.4984,49.699,2071.0576],[86.5321,49.711,2042.5499],[86.5422,49.717,2112.5002],[86.5628,49.7382,2230.7664],[86.5853,49.7415,2834.6804],[86.5963,49.7461,2731.9136],[86.6084,49.7556,2967.2783],[86.6236,49.7732,2602.3511],[86.6213,49.7809,2743.7314]]]]}}