{"type":"Feature","properties":{"ISO3166-1-Alpha-3":"RUS","country":"Russia","fill":"#F0F","id":"2400","name":"Gorno-Altay"},
"geometry":{"type": "Polygon","coordinates": [[[87.17321,52.61162,575.5758],[87.14903,52.63291,570.5342],[87.1327,52.65022,512.5325],[87.12298,52.66381,418.0401],[87.11988,52.66635,439.4338],[87.11657,52.66779,448.0677],[86.95214,52.63462,604.0096],[86.93137,52.63371,545.5428],[86.8922,52.63705,497.1339],[86.87628,52.64128,414.1186],[86.86419,52.64759,424.7123],[86.85757,52.65033,379.3747],[86.84982,52.65115,400.8243],[86.84073,52.64831,453.6619],[86.82812,52.64121,465.6854],[86.80672,52.62557,553.9381],[86.80083,52.61958,575.8577],[86.79473,52.61131,611.6045],[86.79101,52.59981,472.0802],[86.7906,52.59209,496.4102],[86.79153,52.58568,382.0365],[86.79463,52.57447,354.7471],[86.79525,52.56837,334.4935],[86.79473,52.56217,305.8609],[86.79277,52.55591,374.4924],[86.78636,52.54961,350.0398],[86.7752,52.54268,352.8417],[86.7321,52.53276,310.8449],[86.71133,52.51256,337.6761],[86.70306,52.50062,277.257],[86.70296,52.5001,269.0898],[86.70234,52.49964,269.0898],[86.61955,52.38993,374.0596],[86.61666,52.38502,428.8323],[86.61583,52.37856,389.5276],[86.61769,52.37174,405.7654],[86.62792,52.36223,322.59],[86.63629,52.35727,369.2004],[86.64477,52.35355,375.3083],[86.67701,52.34502,578.0667],[86.8059,52.29216,342.9366],[86.81137,52.288,408.5634],[86.81385,52.28249,369.3873],[86.81013,52.27324,433.8512],[86.8061,52.26697,388.2893],[86.80155,52.26156,483.7741],[86.78357,52.24503,450.1445],[86.78068,52.23971,468.5325],[86.78006,52.23307,429.0436],[86.7844,52.22343,666.0189],[86.79029,52.21805,646.3868],[86.80817,52.2073,826.5782],[86.81778,52.20002,710.9666],[86.82192,52.19521,576.3494],[86.82409,52.18875,654.2277],[86.82471,52.17953,524.3237],[86.82429,52.17185,534.8915],[86.82212,52.15842,509.6117],[86.81447,52.14472,668.2301],[86.78874,52.12199,635.7416],[86.77386,52.1131,705.8074],[86.7661,52.11062,787.9916],[86.75443,52.10871,729.5002],[86.70978,52.11325,567.2322],[86.64167,52.1101,598.2561],[86.54452,52.12054,739.114],[86.50524,52.12002,511.1555],[86.49852,52.11852,445.006],[86.49201,52.11542,400.7958],[86.48571,52.10741,400.8991],[86.48488,52.10124,347.4442],[86.48664,52.09581,348.8288],[86.48943,52.09139,325.6198],[86.49046,52.08695,341.2542],[86.48602,52.08199,338.1792],[86.46545,52.06742,300.3903],[86.46266,52.0608,373.2014],[86.46163,52.05424,277.3502],[86.46163,52.04809,301.2601],[86.46008,52.0421,340.0584],[86.45739,52.03667,359.4539],[86.45398,52.03176,477.6752],[86.44829,52.02706,415.2981],[86.43992,52.02292,360.0996],[86.42628,52.01832,340.8909],[86.40592,52.01388,376.593],[86.3684,52.01016,348.0139],[86.26536,52.01238,506.8494],[86.22061,52.02101,418.4144],[86.19394,52.03036,382.5746],[86.17968,52.03755,503.8778],[86.17472,52.04132,632.1525],[86.17069,52.04561,597.0732],[86.16852,52.05057,606.5334],[86.16831,52.05631,493.615],[86.16738,52.06222,392.346],[86.16449,52.06711,402.6988],[86.1496,52.07016,405.949],[85.93959,52.07499,255.3473],[85.92099,52.07212,245.9204],[85.91913,52.05238,251.0693],[85.90724,52.03662,252.5541],[85.85433,52.00086,298.7615],[85.83717,51.98293,260.5618],[85.83417,51.97132,294.4655],[85.84223,51.95993,277.1644],[85.87231,51.92867,357.9886],[85.87655,51.91942,477.899],[85.83459,51.90231,375.6503],[85.80689,51.88639,297.6704],[85.7581,51.8742,290.2781],[85.74033,51.86061,296.0043],[85.7888,51.84696,732.1897],[85.78198,51.83761,424.4873],[85.75469,51.81963,464.9046],[85.76162,51.80588,411.1469],[85.75655,51.7973,518.5003],[85.74694,51.78966,319.6636],[85.74033,51.77867,307.1252],[85.73909,51.76614,452.6783],[85.74157,51.76036,453.5655],[85.73774,51.74263,514.4117],[85.74539,51.72966,442.8448],[85.72751,51.73198,326.6309],[85.71325,51.73648,499.6718],[85.70095,51.7426,599.2413],[85.68483,51.7532,855.7046],[85.6777,51.75462,785.6315],[85.66994,51.75397,765.5852],[85.66095,51.74749,763.3766],[85.64948,51.73751,883.2753],[85.63925,51.73023,949.0644],[85.60287,51.71116,908.1838],[85.59315,51.7079,958.3893],[85.57651,51.70555,846.4984],[85.55357,51.70491,995.6202],[85.54437,51.70338,972.8511],[85.53683,51.7001,1168.7581],[85.53104,51.69354,1120.8186],[85.52752,51.6877,1121.147],[85.52504,51.68191,1193.9636],[85.51957,51.66382,1127.5537],[85.51709,51.65824,1032.8782],[85.51367,51.65344,999.1976],[85.50975,51.64925,861.1271],[85.50499,51.64579,787.6757],[85.4868,51.63519,939.8701],[85.48236,51.63116,1031.1211],[85.48019,51.62636,1094.196],[85.48112,51.62119,1046.4119],[85.4837,51.61657,886.5891],[85.49083,51.60734,955.8218],[85.49331,51.60228,905.2711],[85.49383,51.59677,941.575],[85.49207,51.59148,894.4874],[85.48887,51.58667,853.7863],[85.4713,51.56853,581.1548],[85.46376,51.56497,669.1082],[85.45187,51.56207,638.1357],[85.42769,51.55975,958.7542],[85.31348,51.56926,981.6569],[85.30346,51.56853,944.7574],[85.29457,51.56548,955.9802],[85.28682,51.55791,1238.0923],[85.28557,51.55179,1040.943],[85.28723,51.54636,1022.7069],[85.29116,51.54197,946.9772],[85.30015,51.53396,846.7205],[85.30408,51.52972,860.3121],[85.30542,51.52461,892.8043],[85.3047,51.51903,931.7538],[85.30252,51.5136,1005.9861],[85.29973,51.50841,1121.9851],[85.29674,51.50425,1201.1683],[85.29395,51.50143,1233.7876],[85.29229,51.50004,1122.7754],[85.23907,51.47076,1088.5825],[85.23152,51.46838,1289.8188],[85.22222,51.46761,1364.527],[85.20754,51.47117,1398.8506],[85.19979,51.47541,1442.4412],[85.18894,51.48363,1594.5557],[85.18346,51.48683,1597.8142],[85.17674,51.48978,1463.5729],[85.16186,51.49458,1545.0713],[85.15318,51.49619,1599.6223],[85.08259,51.49722,1041.0122],[85.00766,51.489,1337.5587],[84.98906,51.48006,1238.8577],[84.95743,51.45133,960.4055],[84.93686,51.42963,1136.0573],[84.92436,51.42415,1288.0277],[84.90214,51.42477,1154.8558],[84.88725,51.42699,1284.3489],[84.87919,51.42735,1390.7563],[84.8641,51.42591,1320.603],[84.78214,51.40697,1054.1405],[84.72571,51.40162,917.1294],[84.71548,51.39947,895.1989],[84.70525,51.39547,898.7083],[84.65802,51.36172,896.8799],[84.50898,51.31589,1054.3855],[84.50288,51.29904,1255.3147],[84.488,51.28953,1355.7833],[84.39416,51.26602,1817.2004],[84.38589,51.2656,1846.248],[84.37876,51.26723,1824.681],[84.37287,51.27018,1833.7861],[84.35375,51.28555,1761.3589],[84.34847,51.28873,1829.3081],[84.34134,51.29028,1995.4681],[84.29525,51.28648,2176.5684],[84.27912,51.28302,2036.891],[84.27396,51.27945,2005.433],[84.26951,51.27519,1929.1106],[84.17195,51.1438,1213.3997],[84.15469,51.12706,1367.407],[84.14415,51.11972,1399.5162],[84.13805,51.11675,1364.1346],[84.13123,51.11505,1323.1475],[84.12337,51.11551,1162.3037],[84.11665,51.11776,1121.4265],[84.10673,51.12489,1319.0134],[84.09805,51.13285,1164.188],[84.09257,51.13662,1053.9773],[84.08606,51.13949,1278.8229],[84.07821,51.14148,1267.4856],[84.06922,51.14225,1047.022],[84.01444,51.1376,734.2321],[84.00865,51.13373,692.2862],[84.00493,51.12657,616.8621],[84.00617,51.079,949.3566],[84.00731,51.07259,881.9194],[84.0102,51.06706,883.0725],[84.01795,51.06383,744.9117],[84.25153,51.00237,1652.5275],[84.2599,51.00169,1554.8239],[84.26776,51.0027,1573.2302],[84.27396,51.00534,1591.2675],[84.27974,51.00872,1402.0961],[84.28615,51.01146,1200.6606],[84.29401,51.0127,1034.6438],[84.30259,51.01224,847.2074],[84.31034,51.01048,751.5851],[84.35488,50.99038,1373.1569],[84.47126,50.97317,1130.3246],[84.50567,50.95994,1415.2919],[84.51704,50.95384,1317.8126],[84.52169,50.94978,1361.8105],[84.52572,50.94552,1282.5975],[84.52883,50.94082,1506.4905],[84.531,50.93575,1683.7749],[84.53265,50.9302,1545.9906],[84.53358,50.92413,1765.8315],[84.53379,50.91762,1543.3184],[84.53327,50.9111,1397.4639],[84.5279,50.88702,1828.3151],[84.528,50.88139,1880.552],[84.53131,50.87684,1919.3995],[84.5372,50.8739,2001.3113],[84.57523,50.87013,2046.2114],[84.5836,50.86852,2004.0601],[84.59022,50.86615,2027.5793],[84.59569,50.86263,1805.1227],[84.59983,50.85839,1663.2103],[84.60314,50.85354,1576.1956],[84.60562,50.84842,1562.3931],[84.60727,50.84269,1724.8031],[84.60872,50.83617,1852.3818],[84.60903,50.82951,1999.3097],[84.60851,50.82305,2090.0164],[84.60727,50.81705,2180.5513],[84.60231,50.80501,1897.3612],[84.59766,50.79773,2072.635],[84.59321,50.7923,2254.0723],[84.58898,50.78791,2319.9326],[84.56975,50.7722,2256.3628],[84.56572,50.76786,2082.4653],[84.56314,50.76259,2065.5176],[84.56148,50.7567,1967.6272],[84.56138,50.75024,2077.6235],[84.56386,50.72517,1827.1738],[84.56324,50.71825,1724.0343],[84.56117,50.71148,1686.3865],[84.55704,50.70414,1664.0247],[84.5527,50.69871,1695.0486],[84.54753,50.6943,1695.7532],[84.54164,50.69107,1651.6798],[84.53286,50.68915,1638.5328],[84.52273,50.68797,1678.1045],[84.5002,50.68993,1907.7104],[84.46723,50.70269,2119.0225],[84.45669,50.70287,1982.0763],[84.44356,50.70114,1752.7297],[84.3617,50.67158,1462.7278],[84.1828,50.66063,2035.5305],[84.15789,50.6568,1946.896],[84.10591,50.64296,1626.2089],[84.08865,50.63464,1913.4619],[84.0886,50.63461,1939.1663],[84.10172,50.62859,1924.3229],[84.13303,50.60079,1876.4004],[84.14234,50.58151,1891.0024],[84.14502,50.56606,1916.9362],[84.15122,50.55257,1639.4614],[84.18595,50.52798,1511.5122],[84.19561,50.51144,1351.4329],[84.19794,50.49315,1508.4463],[84.17675,50.43914,1380.1997],[84.19184,50.40773,1400.0247],[84.2184,50.3777,1408.4077],[84.23938,50.34463,1713.917],[84.24187,50.32189,2102.8608],[84.23949,50.29931,2176.9302],[84.23964,50.27822,1919.5076],[84.24998,50.25993,1776.9309],[84.26181,50.25363,1845.4534],[84.29158,50.24805,2249.7305],[84.30439,50.24324,2279.3423],[84.31215,50.23637,2125.1008],[84.32434,50.21962,2028.6678],[84.33137,50.21347,2019.0486],[84.36878,50.21182,2141.9656],[84.40527,50.23084,1789.8582],[84.44077,50.24463,2042.3793],[84.47575,50.22706,2048.7219],[84.50459,50.20459,1840.854],[84.5357,50.19094,2016.9402],[84.56929,50.18552,2008.0654],[84.60598,50.18743,1977.057],[84.642,50.1849,1591.478],[84.6667,50.17001,1484.3668],[84.68938,50.15105,1340.007],[84.72029,50.13663,1296.9001],[84.73811,50.13539,1628.5515],[84.7732,50.13834,1912.7108],[84.79067,50.13276,1826.9514],[84.80152,50.12376,1926.606],[84.82612,50.08671,1636.0059],[84.83868,50.08082,1709.0789],[84.85588,50.08485,1629.2546],[84.87376,50.09245,1774.1516],[84.88798,50.09674,1692.1732],[84.91025,50.09508,1844.7775],[84.97577,50.07519,1529.9907],[84.98673,50.06697,1560.6758],[85.02011,50.03307,1608.7975],[85.02833,50.02051,1680.6425],[85.02544,50.00408,1509.1655],[85.00936,49.99783,1765.4446],[84.96472,49.99276,1523.2023],[84.96461,49.99276,1523.2023],[84.96218,49.99189,1524.6642],[84.95479,49.99049,1555.321],[84.95066,49.93328,1541.2028],[84.95459,49.90693,1347.6025],[84.97577,49.89401,1621.7782],[85.03262,49.88497,2039.5941],[85.05629,49.87334,1730.5514],[85.07076,49.85024,1823.1807],[85.07592,49.81391,1701.265],[85.08171,49.80001,1801.7671],[85.09814,49.78218,1743.7063],[85.16326,49.73397,2080.6726],[85.18512,49.70503,1997.2089],[85.19504,49.62565,2198.5139],[85.22361,49.59573,1541.1824],[85.26309,49.58152,1882.7816],[85.30278,49.5901,1927.5278],[85.32035,49.59945,1896.2047],[85.34206,49.60819,1856.2158],[85.36423,49.61413,1928.1968],[85.38402,49.61568,1660.0647],[85.40727,49.60963,1747.3989],[85.45099,49.58845,1402.7192],[85.47569,49.58307,1379.3602],[85.51321,49.58535,1458.2156],[85.5313,49.58912,1493.8873],[85.54928,49.59527,1775.3784],[85.5808,49.61336,1808.4293],[85.59718,49.6193,1716.849],[85.61486,49.61713,1722.3103],[85.62845,49.60648,1688.9976],[85.6423,49.57749,1796.2118],[85.6562,49.56493,1757.5032],[85.6733,49.56044,2024.6816],[85.69005,49.56292,2280.1365],[85.72575,49.57305,1585.4977],[85.74741,49.573,2127.3411],[85.76472,49.56685,2150.717],[85.77955,49.55605,1884.0969],[85.79443,49.54184,1794.307],[85.80921,49.53651,1850.213],[85.8275,49.54101,1818.5364],[85.86078,49.55749,1932.4299],[85.88073,49.56328,2299.9443],[85.89985,49.56406,2236.7634],[85.94057,49.55961,2252.3838],[85.94212,49.55109,2221.9814],[85.93189,49.51005,2157.6431],[85.93143,49.49285,2223.4019],[85.94626,49.48137,2094.7329],[85.963,49.47858,2255.0957],[85.98005,49.48287,2087.5132],[85.99582,49.49279,2126.0781],[85.99597,49.49279,2126.0781],[86.02754,49.51564,2100.3938],[86.07049,49.52628,2243.3706],[86.11152,49.52018,2250.4324],[86.13669,49.493,1933.4424],[86.17725,49.46334,2173.8086],[86.21425,49.49615,1909.9672],[86.24639,49.55005,1949.6689],[86.27213,49.58364,2080.8054],[86.32949,49.61025,1687.1799],[86.39181,49.62498,1629.261],[86.45827,49.66565,2133.0774],[86.47548,49.67082,1795.5073],[86.48178,49.67692,1727.1467],[86.48297,49.68627,1715.8329],[86.47966,49.69728,1800.2336],[86.47274,49.70834,1849.3005],[86.51971,49.72684,2245.0107],[86.52441,49.72952,2226.6165],[86.53744,49.73945,2339.1577],[86.5456,49.74265,2145.9583],[86.55222,49.74234,1947.8331],[86.55821,49.74146,1918.6205],[86.56513,49.7427,2074.9041],[86.58493,49.76006,2452.3752],[86.59537,49.78089,3095.2168],[86.6102,49.79551,3369.6182],[86.64244,49.79386,3197.9805],[86.68492,49.7782,2401.9763],[86.70022,49.77774,2504.0801],[86.73081,49.78254,2770.6733],[86.74838,49.78296,2944.2104],[86.75892,49.77862,2628.4612],[86.75959,49.76771,2395.8867],[86.75256,49.75603,2419.4734],[86.74342,49.74472,2315.2671],[86.73763,49.735,2285.991],[86.74052,49.72275,2500.188],[86.75148,49.7117,2426.7542],[86.77587,49.695,2834.0774],[86.75561,49.68152,2604.4961],[86.73649,49.6719,2711.7949],[86.71613,49.66679,2271.1709],[86.66771,49.66426,2505.8789],[86.64709,49.65366,2431.6458],[86.61113,49.62023,2715.2769],[86.59599,49.60188,2243.8008],[86.5918,49.58721,2047.6019],[86.59934,49.57351,1934.6248],[86.61857,49.55796,1997.2131],[86.64255,49.54747,2018.1548],[86.66415,49.54742,2049.5593],[86.70952,49.5545,2135.9519],[86.73257,49.55067,2173.291],[86.80243,49.52225,2550.1697],[86.82434,49.50923,2546.7932],[86.8229,49.49279,2392.9214],[86.81427,49.47295,2323.6094],[86.81401,49.45001,2352.7878],[86.82899,49.43331,2187.3223],[86.85442,49.42127,2548.3728],[86.90548,49.40469,2450.9971],[86.93307,49.39011,2462.875],[86.9308,49.38055,2295.0234],[86.91566,49.36996,2470.4751],[86.90506,49.35192,2338.6074],[86.91302,49.33869,2464.6147],[86.93333,49.32428,2522.2183],[87.00015,49.28909,2484.8767],[87.01255,49.28071,2164.5293],[87.01689,49.27276,1863.4048],[87.01715,49.25865,1889.1323],[87.02454,49.24893,2084.7358],[87.03663,49.24273,1965.7433],[87.05038,49.23891,1845.6558],[87.07601,49.23689,1925.51],[87.16045,49.24201,2532.1997],[87.19032,49.23782,2720.4036],[87.21796,49.22981,2504.8347],[87.27176,49.20511,2410.3462],[87.28767,49.18434,2421.416],[87.30819,49.11385,3031.9912],[87.3238,49.08527,3071.229],[87.36229,49.07509,2882.8945],[87.40043,49.07101,3043.5574],[87.43836,49.07468,3024.532],[87.47557,49.0876,2750.4092],[87.48177,49.09163,2775.2002],[87.48715,49.09695,2890.0879],[87.49159,49.10321,3204.2275],[87.50006,49.11917,3125.896],[87.50606,49.12088,2972.1504],[87.51402,49.11964,2865.425],[87.52528,49.11979,2709.248],[87.71638,49.15886,2809.4189],[87.81632,49.16584,3888.0977],[87.83699,49.16,3723.4932],[87.85518,49.15896,3541.2949],[87.95678,49.16889,3306.377],[87.97549,49.17581,3078.0518],[87.99295,49.19173,3461.7349],[88.02975,49.21555,3338.1638],[88.1085,49.24743,3371.365],[88.14395,49.27074,2802.0439],[88.1484,49.29658,2672.6042],[88.12917,49.32593,2754.1121],[88.11553,49.35658,2910.0806],[88.13579,49.38608,2906.4453],[88.14561,49.39719,3024.4634],[88.16173,49.43011,2650.3403],[88.17475,49.44386,2894.0654],[88.19997,49.45435,2903.3535],[88.37877,49.47579,2937.3562],[88.40192,49.47584,2967.8418],[88.45112,49.46515,2968.4526],[88.47541,49.46365,2916.7969],[88.53876,49.46654,2925.9824],[88.55783,49.47109,3190.9795],[88.59974,49.48892,3183.2786],[88.61416,49.49279,3206.6904],[88.61576,49.49295,3195.8909],[88.63354,49.49124,3116.8787],[88.64868,49.4836,3393.4087],[88.67467,49.45982,3288.8499],[88.69565,49.44696,3073.584],[88.71942,49.44293,3014.281],[88.87063,49.436,3237.4592],[88.87533,49.44179,3189.5288],[88.85487,49.47388,3246.8962],[88.85616,49.5115,2773.6716],[88.85874,49.52737,2665.7175],[88.8682,49.53811,2814.678],[88.88892,49.54168,2843.7964],[88.90835,49.53594,2898.7686],[88.9191,49.52318,2790.2166],[88.92695,49.50742,2843.3857],[88.9376,49.49285,2761.5959],[88.94757,49.48282,2769.0376],[88.9547,49.47187,2822.9707],[88.96266,49.46215,2866.3372],[88.97532,49.45585,2857.8782],[89.01408,49.46055,3003.6934],[89.16074,49.50272,2680.072],[89.19526,49.52153,2624.3918],[89.21562,49.54545,2709.4849],[89.20156,49.57062,2950.2109],[89.1782,49.59847,2542.146],[89.18735,49.62199,2479.1567],[89.21645,49.63449,2490.9241],[89.25221,49.62943,2436.7087],[89.3107,49.59315,2421.0874],[89.33944,49.5808,2522.6035],[89.37194,49.58168,2436.3433],[89.39783,49.59899,2553.8782],[89.4186,49.62421,2490.0532],[89.4416,49.64359,2477.426],[89.47534,49.64343,2566.4067],[89.5203,49.66317,2527.6362],[89.61632,49.68544,2883.8853],[89.68231,49.70834,2987.5596],[89.70241,49.71996,3249.7253],[89.71264,49.73516,3635.6379],[89.70153,49.75314,2912.957],[89.6837,49.76115,3036.7883],[89.63895,49.77546,2945.26],[89.62645,49.78802,3183.8726],[89.62738,49.79681,3234.1179],[89.64195,49.80812,3049.2886],[89.64355,49.81887,3388.1824],[89.63895,49.82482,2947.5796],[89.62107,49.83505,2804.2258],[89.61534,49.84192,3005.9702],[89.61528,49.85453,3111.8145],[89.62107,49.89334,2725.459],[89.62386,49.90269,2789.2402],[89.63321,49.90794,2739.1074],[89.6327,49.90812,2739.1074],[89.59746,49.92036,2957.8281],[89.59064,49.92682,2901.8418],[89.58495,49.93375,2753.0037],[89.58495,49.93938,2704.6123],[89.58753,49.94507,2801.165],[89.59157,49.9508,2865.6177],[89.60149,49.96171,3041.0652],[89.60552,49.96997,3095.1418],[89.60728,49.98052,2963.1753],[89.60366,49.99886,2920.0225],[89.59735,50.00656,2946.946],[89.58939,50.01041,3105.3931],[89.57947,50.01328,3158.5144],[89.56862,50.01839,3241.4126],[89.55436,50.03142,2741.9609],[89.5494,50.03948,2781.6665],[89.54888,50.04669,2816.3569],[89.5526,50.05227,2812.9368],[89.5741,50.07175,2764.083],[89.57978,50.07601,2842.5603],[89.58495,50.08154,2886.5947],[89.58929,50.08759,2766.2229],[89.59115,50.09519,2696.1902],[89.58898,50.10025,2711.9624],[89.58288,50.10345,2870.3711],[89.57513,50.10495,2829.1353],[89.55002,50.10705,2737.8298],[89.54072,50.10945,2819.5676],[89.53121,50.11441,2876.7395],[89.52129,50.12433,2745.4417],[89.51715,50.13115,2924.8262],[89.51539,50.13741,2771.918],[89.51498,50.14252,2867.9116],[89.51694,50.1805,2939.8076],[89.51622,50.1881,3010.2183],[89.51322,50.19937,2883.7871],[89.50733,50.20438,2711.5581],[89.50144,50.20681,2727.6631],[89.44842,50.21073,2747.7822],[89.44046,50.21009,2873.75],[89.43406,50.20753,2901.1821],[89.42868,50.20303,2987.3357],[89.42093,50.19291,2808.1851],[89.41793,50.18986,2747.2393],[89.41349,50.18689,2601.2886],[89.40698,50.18572,2622.7861],[89.39902,50.18593,2740.7852],[89.39023,50.1881,2788.2168],[89.34507,50.20448,2680.8708],[89.33639,50.2096,2739.3745],[89.3367,50.21487,3004.8296],[89.3399,50.21985,2964.6494],[89.34517,50.22471,2694.0818],[89.34941,50.2298,2812.3806],[89.35168,50.23507,2977.5254],[89.35261,50.24034,2731.0703],[89.35261,50.24546,2611.2339],[89.35065,50.25533,2831.123],[89.34941,50.26422,2938.0847],[89.35654,50.27166,2940.6006],[89.38321,50.27921,2874.1226],[89.386,50.28349,2904.6914],[89.38796,50.28856,2885.1292],[89.38693,50.29349,2745.9473],[89.3861,50.29985,2657.0464],[89.38672,50.30737,2696.8604],[89.39034,50.31931,2567.239],[89.39561,50.32571,2552.5623],[89.40202,50.33052,2572.5864],[89.41514,50.33595,2707.533],[89.42899,50.34,2729.9878],[89.45927,50.34385,2711.2014],[89.47054,50.34649,2657.96],[89.50795,50.36235,2807.9634],[89.51725,50.36979,2601.1716],[89.52025,50.37594,2475.468],[89.51787,50.38059,2411.8691],[89.51033,50.38928,2360.7061],[89.50227,50.39661,2424.8105],[89.49989,50.39915,2411.9976],[89.49782,50.40225,2398.0647],[89.49648,50.40677,2322.6069],[89.49596,50.41186,2265.4885],[89.4971,50.41716,2244.2415],[89.49999,50.42705,2240.5957],[89.50113,50.43439,2243.7334],[89.50155,50.45067,2329.2878],[89.5032,50.45728,2369.0132],[89.50723,50.46596,2277.8135],[89.51374,50.46943,2241.0454],[89.52211,50.46984,2231.1079],[89.5401,50.46457,2240.7231],[89.60728,50.42741,2306.7297],[89.61203,50.42325,2354.7395],[89.61472,50.41868,2340.3506],[89.61585,50.41382,2322.6802],[89.61534,50.40845,2395.6733],[89.611,50.39775,2367.4307],[89.61017,50.39351,2311.3738],[89.611,50.39072,2290.7424],[89.61399,50.38726,2281.3518],[89.61988,50.38468,2352.2451],[89.63332,50.38519,2402.8718],[89.7654,50.41801,2492.0613],[89.82266,50.42307,2405.7329],[89.83455,50.42617,2321.7852],[89.84364,50.42992,2301.9294],[89.84902,50.43454,2296.2451],[89.85367,50.44007,2305.3035],[89.86359,50.45762,2288.2253],[89.86576,50.46333,2287.5762],[89.86845,50.47454,2320.8772],[89.86907,50.47986,2327.0986],[89.86917,50.48508,2416.8215],[89.86855,50.49015,2496.261],[89.8669,50.49821,2661.8164],[89.86566,50.50172,2646.8818],[89.85925,50.51273,2823.0598],[89.85512,50.518,2868.3655],[89.82835,50.54307,2640.0295],[89.81005,50.55438,2840.9512],[89.77967,50.56694,2714.4797],[89.75869,50.57304,2747.4915],[89.73192,50.57769,3161.5947],[89.69864,50.57629,3125.613],[89.67373,50.57898,2908.9448],[89.66608,50.58255,3056.698],[89.66205,50.58699,2821.3315],[89.66216,50.59735,2875.9456],[89.66174,50.60244,2889.7952],[89.65957,50.6072,3002.5103],[89.65616,50.61169,2974.7778],[89.64717,50.62037,3036.7905],[89.59374,50.66032,2777.8916],[89.58526,50.66874,2667.4341],[89.57782,50.67732,2595.3477],[89.57162,50.68642,2909.3154],[89.55994,50.69928,2775.5723],[89.49865,50.75179,2517.1875],[89.47302,50.77817,3040.6484],[89.46951,50.78349,2794.6458],[89.45772,50.79788,2809.8589],[89.4479,50.80346,2716.1384],[89.42062,50.814,2500.1848],[89.41225,50.8186,2449.7058],[89.40708,50.82325,2459.9631],[89.40491,50.82744,2451.729],[89.40202,50.83783,2542.0825],[89.39923,50.84413,2670.1116],[89.3924,50.85268,2786.0784],[89.38362,50.85757,2601.1709],[89.33277,50.87948,2723.5686],[89.31644,50.89302,2505.8613],[89.309,50.90134,2361.915],[89.1982,50.96741,2597.1904],[89.17247,50.99195,2711.6157],[89.16234,50.99991,2681.8325],[89.13661,51.01032,2477.6013],[89.08369,51.03859,2741.9104],[89.06881,51.04831,2374.3596],[89.05971,51.0559,2656.2075],[89.05237,51.06458,2522.8179],[89.04679,51.07378,2379.9565],[89.04442,51.07843,2388.1895],[89.04193,51.08825,2390.9097],[89.04121,51.09316,2614.9304],[89.04069,51.10838,2577.7856],[89.04152,51.11319,2473.6763],[89.04318,51.11859,2583.3828],[89.04845,51.13001,2660.656],[89.0502,51.13564,2467.7009],[89.05093,51.14101,2593.4924],[89.05082,51.14613,2326.6724],[89.04989,51.15117,2312.0122],[89.04431,51.1669,2421.0889],[89.04059,51.17383,2444.9683],[89.03222,51.18432,2648.283],[89.02478,51.19016,2582.1069],[89.01579,51.19396,2373.8826],[89.0009,51.19755,2342.7888],[88.98034,51.20563,2244.1326],[88.9608,51.21584,2383.4065],[88.9514,51.2224,2279.1165],[88.94582,51.22832,2249.4573],[88.94375,51.233,2250.5925],[88.94313,51.23811,2409.7573],[88.94344,51.24328,2392.9768],[88.94427,51.24866,2490.0798],[88.95119,51.27088,2145.4102],[88.95274,51.28157,2007.0],[88.95295,51.29211,2029.8833],[88.94499,51.33227,2164.6992],[88.9453,51.34276,2151.5151],[88.94592,51.34813,2211.3154],[88.94902,51.35914,2361.0845],[88.95646,51.3763,2355.5164],[88.96752,51.39443,2034.6865],[88.97186,51.40575,1946.7865],[88.97259,51.41206,1933.8887],[88.97155,51.41877,1941.3459],[88.96721,51.42787,1985.6879],[88.96194,51.43361,2029.9031],[88.95543,51.43836,2067.9189],[88.88339,51.46358,2415.4861],[88.86117,51.47557,2499.6748],[88.85456,51.4811,2735.1895],[88.84898,51.4874,2372.1194],[88.83761,51.50497,2286.4673],[88.83161,51.51133,2594.1494],[88.825,51.51649,2627.4663],[88.7357,51.55939,1974.1216],[88.65932,51.53489,2208.1899],[88.65405,51.53153,2270.5415],[88.65126,51.52781,2341.5281],[88.65126,51.52316,2272.6453],[88.6525,51.51841,2087.6797],[88.65664,51.50916,2080.3938],[88.65963,51.49985,2014.0125],[88.66707,51.48559,2369.1238],[88.66831,51.48063,2215.5278],[88.66852,51.47019,2157.2219],[88.66676,51.449,2093.8796],[88.66759,51.43371,2020.4359],[88.66697,51.42859,1955.0771],[88.66542,51.42363,2030.9602],[88.66077,51.41929,2076.0112],[88.65509,51.41562,2045.6289],[88.63586,51.40611,2416.5186],[88.60847,51.39578,2077.082],[88.60207,51.39226,2282.1116],[88.59648,51.38797,2129.4402],[88.59121,51.3826,2119.77],[88.56424,51.34627,2017.1379],[88.55897,51.34098,2169.2385],[88.55339,51.33648,2366.5186],[88.52135,51.31992,2209.2915],[88.51453,51.31764,2066.4861],[88.5077,51.31635,2064.6758],[88.36373,51.31981,2333.1995],[88.35009,51.32431,2204.6606],[88.29872,51.34886,2176.2415],[88.26193,51.36022,2400.9048],[88.18369,51.36379,1867.6268],[88.17119,51.36715,2065.0759],[88.1316,51.38591,1972.5225],[88.11992,51.39526,2062.613],[88.11341,51.40229,1923.5413],[88.11114,51.40751,1877.0104],[88.10711,51.42218,2028.0947],[88.10566,51.43218,2083.5544],[88.0946,51.44074,2186.729],[88.07352,51.45164,2177.4897],[87.97606,51.48712,2018.0012],[87.96758,51.48745,2140.2478],[87.95993,51.48626,2164.7632],[87.93317,51.47541,2180.2056],[87.92345,51.47903,2231.4504],[87.91001,51.49029,2068.0039],[87.89079,51.5167,1759.21],[87.86154,51.54936,2086.7202],[87.96738,51.59757,1772.2839],[87.97347,51.60228,1566.8082],[87.97854,51.60817,1661.0984],[87.98184,51.61824,1808.7209],[87.98277,51.62517,1779.3575],[87.98215,51.63122,1701.9697],[87.98102,51.63612,1753.7042],[87.98184,51.64212,1835.8513],[87.98443,51.6486,2139.7319],[87.99972,51.66212,1711.4789],[88.08644,51.71364,1710.4589],[88.09264,51.72031,1769.4993],[88.09843,51.72919,1661.8054],[88.10432,51.74516,1889.6263],[88.10597,51.75426,1639.4473],[88.10587,51.76141,1662.7131],[88.1037,51.76609,1661.3311],[88.1007,51.77069,1644.4438],[88.09708,51.77462,1530.902],[88.09202,51.77743,1490.177],[88.0853,51.77741,1302.8829],[87.9896,51.7555,1884.3607],[87.98288,51.75568,2020.1221],[87.97688,51.75782,2009.2214],[87.9434,51.78066,1920.7252],[87.92862,51.78754,1784.8956],[87.91973,51.78986,1749.6407],[87.91094,51.79095,1581.3262],[87.90288,51.79043,1521.7241],[87.89544,51.78893,1534.3877],[87.88831,51.78656,1642.3409],[87.86175,51.77358,1621.052],[87.85534,51.7717,1574.9608],[87.84904,51.77214,1515.0576],[87.84387,51.77498,1507.0905],[87.84015,51.77911,1401.1279],[87.83725,51.78361,1339.4351],[87.83519,51.78842,1232.778],[87.83457,51.79374,1316.8179],[87.83539,51.79927,1263.4583],[87.83694,51.8049,1178.8989],[87.83911,51.81064,1028.394],[87.84718,51.8189,909.2054],[87.8603,51.82903,1157.5507],[87.90536,51.85725,1279.1801],[87.97079,51.92184,1330.6262],[87.97409,51.92758,1245.5259],[87.97626,51.93319,1206.4578],[87.97761,51.93874,1114.4241],[87.98153,51.96551,1244.1562],[87.98619,51.97109,1230.0524],[87.99476,51.97636,1232.5031],[88.03011,51.98933,1059.1183],[88.03538,51.99259,892.5505],[88.03972,52.00287,892.6837],[88.05771,52.02096,1420.7854],[88.05791,52.02659,1412.5706],[88.05585,52.03171,1435.4346],[88.05295,52.03636,1470.4652],[88.05233,52.04132,1503.4945],[88.05481,52.04716,1374.2722],[88.05822,52.0531,1208.1362],[88.06732,52.06514,924.683],[88.07259,52.07059,873.858],[88.07817,52.07537,845.924],[88.09512,52.0868,873.7621],[88.11093,52.09488,978.0526],[88.12147,52.09827,1098.5808],[88.13295,52.09721,1296.8844],[88.13966,52.09393,1528.5806],[88.18669,52.06271,1144.0913],[88.19351,52.05923,1372.3987],[88.20106,52.05631,1189.3025],[88.21025,52.05501,1008.2674],[88.21956,52.05563,981.5955],[88.24922,52.06261,1413.02],[88.25862,52.06607,1420.6206],[88.26358,52.06935,1333.0851],[88.26193,52.07432,1165.1152],[88.25759,52.07855,1210.964],[88.24219,52.09085,1269.8252],[88.23816,52.09517,1226.7688],[88.23723,52.10028,1172.9598],[88.23806,52.10576,1228.6565],[88.24219,52.11134,1284.4287],[88.24953,52.11641,1113.908],[88.26658,52.12064,1264.8644],[88.32973,52.12491,1184.6121],[88.34575,52.13346,1421.365],[88.36477,52.168,1542.6438],[88.37055,52.19645,1180.5303],[88.36311,52.29869,683.14],[88.36497,52.30937,730.6643],[88.36942,52.31639,703.536],[88.4183,52.35068,785.5496],[88.42481,52.35706,803.7777],[88.42564,52.36228,853.5923],[88.42316,52.36704,930.8339],[88.41799,52.37156,888.4835],[88.41334,52.37667,1010.9183],[88.40869,52.38326,1188.3456],[88.40859,52.38926,867.9572],[88.41045,52.39541,804.7964],[88.41768,52.40941,861.5584],[88.42843,52.43561,1258.913],[88.42874,52.44445,1014.9835],[88.42637,52.45086,991.9774],[88.42068,52.4539,1134.4855],[88.41324,52.45514,1253.0848],[88.31619,52.44667,929.7173],[88.2456,52.42083,834.2875],[88.21573,52.41448,772.0652],[88.20839,52.41401,785.7592],[88.20095,52.41592,787.3454],[88.17594,52.42543,824.2655],[88.15176,52.43856,781.0588],[88.11341,52.4685,929.1425],[88.05636,52.49669,762.5288],[88.0144,52.51292,814.9791],[88.00665,52.51431,829.566],[87.99456,52.51524,840.036],[87.98619,52.51687,836.6663],[87.97595,52.52108,782.9803],[87.94939,52.53767,732.6015],[87.93441,52.54522,706.4539],[87.92376,52.54759,690.0929],[87.87384,52.54408,733.3925],[87.8664,52.5424,713.1853],[87.85989,52.53899,786.3351],[87.85431,52.53411,793.8423],[87.83942,52.51679,692.1863],[87.83395,52.51189,599.3501],[87.82775,52.50801,571.4806],[87.82061,52.50579,622.8065],[87.73545,52.49034,840.6512],[87.72811,52.4877,873.9761],[87.67168,52.45416,695.7888],[87.66486,52.45148,619.7056],[87.65659,52.44949,652.2936],[87.64739,52.44871,580.8566],[87.63551,52.4498,617.379],[87.62745,52.45266,673.0427],[87.62197,52.45667,633.8257],[87.61815,52.46093,783.1808],[87.61412,52.4662,761.0352],[87.60864,52.47194,893.3198],[87.59903,52.47982,691.3522],[87.5889,52.48421,748.3995],[87.57887,52.48734,856.2106],[87.45733,52.5031,788.3232],[87.39232,52.50579,853.1711],[87.37795,52.50873,818.3285],[87.37279,52.51313,776.9635],[87.37031,52.51827,722.7462],[87.37031,52.53927,693.2166],[87.35801,52.58397,676.1078],[87.35522,52.58922,622.395],[87.34964,52.59485,615.3522],[87.34209,52.5971,554.1893],[87.33403,52.59751,562.0343],[87.21342,52.58255,630.8762],[87.20339,52.58242,594.5737],[87.19171,52.58351,540.783],[87.17528,52.58692,472.4371],[87.16753,52.59111,500.511],[87.16443,52.59625,626.5754],[87.16536,52.60144,572.207],[87.16784,52.60586,636.6407],[87.17321,52.61162,575.5758]]]}}