{"type":"Feature","properties":{"GID_3":"RUS.9.3.1_1","GID_0":"RUS","country":"Russia","GID_1":"RUS.9_1","province":"Buryat","NL_NAME_1":"РеспубликаБурятия","GID_2":"RUS.9.3_1","county":"Bichurskiyrayon","NL_NAME_2":"Бичурскийрайон","city":"NA","VARNAME_3":"NA","NL_NAME_3":"NA","TYPE_3":"NA","ENGTYPE_3":"NA","CC_3":"NA","HASC_3":"NA","name":"N_A.city"},
"geometry":{"type": "MultiPolygon","coordinates": [[[[107.9316,50.2003,1238.4165],[107.944,50.2254,1386.2673],[107.9839,50.2657,1234.7576],[108.0277,50.2689,1097.7336],[108.0658,50.2581,1304.5934],[108.1042,50.2714,1381.582],[108.1408,50.2945,1230.7568],[108.1945,50.3316,1403.4386],[108.3061,50.3436,1202.7076],[108.4593,50.4108,1051.3971],[108.569,50.4014,1141.1532],[108.6071,50.3855,1098.507],[108.6253,50.4275,1439.4596],[108.6555,50.4586,1396.062],[108.6017,50.4633,1231.0262],[108.512,50.4682,1153.7627],[108.4715,50.4929,1085.3243],[108.4538,50.5301,956.8516],[108.4314,50.5407,1142.4048],[108.3783,50.5491,927.7641],[108.3204,50.554,977.6144],[108.298,50.578,1021.127],[108.2723,50.5917,953.6075],[108.1929,50.5926,921.0876],[108.0903,50.6588,771.6844],[108.0985,50.6851,798.5638],[108.1145,50.705,743.3357],[108.1513,50.7222,759.6251],[108.1997,50.7317,700.2713],[108.2469,50.7489,745.862],[108.2582,50.8432,673.2033],[108.2835,50.9324,1037.8774],[108.2886,50.9655,1076.936],[108.215,50.9667,883.4719],[108.1462,50.9657,1061.9727],[108.0889,50.9502,1029.7688],[108.003,50.9417,1042.7004],[107.9332,50.9703,1007.2211],[107.8776,50.9488,1005.3127],[107.8157,50.8884,1268.5145],[107.7514,50.8771,1163.6697],[107.6658,50.8924,994.7948],[107.4481,50.8724,1122.176],[107.3324,50.8273,1014.6086],[107.2921,50.7698,1151.9648],[107.2393,50.7506,947.0804],[107.1962,50.7653,844.7642],[107.1502,50.7897,717.4578],[107.0956,50.8244,656.2369],[107.017,50.8627,720.5948],[106.9481,50.8723,683.6099],[106.9102,50.8395,740.1608],[106.8871,50.8085,751.0183],[106.8549,50.7416,806.535],[106.8104,50.6563,575.8696],[106.7531,50.6179,638.5841],[106.7299,50.5926,740.949],[106.754,50.5206,738.4881],[106.8569,50.3967,581.1414],[106.8722,50.3415,584.7756],[106.9038,50.2803,589.9609],[106.934,50.2656,591.9538],[106.9497,50.2741,592.8193],[106.946,50.3363,588.147],[106.9778,50.362,646.8999],[107.0205,50.3377,666.3031],[107.0274,50.2908,618.9337],[107.1021,50.2689,648.5916],[107.2099,50.2881,897.6722],[107.2883,50.2774,894.9108],[107.3441,50.2277,789.5165],[107.5344,50.2132,1266.1541],[107.6012,50.1838,997.306],[107.6411,50.1972,1001.9735],[107.7435,50.1824,1010.2278],[107.8656,50.2046,1632.8942],[107.9316,50.2003,1238.4165]]]]}}