{"type":"Feature","properties":{"GID_3":"RUS.30.5.1_1","GID_0":"RUS","country":"Russia","GID_1":"RUS.30_1","province":"Khanty-Mansiy","NL_NAME_1":"Ханты-МансийскийАОк","GID_2":"RUS.30.5_1","county":"Khanty-Mansiyskiyrayon","NL_NAME_2":"Ханты-Мансийскийрайон","city":"NA","VARNAME_3":"NA","NL_NAME_3":"NA","TYPE_3":"NA","ENGTYPE_3":"NA","CC_3":"NA","HASC_3":"NA","name":"N_A.city"},
"geometry":{"type": "MultiPolygon","coordinates": [[[[67.5363,62.6311,137.1021],[67.6116,62.5982,141.3864],[67.6837,62.5584,84.2936],[67.6656,62.5315,126.0114],[67.6097,62.5252,132.4752],[67.5738,62.5134,104.4942],[67.5369,62.4738,122.1499],[67.53,62.426,119.1184],[67.5695,62.3907,98.7644],[67.6045,62.3686,69.4762],[67.5489,62.3315,114.4783],[67.4531,62.3039,97.4165],[67.377,62.2883,120.8975],[67.3441,62.2781,122.7299],[67.388,62.2408,111.6225],[67.5165,62.2366,89.1624],[67.6369,62.216,81.6511],[67.7384,62.1673,104.2904],[67.9483,62.0215,96.0912],[68.1343,61.9201,55.4125],[68.2145,61.8469,43.3072],[68.2365,61.8136,116.5961],[68.219,61.79,119.4128],[68.1464,61.7509,132.6956],[67.9176,61.6518,97.3463],[67.5633,61.537,21.4237],[67.3882,61.4601,57.9818],[67.1964,61.362,37.7634],[67.1379,61.3388,36.8758],[66.9023,61.3234,45.3418],[66.7059,61.3137,63.2187],[66.6314,61.3231,72.7099],[66.561,61.3553,85.9298],[66.5014,61.4079,90.7735],[66.3953,61.317,81.672],[66.3515,61.3075,88.1236],[66.3802,61.2944,74.5269],[66.3835,61.2674,69.0591],[66.4415,61.201,93.9168],[66.5079,61.1327,55.938],[66.5485,61.0752,77.9656],[66.7082,60.9439,71.2895],[66.8222,60.878,69.5855],[66.8604,60.8025,112.7886],[66.8355,60.7011,86.3453],[66.7972,60.6249,77.0948],[66.78,60.5966,76.2094],[66.7892,60.5599,73.0753],[66.965,60.5035,83.4701],[67.1962,60.4997,70.0492],[67.3505,60.5155,52.6847],[67.4437,60.4864,60.6901],[67.5304,60.43,94.1695],[67.5585,60.3768,89.4891],[67.5551,60.339,65.9489],[67.4497,60.2693,79.7616],[67.4306,60.2345,76.596],[67.4083,60.1835,75.3879],[67.3802,60.1318,66.2368],[67.5032,60.0678,59.7917],[67.6282,60.0463,58.9085],[67.7439,60.0531,56.1776],[67.8298,60.0622,53.4208],[67.9513,60.0416,46.142],[68.0566,60.0322,41.8124],[68.169,60.0397,44.8269],[68.3329,60.0554,41.31],[68.45,60.0843,37.7223],[68.573,60.136,35.1435],[68.6187,60.1822,37.8713],[68.6332,60.2306,39.659],[68.579,60.2729,41.3134],[68.5472,60.3036,44.2184],[68.5584,60.341,32.6551],[68.6174,60.4149,35.0749],[68.686,60.4717,31.4166],[68.7465,60.5143,31.5924],[68.8373,60.5338,32.337],[68.9224,60.5285,31.9389],[69.0199,60.517,36.0945],[69.1516,60.5149,31.9327],[69.2777,60.5387,29.3134],[69.4019,60.5872,31.3522],[69.5431,60.6334,29.3859],[69.6303,60.6443,25.5989],[69.7003,60.6308,26.343],[69.7556,60.6027,36.6304],[69.7455,60.5357,33.3701],[69.703,60.47,29.6063],[69.6585,60.4189,32.1769],[69.5876,60.3674,31.014],[69.5282,60.3357,33.0107],[69.5644,60.2869,38.6876],[69.6041,60.2491,35.4351],[69.5923,60.2008,37.0687],[69.5425,60.1492,29.238],[69.4741,60.1,27.592],[69.3935,60.0529,40.78],[69.3083,60.0085,46.978],[69.2161,59.9734,38.0065],[69.2054,59.9362,39.3273],[69.2459,59.8936,35.5519],[69.289,59.9285,36.8359],[69.3736,59.9462,38.9252],[69.4694,59.9483,39.4169],[69.5579,59.9557,38.8685],[69.6286,59.9415,38.7595],[69.6974,59.9228,34.4407],[69.6884,59.8964,35.3996],[69.7024,59.8544,32.4512],[69.8055,59.8612,36.7662],[69.9608,59.8894,93.4709],[70.14,59.9331,77.9811],[70.317,59.8635,98.9169],[70.4087,59.8409,98.8758],[70.4954,59.8172,98.6586],[70.5891,59.805,93.4937],[70.6781,59.8218,104.2086],[70.7978,59.8337,87.9723],[70.7655,59.8768,85.1194],[70.6432,59.9875,89.1121],[70.5748,60.0557,84.7446],[70.5112,60.0839,85.2701],[70.4397,60.1182,84.9403],[70.3248,60.1593,81.6553],[70.2455,60.1948,88.7062],[70.2163,60.2462,97.2368],[70.2144,60.2799,110.7295],[70.2362,60.3465,103.3587],[70.2454,60.4281,77.1923],[70.2549,60.4947,56.6032],[70.292,60.5648,52.8309],[70.3015,60.6463,60.1846],[70.3348,60.6823,52.4115],[70.4,60.7156,58.2082],[70.5379,60.7726,47.1012],[70.6703,60.8142,47.4991],[70.7784,60.8639,50.9433],[70.8796,60.9211,36.8572],[70.9833,60.9845,26.7801],[71.0649,61.0689,48.8881],[71.0732,61.1536,24.9688],[71.0956,61.2475,20.7617],[71.1512,61.3487,32.1259],[71.16,61.4265,40.645],[71.0728,61.511,51.0478],[70.966,61.5931,49.1172],[70.8813,61.6332,82.3039],[70.8004,61.6692,58.9701],[70.6725,61.7047,49.4196],[70.5801,61.7281,90.8118],[70.5295,61.7778,84.6827],[70.4675,61.847,45.7544],[70.4741,61.8996,49.8209],[70.5132,61.9564,53.5046],[70.6131,61.9986,54.4147],[70.7004,62.0129,63.0682],[70.8396,62.0296,62.6771],[70.9663,62.0693,70.714],[71.1004,62.1513,72.7226],[71.1235,62.2102,79.2892],[71.1733,62.2578,84.0395],[71.3097,62.3149,80.5],[71.3504,62.3784,82.0],[71.3301,62.4546,85.0],[71.2734,62.5341,88.4171],[71.2611,62.615,91.0],[71.242,62.7194,95.8961],[71.1917,62.8431,105.5214],[71.1497,62.9925,114.7799],[71.1185,63.165,136.6206],[70.7015,63.1627,127.687],[70.4805,63.1704,128.7694],[70.3993,63.1659,129.8749],[70.2906,63.1244,130.9232],[70.1358,63.0839,136.0998],[69.9229,63.0182,124.2581],[69.7538,62.9809,118.1851],[69.4557,62.9093,117.8194],[69.2365,62.8407,119.9825],[69.154,62.7897,114.8908],[69.1082,62.7843,113.2491],[68.9619,62.8256,127.9799],[68.9227,62.856,117.6612],[68.9159,62.8899,114.5572],[68.9126,62.9346,103.328],[68.8567,62.9714,115.4715],[68.8204,63.0208,122.9593],[68.739,63.0143,105.715],[68.6719,62.9756,122.3662],[68.5799,62.9289,138.869],[68.5082,62.9357,149.2809],[68.4739,62.9359,143.315],[68.37,62.9036,143.3642],[68.3252,62.9165,134.4387],[68.2875,62.9117,140.4113],[68.26,62.8982,131.0866],[68.2749,62.862,127.4921],[68.2493,62.8215,128.6933],[68.1459,62.7737,112.4537],[67.9244,62.7182,114.8906],[67.7292,62.6755,153.7723],[67.6076,62.6687,159.8205],[67.5363,62.6311,137.1021]],
[[70.2476,60.5053,56.0099],[70.2355,60.5025,55.7321],[70.2221,60.5025,81.8794],[70.2135,60.5093,83.5416],[70.2148,60.5128,92.146],[70.2357,60.5169,60.1387],[70.2457,60.5137,53.3971],[70.2503,60.5092,65.0692],[70.2476,60.5053,56.0099]]]]}}