{"type":"Feature","properties":{"GID_3":"RUS.35.9.1_1","GID_0":"RUS","country":"Russia","GID_1":"RUS.35_1","province":"Krasnoyarsk","NL_NAME_1":"Красноярскийкрай","GID_2":"RUS.35.9_1","county":"Boguchanskiyrayon","NL_NAME_2":"Богучанскийрайон","city":"NA","VARNAME_3":"NA","NL_NAME_3":"NA","TYPE_3":"NA","ENGTYPE_3":"NA","CC_3":"NA","HASC_3":"NA","name":"N_A.city"},
"geometry":{"type": "MultiPolygon","coordinates": [[[[99.5624,58.0738,279.19],[99.5217,58.1092,291.9813],[99.4884,58.1456,311.7034],[99.4542,58.1884,361.0995],[99.4332,58.223,340.1874],[99.3945,58.2346,347.154],[99.3176,58.2212,358.8438],[99.219,58.192,338.3185],[99.1557,58.1932,313.4515],[99.0884,58.22,249.8998],[99.0375,58.246,274.8975],[98.9863,58.3077,325.2636],[99.0135,58.3537,403.2403],[99.0474,58.3769,414.3517],[99.114,58.4041,298.8063],[99.125,58.4381,325.6782],[99.1152,58.4727,299.1855],[99.081,58.5153,258.3568],[99.0303,58.5423,311.0229],[98.982,58.5792,327.6959],[98.9328,58.6235,295.5243],[98.8975,58.6642,134.5],[98.8889,58.718,217.4738],[99.0113,58.7678,299.4305],[99.0838,58.7823,298.7916],[99.155,58.793,462.4176],[99.3391,58.8413,296.6875],[99.62,58.8971,358.985],[99.7245,58.9415,324.3987],[99.8349,58.985,326.3495],[99.9421,59.0329,325.9194],[100.0173,59.1208,325.8852],[100.0433,59.2195,283.7076],[100.0217,59.3097,302.4916],[100.0213,59.3854,315.2733],[99.9903,59.5038,267.6059],[99.9561,59.5592,317.2368],[99.9052,59.5845,275.6552],[99.8851,59.6127,292.4838],[99.8722,59.6463,236.664],[99.8059,59.6869,285.1294],[99.7239,59.6874,293.4103],[99.623,59.6959,290.4448],[99.5825,59.7284,300.007],[99.5654,59.7792,277.4785],[99.5947,59.8058,263.3831],[99.6458,59.8324,272.4582],[99.7889,59.8804,332.7856],[99.8417,59.8943,282.6052],[99.8562,59.9415,303.2173],[99.8488,59.9896,335.0836],[99.8044,60.0329,357.3931],[99.7155,60.0778,345.8012],[99.6134,60.0908,357.1689],[99.593,60.0906,369.7306],[99.4712,60.098,374.9399],[99.3453,60.0862,377.3461],[99.2737,60.0548,334.2945],[99.2673,60.0103,353.7664],[99.2147,59.9862,357.7431],[99.129,59.9573,383.2148],[99.0486,59.922,371.3284],[99.0321,59.8583,387.5773],[99.0199,59.8264,367.354],[98.9645,59.794,485.0767],[98.8404,59.7671,350.4037],[98.7906,59.7883,403.7378],[98.7627,59.8025,430.8311],[98.6557,59.8038,477.0428],[98.6456,59.7864,488.7074],[98.5601,59.7752,509.4838],[98.4241,59.7505,350.6705],[98.3559,59.7595,449.3973],[98.3047,59.7578,363.3468],[98.2476,59.7323,534.7393],[98.132,59.7367,532.1586],[98.0847,59.7577,541.4453],[97.9879,59.7587,433.3233],[97.9359,59.7359,474.6494],[97.8585,59.7181,439.3839],[97.7257,59.71,444.3845],[97.6579,59.6904,489.8972],[97.5613,59.6811,478.2371],[97.5139,59.7082,444.2476],[97.4421,59.7339,524.5983],[97.3708,59.715,365.1954],[97.3413,59.6952,490.2612],[97.2229,59.6633,463.8858],[97.1047,59.6404,379.2083],[97.1088,59.5922,433.9034],[97.0762,59.545,489.5623],[96.9992,59.5156,485.9558],[96.8079,59.5534,548.4651],[96.7011,59.5677,468.1786],[96.5872,59.5444,502.1307],[96.4525,59.5568,513.968],[96.3794,59.5418,447.1617],[96.4174,59.5148,580.1333],[96.4095,59.4817,585.8414],[96.3454,59.4597,607.8812],[96.2817,59.4723,535.3744],[96.2317,59.5154,573.7429],[96.2566,59.5499,545.3511],[96.1981,59.5844,494.7341],[96.1967,59.609,638.7524],[96.1693,59.629,596.8519],[96.1107,59.6135,423.005],[96.0839,59.5661,404.9783],[96.0165,59.5648,408.6096],[95.9264,59.5855,496.7713],[95.9144,59.6243,499.8147],[95.8557,59.6387,443.7486],[95.7701,59.622,325.607],[95.6835,59.6016,433.9838],[95.6809,59.566,314.9703],[95.6564,59.5003,382.1266],[95.6248,59.4354,363.3062],[95.5241,59.365,341.0848],[95.4289,59.3195,395.7186],[95.3534,59.2783,367.6666],[95.2851,59.2473,390.9375],[95.2325,59.227,410.8513],[95.1928,59.2016,298.8027],[95.2216,59.1398,284.5674],[95.2637,59.0976,389.6321],[95.3513,59.0846,323.6968],[95.4165,59.0689,394.4915],[95.4203,59.0152,372.8571],[95.4392,58.9958,240.9581],[95.4027,58.9377,373.8973],[95.4277,58.8729,191.8933],[95.4665,58.826,378.6836],[95.4658,58.7638,179.0407],[95.4332,58.6886,287.3425],[95.4079,58.6437,411.8284],[95.3995,58.5776,301.9587],[95.434,58.5442,220.0901],[95.4332,58.4984,290.2615],[95.4071,58.4709,124.2736],[95.3883,58.4409,107.1289],[95.4398,58.3835,341.0411],[95.4762,58.3236,473.5714],[95.5228,58.2797,295.1017],[95.5578,58.239,299.8001],[95.5769,58.1986,410.3662],[95.5455,58.1233,425.2179],[95.4978,58.063,367.2606],[95.4346,58.0277,333.8231],[95.3797,57.9734,323.4422],[95.3684,57.9154,314.1586],[95.2948,57.885,239.4526],[95.2483,57.8466,283.4128],[95.2041,57.8165,288.0136],[95.181,57.7973,350.8041],[95.1783,57.7441,148.0698],[95.2874,57.7513,215.0825],[95.4259,57.7467,242.6026],[95.5302,57.6922,292.9857],[95.5688,57.6343,254.5174],[95.5651,57.5948,276.2261],[95.5675,57.5392,281.1119],[95.6212,57.5046,340.0899],[95.7155,57.4935,343.7692],[95.8148,57.5308,394.2733],[95.8651,57.5554,363.6104],[95.9332,57.5734,335.518],[95.9987,57.5738,359.2032],[96.0636,57.4837,384.1719],[96.1553,57.4337,206.7595],[96.2212,57.4212,145.4942],[96.2865,57.4324,342.1636],[96.3444,57.4516,364.5072],[96.4844,57.4367,355.4218],[96.7831,57.3667,257.3676],[96.941,57.3326,340.0501],[97.1469,57.2365,229.802],[97.2123,57.186,288.9623],[97.2718,57.1573,257.9007],[97.3363,57.1588,296.5617],[97.6726,57.571,381.8222],[97.851,57.8077,253.0777],[98.2522,57.8012,237.6108],[98.3924,57.7961,240.6463],[98.6997,57.7903,365.2007],[98.7605,57.7334,389.4544],[98.8984,57.7277,401.1756],[98.9923,57.7397,407.3622],[99.0639,57.7862,317.394],[99.1558,57.7761,323.328],[99.2085,57.7885,253.3922],[99.362,57.8016,226.982],[99.3677,57.8767,253.996],[99.4281,57.8991,276.0685],[99.4268,57.9576,282.7474],[99.5269,57.9922,304.5522],[99.5624,58.0738,279.19]]]]}}