{"type":"Feature","properties":{"GID_3":"RUS.71.12.1_1","GID_0":"RUS","country":"Russia","GID_1":"RUS.71_1","province":"Tuva","NL_NAME_1":"РеспубликаТыва","GID_2":"RUS.71.12_1","county":"Piy-Khemskiyrayon","NL_NAME_2":"Пий-Хемскийрайон","city":"NA","VARNAME_3":"NA","NL_NAME_3":"NA","TYPE_3":"NA","ENGTYPE_3":"NA","CC_3":"NA","HASC_3":"NA","name":"N_A.city"},
"geometry":{"type": "MultiPolygon","coordinates": [[[[92.7601,51.8612,1562.741],[92.8421,51.8383,1872.1819],[92.9045,51.8268,1887.9012],[92.9847,51.8684,1660.0967],[93.0469,51.8847,1219.2004],[93.1241,51.8713,1404.7795],[93.1508,51.8222,1226.3303],[93.2331,51.8026,1509.8534],[93.3008,51.8441,1395.1243],[93.3671,51.8428,1685.4371],[93.4163,51.8802,1284.4663],[93.4888,51.895,1528.3833],[93.5407,51.8853,1928.6608],[93.5359,51.8359,1394.7942],[93.5561,51.8122,1312.8619],[93.6415,51.8258,1512.8436],[93.6515,51.7922,1374.7952],[93.606,51.7597,1513.1501],[93.6045,51.7216,1007.9724],[93.628,51.6768,1054.792],[93.6809,51.6512,808.7836],[93.7947,51.6406,755.7477],[93.9594,51.654,1102.457],[94.1061,51.6792,862.4404],[94.21,51.7166,779.8451],[94.2698,51.7496,834.5087],[94.3032,51.8172,1016.1914],[94.3998,51.8521,901.0005],[94.3959,51.888,824.0061],[94.3815,51.9354,840.4135],[94.4273,51.9832,1000.1653],[94.4478,52.0167,701.8002],[94.4265,52.0506,925.5231],[94.3785,52.0462,747.4396],[94.3235,52.0367,1016.3654],[94.2484,52.0455,1045.9681],[94.2293,52.111,924.921],[94.2734,52.1503,1259.5839],[94.3676,52.1657,1109.7499],[94.4207,52.1852,1504.0227],[94.4059,52.2342,1353.8243],[94.4356,52.2653,1412.1445],[94.4498,52.3094,1614.4043],[94.5045,52.3188,1363.0067],[94.5779,52.3172,725.3845],[94.6366,52.3534,2048.5759],[94.6602,52.4044,1322.2433],[94.6775,52.4707,1352.2219],[94.7625,52.4897,1416.9979],[94.8819,52.5003,797.2314],[94.9676,52.4888,809.2153],[95.0378,52.5318,808.6252],[95.03,52.5866,1024.0707],[94.9684,52.6425,1152.7675],[94.9296,52.7133,1190.3501],[94.9027,52.7533,1586.4462],[94.8298,52.7671,1338.8693],[94.7179,52.7523,1427.9453],[94.668,52.7847,1389.1379],[94.6941,52.8319,1334.4773],[94.68,52.8972,1216.7249],[94.5963,52.9085,1312.6577],[94.5332,52.9098,1845.5984],[94.4829,52.8934,1820.5308],[94.4067,52.8865,1505.0134],[94.3894,52.9223,1254.8591],[94.2494,52.9202,1064.3192],[94.1347,52.8835,1099.9417],[94.0427,52.7911,1738.1055],[93.9874,52.6813,1650.7639],[93.9066,52.6536,1373.5828],[93.8996,52.5787,1633.7446],[93.8513,52.5611,1672.1951],[93.7463,52.4877,1432.0684],[93.7432,52.3834,1945.441],[93.6365,52.3345,1332.2802],[93.5953,52.2057,1017.1472],[93.415,52.1841,1140.4788],[93.3659,52.1542,1202.9781],[93.3244,52.1451,1152.1525],[93.2493,52.1098,1282.2205],[93.1779,52.0469,1545.0664],[93.1297,52.0431,1523.5552],[93.0305,51.964,1035.8412],[92.9796,51.9624,1060.5698],[92.8986,51.9143,1563.3967],[92.8262,51.852,1778.0728],[92.7601,51.8612,1562.741]]]]}}