{"type":"Feature","properties":{"GID_2":"RUS.16.8_1","GID_0":"RUS","country":"Russia","GID_1":"RUS.16_1","province":"Gorno-Altay","NL_NAME_1":"РеспубликаАлтай","county":"Turochakskiyrayon","VARNAME_2":"NA","NL_NAME_2":"Турочакскийрайон","TYPE_2":"Raion","ENGTYPE_2":"District","CC_2":"R53010","HASC_2":"RU.GA.TU","name":"Turochakskiyrayon.county"},
"geometry":{"type": "MultiPolygon","coordinates": [[[[86.7292,52.181,417.067],[86.7539,52.1404,662.1643],[86.7676,52.1096,765.5584],[86.8336,52.1083,526.1549],[86.8794,52.099,514.1157],[86.9053,51.9964,402.0726],[86.8559,51.9635,691.2878],[86.8193,51.9238,714.64],[86.8417,51.8764,488.402],[86.877,51.8352,431.1013],[86.9288,51.7541,674.8225],[86.9624,51.6327,841.8639],[87.0695,51.3676,1647.02],[87.0924,51.294,1920.6184],[87.1002,51.2615,2194.4885],[87.1261,51.2459,2187.3223],[87.1669,51.2443,2174.9763],[87.1785,51.2224,2062.9668],[87.1952,51.2077,1904.2426],[87.2983,51.2423,1801.5037],[87.3813,51.2568,2099.1965],[87.4874,51.2692,1938.7766],[87.52,51.2693,1659.3242],[87.5418,51.2942,1934.2063],[87.5458,51.3281,1678.0542],[87.5737,51.3527,1790.34],[87.6287,51.3721,1942.0054],[87.6763,51.3673,1924.5782],[87.6953,51.35,1836.2913],[87.7201,51.3463,765.652],[87.7427,51.3693,590.5955],[87.737,51.4114,437.044],[87.689,51.5017,433.5],[87.6802,51.5341,433.5],[87.6925,51.5569,433.5],[87.7477,51.5622,1557.9645],[87.7865,51.5387,1547.6031],[87.8444,51.5545,1928.1594],[87.904,51.5649,1728.1155],[87.9058,51.5876,1991.3181],[88.0046,51.6068,1911.4329],[88.0204,51.6429,1997.5964],[88.0586,51.6795,1971.5237],[88.1131,51.7217,1853.8059],[88.0985,51.7692,1549.1478],[88.0097,51.7502,1745.6476],[87.9566,51.7665,1874.1978],[87.9161,51.8093,1346.3571],[87.9789,51.8783,1302.213],[88.0151,51.9463,1181.7148],[88.0478,51.9823,1268.5834],[88.0539,52.0357,1470.4652],[88.1559,52.0681,1176.8403],[88.2749,52.0698,1077.7865],[88.3095,52.1105,1429.8303],[88.3955,52.1418,1259.0995],[88.4223,52.1835,1211.2544],[88.4206,52.2193,884.0743],[88.4154,52.252,738.1971],[88.4158,52.2909,839.9973],[88.4457,52.3383,1022.8342],[88.4158,52.3721,914.7555],[88.3993,52.4165,967.4197],[88.3633,52.4247,841.8107],[88.2834,52.4366,798.9869],[88.2163,52.4165,749.0969],[88.166,52.4111,978.5492],[88.0869,52.4543,597.1834],[88.0132,52.4851,626.4189],[87.9674,52.5188,754.1353],[87.9173,52.5466,742.9559],[87.8539,52.5434,755.61],[87.7724,52.4956,633.678],[87.7016,52.4341,575.3632],[87.6342,52.4294,747.5938],[87.6042,52.4417,593.6964],[87.5055,52.4721,985.363],[87.3972,52.4893,777.6924],[87.3203,52.5083,680.9837],[87.337,52.5462,670.8782],[87.2957,52.5877,688.2531],[87.2139,52.593,735.2789],[87.1632,52.5696,465.9895],[87.1155,52.5973,510.3727],[87.0733,52.6312,535.2406],[87.0021,52.6459,481.1615],[86.9097,52.636,506.5783],[86.8185,52.6047,393.0527],[86.7565,52.5696,309.5808],[86.7124,52.5365,288.2615],[86.6644,52.5372,266.3174],[86.6446,52.5144,247.4417],[86.6646,52.4742,276.6806],[86.6923,52.4341,311.4894],[86.6639,52.3742,403.6339],[86.6576,52.3039,396.3933],[86.7107,52.2788,380.4539],[86.7206,52.2457,370.3763],[86.7292,52.181,417.067]]]]}}