{"type":"Feature","properties":{"featurecla":"Lake","scalerank":9,"name":"Ozero Soluntakh","name_abb":"O. Soluntakh","name_alt":"Lake Soluntakh","note":null,"delta":null,"dam_name":null,"year":-99,"admin":null,"min_zoom":7.0,"min_label":8.0},
"geometry":{"type": "Polygon","coordinates": [[[143.36166275373313,71.693380033371554,4.0],[143.34458963435952,71.703094049566886,4.0],[143.37579223183548,71.701033500676971,5.9265],[143.39198225882774,71.701916593058371,4.7835],[143.40346245978583,71.706626419092473,4.0],[143.40728919343854,71.713691158143632,4.0],[143.40640610105714,71.721050261321921,4.0],[143.40169627502308,71.727526272118823,5.3842],[143.39463153597188,71.731647369898667,5.62],[143.21271450540451,71.788459646435072,19.4028],[143.18445554919987,71.79169765183353,16.2178],[143.17062043522469,71.7896371029436,8.6843],[143.14324457140145,71.780217450875384,4.0],[143.128820729172,71.778156901985469,4.0],[143.04551568119376,71.784632912782371,9.294],[143.03315238785422,71.77786253785834,6.6845],[143.02903129007439,71.766087972773065,7.873],[143.03550730087125,71.750781038162216,6.6578],[143.0284425618201,71.739006473076955,6.5156],[143.02255527927747,71.731647369898667,6.4908],[143.01607926848055,71.7263488156103,6.1396],[142.99841742085266,71.716634799414948,7.8699],[142.99812305672555,71.712219337507975,6.4223],[143.08702102311929,71.705448962583944,5.8671],[143.10792087614567,71.69426312575294,4.8079],[143.09761813169604,71.66835908256536,27.1018],[143.1529585875968,71.668064718438231,4.0],[143.17856826665724,71.6651210771669,4.0],[143.22802144001537,71.648636686047539,6.6552],[143.25451421145721,71.643338131759165,6.5937],[143.31073775973937,71.640983218742107,4.0],[143.33104888451146,71.6445155882677,4.0],[143.39816390549748,71.670125267328146,4.0],[143.40993847058274,71.679544919396363,4.0],[143.39080480231917,71.686609658447523,4.0],[143.36166275373313,71.693380033371554,4.0]]]}}