{"type":"Feature","properties":{"featurecla":"Lake","scalerank":9,"name":"Ozero Bolshoy Olr","name_abb":"O. Bolshoy Olr","name_alt":"Lake Bolshoy Olr","note":null,"delta":null,"dam_name":null,"year":-99,"admin":null,"min_zoom":7.0,"min_label":8.0},
"geometry":{"type": "Polygon","coordinates": [[[156.07672122518562,69.509492574181678,19.2845],[156.01843712801355,69.52215023164834,13.6896],[155.98694016641048,69.523622052284026,14.8335],[155.96015303084147,69.517146041487109,18.4964],[155.96721776989261,69.500956014494875,19.601],[155.95868121020584,69.493008183062329,23.752],[155.94602355273918,69.486532172265413,19.3739],[155.93984190606938,69.4759350636887,20.1032],[155.94720100924769,69.460039400823575,20.1238],[155.9642741286213,69.448559199865429,17.6165],[155.98458525339339,69.442377553195684,17.031],[156.04198625818407,69.435607178271653,12.5],[156.10762945853446,69.440611368432883,12.5],[156.16709101221505,69.455918303043717,12.5],[156.18769650111426,69.48211671035844,15.5863],[156.17091774586777,69.492419454808044,16.7285],[156.07672122518562,69.509492574181678,19.2845]]]}}