{"type":"Feature","properties":{"featurecla":"Lake","scalerank":9,"name":"null442","name_abb":null,"name_alt":null,"note":"_untitled_304","delta":null,"dam_name":null,"year":-99,"admin":null,"min_zoom":7.0,"min_label":8.0},
"geometry":{"type": "Polygon","coordinates": [[[151.94031651073141,68.518074194002224,25.4311],[151.90940827738257,68.511009454951079,26.7907],[151.87761695165233,68.499823618120075,28.3924],[151.84935799544769,68.4954081562131,23.7812],[151.83964397925234,68.498940525738675,25.4254],[151.8316961478198,68.5048278082813,27.2094],[151.82227649575162,68.508948906061136,26.7702],[151.80991320241208,68.507771449552621,28.2161],[151.79990482208962,68.5039447158999,28.703],[151.77341205064772,68.488637781289071,27.2167],[151.67774370932995,68.476568852076667,26.5577],[151.63977073692996,68.4621450098472,26.0208],[151.65007348137959,68.4277044069728,25.7165],[151.69805483410204,68.401800363785213,25.6386],[151.76075439318106,68.39650180949684,23.7701],[151.82492577289577,68.404744005056529,23.4329],[151.90793645674694,68.429176227608451,23.2769],[151.94855870629107,68.449192988253429,23.1002],[151.97564020598719,68.476274487949524,23.4348],[151.96533746153762,68.509537634315421,29.6541],[151.94031651073141,68.518074194002224,25.4311]]]}}