{"type":"Feature","properties":{"featurecla":"Lake","scalerank":9,"name":"Ozero Bakul","name_abb":"O. Bakul","name_alt":"Lake Bakul","note":null,"delta":null,"dam_name":null,"year":-99,"admin":null,"min_zoom":7.0,"min_label":8.0},
"geometry":{"type": "Polygon","coordinates": [[[147.26875781315181,71.038125486376458,8.4952],[147.25757197632078,71.05578733400435,8.4127],[147.23667212329445,71.092877214022934,11.1405],[147.188690770572,71.1046517791082,17.4571],[147.08949005972863,71.099647588946965,10.8998],[147.03768197335347,71.091405393387276,9.2121],[147.01148356603875,71.081397013064816,7.5],[147.00736246825886,71.069033719725269,7.5],[147.01678212032709,71.049900051461719,10.1189],[147.00795119651315,71.039302942884973,11.849],[146.99058371301237,71.031943839706685,9.8804],[146.97645423491008,71.023996008274139,10.1436],[146.96261912093485,71.023996008274139,10.1557],[146.98764007174105,71.020758002875681,10.0962],[147.05828746225268,70.990438497781128,9.8422],[147.11009554862784,70.9819019380943,8.929],[147.13806014070536,70.981313209840039,8.8606],[147.23902703631148,70.999269421595073,8.8497],[147.26463671537198,71.007511617154762,8.5111],[147.29436749221225,71.024879100655539,8.4452],[147.28848020966961,71.031355111452427,8.4214],[147.26875781315181,71.038125486376458,8.4952]]]}}