{"type":"Feature","properties":{"featurecla":"Lake","scalerank":9,"name":"Ozero Ozhogino","name_abb":"O. Ozhogino","name_alt":"Lake Ozhogino","note":null,"delta":null,"dam_name":null,"year":-99,"admin":null,"min_zoom":7.0,"min_label":8.0},
"geometry":{"type": "Polygon","coordinates": [[[146.8746042469225,69.294018033121318,41.0919],[146.85046638849769,69.297844766774034,44.2872],[146.82986089959849,69.299905315663949,42.9185],[146.77834717735044,69.318450255673241,79.542],[146.75950787321403,69.321393896944556,99.4031],[146.70269559667759,69.318450255673241,102.3112],[146.67767464587143,69.322571353453071,109.1919],[146.63852421696288,69.319627712181756,65.3105],[146.59996251630866,69.31167988074921,163.8544],[146.55080370707765,69.2875420223244,52.1875],[146.52107293023738,69.282832196290315,70.7191],[146.45896209941259,69.283715288671715,46.3852],[146.43394114860638,69.2781223702562,36.8081],[146.43099750733506,69.2651703486624,32.257],[146.44277207242033,69.2492746857973,32.2674],[146.46220010481102,69.235145207694984,32.4172],[146.49369706641414,69.22307627848258,32.3339],[146.53284749532264,69.214834082922891,32.4674],[146.57258665248543,69.212479169905833,32.3399],[146.6709042709474,69.224548099118238,32.3874],[146.81632014975042,69.22307627848258,35.4674],[146.8746042469225,69.249569049924418,33.3916],[146.88785063264345,69.2678196258066,32.8811],[146.88755626851628,69.283420924544572,33.7709],[146.8746042469225,69.294018033121318,41.0919]]]}}