{"type":"Feature","properties":{"featurecla":"Lake","scalerank":9,"name":"Ozero Krugovatoye","name_abb":"O. Krugovatoye","name_alt":"Lake Krugovatoye","note":null,"delta":null,"dam_name":null,"year":-99,"admin":null,"min_zoom":7.0,"min_label":8.0},
"geometry":{"type": "Polygon","coordinates": [[[155.66343399069274,69.484765987502641,20.0366],[155.56629382873928,69.46033376495069,18.2751],[155.50830409569437,69.434429721763109,16.9975],[155.52567157919515,69.428248075093364,17.2029],[155.58395567636722,69.420888971915048,16.5],[155.6004400674866,69.423538249059249,16.5],[155.63164266496256,69.432663537000337,16.5],[155.64871578433616,69.434429721763109,16.5],[155.66608326783694,69.43119171636468,16.5],[155.71435898468656,69.407642586194129,16.5],[155.75144886470514,69.402932760160041,16.5],[155.762340337409,69.415001689372417,16.5],[155.75086013645085,69.435018450017367,18.4817],[155.7205406313563,69.454446482408059,16.5],[155.73790811485708,69.462983042094891,16.5],[155.7596910602648,69.470636509400322,23.5667],[155.78265146218109,69.475346335434409,23.8775],[155.80296258695319,69.4759350636887,19.5334],[155.75674741899348,69.4947743678251,39.6297],[155.66343399069274,69.484765987502641,20.0366]]]}}