{"type":"Feature","properties":{"featurecla":"Lake","scalerank":5,"name":"Ozero Mogotoyevo","name_abb":"O. Mogotoyevo","name_alt":"Lake Mogotoyevo","note":null,"delta":null,"dam_name":null,"year":-99,"admin":null,"min_zoom":4.7,"min_label":6.0},
"geometry":{"type": "Polygon","coordinates": [[[149.29604355670762,72.069283023718683,-0.2534],[149.26160295383323,72.1196192894582,-0.2467],[149.24482419858668,72.134484677878348,1.1555],[149.2095005033309,72.152588071696954,0.6023],[149.17064443854952,72.162890816146557,1.602],[149.0440678638829,72.169661191070588,1.5683],[149.02051873371238,72.168042188371359,1.7017],[148.99785269592326,72.162449269955857,1.7296],[148.97813029940539,72.154501438523312,1.6697],[148.97695284289688,72.151410615188425,2.8816],[148.98077957654959,72.146847971217881,3.3184],[148.97813029940539,72.134484677878348,0.7603],[148.9657670060659,72.117411558504713,1.6839],[148.91572510445349,72.072962575307841,4.3198],[148.92337857175892,72.065603472129538,3.7994],[148.91572510445349,72.058833097205522,7.9598],[148.91984620223332,72.049266263073733,15.5012],[148.90895472952946,72.023067855759024,4.7545],[148.91572510445349,72.01099892654662,2.6846],[148.95723044637907,71.970671041129577,-0.4641],[148.97135992448136,71.947121910959041,-0.4276],[148.95752481050619,71.92916569920402,1.945],[148.97489229400696,71.922689688407118,0.2734],[149.01257090227983,71.917979862373016,-0.3994],[149.09146048835112,71.895902552838137,0.2081],[149.15268822679451,71.894136368075351,-0.1359],[149.17329371569372,71.897963101728052,0.1129],[149.18977810681309,71.907971482050542,-0.023],[149.19066119919449,71.912681308084643,0.1919],[149.18771755792318,71.917685498245874,1.2375],[149.17976972649058,71.925633329678433,0.0773],[149.17829790585495,71.931520612221064,-0.0873],[149.18300773188906,71.935641710000908,-0.1218],[149.19654848173712,71.942706449052068,-0.2847],[149.22362998143325,71.9615457531885,0.2521],[149.28750699702078,71.984064608914068,-0.2403],[149.31694340973394,72.000990546224145,-0.0754],[149.33342780085331,72.022037581314052,-0.1884],[149.3296010672006,72.0382276083063,-0.1192],[149.29604355670762,72.069283023718683,-0.2534]]]}}