{"type":"Feature","properties":{"featurecla":"Lake","scalerank":9,"name":"null445","name_abb":null,"name_alt":null,"note":"_untitled_301","delta":null,"dam_name":null,"year":-99,"admin":null,"min_zoom":7.0,"min_label":8.0},
"geometry":{"type": "Polygon","coordinates": [[[155.11150125232086,68.817442511295127,36.0281],[155.0970774100914,68.8124383211339,38.5889],[155.08324229611623,68.811849592879639,54.3029],[155.06999591039533,68.8150875982781,35.775],[155.05645516054727,68.821269244947842,34.5],[155.03938204117361,68.826273435109073,34.5],[155.02172019354572,68.825095978600558,36.366],[154.93017295000777,68.808317223354067,33.5],[154.90309145031165,68.799191935412978,33.5],[154.87777613537833,68.783885000802115,33.5],[154.89278870586202,68.767400609682767,34.0467],[154.89808726015042,68.762985147775765,34.0656],[155.03967640530072,68.75091621856339,34.9882],[155.10443651326972,68.766517517301367,35.1263],[155.11150125232086,68.817442511295127,36.0281]]]}}