{"type":"Feature","properties":{"featurecla":"Lake","scalerank":9,"name":"null444","name_abb":null,"name_alt":null,"note":"_untitled_302","delta":null,"dam_name":null,"year":-99,"admin":null,"min_zoom":7.0,"min_label":8.0},
"geometry":{"type": "Polygon","coordinates": [[[155.34375454862777,68.554280981639437,30.8659],[155.33139125528822,68.563111905453383,29.5],[155.32167723909288,68.574297742284386,30.657],[155.30901958162622,68.5848948508611,31.767],[155.29018027748981,68.594314502929336,34.7995],[155.28223244605726,68.5931370464208,36.4756],[155.27575643526035,68.586366671496791,36.2427],[155.26192132128517,68.578418840064217,32.7213],[155.20981887078284,68.563994997834783,31.5605],[155.1397602085255,68.5548697098937,36.8243],[155.11827162724489,68.54780497084252,37.4415],[155.0988435948542,68.536913498138659,32.0536],[155.08971830691314,68.5233727482906,31.8518],[155.0970774100914,68.50600526478982,31.7147],[155.11679980660927,68.4954081562131,31.5224],[155.14005457265267,68.490109601924729,31.1578],[155.36436003752698,68.4954081562131,31.533],[155.36023893974715,68.502767259391391,31.6187],[155.35405729307735,68.508360177806878,31.397],[155.34640382577197,68.512481275586737,31.4358],[155.33698417370374,68.515719280985167,29.5],[155.36759804292541,68.534852949248744,30.8491],[155.37760642324793,68.5457444219526,32.7802],[155.36436003752698,68.550748612113836,31.3966],[155.34375454862777,68.554280981639437,30.8659]]]}}