{"type":"Feature","properties":{"featurecla":"Lake","scalerank":5,"name":"Ozero Bustakh","name_abb":"O. Bustakh","name_alt":"Lake Bustakh","note":null,"delta":null,"dam_name":null,"year":-99,"admin":null,"min_zoom":4.7,"min_label":6.0},
"geometry":{"type": "Polygon","coordinates": [[[142.17419786488398,72.583537153817716,0.6751],[142.15977402265457,72.593839898267319,0.1174],[142.13534180010259,72.60149336557275,28.3125],[141.88866466156628,72.627397408760331,5.4508],[141.83744530344535,72.620479851772743,0.8973],[141.7706246465865,72.596341993347949,2.1273],[141.72647002751671,72.5917793493774,3.1332],[141.7049814462361,72.585892066834774,2.8735],[141.68673087035398,72.576178050639427,5.8799],[141.67937176717567,72.562490118727808,0.6591],[141.66906902272603,72.559840841583622,0.5673],[141.64640298493691,72.565433759999124,0.3216],[141.6222651265121,72.57470623000377,3.2508],[141.58811888776484,72.594134262394462,3.0529],[141.56398102934003,72.593545534140191,2.6008],[141.5404318991695,72.585450520644073,2.1522],[141.5215925950331,72.573234409368112,3.0319],[141.63345096334314,72.528785426171225,2.678],[141.63904388175865,72.521426322992937,4.7717],[141.6461086208098,72.519512956166579,5.1713],[141.68143231606558,72.514067219814649,0.8727],[141.69350124527796,72.510534850289062,0.888],[141.62815240905474,72.483894896783653,4.8238],[141.62255949063928,72.479626616940237,4.4531],[141.63610024048734,72.47020696487202,3.167],[141.65788318589506,72.460934494867374,2.6875],[141.67613376177724,72.456666215023972,1.0551],[141.77886684214616,72.47020696487202,-1.0263],[141.79064140723142,72.4681464159821,-1.1563],[141.80948071136788,72.458726763913887,6.8937],[141.82007781994463,72.456666215023972,6.1065],[141.8506916891663,72.45813803565963,0.4511],[142.0170074209957,72.49110681789837,-0.8558],[142.11120394167784,72.548802186816175,-0.7503],[142.13298688708556,72.553512012850291,-0.9908],[142.21423138617394,72.552187374278191,2.0049],[142.19745263092739,72.561165480155708,0.7474],[142.17419786488398,72.583537153817716,0.6751]]]}}