{"type":"Feature","properties":{"featurecla":"Lake","scalerank":5,"name":"Ozero Bolshoye Morskoye","name_abb":"O. Bolshoye Morskoye","name_alt":"Lake Bolshoye Morskoye","note":null,"delta":null,"dam_name":null,"year":-99,"admin":null,"min_zoom":4.7,"min_label":6.0},
"geometry":{"type": "Polygon","coordinates": [[[158.92233924216748,70.123241779251231,10.7483],[158.81460197163727,70.123536143378345,11.0677],[158.74984186366834,70.140020534497722,9.7039],[158.68419866331794,70.148557094184554,9.0704],[158.61796673471332,70.148557094184554,9.2259],[158.536722235625,70.135899436717892,8.3221],[158.52995186070098,70.134133251955092,8.3957],[158.52700821942966,70.130012154175262,8.2338],[158.52377021403117,70.120298137979916,7.541],[158.52612512704826,70.118826317344258,7.7092],[158.53083495308232,70.095865915427964,6.8452],[158.5305405889552,70.092333545902392,6.9046],[158.54084333340484,70.074082970020243,6.9795],[158.55408971912573,70.059659127790781,6.7104],[158.5714572026265,70.048178926832634,6.8107],[158.62120474011175,70.025807253170626,6.8057],[158.68449302744506,70.012266503322593,6.7363],[158.7154012607939,70.010500318559792,6.7484],[158.74454330937994,70.0013750306187,6.4482],[158.77280226558457,69.983713182990812,6.711],[158.8016499500435,69.972527346159808,6.4701],[158.83196945513805,69.983124454736554,6.4742],[158.8204892541799,69.987245552516384,6.4588],[158.81018650973033,69.9928384709319,6.5599],[158.80223867829773,70.000197574110189,6.6548],[158.79782321639078,70.010500318559792,6.5181],[158.80459359131481,70.016681965229566,6.5655],[158.83697364529928,70.0225692477722,6.5931],[158.86964806341092,70.037581818255916,6.4741],[158.88878173167444,70.061130948426438,6.5404],[158.8799508078605,70.092333545902392,6.6216],[158.93352507899846,70.087329355741161,6.5412],[158.95471929615195,70.092922274156649,6.6287],[158.94824328535503,70.112939034801627,10.1225],[158.92233924216748,70.123241779251231,10.7483]]]}}