{"type":"Feature","properties":{"featurecla":"Lake","scalerank":9,"name":"null443","name_abb":null,"name_alt":null,"note":"_untitled_303","delta":null,"dam_name":null,"year":-99,"admin":null,"min_zoom":7.0,"min_label":8.0},
"geometry":{"type": "Polygon","coordinates": [[[152.33270389219791,68.640529670889009,27.8105],[152.31180403917159,68.6461225893045,27.4399],[152.2096596870569,68.641118399143267,28.7486],[152.1849331003778,68.632581839456435,27.3787],[152.1849331003778,68.638763486126209,26.6237],[152.12311663368018,68.5848948508611,27.5507],[152.17227544291114,68.556341530529352,25.4189],[152.23173699659174,68.556930258783609,24.7441],[152.2914929143995,68.5737090140301,24.8728],[152.34241790839326,68.594608867056451,24.8697],[152.35801920713124,68.609915801667313,25.0594],[152.3512488322072,68.626988921040947,27.2333],[152.33270389219791,68.640529670889009,27.8105]]]}}