{"type":"Feature","properties":{"featurecla":"Lake","scalerank":9,"name":"Ozero Ilirgytgyn","name_abb":"O. Ilirgytgyn","name_alt":"Lake Ilirgytgyn","note":null,"delta":null,"dam_name":null,"year":-99,"admin":null,"min_zoom":7.0,"min_label":8.0},
"geometry":{"type": "Polygon","coordinates": [[[159.07423113176742,70.525343176913083,3.0053],[159.06481147969919,70.538000834379744,4.0437],[159.0506820015969,70.553013404863464,4.8408],[159.04302853429147,70.5589006874061,4.2922],[158.9885711707721,70.5821554534495,4.5167],[158.97620787743256,70.585393458847932,4.5278],[158.96678822536433,70.585687822975075,4.3789],[158.95766293742327,70.584804730593675,4.2057],[158.94000108979537,70.580683632813844,4.1281],[158.92910961709151,70.5803892686867,4.2936],[158.91968996502328,70.584216002339417,4.4142],[158.91027031295505,70.589220192500647,4.2769],[158.90026193263259,70.592752562026249,4.4991],[158.86641005801243,70.595107475043278,3.4195],[158.78869792844966,70.588042735992133,5.7298],[158.7563178744652,70.578917448051044,10.3321],[158.76191079288071,70.567437247092926,9.4891],[158.76397134177063,70.555073953753379,8.7851],[158.76191079288071,70.54271066041386,5.6931],[158.7563178744652,70.531230459455713,5.6235],[158.81666252052719,70.491785666420071,4.4086],[158.84933693863883,70.4761843676821,2.5941],[158.88289444913181,70.4697083568852,1.0636],[158.91674632375197,70.473240726410779,0.9106],[158.94176727455817,70.482071650224725,1.6246],[158.98974862728062,70.5106249705565,1.4695],[158.99710773045894,70.503265867378218,1.023],[159.02006813237517,70.494434943564272,1.1972],[159.0480327244527,70.491196938165814,1.4078],[159.0730536752589,70.4976729489627,2.312],[159.08600569685268,70.517689709607652,3.0212],[159.08188459907285,70.517689709607652,3.051],[159.07423113176742,70.525343176913083,3.0053]]]}}