{"type":"Feature","properties":{"featurecla":"Lake","scalerank":9,"name":"Ozero Sagarychye","name_abb":"O. Sagarychye","name_alt":"Lake Sagarychye","note":null,"delta":null,"dam_name":null,"year":-99,"admin":null,"min_zoom":7.0,"min_label":8.0},
"geometry":{"type": "Polygon","coordinates": [[[146.46220010481102,70.96894991650052,9.1756],[146.52431093563581,70.944812058075712,9.9446],[146.54844879406062,70.94216278093154,8.8925],[146.57199792423114,70.944517693948569,8.9478],[146.62586655949622,70.958941536178031,8.8015],[146.64794386903111,70.96894991650052,8.8743],[146.63793548870865,70.976603383805923,8.8961],[146.63116511378462,70.985139943492754,8.9041],[146.6291045648947,70.994265231433843,9.0563],[146.63440311918305,71.0042736117563,8.8298],[146.62351164647919,71.01310453557025,8.7736],[146.6067328912327,71.031943839706685,8.7696],[146.59319214138463,71.041363491774888,8.8559],[146.56905428295983,71.051960600351634,9.8061],[146.54315023977222,71.058436611148551,10.0508],[146.51695183245749,71.06079152416558,8.4156],[146.49016469688854,71.059319703529923,9.3518],[146.45484100163276,71.051371872097377,9.7062],[146.41627930097849,71.037242393995058,9.8374],[146.38036687746842,71.018403089858623,9.0709],[146.35299101364518,70.996620144450873,9.623],[146.3756570514343,70.987200492382669,9.8425],[146.40244418700331,70.980430117458639,10.0831],[146.43040877908084,70.976603383805923,9.0118],[146.45601845814127,70.976309019678808,9.1969],[146.46220010481102,70.96894991650052,9.1756]]]}}