{"type":"Feature","properties":{"GID_3":"RUS.2.46.1_1","GID_0":"RUS","country":"Russia","GID_1":"RUS.2_1","province":"Altay","NL_NAME_1":"Алтайскийкрай","GID_2":"RUS.2.46_1","county":"Smolenskiyrayon","NL_NAME_2":"Смоленскийрайон","city":"NA","VARNAME_3":"NA","NL_NAME_3":"NA","TYPE_3":"NA","ENGTYPE_3":"NA","CC_3":"NA","HASC_3":"NA","name":"N_A.city"},
"geometry":{"type": "MultiPolygon","coordinates": [[[[85.1171,52.0874,281.029],[85.1084,52.1216,273.3894],[85.1315,52.1574,254.8993],[85.1794,52.1965,224.2478],[85.1769,52.2269,197.9448],[85.1801,52.2627,194.6217],[85.1938,52.2832,187.8721],[85.258,52.2882,196.3655],[85.2849,52.2742,212.7117],[85.3149,52.268,213.4596],[85.3323,52.2871,203.5277],[85.3308,52.3195,203.5974],[85.3004,52.3386,204.1404],[85.2635,52.3504,177.3952],[85.2047,52.3554,188.105],[85.196,52.3821,170.1781],[85.1751,52.4165,169.025],[85.1499,52.4381,162.0],[85.1136,52.4444,166.5412],[85.0725,52.4546,167.8651],[84.9709,52.4295,162.342],[84.8879,52.4245,166.9792],[84.8409,52.4264,158.2262],[84.8309,52.3924,163.6344],[84.8164,52.3625,165.8371],[84.8007,52.3435,167.0861],[84.7825,52.3307,173.3001],[84.7579,52.3189,220.912],[84.7106,52.3215,210.3634],[84.6946,52.3426,170.9819],[84.6707,52.3523,163.5388],[84.6211,52.3452,170.8842],[84.6105,52.3251,179.7173],[84.662,52.2728,197.8272],[84.7443,52.2126,173.4453],[84.7714,52.2024,197.5732],[84.7863,52.184,195.8594],[84.7737,52.13,250.601],[84.7423,52.0892,250.4796],[84.6724,52.0607,261.8972],[84.5842,52.0359,252.2152],[84.5353,52.0242,261.8341],[84.4984,52.0282,264.7899],[84.4983,52.0133,378.3186],[84.449,51.98,519.3514],[84.4218,51.9452,458.0694],[84.4723,51.9076,492.1886],[84.550299999999993,51.8581,584.0441],[84.6113,51.8735,638.2414],[84.7032,51.9221,943.4969],[84.797,51.8402,505.9188],[84.7522,51.7805,592.9891],[84.7427,51.7586,561.7385],[84.7675,51.7116,731.6099],[84.7986,51.7404,692.9198],[84.8383,51.7516,879.7396],[84.9773,51.7965,646.5265],[85.0328,51.8295,705.1002],[85.0407,51.852,739.0244],[85.0299,51.8757,868.9501],[85.0046,51.9132,646.2642],[85.0205,51.9388,755.1868],[85.0163,51.969,523.9976],[84.9838,52.013,253.7291],[84.9939,52.034,236.553],[85.0128,52.0562,229.9716],[85.1171,52.0874,281.029]],
[[84.9399,52.007,260.9238],[84.9336,52.0047,274.9693],[84.9333,52.0047,274.9693],[84.9334,52.0063,279.0027],[84.9399,52.007,260.9238]]]]}}