{"type":"Feature","properties":{"GID_2":"RUS.9.19_1","GID_0":"RUS","country":"Russia","GID_1":"RUS.9_1","province":"Buryat","NL_NAME_1":"РеспубликаБурятия","county":"Tarbagatayskiyrayon","VARNAME_2":"NA","NL_NAME_2":"Тарбагатайскийрайон","TYPE_2":"Raion","ENGTYPE_2":"District","CC_2":"R60001","HASC_2":"RU.BU.TA","name":"Tarbagatayskiyrayon.county"},
"geometry":{"type": "MultiPolygon","coordinates": [[[[106.9134,51.342,800.6594],[106.9541,51.3258,703.1309],[106.9392,51.2831,583.3909],[106.8916,51.252,636.4103],[106.846,51.2294,573.4692],[106.8279,51.2011,650.5084],[106.8492,51.1634,876.4824],[106.9103,51.1553,831.1043],[106.9589,51.1328,715.7811],[106.9828,51.1044,596.6038],[107.0268,51.0889,541.1364],[107.055,51.0688,543.6682],[107.1685,51.097,557.0781],[107.2629,51.1179,574.2794],[107.2897,51.1389,598.3249],[107.2858,51.1869,741.1213],[107.3537,51.2202,890.5559],[107.4261,51.2387,900.5464],[107.4498,51.2637,1023.6785],[107.513,51.3105,1081.2166],[107.5486,51.3269,887.3287],[107.5967,51.3166,1009.5142],[107.5989,51.2764,841.2923],[107.6396,51.2523,809.3918],[107.7086,51.2614,792.6807],[107.7137,51.2877,872.2118],[107.752,51.3182,1016.509],[107.8065,51.3025,982.5267],[107.8445,51.3158,1210.8118],[107.8522,51.361,1294.1465],[107.864,51.3829,1180.5798],[107.9051,51.4054,1317.7279],[107.9175,51.3854,1056.5544],[107.9676,51.3653,1265.7745],[108.0305,51.4003,944.0889],[108.0815,51.4458,1000.6653],[107.9681,51.4681,978.3674],[107.9041,51.4721,928.5526],[107.8803,51.5234,961.2684],[107.9119,51.5627,865.8014],[107.938,51.6186,913.7096],[107.9051,51.6751,749.7807],[107.9212,51.7033,724.5315],[107.9182,51.7546,655.8939],[107.89,51.7813,739.9391],[107.8268,51.7862,721.2242],[107.7915,51.8011,672.6719],[107.7596,51.8375,527.063],[107.7444,51.7855,576.4387],[107.6776,51.7648,725.6966],[107.603,51.7646,684.5899],[107.536,51.7484,580.8372],[107.4156,51.6995,542.5096],[107.2886,51.6054,804.0073],[107.2643,51.5644,791.6652],[107.2916,51.4989,661.0198],[107.2691,51.4805,558.343],[107.1775,51.4766,659.6832],[107.0836,51.4462,557.95],[107.0058,51.3898,545.3849],[106.9134,51.342,800.6594]]]]}}