{"type":"Feature","properties":{"GID_2":"RUS.30.15_1","GID_0":"RUS","country":"Russia","GID_1":"RUS.30_1","province":"Khanty-Mansiy","NL_NAME_1":"Ханты-МансийскийАОк","county":"Oktyabr'skiy","VARNAME_2":"NA","NL_NAME_2":"Октябрьскийрайон","TYPE_2":"Raion","ENGTYPE_2":"District","CC_2":"R58010","HASC_2":"RU.KM.OK","name":"Oktyabr'skiy.county"},
"geometry":{"type": "MultiPolygon","coordinates": [[[[65.3649,63.4437,13.3326],[65.365,63.4304,14.2351],[65.3428,63.4112,14.2577],[65.1893,63.3765,14.8633],[65.0837,63.3559,14.9349],[64.9815,63.3507,48.8922],[64.9329,63.3498,43.6499],[64.8437,63.308,39.1507],[64.8148,63.2816,39.3386],[64.7546,63.2502,41.8555],[64.7639,63.1739,37.4357],[64.7698,63.0505,49.0569],[64.7224,62.9531,27.4754],[64.6868,62.9038,30.6963],[64.732,62.7845,35.3993],[64.7991,62.6554,39.5],[64.8551,62.577,39.0602],[64.9384,62.5059,34.4269],[64.9505,62.4609,43.3151],[64.8841,62.4516,54.4776],[64.8263,62.4321,82.3657],[64.7959,62.4041,93.9265],[64.7924,62.3801,126.4135],[64.7441,62.3588,150.8432],[64.6797,62.35,123.5952],[64.7975,62.2945,145.1015],[64.7877,62.2489,148.9719],[64.7766,62.2292,148.5808],[64.685,62.2203,149.5886],[64.6173,62.2283,155.2979],[64.5866,62.2043,172.5086],[64.5919,62.1543,134.8953],[64.6597,62.1055,118.2448],[64.7263,62.0857,133.0213],[64.7932,62.0513,134.254],[64.7927,62.0198,109.1049],[64.6502,61.9749,136.2339],[64.653,61.9462,146.2477],[64.679,61.9135,141.9628],[64.8185,61.8308,132.027],[64.8833,61.7762,101.4509],[64.9759,61.726,124.9232],[65.0991,61.6851,113.1702],[65.1807,61.6664,139.9373],[65.2468,61.6655,104.0049],[65.2915,61.689,102.4205],[65.3063,61.7222,126.4293],[65.3365,61.7376,125.0878],[65.4355,61.7464,133.2436],[65.5771,61.7696,138.3868],[65.6925,61.7815,135.5242],[65.8223,61.7597,140.1463],[65.9152,61.7219,142.5375],[65.982,61.6835,104.0269],[65.998,61.639,67.3821],[65.9343,61.5869,116.6819],[65.914,61.567,134.5466],[65.9545,61.5279,96.8008],[65.9856,61.4947,84.4175],[65.9881,61.4393,78.9143],[65.9551,61.36,100.6065],[65.9473,61.3205,92.0],[65.9248,61.3016,92.2138],[66.0903,61.2964,97.4888],[66.2297,61.3085,103.1044],[66.316,61.3116,87.2165],[66.3515,61.3075,88.1236],[66.3953,61.317,81.672],[66.5014,61.4079,90.7735],[66.561,61.3553,85.9298],[66.6314,61.3231,72.7099],[66.7059,61.3137,63.2187],[66.9023,61.3234,45.3418],[67.1379,61.3388,36.8758],[67.1964,61.362,37.7634],[67.3882,61.4601,57.9818],[67.5633,61.537,21.4237],[67.9176,61.6518,97.3463],[68.1464,61.7509,132.6956],[68.219,61.79,119.4128],[68.2365,61.8136,116.5961],[68.2145,61.8469,43.3072],[68.1343,61.9201,55.4125],[67.9483,62.0215,96.0912],[67.7384,62.1673,104.2904],[67.6369,62.216,81.6511],[67.5165,62.2366,89.1624],[67.388,62.2408,111.6225],[67.3441,62.2781,122.7299],[67.377,62.2883,120.8975],[67.4531,62.3039,97.4165],[67.5489,62.3315,114.4783],[67.6045,62.3686,69.4762],[67.5695,62.3907,98.7644],[67.53,62.426,119.1184],[67.5369,62.4738,122.1499],[67.5738,62.5134,104.4942],[67.6097,62.5252,132.4752],[67.6656,62.5315,126.0114],[67.6837,62.5584,84.2936],[67.6116,62.5982,141.3864],[67.5363,62.6311,137.1021],[67.4927,62.6563,161.269],[67.482,62.6824,153.3631],[67.4187,62.7028,160.5763],[67.4072,62.6878,167.3612],[67.3766,62.6732,179.9312],[67.3064,62.6633,172.7442],[67.1894,62.6695,147.3132],[67.0091,62.69,100.803],[66.7583,62.7526,153.905],[66.5899,62.82,185.706],[66.4277,62.889,114.1371],[66.3368,62.9449,118.6113],[66.3451,62.9697,141.308],[66.4184,63.0168,127.2542],[66.3753,63.0547,150.2426],[66.3054,63.088,123.5533],[66.2131,63.1074,119.4957],[66.0856,63.1213,119.4253],[65.9237,63.1637,134.7287],[65.8433,63.208,125.2324],[65.8477,63.2319,84.3492],[65.8876,63.2575,60.0651],[65.9601,63.2652,66.7302],[66.0087,63.2731,71.7254],[65.9876,63.3042,123.8479],[65.915,63.3349,127.21],[65.7868,63.3757,78.1029],[65.5767,63.4262,65.9197],[65.3649,63.4437,13.3326]],
[[65.3928,62.1861,100.727],[65.3766,62.1819,94.8137],[65.3576,62.1901,109.6372],[65.355,62.1952,82.8319],[65.3662,62.2006,84.4803],[65.3764,62.2024,80.9799],[65.3932,62.2018,77.7824],[65.4008,62.1956,80.063],[65.3928,62.1861,100.727]]]]}}