{"type":"Feature","properties":{"featurecla":"River","scalerank":6,"rivernum":245,"dissolve":"245River","name":"Taz2","name_alt":null,"note":null,"min_zoom":5.0,"strokeweig":0.25,"name_en":"Taz","min_label":6.0},
"geometry":{"type": "LineString","coordinates": [[83.32275390625,63.883661199994123,44.388],[83.30517578125,63.89691803593162,68.9293],[83.26611328125,63.916376043744123,42.348],[83.25048828125,63.928338934369123,37.1199],[83.22802734375,63.93756744999412,37.4875],[83.192138671875,63.940692449994117,36.8868],[83.15625,63.93756744999412,82.6813],[83.1337890625,63.928338934369123,82.6919],[83.115136718750023,63.91229889530662,63.6045],[83.095458984375,63.90289948124412,50.0091],[83.074316406250034,63.898456121869117,44.5439],[82.9970703125,63.897235418744117,35.3952],[82.968457031250011,63.89032623905662,43.1847],[82.96875,63.87311432499412,45.5176],[82.982812500000023,63.86090729374412,36.9134],[83.0341796875,63.82843659061912,46.2622],[83.0224609375,63.81891510624412,45.3285],[83.01123046875,63.81476471561912,43.6974],[82.985742187500023,63.80914948124412,44.3999],[82.972558593750023,63.803583074994123,38.3254],[82.912353515625,63.76288483280662,47.9155],[82.896679687500011,63.75653717655662,45.3448],[82.88330078125,63.760760809369117,47.1204],[82.88037109375,63.771014715619117,32.2667],[82.885937500000011,63.781512762494117,39.0779],[82.895410156250023,63.790155340619123,33.9943],[82.90380859375,63.794940496869117,41.6121],[82.8212890625,63.787469793744123,42.6923],[82.78369140625,63.78937409061912,41.9105],[82.773046875000034,63.783954168744117,36.5178],[82.787695312500034,63.767596746869117,44.9173],[82.754003906250034,63.756219793744123,37.0166],[82.736328125,63.752801824994123,42.6315],[82.718847656250034,63.75397369999412,36.8906],[82.706738281250011,63.75958893436912,39.3769],[82.700439453125,63.766376043744117,38.1491],[82.691503906250034,63.77204010624412,38.1833],[82.670996093750034,63.774432684369117,41.9472],[82.609619140625,63.76508209843162,38.1245],[82.588476562500034,63.767596746869117,43.3374],[82.573632812500023,63.775018621869123,38.9539],[82.562744140625,63.784051824994123,41.4668],[82.551171875000023,63.79169342655662,42.2888],[82.533935546875,63.794940496869117,44.1672],[82.523193359375,63.79059479374412,37.6981],[82.511962890625,63.780145574994123,29.2362],[82.503320312500023,63.76776764530662,34.3478],[82.499755859375,63.757342840619117,29.8862],[82.490820312500034,63.75226471561912,28.8024],[82.470898437500011,63.760858465619123,44.2039],[82.438232421875,63.781268621869117,41.1603],[82.37158203125,63.80377838749412,42.0167],[82.365625,63.812274481244117,37.9429],[82.381103515625,63.82050202030662,34.3835],[82.398828125000023,63.82391998905662,35.2225],[82.414648437500034,63.829120184369117,27.8174],[82.424072265625,63.84271881718162,46.5],[82.404541015625,63.84735748905662,41.2803],[82.344335937500034,63.87335846561912,43.6165],[82.315332031250023,63.88202545780662,26.5202],[82.303955078125,63.883661199994123,29.5],[82.298095703125,63.887567449994123,30.6852],[82.283398437500011,63.91474030155662,26.4231],[82.26416015625,63.92865631718162,35.9651],[82.241113281250023,63.93561432499412,38.272],[82.19189453125,63.93829987186912,36.3495],[82.14501953125,63.93170807499412,39.3932],[82.125,63.93488190311912,33.4596],[82.129785156250023,63.95258209843162,36.4954],[82.107421875,63.96210358280662,37.1508],[82.093457031250011,63.977899481244123,34.6993],[82.082128906250034,63.996454168744123,37.046],[82.067773437500023,64.014032293744123,35.8985],[82.046142578125,64.02936432499412,34.0334],[82.018652343750034,64.042499090619117,30.3798],[81.988671875000023,64.05158112186912,24.601],[81.958251953125,64.05499909061912,31.263],[81.931542968750023,64.06171295780662,29.2811],[81.924560546875,64.07782623905662,31.3913],[81.924902343750034,64.097040106244123,31.2396],[81.920654296875,64.11334869999412,31.7961],[81.903564453125,64.12702057499412,34.524],[81.85986328125,64.14984772343162,42.3383],[81.841796875,64.16486237186912,28.9273],[81.838281250000023,64.173211981244123,25.893],[81.839257812500023,64.18976471561912,21.3905],[81.8349609375,64.198993231244117,27.9048],[81.826416015625,64.206659246869123,21.5742],[81.7744140625,64.24091217655662,29.6049],[81.756738281250023,64.255975653119123,32.2375],[81.743896484375,64.27277252811912,33.2043],[81.73876953125,64.29181549686912,33.1516],[81.746337890625,64.29975006718162,26.237],[81.779687500000023,64.306268621869123,32.5002],[81.787109375,64.31879303593162,26.1127],[81.783203125,64.33197662968162,30.8178],[81.773193359375,64.34174225468162,19.5],[81.759765625,64.34772369999412,27.6763],[81.715722656250023,64.354364324994123,20.6321],[81.692138671875,64.36652252811912,20.0024],[81.65,64.40509674686912,26.9893],[81.668066406250034,64.41156647343162,31.4424],[81.706933593750023,64.41608307499412,27.6601],[81.72509765625,64.42487213749412,46.5324],[81.7080078125,64.436151434369123,48.8465],[81.695068359375,64.44074127811912,47.2622],[81.686914062500023,64.44684479374412,50.658],[81.68408203125,64.462762762494123,48.4333],[81.674707031250023,64.473993231244123,39.1912],[81.652734375000023,64.48261139530662,31.2667],[81.553808593750034,64.500604559369123,27.7692],[81.5185546875,64.513055731244123,24.6019],[81.505468750000034,64.515643621869117,27.3781],[81.502343750000023,64.517694403119123,28.4594],[81.5,64.52069733280662,24.7906],[81.499267578125,64.524530340619123,30.3583],[81.495898437499989,64.528436590619123,27.3794],[81.488183593750023,64.52863190311912,28.2168],[81.47900390625,64.52753327030662,29.6202],[81.471923828125,64.527948309369123,23.9062],[81.376220703125,64.55548737186912,27.3978],[81.36083984375,64.56586334843162,27.1738],[81.368896484375,64.58258698124412,21.6209],[81.390039062500023,64.587420965619117,22.3927],[81.446875,64.57965729374412,27.4933],[81.468164062500023,64.586297918744123,27.5481],[81.47412109375,64.59882233280662,24.5888],[81.467041015625,64.62311432499412,23.4175],[81.471923828125,64.637811590619123,21.706],[81.487695312500023,64.649530340619123,15.5],[81.529052734375,64.658221746869117,24.0726],[81.547558593750011,64.66571686405662,24.1517],[81.538818359375,64.676776434369117,25.8907],[81.51416015625,64.68781159061912,21.7342],[81.506103515625,64.69928619999412,25.1094],[81.568115234375,64.69928619999412,30.9907],[81.568115234375,64.70673248905662,27.1738],[81.539794921875,64.718280340619117,33.8366],[81.517333984375,64.73236725468162,29.1827],[81.475341796875,64.77094147343162,22.7535],[81.472363281250011,64.77667877811912,23.3103],[81.473388671875,64.78912994999412,23.5667],[81.471923828125,64.79486725468162,16.8701],[81.4677734375,64.80036041874412,16.1099],[81.436718750000011,64.828729559369123,22.8457],[81.44482421875,64.83087799686912,20.2712],[81.5205078125,64.86163971561912,19.3262],[81.550878906250034,64.87921784061912,31.56],[81.560644531250034,64.89850494999412,36.9159],[81.5498046875,64.903680731244123,34.6814],[81.485595703125,64.91217682499412,21.5656],[81.445703125000023,64.934588934369117,20.3574],[81.430273437500034,64.939471746869117,17.4697],[81.43505859375,64.94769928593162,17.4475],[81.435156250000034,64.95380280155662,22.0372],[81.430273437500034,64.966815496869117,20.8017],[81.43408203125,64.98468659061912,25.5522],[81.437744140625,65.035028387494123,20.1876],[81.431396484375,65.04743073124412,21.3908],[81.430273437500034,65.05243561405662,18.7664],[81.4345703125,65.059100653119117,13.8674],[81.44384765625,65.06098053593162,13.9868],[81.453320312500011,65.06110260624412,18.6944],[81.458251953125,65.06232330936912,23.0701],[81.459375,65.07465241093162,17.2091],[81.453027343750023,65.08087799686912,21.0411],[81.4423828125,65.08637116093162,14.9382],[81.430273437500034,65.09650299686912,21.4077],[81.4619140625,65.09723541874412,22.4972],[81.494238281250034,65.10333893436912,14.0609],[81.587988281250034,65.14179108280662,18.3083],[81.76611328125,65.16535065311912,18.3905],[81.803125,65.15924713749412,16.9548],[81.821533203125,65.159442449994117,11.8822],[81.83837890625,65.168817449994123,16.0441],[81.878173828125,65.20111725468162,16.2894],[82.016503906250023,65.273309637494123,22.7497],[82.04736328125,65.28204987186912,19.7688],[82.077734375000034,65.28644440311912,15.1577],[82.093359375000034,65.29120514530662,17.5893],[82.101464843750023,65.30341217655662,18.3945],[82.122949218750023,65.364032293744117,14.743],[82.109472656250034,65.37128327030662,29.9293],[82.087158203125,65.372919012494123,31.6059],[82.04736328125,65.370868231244117,30.5399],[82.017578125,65.37311432499412,31.5054],[81.991796875000034,65.38092682499412,16.6427],[81.98193359375,65.39557526249412,17.4517],[82.000097656250034,65.41864655155662,18.7811],[81.98291015625,65.42584869999412,18.9278],[81.983007812500034,65.43366119999412,16.4298],[82.000097656250034,65.453387762494117,16.6153],[82.0078125,65.487420965619123,12.7549],[82.013085937500023,65.49494049686912,20.5426],[82.12744140625,65.46893952030662,16.2397],[82.122949218750023,65.48749420780662,12.6926],[82.106201171875,65.49823639530662,16.9495],[82.095117187500023,65.501483465619117,10.8888],[82.095898437500011,65.50629303593162,17.846],[82.203027343750023,65.57819244999412,10.7633],[82.404687500000023,65.633905340619123,15.6549],[82.446533203125,65.65375397343162,16.5735],[82.464941406250034,65.675897528119123,16.4614],[82.458886718750023,65.692010809369123,17.8826],[82.44384765625,65.70111725468162,10.2977],[82.4248046875,65.705096746869117,10.3411],[82.406982421875,65.70600006718162,14.9611],[82.391796875000011,65.71076080936912,16.2448],[82.38037109375,65.72211334843162,13.4054],[82.369384765625,65.73602936405662,29.8472],[82.355078125000034,65.74823639530662,24.3543],[82.319921875000034,65.759637762494123,20.6507],[82.302734375,65.76813385624412,16.2332],[82.294335937500023,65.782342840619123,16.1888],[82.298437500000034,65.79364655155662,9.5189],[82.30810546875,65.803827215619123,9.4743],[82.31494140625,65.814227606244117,30.9328],[82.310791015625,65.826434637494117,18.8167],[82.293359375000023,65.851825262494117,24.1097],[82.294189453125,65.870135809369117,8.9016],[82.328320312500011,65.912127996869117,9.2243],[82.275097656250011,65.94599030155662,8.8572],[82.19580078125,65.98468659061912,10.1436],[82.129492187500034,66.028094793744117,9.1076],[82.115478515625,66.075946356244117,8.2683],[82.221582031250023,66.168231512494117,14.5845],[82.246777343750011,66.20990631718162,23.5639],[82.181054687500023,66.22736237186912,31.6594],[82.133544921875,66.22125885624412,34.817],[82.107324218750023,66.221454168744117,12.3871],[82.095703125,66.23078034061912,10.6072],[82.09912109375,66.24286530155662,8.8508],[82.11328125,66.263446356244117,12.1054],[82.115478515625,66.27521393436912,14.3236],[82.106835937500023,66.29132721561912,27.7258],[82.090722656250023,66.29938385624412,26.9128],[82.0732421875,66.30585358280662,11.4825],[82.060937500000023,66.316766668744123,11.1737],[82.059814453125,66.335321356244123,12.2957],[82.0751953125,66.34418366093162,10.885],[82.1162109375,66.35370514530662,16.4853],[82.13671875,66.36102936405662,11.9807],[82.28125,66.382342840619117,14.7982],[82.300537109375,66.391864324994117,15.9932],[82.306640625,66.41669342655662,38.2808],[82.212890625,66.42963287968162,13.4284],[82.18505859375,66.44647858280662,14.3064],[82.202050781250023,66.46881744999412,9.7052],[82.28759765625,66.496698309369123,9.9929],[82.307373046875,66.52533600468162,38.6132],[82.295019531250034,66.54572174686912,38.6907],[82.27099609375,66.55853912968162,37.9121],[82.255078125000011,66.57465241093162,5.9481],[82.266357421875,66.60480377811912,4.9887],[82.305761718750034,66.64313385624412,38.3968],[82.3056640625,66.65729401249412,39.6703],[82.283398437500011,66.68329498905662,28.6658],[82.2470703125,66.709344793744123,10.7201],[82.129785156250023,66.74506256718162,32.7944],[82.10205078125,66.762225653119117,28.1084],[82.058837890625,66.80414459843162,12.0275],[82.03369140625,66.823260809369117,30.4486],[81.915625,66.87689850468162,12.704],[81.831445312500023,66.94464752811912,35.9706],[81.805908203125,66.959735418744117,34.925],[81.771582031250034,66.97247955936912,36.2125],[81.7236328125,66.97821686405662,33.9625],[81.627197265625,66.973651434369117,18.6362],[81.5478515625,66.99506256718162,28.9543],[81.477148437500034,67.00348541874412,29.7537],[81.443945312500034,67.015008856244123,29.4518],[81.41015625,67.032001043744117,29.8232],[81.3798828125,67.04266998905662,29.0206],[81.272558593750034,67.05512116093162,7.3387],[81.19775390625,67.07855866093162,6.8659],[81.101757812500011,67.09162018436912,8.6479],[81.082910156250023,67.088983465619123,5.8718],[81.070410156250034,67.083270574994117,6.7562],[81.046777343750023,67.06342194218162,7.3043],[81.01318359375,67.054315496869123,7.3923],[80.985449218750034,67.06268952030662,7.6382],[80.957763671875,67.07660553593162,7.1544],[80.923828125,67.08392975468162,7.2186],[80.858496093750034,67.084100653119123,1.9259],[80.84814453125,67.08734772343162,5.8996],[80.846923828125,67.097040106244123,6.3335],[80.843359375000034,67.10700104374412,7.1069],[80.83740234375,67.115252996869117,4.9922],[80.829199218750034,67.120379949994117,3.6945],[80.791894531250023,67.12482330936912,5.5221],[80.683007812500023,67.10443756718162,5.9649],[80.566162109375,67.11163971561912,7.5433],[80.525976562500034,67.10443756718162,6.2019],[80.53857421875,67.092303778119117,5.7238],[80.547558593750011,67.07904694218162,5.8379],[80.560644531250034,67.049823309369117,6.9088],[80.430566406250023,67.09271881718162,6.1803],[80.34423828125,67.10101959843162,4.6291],[80.327734375000034,67.10834381718162,3.7072],[80.293701171875,67.13446686405662,4.3414],[80.27734375,67.141229559369123,3.8049],[80.25927734375,67.14264557499412,2.3363],[80.238037109375,67.13922760624412,3.4742],[80.17626953125,67.117059637494123,3.3343]]}}