{"type":"Feature","properties":{"featurecla":"River","scalerank":7,"rivernum":496,"dissolve":"496River","name":"Pur1","name_alt":null,"note":null,"min_zoom":6.0,"strokeweig":0.2,"name_en":"Pur","min_label":7.0},
"geometry":{"type": "LineString","coordinates": [[73.659912109375,63.58942291874412,96.3504],[73.772216796875,63.54389069218162,92.2657],[73.830957031250023,63.52789948124412,93.7952],[73.966699218750023,63.531854559369123,91.5625],[74.210546875,63.511590887494123,81.0],[74.240625,63.502215887494117,91.502],[74.25634765625,63.50006744999412,89.0677],[74.288476562500023,63.50812409061912,87.2941],[74.306884765625,63.51019928593162,86.6886],[74.348876953125,63.48834869999412,83.3892],[74.386132812500023,63.48627350468162,84.084],[74.454345703125,63.49323151249412,93.0566],[74.52490234375,63.489374090619123,82.2198],[74.562255859375,63.49188873905662,79.8843],[74.588134765625,63.50385162968162,79.8561],[74.5986328125,63.50714752811912,80.3983],[74.925537109375,63.53278229374412,75.2666],[74.957421875000023,63.52973053593162,75.7299],[74.989160156250023,63.517450262494123,77.7308],[75.017480468750023,63.512469793744117,77.3575],[75.053417968750011,63.518426824994123,75.7048],[75.087304687500023,63.53082916874412,74.6029],[75.10888671875,63.54474518436912,75.1315],[75.128173828125,63.56110260624412,79.8201],[75.1943359375,63.59564850468162,70.388],[75.16064453125,63.613299871869117,72.8066],[75.162353515625,63.62335846561912,67.5],[75.18173828125,63.635126043744123,69.4051],[75.2017578125,63.657733465619117,66.0255],[75.15390625,63.675653387494123,77.3041],[75.1474609375,63.69049713749412,73.492],[75.163476562500023,63.716083074994117,69.4467],[75.211669921875,63.74030182499412,65.117],[75.217187500000023,63.74201080936912,67.5782],[75.22265625,63.746356512494117,73.3195],[75.226757812500011,63.75189850468162,70.1037],[75.228417968750023,63.757342840619117,67.7017],[75.23291015625,63.760858465619123,62.8862],[75.2431640625,63.76154205936912,66.0058],[75.26318359375,63.760760809369117,69.5419],[75.321533203125,63.765252996869123,63.4311],[75.35263671875,63.77387116093162,63.4474],[75.3662109375,63.79120514530662,67.3551],[75.3677734375,63.80414459843162,67.4756],[75.37314453125,63.81391022343162,61.61],[75.382714843750023,63.820086981244117,60.1583],[75.414257812500011,63.82428619999412,61.4696],[75.50107421875,63.856219793744117,60.1395],[75.510156250000023,63.863153387494123,60.1347],[75.51376953125,63.87384674686912,66.8144],[75.512939453125,63.884881903119123,67.2397],[75.513427734375,63.89618561405662,58.7782],[75.533593750000023,63.92572662968162,56.75],[75.540625,63.94391510624412,60.7908],[75.55185546875,63.960321356244123,59.488],[75.577880859375,63.973016668744123,54.6311],[75.639892578125,63.986688543744123,53.7756],[75.653564453125,63.992938543744117,60.1894],[75.660400390625,63.998407293744123,55.8735],[75.677734375,64.01740143436912,56.7251],[75.701171875,64.031366278119123,55.1553],[75.730712890625,64.03998444218162,53.7772],[75.907470703125,64.06867096561912,51.2606],[75.8970703125,64.081903387494123,58.845],[75.887109375000023,64.08783600468162,58.457],[75.88720703125,64.09113190311912,56.0847],[75.983154296875,64.10956452030662,52.7369],[76.02001953125,64.10968659061912,54.17],[76.037109375,64.112811590619117,53.5717],[76.044531250000034,64.123895574994123,49.6707],[76.038281250000011,64.13434479374412,49.1251],[76.00732421875,64.14789459843162,57.6188],[75.996777343750011,64.15802643436912,55.3722],[76.025097656250011,64.16034577030662,53.4944],[76.037109375,64.17230866093162,55.0631],[76.043359375000023,64.19000885624412,48.2759],[76.0712890625,64.236102606244117,47.1428],[76.075585937500023,64.23993561405662,46.5481],[76.099365234375,64.24127838749412,46.0306],[76.106054687500034,64.23993561405662,50.8947],[76.111083984375,64.23517487186912,47.7838],[76.111718750000023,64.229120184369123,47.9198],[76.111230468750023,64.22345612186912,47.2478],[76.112890625000034,64.21942780155662,45.45],[76.130859375,64.205585028119117,47.5017],[76.14111328125,64.202264715619123,48.7288],[76.153222656250023,64.205829168744117,47.2841],[76.156640625000023,64.213641668744117,43.5],[76.156835937500034,64.225116278119117,49.5271],[76.160400390625,64.235467840619123,47.0859],[76.17431640625,64.23993561405662,46.1314],[76.231542968750034,64.244745184369123,48.5792],[76.259960937500011,64.251092840619123,50.869],[76.2841796875,64.26044342655662,45.8996],[76.258056640625,64.27069733280662,46.6431],[76.25625,64.28070709843162,47.6357],[76.266699218750034,64.29425690311912,42.1992],[76.27734375,64.31500885624412,43.5019],[76.251220703125,64.32245514530662,44.4809],[76.24072265625,64.32941315311912,44.2879],[76.236328125,64.339862371869117,44.2048],[76.242919921875,64.353143621869123,60.1916],[76.258056640625,64.35919830936912,53.0958],[76.275292968750023,64.362420965619123,52.734],[76.30517578125,64.37555573124412,54.9369],[76.324951171875,64.37482330936912,49.4727],[76.345703125,64.37103912968162,46.2534],[76.36669921875,64.37030670780662,43.8261],[76.379638671875,64.374383856244123,47.9597],[76.42138671875,64.39765045780662,42.1308],[76.452734375000034,64.40973541874412,45.3977],[76.551171875000023,64.43170807499412,41.8717],[76.559277343750011,64.43573639530662,44.9241],[76.565185546875,64.44037506718162,36.9964],[76.57177734375,64.444354559369117,44.9262],[76.676513671875,64.46027252811912,38.9085],[76.695703125000023,64.45966217655662,45.5466],[76.660400390625,64.42487213749412,44.1345],[76.68408203125,64.41474030155662,42.1026],[76.7109375,64.41339752811912,39.7214],[76.767480468750023,64.418085028119123,38.481]]}}