{"type":"Feature","properties":{"featurecla":"River","scalerank":7,"rivernum":496,"dissolve":"496River","name":"Pur4","name_alt":null,"note":null,"min_zoom":6.0,"strokeweig":0.3,"name_en":"Pur","min_label":7.0},
"geometry":{"type": "LineString","coordinates": [[77.975195312500034,66.618426824994117,8.8106],[77.949316406250034,66.63068268436912,7.7278],[77.927734375,66.645770574994117,9.5692],[77.912988281250023,66.66596100468162,6.6615],[77.908593750000023,66.69354889530662,6.1075],[77.913818359375,66.713251043744123,5.5349],[77.935546875,66.74457428593162,7.5002],[77.942578125000011,66.76178619999412,8.7811],[77.937402343750023,66.78766510624412,5.1625],[77.915722656250011,66.80304596561912,4.9805],[77.860058593750011,66.823260809369117,9.3197],[77.822998046875,66.86408112186912,3.1699],[77.8671875,66.89337799686912,3.5446],[77.997314453125,66.92694733280662,4.9192],[77.977783203125,66.94696686405662,6.876],[77.984765625000023,66.963397528119117,7.7103],[78.006591796875,66.975213934369123,6.7313],[78.031982421875,66.98151276249412,7.8533],[78.151269531250023,66.98663971561912,1.833],[78.182226562500034,67.00141022343162,2.8334],[78.197167968750023,67.026483465619123,0.0],[78.183984375000023,67.04193756718162,0.0],[78.134521484375,67.06342194218162,5.8841],[78.12451171875,67.077655340619117,0.0],[78.13134765625,67.09113190311912,0.0],[78.162353515625,67.124872137494123,8.349],[78.147705078125,67.13214752811912,9.2102],[78.070556640625,67.14093659061912,4.1816],[78.060302734375,67.144159246869123,2.0125],[78.052441406250011,67.152850653119117,4.1998],[78.05517578125,67.156756903119117,4.5602],[78.069580078125,67.168573309369123,1.5265],[78.072363281250034,67.17328522343162,4.5019],[78.055566406250023,67.191766668744123,4.9134],[77.963134765625,67.24774811405662,0.7656],[77.934179687500034,67.271844793744123,1.9988],[77.921630859375,67.27912018436912,4.5156],[77.853613281250034,67.29401276249412,2.4085],[77.838964843750034,67.30304596561912,3.4789],[77.838623046875,67.31537506718162,0.0],[77.848876953125,67.325799871869123,3.4924],[77.873779296875,67.344012762494117,1.4838],[77.87939453125,67.354999090619117,0.0],[77.8818359375,67.365252996869117,3.7274],[77.88720703125,67.375262762494117,3.7313],[77.901123046875,67.38556549686912,1.3962],[77.879150390625,67.40253327030662,1.7636],[77.85205078125,67.41327545780662,2.3682],[77.829003906250023,67.42829010624412,0.6216],[77.819042968750011,67.45758698124412,0.0],[77.817578125000011,67.46808502811912,0.0],[77.8125,67.47870514530662,0.9235],[77.812255859375,67.488641668744123,0.0],[77.815820312500023,67.49994537968162,0.0],[77.820703125000023,67.50873444218162,0.0],[77.822998046875,67.51776764530662,2.174],[77.819042968750011,67.52960846561912,2.1322],[77.834228515625,67.54266998905662,1.6126],[77.85107421875,67.551629949994123,1.0203],[77.888085937500023,67.563739324994117,0.0]]}}