{"type":"Feature","properties":{"featurecla":"River","scalerank":7,"rivernum":543,"dissolve":"543River","name":"Nadym1","name_alt":null,"note":null,"min_zoom":6.0,"strokeweig":0.2,"name_en":"Nadym","min_label":7.0},
"geometry":{"type": "LineString","coordinates": [[71.809472656250023,63.624627996869123,100.5],[71.82666015625,63.62518952030662,100.0],[71.8349609375,63.626971746869117,101.0283],[71.843164062500023,63.63043854374412,100.9675],[71.854394531250023,63.638788153119123,100.2133],[71.8609375,63.647967840619117,100.9701],[71.866601562500023,63.65778229374412,98.8179],[71.87451171875,63.66803619999412,96.6095],[71.896240234375,63.68512604374412,101.0081],[71.920654296875,63.697284246869117,95.3492],[72.037011718750023,63.725946356244123,91.8223],[72.068115234375,63.738055731244117,98.442],[72.09384765625,63.757342840619117,93.1502],[72.116943359375,63.76874420780662,93.4423],[72.21435546875,63.781268621869117,87.3273],[72.293359375000023,63.811639715619123,95.2108],[72.31298828125,63.82538483280662,84.1456],[72.327880859375,63.83026764530662,83.959],[72.367089843750023,63.826434637494117,85.3423],[72.38134765625,63.832147528119123,93.4813],[72.412353515625,63.869403387494117,86.1465],[72.4345703125,63.88410065311912,79.3246],[72.4599609375,63.891473699994123,80.3648],[72.515380859375,63.897333074994123,78.8819],[72.8130859375,63.96576569218162,72.6782],[72.81650390625,63.972674871869117,72.2152],[72.8095703125,63.986688543744123,72.615],[72.833251953125,63.98834869999412,67.5],[72.90234375,64.000995184369117,71.0207],[72.91318359375,64.00739166874412,68.7667],[72.95361328125,64.04816315311912,68.6831],[73.0005859375,64.07770416874412,66.9704],[73.012451171875,64.082294012494117,69.114],[73.0908203125,64.103387762494123,62.6427],[73.0791015625,64.122333074994117,65.8536],[73.084375,64.13446686405662,66.3692],[73.114990234375,64.15460846561912,62.7582],[73.11826171875,64.161737371869123,59.7619],[73.11669921875,64.178729559369117,65.646],[73.11865234375,64.18537018436912,62.9432],[73.127197265625,64.19171784061912,62.6167],[73.136474609375,64.194598699994117,65.0212],[73.159570312500023,64.198993231244117,62.1751],[73.17919921875,64.206073309369117,61.4875],[73.195556640625,64.21454498905662,63.3724],[73.224511718750023,64.23688385624412,62.9832],[73.260498046875,64.25714752811912,62.1478],[73.2671875,64.26984284061912,61.122],[73.2490234375,64.28839752811912,58.0378],[73.296289062500023,64.30377838749412,58.7496],[73.310546875,64.31500885624412,56.3718],[73.313378906250023,64.32025787968162,58.1013],[73.31845703125,64.335809637494123,52.4957],[73.323437500000011,64.34296295780662,57.1698],[73.358300781250023,64.34979889530662,53.1956],[73.363183593750023,64.38141510624412,51.4788],[73.449951171875,64.43244049686912,51.3847],[73.438867187500023,64.489129949994123,51.7196],[73.457275390625,64.50568268436912,46.8474],[73.484277343750023,64.51691315311912,49.8511],[73.50537109375,64.521112371869123,51.2299],[73.523339843750023,64.52814362186912,52.1151],[73.527246093750023,64.545038153119123,46.1807],[73.52294921875,64.565301824994123,50.4434],[73.516015625000023,64.58258698124412,46.9873]]}}