{"type":"Feature","properties":{"featurecla":"River","scalerank":7,"rivernum":372,"dissolve":"372River","name":"null81","name_alt":null,"note":null,"min_zoom":6.0,"strokeweig":0.2,"name_en":null,"min_label":7.0},
"geometry":{"type": "LineString","coordinates": [[70.7197265625,66.76178619999412,2.0985],[70.7197265625,66.76178619999412,2.0985],[70.7197265625,66.76178619999412,2.0985],[70.7197265625,66.76178619999412,2.0985],[70.7197265625,66.76178619999412,2.0985],[70.761962890625,66.766229559369123,0.0],[70.8369140625,66.803485418744117,0.0],[70.8779296875,66.81708405155662,0.0],[70.927148437500023,66.81952545780662,1.8795],[71.022851562500023,66.81403229374412,0.2375],[71.0712890625,66.82160065311912,2.3177],[71.151123046875,66.84808991093162,0.0],[71.16708984375,66.85858795780662,0.0],[71.181542968750023,66.871112371869117,1.6813],[71.19677734375,66.88153717655662,1.5681],[71.21630859375,66.88593170780662,1.1449],[71.28427734375,66.87677643436912,1.735],[71.3072265625,66.88043854374412,-0.1013],[71.3521484375,66.89276764530662,0.8588],[71.391357421875,66.905780340619117,1.071]]}}