{"type":"Feature","properties":{"featurecla":"River","scalerank":7,"rivernum":496,"dissolve":"496River","name":"Pur2","name_alt":null,"note":null,"min_zoom":6.0,"strokeweig":0.25,"name_en":"Pur","min_label":7.0},
"geometry":{"type": "LineString","coordinates": [[77.4150390625,64.822772528119117,29.4975],[77.433691406250034,64.83075592655662,27.3669],[77.4970703125,64.84320709843162,24.6611],[77.517675781250034,64.85053131718162,24.263],[77.572509765625,64.88080475468162,27.1213],[77.58056640625,64.888446356244117,28.4204],[77.58984375,64.91132233280662,28.219],[77.5966796875,64.921747137494123,25.4738],[77.61474609375,64.93598053593162,26.4479],[77.634521484375,64.94513580936912,25.0278],[77.677148437500023,64.958124090619123,32.3392],[77.720117187500023,64.96222565311912,26.5171],[77.761962890625,64.95685455936912,25.4305],[77.801855468750034,64.957635809369123,26.1307],[77.838964843750034,64.98041412968162,27.2124],[77.89111328125,65.048211981244123,25.5747],[77.927148437500023,65.07330963749412,19.1636],[77.935791015625,65.08258698124412,24.4686],[77.941015625000034,65.09381744999412,23.6679],[77.945898437500034,65.12323639530662,24.7052],[77.955078125,65.13471100468162,23.4146],[78.010644531250023,65.16571686405662,21.0381],[78.01171875,65.172626043744117,23.363],[78.010937500000011,65.18927643436912,24.4897],[78.013427734375,65.20783112186912,20.943],[78.02099609375,65.21552155155662,21.8546],[78.033935546875,65.221210028119117,21.3769],[78.052441406250011,65.233661199994117,20.1103],[78.065673828125,65.24579498905662,21.7891],[78.06884765625,65.25250885624412,22.3369],[78.045654296875,65.31183502811912,17.1066],[78.041601562500034,65.319354559369117,16.9926],[78.0341796875,65.329364324994117,16.8632],[78.031982421875,65.337176824994117,20.296],[78.027246093750023,65.34479401249412,24.3415],[78.011621093750023,65.35407135624412,20.116],[77.941650390625,65.37799713749412,21.293],[77.92529296875,65.38849518436912,24.0138],[77.914794921875,65.39813873905662,15.2064],[77.927148437500023,65.410174871869117,20.3823],[77.953320312500011,65.427752996869117,19.6419],[77.963134765625,65.43976471561912,19.8625],[77.965722656250023,65.450702215619117,15.361],[77.963769531250023,65.458368231244123,15.3233],[77.964941406250034,65.467059637494117,15.0142],[77.976757812500011,65.480731512494117,20.71],[78.012451171875,65.498895574994123,18.7917],[78.053125,65.509637762494123,19.2055],[78.086523437500034,65.52545807499412,20.8667],[78.100341796875,65.55890534061912,17.6527],[78.104296874999989,65.576434637494117,19.0478],[78.114990234375,65.58490631718162,17.4352],[78.19189453125,65.59650299686912,15.9639],[78.207617187500034,65.60382721561912,20.2827],[78.223876953125,65.617938543744117,19.3193],[78.244384765625,65.64179108280662,19.0834],[78.242089843750023,65.648309637494123,19.5562],[78.232519531250034,65.661493231244123,13.2161],[78.230712890625,65.665057684369117,13.8516],[78.238525390625,65.68085358280662,19.4623],[78.251953125,65.692987371869123,16.5567],[78.285839843750011,65.71344635624412,12.2413],[78.27197265625,65.72284577030662,21.4102],[78.260498046875,65.73456452030662,19.9636],[78.258398437500034,65.74689362186912,15.8659],[78.27197265625,65.75812409061912,20.8651],[78.273828125000023,65.766376043744117,14.7484],[78.256933593750034,65.77631256718162,18.8724],[78.197998046875,65.802752996869117,17.5406],[78.193359375,65.80975983280662,15.5809],[78.2021484375,65.817499090619123,17.7855],[78.251708984375,65.84686920780662,18.2186],[78.26123046875,65.85822174686912,15.2205],[78.264746093750034,65.874530340619117,10.0],[78.2607421875,65.88764069218162,17.0239],[78.252832031250023,65.89618561405662,17.3747],[78.247656250000034,65.905145574994123,18.1577],[78.251708984375,65.919549871869123,9.5],[78.262304687500034,65.93036530155662,21.5302],[78.309472656250023,65.96356842655662,15.9219],[78.327539062500023,65.993182684369117,10.5531],[78.317480468750034,66.014032293744123,15.8829],[78.251708984375,66.04926178593162,18.1341],[78.285839843750011,66.075067449994123,16.5362],[78.2841796875,66.08515045780662,12.8442],[78.217382812500034,66.14423248905662,10.9591],[78.210205078125,66.155389715619123,9.3776],[78.212597656250011,66.17133209843162,10.4473],[78.223046875000023,66.19965241093162,8.2959],[78.223876953125,66.213739324994123,8.393],[78.223046875000023,66.22736237186912,9.1208],[78.186132812500034,66.23847077030662,7.9876],[78.151562500000011,66.24347565311912,16.6157],[78.134521484375,66.24848053593162,12.481],[78.052441406250011,66.295672918744117,11.7062],[78.0126953125,66.31195709843162,10.3301],[78.0009765625,66.320184637494123,10.0957],[77.997167968750034,66.33014557499412,12.4824],[78.005078125000011,66.338006903119123,11.4706],[78.01708984375,66.344501043744117,14.186],[78.024658203125,66.35028717655662,15.4972],[78.026269531250023,66.36432526249412,7.9057],[78.02294921875,66.39667389530662,11.6179],[78.0283203125,66.408954168744117,15.5167],[78.052441406250011,66.41974518436912,10.2838],[78.1103515625,66.42987702030662,10.2233],[78.128320312500023,66.44647858280662,6.1312],[78.108496093750034,66.45587799686912,6.9357],[78.10205078125,66.47150299686912,6.1851],[78.099609375,66.49005768436912,12.0026],[78.0927734375,66.508563543744117,4.9016],[78.084082031250034,66.517694403119123,10.3695],[78.0673828125,66.52741119999412,6.7184],[78.059277343750011,66.535907293744117,5.9883],[78.057031250000023,66.54315827030662,9.2233],[78.055273437500034,66.562030340619117,5.3803],[78.052441406250011,66.57001373905662,6.5481],[78.0380859375,66.58588287968162,7.4686],[78.019140625000034,66.59845612186912,7.6296],[77.975195312500034,66.618426824994117,8.8106]]}}