{"type":"Feature","properties":{"featurecla":"River","scalerank":2,"rivernum":24,"dissolve":"24River","name":"Ob11","name_alt":null,"note":null,"min_zoom":2.1,"strokeweig":0.3,"name_en":"Ob","min_label":3.1},
"geometry":{"type": "LineString","coordinates": [[67.4306640625,66.67243073124412,0.0],[67.442285156250023,66.68231842655662,4.7548],[67.4853515625,66.70038483280662,4.3482],[67.54052734375,66.741961981244117,4.2641],[67.54794921875,66.75043366093162,4.537],[67.55869140625,66.76788971561912,3.5784],[67.567285156250023,66.77606842655662,3.9101],[67.582763671875,66.78302643436912,2.9395],[67.60361328125,66.78766510624412,2.1372],[67.625244140625,66.78986237186912,3.3258],[67.642968750000023,66.78974030155662,4.755],[67.672265625000023,66.78156159061912,4.6172],[67.68701171875,66.780047918744117,3.9121],[67.724609375,66.79120514530662,0.0],[67.7431640625,66.787958074994123,0.0],[67.780175781250023,66.77606842655662,5.9328],[67.9580078125,66.76862213749412,4.9129],[67.992919921875,66.774042059369123,4.7921],[68.081738281250011,66.81708405155662,3.2758],[68.11572265625,66.82648346561912,3.7736],[68.15380859375,66.82929108280662,3.0321],[68.19189453125,66.82501862186912,2.4463],[68.26123046875,66.79987213749412,3.4795],[68.408593750000023,66.77301666874412,0.0],[68.503808593750023,66.77643463749412,3.7154],[68.546484375,66.76520416874412,1.8457],[68.5693359375,66.754510809369123,2.7406],[68.58154296875,66.74213287968162,2.4306]]}}