{"type":"Feature","properties":{"featurecla":"River","scalerank":7,"rivernum":496,"dissolve":"496River","name":"Pur","name_alt":null,"note":null,"min_zoom":6.0,"strokeweig":0.2,"name_en":"Pur","min_label":7.0},
"geometry":{"type": "LineString","coordinates": [[73.769775390625,63.80914948124412,110.439],[73.747314453125,63.80011627811912,108.0],[73.73486328125,63.79328034061912,107.4515],[73.728271484375,63.787469793744123,105.5],[73.72861328125,63.77863190311912,106.6818],[73.73876953125,63.74652741093162,103.0],[73.742919921875,63.742303778119123,103.0],[73.73583984375,63.733172918744117,103.5],[73.723388671875,63.723993231244123,103.2589],[73.71103515625,63.71979401249412,101.8768],[73.6939453125,63.71857330936912,102.0],[73.68115234375,63.71491119999412,102.9601],[73.6705078125,63.70856354374412,102.7533],[73.63623046875,63.677606512494123,102.1428],[73.625244140625,63.671405340619117,99.1987],[73.59677734375,63.66022369999412,98.4425],[73.58310546875,63.65167877811912,96.5],[73.577392578125,63.64032623905662,96.6655],[73.58701171875,63.62152741093162,94.7716],[73.6099609375,63.60724518436912,95.9865],[73.659912109375,63.58942291874412,96.3504]]}}