{"type":"Feature","properties":{"featurecla":"River","scalerank":7,"rivernum":543,"dissolve":"543River","name":"Nadym2","name_alt":null,"note":null,"min_zoom":6.0,"strokeweig":0.25,"name_en":"Nadym","min_label":7.0},
"geometry":{"type": "LineString","coordinates": [[73.522705078125,64.58258698124412,48.5979],[73.487207031250023,64.62872955936912,45.9282],[73.52353515625,64.67816803593162,44.6245],[73.706445312500023,64.783221746869117,40.1517],[73.721923828125,64.79486725468162,43.0061],[73.72998046875,64.80621979374412,42.3982],[73.738525390625,64.828241278119123,39.7327],[73.761474609375,64.86176178593162,51.31],[73.77099609375,64.872186590619123,49.8252],[73.79248046875,64.88690827030662,45.5575],[73.808496093750023,64.901971746869123,46.1136],[73.81748046875,64.908465887494117,47.4787],[74.0029296875,64.95844147343162,38.1742],[74.02978515625,64.98041412968162,31.1561],[74.024121093750011,64.99982330936912,29.4271],[73.978759765625,65.04132721561912,26.5],[73.9677734375,65.06574127811912,25.5],[73.967675781250023,65.095331121869123,24.5],[73.9634765625,65.11432526249412,24.0],[73.949462890625,65.128778387494123,23.5],[73.919921875,65.144891668744123,29.8562],[73.87451171875,65.16217682499412,28.5959],[73.65244140625,65.21381256718162,29.2549],[73.5751953125,65.21710846561912,27.8046],[73.529052734375,65.22626373905662,26.2386],[73.460693359375,65.22687409061912,21.0629],[73.380859375,65.25043366093162,23.0864],[73.354296875000017,65.254169012494117,21.9883],[73.32236328125,65.263544012494123,24.1054],[73.221093750000023,65.329852606244117,19.6071],[72.9013671875,65.421014715619123,9.5],[72.83447265625,65.44891998905662,9.0],[72.781640625000023,65.49494049686912,13.637],[72.7666015625,65.51715729374412,7.5],[72.757421875,65.52594635624412,7.0],[72.741943359375,65.53534577030662,13.1866],[72.6861328125,65.55963776249412,13.583],[72.5904296875,65.64520905155662,4.5],[72.515380859375,65.694208074994123,4.0],[72.48583984375,65.72211334843162,10.4178],[72.467480468750011,65.761249090619117,3.0],[72.46689453125,65.77545807499412,3.0],[72.469482421875,65.81110260624412,9.9533],[72.467480468750011,65.82269928593162,7.2632],[72.453857421875,65.83124420780662,8.8606],[72.3916015625,65.84003327030662,6.0692],[72.343994140625,65.871112371869117,6.1332],[72.314453125,65.88104889530662,1.0],[72.21982421875,65.891620184369117,4.4961],[72.191650390625,65.90180084843162,0.5],[72.140380859375,65.92999909061912,0.0],[72.111328125,65.93939850468162,7.6724],[72.054882812500011,65.948749090619117,0.9031],[72.0259765625,65.96027252811912,5.8948],[72.025292968750023,65.97760651249412,5.8036],[72.039794921875,65.99420807499412,2.423],[72.0703125,66.04242584843162,1.1612],[72.05673828125,66.048846746869117,-0.8789],[72.029687500000023,66.066669012494117,-0.9536],[72.015039062500023,66.07037994999412,1.253],[71.9990234375,66.07172272343162,1.4245],[71.981640625000011,66.07636139530662,3.8137],[71.9673828125,66.08478424686912,1.5074],[71.96044921875,66.097674871869117,0.7427],[71.9859375,66.10053131718162,0.788],[72.01123046875,66.10663483280662,1.9751],[72.03515625,66.11664459843162,1.9709],[72.056640625,66.13117096561912,2.1592],[72.03515625,66.147333074994123,1.7854],[72.013671875,66.16913483280662,1.4518],[71.99814453125,66.19452545780662,2.8535],[71.99169921875,66.22992584843162,0.0]]}}