{"type":"Feature","properties":{"GID_2":"RUS.80.6_1","GID_0":"RUS","country":"Russia","GID_1":"RUS.80_1","province":"Yamal-Nenets","NL_NAME_1":"Ямало-НенецкийАОк","county":"Noyabr'sk","VARNAME_2":"NA","NL_NAME_2":"Ноябрьск","TYPE_2":"Gorsovet","ENGTYPE_2":"District","CC_2":"NA","HASC_2":"RU.YN.NY","name":"Noyabr'sk.county"},
"geometry":{"type": "MultiPolygon","coordinates": [[[[75.3555,63.1722,107.5434],[75.3295,63.1524,147.2527],[75.3421,63.1276,138.8614],[75.4134,63.1245,138.623],[75.4422,63.141,126.059],[75.4308,63.1544,120.3618],[75.3987,63.1719,99.0],[75.3555,63.1722,107.5434]]]]}}