{"type":"Feature","properties":{"GID_2":"RUS.83.29_1","GID_0":"RUS","country":"Russia","GID_1":"RUS.83_1","province":"Zabaykal'ye","NL_NAME_1":"Забайкальскийкрай","county":"Shelopuginskiyrayon","VARNAME_2":"NA","NL_NAME_2":"Шелопугинскийрайон","TYPE_2":"Raion","ENGTYPE_2":"District","CC_2":"R64092","HASC_2":"RU.CT.SP","name":"Shelopuginskiyrayon.county"},
"geometry":{"type": "MultiPolygon","coordinates": [[[[117.9699,51.3239,1005.951],[118.001,51.3475,919.9418],[118.0118,51.3792,833.9674],[118.0115,51.4357,956.8285],[118.0258,51.5042,772.2767],[118.046,51.5725,825.7124],[118.0861,51.6643,965.7911],[118.1509,51.7155,1010.2231],[118.2467,51.7595,853.2882],[118.3346,51.7914,905.8664],[118.4083,51.8304,748.9031],[118.4823,51.8789,805.9943],[118.5387,51.9494,803.2095],[118.6157,52.0336,721.4169],[118.6148,52.0747,903.4204],[118.6339,52.102,1120.0574],[118.5604,52.1041,1038.7834],[118.5024,52.0893,883.479],[118.4457,52.0588,886.381],[118.4195,52.0223,848.8937],[118.3692,52.0013,847.623],[118.2943,51.9825,1070.8304],[118.27,51.9341,955.2786],[118.2513,51.8895,919.4753],[118.1778,51.9105,819.4749],[118.1079,51.9327,823.5114],[118.0236,51.9678,909.2231],[118.0097,52.0016,833.9634],[117.9482,52.0118,772.6357],[117.8023,52.0644,863.2682],[117.7069,52.0866,643.5674],[117.6133,52.098,925.538],[117.5422,52.0771,863.172],[117.4682,52.0386,717.2809],[117.4102,51.9975,1144.7705],[117.3254,51.9767,1041.2347],[117.2764,51.9303,1133.4438],[117.2917,51.8888,913.2781],[117.3162,51.8639,903.6586],[117.3011,51.8254,764.574],[117.2739,51.7659,728.8828],[117.2763,51.734,700.0616],[117.3059,51.6892,769.2186],[117.3085,51.6315,722.3712],[117.2929,51.5777,844.4388],[117.299,51.5461,751.2969],[117.3533,51.5211,810.8925],[117.3742,51.4958,894.5154],[117.3531,51.4476,976.2448],[117.3147,51.4107,909.8646],[117.3211,51.3704,933.7432],[117.2947,51.3153,928.1995],[117.2466,51.2819,949.9259],[117.2399,51.2485,1054.1721],[117.2748,51.2102,1026.4148],[117.3132,51.18,1281.1256],[117.4273,51.1999,938.2557],[117.4464,51.2255,1127.0465],[117.4849,51.2423,944.9211],[117.559,51.2483,945.3355],[117.6433,51.2489,991.3612],[117.6813,51.279,931.2734],[117.7189,51.2824,1014.6426],[117.7697,51.2577,1206.3977],[117.7927,51.2136,957.3993],[117.8627,51.2412,1013.9352],[117.9699,51.3239,1005.951]]]]}}