{"type":"Feature","properties":{"GID_2":"RUS.71.9_1","GID_0":"RUS","country":"Russia","GID_1":"RUS.71_1","province":"Tuva","NL_NAME_1":"РеспубликаТыва","county":"Kyzylskiyrayon","VARNAME_2":"NA","NL_NAME_2":"Кызылскийрайон","TYPE_2":"Raion","ENGTYPE_2":"District","CC_2":"R61000","HASC_2":"RU.TU.KR","name":"Kyzylskiyrayon.county"},
"geometry":{"type": "MultiPolygon","coordinates": [[[[98.3049,50.5021,2020.8308],[98.3245,50.539,2150.6536],[98.3232,50.5474,2106.1863],[98.3158,50.5557,2223.9321],[98.3069,50.5617,2191.5718],[98.2648,50.5746,2171.5078],[98.2408,50.5793,2152.0579],[98.1598,50.5871,2146.0859],[98.1455,50.5906,2106.0864],[98.1327,50.5964,2102.8674],[98.0488,50.6529,2031.465],[98.0347,50.6702,2371.0771],[98.0181,50.7012,2142.6997],[98.0081,50.7097,2060.6357],[97.9945,50.7161,2312.5217],[97.9817,50.7253,2056.1865],[97.9741,50.7333,2001.0624],[97.967,50.745,2040.0546],[97.955,50.7819,1692.6934],[97.9555,50.7877,1876.2969],[97.9625,50.8023,2206.0693],[97.9723,50.8165,2112.2129],[98.0119,50.8436,2093.3936],[98.0195,50.8515,2153.8096],[98.0196,50.867,1400.0708],[98.0129,50.8741,1400.0591],[97.9567,50.9029,1385.9912],[97.9409,50.9156,1387.5466],[97.9128,50.9234,1382.6592],[97.8867,50.9372,1383.8225],[97.8761,50.9474,1381.2239],[97.8673,50.9498,1375.45],[97.8656,50.9587,1373.4153],[97.8574,50.9644,1370.1929],[97.8621,50.9749,1382.5828],[97.8437,50.9991,1356.7545],[97.8284,51.0036,1343.7913],[97.8298,51.0064,1336.624],[97.828,51.0117,1340.6792],[97.8373,51.0269,1323.3279],[97.8463,51.0328,1318.9098],[97.8559,51.0347,1335.7014],[97.8677,51.0455,1332.1689],[97.8691,51.0511,1311.4309],[97.8661,51.0612,1314.5342],[97.8747,51.0741,1296.6766],[97.8797,51.0944,1282.2288],[97.8927,51.1055,1272.1353],[97.8968,51.1151,1267.7114],[97.8944,51.1204,1269.1573],[97.9023,51.1325,1257.2566],[97.9101,51.1637,1239.8225],[97.9078,51.1721,1234.8877],[97.9307,51.1933,1223.1262],[97.9349,51.2013,1219.1423],[97.9413,51.2079,1215.7828],[97.9463,51.2229,1208.5114],[97.9535,51.2319,1206.171],[97.9529,51.2375,1202.8889],[97.9442,51.2457,1197.1543],[97.9436,51.2493,1195.6455],[97.951,51.2601,1193.0557],[97.9573,51.2778,1188.1055],[97.9517,51.2875,1185.1317],[97.9545,51.2958,1175.663],[97.9535,51.3091,1177.4636],[97.9518,51.3152,1178.6708],[97.948,51.3172,1172.6718],[97.9449,51.3229,1166.6836],[97.9535,51.3332,1165.3271],[97.9717,51.3439,1164.8567],[97.9828,51.3603,1159.4451],[97.9833,51.3675,1199.6418],[97.9947,51.387,1152.8788],[98.0131,51.4027,1194.1908],[98.0228,51.42,1141.7415],[98.0367,51.4277,1180.5875],[98.0293,51.425,1141.6626],[97.9588,51.4321,1782.019],[97.8736,51.3613,1605.2609],[97.8998,51.3029,1479.6835],[97.9027,51.2402,1387.2208],[97.8974,51.2026,1274.0255],[97.8764,51.1853,1318.4066],[97.7934,51.1631,2188.8254],[97.7229,51.1785,2202.9565],[97.6857,51.2142,1821.5273],[97.6424,51.1871,2065.78],[97.5788,51.1791,2108.8662],[97.5269,51.1442,1609.5137],[97.4586,51.1174,1583.2428],[97.3188,51.1056,1807.2408],[97.2959,51.0562,1569.6693],[97.2028,51.0408,1805.3167],[97.0746,51.0487,1470.215],[97.0432,51.0215,1492.1757],[96.9508,51.0228,1092.4692],[96.8941,50.9405,1626.6226],[96.8302,50.8823,1703.1177],[96.7993,50.8072,1780.6963],[96.6138,50.7095,1965.8701],[96.5313,50.5741,2701.2581],[96.4392,50.5203,2776.0723],[96.4651,50.4608,2739.7034],[96.5281,50.407,2596.2944],[96.6798,50.3578,2504.4153],[96.8523,50.2691,2227.3064],[96.9288,50.1945,1970.6465],[96.9085,50.1541,2262.0269],[96.8869,50.1269,2246.5386],[96.8958,50.093,2702.7393],[97.0183,50.0212,2551.0339],[97.3345,49.9214,2583.033],[97.4449,49.9076,2655.5469],[97.5278,49.8798,2354.0713],[97.508,49.8727,2257.1902],[97.5144,49.8322,2536.1396],[97.5439,49.8469,2652.332],[97.6029,49.8817,2713.0583],[97.6082,49.8871,2569.0796],[97.6114,49.8957,2636.9971],[97.6085,49.9011,2682.9956],[97.5824,49.9311,2526.7212],[97.5781,49.9421,2571.7166],[97.5835,49.9482,2512.2158],[97.6057,49.9523,2523.7891],[97.6157,49.9517,2635.1021],[97.6349,49.947,2663.856],[97.6539,49.947,2554.1152],[97.6745,49.9493,2436.0122],[97.6918,49.9533,2435.9309],[97.7057,49.9586,2568.1621],[97.7279,49.9709,2517.9104],[97.7655,49.9843,2465.7759],[97.7942,49.9879,2515.0986],[97.8073,49.9846,2293.6746],[97.8098,49.9821,2272.4194],[97.8155,49.9657,2210.1917],[97.8213,49.9567,2410.1851],[97.8277,49.9521,2344.552],[97.8363,49.9484,2376.1672],[97.8478,49.9468,2255.9062],[97.8627,49.9479,2414.7261],[97.8745,49.9518,2496.1855],[97.8838,49.9575,2395.3413],[97.8908,49.9649,2353.6592],[97.899,49.9781,2300.3423],[97.9145,49.9955,2199.0896],[97.9226,50.0,2155.1792],[97.9515,50.0073,2307.9912],[97.9653,50.0239,2281.1335],[97.9729,50.0302,2276.106],[97.9881,50.0353,2219.4365],[98.0069,50.0347,2263.7368],[98.0189,50.0365,2239.4026],[98.0433,50.0452,2190.21],[98.0578,50.0535,2120.5784],[98.1065,50.0917,2176.0781],[98.1162,50.1039,2158.4338],[98.1508,50.1778,2170.6311],[98.1718,50.2044,2201.5347],[98.1836,50.2144,2211.5679],[98.2303,50.2379,2002.3112],[98.2487,50.2499,2246.6794],[98.2544,50.2555,2215.8049],[98.2599,50.2653,2032.9014],[98.278,50.3121,1800.3411],[98.2779,50.3267,1956.1261],[98.2722,50.3541,2132.2488],[98.2591,50.3864,2280.9082],[98.2567,50.4111,1811.0948],[98.2589,50.4175,2046.1384],[98.2706,50.4346,2350.6658],[98.2892,50.4567,2049.1616],[98.3049,50.5021,2020.8308]]],
[[[93.6802,51.6488,808.3411],[93.6809,51.6512,808.7836],[93.628,51.6768,1054.792],[93.6045,51.7216,1007.9724],[93.606,51.7597,1513.1501],[93.6515,51.7922,1374.7952],[93.6415,51.8258,1512.8436],[93.5561,51.8122,1312.8619],[93.5359,51.8359,1394.7942],[93.5407,51.8853,1928.6608],[93.4888,51.895,1528.3833],[93.4163,51.8802,1284.4663],[93.3671,51.8428,1685.4371],[93.3008,51.8441,1395.1243],[93.2331,51.8026,1509.8534],[93.2257,51.8044,1338.911],[93.2437,51.7746,1841.8344],[93.2591,51.5957,739.7421],[93.2981,51.4929,959.6765],[93.357,51.4229,904.0198],[93.4467,51.4352,1017.0206],[93.4873,51.4526,1055.2233],[93.4755,51.4797,965.7429],[93.4924,51.5189,842.1962],[93.5204,51.5504,617.3385],[93.5785,51.579,574.4249],[93.6681,51.6031,596.0942],[93.6802,51.6488,808.3411]]],
[[[93.7494,51.5506,623.9707],[93.9096,51.5796,682.3245],[93.969,51.5348,719.8264],[94.0522,51.5043,753.3198],[94.1163,51.5415,615.5256],[94.1061,51.6003,606.3231],[94.1409,51.6041,602.1498],[94.2068,51.5809,876.4984],[94.2668,51.5295,812.9808],[94.4101,51.5271,916.7756],[94.4938,51.5028,948.675],[94.5272,51.4599,900.9018],[94.544,51.3892,799.9351],[94.6043,51.3057,736.7921],[94.6797,51.2369,853.1772],[94.747,51.1657,855.9902],[94.7926,51.1344,959.9948],[94.8556,51.1151,1073.3284],[94.9473,51.143,930.0958],[94.9864,51.1906,919.5751],[95.0399,51.2388,954.2898],[95.0942,51.2815,1064.9099],[95.0695,51.3455,1039.9131],[95.0128,51.4062,1081.8571],[94.9081,51.4141,816.3345],[94.8447,51.4464,760.2438],[94.8177,51.5046,725.6872],[94.7625,51.5306,923.9474],[94.7408,51.5686,941.4106],[94.7315,51.6182,907.2604],[94.7084,51.6579,847.898],[94.6681,51.6864,638.3861],[94.6581,51.7703,1147.8743],[94.7759,51.8079,1512.4119],[94.8851,51.8374,1691.09],[95.005,51.8756,1163.6813],[95.0943,51.8706,1547.4553],[95.2207,51.895,1458.9181],[95.2934,51.9261,1388.8898],[95.3634,51.9811,2221.5906],[95.4239,51.993899999999996,2292.9065],[95.5742,51.9828,1711.3792],[95.6728,52.0156,2055.6089],[95.8707,52.03,1897.6473],[95.9274,52.0526,1745.146],[95.8844,52.1101,1977.2867],[95.7954,52.1472,1924.7311],[95.6546,52.1831,2175.6504],[95.5424,52.2144,2160.5503],[95.3972,52.2681,2372.7625],[95.283,52.2722,1984.1116],[95.1609,52.251,2227.6201],[95.0419,52.297,2005.0514],[94.8767,52.4125,1470.7141],[94.8501,52.4647,810.2504],[94.8819,52.5003,797.2314],[94.7625,52.4897,1416.9979],[94.6775,52.4707,1352.2219],[94.6602,52.4044,1322.2433],[94.6366,52.3534,2048.5759],[94.5779,52.3172,725.3845],[94.5045,52.3188,1363.0067],[94.4498,52.3094,1614.4043],[94.4356,52.2653,1412.1445],[94.4059,52.2342,1353.8243],[94.4207,52.1852,1504.0227],[94.3676,52.1657,1109.7499],[94.2734,52.1503,1259.5839],[94.2293,52.111,924.921],[94.2484,52.0455,1045.9681],[94.3235,52.0367,1016.3654],[94.3785,52.0462,747.4396],[94.4265,52.0506,925.5231],[94.4478,52.0167,701.8002],[94.4273,51.9832,1000.1653],[94.3815,51.9354,840.4135],[94.3959,51.888,824.0061],[94.3998,51.8521,901.0005],[94.3032,51.8172,1016.1914],[94.2698,51.7496,834.5087],[94.21,51.7166,779.8451],[94.1061,51.6792,862.4404],[93.9594,51.654,1102.457],[93.7947,51.6406,755.7477],[93.7398,51.6457,725.3149],[93.7372,51.599,581.2175],[93.7494,51.5506,623.9707]],
[[94.3328,51.6443,642.8304],[94.2965,51.6619,614.4536],[94.2628,51.7287,805.6289],[94.379,51.8184,913.7567],[94.4261,51.8158,718.4657],[94.5415,51.756,798.9446],[94.5448,51.731,688.9604],[94.4011,51.6112,753.479],[94.3328,51.6443,642.8304]]]]}}