{"type":"Feature","properties":{"GID_3":"RUS.35.12.1_1","GID_0":"RUS","country":"Russia","GID_1":"RUS.35_1","province":"Krasnoyarsk","NL_NAME_1":"Красноярскийкрай","GID_2":"RUS.35.12_1","county":"Borodino","NL_NAME_2":"Бородино","city":"NA","VARNAME_3":"NA","NL_NAME_3":"NA","TYPE_3":"NA","ENGTYPE_3":"NA","CC_3":"NA","HASC_3":"NA","name":"N_A.city"},
"geometry":{"type": "MultiPolygon","coordinates": [[[[94.9644,55.8846,369.5213],[94.969,55.8985,353.334],[94.9504,55.9114,267.1562],[94.9232,55.911,302.3833],[94.9074,55.9038,333.8534],[94.9074,55.8844,357.8906],[94.9484,55.8782,331.4236],[94.9644,55.8846,369.5213]]]]}}