{"type":"Feature","properties":{"GID_2":"RUS.56.13_1","GID_0":"RUS","country":"Russia","GID_1":"RUS.56_1","province":"Primor'ye","NL_NAME_1":"Приморскийкрай","county":"Khasanskiyrayon","VARNAME_2":"NA","NL_NAME_2":"Хасанскийрайон","TYPE_2":"Raion","ENGTYPE_2":"District","CC_2":"R66002","HASC_2":"RU.PR.KS","name":"Khasanskiyrayon.county"},
"geometry":{"type": "MultiPolygon","coordinates": [[[[131.454,42.8363,0.0],[131.4449,42.8371,0.0],[131.4346,42.8326,0.0],[131.4371,42.8279,0.0],[131.441,42.8282,1.1655],[131.4424,42.8262,0.0],[131.4462,42.8254,0.0],[131.4485,42.8301,0.0],[131.4538,42.8279,0.0],[131.4571,42.8307,0.0],[131.4565,42.8324,9.44],[131.4582,42.8335,0.0],[131.454,42.8363,0.0]]],
[[[131.3482,42.764,2.0207],[131.3454,42.7643,0.0],[131.3446,42.7618,0.0],[131.3485,42.7604,0.0],[131.3496,42.7635,0.0],[131.3482,42.764,2.0207]]],
[[[131.4504,42.8132,9.336],[131.4482,42.8143,0.0],[131.4462,42.8118,34.3013],[131.4446,42.8132,0.0],[131.441,42.8093,0.0],[131.4393,42.8013,0.0],[131.4415,42.7979,2.8239],[131.4432,42.7976,2.8239],[131.444,42.7999,3.9902],[131.4479,42.8015,0.0],[131.4493,42.8065,7.661],[131.4524,42.8018,0.1668],[131.4546,42.8035,0.0],[131.4529,42.8049,17.5263],[131.454,42.8065,0.0],[131.4532,42.8107,22.6306],[131.4504,42.8132,9.336]]],
[[[131.4646,42.9188,1.9956],[131.4629,42.9182,4.1146],[131.4651,42.9087,0.0],[131.4674,42.9082,0.3572],[131.4679,42.9113,28.1352],[131.4657,42.9143,24.745],[131.4674,42.9168,7.073],[131.4646,42.9188,1.9956]]],
[[[131.8032,43.3415,0.0],[131.8033,43.3415,0.0],[131.8032,43.3418,0.0],[131.8032,43.3415,0.0]]],
[[[131.8032,43.3418,0.0],[131.8031,43.342,0.0],[131.8029,43.3423,0.0],[131.8029,43.3418,0.0],[131.8032,43.3418,0.0]]],
[[[131.4585,42.9246,2.6572],[131.4563,42.9249,0.0],[131.4576,42.9229,0.0],[131.4601,42.9226,1.0376],[131.4607,42.924,0.0],[131.4585,42.9246,2.6572]]],
[[[131.4215,42.9326,0.0],[131.4193,42.9335,2.0071],[131.4268,42.9271,0.0],[131.4299,42.9276,0.0],[131.4274,42.9282,0.0],[131.4215,42.9326,0.0]]],
[[[131.7732,43.3363,-0.029],[131.7701,43.3371,0.0],[131.7612,43.3279,0.0138],[131.761,43.3257,0.0605],[131.764,43.3215,0.0631],[131.7632,43.319,0.0635],[131.7665,43.316,0.0],[131.7704,43.321,0.0004],[131.7693,43.3246,-0.007],[131.7721,43.3262,0.0],[131.7724,43.3301,0.0079],[131.774,43.3296,-0.043],[131.7735,43.3218,-0.095],[131.7754,43.3171,-0.0943],[131.7771,43.3171,-0.071],[131.7796,43.3207,0.0025],[131.7796,43.329,-0.0488],[131.7732,43.3363,-0.029]]],
[[[130.8224,42.4629,0.0],[130.8204,42.4635,0.0],[130.819,42.4612,0.0],[130.8215,42.4607,0.0],[130.8224,42.4629,0.0]]],
[[[130.9329,42.4751,37.9824],[130.9296,42.4757,0.2737],[130.9301,42.4724,17.0162],[130.9238,42.4718,29.4754],[130.9212,42.4749,6.1187],[130.9162,42.4721,4.041],[130.9107,42.4738,0.0],[130.9107,42.471,19.6818],[130.9138,42.4682,8.391],[130.9065,42.4579,1.2075],[130.9074,42.4568,0.0],[130.9182,42.4571,9.0627],[130.9207,42.461,12.0361],[130.9246,42.4604,0.0],[130.9274,42.4643,0.0],[130.9357,42.4657,0.0],[130.9332,42.469,4.6199],[130.936,42.4701,0.0],[130.9365,42.4724,0.0],[130.9329,42.4751,37.9824]]],
[[[131.1835,42.5582,0.0],[131.1821,42.5585,0.0],[131.1832,42.5551,0.0],[131.1846,42.5557,0.0],[131.1835,42.5582,0.0]]],
[[[131.2299,42.6113,0.0],[131.2285,42.6118,2.2995],[131.2246,42.6085,0.0],[131.2274,42.6082,0.0],[131.2299,42.6113,0.0]]],
[[[130.9713,42.6165,22.3792],[130.969,42.6176,0.0],[130.9701,42.6129,0.0],[130.9715,42.6132,1.107],[130.9713,42.6165,22.3792]]],
[[[130.9679,42.6213,0.0],[130.9671,42.6229,1.2096],[130.9657,42.6224,0.0],[130.966,42.6215,0.0],[130.9679,42.6213,0.0]]],
[[[131.3557,42.6835,97.3957],[131.3518,42.6838,0.0],[131.3515,42.6821,0.0],[131.3537,42.6807,0.0],[131.3571,42.6813,0.0],[131.3557,42.6835,97.3957]]],
[[[131.3707,42.6965,22.4224],[131.3685,42.6974,0.0],[131.3668,42.6949,35.993899999999996],[131.3615,42.6957,0.0],[131.3596,42.691,3.7005],[131.3735,42.6926,11.7229],[131.3707,42.6965,22.4224]]],
[[[131.5001,42.7313,1.2179],[131.4993,42.7318,1.2179],[131.5013,42.7274,1.3354],[131.509,42.7196,0.0],[131.5151,42.7182,1.2457],[131.5185,42.7151,0.0],[131.5237,42.7163,0.0],[131.5232,42.719,21.4278],[131.519,42.7204,61.2575],[131.5151,42.7246,88.5882],[131.5151,42.7265,48.3521],[131.5001,42.7313,1.2179]]],
[[[131.4688,42.6746,0.6511],[131.4665,42.6751,3.8123],[131.4604,42.6718,6.8252],[131.4532,42.666,0.0],[131.4551,42.6613,9.4716],[131.4532,42.6563,0.0],[131.4579,42.6554,3.5408],[131.4576,42.6507,1.9681],[131.454,42.6504,11.8995],[131.4487,42.6463,4.4293],[131.4449,42.6474,0.0],[131.444,42.6457,0.0],[131.4362,42.6454,5.0006],[131.4351,42.6437,0.0],[131.4457,42.6418,6.572],[131.4471,42.6399,0.0],[131.4518,42.6454,0.0],[131.4565,42.6454,0.0],[131.4621,42.6396,0.0],[131.4612,42.6457,62.1235],[131.4665,42.6482,0.0],[131.4649,42.6526,0.0],[131.4657,42.6599,0.0],[131.4693,42.6635,5.165],[131.474,42.6654,0.0],[131.4754,42.6696,0.0],[131.4688,42.6746,0.6511]]],
[[[131.4293,42.6701,31.4855],[131.4285,42.6724,1.3317],[131.4251,42.669,0.0],[131.4251,42.6651,0.0],[131.4362,42.6646,0.0],[131.4362,42.6665,0.0],[131.4293,42.6701,31.4855]]],
[[[131.4254,42.6787,0.2601],[131.4254,42.6801,0.6197],[131.4218,42.6799,2.3941],[131.4293,42.6729,0.0],[131.4299,42.674,0.0],[131.4254,42.6787,0.2601]]],
[[[131.3632,42.6729,24.2409],[131.3615,42.6738,0.0],[131.3582,42.6718,21.0993],[131.3585,42.6676,0.0],[131.3613,42.6701,0.0],[131.3649,42.6704,0.0],[131.3632,42.6729,24.2409]]],
[[[130.6128,42.4289,2.5],[130.6146,42.424,15.4483],[130.6235,42.4217,8.5461],[130.6339,42.4142,5.6257],[130.642,42.406,4.4014],[130.6555,42.3865,5.8805],[130.66,42.3676,1.0],[130.645,42.3483,1.0],[130.6461,42.3389,1.537],[130.6506,42.3293,0.5],[130.6649,42.3072,1.3569],[130.6617,42.2998,0.0],[130.6623,42.2955,1.685],[130.6719,42.2898,0.2476],[130.6744,42.2846,0.0],[130.6946,42.2879,0.0],[130.6993,42.2938,0.0],[130.7021,42.2946,0.0],[130.7082,42.3063,0.1482],[130.7329,42.336,0.0],[130.7521,42.3685,0.0],[130.7612,42.3935,0.0],[130.7688,42.4279,0.0],[130.7787,42.446,0.1223],[130.7835,42.4501,0.0],[130.7879,42.4507,0.0],[130.7871,42.4538,0.0],[130.7818,42.454,0.0],[130.7765,42.4571,0.8973],[130.7785,42.4651,1.2054],[130.7829,42.4693,1.158],[130.7921,42.4738,1.0198],[130.8062,42.4765,0.0],[130.8099,42.4765,3.8502],[130.8163,42.4718,23.3191],[130.8163,42.469,7.2297],[130.8215,42.4671,1.8585],[130.8338,42.4671,11.4815],[130.839,42.4696,0.0],[130.8429,42.474,0.0],[130.846,42.4826,13.4321],[130.8499,42.4843,0.0],[130.8504,42.4868,0.0],[130.8463,42.4876,23.2596],[130.8463,42.4926,6.7972],[130.8443,42.4946,10.9062],[130.8474,42.5051,0.6144],[130.8412,42.5065,4.3342],[130.8415,42.5121,0.0],[130.8362,42.5143,1.8249],[130.8382,42.5185,5.0119],[130.8357,42.524,0.0],[130.8307,42.5265,0.0],[130.8313,42.5288,0.439],[130.8438,42.5351,0.3843],[130.8476,42.5329,0.0],[130.8537,42.5326,1.4849],[130.8587,42.5182,0.0],[130.8638,42.5146,0.0],[130.8679,42.5165,0.0],[130.8707,42.5226,0.0],[130.8704,42.531,1.5626],[130.8643,42.5382,29.8046],[130.856,42.5401,2.5638],[130.8518,42.5443,0.0],[130.841,42.5443,0.4322],[130.844,42.5576,1.6282],[130.8432,42.5615,0.0],[130.8401,42.5643,10.1756],[130.8138,42.5676,8.9032],[130.8101,42.5713,0.0],[130.8013,42.5726,4.7328],[130.7943,42.5779,5.2097],[130.7921,42.5779,0.0],[130.7868,42.5735,2.3831],[130.7787,42.574,0.7148],[130.7732,42.5776,0.7889],[130.7704,42.5849,0.9544],[130.7724,42.5985,1.109],[130.781,42.6129,0.0],[130.7968,42.6332,0.0],[130.7935,42.6335,0.4298],[130.7943,42.6318,0.5184],[130.7801,42.616,0.3435],[130.7715,42.6021,1.0897],[130.7701,42.6029,1.3173],[130.7718,42.6049,0.2103],[130.7701,42.606,0.0],[130.7657,42.6037,1.6356],[130.7654,42.6063,0.2478],[130.7621,42.6068,1.6435],[130.7599,42.6051,0.0],[130.761,42.6032,2.9412],[130.7587,42.6026,0.8128],[130.7571,42.6049,0.2266],[130.7538,42.6054,1.5],[130.7538,42.6074,0.0],[130.7515,42.609,0.0],[130.7457,42.6093,0.3085],[130.7424,42.6065,0.5899],[130.7365,42.596,2.1936],[130.7213,42.5829,2.0926],[130.6965,42.5782,1.0186],[130.6946,42.5754,1.5556],[130.6946,42.5699,2.8627],[130.6932,42.5726,0.0],[130.6876,42.5729,2.0768],[130.6846,42.5751,1.1162],[130.6843,42.5785,0.0],[130.6868,42.5812,0.1699],[130.6821,42.5851,11.6653],[130.6768,42.586,1.845],[130.6743,42.5904,0.2719],[130.6771,42.5887,0.0],[130.6793,42.5899,0.5834],[130.6824,42.5868,0.0],[130.6874,42.5857,4.7938],[130.6907,42.5818,24.1566],[130.6918,42.5765,0.0],[130.6957,42.5788,13.5939],[130.7204,42.5851,0.0],[130.7246,42.5893,0.4976],[130.7246,42.5926,1.6759],[130.7312,42.5965,0.6183],[130.7315,42.6001,1.9534],[130.7376,42.6076,0.8544],[130.7371,42.6096,0.4618],[130.7324,42.6115,0.238],[130.7326,42.6199,3.1043],[130.7343,42.6232,0.0],[130.7379,42.6229,0.0],[130.7388,42.6263,1.2449],[130.7365,42.6288,0.0],[130.7279,42.6226,8.4367],[130.7232,42.6243,0.0],[130.7221,42.6224,2.1751],[130.7188,42.6218,9.0861],[130.7132,42.626,0.0],[130.701,42.6307,0.0],[130.6996,42.6396,0.0],[130.7018,42.6424,0.0],[130.686,42.6404,8.5146],[130.6768,42.6429,5.8013],[130.6701,42.6418,0.6502],[130.6649,42.6385,3.2271],[130.659,42.639,0.1967],[130.654,42.644,0.0],[130.654,42.6521,0.0],[130.6512,42.6565,0.6585],[130.6629,42.6607,0.3323],[130.6693,42.6671,0.0],[130.6693,42.6707,1.0799],[130.6799,42.679,0.5106],[130.6843,42.6799,0.0],[130.6907,42.6851,0.0],[130.7035,42.691,0.281],[130.7051,42.694,7.5568],[130.7112,42.6979,0.8846],[130.7229,42.7021,2.574],[130.7268,42.7024,9.9315],[130.7321,42.7001,1.5488],[130.736,42.696,18.7119],[130.7385,42.6882,0.0],[130.7529,42.6865,0.5202],[130.7565,42.6849,0.812],[130.7574,42.6826,0.0],[130.7599,42.6824,0.3098],[130.7679,42.686,0.7271],[130.7729,42.6843,0.0],[130.7749,42.6879,0.1431],[130.7865,42.6932,0.154],[130.7907,42.6974,0.8355],[130.7999,42.6974,0.0953],[130.8018,42.7004,0.0],[130.8135,42.6996,0.0],[130.8185,42.7018,0.0],[130.8271,42.699,3.2124],[130.8318,42.7026,0.4526],[130.8379,42.7015,0.0],[130.8482,42.704,0.7192],[130.8524,42.7001,0.1145],[130.8654,42.699,1.0192],[130.8624,42.6982,0.2927],[130.8618,42.696,0.5319],[130.8593,42.6982,0.0],[130.8521,42.6993,0.1145],[130.8482,42.7032,0.3638],[130.8446,42.7018,0.0],[130.8499,42.6993,0.795],[130.849,42.6965,1.0511],[130.8476,42.6968,0.6201],[130.8482,42.6988,0.0],[130.8362,42.7004,0.0],[130.839,42.6957,0.5394],[130.8396,42.6888,0.0],[130.8365,42.676,11.8346],[130.8343,42.6732,2.8896],[130.8201,42.6712,8.5246],[130.8118,42.6646,2.2636],[130.8074,42.6629,7.7543],[130.7976,42.6657,0.0],[130.7926,42.6621,0.0],[130.791,42.6587,20.2989],[130.7793,42.6576,3.1444],[130.7918,42.6526,8.6316],[130.7924,42.6501,0.9719],[130.7899,42.6435,0.0],[130.7962,42.6432,0.0],[130.7937,42.6446,3.6825],[130.794,42.6482,0.8744],[130.7985,42.6496,0.0],[130.8035,42.6493,0.0],[130.8043,42.646,0.0],[130.8079,42.6463,0.0],[130.8082,42.651,1.4573],[130.8104,42.651,0.0],[130.8151,42.6551,0.0],[130.8118,42.6607,0.0],[130.8143,42.6629,0.0],[130.8188,42.6621,10.2508],[130.8179,42.659,0.0],[130.8235,42.6557,4.5961],[130.8274,42.6599,1.5522],[130.8299,42.6601,0.0],[130.8288,42.6557,1.7377],[130.8315,42.6582,0.0],[130.836,42.659,6.4891],[130.8404,42.6557,1.7167],[130.8426,42.6585,1.7931],[130.8435,42.664,1.3984],[130.8463,42.6668,1.1419],[130.8543,42.6676,1.2374],[130.8568,42.6651,0.0],[130.8582,42.6601,0.0],[130.8649,42.6599,0.7521],[130.8701,42.6643,1.2907],[130.8763,42.6654,0.0],[130.8729,42.6704,4.5948],[130.8782,42.6726,0.0],[130.8796,42.6763,1.8138],[130.8854,42.6735,0.4916],[130.8854,42.6718,5.8817],[130.8843,42.6707,5.8817],[130.8843,42.6599,13.1671],[130.8799,42.6585,8.4082],[130.8793,42.6565,0.0],[130.8829,42.6551,0.0],[130.8851,42.6571,2.9048],[130.8885,42.6538,5.1747],[130.8929,42.654,17.491],[130.8932,42.6501,0.0],[130.896,42.6479,0.0],[130.8974,42.6479,0.0],[130.8985,42.6512,0.7149],[130.9049,42.6579,0.2501],[130.909,42.6599,0.5733],[130.9135,42.6585,0.5938],[130.914,42.6557,0.401],[130.9304,42.6579,0.6414],[130.9421,42.6574,1.8557],[130.9485,42.6515,2.6246],[130.9504,42.6385,1.0016],[130.9454,42.629,0.0],[130.9346,42.6171,0.0],[130.9293,42.6157,0.0],[130.9249,42.6124,0.0],[130.9176,42.6113,2.6289],[130.9129,42.6118,1.7476],[130.9063,42.6165,2.4794],[130.9054,42.6224,0.0],[130.9001,42.6254,18.7231],[130.8974,42.6329,2.0946],[130.8943,42.6354,4.1355],[130.8885,42.6351,12.005],[130.8857,42.6413,0.7671],[130.8699,42.6443,0.0],[130.856,42.644,5.4879],[130.8532,42.6471,0.6225],[130.8549,42.6496,0.3512],[130.8446,42.6501,2.6736],[130.8418,42.6476,3.9738],[130.8357,42.6468,3.1123],[130.8307,42.644,5.8062],[130.8196,42.6435,0.0],[130.8135,42.6396,0.0],[130.8101,42.6343,12.648],[130.8082,42.634,0.0],[130.8104,42.6315,0.0],[130.8215,42.6299,0.0],[130.8268,42.631,7.7071],[130.8299,42.626,0.0],[130.8354,42.6251,1.4147],[130.8362,42.6235,0.0],[130.8438,42.6254,0.0],[130.849,42.6204,0.0],[130.8535,42.6201,0.0],[130.8543,42.6157,2.2179],[130.8499,42.6121,3.5434],[130.8515,42.6093,0.2932],[130.8615,42.6124,4.5014],[130.8685,42.6113,0.0],[130.8718,42.6143,2.9379],[130.874,42.6143,1.2732],[130.8732,42.611,0.0],[130.8751,42.6076,4.3027],[130.8701,42.6096,3.464],[130.8585,42.6051,0.0],[130.8607,42.6024,8.7261],[130.8646,42.6046,9.6232],[130.8668,42.604,7.6282],[130.8676,42.6021,11.1303],[130.8657,42.5985,0.0],[130.8679,42.5982,5.0524],[130.8696,42.5954,0.0],[130.8774,42.5988,6.5227],[130.8821,42.5965,0.0],[130.8832,42.5988,27.4823],[130.8871,42.5979,0.6168],[130.8879,42.5951,0.0],[130.8907,42.5951,0.0],[130.896,42.599,6.1143],[130.8982,42.5979,3.5804],[130.8987,42.5938,5.7914],[130.9051,42.5971,7.1697],[130.9096,42.5949,0.0],[130.9151,42.5949,8.8646],[130.9168,42.5926,5.2286],[130.9235,42.5924,0.0],[130.9232,42.5951,0.0],[130.9285,42.6007,0.0],[130.9279,42.6057,3.1275],[130.9304,42.6057,3.5772],[130.9332,42.6104,0.0],[130.939,42.6126,4.1734],[130.9413,42.6121,4.4053],[130.9424,42.6096,0.0],[130.9482,42.6104,0.0],[130.9468,42.614,0.0],[130.941,42.6196,2.7522],[130.944,42.6251,0.4024],[130.9532,42.6285,0.5042],[130.9599,42.6288,2.1287],[130.9646,42.6321,13.4691],[130.9682,42.6304,0.0],[130.9701,42.6335,12.6873],[130.9654,42.6351,11.1314],[130.9668,42.6407,1.3847],[130.9765,42.6457,1.7683],[130.9868,42.6482,1.0094],[130.9965,42.6476,1.6196],[131.0013,42.6449,8.5077],[131.0029,42.6424,0.9919],[131.0026,42.6393,0.0],[131.0004,42.6379,5.2252],[131.0018,42.6351,0.0],[131.0065,42.6379,30.1245],[131.0082,42.6435,0.0],[131.0124,42.6415,0.0],[131.0146,42.6424,7.6367],[131.0126,42.6463,27.2404],[131.0163,42.6471,12.2529],[131.0171,42.646,0.0],[131.0199,42.6496,1.6798],[131.0287,42.6499,1.4154],[131.0296,42.6479,0.0],[131.0276,42.6454,0.0],[131.0321,42.6446,29.055],[131.0351,42.6407,10.1607],[131.0349,42.6382,26.9155],[131.0321,42.6379,19.6821],[131.0313,42.6343,0.0],[131.034,42.6329,0.0],[131.0399,42.6363,29.0694],[131.0429,42.6354,0.0],[131.0471,42.6382,1.6049],[131.0488,42.6354,0.0],[131.0513,42.6349,0.0],[131.0543,42.6382,4.8581],[131.0582,42.6385,0.0],[131.0579,42.6407,11.2308],[131.0599,42.6426,1.3925],[131.0712,42.6426,16.3839],[131.0726,42.641,0.0],[131.0721,42.6385,0.0],[131.0743,42.6365,0.0],[131.0838,42.6326,0.792],[131.0901,42.6237,0.0],[131.0971,42.6218,0.0],[131.101,42.6185,0.0],[131.1007,42.6251,18.8038],[131.0979,42.6265,38.649],[131.0938,42.6335,0.0],[131.0874,42.6338,0.0],[131.0857,42.6321,0.4033],[131.0774,42.6382,0.8638],[131.081,42.6376,0.827],[131.0832,42.6429,7.2751],[131.0851,42.644,3.5685],[131.0846,42.6463,3.2808],[131.0893,42.6488,9.2221],[131.0893,42.6529,11.6347],[131.0926,42.6563,0.0],[131.0915,42.6604,12.7038],[131.101,42.6626,4.8404],[131.0988,42.666,5.0198],[131.1026,42.6665,0.0],[131.1007,42.6682,0.0],[131.1024,42.6712,0.8854],[131.109,42.6724,2.8095],[131.1132,42.6712,1.9108],[131.1193,42.6693,1.4315],[131.1226,42.664,19.9321],[131.1199,42.6607,0.0],[131.1226,42.6599,20.9771],[131.124,42.6535,10.4215],[131.1187,42.6504,0.0],[131.1251,42.6521,18.3055],[131.1299,42.6465,2.5123],[131.1293,42.6435,21.4733],[131.1249,42.6396,2.7644],[131.1218,42.6396,4.3271],[131.1187,42.6374,0.0],[131.1218,42.6346,1.0561],[131.1246,42.6346,0.0],[131.1254,42.6385,4.0639],[131.1276,42.6387,0.0],[131.1315,42.6357,9.9676],[131.1349,42.6354,1.1234],[131.1365,42.6329,0.0],[131.1313,42.6254,25.1856],[131.126,42.6246,0.0],[131.1263,42.6232,0.0],[131.1307,42.6218,7.0342],[131.1226,42.6196,6.7119],[131.121,42.6176,25.7403],[131.1224,42.6151,0.0],[131.1268,42.6143,0.0],[131.129,42.6157,58.3893],[131.1351,42.6143,19.441],[131.1351,42.6126,0.0],[131.1382,42.6137,0.0],[131.1401,42.6113,0.0],[131.1432,42.6132,6.5437],[131.1451,42.6118,0.0],[131.1435,42.6074,12.1833],[131.1504,42.6096,4.0081],[131.1521,42.6065,4.3599],[131.1512,42.604,0.0],[131.1554,42.6021,3.2343],[131.1546,42.5976,0.2225],[131.1632,42.6026,5.7934],[131.1738,42.6029,0.0],[131.1749,42.6046,2.9733],[131.1821,42.6065,9.855],[131.186,42.6037,3.57],[131.1849,42.5996,6.4026],[131.1763,42.5962,4.2145],[131.1724,42.5896,3.6264],[131.1699,42.5887,5.1385],[131.1651,42.5824,9.6116],[131.1485,42.5838,0.0],[131.1485,42.5821,16.2377],[131.1554,42.5782,0.0],[131.1585,42.5796,9.4276],[131.1649,42.5793,28.4058],[131.1662,42.5713,12.3861],[131.1746,42.5685,11.8211],[131.1826,42.5612,42.5074],[131.1826,42.5596,0.0],[131.1888,42.561,17.7386],[131.1924,42.5601,0.0],[131.1979,42.5621,8.3822],[131.1968,42.5574,0.0],[131.1996,42.5568,13.1329],[131.2001,42.5537,0.0],[131.2024,42.5535,2.5587],[131.2029,42.5518,0.0],[131.2082,42.5524,0.0],[131.2046,42.5549,60.8785],[131.2082,42.5582,4.351],[131.216,42.5563,5.4471],[131.2168,42.554,0.0],[131.2185,42.554,0.0],[131.2199,42.5571,0.0],[131.2185,42.5604,10.5952],[131.2215,42.5632,0.0],[131.2213,42.5718,0.0],[131.2168,42.5765,27.767],[131.2135,42.5774,12.6974],[131.2171,42.5796,0.0],[131.2137,42.5801,22.1768],[131.2121,42.5849,2.1235],[131.2176,42.5851,0.0],[131.2188,42.5871,11.1179],[131.2226,42.5863,0.0],[131.2293,42.5876,7.8986],[131.2343,42.5849,0.0],[131.2337,42.5882,0.0],[131.2276,42.5915,16.1967],[131.2268,42.5935,7.3021],[131.2307,42.5949,0.0],[131.2301,42.5965,2.6751],[131.2279,42.5965,44.8179],[131.2296,42.5999,0.0],[131.2282,42.6021,1.3564],[131.2315,42.6065,3.2931],[131.2301,42.6074,0.0],[131.2268,42.6054,4.0164],[131.2251,42.6076,0.0],[131.2221,42.6065,3.2179],[131.2188,42.6101,2.46],[131.2054,42.6085,3.8479],[131.2015,42.6124,0.0],[131.2026,42.6146,0.0],[131.2004,42.6193,0.0],[131.2021,42.6221,20.1993],[131.211,42.6207,0.0],[131.2104,42.6232,18.1312],[131.2088,42.6237,51.6942],[131.2093,42.6315,0.0],[131.2046,42.6315,56.9702],[131.2038,42.6332,12.6269],[131.2001,42.6338,8.1372],[131.2018,42.6371,27.8378],[131.2065,42.6374,12.0894],[131.2085,42.6393,36.1512],[131.2137,42.6379,0.0],[131.2182,42.6421,0.0],[131.2185,42.6449,0.0],[131.209,42.6426,11.4073],[131.2076,42.644,5.4331],[131.2079,42.6485,12.1466],[131.2054,42.6493,6.9703],[131.2068,42.6524,24.5106],[131.2112,42.6518,0.0],[131.2171,42.654,2.1103],[131.2185,42.6499,0.0],[131.2243,42.6507,0.0],[131.2249,42.6587,38.9177],[131.2174,42.664,0.0],[131.2157,42.6685,7.1542],[131.2137,42.6693,13.7163],[131.2146,42.6712,11.8669],[131.2196,42.6729,0.0],[131.2254,42.6779,1.5057],[131.2282,42.6779,4.6365],[131.2343,42.676,44.3744],[131.2357,42.6721,48.4423],[131.2393,42.6712,0.0],[131.2399,42.6751,0.0],[131.244,42.6751,0.0],[131.2413,42.6763,23.2543],[131.2399,42.6851,2.8217],[131.244,42.6871,24.73],[131.2479,42.6849,0.0],[131.246,42.6871,6.8643],[131.2513,42.6907,19.2908],[131.2507,42.6924,1.6157],[131.2474,42.6921,1.3684],[131.2446,42.696,0.0],[131.2415,42.696,45.8984],[131.2385,42.6985,45.4718],[131.2363,42.7065,3.2748],[131.2429,42.709,9.1971],[131.2421,42.7246,2.8729],[131.2429,42.7262,16.2657],[131.2471,42.7274,2.0096],[131.2482,42.7296,0.0],[131.246,42.7374,0.0],[131.249,42.7396,5.1092],[131.2482,42.7429,0.0],[131.2529,42.7485,0.0],[131.2571,42.7471,21.7825],[131.2599,42.7479,12.8758],[131.2587,42.7557,0.0],[131.2574,42.7565,10.4284],[131.2582,42.7629,60.6014],[131.2554,42.7668,8.8313],[131.2571,42.7701,0.3951],[131.2629,42.7765,0.7507],[131.2679,42.7782,0.0],[131.2693,42.7804,0.0],[131.2768,42.7793,6.3582],[131.2774,42.786,1.3535],[131.2885,42.7907,1.2648],[131.3071,42.7946,0.7265],[131.3224,42.7949,0.7146],[131.3288,42.7943,1.9249],[131.3307,42.7921,10.9893],[131.336,42.7929,1.203],[131.3407,42.7912,1.9352],[131.3407,42.7849,5.9021],[131.3371,42.7818,0.0],[131.3421,42.7826,7.973],[131.3451,42.7807,0.0],[131.349,42.7807,11.6516],[131.3562,42.7738,4.9652],[131.356,42.7651,0.0],[131.3632,42.764,23.56],[131.3632,42.7743,6.4651],[131.3707,42.7765,9.0229],[131.3765,42.7757,2.0643],[131.3782,42.7774,1.8325],[131.3699,42.7788,19.6943],[131.3613,42.7871,0.0],[131.3499,42.7876,1.4155],[131.3474,42.7921,1.4971],[131.3474,42.7979,2.0959],[131.3488,42.8004,7.3657],[131.3551,42.8032,0.0],[131.3579,42.8063,0.0],[131.3535,42.8079,6.3276],[131.3526,42.8124,0.0],[131.3643,42.8276,0.5081],[131.3679,42.829,0.0],[131.3707,42.8338,0.749],[131.384,42.8429,3.7374],[131.3893,42.8449,8.5482],[131.3943,42.8429,4.8631],[131.4138,42.846,3.3818],[131.4118,42.8485,29.8394],[131.4193,42.8499,0.0],[131.4263,42.8576,18.1533],[131.431,42.8563,0.0],[131.4299,42.859,0.0],[131.4329,42.8618,5.0563],[131.4371,42.8613,0.0],[131.4401,42.8626,0.0],[131.4424,42.8607,0.0],[131.4449,42.861,0.0],[131.449,42.8657,8.6073],[131.4535,42.8674,0.0],[131.4543,42.871,0.0],[131.4593,42.876,6.3651],[131.466,42.8774,9.2082],[131.4685,42.8763,0.0],[131.4685,42.8796,18.207],[131.471,42.8821,0.0],[131.4707,42.884,0.0],[131.4682,42.884,0.0],[131.4629,42.8838,0.0],[131.4612,42.8807,0.0],[131.4546,42.8815,3.5061],[131.4535,42.8804,35.4005],[131.4521,42.8821,0.0],[131.4518,42.8804,35.4005],[131.4421,42.876,0.9317],[131.4432,42.8721,7.8027],[131.4393,42.8743,0.0],[131.4382,42.8713,16.9442],[131.4304,42.8696,0.0],[131.4251,42.8707,4.131],[131.4246,42.874,7.5213],[131.4218,42.876,0.0],[131.404,42.8746,0.0],[131.3976,42.871,0.0],[131.396,42.8782,0.0],[131.389,42.8715,0.0],[131.3865,42.8713,0.6476],[131.3862,42.8757,1.5962],[131.3924,42.8793,0.0],[131.3987,42.8851,0.0],[131.399,42.8871,17.6357],[131.401,42.8871,0.0],[131.4007,42.8887,0.0],[131.4043,42.8904,0.0],[131.4043,42.8926,16.2951],[131.409,42.8974,14.9564],[131.4093,42.9074,18.6825],[131.4049,42.9101,56.5049],[131.4004,42.9107,0.0],[131.3896,42.9096,0.0],[131.3882,42.906,-0.1921],[131.3951,42.9082,1.4714],[131.3938,42.9007,1.1436],[131.3907,42.8988,2.1981],[131.3868,42.9065,1.27],[131.3874,42.9115,10.0513],[131.3804,42.9115,6.3129],[131.3785,42.9151,0.3498],[131.379,42.9229,4.0912],[131.384,42.9296,0.0],[131.3815,42.9313,0.0],[131.3782,42.9296,2.2095],[131.3751,42.9315,3.5556],[131.374,42.9354,0.961],[131.3687,42.9354,1.3493],[131.3704,42.941,2.5782],[131.374,42.9446,6.9244],[131.3818,42.9463,0.2561],[131.394,42.9535,0.9248],[131.4007,42.9535,0.2686],[131.4049,42.9518,0.7244],[131.406,42.9482,0.0],[131.4099,42.946,2.265],[131.4107,42.9418,1.8677],[131.4182,42.941,1.4535],[131.4207,42.939,10.9603],[131.4212,42.9357,15.4824],[131.4254,42.9326,5.9639],[131.4324,42.934,17.9662],[131.4335,42.9301,13.0298],[131.4315,42.9263,0.0],[131.4415,42.9257,9.2165],[131.4449,42.9271,13.1763],[131.4474,42.9254,0.0],[131.4538,42.9254,0.0],[131.4538,42.9324,0.0],[131.456,42.9346,0.0],[131.461,42.9349,0.0],[131.4621,42.9368,0.0],[131.4612,42.9407,27.2436],[131.4632,42.9424,14.8155],[131.4649,42.9418,0.0],[131.4746,42.946,8.7169],[131.4796,42.9435,0.0],[131.4849,42.9435,3.7934],[131.4904,42.9393,2.3003],[131.4913,42.9415,0.0],[131.5029,42.9446,5.4948],[131.5063,42.9474,0.0],[131.5071,42.951,17.4525],[131.5051,42.9526,45.6613],[131.504,42.9579,25.1924],[131.5021,42.9582,9.0108],[131.5007,42.9632,2.4405],[131.5018,42.9676,0.0],[131.4976,42.9712,0.0],[131.4957,42.969,0.0],[131.4918,42.9696,4.4068],[131.4896,42.9729,0.882],[131.4913,42.9801,0.0],[131.4951,42.9815,0.0],[131.496,42.9846,0.5922],[131.494,42.9849,0.6035],[131.4857,42.9787,11.0349],[131.4815,42.9779,2.9319],[131.459,42.981,0.0],[131.4504,42.9804,3.4861],[131.4451,42.9771,0.0],[131.4396,42.9765,0.6916],[131.4354,42.9707,7.1979],[131.4249,42.9668,2.367],[131.4135,42.969,0.0151],[131.4154,42.9751,0.1074],[131.4149,42.9801,1.0647],[131.4168,42.9826,2.2821],[131.426,42.9826,0.8862],[131.4288,42.986,1.0587],[131.4321,42.9846,1.2842],[131.4351,42.9854,0.8026],[131.4357,42.9829,0.3493],[131.4487,42.984,2.0227],[131.4568,42.9821,4.5466],[131.4738,42.9813,0.0],[131.4854,42.9882,0.125],[131.4851,42.994,2.3346],[131.4893,42.9976,0.7079],[131.4932,42.9968,0.0],[131.4962,42.9996,0.0],[131.4962,43.0035,1.5396],[131.4999,43.0065,1.9664],[131.4976,43.0074,0.0],[131.4949,43.0029,0.0],[131.4924,43.0026,0.0],[131.4879,43.0079,2.4152],[131.4913,43.0062,0.0],[131.5001,43.009,0.3532],[131.5021,43.0074,0.7976],[131.5065,43.0104,1.0801],[131.5076,43.0135,0.0],[131.5143,43.0151,0.0],[131.524,43.0146,2.0791],[131.5363,43.0107,2.7103],[131.5426,43.0029,1.1328],[131.5451,43.0043,1.4432],[131.5457,43.0082,1.4712],[131.5476,43.0082,0.0],[131.5482,43.0037,0.0],[131.5415,43.0004,0.0],[131.5429,42.9968,15.7933],[131.5382,42.9938,7.0418],[131.5368,42.9899,1.4232],[131.564,42.9982,1.4411],[131.5688,42.9976,3.5371],[131.5732,42.9993,0.0],[131.5765,43.004,24.6392],[131.5776,43.0151,0.0],[131.5604,43.0213,2.4216],[131.5568,43.0262,0.4753],[131.5582,43.0343,7.038],[131.5665,43.0435,1.8752],[131.576,43.049,3.08],[131.5821,43.051,1.9324],[131.5874,43.0493,2.4297],[131.5918,43.0515,0.0],[131.5901,43.0529,5.9989],[131.5904,43.0565,8.0191],[131.6065,43.0657,0.0],[131.6054,43.0676,8.0825],[131.6071,43.0715,0.6093],[131.6146,43.0779,0.0],[131.6176,43.0876,3.1682],[131.624,43.0954,0.0],[131.6496,43.1074,0.0],[131.6557,43.121,0.0],[131.6751,43.1418,0.6379],[131.6821,43.146,23.5462],[131.686,43.154,2.4185],[131.6951,43.1649,0.0],[131.6954,43.1696,1.4622],[131.6985,43.174,1.4242],[131.6982,43.1804,1.3694],[131.6951,43.186,0.0],[131.6943,43.1829,0.2701],[131.6899,43.1804,0.0],[131.6862,43.1738,0.0],[131.6718,43.1704,0.0],[131.6665,43.1624,1.6879],[131.6604,43.1626,0.0],[131.6604,43.1579,6.9395],[131.6546,43.1551,2.0374],[131.6446,43.1546,1.0637],[131.6371,43.1565,0.7641],[131.6337,43.1607,1.0543],[131.6332,43.1701,0.0],[131.639,43.1715,1.374],[131.6449,43.1696,0.4025],[131.6468,43.1724,1.0989],[131.6543,43.1724,6.7061],[131.6582,43.1696,0.6739],[131.6685,43.1696,0.4113],[131.6751,43.1746,0.0],[131.6763,43.1801,0.0],[131.6779,43.181,2.1992],[131.6771,43.1849,0.0],[131.6749,43.186,5.1523],[131.6782,43.1888,0.0],[131.6749,43.1924,0.0],[131.6754,43.1951,0.3252],[131.6776,43.1968,0.3881],[131.6807,43.1963,1.4832],[131.681,43.1979,0.9926],[131.6821,43.1951,0.2258],[131.6851,43.1954,0.0],[131.684,43.1996,1.0087],[131.6865,43.2026,2.188],[131.6935,43.2021,2.2458],[131.7115,43.1865,2.1371],[131.7124,43.1807,0.2235],[131.7149,43.1793,0.3829],[131.7149,43.1763,0.0],[131.7168,43.1735,0.0],[131.721,43.1718,0.0],[131.721,43.1701,0.0],[131.7257,43.1693,10.5385],[131.7276,43.1618,0.0],[131.7379,43.1596,0.0],[131.7432,43.1626,12.1678],[131.7465,43.1624,0.0],[131.7501,43.1729,4.8235],[131.7582,43.1757,17.7172],[131.7707,43.1765,0.0],[131.7779,43.1787,0.0],[131.7735,43.189,0.0],[131.7624,43.1979,0.0],[131.7421,43.2004,2.8756],[131.7251,43.2004,2.8641],[131.7235,43.1993,2.8641],[131.7154,43.2012,1.0454],[131.701,43.199,0.2105],[131.6949,43.2043,0.9082],[131.6976,43.2068,0.5245],[131.7012,43.2068,0.0],[131.7057,43.2096,0.0],[131.7165,43.2085,0.0],[131.719,43.2104,0.0],[131.7249,43.2099,0.3062],[131.7274,43.2129,0.0],[131.7246,43.2151,1.4519],[131.7243,43.2176,1.1214],[131.7296,43.2243,1.0768],[131.7329,43.2193,0.1938],[131.7418,43.2182,0.0],[131.744,43.219,0.0],[131.7432,43.2221,1.2659],[131.7457,43.2212,0.2104],[131.7479,43.224,32.6995],[131.7532,43.2265,0.0],[131.7554,43.226,0.0],[131.7557,43.2293,2.2424],[131.7607,43.2332,0.0],[131.7632,43.246,1.5748],[131.7665,43.2479,8.0728],[131.7676,43.2513,7.7982],[131.7671,43.2532,0.0],[131.7582,43.2579,6.7936],[131.759,43.2629,1.9745],[131.7571,43.2657,5.8667],[131.7604,43.271,0.0],[131.7576,43.2729,9.6372],[131.7587,43.279,4.4131],[131.7576,43.2821,11.4672],[131.7587,43.2829,0.0],[131.7565,43.2871,0.0],[131.7565,43.291,0.0651],[131.7615,43.2949,-0.0525],[131.7707,43.2971,0.0],[131.7707,43.2999,0.0],[131.7729,43.3013,0.0],[131.7615,43.3182,0.5641],[131.7576,43.329,1.0065],[131.7587,43.336,0.3034],[131.7551,43.3479,0.0299],[131.7576,43.3468,0.0138],[131.7582,43.3404,0.4217],[131.7612,43.3396,-0.2785],[131.7615,43.334,-0.0306],[131.7629,43.3329,0.0],[131.7704,43.3393,0.0],[131.7707,43.3426,0.0],[131.7685,43.3454,-0.0645],[131.7693,43.3521,0.0746],[131.7701,43.3521,0.0746],[131.7693,43.3454,-0.0009],[131.771,43.3443,-0.003],[131.7754,43.3479,-0.0156],[131.77757870280738,43.353381897386271,0.0],[131.7776,43.3535,0.0],[131.77763221593383,43.353516543317362,0.0],[131.7785,43.3557,0.1036],[131.781,43.3568,0.0],[131.7865,43.3543,-0.0135],[131.7888,43.3608,0.0482],[131.7552,43.3837,0.0527],[131.6943,43.3997,48.1886],[131.5919,43.4043,200.0701],[131.5065,43.3877,362.015],[131.4464,43.3862,579.2922],[131.4018,43.4065,421.8104],[131.4116,43.458,597.0172],[131.3519,43.4287,624.158],[131.2949,43.417,678.6151],[131.2964,43.414,678.6648],[131.3067,43.405,677.5011],[131.3084,43.3998,696.6164],[131.3058,43.3927,704.9571],[131.2713,43.3692,675.5667],[131.2659,43.3638,666.494],[131.2587,43.3136,622.5952],[131.259,43.2884,636.0027],[131.2477,43.2751,494.8639],[131.2437,43.2648,460.1926],[131.2355,43.2529,330.7223],[131.2061,43.2322,253.8972],[131.2015,43.2268,232.6341],[131.1908,43.2079,393.3316],[131.1899,43.2009,407.9627],[131.2007,43.182,402.3864],[131.2025,43.174,530.5137],[131.1977,43.1629,749.6597],[131.2043,43.1432,940.2516],[131.2017,43.1361,906.4045],[131.1896,43.1221,811.5447],[131.1516,43.0939,684.9678],[131.1445,43.0808,424.986],[131.1369,43.0721,405.5257],[131.1155,43.0639,544.4016],[131.1118,43.0447,465.8694],[131.1091,43.0382,405.6936],[131.0966,43.0204,308.5632],[131.1,42.991,342.1645],[131.1057,42.9725,356.3245],[131.1089,42.9664,282.0151],[131.1283,42.9626,363.3139],[131.1348,42.9579,284.6356],[131.1317,42.9401,298.1835],[131.1266,42.9305,376.6545],[131.1066,42.9148,347.8267],[131.0961,42.9109,280.41],[131.065,42.9154,341.3362],[131.0476,42.9142,349.4714],[131.0317,42.9196,385.7996],[131.0206,42.9205,444.8898],[131.0102,42.9167,536.1038],[131.0054,42.9019,473.4112],[131.0085,42.8941,354.2047],[131.0306,42.873,527.7992],[131.0296,42.8633,472.3704],[131.0174,42.8561,533.1639],[131.0,42.8529,382.9195],[130.9723,42.8547,482.329],[130.9314,42.8641,211.2326],[130.9137,42.8654,283.173],[130.8988,42.8534,442.8568],[130.8548,42.8565,420.6742],[130.8428,42.8671,296.886],[130.8212,42.8719,248.4607],[130.8032,42.8699,257.662],[130.7892,42.8643,271.1519],[130.7789,42.8536,370.1688],[130.7766,42.8358,486.4484],[130.7713,42.8297,494.3165],[130.7396,42.8417,798.7572],[130.7255,42.8361,779.0687],[130.7249,42.8313,751.7403],[130.7131,42.8255,823.77],[130.7011,42.8362,595.6708],[130.6843,42.8439,478.8475],[130.6615,42.8389,270.7334],[130.6168,42.8191,272.4579],[130.5936,42.8109,534.4414],[130.5663,42.8062,555.8624],[130.5535,42.8103,491.7628],[130.5443,42.8077,417.7003],[130.5295,42.7956,211.6969],[130.5059,42.7842,145.2613],[130.4875,42.7789,120.7617],[130.4749,42.7666,100.021],[130.4619,42.7587,96.0851],[130.4347,42.7465,125.5587],[130.4051,42.7223,327.1264],[130.4043,42.7159,275.4235],[130.4123,42.7088,353.9439],[130.4485,42.6966,387.0278],[130.4597,42.6795,485.455],[130.4846,42.6843,336.6163],[130.517,42.6952,182.9663],[130.5306,42.6976,346.9254],[130.539,42.6937,199.3663],[130.5593,42.6793,29.01],[130.5761,42.6716,28.6231],[130.584,42.6645,36.9717],[130.5916,42.6542,38.0679],[130.5948,42.6442,34.4023],[130.623,42.6227,34.0358],[130.6302,42.6091,43.1783],[130.6281,42.5929,47.8157],[130.6105,42.5582,90.1006],[130.6176,42.5447,128.9681],[130.6128,42.5417,223.0575],[130.6005,42.5491,177.1884],[130.577,42.5556,263.6115],[130.5635,42.5533,373.8019],[130.5612,42.5354,17.8029],[130.5755,42.5083,7.0924],[130.5961,42.4612,14.4971],[130.6072,42.4441,7.5],[130.6128,42.4289,2.5]]],
[[[131.77763221593383,43.353516543317362,0.0],[131.77757870280738,43.353381897386271,0.0],[131.7765,43.3474,-0.0156],[131.7718,43.3413,-0.0219],[131.7718,43.3379,-0.0287],[131.7768,43.3349,-0.0021],[131.7807,43.3299,-0.0488],[131.781,43.3204,-0.2561],[131.7787,43.3179,-0.071],[131.7849,43.3187,0.0],[131.7865,43.3246,-0.0996],[131.7921,43.3274,0.0],[131.7915,43.3296,0.0],[131.7932,43.3301,0.0],[131.794,43.3268,-0.2903],[131.7907,43.3232,0.0],[131.7937,43.3251,-0.1157],[131.796,43.3246,-0.2794],[131.7962,43.321,-0.2148],[131.7943,43.3174,0.0],[131.7979,43.316,0.0],[131.8029,43.3218,0.0277],[131.8029,43.3271,0.0242],[131.7988,43.3343,0.0319],[131.7993,43.3426,0.0861],[131.7904,43.3493,0.0392],[131.7888,43.3532,0.0564],[131.7829,43.3537,0.1642],[131.7813,43.3554,0.0683],[131.77763221593383,43.353516543317362,0.0]]]]}}