{"type":"Feature","properties":{"GID_2":"RUS.9.22_1","GID_0":"RUS","country":"Russia","GID_1":"RUS.9_1","province":"Buryat","NL_NAME_1":"РеспубликаБурятия","county":"Waterbody","VARNAME_2":"NA","NL_NAME_2":"NA","TYPE_2":"Waterbody","ENGTYPE_2":"Waterbody","CC_2":"NA","HASC_2":"NA","name":"Waterbody.county"},
"geometry":{"type": "MultiPolygon","coordinates": [[[[109.4805,54.0793,455.0],[109.4934,54.0993,455.0],[109.5184,54.1302,455.0],[109.5296,54.1559,455.0],[109.5258,54.2104,476.9633],[109.5036,54.2591,478.5894],[109.4542,54.311,455.0],[109.4792,54.3465,455.0],[109.4529,54.4028,455.0],[109.4741,54.4487,455.0],[109.4877,54.4971,455.0],[109.4888,54.5456,455.0],[109.5074,54.5936,472.0102],[109.5142,54.627,462.9347],[109.5629,54.654,488.9385],[109.5968,54.6676,490.7237],[109.6098,54.7051,455.0],[109.6193,54.7409,455.0],[109.6169,54.7568,455.0],[109.5957,54.7824,455.0],[109.6379,54.8082,458.607],[109.6472,54.8505,455.0],[109.6496,54.8705,455.0],[109.6986,54.892,736.7493],[109.6741,54.9528,455.0],[109.6879,54.9874,455.0],[109.7215,54.9983,503.2463],[109.7441,55.0395,455.0],[109.7361,55.0787,455.0],[109.7326,55.1084,461.4584],[109.7527,55.1214,455.9158],[109.7359,55.1393,477.4361],[109.7004,55.1598,455.0],[109.744,55.1763,485.3393],[109.77,55.1943,591.1323],[109.7861,55.2168,455.0],[109.7946,55.2427,483.1765],[109.7923,55.2713,499.688],[109.7621,55.2876,576.7614],[109.8151,55.3198,659.8624],[109.8434,55.3642,584.6246],[109.8369,55.4015,487.6854],[109.8489,55.4327,535.8105],[109.8792,55.4493,461.4804],[109.8917,55.4694,857.6166],[109.8313,55.4856,455.0],[109.8405,55.5059,455.0],[109.8435,55.5249,455.0],[109.8216,55.5286,455.0],[109.8033,55.5412,455.0],[109.8662,55.5643,608.325],[109.8947,55.6032,455.0],[109.9133,55.6218,462.6655],[109.9663,55.6466,688.324],[109.9714,55.683,507.6346],[109.9273,55.6923,455.0],[109.9049,55.7071,455.6562],[109.8785,55.7488,456.4686],[109.8234,55.7618,455.0217],[109.7785,55.7858,455.3814],[109.7347,55.7766,456.0302],[109.7012,55.7767,455.2759],[109.6671,55.7924,454.9307],[109.6267,55.7912,455.2841],[109.622,55.8164,457.9793],[109.56,55.7949,764.7225],[109.5259,55.7748,734.6536],[109.4946,55.7443,681.1674],[109.4434,55.7127,718.6926],[109.4331,55.6979,772.0497],[109.4294,55.678,455.0],[109.3542,55.6493,507.4539],[109.3201,55.6145,466.129],[109.3054,55.5945,455.5547],[109.2797,55.5856,455.0],[109.2282,55.5916,514.2144],[109.206,55.5805,586.2684],[109.2054,55.565,520.5494],[109.1712,55.5558,774.8907],[109.1835,55.5309,455.0],[109.1855,55.5069,480.3533],[109.1752,55.4913,479.0414],[109.1538,55.4728,464.8374],[109.1869,55.4454,455.0],[109.2102,55.4206,455.0],[109.2207,55.3968,485.0418],[109.1957,55.3768,580.4453],[109.1661,55.3186,464.0716],[109.1635,55.2748,896.5284],[109.1563,55.2259,761.0342],[109.1359,55.1835,996.604],[109.1234,55.1634,1027.7107],[109.1278,55.1438,1067.4279],[109.1005,55.124,1005.8105],[109.0912,55.0927,801.5907],[109.0973,55.072,469.8418],[109.1,55.0507,472.4932],[109.0648,55.0462,509.386],[108.9746,55.0286,693.9292],[108.9479,55.0051,768.0212],[108.9347,54.9841,625.9512],[108.8708,54.9626,1365.4954],[108.865,54.9374,593.4131],[108.8931,54.9059,511.0635],[108.823,54.8564,922.4701],[108.8029,54.847,1220.52],[108.794,54.8156,1431.7085],[108.7962,54.7971,1104.5266],[108.7733,54.7806,942.2689],[108.7629,54.7512,1303.7903],[108.7446,54.7205,1357.7013],[108.724,54.6992,1550.1826],[108.7107,54.671,1603.6646],[108.703,54.645,1388.1263],[108.7098,54.6326,945.5531],[108.6757,54.616,1380.364],[108.6217,54.5698,1097.7142],[108.598,54.5423,1414.2828],[108.5601,54.5104,1060.9558],[108.5361,54.4932,1372.6202],[108.499,54.0233,455.0],[108.0907,53.2941,455.0],[107.5511,52.9733,455.0],[106.5011,52.5941,455.0],[106.0636,52.2733,455.0],[105.3636,51.7775,455.0],[104.6928,51.5442,455.0],[104.6304,51.4506,476.6343],[104.7074,51.4345,482.8822],[104.7522,51.4313,536.4628],[104.9338,51.4875,495.8224],[105.0193,51.5219,588.4839],[105.1162,51.5538,475.1923],[105.1871,51.568,537.1039],[105.373,51.5807,568.406],[105.4081,51.5911,535.4203],[105.4711,51.6009,560.5646],[105.5181,51.6209,489.1916],[105.5786,51.6506,456.2558],[105.6233,51.6745,455.0],[105.6529,51.6861,455.0],[105.8237,51.7018,471.0749],[105.9178,51.7387,455.0],[105.9904,51.7872,467.2068],[106.0349,51.827,455.0],[106.075,51.8725,455.0],[106.1221,51.9477,455.6572],[106.1455,51.9238,455.0],[106.1635,51.9264,455.0],[106.168,51.9909,455.0],[106.1378,51.9899,455.0],[106.1526,52.0181,455.0],[106.1662,52.0575,455.0],[106.1998,52.0892,455.0],[106.2373,52.1103,455.0],[106.2628,52.1191,455.0],[106.2783,52.1583,455.0],[106.2952,52.1919,456.7609],[106.259,52.1987,456.5988],[106.2659,52.2598,455.9833],[106.2903,52.2639,456.6527],[106.2803,52.2841,455.2433],[106.251,52.298,455.0],[106.2647,52.3102,455.0],[106.3028,52.3033,455.0],[106.312,52.3399,455.0],[106.3403,52.3773,455.0],[106.3642,52.3591,455.0],[106.432,52.3856,455.0],[106.4783,52.393,455.0],[106.5134,52.4159,455.0],[106.5482,52.3988,455.0],[106.6105,52.4014,455.0],[106.6227,52.3923,455.0],[106.6142,52.3687,455.0],[106.6614,52.3629,455.0],[106.6675,52.3569,455.0],[106.6641,52.3283,456.4398],[106.7027,52.3174,456.2759],[106.7505,52.3153,455.3095],[106.7751,52.3277,455.0],[106.8077,52.3414,455.0],[106.8287,52.3679,455.0],[106.8451,52.4086,455.0],[106.878,52.4594,455.0],[106.9548,52.5007,455.0],[107.0178,52.5411,455.0],[107.0692,52.558,455.0],[107.1472,52.587,455.0],[107.2661,52.5919,455.0],[107.3001,52.6044,455.0],[107.3456,52.6346,455.0],[107.3851,52.667,455.0],[107.429,52.7,455.0],[107.4873,52.7264,455.0],[107.5422,52.7271,455.0],[107.603,52.7339,455.0],[107.7425,52.7174,455.0],[107.8795,52.7628,455.0],[107.9814,52.8153,486.4653],[108.0354,52.8528,481.8098],[108.1345,52.8887,548.2518],[108.2063,52.9238,460.1089],[108.2212,52.9522,459.4089],[108.2246,52.975,455.0],[108.2655,53.0152,455.0],[108.2807,53.0509,455.0],[108.2859,53.0819,455.0],[108.2705,53.0959,455.0],[108.2879,53.1213,455.0],[108.3177,53.1245,455.0],[108.3506,53.1478,455.0],[108.416,53.1722,455.0],[108.4316,53.2087,455.0],[108.4748,53.2283,455.0],[108.5034,53.2537,455.0],[108.5164,53.2867,455.0],[108.5798,53.2854,455.0],[108.6224,53.3041,455.0],[108.6511,53.306399999999996,455.0],[108.6992,53.2795,466.8228],[108.7293,53.2743,455.0],[108.7908,53.2951,455.0],[108.8133,53.3191,455.0],[108.8845,53.3445,455.0],[108.9184,53.3785,455.0],[108.946,53.4306,455.0],[108.9585,53.4976,455.0],[108.9502,53.5488,456.0734],[108.936,53.5822,457.1426],[108.9194,53.6102,459.1265],[108.8921,53.6152,506.851],[108.8609,53.6085,562.9048],[108.7785,53.5821,519.4123],[108.6563,53.5652,1171.3794],[108.5929,53.5482,1043.2643],[108.5422,53.5219,455.0],[108.5143,53.5149,455.0],[108.4827,53.5201,455.0],[108.5234,53.5638,455.0],[108.5817,53.5941,455.0],[108.6455,53.6442,455.0],[108.6952,53.6907,462.4713],[108.7354,53.7361,455.0],[108.7749,53.7862,455.0],[108.8288,53.8223,455.0],[108.8798,53.853,455.0],[108.9793,53.867,455.0],[109.0256,53.8512,852.7036],[109.0307,53.8132,538.4044],[108.9989,53.8103,618.6467],[109.0053,53.7639,570.7481],[109.0315,53.7617,455.0],[109.0184,53.7261,637.2737],[109.0099,53.6909,533.0381],[108.9852,53.6718,546.606],[108.9617,53.6499,506.4518],[109.0066,53.649,455.0],[109.0919,53.6318,455.0],[109.1353,53.6511,455.0],[109.1549,53.666,455.0],[109.1802,53.6823,456.2048],[109.1777,53.6981,563.2679],[109.1519,53.7021,455.0],[109.1533,53.7268,455.0],[109.185,53.7352,455.0],[109.1995,53.7551,455.0],[109.1978,53.7801,551.2604],[109.1605,53.8015,455.0],[109.1938,53.83,455.0],[109.2283,53.8822,455.0],[109.2374,53.9136,455.0],[109.3625,53.9544,478.7431],[109.4061,53.9829,840.8929],[109.4206,54.0046,481.3867],[109.4372,54.0188,478.2104],[109.4629,54.0267,684.1978],[109.463,54.0533,455.0],[109.4805,54.0793,455.0]]]]}}