{"type":"Feature","properties":{"GID_2":"RUS.35.17_1","GID_0":"RUS","country":"Russia","GID_1":"RUS.35_1","province":"Krasnoyarsk","NL_NAME_1":"Красноярскийкрай","county":"Emel'yanovskiyrayon","VARNAME_2":"NA","NL_NAME_2":"Емельяновскийрайон","TYPE_2":"Raion","ENGTYPE_2":"District","CC_2":"R62091","HASC_2":"RU.KY.EM","name":"Emel'yanovskiyrayon.county"},
"geometry":{"type": "MultiPolygon","coordinates": [[[[92.4712,55.7671,565.4586],[92.3622,55.7826,740.5561],[92.3198,55.7906,544.7869],[92.2613,55.8049,232.0],[92.2485,55.8406,270.2721],[92.2354,55.8927,254.5575],[92.2492,55.9312,383.8434],[92.3077,55.9699,162.6785],[92.3933,55.9977,563.9265],[92.4774,55.9961,551.0131],[92.5731,55.9916,312.6836],[92.655,56.0061,312.1738],[92.7824,56.0409,180.4042],[92.9081,56.0911,321.2949],[92.9954,56.1195,199.2635],[93.1075,56.1018,138.9655],[93.1459,56.1215,128.5],[93.1191,56.1491,137.0895],[93.0891,56.1765,246.3017],[93.1051,56.2013,293.231],[93.1469,56.2075,262.9209],[93.2054,56.201,255.6642],[93.2704,56.1986,259.8229],[93.3357,56.2254,130.6255],[93.3472,56.2581,159.953],[93.3292,56.2844,180.4839],[93.3338,56.3359,244.9084],[93.3117,56.3145,251.3316],[93.1969,56.2865,234.7548],[93.1415,56.2657,273.4167],[93.0844,56.2475,254.935],[93.0204,56.2609,316.4343],[93.0082,56.283,310.9718],[93.0159,56.3164,325.536],[92.9809,56.3252,270.8072],[92.8971,56.3318,296.9586],[92.8189,56.3433,226.2227],[92.7528,56.3592,291.8808],[92.7221,56.3838,277.2025],[92.6896,56.4045,247.6878],[92.5529,56.4395,315.8439],[92.4716,56.4634,304.6497],[92.4105,56.5051,289.6593],[92.4159,56.5321,287.8737],[92.3719,56.5493,289.9565],[92.3176,56.5474,303.7946],[92.3057,56.5714,296.6086],[92.3291,56.5849,298.9976],[92.3578,56.5896,297.3593],[92.4971,56.5925,366.7945],[92.5541,56.6127,334.4128],[92.5446,56.6506,382.1498],[92.4458,56.7247,304.8519],[92.419,56.7678,375.9493],[92.3312,56.7629,317.9766],[92.0909,56.8235,258.5832],[92.0307,56.8561,273.2334],[91.8539,56.8767,234.2921],[91.6936,56.9185,241.3728],[91.6961,56.8618,278.5032],[91.7315,56.8203,284.3771],[91.7265,56.7859,287.3452],[91.7862,56.7425,252.2037],[91.8096,56.7028,252.3448],[91.7967,56.6872,255.7569],[91.7513,56.6748,271.7884],[91.7373,56.6169,270.3797],[91.6788,56.5631,282.739],[91.6461,56.5121,285.3368],[91.6093,56.4598,302.8032],[91.5623,56.4086,314.5059],[91.5158,56.3832,313.293],[91.4885,56.3389,322.8053],[91.4731,56.302,302.892],[91.4919,56.2273,308.5084],[91.5104,56.1608,305.6368],[91.5599,56.126,317.7792],[91.6274,56.1191,286.515],[91.7084,56.1187,349.7012],[91.7885,56.1337,406.8916],[91.8484,56.1261,391.7202],[91.8735,56.0959,426.08],[91.8553,56.0698,341.0499],[91.8298,56.0588,337.9249],[91.8208,56.0472,337.5778],[91.8397,56.0183,416.161],[91.8853,55.9978,414.1603],[91.9181,55.9764,420.6895],[91.9373,55.9512,398.3583],[91.917,55.926,396.6646],[91.8538,55.9214,415.1195],[91.7115,55.9366,421.3445],[91.6562,55.9481,458.86],[91.5829,55.9308,399.0638],[91.6139,55.8836,552.9819],[91.5704,55.8419,407.3239],[91.6775,55.784,618.7257],[91.7342,55.7507,672.8571],[91.7861,55.695,667.3825],[91.8435,55.701,663.3768],[91.9358,55.695,708.5023],[91.9769,55.7016,617.2155],[92.0078,55.7166,574.9629],[92.2376,55.7063,604.3896],[92.3047,55.7338,463.4142],[92.3915,55.7535,232.0],[92.4712,55.7671,565.4586]]]]}}