{"type":"Feature","properties":{"GID_2":"RUS.35.1_1","GID_0":"RUS","country":"Russia","GID_1":"RUS.35_1","province":"Krasnoyarsk","NL_NAME_1":"Красноярскийкрай","county":"Abanskiyrayon","VARNAME_2":"NA","NL_NAME_2":"Абанскийрайон","TYPE_2":"Raion","ENGTYPE_2":"District","CC_2":"R62090","HASC_2":"RU.KY.AB","name":"Abanskiyrayon.county"},
"geometry":{"type": "MultiPolygon","coordinates": [[[[97.3363,57.1588,296.5617],[97.2718,57.1573,257.9007],[97.2123,57.186,288.9623],[97.1469,57.2365,229.802],[96.941,57.3326,340.0501],[96.7831,57.3667,257.3676],[96.4844,57.4367,355.4218],[96.3444,57.4516,364.5072],[96.2865,57.4324,342.1636],[96.2212,57.4212,145.4942],[96.1553,57.4337,206.7595],[96.0636,57.4837,384.1719],[95.9987,57.5738,359.2032],[95.9332,57.5734,335.518],[95.8651,57.5554,363.6104],[95.9123,57.5333,387.8693],[95.9066,57.4966,381.8268],[95.9123,57.4474,425.905],[95.9296,57.4033,324.7368],[95.981,57.3594,216.9005],[95.9698,57.2941,226.5875],[95.9674,57.2575,241.9865],[96.0052,57.1438,280.6723],[95.9505,57.1035,285.518],[95.9202,57.0605,247.1255],[95.9692,57.0622,249.6135],[96.004,57.0661,266.3663],[96.0797,57.055,247.2924],[96.0957,57.0308,251.4168],[96.0393,57.0071,247.3979],[95.9568,56.9915,258.7993],[95.8554,56.9962,215.8229],[95.5939,56.9858,190.5415],[95.5642,56.9528,211.2556],[95.6019,56.9222,215.6519],[95.6669,56.9164,236.7258],[95.6707,56.8846,266.8094],[95.5972,56.8436,273.1971],[95.5893,56.7749,274.2412],[95.6061,56.7363,231.3113],[95.552,56.685,200.137],[95.4856,56.6433,269.943],[95.5075,56.5958,249.5511],[95.5287,56.5373,284.2243],[95.5373,56.5057,343.8632],[95.604,56.4954,291.9077],[95.7074,56.5056,259.4919],[95.7886,56.5049,291.4846],[95.8394,56.4848,338.1543],[95.8823,56.4589,326.6442],[95.9078,56.4416,320.0249],[95.9765,56.4348,339.5596],[96.0319,56.4704,291.8233],[96.1148,56.4768,303.5279],[96.1824,56.4918,295.4761],[96.2135,56.5256,300.3758],[96.2618,56.5573,306.0298],[96.3237,56.5665,317.6434],[96.4382,56.5545,308.7772],[96.5434,56.5367,312.9552],[96.639,56.5431,288.0853],[96.7234,56.551,305.8159],[96.831,56.5767,265.3144],[96.892,56.5984,298.0589],[96.912,56.6318,311.7912],[97.0494,56.629,310.467],[97.1602,56.6536,333.1637],[97.2336,56.6809,274.6747],[97.2969,56.7025,288.2945],[97.3165,56.7495,262.0698],[97.3453,56.8048,289.1137],[97.4321,56.8086,257.3502],[97.3926,56.8434,299.924],[97.4059,56.8883,240.1124],[97.5211,56.9229,278.9396],[97.5494,56.9737,178.0],[97.2716,57.055,181.3987],[97.3363,57.1588,296.5617]]]]}}