{"type":"Feature","properties":{"GID_2":"RUS.30.14_1","GID_0":"RUS","country":"Russia","GID_1":"RUS.30_1","province":"Khanty-Mansiy","NL_NAME_1":"Ханты-МансийскийАОк","county":"Nyagan'","VARNAME_2":"NA","NL_NAME_2":"Нягань","TYPE_2":"Gorsovet","ENGTYPE_2":"District","CC_2":"NA","HASC_2":"RU.KM.NY","name":"Nyagan'.county"},
"geometry":{"type": "MultiPolygon","coordinates": [[[[65.3928,62.1861,100.727],[65.4008,62.1956,80.063],[65.3932,62.2018,77.7824],[65.3764,62.2024,80.9799],[65.3662,62.2006,84.4803],[65.355,62.1952,82.8319],[65.3576,62.1901,109.6372],[65.3766,62.1819,94.8137],[65.3928,62.1861,100.727]]]]}}