{"type":"Feature","properties":{"GID_2":"RUS.71.17_1","GID_0":"RUS","country":"Russia","GID_1":"RUS.71_1","province":"Tuva","NL_NAME_1":"РеспубликаТыва","county":"Ulug-Khemskiyrayon","VARNAME_2":"NA","NL_NAME_2":"Улуг-Хемскийрайон","TYPE_2":"Raion","ENGTYPE_2":"District","CC_2":"R61000","HASC_2":"RU.TU.UL","name":"Ulug-Khemskiyrayon.county"},
"geometry":{"type": "MultiPolygon","coordinates": [[[[92.1684,51.7925,1154.9852],[92.7645,51.5222,538.436],[92.6114,51.1014,2330.407],[92.6623,51.0658,2271.6511],[92.6998,51.0013,2098.9592],[92.8684,51.0001,2389.1211],[92.9659,50.9676,2175.0835],[93.0121,50.9119,1850.9822],[93.0724,50.9458,1803.151],[93.1491,50.9771,2073.8914],[93.2703,50.9664,1655.5168],[93.3664,50.9838,2054.3333],[93.41,51.0239,1551.6477],[93.448,51.0674,1088.4302],[93.4667,51.1507,1031.4259],[93.4236,51.2206,1191.7925],[93.3633,51.2782,1414.1736],[93.3488,51.3257,1225.8113],[93.357,51.4229,904.0198],[93.2981,51.4929,959.6765],[93.2591,51.5957,739.7421],[93.2437,51.7746,1841.8344],[93.2257,51.8044,1338.911],[93.1508,51.8222,1226.3303],[93.1241,51.8713,1404.7795],[93.0469,51.8847,1219.2004],[92.9847,51.8684,1660.0967],[92.9045,51.8268,1887.9012],[92.8421,51.8383,1872.1819],[92.7601,51.8612,1562.741],[92.6448,51.8577,1726.9144],[92.5635,51.8352,1631.8857],[92.3877,51.7964,1872.4119],[92.3262,51.8178,1798.3081],[92.2547,51.8152,1679.3818],[92.2012,51.7954,1199.5276],[92.1684,51.7925,1154.9852]]]]}}