{"type":"Feature","properties":{"GID_2":"RUS.2.60_1","GID_0":"RUS","country":"Russia","GID_1":"RUS.2_1","province":"Altay","NL_NAME_1":"Алтайскийкрай","county":"Ust'-Kalmanskiyrayon","VARNAME_2":"NA","NL_NAME_2":"Усt.-Калманскийрайон","TYPE_2":"Raion","ENGTYPE_2":"District","CC_2":"R53095","HASC_2":"RU.AL.UK","name":"Ust'-Kalmanskiyrayon.county"},
"geometry":{"type": "MultiPolygon","coordinates": [[[[82.9219,52.1388,177.4955],[82.9626,52.1124,193.4023],[82.9964,52.0981,196.6375],[83.0203,52.0822,185.1304],[83.0308,52.051,157.2883],[83.0213,52.0307,172.5605],[82.9919,52.0138,185.5344],[82.9389,52.0091,205.7015],[82.8764,52.0122,193.8394],[82.814,51.9871,223.9845],[82.7707,51.9471,245.1892],[82.7872,51.8962,285.4582],[82.8094,51.8669,367.2526],[82.8937,51.8485,373.2313],[82.9749,51.8475,370.9419],[83.0399,51.873,426.5113],[83.0871,51.8664,439.8188],[83.1251,51.8527,426.4192],[83.1999,51.8665,477.3861],[83.2524,51.8861,492.7361],[83.2817,51.8606,498.7227],[83.2839,51.8309,428.7462],[83.2505,51.7955,387.0145],[83.2264,51.7739,414.6683],[83.2209,51.7551,425.2975],[83.2533,51.733,364.1407],[83.2878,51.7272,405.3979],[83.3006,51.7292,396.3434],[83.3114,51.7497,407.9904],[83.3488,51.7547,450.1118],[83.3959,51.7442,381.7876],[83.4397,51.7379,393.2638],[83.4988,51.7631,411.9346],[83.5606,51.8,443.7953],[83.5916,51.8094,555.6132],[83.6387,51.8026,624.3587],[83.7645,51.6999,642.6343],[83.8034,51.6655,611.3712],[83.8574,51.685,526.785],[83.9194,51.7254,675.0688],[83.8707,51.8269,623.7001],[83.8699,51.8577,473.4676],[83.8933,51.8781,549.1019],[83.9399,51.902,433.0519],[83.9861,51.9192,320.679],[83.8638,51.9486,283.5103],[83.8263,51.9617,259.2317],[83.7871,51.9895,303.5831],[83.774,51.9697,300.1444],[83.715,51.9176,336.9219],[83.6749,51.9292,349.0078],[83.6493,51.914,357.6894],[83.5797,51.9052,349.2289],[83.564,51.9244,317.8796],[83.5966,51.966,285.9278],[83.5629,51.988,288.2828],[83.5584,52.0238,252.2376],[83.5984,52.0778,287.4298],[83.5859,52.1002,275.7659],[83.5322,52.1257,237.7497],[83.5107,52.1111,269.1252],[83.4894,52.0854,264.5546],[83.4429,52.0903,221.8721],[83.4337,52.1227,287.1699],[83.405,52.1576,209.4365],[83.3238,52.1787,175.4283],[83.3629,52.2204,163.4135],[83.3499,52.2652,208.0377],[83.3126,52.266,209.2479],[83.2306,52.256,218.6962],[83.177,52.1914,226.3629],[83.1484,52.1616,219.0408],[83.1121,52.139,221.7722],[82.9815,52.1286,202.5224],[82.9219,52.1388,177.4955]]]]}}