{"type":"Feature","properties":{"GID_3":"RUS.35.8.1_1","GID_0":"RUS","country":"Russia","GID_1":"RUS.35_1","province":"Krasnoyarsk","NL_NAME_1":"Красноярскийкрай","GID_2":"RUS.35.8_1","county":"Bogotol'skiyrayon","NL_NAME_2":"Боготольскийрайон","city":"NA","VARNAME_3":"NA","NL_NAME_3":"NA","TYPE_3":"NA","ENGTYPE_3":"NA","CC_3":"NA","HASC_3":"NA","name":"N_A.city"},
"geometry":{"type": "MultiPolygon","coordinates": [[[[89.3571,55.8761,227.1007],[89.3623,55.883,224.2334],[89.3749,55.9137,255.081],[89.5411,55.9555,250.4292],[89.5838,55.9778,233.3881],[89.6745,56.0025,237.8766],[89.7415,56.0388,262.575],[89.8103,56.0486,228.4825],[89.9245,56.0375,260.2631],[89.9493,56.0378,286.723],[90.0467,56.0554,257.2763],[90.1254,56.0815,238.0611],[90.1606,56.1039,436.0588],[90.1663,56.1421,422.063],[90.1645,56.1815,220.2452],[90.1718,56.2308,201.2027],[90.1505,56.2925,241.3296],[90.0895,56.3351,213.2184],[90.0237,56.3589,238.8269],[89.9639,56.3851,220.1595],[89.9576,56.4113,238.3769],[89.9523,56.4614,249.883],[89.8926,56.4498,253.0677],[89.8294,56.448,270.1387],[89.7949,56.4616,269.4002],[89.7683,56.5044,272.6303],[89.7497,56.5424,235.8595],[89.6946,56.5615,251.1652],[89.5891,56.507,236.276],[89.5552,56.4431,228.3875],[89.4903,56.429,222.7682],[89.3783,56.417,248.2625],[89.3122,56.4027,219.0887],[89.2508,56.4054,221.1611],[89.1629,56.3908,236.0008],[89.0302,56.3434,263.8532],[88.915,56.3316,247.5456],[88.8975,56.3321,259.9425],[88.931,56.2935,282.5339],[89.0709,56.288,264.0788],[89.0761,56.2479,285.8516],[89.0853,56.2183,316.0796],[89.1139,56.186,271.7227],[89.1706,56.1479,247.5139],[89.2217,56.1277,246.5252],[89.2554,56.093,221.1666],[89.2681,56.0555,215.3249],[89.2474,56.015,217.0974],[89.2783,55.9535,230.0322],[89.3085,55.914,320.1339],[89.337,55.8798,223.3772],[89.3571,55.8761,227.1007]],
[[89.625,56.2239,285.546],[89.6026,56.2147,285.2327],[89.5623,56.2171,290.9536],[89.5482,56.2297,295.0619],[89.5648,56.2456,294.2758],[89.5903,56.2486,274.6494],[89.6193,56.2394,285.1922],[89.625,56.2239,285.546]]]]}}