{"type":"Feature","properties":{"GID_2":"RUS.16.1_1","GID_0":"RUS","country":"Russia","GID_1":"RUS.16_1","province":"Gorno-Altay","NL_NAME_1":"РеспубликаАлтай","county":"Chemal'skiyrayon","VARNAME_2":"NA","NL_NAME_2":"Чемальскийрайон","TYPE_2":"Raion","ENGTYPE_2":"District","CC_2":"R53010","HASC_2":"RU.GA.CM","name":"Chemal'skiyrayon.county"},
"geometry":{"type": "MultiPolygon","coordinates": [[[[86.2511,51.667,825.4739],[86.1711,51.6921,655.0773],[86.1127,51.6948,806.7708],[86.0533,51.6918,818.3402],[86.0428,51.7082,644.8126],[86.0249,51.7282,746.5881],[85.9438,51.7222,1186.2632],[85.9047,51.6929,1231.8008],[85.8277,51.6873,886.7631],[86.0526,51.3219,829.4752],[86.1853,51.1909,802.147],[86.2804,51.0241,1005.6356],[86.2804,50.9972,1142.7141],[86.3011,50.8827,1211.5056],[86.3055,50.8795,1128.3851],[86.3609,50.8773,665.2092],[86.404,50.8894,801.8068],[86.4333,50.9118,1889.2726],[86.4484,50.9455,1961.0676],[86.4383,50.9918,1596.9637],[86.4277,51.0269,1594.5652],[86.4924,51.0584,1726.389],[86.4957,51.0747,1824.972],[86.4829,51.0992,1505.6532],[86.4752,51.143,1687.5276],[86.4821,51.1616,1923.3065],[86.5629,51.212,2029.8811],[86.5797,51.2327,2152.6624],[86.5874,51.2663,1360.985],[86.5907,51.2956,2289.0403],[86.606,51.3292,1888.7986],[86.5639,51.3901,2047.0508],[86.4053,51.5135,1667.7151],[86.3595,51.5747,1496.7797],[86.2954,51.6447,1020.3534],[86.2511,51.667,825.4739]]]]}}