{"type":"Feature","properties":{"GID_3":"RUS.2.34.1_1","GID_0":"RUS","country":"Russia","GID_1":"RUS.2_1","province":"Altay","NL_NAME_1":"Алтайскийкрай","GID_2":"RUS.2.34_1","county":"Pervomayskiyrayon","NL_NAME_2":"Первомайскийрайон","city":"NA","VARNAME_3":"NA","NL_NAME_3":"NA","TYPE_3":"NA","ENGTYPE_3":"NA","CC_3":"NA","HASC_3":"NA","name":"N_A.city"},
"geometry":{"type": "MultiPolygon","coordinates": [[[[83.7984,53.0811,133.9318],[83.802,53.05,134.1275],[83.7683,53.0329,137.6082],[83.7582,53.0156,136.3898],[83.7674,52.9936,136.4558],[83.8379,52.9182,142.8182],[83.8639,52.8856,150.6984],[83.8693,52.8538,154.4433],[83.9014,52.8669,164.9796],[84.002,52.8732,172.9136],[84.0133,52.8991,168.8989],[83.9992,52.9334,157.9553],[83.9987,52.9538,159.7865],[84.0273,52.9756,163.6323],[84.0882,52.9993,178.0862],[84.0803,53.0224,173.3876],[84.1046,53.0361,179.6704],[84.174,53.0545,192.5008],[84.2649,53.086,224.1626],[84.2464,53.1317,219.0462],[84.2517,53.1809,214.7518],[84.2783,53.2553,220.1655],[84.3035,53.31,207.1842],[84.3407,53.3589,170.0537],[84.3734,53.423,202.9786],[84.4137,53.4528,218.2304],[84.4188,53.4953,220.0082],[84.4005,53.5132,240.6152],[84.3395,53.4991,180.5361],[84.2769,53.5359,195.5787],[84.2679,53.5774,226.2739],[84.2823,53.6166,230.6344],[84.3043,53.6448,250.4855],[84.3518,53.6495,245.043],[84.4029,53.6491,252.0342],[84.416,53.676,284.5771],[84.3877,53.738,241.7694],[84.3922,53.7703,272.0477],[84.3844,53.7896,259.1498],[84.3567,53.8183,273.024],[84.3124,53.8289,288.4227],[84.2786,53.8447,239.1775],[84.2977,53.8882,205.4221],[84.2734,53.9359,173.1885],[84.242,53.9613,152.1075],[84.1905,53.9421,175.6498],[84.1402,53.931399999999996,161.9044],[84.1506,53.9143,168.4987],[84.1262,53.9034,242.2138],[84.0042,53.8993,181.6488],[83.9796,53.9275,149.9106],[83.9427,53.9464,181.6506],[83.8911,53.9429,156.0387],[83.8719,53.9197,147.3939],[83.8334,53.8928,152.1652],[83.7727,53.8804,145.9823],[83.7458,53.8682,148.6828],[83.7528,53.8366,166.5249],[83.7915,53.8096,169.1895],[83.7697,53.7739,179.7263],[83.7785,53.7341,206.59],[83.7869,53.7065,212.8063],[83.8116,53.6784,186.4285],[83.8681,53.6809,192.4967],[83.8978,53.6786,182.2613],[83.8712,53.6543,184.4844],[83.7766,53.6249,179.9154],[83.7401,53.6094,184.7097],[83.714,53.5805,188.2728],[83.6872,53.5234,141.3409],[83.6384,53.4921,161.7282],[83.5864,53.4761,133.5818],[83.5299,53.4632,130.6412],[83.482,53.4487,132.3911],[83.503,53.4219,197.1611],[83.5336,53.4134,160.5362],[83.5751,53.4167,180.3294],[83.6416,53.4544,132.1071],[83.6773,53.4605,132.3876],[83.7018,53.4473,136.0624],[83.7118,53.4236,128.0],[83.7783,53.4128,131.2072],[83.7946,53.4002,128.5],[83.8295,53.3624,133.3891],[83.8614,53.2972,133.6346],[83.8529,53.2494,134.7232],[83.8806,53.1789,138.7294],[83.8751,53.1389,167.0801],[83.8464,53.1133,151.3552],[83.7984,53.0811,133.9318]],
[[84.0813,53.4369,159.9422],[83.9134,53.3825,134.3062],[83.8872,53.4549,139.7635],[83.8771,53.4675,146.2509],[84.0048,53.497,180.9028],[84.0747,53.4588,185.1163],[84.0813,53.4369,159.9422]]]]}}