{"type":"Feature","properties":{"GID_2":"RUS.24.5_1","GID_0":"RUS","country":"Russia","GID_1":"RUS.24_1","province":"Kamchatka","NL_NAME_1":"Камчатскаякрай","county":"Mil'kovskiyrayon","VARNAME_2":"NA","NL_NAME_2":"Мильковскийрайон","TYPE_2":"Raion","ENGTYPE_2":"District","CC_2":"R69090","HASC_2":"RU.KA.MI","name":"Mil'kovskiyrayon.county"},
"geometry":{"type": "MultiPolygon","coordinates": [[[[157.5606,54.6771,1414.8429],[157.5927,54.5983,1135.2709],[157.6322,54.5257,1281.9932],[157.6772,54.4657,921.0558],[157.6693,54.3912,659.5522],[157.5966,54.3238,1265.915],[157.5334,54.2731,1516.8501],[157.5148,54.2037,1432.8914],[157.5125,54.1218,1413.2139],[157.5085,54.0806,1164.6509],[157.5349,54.0555,1099.8687],[157.6643,54.0245,594.2949],[157.752,54.0289,582.9019],[157.8365,54.0418,626.8552],[157.9112,54.0288,563.221],[157.9785,53.99,731.3959],[157.986,53.95,1086.9668],[157.9684,53.8987,1380.4624],[157.9986,53.8728,1587.4534],[158.0839,53.8734,895.4742],[158.1445,53.9057,1005.0667],[158.2088,53.9201,1756.7842],[158.312,53.9297,856.4715],[158.4908,53.939,833.0599],[158.5749,53.9678,1121.7061],[158.6757,54.0245,714.5178],[158.7766,54.0876,527.1941],[158.8294,54.1715,848.9733],[158.8513,54.2515,526.4861],[158.9723,54.3183,391.4102],[159.1247,54.357,635.595],[159.2561,54.4173,546.2136],[159.3655,54.5064,487.1833],[159.3953,54.5724,688.214],[159.4702,54.635,663.6208],[159.6141,54.7073,1239.9473],[159.7744,54.7828,1007.7736],[159.9559,54.856,1248.5404],[160.0727,54.9274,1108.7097],[160.1941,55.0197,1159.5074],[160.3143,55.0971,1400.3347],[160.4452,55.151,1285.4507],[160.4037,55.2023,496.293],[160.4327,55.2348,828.5542],[160.4175,55.2795,509.609],[160.3266,55.3002,915.1118],[160.204,55.3572,646.4683],[160.2016,55.3916,264.4192],[160.1688,55.4274,137.3788],[160.0367,55.481,97.6857],[159.9707,55.5342,71.181],[159.9023,55.5771,61.6106],[159.8591,55.6166,57.6847],[159.8486,55.6614,48.9633],[159.7905,55.702,45.3145],[159.6894,55.7251,44.1703],[159.5723,55.8003,52.957],[159.5833,55.8242,47.7905],[159.5103,55.882,71.3811],[159.4746,55.8678,87.3839],[159.5059,55.8381,72.4161],[159.4588,55.8256,86.6726],[159.4356,55.7626,67.6561],[159.3722,55.7401,87.3654],[159.3158,55.667,77.4671],[159.2078,55.4693,106.6248],[159.1014,55.3554,121.159],[159.0642,55.304,126.8842],[159.0292,55.2645,136.9605],[158.9523,55.2371,132.9045],[158.869,55.2412,137.4109],[158.7375,55.2785,243.3472],[158.6583,55.3039,692.0717],[158.5932,55.3076,936.8419],[158.5231,55.2879,844.1803],[158.4716,55.2108,690.7615],[158.3917,55.156,677.4555],[158.2511,55.0483,937.1311],[158.0206,54.9523,564.4908],[157.9233,54.9,707.9083],[157.8324,54.7805,619.6658],[157.6987,54.7262,1072.8077],[157.6408,54.7095,642.8467],[157.5606,54.6771,1414.8429]]]]}}