{"type":"Feature","properties":{"GID_3":"RUS.56.33.1_1","GID_0":"RUS","country":"Russia","GID_1":"RUS.56_1","province":"Primor'ye","NL_NAME_1":"Приморскийкрай","GID_2":"RUS.56.33_1","county":"Yakovlevskiyrayon","NL_NAME_2":"Яковлевскийрайон","city":"NA","VARNAME_3":"NA","NL_NAME_3":"NA","TYPE_3":"NA","ENGTYPE_3":"NA","CC_3":"NA","HASC_3":"NA","name":"N_A.city"},
"geometry":{"type": "MultiPolygon","coordinates": [[[[133.5073,44.005,397.9594],[133.5229,44.0241,353.3517],[133.5587,44.085,361.6637],[133.6156,44.1734,436.0901],[133.7186,44.2475,344.6759],[133.8259,44.3377,375.9783],[133.8474,44.4083,611.1055],[133.8539,44.4776,330.1453],[133.8885,44.5271,376.1855],[133.9358,44.5672,349.7539],[133.9998,44.606,201.1875],[134.0029,44.648,140.8976],[134.0419,44.6746,259.8736],[134.0932,44.6646,212.396],[134.1183,44.684,196.47],[134.0581,44.7471,355.3025],[133.9728,44.68,144.2428],[133.7822,44.7494,375.0178],[133.7561,44.7965,173.3666],[133.7045,44.9152,118.5491],[133.6384,44.9233,109.9187],[133.6185,44.8819,100.0476],[133.5721,44.8602,101.8767],[133.5911,44.8297,103.9524],[133.6403,44.8167,104.7832],[133.6253,44.7607,108.4661],[133.5804,44.7122,105.9485],[133.5536,44.6902,107.2754],[133.5131,44.6798,165.9857],[133.4892,44.644,161.634],[133.5005,44.5881,145.7759],[133.5221,44.5459,138.201],[133.5253,44.5215,114.4763],[133.4947,44.4978,135.2936],[133.4383,44.5105,237.7725],[133.4182,44.4963,207.3383],[133.3964,44.4554,225.2699],[133.3563,44.4763,626.9537],[133.3188,44.4331,561.6247],[133.3184,44.4059,562.9402],[133.2534,44.3945,659.1487],[133.2329,44.3688,516.5375],[133.2744,44.3674,476.2651],[133.2966,44.345,236.365],[133.3614,44.3153,202.287],[133.4227,44.308,126.7452],[133.3923,44.2515,171.0087],[133.4554,44.2234,257.3315],[133.5237,44.1836,276.9369],[133.5154,44.1298,415.7111],[133.4527,44.0997,382.6842],[133.3714,44.1066,609.1755],[133.4301,44.0675,507.8105],[133.3856,43.9889,661.7031],[133.4216,43.9767,516.9449],[133.4895,44.011,374.4118],[133.5073,44.005,397.9594]]]]}}