{"type":"Feature","properties":{"GID_1":"RUS.30_1","GID_0":"RUS","country":"Russia","province":"Khanty-Mansiy","VARNAME_1":"Khanty-Mansiysk|Khanty-Mansiyski","NL_NAME_1":"Ханты-МансийскийАОк","TYPE_1":"AvtonomnyyOkrug","ENGTYPE_1":"AutonomousProvince","CC_1":"NA","HASC_1":"RU.KM","ISO_1":"NA","name":"Khanty-Mansiy.province"},
"geometry":{"type": "MultiPolygon","coordinates": [[[[71.7768,63.202,142.9699],[71.6789,63.1968,135.7927],[71.6449,63.2751,127.8452],[71.594,63.35,117.491],[71.5665,63.4108,114.4642],[71.5783,63.4946,113.1645],[71.5572,63.5686,105.5],[71.4347,63.6648,107.7474],[71.3595,63.6882,110.3461],[71.1365,63.6803,112.9335],[70.9856,63.682,118.2098],[70.9362,63.6937,118.8331],[70.89,63.8058,100.1772],[70.8051,63.879,95.9382],[70.6928,63.9576,99.0],[70.6518,64.0051,100.5],[70.7373,64.0288,105.9029],[70.7731,64.0532,107.5472],[70.8133,64.0885,106.1058],[70.8001,64.1447,107.4912],[70.7538,64.1822,109.0],[70.6377,64.2023,112.0229],[70.5034,64.2427,114.5],[70.4089,64.2994,120.0719],[70.3361,64.3325,120.5033],[70.1868,64.3145,120.4373],[69.9846,64.3033,127.164],[69.8775,64.3019,133.2497],[69.83,64.3595,121.0996],[69.7295,64.3665,106.5012],[69.5794,64.3609,105.0634],[69.4673,64.3531,103.2728],[69.4151,64.3733,98.6616],[69.3409,64.4142,97.7004],[69.2543,64.4291,97.7725],[69.1201,64.4256,96.6801],[68.9519,64.4023,102.9405],[68.98,64.3586,103.7459],[69.047,64.3183,92.3149],[69.0066,64.2881,85.667],[68.9578,64.2571,96.1855],[68.9738,64.1997,92.1862],[68.9478,64.1696,74.6114],[68.7743,64.2017,106.063],[68.6506,64.2355,97.3428],[68.5712,64.2658,94.1932],[68.5133,64.2723,94.0137],[68.3777,64.2227,76.0038],[68.2367,64.1738,98.1252],[68.1888,64.1446,105.197],[68.1453,64.1256,84.9272],[68.0341,64.1056,98.032],[67.9283,64.0733,115.2359],[67.8691,64.0342,121.3905],[67.8074,64.0283,136.3375],[67.7645,64.0728,110.8895],[67.7374,64.0851,114.3079],[67.6686,64.0693,138.0113],[67.549,64.0716,141.941],[67.3899,64.0708,101.0686],[67.2807,64.0567,151.5337],[67.2648,64.0942,147.5852],[67.2282,64.1291,191.2156],[67.1309,64.1436,145.5812],[66.9748,64.1588,167.98],[66.8786,64.2025,175.3887],[66.8399,64.2558,161.6348],[66.8668,64.3182,106.8078],[66.9234,64.3802,109.1348],[66.957,64.413,124.464],[66.9476,64.4451,99.8351],[66.896,64.482,84.6797],[66.8251,64.5072,58.8496],[66.7334,64.5067,25.1727],[66.4759,64.4535,32.2862],[66.4027,64.4499,10.4027],[66.3546,64.4741,16.3714],[66.2571,64.5118,33.4285],[66.1791,64.5268,35.8581],[65.9736,64.5178,11.9833],[65.7868,64.5056,10.1075],[65.6469,64.493,12.7501],[65.5588,64.4949,11.7705],[65.4377,64.4792,11.1444],[65.3621,64.4661,10.161],[65.2479,64.4434,10.94],[65.1108,64.4288,25.9966],[65.0648,64.4302,27.6],[65.0011,64.4357,36.1613],[64.9066,64.4239,75.6317],[64.6881,64.377,137.1353],[64.6278,64.3853,143.6645],[64.5826,64.3878,151.5376],[64.4892,64.3537,165.5409],[64.3221,64.352,164.3286],[64.2057,64.3598,163.361],[64.102,64.3548,142.1668],[64.0146,64.3325,130.614],[63.9424,64.2958,139.7647],[63.8635,64.2712,122.3919],[63.7686,64.2564,102.3891],[63.6838,64.2537,128.7186],[63.5834,64.2867,151.4005],[63.5082,64.3209,139.808],[63.495,64.3443,135.0053],[63.4938,64.3838,102.9805],[63.4787,64.4067,100.1975],[63.4345,64.4415,101.8098],[63.1881,64.4958,86.578],[63.0676,64.5139,77.3661],[63.0223,64.5107,82.2505],[62.9863,64.4958,91.0736],[62.8859,64.4736,76.8407],[62.7815,64.4958,85.1232],[62.67,64.5226,89.293],[62.5921,64.5572,106.1434],[62.5669,64.583,111.3068],[62.5619,64.6088,127.7721],[62.6005,64.6202,129.134],[62.697,64.6436,128.4354],[62.7842,64.6753,138.045],[62.8376,64.7163,138.0706],[62.8742,64.7726,124.7551],[62.8491,64.8158,152.0835],[62.7929,64.8629,141.3439],[62.747,64.8855,134.1681],[62.7423,64.906,129.9591],[62.8183,64.9822,120.6988],[62.8176,65.0796,127.3446],[62.8545,65.1846,148.2038],[62.8723,65.2574,149.9648],[62.8746,65.2906,154.2867],[62.8132,65.3094,151.0487],[62.6916,65.3236,160.2027],[62.5504,65.3663,105.3652],[62.4578,65.4021,151.7098],[62.4327,65.4358,131.49],[62.4361,65.4868,217.3475],[62.4138,65.5136,258.2026],[62.3461,65.5462,366.919],[62.3011,65.6031,498.2043],[62.1255,65.6818,859.9639],[62.0625,65.7016,1091.5206],[61.9933,65.6877,1026.9427],[61.9028,65.6654,834.9056],[61.8325,65.6225,788.5333],[61.777,65.6044,719.7454],[61.7395,65.5951,734.1314],[61.7325,65.572,769.989],[61.6633,65.5633,793.2537],[61.6259,65.554,1129.8842],[61.561,65.5078,967.1512],[61.4608,65.4441,916.6686],[61.3872,65.4041,710.8221],[61.3498,65.3604,1210.2993],[61.3273,65.3205,1187.4913],[61.3519,65.2625,1366.0884],[61.3737,65.2338,1018.8818],[61.298,65.1888,1278.198],[61.2262,65.1619,926.5178],[61.1684,65.1599,1159.4624],[61.1216,65.1435,1022.3679],[61.0878,65.1047,788.2509],[61.0786,65.0767,835.9562],[60.9809,65.047,807.2826],[60.8332,65.0171,729.9869],[60.7895,65.0056,940.6402],[60.7623,64.9899,837.5835],[60.7648,64.9476,867.1481],[60.6968,64.9254,958.1567],[60.598,64.9036,1001.0549],[60.588,64.944,1068.9902],[60.5723,64.9614,1096.0703],[60.5346,64.973,825.7715],[60.4825,64.9807,857.6085],[60.4645,65.0061,953.6608],[60.463,65.0273,896.8484],[60.416,65.0451,804.5269],[60.3491,65.0489,1018.2397],[60.2538,65.0581,983.1805],[60.192,65.0719,1603.8047],[60.1221,65.0576,1416.437],[60.037,65.0131,1237.5734],[60.0393,64.9315,924.0689],[59.9368,64.9255,1068.6233],[59.9216,64.8954,1416.5111],[59.7808,64.8745,722.1639],[59.7583,64.8163,751.4185],[59.6394,64.8012,978.2217],[59.6313,64.7337,1166.2925],[59.7088,64.7029,633.5964],[59.7461,64.6785,1113.929],[59.6774,64.664,567.7405],[59.627,64.611,615.1716],[59.6101,64.5759,736.5365],[59.546,64.5321,1370.4233],[59.4965,64.5053,1283.2499],[59.5103,64.4831,1060.511],[59.5781,64.4715,1095.6536],[59.6364,64.4399,1050.9242],[59.6635,64.3823,735.7482],[59.643,64.2638,438.4406],[59.6397,64.1935,533.5475],[59.6784,64.1479,630.0716],[59.778,64.141,679.5156],[59.8407,64.1454,494.1481],[59.897,64.0745,528.9575],[59.7897,64.0273,526.75],[59.7568,63.9964,513.4666],[59.754,63.9653,478.4529],[59.6662,63.945,551.3858],[59.599,63.9174,560.3924],[59.5664,63.8735,563.0207],[59.5383,63.8265,701.6259],[59.4762,63.8089,620.5449],[59.51,63.7403,552.8907],[59.4958,63.6842,850.7593],[59.4931,63.6401,606.4119],[59.4698,63.564,672.8594],[59.4195,63.4932,531.9188],[59.4145,63.418,533.2202],[59.3714,63.3752,512.9384],[59.3893,63.324,383.8664],[59.3486,63.3122,507.1403],[59.3125,63.2974,541.0501],[59.3328,63.2642,632.1516],[59.3552,63.236,506.3275],[59.3282,63.2022,657.6754],[59.272,63.1815,771.6063],[59.2653,63.1404,763.1169],[59.2989,63.1112,712.0513],[59.3191,63.0781,404.5438],[59.2609,63.0524,472.3194],[59.2341,63.0185,437.0785],[59.2343,62.9795,641.9413],[59.2766,62.9442,326.6963],[59.3122,62.92,615.99],[59.3944,62.8965,407.8377],[59.4588,62.8721,531.8448],[59.4852,62.8409,437.5044],[59.4982,62.7928,566.9026],[59.4825,62.7579,450.93],[59.4492,62.7352,503.3006],[59.3696,62.6987,497.8327],[59.4288,62.5994,493.5076],[59.4331,62.5574,728.486],[59.4484,62.5274,596.7051],[59.4877,62.5002,361.9308],[59.5601,62.4957,467.9001],[59.5862,62.4645,602.1725],[59.6318,62.4263,603.2525],[59.6183,62.3834,818.5245],[59.6093,62.3636,642.2789],[59.635,62.306399999999996,563.8654],[59.5694,62.287,371.256],[59.4866,62.2666,602.8453],[59.4885,62.1937,490.0809],[59.447,62.1641,599.1913],[59.4447,62.1072,532.8751],[59.4402,62.0583,759.7758],[59.4509,62.0054,835.3174],[59.4647,61.9473,757.1547],[59.5222,61.9744,562.5009],[59.6527,61.9366,531.2345],[59.7348,61.9316,474.1255],[59.8299,61.9176,292.6583],[59.9511,61.8855,289.0555],[59.9902,61.8585,275.1125],[59.9779,61.8156,267.8526],[59.9873,61.7576,251.4937],[60.0693,61.7135,275.2984],[60.1892,61.7203,253.5718],[60.4248,61.7494,185.8094],[60.562,61.7438,154.5228],[60.7034,61.7351,153.8056],[60.898,61.7079,125.2897],[61.0799,61.7025,130.8407],[61.178,61.6847,142.8738],[61.2885,61.6578,169.2453],[61.4655,61.5822,139.6969],[61.668,61.5271,145.843],[61.8838,61.4546,127.5053],[62.0538,61.4154,132.8738],[62.4374,61.2819,142.322],[62.5951,61.2433,125.5088],[62.7187,61.2032,105.939],[62.7808,61.1622,112.9786],[62.8417,61.1081,109.1165],[62.8955,61.0732,101.3536],[62.9159,61.0158,81.2851],[62.8685,60.9219,88.8624],[62.8343,60.8865,93.539],[62.8739,60.8349,91.9767],[62.8863,60.7837,94.4198],[62.94,60.7067,96.9092],[63.0307,60.6069,93.5775],[63.1398,60.5127,83.8578],[63.2227,60.4529,79.4487],[63.2914,60.3974,66.688],[63.3267,60.3196,71.6765],[63.309,60.285,78.3246],[63.2749,60.2497,79.8359],[63.2598,60.241,77.627],[63.3631,60.2127,81.4573],[63.4739,60.1992,75.1512],[63.6196,60.1706,73.0534],[63.7049,60.1495,76.4837],[63.7532,60.1093,74.5807],[63.7729,60.0857,78.1917],[63.7881,60.0232,79.1541],[63.8534,59.8542,84.4807],[63.83,59.8097,90.0996],[63.8323,59.7435,86.6669],[63.8481,59.6729,87.2206],[63.8456,59.6178,84.1507],[63.8508,59.5775,84.4446],[63.8783,59.5397,84.6718],[63.9253,59.4993,80.3907],[63.9846,59.4626,88.8277],[64.0392,59.437,82.5314],[64.0891,59.4225,82.1411],[64.1612,59.4104,77.8818],[64.2322,59.4063,80.2949],[64.4728,59.4061,82.6908],[64.6236,59.3752,85.4338],[64.7351,59.3494,90.1754],[64.8706,59.3388,94.1754],[65.1037,59.3437,93.8329],[65.1468,59.2527,80.0485],[65.1973,59.2589,87.6332],[65.2485,59.257,81.0473],[65.2789,59.2368,83.3709],[65.2906,59.2112,83.8293],[65.3041,59.1614,86.6277],[65.3602,59.0948,90.8717],[65.386,59.0485,88.7951],[65.3954,59.0099,86.103],[65.4844,58.8745,89.4455],[65.5396,58.8078,90.2574],[65.612,58.7626,89.4415],[65.6641,58.7363,89.5818],[65.7294,58.6972,87.5706],[65.7935,58.6744,86.5958],[65.8752,58.6729,90.131],[65.9387,58.6581,94.072],[65.9785,58.62,89.5819],[65.9773,58.5671,89.0386],[65.9971,58.5933,89.7312],[66.0415,58.5987,89.9358],[66.3071,58.5727,89.8265],[66.8295,58.6585,62.3184],[66.8328,58.832,51.4207],[66.8222,58.8848,48.0],[66.9451,58.9352,50.5319],[67.0329,58.9748,49.5],[67.1232,58.9613,51.3374],[67.1664,58.9154,50.3869],[67.3026,58.9607,49.3616],[67.4591,59.0082,52.0074],[67.6346,59.047,50.3089],[67.7239,59.1334,48.906],[67.7673,59.1562,48.5411],[67.9349,59.1616,47.9695],[68.0879,59.1814,46.14],[68.2354,59.2128,47.6958],[68.3424,59.2386,46.9735],[68.424,59.2474,47.5223],[68.4944,59.3023,45.7206],[68.5538,59.3726,41.6021],[68.5827,59.4493,41.7223],[68.6119,59.5442,43.5495],[68.7161,59.5473,41.5],[68.8737,59.5434,40.2436],[68.8988,59.5589,38.8454],[69.4026,59.7621,38.6937],[69.3211,59.8291,37.677],[69.2608,59.8659,36.8753],[69.2459,59.8936,35.5519],[69.289,59.9285,36.8359],[69.3736,59.9462,38.9252],[69.4694,59.9483,39.4169],[69.5579,59.9557,38.8685],[69.6286,59.9415,38.7595],[69.6974,59.9228,34.4407],[69.6884,59.8964,35.3996],[69.7024,59.8544,32.4512],[69.8055,59.8612,36.7662],[69.9608,59.8894,93.4709],[70.14,59.9331,77.9811],[70.317,59.8635,98.9169],[70.4087,59.8409,98.8758],[70.4954,59.8172,98.6586],[70.5891,59.805,93.4937],[70.6781,59.8218,104.2086],[70.7978,59.8337,87.9723],[70.8875,59.8455,92.9804],[70.9168,59.8112,67.882],[70.9823,59.7923,56.435],[71.0823,59.8234,58.4163],[71.1355,59.8376,64.4185],[71.1913,59.8424,69.1247],[71.2933,59.7827,78.411],[71.3735,59.7401,71.987799999999993],[71.5628,59.6754,86.2765],[71.7346,59.6135,95.3815],[71.7911,59.5785,95.1372],[71.8757,59.5338,95.387],[71.9601,59.5209,98.6205],[72.0805,59.5209,92.7776],[72.1638,59.4699,92.2841],[72.2548,59.4235,96.4572],[72.3531,59.359,98.7734],[72.4389,59.2995,96.4295],[72.4371,59.2624,96.2183],[72.4305,59.2241,99.2167],[72.4575,59.1944,99.9554],[72.5713,59.1541,96.154],[72.6218,59.1147,95.9589],[72.6543,59.099,94.8488],[72.7192,59.1074,95.3423],[72.7765,59.1249,93.1159],[72.8277,59.152,92.8266],[72.8896,59.1547,92.4237],[72.9619,59.1308,88.1929],[72.9825,59.1105,89.1733],[72.9848,59.0912,90.8895],[72.8969,59.0522,95.6782],[72.899,59.0309,96.7831],[72.9895,58.9962,95.9242],[73.065,58.9701,94.7552],[73.0918,58.9561,95.9565],[73.0995,58.935,93.1895],[73.0676,58.9103,95.0256],[72.9938,58.8852,96.2975],[72.9622,58.8674,96.1089],[72.9646,58.855,95.5032],[73.0962,58.8234,91.185],[73.341,58.7867,89.7485],[73.4439,58.7921,99.1705],[73.6212,58.8459,96.1987],[73.6834,58.8424,98.6786],[73.7453,58.8102,96.8937],[73.8075,58.785,92.3263],[73.8799,58.7924,97.7989],[73.9474,58.8037,95.0763],[73.9961,58.7855,93.0532],[74.047,58.7499,100.4693],[74.0997,58.7166,95.6044],[74.1282,58.702,95.4282],[74.2671,58.7044,99.3521],[74.4122,58.711,103.6437],[74.539,58.7068,110.4374],[74.6363,58.7062,114.2173],[74.7249,58.7018,121.7947],[74.8165,58.6911,118.1125],[74.8707,58.6796,116.4015],[75.0081,58.6957,124.4377],[75.0425,58.6928,123.7918],[75.0789,58.6796,123.1947],[75.1425,58.6492,119.8603],[75.1793,58.6987,125.4097],[75.2842,58.7383,118.5918],[75.3704,58.7779,117.3125],[75.4606,58.8251,118.1762],[75.6774,58.9457,114.7997],[75.7023,59.0101,110.447],[75.6753,59.078,107.9664],[75.6155,59.1825,106.113],[75.7044,59.2202,105.392],[75.7771,59.2488,103.6255],[75.8264,59.2807,100.6036],[75.8419,59.3276,99.9561],[75.874,59.3649,98.1378],[75.9383,59.4083,100.7623],[75.9937,59.4062,101.4758],[76.0498,59.4187,102.3882],[76.0808,59.4528,98.7834],[76.172,59.5205,93.2216],[76.2536,59.5144,93.1836],[76.35,59.5275,93.3344],[76.4492,59.545,96.3013],[76.568,59.5455,100.0029],[76.6702,59.5643,102.4603],[76.6826,59.6063,103.9361],[76.6751,59.6844,103.07],[76.7286,59.7232,117.2057],[76.7458,59.7805,120.167],[76.7322,59.8322,99.5122],[76.7413,59.89,100.9791],[76.7562,59.9372,95.2436],[76.7652,59.9736,107.9567],[76.7461,60.033,102.887],[76.7212,60.0759,84.6509],[76.7796,60.1115,97.2997],[76.8337,60.1617,86.3662],[76.8665,60.2225,95.1142],[76.842,60.2732,73.6988],[76.8314,60.3398,83.8571],[76.841,60.4004,86.4989],[76.8592,60.4518,72.3078],[76.9041,60.48,54.0512],[76.9989,60.4937,54.4395],[77.0543,60.513,48.8035],[77.073,60.5393,45.9925],[77.018,60.6078,38.1666],[77.0024,60.635,43.3097],[77.0664,60.7115,40.5098],[77.0751,60.741,40.9632],[77.056,60.7896,39.1187],[77.0912,60.8265,34.1013],[77.1546,60.8384,50.4808],[77.2574,60.8088,40.7828],[77.3581,60.7991,47.5583],[77.5142,60.8092,50.0388],[77.6325,60.8051,55.1517],[77.7717,60.7938,53.2876],[77.865,60.7738,56.2155],[77.9411,60.75,55.7543],[78.0277,60.748,58.7397],[78.1122,60.7896,61.495],[78.2122,60.7916,69.6201],[78.4454,60.7663,74.2123],[78.5329,60.7689,75.4368],[78.609,60.8002,83.9617],[78.6797,60.8249,83.4285],[78.7262,60.7788,70.4045],[78.7934,60.7551,57.1535],[78.8751,60.7423,59.4265],[78.9247,60.7511,62.1266],[78.946,60.785,56.8347],[79.0121,60.8106,60.0721],[79.0996,60.8072,64.2328],[79.1839,60.7993,60.6723],[79.2472,60.7901,59.9384],[79.2801,60.7637,71.6329],[79.2651,60.7319,66.6042],[79.2679,60.697,80.5171],[79.303,60.6577,73.5557],[79.3723,60.6417,69.6018],[79.4517,60.6406,80.7391],[79.5804,60.6518,90.9756],[79.7052,60.669,92.5023],[79.8472,60.659,88.6242],[79.9717,60.6673,92.9188],[80.0582,60.664,96.6803],[80.1607,60.6698,98.3967],[80.2512,60.6984,113.9875],[80.3166,60.7231,106.82],[80.4593,60.744,109.7394],[80.5953,60.7466,118.6163],[80.6456,60.7709,105.8057],[80.7252,60.789,108.2684],[80.8198,60.7853,119.1331],[80.9179,60.7756,107.1577],[81.0471,60.7332,101.7078],[81.0531,60.7028,101.6135],[81.0648,60.6628,102.5974],[81.0819,60.6235,100.0214],[81.234,60.6041,102.2813],[81.3347,60.6087,110.1775],[81.4762,60.6036,127.2598],[81.5907,60.6288,118.6018],[81.6894,60.6233,105.8246],[81.7673,60.6339,108.1259],[81.8638,60.6252,98.8377],[81.9853,60.5924,112.1075],[82.0787,60.5538,118.5164],[82.1133,60.5264,122.3511],[82.153,60.5071,119.9439],[82.2468,60.5129,132.9345],[82.3244,60.5523,120.1526],[82.4025,60.5946,114.8574],[82.4128,60.6402,118.5119],[82.4178,60.6956,121.498],[82.5305,60.7544,115.4776],[82.6691,60.8164,118.1522],[82.8239,60.8708,118.857],[82.9821,60.931,128.6385],[83.0994,60.9728,131.3633],[83.1962,61.0016,142.3122],[83.3697,61.0152,138.4139],[83.5178,61.0134,152.8191],[83.6158,60.9867,159.4429],[83.7066,60.9347,145.4832],[83.7673,60.9034,139.0977],[83.8627,60.8688,144.0549],[83.946,60.8346,143.7748],[84.0536,60.8256,154.1959],[84.1663,60.834,154.8477],[84.253,60.844,148.9292],[84.5658,60.9565,154.2557],[84.9414,61.0552,147.2957],[85.6618,61.2593,160.2401],[85.6721,61.2752,163.3892],[85.6785,61.3262,155.5101],[85.6569,61.3649,161.8649],[85.6537,61.3934,155.235],[85.7171,61.4233,159.6129],[85.7987,61.4486,179.5959],[85.9643,61.4684,168.9047],[85.9691,61.5052,183.502],[85.9159,61.5481,180.103],[85.8327,61.5702,163.5194],[85.7405,61.5718,174.4521],[85.6546,61.5768,172.001],[85.578,61.6004,188.2655],[85.4773,61.6541,186.2169],[85.402,61.6871,187.4407],[85.2131,61.6977,153.263],[85.126,61.7209,182.5022],[85.0118,61.7458,176.5308],[84.9524,61.7692,158.4718],[84.7644,61.7887,151.1301],[84.6851,61.8228,162.21],[84.5938,61.893,152.8499],[84.5134,61.9886,151.5512],[84.4937,62.0675,152.9436],[84.5151,62.153,167.1719],[84.5145,62.1781,147.6826],[84.4557,62.1977,164.3533],[84.4067,62.2417,149.8034],[84.3258,62.2682,150.8848],[84.3079,62.3344,175.4409],[84.2203,62.3806,162.4461],[84.1102,62.3756,152.547],[84.0307,62.4367,156.1848],[83.9827,62.4846,173.7485],[83.9241,62.5172,167.9015],[83.8676,62.5341,176.5757],[83.8022,62.5406,186.4174],[83.7132,62.507,178.1749],[83.6623,62.4796,176.1881],[83.622,62.4777,167.3218],[83.6257,62.5202,183.0486],[83.6078,62.5303,182.9015],[83.4542,62.4571,160.7825],[83.3938,62.4547,159.0424],[83.2242,62.489,172.5381],[83.1461,62.5143,173.7544],[83.1027,62.5326,151.0407],[83.0963,62.5843,147.7005],[83.076,62.6053,157.3725],[82.8394,62.6312,157.7616],[82.7977,62.6458,163.4334],[82.7954,62.7291,158.8845],[82.7917,62.7568,155.6581],[82.583,62.7642,199.5276],[82.4004,62.7519,158.0338],[82.317,62.7623,159.0715],[82.1922,62.8031,180.3541],[82.1283,62.8223,176.3089],[82.0406,62.8149,153.4835],[81.9846,62.7796,126.2145],[81.9474,62.7343,135.8904],[81.9314,62.6956,138.1208],[81.852,62.6854,137.4987],[81.757,62.7108,154.6639],[81.672,62.7639,163.0585],[81.6179,62.8069,167.7196],[81.5152,62.7869,163.8698],[81.4398,62.8034,169.9248],[81.3499,62.8359,191.4024],[81.3023,62.8646,189.2271],[81.3056,62.8924,180.3456],[81.3376,62.9183,176.6128],[81.1793,62.991,156.3462],[81.0669,63.0469,177.8572],[81.0113,63.1028,181.9371],[80.9889,63.1339,197.0434],[80.9525,63.1376,184.0169],[80.8311,63.1118,164.934],[80.7319,63.1013,169.7714],[80.6514,63.0846,185.2882],[80.6402,63.0121,168.987],[80.6052,62.9883,173.9213],[80.5267,62.9851,160.6134],[80.501,62.9825,155.1091],[80.5053,62.9632,146.6947],[80.2291,62.8451,150.6926],[80.0656,62.8182,141.9961],[79.9628,62.814,134.8621],[79.9287,62.7959,139.0496],[79.9125,62.7641,152.9652],[79.906,62.7241,131.6483],[79.8712,62.6516,145.0486],[79.8384,62.5889,134.7404],[79.7349,62.5777,126.4143],[79.6373,62.5853,121.5074],[79.4852,62.5925,120.4008],[79.345,62.5765,119.1743],[79.163,62.575,119.3174],[78.9914,62.5826,118.7279],[78.9001,62.5983,120.1813],[78.7998,62.6088,116.8553],[78.7213,62.6006,118.0],[78.5999,62.5848,116.0119],[78.5058,62.5836,113.1947],[78.3928,62.5794,114.4426],[78.2697,62.5688,113.3517],[78.1789,62.5574,108.4026],[78.0494,62.5215,111.5983],[77.8376,62.5673,111.0182],[77.6771,62.6308,106.0],[77.3892,62.7283,112.0],[77.2408,62.7896,124.5756],[77.1532,62.8437,128.9561],[77.0671,62.9277,134.0215],[77.0434,62.9682,132.2242],[76.9661,63.0027,135.7359],[76.8498,63.0104,133.1884],[76.7412,63.0377,130.9347],[76.6411,63.0412,128.1995],[76.5774,63.0344,124.6458],[76.4885,63.0059,121.9041],[76.4053,62.9706,127.6212],[76.3363,62.9705,132.9622],[76.3046,63.0008,124.168],[76.2415,63.0298,120.6517],[76.0819,63.0624,138.7231],[75.9085,63.0927,121.0],[75.7993,63.1212,127.3575],[75.6226,63.1088,126.0],[75.5107,63.0921,131.8638],[75.3972,63.0973,143.3494],[75.2868,63.0914,140.3574],[75.1789,63.0653,140.8171],[75.0422,63.0496,135.5061],[74.7166,63.0355,117.674],[74.5311,63.0327,111.0],[74.434,63.0938,113.572],[74.3067,63.1465,137.2099],[74.2574,63.1617,139.0726],[74.208,63.1604,135.2591],[74.1719,63.1781,140.5345],[73.9584,63.1871,122.6788],[73.7442,63.1801,127.4675],[73.531,63.1788,124.8304],[73.4247,63.2065,125.5904],[73.2908,63.3084,132.5062],[73.2154,63.3263,131.4869],[73.1751,63.3746,128.4487],[73.1524,63.4114,128.8405],[72.9898,63.4174,142.0497],[72.9338,63.4105,131.9762],[72.8857,63.3618,148.1555],[72.7483,63.2907,134.0045],[72.5693,63.2752,137.5175],[72.4351,63.2841,147.4657],[72.3101,63.2859,136.8328],[72.2197,63.2954,137.2571],[72.1639,63.2576,138.6993],[72.0887,63.2434,139.1988],[71.8923,63.2314,139.0205],[71.7768,63.202,142.9699]]]]}}