{"type":"Feature","properties":{"ISO3166-1-Alpha-3":"RUS","country":"Russia","fill":"#FF0","id":"2396","name":"Khanty-Mansiy"},
"geometry":{"type": "Polygon","coordinates": [[[62.69915,64.49219,81.799],[62.68819,64.49379,87.8986],[62.679,64.49663,88.9708],[62.63745,64.5187,92.0345],[62.54319,64.55027,104.4131],[62.53565,64.55477,111.5239],[62.53203,64.55999,115.3486],[62.53658,64.56717,115.9429],[62.5435,64.5728,120.4606],[62.56882,64.58805,107.7569],[62.58246,64.59952,117.4796],[62.58639,64.6051,123.645],[62.58836,64.61037,126.1213],[62.58856,64.61673,128.6839],[62.58701,64.63461,143.8177],[62.59259,64.64045,147.5715],[62.60045,64.64505,143.3437],[62.74401,64.69274,146.3488],[62.753,64.69677,144.0821],[62.80281,64.72628,148.9281],[62.80643,64.73517,152.2378],[62.80364,64.74739,133.1903],[62.78969,64.77362,132.3796],[62.78628,64.78524,128.3382],[62.78938,64.79258,130.4164],[62.8177,64.79749,133.0521],[62.82297,64.80075,136.2084],[62.82514,64.80519,136.1984],[62.8241,64.81175,141.2103],[62.82018,64.82069,145.9189],[62.81046,64.83573,156.3635],[62.79899,64.84744,147.6735],[62.78576,64.8541,146.1317],[62.77253,64.85754,148.4035],[62.69471,64.86984,153.9457],[62.68427,64.8732,159.2455],[62.67869,64.87806,157.7946],[62.67765,64.88529,162.9085],[62.67765,64.89123,158.3339],[62.68354,64.91258,138.9469],[62.68675,64.91792,135.9614],[62.69202,64.92338,135.1653],[62.69946,64.92862,134.4244],[62.72416,64.94182,133.4188],[62.73377,64.94896,134.1985],[62.78008,65.00048,123.0538],[62.78504,65.00931,120.1582],[62.80147,65.05143,126.0281],[62.80374,65.06177,123.8924],[62.80312,65.07179,121.104],[62.80364,65.08187,122.1424],[62.8087,65.10771,117.0469],[62.80891,65.11282,118.4649],[62.80963,65.11809,123.4048],[62.80994,65.12424,127.8505],[62.8086,65.13096,130.5494],[62.80157,65.14672,143.0789],[62.79971,65.15251,145.2473],[62.79909,65.15742,146.9624],[62.79961,65.1675,150.6519],[62.80085,65.17271,151.6742],[62.81356,65.20455,174.5838],[62.8146,65.20987,174.1885],[62.81491,65.21512,171.3463],[62.81232,65.22651,159.407],[62.80922,65.2338,162.5611],[62.80653,65.24501,159.4963],[62.80705,65.25509,156.7223],[62.80953,65.26547,148.9399],[62.8118,65.2708,147.6412],[62.81604,65.28651,147.007],[62.81666,65.29157,152.3907],[62.81149,65.29694,154.6123],[62.79837,65.30253,152.1628],[62.51653,65.3388,115.3555],[62.48128,65.34929,118.6312],[62.43612,65.38195,137.8251],[62.38651,65.42965,132.2989],[62.37752,65.44055,140.0129],[62.37359,65.44887,147.1877],[62.37421,65.45399,170.055],[62.37659,65.45936,193.9932],[62.39788,65.49223,264.1477],[62.40883,65.50357,242.6067],[62.41214,65.50967,263.2985],[62.41059,65.51541,258.3769],[62.33452,65.53566,296.647],[62.32501,65.5407,325.7196],[62.31685,65.54928,436.782],[62.3122,65.55553,536.2501],[62.3092,65.56117,581.7358],[62.29762,65.57982,631.9188],[62.28987,65.5991,572.8687],[62.28897,65.60082,540.1784],[62.28491,65.60861,488.5204],[62.28119,65.61827,517.7354],[62.2784,65.62292,557.3692],[62.01847,65.71713,1063.1993],[61.88194,65.70183,581.2571],[61.87098,65.69901,609.9631],[61.86158,65.69248,685.5805],[61.856,65.68656,962.4876],[61.84701,65.67501,704.2612],[61.84018,65.66917,784.6659],[61.79233,65.63754,819.2396],[61.78334,65.63326,828.5544],[61.76753,65.63015,820.678],[61.75368,65.62571,789.798],[61.73745,65.61636,927.7697],[61.70066,65.58483,645.1614],[61.69177,65.57925,654.7238],[61.67988,65.57419,757.0591],[61.60258,65.55688,1121.5475],[61.58304,65.54892,1048.449],[61.56134,65.52882,1044.5864],[61.51059,65.5005,929.5288],[61.50364,65.49546,933.1363],[61.4954,65.48949,899.338],[61.48961,65.48381,879.0398],[61.48527,65.47823,897.3035],[61.48341,65.4729,816.3859],[61.48227,65.46784,898.7768],[61.47979,65.46265,999.9078],[61.43783,65.42952,1020.8481],[61.43256,65.42386,1089.2931],[61.41809,65.40185,932.0475],[61.41354,65.39647,958.2793],[61.40662,65.39131,942.0601],[61.38771,65.38051,1067.2229],[61.28404,65.33834,860.8241],[61.25376,65.31942,1143.1292],[61.25138,65.31467,1288.0325],[61.255,65.31051,1195.249],[61.26306,65.30738,993.5844],[61.31577,65.29508,939.349],[61.32497,65.29204,928.8344],[61.33045,65.28775,857.5089],[61.33138,65.28201,1063.8674],[61.32931,65.2764,1044.973],[61.32528,65.27113,948.061],[61.31939,65.26677,850.6796],[61.26854,65.2402,773.2379],[61.25572,65.23064,988.7935],[61.25004,65.22413,854.3428],[61.24663,65.21788,800.3621],[61.24425,65.21152,850.4779],[61.24053,65.19189,888.3768],[61.22751,65.18594,739.9641],[61.20374,65.18047,953.8672],[61.14762,65.17419,1149.5748],[61.12106,65.16739,1037.0002],[61.10669,65.16083,1072.4862],[61.10359,65.15452,1048.9917],[61.10204,65.14822,907.7804],[61.09935,65.1423,927.9626],[61.09584,65.13685,818.8865],[61.08581,65.12719,892.9874],[61.00282,65.06032,852.8065],[60.97905,65.04828,787.6215],[60.96189,65.04611,752.1439],[60.83094,65.05138,666.1218],[60.81668,65.04807,597.7007],[60.8081,65.04378,709.0166],[60.80169,65.03892,796.1464],[60.79322,65.02872,880.4879],[60.78733,65.01727,751.9896],[60.78361,65.0058,904.136],[60.78082,65.00063,938.3752],[60.77968,64.99944,929.7898],[60.77369,64.99453,949.505],[60.72914,64.96601,704.2158],[60.71333,64.952,759.6954],[60.67653,64.91232,798.9598],[60.6661,64.90299,673.5726],[60.64522,64.89123,659.8771],[60.63674,64.88937,736.1909],[60.62744,64.89004,862.1528],[60.61463,64.8986,1004.6923],[60.60853,64.90544,940.1749],[60.60543,64.91258,960.9753],[60.6047,64.91878,1112.4014],[60.60439,64.92534,1230.5992],[60.60357,64.93162,1064.1144],[60.60067,64.93704,1160.2098],[60.47076,64.992,962.2402],[60.44327,65.0072,1125.8706],[60.42962,65.01846,1160.9458],[60.43424,65.02938,1070.433],[60.43459,65.03019,1059.7876],[60.43614,65.03616,939.326],[60.43583,65.04208,964.0612],[60.43014,65.04755,904.1105],[60.42032,65.05257,972.1422],[60.38746,65.06115,1056.0271],[60.30498,65.07143,1276.0518],[60.22013,65.0706,1231.6605],[60.14737,65.06479,1003.7411],[60.12794,65.05944,1427.9529],[60.09414,65.04657,1420.1182],[60.02758,65.00642,1416.0576],[59.90077,64.90839,1177.5586],[59.88899,64.90131,1625.8612],[59.74987,64.85891,1032.1848],[59.72527,64.84323,1329.2523],[59.67412,64.80214,1039.9369],[59.65458,64.78307,664.1729],[59.65086,64.77786,677.6838],[59.64755,64.77243,598.8483],[59.64528,64.76649,922.7712],[59.63784,64.74158,1025.8751],[59.63701,64.73447,1094.066],[59.63846,64.72561,1035.0651],[59.64094,64.719,1096.4225],[59.64435,64.713,940.6544],[59.66326,64.69781,767.4019],[59.68476,64.68551,577.7485],[59.70409,64.66768,752.5299],[59.68507,64.6481,567.1405],[59.66512,64.64112,640.1463],[59.63453,64.63399,842.7572],[59.62688,64.63053,863.1305],[59.62006,64.6266,718.1288],[59.61407,64.62241,585.5099],[59.60911,64.61766,585.2468],[59.60508,64.61259,705.5183],[59.5844,64.57316,1019.2181],[59.57975,64.56815,1078.171],[59.57428,64.56355,1014.9531],[59.52374,64.53699,1252.0018],[59.51226,64.52826,1038.7488],[59.49717,64.5141,1075.1531],[59.48963,64.50495,1192.0372],[59.48415,64.49725,1017.3394],[59.4825,64.49247,1066.7699],[59.48229,64.48692,844.5255],[59.48756,64.47994,914.8598],[59.49593,64.47596,1073.9983],[59.5073,64.47327,1374.2552],[59.58926,64.46707,1071.6946],[59.59774,64.46397,1076.1156],[59.60321,64.45958,988.8282],[59.60611,64.45415,974.2258],[59.60828,64.44842,1077.8298],[59.61004,64.44237,902.8585],[59.612,64.42992,898.4832],[59.61004,64.38977,691.551],[59.61097,64.38062,705.5355],[59.61345,64.37333,660.9312],[59.62093,64.36376,620.3224],[59.62564,64.35773,636.0006],[59.63308,64.34367,686.6306],[59.6337,64.33641,653.6257],[59.63174,64.32827,528.1576],[59.62461,64.31824,492.7163],[59.61758,64.31215,550.9816],[59.61045,64.30703,508.1795],[59.60353,64.30321,523.7933],[59.59174,64.29468,624.4109],[59.58768,64.29062,676.5396],[59.58689,64.28982,683.2746],[59.58306,64.28212,626.1671],[59.5815,64.27703,572.1965],[59.58006,64.27233,562.767],[59.57872,64.25448,536.2596],[59.58027,64.24466,488.6127],[59.58378,64.23727,481.5315],[59.58844,64.23264,479.0251],[59.73447,64.1534,715.3408],[59.7537,64.14802,685.6397],[59.7784,64.14596,688.3026],[59.83752,64.15247,516.8135],[59.84837,64.152,526.8956],[59.8556,64.149,445.5858],[59.85767,64.14151,404.8296],[59.85643,64.13133,407.6418],[59.84568,64.0949,737.4379],[59.84258,64.08766,830.5285],[59.83814,64.08007,651.4574],[59.8062,64.05283,713.1824],[59.80072,64.04638,653.7164],[59.79431,64.03702,637.6894],[59.78646,64.02111,505.4639],[59.77292,64.00204,582.8831],[59.77013,63.99961,605.6025],[59.76145,63.99584,563.5688],[59.5844,63.93827,503.2432],[59.5782,63.93424,527.3505],[59.57293,63.92716,558.0986],[59.56932,63.91765,626.5063],[59.56673,63.90003,613.0375],[59.56828,63.88158,603.723],[59.57262,63.85667,550.1705],[59.57273,63.85006,585.0051],[59.57138,63.84256,655.3192],[59.56839,63.83458,659.1347],[59.56063,63.82458,664.8341],[59.55464,63.81812,645.5384],[59.53573,63.80463,750.9717],[59.52095,63.79053,612.7803],[59.51723,63.78324,620.0192],[59.51381,63.77435,662.3176],[59.51082,63.7588,530.1304],[59.50524,63.64573,647.165],[59.49376,63.61054,666.549],[59.44085,63.5153,601.9351],[59.42131,63.48961,505.3877],[59.3222,63.40342,566.5548],[59.31889,63.39825,553.1569],[59.31848,63.39251,660.7255],[59.32447,63.38603,659.7849],[59.3316,63.38145,591.9034],[59.33998,63.37773,539.1324],[59.34638,63.37386,495.115],[59.34959,63.36936,491.289],[59.34897,63.36407,471.2595],[59.34339,63.36006,532.7267],[59.33594,63.35655,545.0057],[59.29223,63.34218,488.7279],[59.28727,63.33717,479.3102],[59.2854,63.33112,481.8194],[59.28799,63.32327,526.7675],[59.29316,63.31789,504.1425],[59.29998,63.3136,528.5964],[59.3285,63.29919,545.483],[59.33336,63.29459,585.9172],[59.33398,63.28593,731.0126],[59.32964,63.27386,796.4227],[59.31507,63.25118,563.7554],[59.29925,63.23159,585.6783],[59.28799,63.22239,528.7066],[59.26908,63.2103,600.2292],[59.26473,63.20529,605.4655],[59.26225,63.19942,664.1487],[59.26442,63.19154,731.261],[59.26711,63.18524,793.6941],[59.28613,63.15273,785.302],[59.29801,63.13767,745.4533],[59.29161,63.12351,658.8677],[59.24117,63.09605,636.9477],[59.23166,63.08907,779.6978],[59.22815,63.08504,722.4485],[59.22474,63.07894,635.0044],[59.22319,63.07191,671.5027],[59.22329,63.06251,817.0044],[59.22505,63.04628,823.5969],[59.22722,63.03729,686.3953],[59.23755,63.0159,474.8441],[59.27807,62.97024,410.2017],[59.28509,62.96479,460.4635],[59.29357,62.96117,465.5892],[59.3036,62.95833,440.8012],[59.3254,62.9544,488.0554],[59.40519,62.94892,507.9806],[59.424,62.94391,447.4275],[59.43857,62.93688,372.2825],[59.47671,62.90675,481.4316],[59.48105,62.90045,530.6333],[59.48312,62.89239,593.9437],[59.48012,62.87823,508.0166],[59.47702,62.86957,462.636],[59.46772,62.8511,521.4611],[59.46638,62.84479,480.7294],[59.46193,62.83286,518.828],[59.45852,62.82748,562.8293],[59.45656,62.8202,591.9747],[59.45573,62.81126,596.8985],[59.4579,62.7963,533.4662],[59.4579,62.7864,536.683],[59.45439,62.77679,526.3414],[59.44798,62.77178,579.529],[59.40457,62.74992,551.2329],[59.39868,62.74571,611.3901],[59.39496,62.73943,680.937],[59.39413,62.73142,659.7974],[59.39868,62.71803,622.3682],[59.40312,62.71018,565.4601],[59.42007,62.68878,535.2464],[59.42617,62.67793,551.5826],[59.42865,62.67041,529.6566],[59.43361,62.64641,636.9688],[59.43682,62.63773,722.8519],[59.44116,62.63106,686.2038],[59.45842,62.6185,672.6034],[59.46286,62.6138,639.4782],[59.50141,62.55706,499.0494],[59.50575,62.55228,450.3195],[59.51082,62.54776,483.8077],[59.51785,62.54424,533.0928],[59.52653,62.54135,578.2878],[59.63515,62.52249,847.1857],[59.64156,62.51748,623.4532],[59.64373,62.51027,666.3013],[59.63753,62.495,751.35],[59.62089,62.46823,600.3203],[59.59329,62.43211,577.3023],[59.59061,62.4256,600.1249],[59.58957,62.41841,599.6508],[59.59247,62.40803,641.2518],[59.60084,62.39542,712.65],[59.60363,62.38999,765.0877],[59.60477,62.38332,760.9128],[59.6029,62.37557,686.9488],[59.59619,62.3655,713.9534],[59.56487,62.33501,599.2106],[59.55846,62.33113,558.8572],[59.55009,62.32808,561.8066],[59.53087,62.32343,466.2978],[59.5227,62.32054,560.9158],[59.5163,62.31656,649.3768],[59.50741,62.30679,595.4905],[59.49769,62.28576,600.1208],[59.49056,62.26116,694.2194],[59.48539,62.24902,819.4014],[59.48064,62.24018,789.5704],[59.40777,62.1468,753.2362],[59.40457,62.14026,829.8271],[59.40178,62.13151,789.3447],[59.40033,62.12437,909.8979],[59.40085,62.11771,850.3589],[59.40405,62.10804,707.4689],[59.4331,62.06288,717.4298],[59.45418,62.03813,507.6695],[59.48539,61.99327,630.6749],[59.50141,61.9833,765.9022],[59.51206,61.97438,604.3047],[59.5318,61.96314,609.496],[59.54007,61.96009,579.3636],[59.55288,61.9573,570.8195],[59.60146,61.95167,676.7816],[59.62027,61.94764,704.3242],[59.65189,61.93648,531.2345],[59.67329,61.9355,462.8686],[59.6983,61.93922,409.5205],[59.73458,61.94945,423.2488],[59.75514,61.95307,435.2106],[59.76755,61.95327,403.271],[59.77943,61.95234,332.2003],[59.98428,61.90279,304.6974],[59.99006,61.89891,297.5916],[59.99234,61.89395,323.4188],[59.99079,61.88888,283.321],[59.98758,61.88377,302.5478],[59.9728,61.86994,300.7851],[59.9697,61.86449,280.0901],[59.96826,61.85819,289.2476],[59.96795,61.85152,292.7979],[59.97146,61.78631,268.6715],[59.97828,61.75675,251.2569],[59.98025,61.75217,249.0],[59.98293,61.74977,248.0],[59.98769,61.74708,263.0583],[60.03099,61.73292,242.6051],[60.03585,61.72848,240.8221],[60.04432,61.72429,244.2308],[60.05662,61.72119,248.8005],[60.43086,61.74708,180.3231],[60.67777,61.7206,147.5533],[60.75942,61.70362,128.6066],[60.97088,61.70564,117.0637],[61.07031,61.69913,124.857],[61.16519,61.68275,133.6204],[61.90023,61.43356,123.8016],[61.9145,61.41418,127.9384],[61.92111,61.40835,132.6352],[61.93341,61.40411,124.4799],[62.41968,61.3051,152.232],[62.62009,61.21073,118.0482],[62.85976,61.00126,101.1652],[62.86069,60.99907,100.6208],[62.85966,60.9969,105.3862],[62.82658,60.97134,94.561],[62.80705,60.95266,91.6949],[62.79558,60.93685,89.7938],[62.77801,60.91716,89.2161],[62.77088,60.90631,89.6925],[62.75765,60.87716,93.1031],[62.75734,60.87122,93.6805],[62.75785,60.86523,94.0137],[62.75971,60.85944,94.5348],[62.83403,60.74921,100.3395],[62.8641,60.68415,97.2791],[62.86596,60.67854,98.2034],[62.86834,60.66674,98.0848],[62.86999,60.66126,97.3737],[62.88115,60.63997,98.2172],[62.89645,60.62374,99.4143],[63.09096,60.45962,84.4235],[63.1293,60.41192,84.4497],[63.15091,60.38076,81.9724],[63.22005,60.30051,81.6953],[63.22832,60.27606,83.1774],[63.19731,60.24201,80.1527],[63.19545,60.23669,80.2527],[63.19762,60.23105,79.8108],[63.20858,60.22413,79.1508],[63.21819,60.21989,77.9196],[63.22894,60.21684,77.5026],[63.28485,60.20852,78.002],[63.39637,60.16646,83.5446],[63.4375,60.15855,81.7376],[63.58943,60.15498,72.774],[63.59966,60.15302,76.8919],[63.60721,60.14992,75.0874],[63.61362,60.14615,84.546],[63.62881,60.13354,67.2992],[63.6377,60.12284,65.7448],[63.6408,60.10718,82.8633],[63.64152,60.08781,86.1407],[63.64049,60.07452,86.0719],[63.64121,60.05587,82.9576],[63.644,60.04882,82.87],[63.6502,60.04073,83.5905],[63.69444,60.00135,84.2897],[63.69992,59.99365,84.257],[63.74911,59.90616,84.0873],[63.79552,59.7916,95.1952],[63.79893,59.77759,94.8392],[63.79955,59.76343,98.0083],[63.79428,59.69475,86.4857],[63.82001,59.49838,88.4808],[63.81981,59.49027,83.8481],[63.82156,59.48397,81.2221],[63.82508,59.47704,80.0158],[63.84141,59.46314,78.74],[63.85505,59.45503,78.3738],[63.98,59.40552,77.8467],[64.02868,59.39503,81.3426],[64.12098,59.39077,78.3573],[64.32427,59.41121,93.1288],[65.00165,59.33767,91.9065],[65.01942,59.33348,90.0129],[65.03823,59.32687,88.9777],[65.05146,59.31271,88.8762],[65.05735,59.30398,87.459],[65.07037,59.26295,85.4531],[65.07534,59.25631,78.6536],[65.08278,59.24886,77.5283],[65.0988,59.23734,76.6743],[65.11027,59.23124,75.7391],[65.12298,59.22775,77.8855],[65.18468,59.22331,77.9227],[65.19357,59.22073,80.7188],[65.20029,59.21538,83.2097],[65.20587,59.20822,98.1958],[65.2159,59.18781,82.1816],[65.21858,59.18083,84.4198],[65.22199,59.17386,82.9498],[65.38229,58.91909,87.7802],[65.40968,58.89033,87.5999],[65.63861,58.69513,89.3697],[65.66899,58.66329,88.4598],[65.8818,58.6297,90.2816],[65.93451,58.61436,90.1722],[66.12054,58.60684,88.6554],[66.25201,58.6141,84.9776],[66.33004,58.59534,83.7086],[66.38017,58.58909,83.3405],[66.74066,58.6696,64.3207],[66.7726,58.68252,63.4271],[66.78304,58.70045,62.4854],[66.78583,58.72042,67.0759],[66.76919,58.88922,55.4401],[66.76888,58.89113,56.5167],[66.76547,58.89625,58.3039],[66.7636,58.89966,63.5918],[66.76216,58.90307,60.6324],[66.76174,58.90679,61.3664],[66.76205,58.90943,50.9762],[66.76329,58.91341,51.1842],[66.76722,58.92142,48.8855],[66.76939,58.92488,50.9956],[66.77373,58.92968,50.0345],[66.779,58.93201,49.8735],[66.78459,58.93351,49.7361],[66.80081,58.93501,50.1905],[66.80267,58.93465,50.1911],[66.82489,58.93842,52.4727],[66.95109,58.9732,51.6736],[66.96597,58.97506,49.7614],[66.97279,58.9747,50.6035],[66.97724,58.97397,51.6762],[66.97961,58.97335,52.1142],[66.98127,58.97263,52.1142],[66.98364,58.97134,51.8444],[66.98654,58.96924,52.1228],[66.98974,58.96622,48.0],[66.99232,58.96043,48.0],[66.99377,58.95811,48.0],[67.05041,58.92715,50.4563],[67.05919,58.92459,51.9205],[67.07087,58.92488,51.3084],[67.26373,59.02038,49.5026],[67.56449,59.09293,48.0],[67.65709,59.16409,47.4623],[67.71559,59.20316,47.417],[67.74215,59.21194,50.3011],[67.86969,59.20951,48.6491],[68.19535,59.2415,45.4121],[68.30491,59.26507,44.4682],[68.35813,59.28292,44.1126],[68.37643,59.29798,46.2427],[68.39152,59.31457,45.8932],[68.54344,59.55086,43.8199],[68.55595,59.56502,51.1177],[68.57135,59.57425,48.6805],[68.59925,59.57481,41.2807],[68.63191,59.57213,46.7874],[68.84399,59.62132,44.6319],[69.29523,59.78289,41.7477],[69.29916,59.78793,41.5403],[69.29988,59.79278,40.5617],[69.29854,59.79759,39.6302],[69.29523,59.80216,40.3233],[69.2912,59.80674,40.3889],[69.28035,59.81552,33.7885],[69.27363,59.81981,36.8092],[69.07768,59.89322,38.9851],[69.07137,59.8974,39.214],[69.07302,59.90337,39.3909],[69.07582,59.90818,39.9374],[69.09349,59.92409,42.006],[69.13328,59.94461,37.2185],[69.28696,59.986,38.6171],[69.30609,59.9889,40.2886],[69.50132,59.98918,45.669],[69.52478,59.98662,40.6875],[69.53501,59.9845,48.3334],[69.54462,59.97975,37.7935],[69.55207,59.97184,38.1788],[69.56271,59.93546,39.6629],[69.57088,59.91758,38.4997],[69.58421,59.90818,35.2039],[69.61563,59.90487,44.0234],[70.15492,59.90001,70.8907],[70.16453,59.89634,72.5015],[70.17198,59.89226,73.611],[70.17694,59.88774,85.4869],[70.18903,59.87392,92.8661],[70.19451,59.86947,84.4716],[70.24773,59.83976,89.3546],[70.29311,59.82922,88.5782],[70.39853,59.81749,91.6058],[70.79757,59.86301,91.3956],[70.81675,59.85787,88.2723],[70.96438,59.81831,60.5685],[70.98557,59.81865,66.4875],[71.0172,59.82258,56.2543],[71.10753,59.89353,60.7093],[71.11993,59.89965,58.4268],[71.13398,59.90446,59.4139],[71.1623,59.91081,64.6123],[71.17698,59.91107,58.0368],[71.18752,59.90885,58.2937],[71.19341,59.90508,58.6768],[71.26452,59.83764,71.5087],[71.29645,59.79909,73.7669],[71.33976,59.78506,75.1719],[71.45169,59.75961,74.3725],[71.46657,59.75341,70.716],[71.53065,59.71708,77.2211],[71.77705,59.64768,94.3957],[71.84164,59.59833,93.1629],[71.88216,59.57264,94.2698],[71.89177,59.56949,94.3997],[71.902,59.56719,95.2066],[71.91316,59.56649,95.5903],[71.95833,59.5683,95.4408],[71.99977,59.56582,97.3245],[72.00907,59.56298,97.1445],[72.016,59.55931,97.9543],[72.07108,59.51234,95.5084],[72.09372,59.50017,94.1977],[72.12214,59.48991,95.0528],[72.14684,59.47601,94.2889],[72.20875,59.43131,98.2271],[72.29536,59.38273,97.8255],[72.3552,59.33971,98.8436],[72.37918,59.3263,97.7147],[72.43716,59.30336,96.9943],[72.44574,59.29617,96.2758],[72.44894,59.28904,95.6825],[72.4414,59.24323,98.3695],[72.4414,59.23576,98.7964],[72.44429,59.22582,99.2529],[72.45359,59.21509,98.6227],[72.52377,59.15505,99.4272],[72.63797,59.10766,95.667],[72.64728,59.10632,96.4855],[72.65689,59.10699,95.6208],[72.86328,59.15737,93.2389],[72.87631,59.15768,93.3266],[72.89584,59.1552,92.1558],[72.91041,59.15081,92.7215],[72.92612,59.14396,92.0096],[72.95082,59.12797,89.2166],[72.96643,59.1136,89.595],[72.97408,59.10427,90.022],[72.97563,59.09898,90.2481],[72.96271,59.05727,92.5738],[72.95982,59.05185,93.3047],[72.95206,59.0419,94.1256],[72.94741,59.03728,94.7402],[72.94411,59.03216,95.2125],[72.94442,59.02529,96.0756],[72.95,59.01686,96.7109],[72.95961,59.00622,96.4667],[72.96695,59.00007,96.0143],[73.08622,58.95831,96.2623],[73.09324,58.95227,95.4903],[73.09459,58.94617,94.216],[73.05428,58.89723,95.109],[73.02886,58.87455,94.5724],[73.02741,58.86943,94.1846],[73.03206,58.86313,94.0537],[73.44413,58.8176,95.0787],[73.49198,58.8175,95.9849],[73.50614,58.8193,96.7224],[73.62055,58.85364,96.7676],[73.63264,58.85351,97.379],[73.66623,58.84866,98.1076],[73.67729,58.84504,98.5451],[73.68566,58.84101,98.4221],[73.69889,58.8316,98.8362],[73.72866,58.81569,98.9087],[73.74261,58.81155,97.296],[73.75584,58.80938,97.1021],[73.79883,58.81303,97.9947],[73.8564,58.82313,96.0174],[73.86601,58.82385,94.3021],[73.91035,58.81972,96.2976],[73.97908,58.80592,96.0435],[73.99955,58.79962,97.4669],[74.00358,58.79713,97.7476],[74.01887,58.7852,96.1342],[74.07024,58.7576,97.8388],[74.07623,58.75321,97.5568],[74.08181,58.7482,97.9001],[74.08988,58.74236,98.9184],[74.10011,58.73941,100.1801],[74.16264,58.73636,96.7094],[74.24666,58.74582,99.5528],[74.74307,58.74809,117.1653],[74.78999,58.74308,120.824],[74.82296,58.73574,118.1248],[74.85417,58.72228,124.1611],[74.89913,58.69642,118.7456],[74.9074,58.69549,119.8469],[74.91546,58.69688,120.8311],[74.98088,58.71848,120.9875],[74.9939,58.71921,122.3718],[75.00062,58.7189,121.3594],[75.00879,58.71709,120.3263],[75.03969,58.70598,122.6069],[75.0923,58.67818,125.0918],[75.15947,58.65022,121.1273],[75.16071,58.67766,129.0148],[75.19648,58.7005,125.962],[75.37321,58.78587,118.4692],[75.64162,58.98239,111.9503],[75.6719,59.01562,108.3611],[75.68688,59.04007,106.3342],[75.68192,59.0642,106.1827],[75.62704,59.21158,103.8085],[75.62487,59.22551,104.8138],[75.62839,59.23778,100.8652],[75.64926,59.24563,100.497],[75.76533,59.27065,99.1108],[75.78765,59.27866,98.7362],[75.81866,59.29452,98.0749],[75.83313,59.30873,99.8547],[75.84336,59.32325,99.4636],[75.87375,59.39255,100.2084],[75.89514,59.4264,102.534],[75.90589,59.43172,103.1361],[75.91457,59.43213,103.8786],[75.95054,59.42046,102.636],[75.96067,59.41839,100.4939],[75.97121,59.41767,101.0169],[75.9894,59.42009,101.0548],[75.99622,59.42247,102.0278],[76.00118,59.42482,101.1016],[76.00717,59.42841,100.571],[76.15383,59.53507,93.412],[76.17171,59.54277,92.1055],[76.44012,59.54458,95.4572],[76.63205,59.57657,102.1105],[76.64548,59.5851,102.8238],[76.64796,59.60794,101.2719],[76.64621,59.66602,104.841],[76.65633,59.69274,108.8899],[76.72796,59.72948,120.1341],[76.73778,59.74349,108.2316],[76.7415,59.7578,117.8311],[76.7385,59.93598,96.2314],[76.75752,60.05672,97.9931],[76.757,60.066,97.6779],[76.75545,60.07119,94.6159],[76.75297,60.07602,99.4949],[76.74863,60.08042,101.4502],[76.74222,60.08424,99.6412],[76.73478,60.0877,96.6689],[76.70656,60.0969,100.7224],[76.69881,60.10119,99.4812],[76.69271,60.10718,98.4941],[76.69395,60.11261,97.9371],[76.69861,60.11726,94.9213],[76.76444,60.15793,93.4061],[76.78108,60.17292,82.9875],[76.84795,60.26614,62.3739],[76.84857,60.27229,67.3972],[76.84712,60.27782,72.3284],[76.83224,60.31172,60.861],[76.82625,60.32125,91.9118],[76.82253,60.32578,87.0199],[76.81756,60.32996,90.5951],[76.81064,60.33348,82.2177],[76.80186,60.33627,82.9505],[76.76661,60.34019,72.425],[76.75607,60.34236,58.1709],[76.74935,60.34691,56.8143],[76.74894,60.3573,65.9606],[76.75266,60.37745,65.2776],[76.77963,60.45181,57.8805],[76.80589,60.47114,51.7097],[76.83441,60.48277,58.3718],[76.88102,60.48871,46.3897],[77.01269,60.52721,54.2569],[77.02251,60.53253,48.2941],[77.03275,60.54065,46.5107],[77.04659,60.55899,47.8034],[77.05135,60.56917,39.9069],[77.05352,60.57754,44.1037],[77.04825,60.59842,38.1341],[77.04039,60.6186,35.8522],[77.03771,60.62343,38.21],[77.0344,60.62782,38.8495],[77.02964,60.63175,37.8535],[77.0222,60.63423,38.6124],[76.98665,60.63759,38.7513],[76.97735,60.64147,39.1999],[76.97032,60.64911,39.8023],[76.97094,60.71035,31.0],[76.97332,60.71632,31.0],[76.97797,60.72043,31.0],[76.98562,60.72167,50.3161],[76.99419,60.73572,38.7943],[77.01611,60.72927,41.9103],[77.03678,60.72642,36.6606],[77.06758,60.72632,39.1786],[77.07326,60.74074,40.87],[77.07057,60.7458,38.4468],[77.06871,60.75645,39.9193],[77.06933,60.76208,40.362],[77.08659,60.83319,33.4034],[77.09135,60.84285,44.3972],[77.09796,60.84926,49.3517],[77.10478,60.85246,45.3049],[77.1176,60.8553,44.4764],[77.1361,60.85613,49.325],[77.25185,60.83422,45.6658],[77.31169,60.83231,48.1056],[77.33567,60.82851,45.428],[77.39613,60.8121,45.7973],[77.4075,60.81107,47.0093],[77.56202,60.82905,55.5592],[77.70227,60.82518,58.2238],[77.74919,60.81582,60.1253],[77.82495,60.79185,54.806399999999996],[77.84603,60.78089,65.2792],[77.88003,60.75663,58.2512],[77.88809,60.75329,58.3271],[77.89781,60.7505,71.439],[77.90897,60.74839,64.2727],[77.92044,60.74746,57.2336],[77.93119,60.74792,55.9604],[77.94111,60.74916,55.8967],[78.0794,60.7952,60.5098],[78.12053,60.80177,63.3728],[78.16415,60.80314,75.3549],[78.47441,60.77748,78.0433],[78.49426,60.78017,81.1437],[78.67492,60.82797,72.3727],[78.68784,60.82895,65.6619],[78.69941,60.82755,70.4279],[78.7854,60.7842,56.5947],[78.79502,60.78146,64.0188],[78.80649,60.77983,64.2814],[78.89372,60.78492,55.4408],[78.90695,60.78802,53.8463],[78.95986,60.81954,59.1782],[78.97578,60.82518,69.0333],[78.9888,60.82647,61.5521],[78.99624,60.82419,65.322],[79.00079,60.82215,56.6772],[79.00947,60.82047,56.6306],[79.02177,60.81991,58.8028],[79.06146,60.82507,57.4492],[79.08957,60.82425,59.1767],[79.10952,60.82549,65.6486],[79.16853,60.8366,81.5748],[79.18517,60.83758,90.4155],[79.19571,60.83551,83.8712],[79.2044,60.83244,84.3741],[79.23871,60.81355,64.0047],[79.24749,60.81071,63.9576],[79.25731,60.80874,67.4866],[79.2879,60.80885,60.8305],[79.29762,60.80735,61.3226],[79.30527,60.80427,61.4689],[79.31178,60.80066,62.184],[79.31498,60.79655,62.6098],[79.31364,60.79231,64.6261],[79.29535,60.78037,61.4437],[79.2907,60.77562,61.264],[79.28884,60.77032,61.8507],[79.2846,60.7256,63.6982],[79.28542,60.72053,64.1471],[79.28884,60.71604,68.4101],[79.30775,60.70513,66.9419],[79.35953,60.66358,73.2879],[79.37369,60.66229,84.7657],[79.39508,60.66392,92.0766],[79.50257,60.68658,85.1018],[79.85335,60.6919,96.2256],[80.16537,60.66358,98.1057],[80.18573,60.66472,96.3701],[80.20868,60.67015,94.5],[80.41393,60.76063,113.2588],[80.4284,60.76482,121.2776],[80.44153,60.76707,118.7649],[80.62353,60.76869,107.0259],[80.63511,60.7719,105.4236],[80.68927,60.79391,109.7694],[80.70725,60.7965,111.0928],[80.72348,60.79663,106.0655],[81.01721,60.75725,102.3714],[81.02754,60.75474,102.7882],[81.0356,60.74942,102.045],[81.04056,60.73779,101.0312],[81.05276,60.69438,99.7904],[81.06082,60.68033,102.1082],[81.0757,60.66591,104.0143],[81.0941,60.65263,101.9196],[81.11487,60.64178,100.8139],[81.1405,60.63666,101.5173],[81.49769,60.61547,113.0489],[81.54513,60.63134,110.2539],[81.83039,60.64472,100.0983],[81.87276,60.63852,97.8364],[81.90573,60.62963,108.1267],[82.139,60.53196,124.5877],[82.16535,60.52628,124.4545],[82.19047,60.53083,124.2824],[82.36245,60.60064,118.7081],[82.38074,60.61196,123.1527],[82.38684,60.6256,118.9607],[82.38818,60.63994,116.9775],[82.38508,60.68425,117.354],[82.38622,60.69841,115.8281],[82.39118,60.71151,117.0649],[82.4074,60.72301,116.8771],[83.14421,61.02821,140.6361],[83.50356,61.04723,140.1157],[83.51411,61.04452,140.0463],[83.52124,61.04098,149.188],[83.61622,60.98178,153.243],[83.89186,60.87174,149.1006],[83.9486,60.84156,155.8989],[83.98881,60.82688,146.2557],[83.99718,60.82611,142.2373],[84.25959,60.85551,136.7437],[84.62267,61.0001,152.2057],[84.64809,61.00072,150.3561],[85.67118,61.28923,153.1881],[85.69351,61.29905,153.8279],[85.70209,61.30618,152.7015],[85.65351,61.3439,160.6587],[85.64204,61.35729,170.0288],[85.63625,61.36675,159.7435],[85.6347,61.3716,158.8527],[85.63522,61.37682,160.9645],[85.63842,61.38235,163.4032],[85.6439,61.3876,160.7142],[85.75345,61.4378,176.0655],[85.77113,61.44346,177.3957],[85.95044,61.46472,182.2593],[85.96822,61.47465,181.4489],[85.97391,61.50834,190.5895],[85.97297,61.52689,190.9968],[85.96863,61.53852,196.5471],[85.96336,61.5449,199.1527],[85.95623,61.55004,199.9324],[85.85402,61.59505,181.2878],[85.8442,61.59562,177.3567],[85.83469,61.59423,176.6573],[85.79986,61.58384,174.4283],[85.73185,61.57423,164.2809],[85.72193,61.57474,162.8275],[85.47957,61.62787,179.2305],[85.46717,61.63247,177.8947],[85.45797,61.63696,170.4809],[85.43141,61.65805,176.3263],[85.40298,61.68497,186.8085],[85.38614,61.69809,182.7997],[85.37591,61.70112,181.329],[85.36578,61.7013,182.7563],[85.35668,61.69954,188.3997],[85.31379,61.68636,179.5323],[85.29426,61.68326,167.5629],[85.27266,61.68259,158.5632],[85.17178,61.70347,159.9146],[85.15835,61.70846,176.9761],[85.12031,61.73768,185.7149],[85.08683,61.75416,171.1493],[85.00053,61.78543,164.5195],[84.94151,61.79612,159.8778],[84.91909,61.79654,159.7861],[84.82752,61.78672,152.5309],[84.70463,61.80455,147.694],[84.68975,61.80997,147.7397],[84.68106,61.8153,149.3058],[84.67838,61.82005,156.9897],[84.67528,61.8247,157.4029],[84.66783,61.83902,159.0955],[84.65543,61.85757,155.2136],[84.64737,61.86697,151.6861],[84.64127,61.87199,151.8083],[84.62722,61.87881,153.0916],[84.55683,61.89798,157.9053],[84.54598,61.90284,156.2999],[84.53761,61.91178,142.1062],[84.53451,61.91643,141.0936],[84.52335,61.93004,143.0482],[84.52076,61.93467,147.6125],[84.5187,61.93953,144.7751],[84.52014,61.94506,146.0237],[84.55094,61.9881,162.2308],[84.5528,61.99306,161.7143],[84.55332,61.9965,166.759],[84.5527,61.99906,165.1037],[84.55125,62.00149,159.3229],[84.4357,62.17796,158.1624],[84.42578,62.19016,157.9038],[84.41741,62.20558,159.144],[84.41565,62.21083,154.5547],[84.41059,62.22085,154.3301],[84.40439,62.23036,149.001],[84.40015,62.23504,149.1538],[84.39519,62.2392,149.6327],[84.38868,62.24295,150.0016],[84.29897,62.2702,155.0632],[84.28905,62.27622,169.5542],[84.28812,62.28168,169.5995],[84.28843,62.28772,165.0458],[84.28832,62.29356,159.3144],[84.28894,62.29943,170.1457],[84.28522,62.32157,161.1192],[84.28316,62.32679,171.3979],[84.27985,62.3316,160.4403],[84.26424,62.35004,174.7697],[84.26114,62.3548,173.5564],[84.25277,62.36395,170.4605],[84.24285,62.37258,165.2928],[84.23696,62.37671,168.1087],[84.22828,62.37991,166.042],[84.21794,62.38245,159.248],[84.20151,62.38312,166.0664],[84.09588,62.37511,152.444],[84.0779,62.37754,152.7381],[84.01919,62.39676,156.4647],[83.99542,62.40803,156.3343],[83.98488,62.41557,159.1309],[83.98023,62.41989,159.7556],[83.96245,62.45484,172.5688],[83.95532,62.46435,166.027],[83.94788,62.47939,169.7213],[83.94271,62.48363,172.9864],[83.79822,62.56026,185.9312],[83.78882,62.56311,185.0961],[83.77807,62.56442,184.1776],[83.76133,62.56249,185.0039],[83.75016,62.55985,183.7703],[83.62666,62.51226,182.4277],[83.59059,62.50461,180.6302],[83.57043,62.50285,177.665],[83.5602,62.50389,178.2718],[83.55266,62.50662,182.2925],[83.54625,62.51872,178.1934],[83.54108,62.5229,184.1776],[83.53292,62.52481,185.2339],[83.40073,62.49076,166.7281],[83.31071,62.45701,159.3601],[83.28291,62.46053,172.213],[83.03352,62.52952,148.748],[83.02638,62.53324,147.747],[83.02194,62.53763,147.7537],[83.01987,62.54275,147.2475],[83.01956,62.54812,147.2842],[83.02204,62.55396,147.3657],[83.02535,62.55962,147.4248],[83.02783,62.5659,147.9588],[83.02876,62.57179,152.9879],[83.02731,62.57706,149.9183],[83.02483,62.58207,150.1957],[83.02049,62.58667,149.471],[83.01574,62.59104,150.2244],[83.00995,62.59468,150.9581],[82.79208,62.65674,164.9084],[82.75808,62.67013,168.854],[82.74103,62.68015,165.4365],[82.74309,62.6923,168.4629],[82.75994,62.73824,195.9266],[82.76056,62.74434,183.4165],[82.75829,62.7494,170.9389],[82.7493,62.7539,183.8489],[82.73266,62.75723,175.4736],[82.46983,62.77948,169.2151],[82.3702,62.76806,152.4796],[82.31697,62.76966,152.6344],[82.28793,62.77508,156.7687],[82.22096,62.79808,179.6456],[82.16494,62.80945,187.6945],[82.14034,62.81069,184.4132],[82.11182,62.80857,163.4885],[82.07347,62.80004,142.8842],[81.96857,62.7601,142.3182],[81.83979,62.69194,138.0535],[81.81209,62.68553,140.4738],[81.78398,62.68845,142.8365],[81.63495,62.73421,160.1994],[81.62037,62.74741,159.091],[81.61634,62.75307,162.0485],[81.61386,62.75808,163.8628],[81.612,62.76351,156.4709],[81.60756,62.76852,160.8057],[81.60043,62.77307,159.2105],[81.34917,62.82115,170.7487],[81.33936,62.82578,178.4737],[81.3346,62.83281,170.6723],[81.33191,62.83877,184.7351],[81.32757,62.86448,200.9002],[81.32323,62.87983,180.6261],[81.32075,62.88484,175.7869],[81.30732,62.89337,182.9344],[81.19497,62.94965,174.3059],[81.1896,62.95394,172.7034],[81.17471,62.97166,166.9275],[81.13709,63.03403,151.5075],[81.13069,63.04824,173.1393],[81.12728,63.05817,185.8508],[81.12418,63.08395,158.4171],[81.1218,63.09444,132.5786],[81.12087,63.10493,144.6814],[81.12107,63.11046,143.5312],[81.11498,63.11553,152.4827],[81.07467,63.11744,181.1426],[80.76637,63.1038,164.141],[80.63087,63.09232,179.6945],[80.59149,63.0854,183.2468],[80.58416,63.08256,187.4044],[80.58219,63.07853,192.5844],[80.58075,63.06752,194.9709],[80.58157,63.06168,198.4932],[80.58157,63.05563,189.6759],[80.5825,63.0499,165.9407],[80.58199,63.04385,186.061],[80.58219,63.03786,185.8081],[80.58033,63.0314,183.9183],[80.57765,63.02525,185.5751],[80.57444,63.019,181.5383],[80.5702,63.01357,170.345],[80.56493,63.00866,175.3694],[80.55977,63.00468,171.1678],[80.55294,63.00086,171.9428],[80.55108,63.00013,172.3909],[80.54168,62.99771,171.4314],[80.48825,62.99181,169.5992],[80.47553,62.9882,163.0305],[80.46592,62.98406,164.2389],[80.43936,62.96003,178.2341],[80.42696,62.95145,174.1756],[80.41083,62.945,174.4332],[80.37301,62.936,154.6228],[80.31771,62.93055,169.3622],[80.30717,62.92838,161.2029],[80.29973,62.92484,158.4208],[80.2956,62.91962,164.1138],[80.29291,62.91368,165.0185],[80.28929,62.90789,164.1126],[80.2833,62.90386,167.7796],[80.21033,62.8842,155.8019],[80.14563,62.85898,145.8827],[80.08744,62.82989,147.06],[80.07318,62.82619,147.6824],[79.96022,62.81214,135.261],[79.91474,62.79203,143.9668],[79.90999,62.78725,148.0661],[79.90751,62.78134,150.9687],[79.90658,62.77508,154.0872],[79.9073,62.76914,154.9401],[79.90751,62.75715,146.932],[79.9044,62.73813,140.0628],[79.90409,62.73178,138.8688],[79.90627,62.71416,127.5],[79.90502,62.7077,129.6501],[79.90265,62.70121,129.0484],[79.89924,62.69514,129.4353],[79.88911,62.68191,130.1434],[79.8487,62.61437,135.9893],[79.83609,62.6077,134.7865],[79.82007,62.60372,140.0517],[78.79305,62.61509,117.5392],[78.61828,62.59277,117.6557],[78.5232,62.57024,112.5983],[78.37943,62.56776,112.5889],[78.13862,62.50639,102.953],[78.03889,62.46435,103.0],[78.02628,62.4611,104.1165],[78.0147,62.46146,105.3419],[78.00013,62.4636,105.2173],[77.9777,62.4721,104.2065],[77.96654,62.478,103.8417],[77.9591,62.48373,104.8721],[77.95507,62.48851,105.0654],[77.93181,62.52311,106.8737],[77.90184,62.54995,113.4102],[77.89585,62.5538,114.5192],[77.88902,62.55727,114.604],[77.32699,62.71044,110.9915],[77.2686,62.74496,116.4683],[77.15801,62.79146,123.4957],[77.14519,62.79911,123.9973],[77.13217,62.81296,128.346],[77.09166,62.87322,132.9145],[77.08546,62.88918,130.1651],[77.08297,62.89368,134.6867],[77.07987,62.90099,135.2588],[77.07708,62.90549,131.5337],[77.07491,62.91053,131.4905],[77.07202,62.91575,135.8918],[77.05435,62.94053,131.0132],[77.04101,62.95391,130.1348],[77.03853,62.95859,132.4582],[77.03729,62.96231,134.1781],[77.03564,62.97047,129.9978],[77.02623,62.97502,127.8605],[76.92143,62.99187,132.4772],[76.8433,62.98998,131.8564],[76.82449,62.99171,130.4143],[76.72723,63.02918,130.2976],[76.68837,63.03941,129.0443],[76.65912,63.04163,129.0811],[76.62264,63.03778,126.8476],[76.33832,62.96401,127.7886],[76.30586,62.95127,126.849],[76.29739,62.94965,127.7047],[76.28943,62.95001,130.5919],[76.28623,62.95357,126.4623],[76.28468,62.95807,129.7417],[76.28406,62.96306,122.5913],[76.28406,62.96794,123.9701],[76.28282,62.97269,126.4588],[76.28034,62.97745,124.2272],[76.27693,62.98215,130.2881],[76.24675,63.01473,127.4036],[76.24024,63.01884,127.7447],[75.96418,63.07904,120.0],[75.93958,63.08018,121.0],[75.91633,63.08964,121.0],[75.90289,63.09915,123.5484],[75.89514,63.10354,123.0],[75.88088,63.10778,123.2719],[75.86124,63.11108,123.2547],[75.80274,63.11398,125.0],[75.78362,63.1102,126.7759],[75.74135,63.09651,126.6791],[75.6997,63.09124,126.7291],[75.59242,63.09005,127.5148],[75.47718,63.10395,130.8839],[75.3636,63.10783,148.4358],[75.28174,63.09713,144.694],[75.24329,63.07992,135.1293],[75.23317,63.07708,134.9356],[75.14986,63.06155,130.3421],[75.13271,63.06111,129.4757],[75.06625,63.06561,135.1934],[75.04424,63.06424,132.8625],[75.0276,63.06173,130.3132],[74.92734,63.03372,127.7908],[74.91453,63.03202,127.6622],[74.50742,63.04323,112.3078],[74.48293,63.04786,114.2142],[74.45864,63.05923,114.3054],[74.37575,63.11424,118.5],[74.25348,63.16863,136.9051],[74.24108,63.17201,136.8502],[73.56918,63.19227,122.8809],[73.52836,63.18514,126.0772],[73.50676,63.18452,123.1523],[73.48381,63.1862,122.8907],[73.45415,63.19144,124.2221],[73.43503,63.19309,125.642],[73.36806,63.20694,121.4777],[73.34325,63.22927,128.0214],[73.32506,63.25133,129.5818],[73.3139,63.27433,129.0515],[73.30067,63.29552,129.68],[73.28393,63.31502,132.1067],[73.23029,63.34482,129.6844],[73.1874,63.37432,128.0554],[73.19629,63.38921,124.8909],[73.10379,63.43626,133.2273],[72.907,63.39329,138.6738],[72.85553,63.36249,129.9265],[72.84509,63.34849,126.5355],[72.83238,63.3398,126.2765],[72.68996,63.28671,136.8026],[72.65503,63.28017,137.7559],[72.16079,63.29924,137.4679],[72.14912,63.29769,144.8091],[72.13599,63.2935,139.5121],[72.00287,63.20767,131.2985],[71.98768,63.20193,133.8117],[71.9637,63.19707,129.7975],[71.89611,63.21092,143.7316],[71.80547,63.21888,138.9709],[71.60796,63.18524,147.5768],[71.5691,63.55142,106.8983],[71.56228,63.57054,105.5],[71.55101,63.58997,105.0],[71.49758,63.6247,105.7898],[71.40373,63.67048,108.7552],[71.38761,63.67461,110.661],[71.20261,63.69312,108.0],[71.11574,63.68901,111.5],[71.02949,63.68492,117.5269],[71.00851,63.68645,117.4921],[70.93389,63.68449,117.6932],[70.92345,63.68722,120.5285],[70.91384,63.69239,113.5037],[70.90371,63.70516,113.7018],[70.89224,63.72402,112.9601],[70.82847,63.80184,101.5],[70.82403,63.8113,99.3779],[70.81938,63.81639,97.5],[70.81318,63.82171,97.5],[70.75695,63.85057,96.6314],[70.72946,63.86819,93.7794],[70.7123,63.87657,93.5744],[70.6536,63.8922,93.4639],[70.64419,63.89713,93.4687],[70.63768,63.90323,96.3809],[70.63438,63.91253,94.0051],[70.63376,63.91912,97.4004],[70.63531,63.92995,99.6805],[70.63376,63.93568,98.4352],[70.62911,63.94189,99.2334],[70.58952,63.97077,100.7892],[70.55862,64.00049,100.0469],[70.55831,64.00224,100.0438],[70.56079,64.00638,100.3244],[70.56968,64.01542,100.913],[70.75478,64.10022,110.1936],[70.77576,64.11433,107.214],[70.78455,64.1319,110.7182],[70.7891,64.15112,107.96],[70.78289,64.17259,108.9139],[70.76894,64.19355,112.7182],[70.70497,64.22647,110.0],[70.68616,64.23329,112.1284],[70.6721,64.2368,112.2278],[70.47273,64.25161,117.6559],[70.4503,64.26109,116.1246],[70.30685,64.34357,122.1779],[70.2468,64.35008,119.9614],[70.22438,64.34961,122.5881],[70.2097,64.34749,121.8577],[70.16298,64.33587,119.5315],[70.13291,64.32486,121.2148],[70.09828,64.31757,121.1997],[69.99989,64.31589,124.1333],[69.82533,64.34103,125.8747],[69.80332,64.35845,119.0204],[69.77303,64.37648,111.5743],[69.73293,64.39416,113.5496],[69.69314,64.4,109.1811],[69.38959,64.38852,98.8391],[69.37854,64.39039,100.5389],[69.3683,64.39529,99.3302],[69.36086,64.39995,98.8286],[69.35032,64.4092,97.9522],[69.33678,64.41788,96.8493],[69.28955,64.43868,98.5425],[69.24407,64.46583,95.7336],[69.23084,64.47002,97.2869],[69.21358,64.47188,97.0772],[69.14547,64.45718,103.3559],[69.11767,64.45534,100.4622],[69.09494,64.45777,102.4517],[69.07974,64.46118,106.4489],[69.06806,64.46526,106.2528],[69.05194,64.47343,114.2234],[69.01484,64.47183,103.4972],[68.89319,64.44268,113.184],[68.86467,64.4385,108.8204],[68.85919,64.43571,111.5023],[68.86043,64.43183,110.2039],[68.86373,64.42744,110.8022],[68.86818,64.42284,108.1648],[68.96688,64.3523,103.8531],[68.98786,64.33426,85.734],[68.99045,64.32961,85.8176],[68.9891,64.32455,87.6873],[68.98476,64.31928,92.881],[68.96874,64.30848,101.5145],[68.89484,64.27396,101.9273],[68.88854,64.26926,105.5513],[68.88523,64.26435,105.4085],[68.88337,64.25939,105.5935],[68.88513,64.23977,99.9242],[68.8873,64.23029,106.104],[68.88616,64.2259,109.0289],[68.88213,64.22264,118.7468],[68.87407,64.22037,114.8214],[68.8533,64.21784,107.1153],[68.83066,64.21784,99.9147],[68.81061,64.22125,111.0178],[68.68679,64.25634,110.378],[68.45456,64.29623,103.9462],[68.425,64.29597,101.4647],[68.25561,64.22295,100.8016],[68.20651,64.20771,104.9774],[68.19866,64.20383,103.9208],[68.1937,64.19892,99.4911],[68.19101,64.19396,102.6433],[68.18915,64.18404,106.5019],[68.18636,64.17973,94.7817],[68.17861,64.17616,98.9209],[68.01231,64.12327,94.4405],[67.93563,64.11759,112.2964],[67.92632,64.11552,100.6087],[67.91992,64.11141,96.4737],[67.91392,64.10637,102.012],[67.89821,64.09009,114.8118],[67.88498,64.07937,112.1158],[67.84033,64.05671,120.2158],[67.82432,64.04581,134.5176],[67.81863,64.04043,115.4738],[67.81429,64.03565,133.3275],[67.80933,64.03201,134.4793],[67.79889,64.03165,131.7496],[67.78607,64.03379,133.173],[67.70112,64.07394,129.391],[67.69027,64.07705,142.6838],[67.6791,64.07903,141.5122],[67.57503,64.07061,142.1576],[67.56056,64.07252,142.2777],[67.54258,64.07666,134.9581],[67.51415,64.08606,152.1491],[67.49369,64.08808,149.0633],[67.48108,64.08746,152.9826],[67.47736,64.08327,150.6204],[67.47509,64.07407,148.2883],[67.47116,64.07035,142.6608],[67.4633,64.06803,160.3639],[67.45442,64.06767,149.6543],[67.44697,64.06901,148.7495],[67.44284,64.07449,158.9801],[67.43705,64.08467,149.0045],[67.43312,64.08934,124.8452],[67.42537,64.0933,153.9289],[67.41411,64.09609,157.7652],[67.3984,64.09666,140.3251],[67.30331,64.08493,137.6947],[67.28791,64.08053,165.6862],[67.28068,64.08061,143.333],[67.26621,64.08901,166.4816],[67.26342,64.09536,152.1301],[67.26311,64.1018,141.3564],[67.26404,64.10689,149.5799],[67.26383,64.11185,165.1596],[67.25763,64.1165,171.4478],[67.24668,64.12043,188.2977],[67.22528,64.12363,189.7648],[67.17547,64.1234,195.7355],[67.16616,64.12513,195.0626],[67.16027,64.13074,182.8539],[67.1612,64.13624,171.2479],[67.16565,64.14213,171.8219],[67.17671,64.15314,163.3919],[67.17681,64.15836,175.824],[67.17092,64.16285,167.5101],[67.08638,64.1734,176.1845],[67.06064,64.17306,160.5904],[66.88804,64.19794,154.9652],[66.81869,64.22561,151.9355],[66.80536,64.24037,156.2097],[66.79699,64.25706,139.6653],[66.79482,64.27256,156.1764],[66.79451,64.28062,166.2543],[66.79616,64.28693,160.0047],[66.80267,64.29732,130.858],[66.80505,64.30248,136.6026],[66.80443,64.30739,121.8842],[66.80205,64.31215,107.137],[66.79585,64.32129,110.2218],[66.79637,64.32615,106.8008],[66.80112,64.33101,103.0895],[66.80856,64.33623,116.2551],[66.84536,64.35282,96.1278],[66.88019,64.37276,108.1675],[66.88732,64.37814,103.9521],[66.89166,64.38346,107.7525],[66.89383,64.38863,101.356],[66.89383,64.39364,97.806],[66.89517,64.39865,95.0948],[66.89755,64.40387,102.4086],[66.90189,64.4092,111.7459],[66.93538,64.43736,103.9385],[66.93941,64.44268,104.2264],[66.9393,64.44759,92.2005],[66.93775,64.4524,102.2404],[66.93538,64.45718,123.7483],[66.93372,64.46198,124.5408],[66.93321,64.46697,128.505],[66.93383,64.47193,111.7561],[66.936,64.47707,129.6298],[66.93713,64.48206,92.9081],[66.93631,64.48705,100.0755],[66.93259,64.49167,74.9341],[66.92742,64.49612,70.0113],[66.90478,64.50883,69.5947],[66.88029,64.51648,77.2289],[66.68165,64.55746,29.8364],[66.64826,64.55606,35.6731],[66.48497,64.52919,33.5159],[66.47794,64.52614,35.6054],[66.47391,64.52185,32.7592],[66.4705,64.51689,27.9603],[66.46564,64.51198,10.9805],[66.43401,64.51524,23.8695],[66.14607,64.58593,28.3853],[66.019049999999993,64.59482,11.0845],[65.96448,64.58895,11.4067],[65.92541,64.57596,10.1192],[65.90516,64.5712,10.5503],[65.88345,64.56862,11.2649],[65.79271,64.56658,10.2292],[65.78155,64.56815,10.4973],[65.76956,64.57094,11.622],[65.75839,64.57585,11.4513],[65.73049,64.57872,9.7301],[65.39966,64.57136,6.9647],[65.38043,64.56583,11.8518],[65.33372,64.5457,10.1808],[65.29269,64.52234,9.725],[65.20029,64.45384,10.5762],[65.18995,64.44888,10.2913],[65.1759,64.44578,14.7147],[65.01188,64.46542,35.7654],[64.99524,64.46588,45.9932],[64.76083,64.42684,143.8923],[64.71288,64.42465,148.5472],[64.62224,64.43868,157.7421],[64.60115,64.43731,165.4596],[64.581,64.42746,171.5396],[64.50152,64.37101,165.9707],[64.47703,64.36021,165.5002],[64.44426,64.35623,169.7512],[64.01618,64.35744,142.8247],[64.00202,64.35561,146.9314],[63.99271,64.35168,145.4436],[63.98538,64.34698,140.3166],[63.97669,64.34282,139.2811],[63.91096,64.3198,130.6895],[63.90362,64.31576,134.4001],[63.8997,64.31086,121.7448],[63.89877,64.306,120.3467],[63.89959,64.29608,128.5684],[63.89897,64.2913,134.6525],[63.89567,64.28714,139.6827],[63.88791,64.2844,137.2571],[63.8782,64.28256,134.5728],[63.83427,64.27949,114.3342],[63.78704,64.2813,115.5374],[63.61145,64.26848,138.3155],[63.58075,64.27256,118.2291],[63.55305,64.28331,134.4177],[63.53558,64.28683,152.5272],[63.52101,64.28838,156.709],[63.49889,64.28755,141.6059],[63.48794,64.28853,140.2755],[63.47833,64.29132,137.7278],[63.46913,64.29499,134.4945],[63.41714,64.32388,145.3772],[63.41342,64.32822,146.9207],[63.41683,64.33282,150.0836],[63.42355,64.33731,149.7907],[63.50262,64.37114,123.6518],[63.5053,64.37519,114.059],[63.50437,64.37969,105.8674],[63.50137,64.3848,105.9638],[63.48122,64.41075,99.9815],[63.47492,64.42137,103.5833],[63.47027,64.44098,99.5659],[63.46665,64.45054,102.0029],[63.46313,64.45519,102.5352],[63.45828,64.45948,102.651],[63.44711,64.46247,103.384],[63.43595,64.46335,103.7041],[63.39213,64.46152,117.4155],[63.38211,64.46366,119.5122],[63.37311,64.46836,114.8423],[63.3605,64.47632,110.4008],[63.33994,64.48658,109.8524],[63.237,64.52356,106.2247],[63.22615,64.52531,112.8554],[63.21478,64.52596,111.7709],[62.96084,64.50325,91.5799],[62.95133,64.49984,87.5448],[62.91753,64.48082,87.9256],[62.90865,64.47762,81.1285],[62.89986,64.47661,76.9953],[62.88953,64.47862,77.8114],[62.85263,64.49338,101.4851],[62.8424,64.49643,89.4427],[62.83258,64.49826,93.9026],[62.79093,64.49325,87.6034],[62.69915,64.49219,81.799]]]}}