{"type":"Feature","properties":{"GID_2":"RUS.30.2_1","GID_0":"RUS","country":"Russia","GID_1":"RUS.30_1","province":"Khanty-Mansiy","NL_NAME_1":"Ханты-МансийскийАОк","county":"Beloyarsky","VARNAME_2":"NA","NL_NAME_2":"Белоярский","TYPE_2":"Gorod","ENGTYPE_2":"City","CC_2":"NA","HASC_2":"RU.KM.BG","name":"Beloyarsky.county"},
"geometry":{"type": "MultiPolygon","coordinates": [[[[66.7397,63.6542,23.1104],[66.7543,63.665,26.6686],[66.7462,63.6761,25.3764],[66.7112,63.6865,21.6289],[66.6395,63.6785,21.5218],[66.6422,63.6612,20.3897],[66.6816,63.6412,22.4922],[66.7397,63.6542,23.1104]]]]}}