{"type":"Feature","properties":{"GID_2":"RUS.35.12_1","GID_0":"RUS","country":"Russia","GID_1":"RUS.35_1","province":"Krasnoyarsk","NL_NAME_1":"Красноярскийкрай","county":"Borodino","VARNAME_2":"NA","NL_NAME_2":"Бородино","TYPE_2":"Gorod","ENGTYPE_2":"City","CC_2":"NA","HASC_2":"RU.KY.BD","name":"Borodino.county"},
"geometry":{"type": "MultiPolygon","coordinates": [[[[94.9644,55.8846,369.5213],[94.969,55.8985,353.334],[94.9504,55.9114,267.1562],[94.9232,55.911,302.3833],[94.9074,55.9038,333.8534],[94.9074,55.8844,357.8906],[94.9484,55.8782,331.4236],[94.9644,55.8846,369.5213]]]]}}