{"type":"Feature","properties":{"GID_2":"RUS.56.11_1","GID_0":"RUS","country":"Russia","GID_1":"RUS.56_1","province":"Primor'ye","NL_NAME_1":"Приморскийкрай","county":"Kavalerovskiyrayon","VARNAME_2":"NA","NL_NAME_2":"Кавалеровскийрайон","TYPE_2":"Raion","ENGTYPE_2":"District","CC_2":"R66000","HASC_2":"RU.PR.KA","name":"Kavalerovskiyrayon.county"},
"geometry":{"type": "MultiPolygon","coordinates": [[[[134.5056,44.0039,942.3591],[134.5479,43.9866,547.7949],[134.6172,44.0442,460.9769],[134.6645,44.0554,607.7762],[134.6783,44.1105,661.9379],[134.6739,44.1529,1159.0739],[134.7158,44.1706,691.7256],[134.7821,44.1674,560.1136],[134.8208,44.1469,771.2759],[134.8596,44.1156,637.3529],[134.8897,44.1028,897.7949],[134.9576,44.0966,644.8349],[134.9932,44.0708,629.8052],[135.0745,44.0501,753.0204],[135.1532,44.0497,619.1696],[135.2241,44.071,576.0236],[135.2748,44.1137,321.1775],[135.289,44.1388,361.2373],[135.3159,44.1692,401.6747],[135.3741,44.1775,425.5818],[135.4048,44.2267,204.5905],[135.4859,44.2003,140.0808],[135.5735,44.1636,56.8709],[135.6482,44.1257,18.9649],[135.6573,44.1351,20.825],[135.6533,44.1405,12.4241],[135.6544,44.1438,0.0],[135.6476,44.1538,0.0],[135.6462,44.1661,0.0],[135.6485,44.1755,0.7458],[135.6861,44.1919,0.0],[135.6884,44.202,36.2165],[135.6918,44.2044,0.0],[135.6933,44.2083,1.4564],[135.6964,44.2092,34.6906],[135.7008,44.2135,0.0],[135.7056,44.2231,0.4231],[135.7204,44.2394,3.9578],[135.7367,44.2486,0.0],[135.7669,44.2552,0.0],[135.7751,44.2548,0.0],[135.7854,44.2596,0.0],[135.789,44.2634,55.9398],[135.7941,44.2644,0.0],[135.7962,44.2668,0.0],[135.7973,44.2777,12.6642],[135.801,44.2851,9.8071],[135.805,44.2873,0.0],[135.8074,44.2926,5.4635],[135.8156,44.2973,27.0553],[135.8234,44.3077,0.6682],[135.7778,44.2765,293.1806],[135.7325,44.2649,306.6806],[135.6548,44.334,350.9171],[135.6866,44.3698,365.1255],[135.6707,44.4152,84.6877],[135.6196,44.4072,291.3182],[135.5643,44.403,427.5128],[135.5301,44.4188,393.2792],[135.5101,44.4862,426.5664],[135.4867,44.5454,336.9433],[135.3972,44.6078,580.2694],[135.3074,44.6595,984.5131],[135.2462,44.6905,940.333],[135.2774,44.7274,1011.8878],[135.2523,44.7548,929.5618],[135.1649,44.751,796.5267],[135.0944,44.7295,818.1635],[135.0341,44.7163,834.6229],[134.9697,44.726,747.6604],[134.9116,44.7278,584.0596],[134.8382,44.6478,430.7267],[134.7913,44.5728,894.6298],[134.8102,44.5214,996.2887],[134.8611,44.4609,581.4373],[134.9093,44.4173,650.0518],[134.9285,44.3848,527.0035],[134.9047,44.3435,648.9279],[134.8554,44.3023,428.9941],[134.8025,44.2881,437.9307],[134.7274,44.2949,584.0344],[134.6448,44.3144,629.8566],[134.5792,44.3128,733.8356],[134.528,44.2553,1019.6611],[134.5143,44.1928,437.3671],[134.5084,44.144,545.6754],[134.48,44.0865,518.2173],[134.4393,44.0309,892.0221],[134.5056,44.0039,942.3591]]]]}}