{"type":"Feature","properties":{"GID_3":"RUS.2.40.1_1","GID_0":"RUS","country":"Russia","GID_1":"RUS.2_1","province":"Altay","NL_NAME_1":"Алтайскийкрай","GID_2":"RUS.2.40_1","county":"Rubtsovsk","NL_NAME_2":"Рубцовск","city":"NA","VARNAME_3":"NA","NL_NAME_3":"NA","TYPE_3":"NA","ENGTYPE_3":"NA","CC_3":"NA","HASC_3":"NA","name":"N_A.city"},
"geometry":{"type": "MultiPolygon","coordinates": [[[[81.1883,51.5367,217.6243],[81.1881,51.5501,215.4508],[81.1805,51.5614,213.9979],[81.159,51.5636,214.2786],[81.1463,51.5598,215.437],[81.1492,51.5432,217.287],[81.1546,51.5366,216.0824],[81.1661,51.5327,216.5443],[81.1883,51.5367,217.6243]]]]}}