{"type":"Feature","properties":{"GID_2":"RUS.12.2_1","GID_0":"RUS","country":"Russia","GID_1":"RUS.12_1","province":"Chukot","NL_NAME_1":"ЧукотскийАОк","county":"Beringovskiyrayon","VARNAME_2":"NA","NL_NAME_2":"Беринговский","TYPE_2":"Raion","ENGTYPE_2":"District","CC_2":"NA","HASC_2":"RU.CK.BE","name":"Beringovskiyrayon.county"},
"geometry":{"type": "MultiPolygon","coordinates": [[[[174.3896,61.8187,0.0],[174.3958,61.8187,0.0],[174.4,61.8209,2.9882],[174.3819,61.8187,3.9459],[174.3896,61.8187,0.0]]],
[[[174.7745,61.9005,2.692],[174.7745,61.9016,2.264],[174.7713,61.9016,0.0],[174.7713,61.9005,0.0],[174.7745,61.9005,2.692]]],
[[[174.7667,61.9063,0.0],[174.7708,61.9042,0.0],[174.7766,61.9068,0.0],[174.7786,61.9099,0.0],[174.775,61.9125,0.0],[174.7703,61.9089,0.0],[174.763,61.9078,0.0],[174.7609,61.9047,0.2083],[174.7667,61.9063,0.0]]],
[[[174.7229,61.9146,0.6986],[174.7266,61.9151,0.0],[174.7266,61.9161,0.0],[174.7229,61.9167,0.0],[174.7229,61.9146,0.6986]]],
[[[174.8141,61.9151,0.0],[174.8141,61.9161,4.5847],[174.8109,61.9161,3.5923],[174.8109,61.9151,4.0213],[174.8141,61.9151,0.0]]],
[[[174.8172,61.9203,0.0],[174.8188,61.9188,2.5603],[174.825,61.9188,0.0],[174.825,61.9208,3.9307],[174.8172,61.9203,0.0]]],
[[[174.8354,61.9333,0.0],[174.8479,61.9333,0.0],[174.8479,61.9354,0.0],[174.8438,61.9375,0.0],[174.8396,61.9375,0.0],[174.8338,61.9349,0.0],[174.8354,61.9333,0.0]]],
[[[174.7161,61.9359,0.0],[174.7146,61.9375,0.0],[174.713,61.937,0.0],[174.7146,61.9354,0.0],[174.7161,61.9359,0.0]]],
[[[174.7036,61.9432,0.0],[174.7005,61.9432,0.0],[174.7005,61.9422,0.0],[174.7036,61.9422,0.0],[174.7036,61.9432,0.0]]],
[[[175.0953,61.9672,0.0],[175.0953,61.9682,0.0],[175.0922,61.9682,0.0],[175.0938,61.9667,0.0],[175.0953,61.9672,0.0]]],
[[[175.2932,62.088,0.0],[175.2932,62.0891,0.0],[175.2901,62.0891,0.0],[175.2901,62.088,0.0],[175.2932,62.088,0.0]]],
[[[175.3188,62.0875,0.0],[175.3172,62.0859,0.0],[175.3208,62.0833,0.0],[175.3266,62.0859,0.0],[175.325,62.0875,0.0],[175.3188,62.0875,0.0]]],
[[[176.9182,62.5109,5.8538],[176.9167,62.5125,6.6312],[176.9083,62.5125,0.0],[176.9083,62.5104,6.9843],[176.9042,62.5104,6.4064],[176.9026,62.5089,6.7933],[176.9083,62.5083,4.5146],[176.9182,62.5109,5.8538]]],
[[[177.2708,62.5521,6.5232],[177.2672,62.5516,6.2294],[177.2672,62.5505,6.143],[177.2708,62.55,0.0],[177.2708,62.5521,6.5232]]],
[[[171.3172,62.3364,678.4102],[171.2519,62.3165,974.5163],[171.1796,62.311,919.5258],[171.1244,62.3087,924.6434],[171.1103,62.2473,740.0553],[171.1623,62.2541,1066.1099],[171.2171,62.2838,764.7417],[171.2513,62.2792,784.9913],[171.2309,62.2324,613.7086],[171.3826,62.252,526.7855],[171.4599,62.2826,521.8663],[171.6804,62.3063,637.1719],[171.6849,62.3341,821.7046],[171.7502,62.3642,800.8975],[171.7907,62.3623,993.7657],[171.8632,62.3921,524.2859],[171.9394,62.412,555.9781],[172.0599,62.3889,451.9873],[172.1084,62.3467,759.3541],[172.2712,62.3503,299.5281],[172.3315,62.3779,567.3948],[172.4659,62.3917,314.601],[172.6524,62.358,336.086],[172.7692,62.3105,295.3307],[172.8507,62.3473,285.4756],[172.9518,62.3596,369.0469],[173.0209,62.3824,636.5269],[173.0799,62.4066,489.4504],[173.2303,62.431,669.5762],[173.3978,62.4679,567.5615],[173.5315,62.4762,305.4412],[173.6733,62.4997,313.2569],[173.7817,62.484,241.2228],[173.8285,62.4406,123.8256],[173.9549,62.4364,296.9789],[174.0423,62.4049,209.0986],[174.092,62.3294,252.5896],[174.001,62.2936,431.2566],[173.925,62.2386,305.6217],[174.0293,62.2097,453.2575],[174.0596,62.1552,604.2003],[174.0506,62.0887,112.8032],[174.1187,62.0654,354.9013],[174.2378,62.0793,512.0607],[174.2788,62.0449,368.8784],[174.2802,61.9958,315.0095],[174.3609,61.9642,294.9657],[174.3804,61.9174,15.2579],[174.3844,61.9018,15.2239],[174.4555,61.872,172.2193],[174.4517,61.8403,150.3708],[174.4429,61.8247,341.9914],[174.4365,61.8253,112.706],[174.4,61.8209,2.9882],[174.4292,61.8208,0.0],[174.4333,61.8229,31.3161],[174.4443,61.8151,0.0],[174.4495,61.8141,110.7293],[174.4464,61.8109,0.0],[174.4557,61.8099,8.2836],[174.4604,61.8063,0.0],[174.4688,61.8063,0.0],[174.4729,61.8083,34.1151],[174.5083,61.8083,0.0],[174.5099,61.8089,0.0],[174.5089,61.812,35.1153],[174.5188,61.8125,0.0],[174.525,61.8167,0.0],[174.5333,61.8167,0.0],[174.5375,61.8187,0.0],[174.55,61.8187,0.0],[174.5542,61.8208,0.0],[174.5646,61.8208,0.0],[174.5688,61.8229,9.8493],[174.575,61.8208,0.0],[174.5833,61.8208,0.0],[174.5875,61.8229,7.5867],[174.5958,61.8229,0.0],[174.6062,61.8271,9.38],[174.612,61.8276,0.0],[174.6167,61.8312,2.5206],[174.6375,61.8333,0.0],[174.6391,61.8339,0.0],[174.638,61.837,0.0],[174.6479,61.8375,0.0],[174.6542,61.8417,0.0],[174.6625,61.8417,0.0],[174.6854,61.8479,0.0],[174.6938,61.8479,0.0],[174.7042,61.8521,20.3465],[174.7167,61.8521,0.0],[174.7307,61.8609,0.0],[174.7297,61.8641,42.1202],[174.7328,61.8651,0.0],[174.7318,61.8682,60.2023],[174.7349,61.8693,0.0],[174.7318,61.8734,106.4792],[174.7349,61.8755,5.4307],[174.7339,61.8786,159.5472],[174.7396,61.8812,0.0],[174.7474,61.8818,0.0],[174.7505,61.887,2.1502],[174.7599,61.8901,0.0],[174.7589,61.8932,3.9915],[174.762,61.8953,0.0],[174.75,61.8958,0.0],[174.7484,61.8964,0.0],[174.7495,61.8995,0.0],[174.7417,61.9,1.0677],[174.7297,61.9047,1.0673],[174.7312,61.9083,0.0],[174.7287,61.912,0.0],[174.7229,61.9125,2.2155],[174.7229,61.9146,0.6986],[174.713,61.9151,2.4915],[174.7161,61.9182,0.0],[174.7047,61.9214,6.768],[174.7057,61.9266,0.0],[174.6979,61.9292,0.0],[174.6901,61.9297,4.2771],[174.6891,61.9328,0.0],[174.6839,61.9339,11.3534],[174.6807,61.9391,0.0],[174.6755,61.9401,12.0906],[174.6724,61.9453,0.0],[174.6672,61.9464,0.0],[174.6682,61.9495,0.0],[174.6604,61.95,0.0],[174.6547,61.9526,5.047],[174.6526,61.9557,1.0763],[174.6578,61.9578,0.0],[174.6484,61.9609,5.0608],[174.6453,61.9661,0.0],[174.6401,61.9672,24.4803],[174.6411,61.9703,0.0],[174.6318,61.9714,16.0775],[174.6375,61.975,0.0],[174.6583,61.9771,0.0],[174.6662,61.9745,0.0],[174.663,61.9714,0.0],[174.6682,61.9703,0.0],[174.6714,61.9672,0.0],[174.6849,61.9661,7.8924],[174.6818,61.9641,0.0],[174.6833,61.9625,0.0],[174.6938,61.9625,0.0],[174.6979,61.9646,0.0],[174.7021,61.9625,0.0],[174.7099,61.962,11.0077],[174.7068,61.9589,0.0],[174.7182,61.9557,27.3446],[174.7151,61.9536,0.0],[174.7172,61.9505,0.0],[174.7287,61.9474,4.2343],[174.7297,61.9443,0.0],[174.7349,61.9432,1.487],[174.7396,61.9375,0.0],[174.7542,61.9375,0.0],[174.7583,61.9396,1.2468],[174.7646,61.9396,0.0],[174.7875,61.9479,0.0],[174.8062,61.9479,0.0],[174.8104,61.9458,0.0],[174.825,61.9458,0.4216],[174.8292,61.9437,0.0],[174.8354,61.9437,0.0],[174.8396,61.9417,0.0],[174.85,61.9417,0.0],[174.8542,61.9396,0.0],[174.8641,61.9411,0.0],[174.8599,61.9339,2.9807],[174.8479,61.9333,0.0],[174.8479,61.9313,0.0],[174.8438,61.9292,2.571],[174.8396,61.9313,0.0],[174.8276,61.9307,0.0],[174.8297,61.9276,0.0],[174.8349,61.9255,0.0],[174.8276,61.9245,0.0],[174.825,61.9229,2.0555],[174.825,61.9208,3.9307],[174.8313,61.9208,0.0],[174.8354,61.9229,0.0],[174.8453,61.9234,0.0],[174.8443,61.9266,4.288],[174.8458,61.9271,4.0798],[174.8542,61.9271,0.0],[174.875,61.9354,4.03],[174.8792,61.9354,0.0],[174.8833,61.9375,4.4548],[174.8917,61.9375,0.0],[174.8979,61.9417,0.0],[174.9021,61.9417,0.0],[174.9208,61.9479,0.0],[174.9292,61.9479,0.0],[174.9354,61.9521,4.5829],[174.9396,61.9521,0.0],[174.95,61.9562,0.0],[174.9583,61.9562,0.0],[174.9667,61.9604,4.6282],[174.9729,61.9604,0.0],[174.9771,61.9625,4.6038],[174.9979,61.9625,0.0],[175.0021,61.9646,2.3898],[175.0104,61.9646,0.0],[175.0146,61.9667,1.9393],[175.0271,61.9667,0.0],[175.0313,61.9688,0.0],[175.0479,61.9688,0.0],[175.0604,61.9729,11.9649],[175.0729,61.9729,0.0],[175.0792,61.9771,67.5959],[175.0875,61.9771,0.0],[175.0979,61.9813,39.8932],[175.1104,61.9833,0.0],[175.1208,61.9875,4.7876],[175.1266,61.988,0.0],[175.1297,61.9911,21.7876],[175.1396,61.9938,25.4666],[175.1563,61.9938,0.0],[175.1604,61.9958,0.0],[175.1687,61.9958,0.0],[175.1792,62.0,0.0],[175.1875,62.0,0.0],[175.1917,62.0021,17.0199],[175.1958,62.0021,0.0],[175.2063,62.0062,0.0],[175.2203,62.0089,0.0],[175.2292,62.0146,0.0],[175.2349,62.013,0.0],[175.2339,62.0161,0.0],[175.2474,62.0214,0.0],[175.2464,62.0245,21.5857],[175.2536,62.0255,0.0],[175.2599,62.0297,0.0],[175.263,62.0349,91.2025],[175.2724,62.0359,0.0],[175.2755,62.0411,2.649],[175.2786,62.0422,0.0],[175.2734,62.0453,68.2392],[175.2849,62.0526,0.0],[175.2839,62.0557,1.55],[175.2932,62.0609,2.0392],[175.2912,62.0661,0.0],[175.2859,62.0672,5.2574],[175.2839,62.0693,7.9831],[175.287,62.0714,0.0],[175.2859,62.0745,0.0],[175.287,62.0766,0.0],[175.2839,62.0776,0.0],[175.2854,62.0812,0.0],[175.2839,62.0839,0.0],[175.2849,62.0891,0.0],[175.2797,62.0901,0.0],[175.2713,62.0964,0.0],[175.2745,62.0995,0.0],[175.2724,62.1016,0.0],[175.2672,62.1026,0.0],[175.2703,62.1057,0.0],[175.2651,62.1068,1.6188],[175.262,62.112,0.2107],[175.2526,62.113,0.7528],[175.2542,62.1167,0.0],[175.2526,62.1203,0.0],[175.2599,62.1255,0.0],[175.2589,62.1307,0.0],[175.262,62.1318,0.0],[175.2609,62.1349,8.7988],[175.2651,62.137,4.8362],[175.2813,62.1417,0.5081],[175.287,62.1411,0.0],[175.2849,62.138,0.0],[175.2818,62.137,0.0],[175.2828,62.1339,0.0],[175.2766,62.1297,0.0],[175.2693,62.1286,0.0],[175.2745,62.1266,0.0],[175.275,62.125,0.0],[175.2724,62.1214,0.0],[175.2672,62.1182,0.0],[175.2693,62.113,0.0],[175.2745,62.112,0.9537],[175.2818,62.1068,0.0],[175.287,62.1057,1.1003],[175.2943,62.0964,0.0],[175.3042,62.0958,0.0],[175.3083,62.0979,0.0],[175.3141,62.0974,2.1572],[175.3068,62.0901,0.0],[175.3125,62.0917,0.0],[175.3167,62.0896,1.3487],[175.3208,62.0896,0.0],[175.3266,62.0922,0.0],[175.3318,62.0995,0.0],[175.3391,62.1005,0.0],[175.3438,62.1042,0.0],[175.3479,62.1042,0.0],[175.3521,62.1063,0.0],[175.3604,62.1063,0.0],[175.3646,62.1083,0.0],[175.3771,62.1083,0.0],[175.3813,62.1063,0.0],[175.4083,62.1063,0.0],[175.4141,62.1089,0.0],[175.413,62.112,0.0],[175.4203,62.113,0.0],[175.4187,62.1167,0.0],[175.4208,62.1188,0.0],[175.425,62.1188,0.0],[175.4287,62.1161,0.0],[175.4255,62.113,0.0],[175.4354,62.1125,5.7823],[175.4422,62.1161,5.3432],[175.4495,62.1172,4.9072],[175.4542,62.1208,1.9665],[175.4625,62.1208,0.0],[175.4672,62.1245,5.1051],[175.4828,62.1276,0.0],[175.4875,62.1312,3.6198],[175.4958,62.1312,0.0],[175.5026,62.1349,4.5867],[175.5161,62.138,5.5739],[175.5208,62.1417,3.0293],[175.5292,62.1417,0.0],[175.5359,62.1453,5.3429],[175.5495,62.1484,0.0],[175.5547,62.1516,31.3505],[175.5708,62.1542,0.0],[175.5792,62.1583,27.4082],[175.5979,62.1604,0.0],[175.6125,62.1667,21.7887],[175.6208,62.1667,0.0],[175.6292,62.1708,17.1497],[175.6438,62.1729,0.0],[175.6521,62.1771,6.6183],[175.6599,62.1776,0.0],[175.6667,62.1813,22.2851],[175.675,62.1813,0.0],[175.6854,62.1854,0.0],[175.6911,62.1859,0.0],[175.6979,62.1896,12.7694],[175.7042,62.1896,0.0],[175.7167,62.1937,3.6965],[175.725,62.1937,0.0],[175.7521,62.2021,12.1159],[175.7604,62.2021,0.0],[175.775,62.2083,7.0112],[175.7833,62.2083,0.0],[175.7937,62.2125,23.9438],[175.8021,62.2125,0.0],[175.8062,62.2146,28.5426],[175.8271,62.2167,0.0],[175.8583,62.225,0.0],[175.8667,62.225,0.0],[175.8792,62.2292,0.0],[175.8854,62.2292,0.0],[175.9146,62.2375,4.5309],[175.9208,62.2375,0.0],[175.9266,62.2401,3.6356],[175.9255,62.2432,1.4419],[175.9312,62.2458,1.9973],[175.9354,62.2438,1.6397],[175.9396,62.2458,1.5749],[175.9563,62.2458,3.9621],[175.9604,62.2479,1.7162],[175.9688,62.2479,0.0],[175.9812,62.2521,2.8038],[175.9854,62.25,0.0],[175.9896,62.25,0.0],[175.9979,62.2542,4.8832],[176.0104,62.2542,0.0],[176.0146,62.2562,3.278],[176.0229,62.2562,0.0],[176.0458,62.2625,1.8026],[176.075,62.2646,0.0],[176.0792,62.2667,0.0],[176.0875,62.2667,0.0],[176.0917,62.2687,0.0],[176.0958,62.2687,0.0],[176.1,62.2708,17.9188],[176.1083,62.2708,0.0],[176.1125,62.2729,4.2852],[176.1292,62.2729,0.0],[176.1333,62.275,9.17],[176.1542,62.275,0.0],[176.1583,62.2771,11.5202],[176.1667,62.2771,3.0603],[176.1708,62.2792,2.6533],[176.175,62.2771,0.0],[176.1792,62.2771,0.0],[176.1833,62.2792,8.7915],[176.2,62.2792,0.0],[176.2063,62.2813,19.225],[176.2104,62.2792,0.0],[176.2146,62.2813,4.317],[176.2229,62.2813,0.0],[176.2333,62.2854,20.4158],[176.2458,62.2854,0.0],[176.25,62.2875,8.6157],[176.2625,62.2875,0.0],[176.2667,62.2896,0.0],[176.2708,62.2896,0.0],[176.2792,62.2938,12.2842],[176.2854,62.2938,0.0],[176.2937,62.2979,0.0],[176.2995,62.2984,0.0],[176.3026,62.3016,9.1552],[176.3083,62.3021,4.0768],[176.313,62.3057,11.3507],[176.3203,62.3068,0.0],[176.3276,62.312,6.5428],[176.3432,62.3151,0.0],[176.3422,62.3182,0.0],[176.3516,62.3234,0.0],[176.3505,62.3266,27.4808],[176.3562,62.3271,0.0],[176.362,62.3297,0.0],[176.3745,62.338,0.0],[176.3734,62.3411,8.6133],[176.3828,62.3443,0.0],[176.3859,62.3495,9.3505],[176.3932,62.3505,0.0],[176.3953,62.3547,3.9177],[176.4026,62.3599,1.9094],[176.4099,62.3609,0.0],[176.4172,62.3661,5.1572],[176.4245,62.3672,0.0],[176.438,62.3766,3.5701],[176.4474,62.3797,4.0428],[176.4588,62.387,1.2423],[176.4688,62.3896,1.7269],[176.4787,62.3901,0.0],[176.4776,62.3932,2.936],[176.4849,62.3943,4.6189],[176.4922,62.3995,5.9829],[176.5104,62.4021,0.0],[176.5141,62.4047,0.0],[176.5151,62.4078,20.3033],[176.525,62.4083,0.0],[176.5297,62.412,0.0],[176.5437,62.4146,0.0],[176.5583,62.4208,14.7886],[176.5667,62.4208,0.0],[176.5766,62.4234,0.0],[176.5813,62.4271,33.8257],[176.5896,62.4271,0.0],[176.6021,62.4313,0.0],[176.6062,62.4313,0.0],[176.6125,62.4354,21.7912],[176.6333,62.4375,0.0],[176.6349,62.438,0.0],[176.6339,62.4411,5.3318],[176.6354,62.4417,2.2971],[176.6438,62.4417,0.0],[176.662,62.4464,0.0],[176.6667,62.45,5.1418],[176.675,62.45,0.0],[176.6849,62.4526,0.0],[176.6833,62.4542,5.7309],[176.6771,62.4542,0.0],[176.6729,62.4562,0.0],[176.6687,62.4542,0.7686],[176.6646,62.4562,0.0],[176.6542,62.4562,0.0],[176.6505,62.4536,0.1286],[176.6474,62.4484,-0.018],[176.6396,62.4479,0.0117],[176.6255,62.4547,1.1696],[176.6286,62.4578,0.0],[176.6234,62.4589,1.6374],[176.6245,62.4661,0.0],[176.6193,62.4672,0.0],[176.6167,62.4708,13.0055],[176.6193,62.4745,0.0],[176.6266,62.4755,0.5799],[176.6411,62.4818,0.6821],[176.6401,62.4849,0.6972],[176.6484,62.4891,0.7132],[176.6599,62.4901,0.0],[176.6625,62.4938,0.0],[176.6609,62.4974,0.3183],[176.6641,62.4984,0.53],[176.6667,62.5021,0.0],[176.663,62.5068,0.2706],[176.6662,62.5089,0.7238],[176.6651,62.512,0.9564],[176.6708,62.5146,0.4344],[176.6875,62.5146,0.0],[176.6932,62.5172,0.5836],[176.688,62.5203,0.0],[176.6979,62.5229,0.0],[176.7104,62.5229,0.0],[176.7312,62.5292,3.0711],[176.7563,62.5292,0.0],[176.7604,62.5313,3.6298],[176.7667,62.5313,1.6872],[176.7734,62.5276,0.0],[176.7849,62.5245,4.2364],[176.7891,62.5214,1.0752],[176.787,62.5193,1.8528],[176.7771,62.5167,3.4133],[176.7547,62.5141,0.0],[176.7526,62.5109,0.0],[176.7604,62.5104,0.0],[176.762,62.5089,0.0],[176.7479,62.5062,0.0],[176.7307,62.4984,2.5095],[176.7234,62.4974,0.0],[176.7208,62.4938,3.5407],[176.7229,62.4917,0.0],[176.7437,62.4979,0.0],[176.7495,62.4974,0.0],[176.7516,62.4943,1.075],[176.7417,62.4938,0.0],[176.7359,62.4911,0.0],[176.737,62.488,0.0],[176.7297,62.487,0.0],[176.7245,62.4797,4.7617],[176.7172,62.4786,0.0],[176.713,62.4766,0.0],[176.7109,62.4734,0.0],[176.7167,62.4729,0.0],[176.7292,62.4771,0.0],[176.7458,62.4771,0.0],[176.75,62.4792,0.0],[176.7583,62.4792,0.0],[176.7672,62.4849,0.0],[176.7854,62.4896,4.0851],[176.7937,62.4896,0.0],[176.7953,62.488,0.0],[176.7875,62.4833,4.1265],[176.7833,62.4854,0.0],[176.7766,62.4818,0.0],[176.7693,62.4807,0.0],[176.7646,62.4771,3.9928],[176.7604,62.4771,0.0],[176.7563,62.475,4.7024],[176.7479,62.475,0.0],[176.7396,62.4708,2.9274],[176.7354,62.4708,0.0],[176.7312,62.4729,0.0],[176.7229,62.4729,0.0],[176.7172,62.4703,1.9919],[176.7224,62.4672,0.0],[176.7167,62.4646,0.0],[176.7068,62.4641,0.0],[176.7036,62.4609,3.1031],[176.6964,62.4599,0.0],[176.6922,62.4568,4.933],[176.7,62.4562,0.0],[176.7417,62.4688,6.947],[176.75,62.4688,0.0],[176.7568,62.4724,6.6016],[176.7625,62.4729,0.0],[176.7729,62.4771,6.7107],[176.7813,62.4771,3.32],[176.8021,62.4833,6.5616],[176.8104,62.4833,0.0],[176.8208,62.4875,5.6414],[176.85,62.4938,0.0],[176.8562,62.4979,6.3221],[176.8687,62.4979,0.0],[176.8771,62.5021,6.4852],[176.8854,62.5021,3.0314],[176.8896,62.5042,6.4333],[176.8938,62.5042,0.0],[176.8974,62.5078,6.9036],[176.8917,62.5083,0.0],[176.8875,62.5062,6.6931],[176.8667,62.5042,0.0],[176.8542,62.5,3.5281],[176.838,62.5026,0.0],[176.8396,62.5042,0.0],[176.8521,62.5042,0.0],[176.8562,62.5062,0.0],[176.8646,62.5062,0.0],[176.8687,62.5083,0.0],[176.8771,62.5083,0.0],[176.8896,62.5125,0.7908],[176.8979,62.5125,0.0],[176.9021,62.5146,0.0],[176.9083,62.5125,0.0],[176.9083,62.5146,0.7384],[176.9146,62.5167,0.0],[176.9245,62.5161,0.0],[176.9214,62.5141,0.0],[176.9229,62.5125,7.3676],[176.9333,62.5125,0.0],[176.9375,62.5146,7.4787],[176.9583,62.5167,0.0],[176.9625,62.5187,0.0],[176.9833,62.5208,0.0],[176.9937,62.525,7.2913],[177.0036,62.5255,6.7949],[177.0021,62.5271,3.8292],[176.9943,62.5276,0.0],[176.9958,62.5292,5.456],[177.0104,62.5292,1.3729],[177.0146,62.5313,0.0],[177.0333,62.5333,0.0],[177.0458,62.5375,6.9778],[177.0688,62.5375,0.0],[177.0729,62.5396,5.8006],[177.0854,62.5396,0.0],[177.0917,62.5438,6.5897],[177.0995,62.5432,5.7622],[177.1021,62.5396,0.0],[177.125,62.5396,0.0],[177.1292,62.5417,7.0134],[177.1432,62.5422,5.3576],[177.1417,62.5438,0.0],[177.1359,62.5443,0.0],[177.1375,62.5458,5.3623],[177.1458,62.5458,0.0],[177.1521,62.5417,0.0],[177.1563,62.5417,0.0],[177.1604,62.5438,7.0124],[177.1917,62.5438,0.0],[177.1958,62.5458,6.6898],[177.2396,62.5479,0.0],[177.2437,62.55,6.1898],[177.2563,62.55,5.7266],[177.2578,62.5516,5.875],[177.2417,62.5521,0.0],[177.2375,62.55,6.1331],[177.2063,62.55,0.0],[177.2021,62.5479,6.4652],[177.1812,62.5479,0.0],[177.1771,62.5458,6.736],[177.1734,62.5495,0.0],[177.1917,62.55,0.0],[177.1958,62.5521,5.8687],[177.2229,62.5521,0.0],[177.2271,62.5542,4.8288],[177.2625,62.5542,0.0],[177.2667,62.5563,5.5281],[177.2875,62.5563,0.0],[177.2917,62.5583,5.565],[177.3375,62.5583,0.0],[177.3391,62.5568,7.2991],[177.3021,62.5563,0.0],[177.2979,62.5542,6.8175],[177.2729,62.5542,0.0],[177.2708,62.5521,6.5232],[177.3167,62.5521,0.0],[177.3208,62.5542,6.9237],[177.3438,62.5542,0.0],[177.3479,62.5563,7.1927],[177.4229,62.5563,0.0],[177.4271,62.5583,16.9879],[177.4333,62.5563,0.0],[177.4688,62.5563,0.0],[177.4729,62.5583,6.0866],[177.5125,62.5583,0.0],[177.5167,62.5604,6.2149],[177.5208,62.5583,0.0],[177.55,62.5583,0.0],[177.5542,62.5604,4.1245],[177.5583,62.5583,0.0],[177.5708,62.5583,0.0],[177.5771,62.5604,2.8227],[177.5813,62.5583,0.0],[177.5854,62.5604,2.0794],[177.5896,62.5604,2.9621],[177.5938,62.5583,0.0],[177.5979,62.5604,4.0886],[177.6396,62.5604,3.0243],[177.6438,62.5625,4.1967],[177.6479,62.5625,2.2467],[177.6521,62.5583,0.0],[177.6583,62.5604,2.1352],[177.6625,62.5583,0.0],[177.6812,62.5583,3.958],[177.6854,62.5563,0.0],[177.6979,62.5604,3.0412],[177.6995,62.5599,2.8686],[177.6984,62.5568,0.0],[177.7,62.5563,0.0],[177.7188,62.5563,4.294],[177.7229,62.5542,0.0],[177.7271,62.5563,7.3642],[177.7333,62.5563,8.3802],[177.7375,62.5542,0.0],[177.775,62.5542,12.4733],[177.7792,62.5521,0.0],[177.7979,62.5521,20.8562],[177.8021,62.55,0.0],[177.8208,62.55,12.4099],[177.825,62.5479,0.0],[177.8687,62.5458,19.1763],[177.8833,62.5417,0.0],[177.8875,62.5438,27.6493],[177.8917,62.5438,36.278],[177.8958,62.5417,0.0],[177.9354,62.5417,37.9358],[177.9396,62.5396,0.0],[177.9583,62.5396,24.9531],[177.9625,62.5375,0.0],[177.9667,62.5396,39.5145],[177.9708,62.5375,0.0],[177.9917,62.5375,44.0628],[177.9958,62.5354,0.0],[178.0,62.5354,0.0],[178.0042,62.5375,41.5508],[178.0188,62.5333,0.0],[178.0229,62.5333,0.0],[178.0271,62.5354,19.8635],[178.0333,62.5333,0.0],[178.0375,62.5354,34.6769],[178.0417,62.5354,40.3598],[178.0458,62.5333,0.0],[178.05,62.5354,43.4227],[178.0542,62.5354,43.0085],[178.0583,62.5333,0.0],[178.0646,62.5333,0.0],[178.0708,62.5313,0.0],[178.075,62.5333,30.6608],[178.0833,62.5333,28.7719],[178.1016,62.5286,20.7136],[178.0984,62.5255,0.0],[178.1078,62.5245,35.4574],[178.1089,62.5214,0.0],[178.1141,62.5203,21.2537],[178.1172,62.5172,0.0],[178.1349,62.5141,115.2291],[178.1276,62.5109,0.0],[178.1417,62.5062,0.0],[178.1495,62.5057,45.098],[178.1463,62.5026,0.0],[178.1542,62.5021,28.5943],[178.1568,62.4984,0.0],[178.162,62.4974,129.5424],[178.1589,62.4943,0.0],[178.1787,62.4911,23.6657],[178.1776,62.488,0.0],[178.1792,62.4875,0.0],[178.1833,62.4875,0.0],[178.1875,62.4896,205.2657],[178.2021,62.4854,0.0],[178.2125,62.4854,220.4374],[178.2271,62.4813,0.0],[178.2333,62.4813,0.0],[178.2563,62.475,41.3143],[178.2667,62.475,90.3101],[178.2771,62.4708,0.0],[178.2875,62.4708,30.3538],[178.2979,62.4667,37.4186],[178.3125,62.4646,100.2015],[178.3292,62.4583,19.6871],[178.3479,62.4583,229.8975],[178.3625,62.4542,0.0],[178.3667,62.4542,0.0],[178.3708,62.4562,24.0171],[178.375,62.4542,4.5418],[178.3917,62.4521,56.6431],[178.4021,62.4479,0.0],[178.4083,62.4479,232.6376],[178.4229,62.4417,0.0],[178.4292,62.4417,200.868],[178.4438,62.4375,0.0],[178.4479,62.4375,51.539],[178.4521,62.4396,247.7368],[178.4917,62.4292,0.0],[178.5125,62.4292,196.6439],[178.5167,62.4271,57.3303],[178.5271,62.4271,58.521],[178.5313,62.425,0.0],[178.5417,62.425,50.1706],[178.5537,62.4203,216.3008],[178.5562,62.4167,0.0],[178.5729,62.4167,227.212],[178.5854,62.4125,0.0],[178.5958,62.4125,56.1851],[178.6,62.4146,244.9517],[178.6042,62.4125,144.9397],[178.6187,62.4125,199.9216],[178.6234,62.4089,0.0],[178.6328,62.4078,243.022],[178.6417,62.4021,0.0],[178.6458,62.4042,223.2821],[178.6542,62.4042,84.3575],[178.6604,62.4,79.3962],[178.6708,62.4,156.3578],[178.6854,62.3958,66.2775],[178.7083,62.3958,34.9097],[178.7146,62.3917,0.0],[178.7188,62.3937,44.3125],[178.7229,62.3937,114.9139],[178.7271,62.3917,0.0],[178.7375,62.3917,0.0],[178.7417,62.3896,0.0],[178.7583,62.3875,81.7179],[178.7625,62.3854,0.0],[178.7813,62.3854,104.701],[178.7854,62.3833,47.2779],[178.7932,62.3828,116.1627],[178.7859,62.3797,0.0],[178.7979,62.3792,67.5568],[178.8188,62.3708,0.0],[178.8292,62.3708,0.0],[178.8333,62.3729,108.3679],[178.8375,62.3708,72.4556],[178.8453,62.3703,112.9221],[178.8521,62.3667,0.0],[178.8625,62.3667,110.4817],[178.8667,62.3646,0.0],[178.8708,62.3667,92.6477],[178.875,62.3646,78.8861],[178.8813,62.3646,17.6951],[178.8859,62.3609,0.0],[178.8938,62.3604,0.0],[178.8979,62.3583,0.0],[178.9125,62.3583,232.5902],[178.9354,62.3521,128.379],[178.9563,62.3521,139.4299],[178.9688,62.3479,0.0],[178.9792,62.35,138.8058],[178.9833,62.3479,9.0559],[178.9896,62.3479,14.8445],[178.9937,62.3458,0.0],[179.0083,62.3438,37.6165],[179.0188,62.3396,0.0],[179.0292,62.3396,168.265],[179.037,62.337,85.9486],[179.037,62.3339,0.0],[179.0339,62.3318,0.0],[179.0432,62.3307,44.4362],[179.0422,62.3276,11.994],[179.0474,62.3245,79.6837],[179.0443,62.3214,0.0],[179.0537,62.3203,163.8385],[179.0505,62.3172,0.0],[179.0557,62.3161,100.202],[179.0547,62.3109,0.0],[179.0578,62.3099,61.5848],[179.0604,62.3063,79.38],[179.0599,62.3047,45.6744],[179.0547,62.3026,0.0],[179.0589,62.3005,0.0],[179.0609,62.2964,0.0],[179.0771,62.2958,106.3484],[179.0818,62.2922,0.0],[179.087,62.2911,72.776],[179.0833,62.2875,0.0],[179.0854,62.2833,0.0],[179.0838,62.2797,0.0],[179.0932,62.2766,82.3361],[179.0979,62.2729,0.0],[179.1021,62.275,14.9618],[179.1146,62.275,0.0],[179.1276,62.2828,224.2526],[179.1375,62.2854,171.0416],[179.1557,62.2859,0.0],[179.1547,62.2891,0.0],[179.162,62.2922,0.0],[179.1568,62.2953,135.3776],[179.1662,62.3005,0.0],[179.1651,62.3036,0.0],[179.1745,62.3089,0.0],[179.1734,62.3141,264.264],[179.1828,62.3193,24.837],[179.1766,62.3245,0.0],[179.1687,62.325,36.6669],[179.1568,62.3297,18.3386],[179.1599,62.3328,0.0],[179.1547,62.3339,3.5522],[179.1484,62.3464,0.0],[179.1516,62.3495,0.0],[179.1463,62.3505,20.62],[179.1458,62.3521,17.3625],[179.1484,62.3557,3.3061],[179.1557,62.3589,0.0],[179.1542,62.3625,5.4597],[179.1568,62.3682,9.5515],[179.1662,62.3734,0.0],[179.1693,62.3786,0.0],[179.1724,62.3797,0.0],[179.1755,62.3849,0.0],[179.1807,62.3891,165.6069],[179.1651,62.3943,321.6067],[179.162,62.4016,0.0],[179.15,62.4021,227.9937],[179.1359,62.4068,255.7094],[179.1328,62.412,102.8399],[179.1172,62.4172,19.1995],[179.1151,62.4224,2.1332],[179.1182,62.4245,0.0],[179.113,62.4255,4.5762],[179.1162,62.4276,0.0],[179.1162,62.4307,0.0],[179.1141,62.4349,4.4816],[179.1089,62.4359,0.0],[179.1089,62.4391,0.0],[179.1146,62.4375,2.75],[179.1224,62.4422,4.2962],[179.1255,62.4474,4.4611],[179.1328,62.4505,0.0],[179.1318,62.4536,2.3121],[179.1391,62.4568,0.0],[179.1443,62.4641,3.3674],[179.1516,62.4672,2.2522],[179.1547,62.4703,0.0],[179.1604,62.4729,3.5312],[179.1662,62.4734,0.0],[179.1818,62.4828,5.547],[179.1953,62.4859,0.0],[179.2063,62.4917,5.4335],[179.2375,62.4917,10.5852],[179.2417,62.4896,0.0],[179.2521,62.4896,75.925],[179.2563,62.4854,0.0],[179.2771,62.4854,72.2402],[179.2813,62.4833,0.0],[179.2937,62.4854,3.7072],[179.2979,62.4833,0.0],[179.3083,62.4833,0.0],[179.3125,62.4813,0.0],[179.3188,62.4813,75.4787],[179.3292,62.4771,20.6746],[179.3333,62.4771,0.0],[179.3375,62.4792,53.8611],[179.3646,62.4792,157.6221],[179.3687,62.4813,140.0112],[179.3729,62.4813,0.0],[179.3776,62.4849,120.9953],[179.3833,62.4854,20.4127],[179.3891,62.488,0.0],[179.388,62.4911,3.3823],[179.4021,62.4938,11.0076],[179.4104,62.4979,35.5995],[179.4162,62.4984,0.0],[179.4182,62.5005,0.0],[179.4182,62.5036,0.0],[179.413,62.5078,205.7453],[179.4203,62.5089,0.0],[179.4224,62.512,0.0],[179.4193,62.5141,32.7008],[179.4214,62.5161,7.5656],[179.4391,62.5234,0.0],[179.4401,62.5266,59.465],[179.4474,62.5276,0.0],[179.4464,62.5307,39.9196],[179.4495,62.5318,0.0],[179.4464,62.538,95.4363],[179.45,62.5417,0.0],[179.4484,62.5453,29.993],[179.4516,62.5464,0.0],[179.4505,62.5495,135.0967],[179.4578,62.5526,0.0],[179.4495,62.5703,0.0],[179.4443,62.5714,249.0458],[179.4432,62.5745,103.717],[179.438,62.5766,117.0386],[179.4438,62.5771,12.9359],[179.4495,62.5797,0.0],[179.4526,62.5849,4.9725],[179.4599,62.5859,0.0],[179.4588,62.5891,3.7412],[179.4766,62.5984,0.0],[179.4797,62.6016,3.8728],[179.4896,62.6063,4.6878],[179.5036,62.6089,0.0],[179.5083,62.6125,0.0],[179.5125,62.6125,0.0],[179.5167,62.6146,0.0],[179.5354,62.6146,27.9077],[179.5396,62.6125,0.0],[179.5437,62.6146,24.4838],[179.5625,62.6146,230.6042],[179.5667,62.6125,0.0],[179.5724,62.613,0.0],[179.5818,62.6182,14.6891],[179.5891,62.6193,0.0],[179.5953,62.6234,0.0],[179.5979,62.6292,0.0],[179.5964,62.6349,10.2387],[179.5995,62.6359,0.0],[179.5974,62.6411,0.0],[179.5938,62.6437,4.0043],[179.5875,62.6437,18.0697],[179.5688,62.65,2.0],[179.5625,62.65,21.0228],[179.5583,62.6542,2.0],[179.5521,62.6521,11.0936],[179.5453,62.6557,2.0],[179.5375,62.6563,2.0],[179.5271,62.6604,2.0],[179.5229,62.6583,15.8602],[179.5188,62.6583,49.1378],[179.5172,62.6589,40.857],[179.5182,62.662,2.0],[179.5167,62.6625,2.0],[179.5104,62.6625,14.9477],[179.5063,62.6646,19.281],[179.4958,62.6646,11.193],[179.4917,62.6667,2.0],[179.4812,62.6667,14.2573],[179.475,62.6729,8.2881],[179.4588,62.6734,1.5],[179.4568,62.6786,2.6983],[179.4667,62.6792,1.5],[179.4729,62.6813,17.326],[179.4745,62.6797,15.0343],[179.4714,62.6786,1.5],[179.4729,62.6771,1.5],[179.4833,62.6771,2.0],[179.4937,62.6729,2.0],[179.5042,62.6729,4.1283],[179.5271,62.6667,2.0],[179.5375,62.6667,7.2317],[179.5479,62.6625,2.0],[179.5703,62.6599,21.8315],[179.5672,62.6578,2.0],[179.5688,62.6563,2.0],[179.5833,62.6563,8.3651],[179.5979,62.6521,7.8671],[179.6021,62.6542,32.3671],[179.612,62.6547,0.0],[179.613,62.6578,148.2625],[179.6203,62.6589,0.0],[179.6224,62.6609,0.0],[179.6203,62.6682,177.5775],[179.6151,62.6703,182.6266],[179.6224,62.6734,24.6022],[179.6214,62.6766,158.7638],[179.6245,62.6776,0.0],[179.6292,62.6896,145.7218],[179.6286,62.6911,166.0297],[179.6234,62.6922,286.7911],[179.6266,62.6943,152.8655],[179.6245,62.6995,56.3348],[179.6193,62.7005,13.1467],[179.6224,62.7036,0.0],[179.6172,62.7047,3.8235],[179.6162,62.7078,1.5861],[179.6047,62.7109,1.5],[179.6042,62.7125,1.5],[179.6062,62.7146,8.5201],[179.6203,62.7151,0.0],[179.6193,62.7203,183.3739],[179.6266,62.7234,0.0],[179.6208,62.7354,207.4659],[179.6245,62.7391,0.0],[179.6224,62.7432,0.0],[179.6172,62.7443,67.2493],[179.6203,62.7464,0.0],[179.6182,62.7516,0.0],[179.613,62.7526,329.42],[179.6099,62.7599,0.0],[179.6005,62.7609,66.8703],[179.5932,62.7661,2.0949],[179.5792,62.7708,0.5],[179.5672,62.7714,0.5],[179.5568,62.7755,7.943],[179.5557,62.7786,0.5],[179.5479,62.7792,0.5],[179.5443,62.7818,1.2444],[179.5443,62.7849,1.011],[179.5474,62.787,0.5],[179.5443,62.7932,1.4334],[179.5583,62.7979,0.5],[179.5708,62.7979,2.3203],[179.5766,62.8005,0.0],[179.5734,62.8078,12.0947],[179.5766,62.8089,6.2987],[179.5797,62.8161,13.0075],[179.5828,62.8182,0.0],[179.5807,62.8224,0.0],[179.5755,62.8234,20.9207],[179.5734,62.8286,37.966],[179.5766,62.8307,0.0],[179.5589,62.8297,20.3566],[179.5661,62.8339,18.0],[179.562,62.8411,0.0],[179.5526,62.8443,4.6871],[179.5391,62.8536,11.222],[179.5339,62.8547,25.0698],[179.5307,62.8599,0.0],[179.5255,62.8609,8.9371],[179.5229,62.8646,0.0],[179.5167,62.8646,7.4684],[179.5125,62.8667,2.9141],[179.4792,62.8667,3.6714],[179.4646,62.8708,0.0],[179.4167,62.8729,9.7662],[179.4141,62.8766,0.0],[179.4063,62.8792,3.7878],[179.3646,62.8771,2.9201],[179.3604,62.8812,0.0],[179.3484,62.8818,1.5559],[179.3495,62.8849,2.0664],[179.3401,62.888,2.6933],[179.3391,62.8911,1.2352],[179.3338,62.8922,1.5477],[179.3255,62.8984,0.0],[179.3214,62.9068,0.0],[179.3245,62.9099,0.0],[179.3193,62.9109,19.3656],[179.3188,62.9125,43.8164],[179.3224,62.9151,0.0],[179.3203,62.9203,0.0],[179.3151,62.9214,0.0],[179.3141,62.9245,5.5822],[179.3089,62.9255,24.1146],[179.3057,62.9307,0.0],[179.3005,62.9318,9.1049],[179.2995,62.9349,0.0],[179.2922,62.9401,0.0],[179.2953,62.9432,0.0],[179.2901,62.9443,3.0682],[179.2891,62.9474,0.0],[179.2839,62.9484,4.1599],[179.287,62.9505,0.0],[179.2839,62.9599,0.0],[179.287,62.962,0.0],[179.2849,62.9661,0.0],[179.2797,62.9672,3.3987],[179.2807,62.9724,0.0],[179.2776,62.9734,3.2026],[179.2807,62.9755,0.0],[179.2797,62.9786,3.4456],[179.2828,62.9807,0.0],[179.2713,62.9839,2.4038],[179.2786,62.988,1.9576],[179.2734,62.9901,0.0],[179.2734,62.9932,0.0],[179.2792,62.9938,2.1767],[179.2807,62.9953,1.2357],[179.2792,62.9979,1.7992],[179.2713,62.9964,0.0],[179.2693,62.9995,0.0],[179.2724,63.0016,0.0],[179.263,63.0047,2.7111],[179.2661,63.0078,0.0],[179.2625,63.0146,2.9167],[179.2646,63.0187,0.0],[179.2625,63.0229,2.2749],[179.2661,63.0266,0.0],[179.2583,63.0292,1.5718],[179.2396,63.0292,1.8826],[179.238,63.0297,1.8403],[179.2391,63.0328,0.0],[179.2375,63.0333,0.0],[179.2229,63.0333,0.0],[179.2182,63.0297,0.4055],[179.2026,63.0266,0.4414],[179.2057,63.0172,1.9201],[179.2021,63.0146,-0.5],[179.2042,63.0104,1.9533],[179.2026,63.0047,0.632],[179.2047,63.0005,0.0],[179.2099,62.9995,1.5557],[179.2125,62.9938,2.0041],[179.2088,62.9901,0.0],[179.2141,62.9891,0.0],[179.2182,62.9828,2.1684],[179.2151,62.9797,0.0],[179.2203,62.9766,-1.5],[179.2214,62.9734,-1.5],[179.2266,62.9724,2.1609],[179.2234,62.9703,-1.5],[179.2245,62.9672,-1.5],[179.2229,62.9667,-1.5],[179.2068,62.9672,0.163],[179.212,62.9714,-1.5],[179.2104,62.9729,-0.1632],[179.2063,62.9708,1.3179],[179.1964,62.9703,0.0],[179.1974,62.9672,1.0109],[179.1958,62.9667,3.3662],[179.1812,62.9667,12.2793],[179.1771,62.9688,0.0],[179.1729,62.9667,1.1353],[179.1542,62.9667,11.6307],[179.15,62.9688,0.0],[179.1438,62.9688,0.0],[179.1229,62.9625,0.0],[179.1104,62.9625,0.0],[179.1089,62.963,0.0],[179.1099,62.9661,0.0],[179.0917,62.9729,0.0],[179.0688,62.9729,0.0],[179.0651,62.9755,0.0],[179.063,62.9807,0.0],[179.0661,62.9828,0.0],[179.0609,62.9859,2.3538],[179.063,62.9891,0.3857],[179.0766,62.9901,0.0],[179.0797,62.9932,1.585],[179.087,62.9964,0.0],[179.0901,63.0016,0.0],[179.0953,63.0047,0.0],[179.0964,63.0078,5.5673],[179.1037,63.0089,0.0],[179.1109,63.0141,38.3548],[179.1182,63.0151,0.0],[179.1193,63.0182,3.2368],[179.125,63.0208,0.0],[179.1307,63.0214,0.0],[179.138,63.0266,0.0],[179.162,63.0297,0.472],[179.1662,63.0318,0.0],[179.1687,63.0354,0.0],[179.1771,63.0354,0.0],[179.1812,63.0375,1.3332],[179.1854,63.0375,1.5963],[179.1958,63.0333,0.6935],[179.2104,63.0333,0.0],[179.2146,63.0354,0.0],[179.2229,63.0354,0.0],[179.2271,63.0375,0.0],[179.2542,63.0375,0.0],[179.2583,63.0354,0.0],[179.2646,63.0354,0.0],[179.2724,63.0328,0.6968],[179.2755,63.0255,0.0],[179.2807,63.0245,3.0967],[179.2792,63.0229,2.6464],[179.2734,63.0224,0.0],[179.2734,63.0193,1.6324],[179.2776,63.013,0.0],[179.2854,63.0104,2.2637],[179.2932,63.0151,0.0],[179.2964,63.0224,0.0],[179.2995,63.0234,0.0],[179.2984,63.0266,0.0],[179.3057,63.0297,0.0],[179.3042,63.0333,3.2755],[179.3068,63.037,3.7845],[179.3182,63.0422,0.0],[179.3172,63.0453,4.5128],[179.3245,63.0464,0.0],[179.3391,63.0547,0.0],[179.3422,63.0599,4.6732],[179.3521,63.0625,5.3542],[179.3625,63.0625,0.0],[179.3667,63.0646,4.4989],[179.3854,63.0646,11.2215],[179.3896,63.0625,0.0],[179.4,63.0625,0.0],[179.4208,63.0542,0.0],[179.4287,63.0536,92.3075],[179.4312,63.05,0.0],[179.4417,63.05,53.3302],[179.4542,63.0542,0.0],[179.4641,63.0547,0.0],[179.4667,63.0583,0.0],[179.4625,63.0687,95.1688],[179.4646,63.0729,37.8662],[179.4641,63.0745,0.0],[179.4588,63.0755,220.8109],[179.4583,63.0771,210.7747],[179.462,63.0807,0.0],[179.4526,63.0818,307.9396],[179.45,63.0854,217.0775],[179.4536,63.088,43.2256],[179.4526,63.0911,74.3819],[179.4557,63.0922,0.0],[179.4526,63.1005,22.0914],[179.4557,63.1026,0.0],[179.4521,63.1104,0.0],[179.4536,63.1161,0.0],[179.4474,63.1203,0.0],[179.4422,63.1214,120.8138],[179.4411,63.1266,0.0],[179.4359,63.1276,62.0758],[179.4287,63.1328,0.0],[179.4193,63.1339,102.482],[179.4162,63.1391,0.0],[179.4068,63.1401,64.758],[179.4057,63.1432,0.0],[179.3943,63.1464,118.6084],[179.3911,63.1516,0.0],[179.3786,63.1599,154.704],[179.3734,63.1609,206.1054],[179.3724,63.1661,108.4408],[179.3609,63.1693,264.4485],[179.3557,63.1786,0.0],[179.3464,63.1797,94.6633],[179.3453,63.1849,35.5893],[179.3432,63.187,16.5626],[179.338,63.188,39.8131],[179.337,63.1932,0.0],[179.3276,63.1943,13.1521],[179.3245,63.1974,0.0],[179.3193,63.1984,6.9683],[179.3104,63.2042,0.0],[179.2984,63.2047,30.6859],[179.3016,63.2078,0.0],[179.2937,63.2083,24.4654],[179.2688,63.2167,0.0],[179.2609,63.2172,95.0436],[179.2578,63.2224,0.0],[179.2396,63.2292,0.0],[179.2021,63.2292,0.0],[179.1979,63.2271,0.9477],[179.1938,63.2292,0.0],[179.1818,63.2286,0.0871],[179.1833,63.2271,0.8355],[179.1896,63.2271,0.3509],[179.1974,63.2245,-0.0196],[179.1943,63.2224,0.0796],[179.1911,63.2172,0.7028],[179.1875,63.2167,0.7522],[179.1755,63.2234,0.7753],[179.1771,63.2271,0.7102],[179.1745,63.2328,0.5396],[179.1693,63.2339,3.4302],[179.1662,63.2391,0.0],[179.1438,63.2479,2.0362],[179.1292,63.2458,0.7045],[179.125,63.2479,0.0],[179.1167,63.2438,0.0],[179.1068,63.2422,0.0],[179.1089,63.2453,0.0],[179.112,63.2464,0.0],[179.1151,63.2516,1.4559],[179.1208,63.2542,0.0],[179.1266,63.2547,8.331],[179.1109,63.2609,0.2067],[179.1083,63.2646,0.0],[179.0792,63.2646,0.0],[179.0646,63.2687,0.2896],[179.05,63.2687,0.4835],[179.0458,63.2667,4.2101],[179.0354,63.2708,0.0],[179.0276,63.2714,0.4601],[179.0307,63.2745,0.0],[179.0229,63.275,0.0],[179.0125,63.2792,0.4774],[179.0021,63.2792,0.0],[178.9979,63.2813,0.0],[178.9714,63.2818,0.0],[178.9729,63.2833,0.0],[178.9828,63.2839,0.7064],[178.9787,63.287,0.7011],[178.9734,63.288,0.6703],[178.9766,63.2911,0.0],[178.9729,63.2938,0.0],[178.9672,63.2932,0.3083],[178.9604,63.2896,0.6749],[178.9484,63.2922,0.6864],[178.95,63.2938,0.0],[178.9557,63.2943,0.0],[178.9688,63.3021,0.0],[178.9729,63.3,0.0],[178.9807,63.3005,0.0],[178.9787,63.3036,0.0],[178.963,63.3089,0.4411],[178.9625,63.3104,0.4289],[178.9766,63.3203,0.0],[178.9688,63.3229,0.0],[178.95,63.3229,0.0],[178.9464,63.3255,0.0],[178.9453,63.3286,0.0],[178.9333,63.3292,0.0],[178.9193,63.3245,0.0],[178.9307,63.3193,0.5516],[178.925,63.3167,1.1177],[178.9167,63.3167,0.0],[178.9109,63.3141,1.0717],[178.9078,63.3068,0.0],[178.9036,63.3047,1.23],[178.8943,63.3068,7.7333],[178.8917,63.3146,3.4761],[178.8943,63.3182,7.4669],[178.8974,63.3193,0.0],[178.8995,63.3266,0.0],[178.8875,63.3312,0.0],[178.8813,63.3312,7.4148],[178.8734,63.3339,3.5702],[178.8646,63.3396,0.0],[178.8583,63.3396,5.7141],[178.8505,63.3422,12.181],[178.8495,63.3453,0.0],[178.8443,63.3464,0.0],[178.8359,63.3526,1.4417],[178.8391,63.3557,0.0],[178.8338,63.3578,8.6929],[178.837,63.3589,0.0],[178.8359,63.3641,0.0],[178.8391,63.3651,0.0],[178.8375,63.3708,0.0],[178.8401,63.3766,1.8341],[178.8547,63.3849,0.0],[178.8646,63.3875,0.0],[178.8729,63.3875,0.0],[178.8854,63.3917,0.0],[178.8938,63.3917,0.0],[178.8979,63.3937,0.0],[178.9229,63.3937,0.5446],[178.9245,63.3922,0.6809],[178.9203,63.3901,0.3765],[178.9104,63.3896,0.0],[178.9047,63.3859,0.0],[178.9099,63.3849,0.5513],[178.9187,63.3792,0.3087],[178.9266,63.3786,0.0],[178.9297,63.3714,0.0],[178.9375,63.3708,0.0],[178.9417,63.3729,0.0],[178.9495,63.3703,0.4356],[178.9495,63.3672,0.6626],[178.9401,63.362,0.5204],[178.9443,63.3589,0.0],[178.9521,63.3563,0.0],[178.9625,63.3563,0.4814],[178.9703,63.3536,0.0],[178.9714,63.3505,0.0],[178.9792,63.3479,0.0],[178.9849,63.3516,0.0],[178.9755,63.3526,2.4265],[178.9787,63.3557,0.0],[178.9734,63.3578,0.0],[178.9766,63.3599,0.0],[178.9672,63.3609,3.3521],[178.9682,63.3661,0.0],[178.9609,63.3651,2.7234],[178.9588,63.3672,2.7332],[178.9557,63.3766,0.0],[178.9505,63.3776,3.3446],[178.9484,63.3797,0.0],[178.9474,63.3849,0.0],[178.9422,63.3859,1.9011],[178.9391,63.3911,0.0],[178.9339,63.3922,4.4569],[178.9328,63.3953,0.0],[178.9276,63.3964,3.4108],[178.9245,63.4016,2.0624],[178.9193,63.4026,13.6856],[178.9193,63.4057,3.6073],[178.9224,63.4078,0.0],[178.913,63.4089,4.4489],[178.9162,63.412,0.0],[178.9109,63.413,3.4402],[178.9047,63.4172,3.2929],[178.8995,63.4266,0.0],[178.8943,63.4276,2.3859],[178.8974,63.4307,0.0],[178.8922,63.4318,3.7837],[178.8891,63.437,0.0],[178.8839,63.4401,3.4692],[178.8813,63.4458,1.397],[178.8849,63.4495,0.0],[178.8734,63.4526,3.635],[178.8703,63.4578,3.9396],[178.8651,63.4589,2.7294],[178.863,63.4661,4.1303],[178.8662,63.4682,0.0],[178.8609,63.4693,3.6079],[178.8589,63.4734,3.7171],[178.862,63.4766,0.0],[178.8526,63.4797,4.0729],[178.8537,63.4849,0.0],[178.8484,63.488,3.2559],[178.8516,63.4911,0.0],[178.8464,63.4922,1.5964],[178.8495,63.4953,0.0],[178.8443,63.4964,0.0],[178.8474,63.4995,0.0],[178.8422,63.5005,0.0],[178.8401,63.5047,0.0],[178.8432,63.5078,0.0],[178.838,63.5089,0.0],[178.8328,63.5203,0.0],[178.8276,63.5234,5.0269],[178.8286,63.5266,0.0],[178.8255,63.5276,3.8901],[178.8286,63.5307,0.0],[178.8229,63.5417,2.4201],[178.8266,63.5453,0.0],[178.8214,63.5464,0.0],[178.8193,63.5495,1.5092],[178.8224,63.5505,0.0],[178.8224,63.5536,0.0],[178.8203,63.5557,0.0],[178.8151,63.5568,5.1163],[178.8188,63.5604,0.0],[178.8172,63.5641,0.0],[178.8208,63.5667,0.0],[178.8203,63.5682,0.0],[178.8151,63.5693,3.4544],[178.8182,63.5724,0.0],[178.8146,63.5792,3.3905],[178.8182,63.5828,0.0],[178.813,63.5932,0.0],[178.8161,63.5953,0.0],[178.8,63.6,0.5077],[178.7922,63.5974,0.3283],[178.7937,63.5938,0.2846],[178.7922,63.5901,0.525],[178.7974,63.587,0.4595],[178.7943,63.5849,0.0],[178.7943,63.5818,0.4044],[178.7984,63.5734,0.0],[178.8037,63.5724,2.5587],[178.8005,63.5703,0.0],[178.8016,63.5672,1.8931],[178.7943,63.5641,0.0],[178.7964,63.5609,0.0],[178.8016,63.5578,0.9158],[178.8037,63.5536,0.0],[178.8005,63.5516,0.0],[178.7984,63.5474,0.0],[178.7995,63.5422,3.3029],[178.7964,63.5411,0.0],[178.7995,63.5391,2.3854],[178.7984,63.5359,2.0412],[178.8037,63.5328,3.0638],[178.8062,63.5271,3.2821],[178.8026,63.5245,0.0],[178.8037,63.5214,0.0],[178.8005,63.5193,0.0],[178.8099,63.5182,0.9856],[178.8068,63.5151,0.0],[178.812,63.513,1.4943],[178.8089,63.5109,0.0],[178.8203,63.5078,2.8231],[178.8172,63.5057,0.0],[178.8172,63.5026,0.0],[178.8224,63.5016,1.5631],[178.8193,63.4984,0.0],[178.8266,63.4932,0.8062],[178.8297,63.4859,0.0],[178.8349,63.4849,1.0675],[178.838,63.4797,0.3235],[178.8432,63.4786,0.43],[178.8432,63.4755,0.0],[178.8401,63.4734,0.0],[178.8453,63.4703,0.4282],[178.8474,63.4672,0.0],[178.8401,63.463,0.0],[178.8537,63.4641,0.0],[178.8505,63.4609,0.0],[178.8578,63.4557,0.0],[178.8547,63.4536,0.0],[178.8568,63.4484,0.0],[178.862,63.4474,0.7462],[178.863,63.4443,0.0],[178.8682,63.4432,0.0],[178.8651,63.4401,0.0],[178.8703,63.438,0.7771],[178.8672,63.4359,0.0],[178.8766,63.4349,0.5072],[178.8786,63.4328,0.5765],[178.8797,63.4276,0.7504],[178.8849,63.4266,1.554],[178.887,63.4245,2.5678],[178.887,63.4214,5.9058],[178.8729,63.4188,0.0],[178.8672,63.4151,0.0],[178.8854,63.4146,0.0],[178.8911,63.4109,0.0],[178.8833,63.4063,0.0],[178.875,63.4063,0.0],[178.8687,63.4042,5.9415],[178.8646,63.4063,0.0],[178.8568,63.4068,1.0],[178.8557,63.412,0.0],[178.8521,63.4146,0.0],[178.8333,63.4042,0.0],[178.8172,63.4036,0.5298],[178.8182,63.4005,0.2889],[178.8125,63.3979,0.0],[178.8083,63.3979,0.0],[178.8042,63.3958,1.8881],[178.7839,63.3953,0.0],[178.7776,63.3911,0.0],[178.7766,63.388,9.289],[178.7708,63.3875,0.0],[178.7651,63.3849,0.0],[178.762,63.3797,0.9292],[178.7589,63.3786,0.0],[178.7542,63.3729,0.0],[178.7375,63.3792,0.0],[178.7333,63.3771,6.0057],[178.7208,63.3771,0.0],[178.7167,63.375,1.8953],[178.7104,63.375,1.0138],[178.7,63.3812,0.0],[178.688,63.3818,0.9091],[178.6911,63.3849,0.0],[178.6833,63.3875,0.6136],[178.6687,63.3875,0.9867],[178.6505,63.3922,0.4795],[178.6474,63.3995,0.0],[178.6396,63.4,7.6595],[178.6255,63.4047,0.0],[178.6255,63.4078,0.0],[178.6354,63.4104,0.0],[178.6438,63.4104,0.0],[178.6479,63.4083,0.0],[178.6641,63.4089,0.0],[178.663,63.4141,6.671],[178.6667,63.4167,0.0],[178.6662,63.4182,7.3736],[178.6609,63.4203,6.377],[178.6708,63.425,0.0],[178.675,63.425,0.0],[178.6792,63.4229,5.4513],[178.6875,63.4271,0.0],[178.7016,63.4276,0.0],[178.7021,63.4313,0.0],[178.6995,63.437,9.8753],[178.6943,63.438,0.0],[178.6922,63.4411,0.0],[178.7057,63.4422,0.0],[178.7125,63.4479,0.0],[178.7104,63.45,0.0],[178.6922,63.4505,4.3157],[178.688,63.4526,0.0],[178.6891,63.4557,0.0],[178.6828,63.4599,0.0],[178.6734,63.463,0.0],[178.6714,63.4661,1.8531],[178.675,63.4688,0.0],[178.6734,63.4724,2.6094],[178.6766,63.4734,0.0],[178.6745,63.4807,0.0],[178.6667,63.4833,0.0],[178.6604,63.4833,0.0],[178.6516,63.4776,0.0],[178.6417,63.475,0.0],[178.6313,63.475,2.9613],[178.6297,63.4766,2.5824],[178.637,63.4797,0.0],[178.6401,63.4849,0.0],[178.6432,63.4859,0.0],[178.6422,63.4891,5.9267],[178.6479,63.4917,0.0],[178.6625,63.4896,0.0],[178.675,63.4938,0.0],[178.6854,63.4938,3.219],[178.687,63.4932,3.0136],[178.6901,63.4859,0.0],[178.6953,63.4849,8.3762],[178.6958,63.4833,8.7487],[178.6922,63.4807,0.0],[178.6932,63.4776,2.3049],[178.6859,63.4766,0.0],[178.6911,63.4734,2.4065],[178.6839,63.4693,0.0],[178.6953,63.4661,5.7073],[178.6964,63.463,0.0],[178.7021,63.4646,6.7921],[178.7125,63.4646,5.3527],[178.7141,63.463,0.0],[178.7109,63.4609,0.0],[178.7188,63.4583,0.0],[178.7375,63.4583,0.0],[178.7391,63.4589,0.0],[178.7422,63.4661,0.0],[178.7479,63.4688,0.0],[178.7521,63.4688,0.623],[178.7599,63.4661,0.0],[178.7568,63.4641,0.0],[178.7589,63.4609,0.0],[178.7661,63.4609,0.0],[178.7651,63.4661,8.2307],[178.775,63.4708,10.435],[178.7807,63.4714,0.0],[178.7786,63.4766,3.756],[178.7724,63.4807,0.0],[178.7563,63.4813,0.0],[178.7521,63.4792,0.0],[178.7458,63.4792,0.6682],[178.7312,63.4833,0.0],[178.7266,63.4776,1.3035],[178.7146,63.4771,5.3075],[178.7109,63.4797,0.0],[178.7088,63.4839,2.8447],[178.7146,63.4875,0.0],[178.7396,63.4854,0.0],[178.7437,63.4875,0.0],[178.7563,63.4875,0.0],[178.7661,63.4901,0.0],[178.7672,63.4932,0.0],[178.7713,63.4953,0.0],[178.7854,63.4958,0.0],[178.788,63.4995,0.0],[178.7953,63.5005,0.6206],[178.7917,63.5042,5.1776],[178.775,63.5062,16.6046],[178.7708,63.5083,0.0],[178.7604,63.5083,5.5413],[178.7526,63.5109,4.1552],[178.7458,63.5271,0.0],[178.7474,63.5307,0.0],[178.7443,63.5318,5.1323],[178.7479,63.5417,0.0],[178.7453,63.5453,1.3815],[178.7396,63.5479,0.0],[178.7333,63.5479,0.6704],[178.7234,63.5453,0.0],[178.7245,63.5401,6.6061],[178.7068,63.5307,0.4736],[178.7078,63.5276,0.8611],[178.6938,63.5229,8.0713],[178.6792,63.5229,1.0758],[178.6687,63.5271,0.0],[178.6583,63.5271,3.1753],[178.6568,63.5286,0.7768],[178.6599,63.5297,0.0],[178.6589,63.5328,0.0],[178.6604,63.5333,0.0],[178.6724,63.5339,2.084],[178.6708,63.5375,0.0],[178.6734,63.5432,0.0],[178.6792,63.5458,0.0],[178.6849,63.5464,0.0],[178.688,63.5495,1.7896],[178.7042,63.5521,0.0],[178.7104,63.5563,4.7848],[178.7245,63.5536,7.0001],[178.7214,63.5516,2.0398],[178.7229,63.55,0.4542],[178.7312,63.55,0.0],[178.7479,63.5583,0.0],[178.762,63.5589,0.0],[178.763,63.562,0.0],[178.7661,63.563,0.0],[178.7651,63.5661,0.7288],[178.7682,63.5672,0.4692],[178.7682,63.5703,0.357],[178.7521,63.5708,0.0],[178.7437,63.5667,0.0],[178.7375,63.5687,0.0],[178.7333,63.5667,0.4501],[178.725,63.5667,0.0],[178.7208,63.5646,0.0],[178.7125,63.5646,0.0],[178.7026,63.562,0.0],[178.6958,63.5583,7.2481],[178.6771,63.5583,0.89],[178.6724,63.562,0.0],[178.6589,63.5651,0.0],[178.6599,63.5682,0.0],[178.6505,63.5693,15.5774],[178.6474,63.5745,11.1078],[178.6396,63.5792,0.0],[178.6354,63.5771,5.1061],[178.6167,63.5771,0.0],[178.6125,63.575,5.8375],[178.6042,63.575,0.0],[178.6,63.5729,4.7497],[178.5854,63.5729,0.0],[178.5792,63.5687,3.9719],[178.5729,63.5687,5.8493],[178.5688,63.5708,2.6274],[178.5542,63.5708,4.7269],[178.55,63.5729,0.0],[178.5437,63.5708,12.9222],[178.5396,63.575,0.0],[178.5333,63.575,0.0],[178.5292,63.5771,0.0],[178.5188,63.5771,1.9123],[178.5141,63.5714,0.0],[178.5109,63.5703,0.0],[178.5078,63.563,0.0],[178.4984,63.5578,0.0],[178.4974,63.5547,0.0],[178.4912,63.5505,0.0],[178.4854,63.5479,4.8955],[178.4797,63.5474,0.0],[178.4766,63.5422,2.3808],[178.4682,63.538,6.4506],[178.4609,63.537,0.0],[178.4521,63.5313,6.0739],[178.4234,63.5266,0.0],[178.4214,63.5245,0.0],[178.4203,63.5193,0.5],[178.4141,63.5151,3.9116],[178.3979,63.5146,0.5],[178.3938,63.5125,1.9353],[178.375,63.5187,0.0],[178.3687,63.5187,0.0],[178.3646,63.5208,0.5664],[178.3479,63.5208,0.8325],[178.3401,63.5234,0.9658],[178.3328,63.5286,2.3934],[178.3276,63.5297,3.2886],[178.3172,63.5359,5.5254],[178.312,63.5453,0.0],[178.3005,63.5484,9.9154],[178.2932,63.562,1.5018],[178.2839,63.563,2.9299],[178.2818,63.5682,3.7548],[178.2891,63.5693,-0.361],[178.2891,63.5724,1.2638],[178.287,63.5766,0.4929],[178.2792,63.5771,1.0578],[178.2776,63.5786,3.5236],[178.2875,63.5812,0.7566],[178.2958,63.5812,1.849],[178.3,63.5833,0.0],[178.3083,63.5833,0.0],[178.3266,63.5922,0.0],[178.3255,63.5953,0.0],[178.3286,63.5964,0.0],[178.3276,63.5995,4.626],[178.3349,63.6026,0.0],[178.3338,63.6078,0.0],[178.3411,63.6109,0.0],[178.3443,63.6141,1.2472],[178.3703,63.6151,0.0],[178.3662,63.6182,0.5],[178.3583,63.6188,0.5],[178.3547,63.6214,4.7701],[178.3578,63.6245,3.0551],[178.3526,63.6255,4.493],[178.3557,63.6286,0.5],[178.3505,63.6297,3.1149],[178.35,63.6312,1.2718],[178.3505,63.6328,6.5342],[178.3562,63.6354,0.5],[178.3646,63.6354,3.7382],[178.3687,63.6333,0.5],[178.387,63.6307,4.6872],[178.3818,63.6266,0.5],[178.3807,63.6234,7.1807],[178.3776,63.6224,3.6529],[178.3854,63.6188,0.0],[178.3896,63.6208,2.4523],[178.3958,63.6208,8.1849],[178.4104,63.6167,0.0],[178.4167,63.6167,7.3563],[178.4208,63.6146,0.0],[178.425,63.6167,8.5655],[178.4771,63.6167,0.0],[178.4812,63.6188,5.1378],[178.4896,63.6188,5.2395],[178.5063,63.6125,1.6119],[178.5146,63.6167,0.5],[178.5266,63.6161,0.5],[178.5182,63.6109,0.5],[178.5109,63.6099,0.9367],[178.5109,63.6068,0.0],[178.5161,63.6057,0.5],[178.513,63.6036,0.0],[178.5146,63.6,2.3789],[178.5125,63.5958,0.0],[178.5141,63.5922,3.4357],[178.5026,63.5859,0.0],[178.5047,63.5818,6.2524],[178.5125,63.5792,0.0],[178.525,63.5854,0.7938],[178.5333,63.5854,0.0],[178.5401,63.5891,7.9862],[178.5474,63.5901,0.0],[178.55,63.5938,4.5084],[178.5484,63.6016,13.0908],[178.5537,63.6047,0.0],[178.5526,63.6099,8.1258],[178.5557,63.6109,0.0],[178.5505,63.613,7.7003],[178.5432,63.6266,0.0],[178.5333,63.6292,0.0],[178.5193,63.6297,4.3802],[178.5193,63.6328,0.0],[178.5224,63.6339,0.0],[178.5208,63.6354,0.0],[178.5026,63.6359,0.0],[178.5125,63.6396,5.9623],[178.5167,63.6375,0.0],[178.5229,63.6375,0.0],[178.5271,63.6396,0.0],[178.5313,63.6396,0.0],[178.5328,63.6401,0.0],[178.5318,63.6432,2.8708],[178.5333,63.6437,0.0],[178.537,63.6432,0.0],[178.538,63.6401,0.0],[178.5432,63.6391,4.9508],[178.5443,63.6359,0.0],[178.5479,63.6333,1.4708],[178.5792,63.6354,0.0],[178.5818,63.6391,0.0],[178.5875,63.6417,6.4428],[178.5901,63.638,0.0],[178.5979,63.6354,0.0],[178.6083,63.6354,0.0],[178.6125,63.6333,0.0],[178.6187,63.6333,4.3848],[178.6234,63.6297,0.0],[178.6286,63.6286,0.0],[178.6286,63.6255,0.0],[178.6255,63.6245,0.0],[178.6276,63.6193,0.0],[178.637,63.6182,2.0819],[178.6411,63.612,4.6747],[178.638,63.6099,0.0],[178.638,63.6068,0.0],[178.6495,63.6036,4.5248],[178.6495,63.6005,0.0],[178.6463,63.5995,0.0],[178.6474,63.5943,0.0],[178.6443,63.5932,0.0],[178.6417,63.5896,0.0],[178.6443,63.5839,0.0],[178.6536,63.5828,-0.5],[178.662,63.5766,-0.5],[178.663,63.5734,0.1407],[178.6708,63.5729,-0.5],[178.675,63.5708,-0.5],[178.6828,63.5714,0.0762],[178.6812,63.575,7.8337],[178.6839,63.5807,13.4819],[178.6995,63.5839,1.2339],[178.7026,63.5891,1.8623],[178.7083,63.5917,4.6833],[178.7188,63.5917,0.0],[178.7333,63.5875,0.0],[178.7437,63.5875,0.0],[178.7516,63.5922,0.0],[178.7505,63.5974,6.2738],[178.763,63.6036,0.0],[178.7766,63.5995,0.0],[178.7813,63.5938,0.928],[178.7828,63.5943,1.9655],[178.7849,63.6005,1.2659],[178.7818,63.6036,1.5941],[178.7891,63.6047,0.0],[178.7854,63.6083,0.0],[178.7797,63.6068,0.0],[178.7688,63.6146,0.6028],[178.7583,63.6146,0.0],[178.7505,63.6172,14.6807],[178.7536,63.6203,0.0],[178.7474,63.6245,5.3504],[178.7292,63.6271,3.5582],[178.725,63.6292,0.0],[178.7224,63.6255,7.7398],[178.7042,63.6208,3.4173],[178.6896,63.6208,9.4644],[178.6854,63.6229,0.0],[178.6792,63.6208,21.6362],[178.6724,63.6245,11.5113],[178.6609,63.6276,14.7415],[178.6536,63.6328,5.0506],[178.6484,63.6339,15.7189],[178.6474,63.637,7.2953],[178.6422,63.6401,1.5416],[178.6453,63.6432,0.0],[178.6432,63.6453,0.0],[178.638,63.6464,6.8397],[178.6411,63.6495,0.0],[178.6333,63.6521,7.5555],[178.6255,63.6526,14.7204],[178.6245,63.6578,0.0],[178.6193,63.6589,7.6726],[178.6172,63.6609,14.0837],[178.6172,63.6641,0.0],[178.6203,63.6651,0.0],[178.6193,63.6703,0.6766],[178.6266,63.6714,0.0],[178.6214,63.6745,0.0],[178.6313,63.675,0.0],[178.6354,63.6771,9.1349],[178.6458,63.6771,3.1099],[178.65,63.675,0.0],[178.6542,63.6771,3.5832],[178.6578,63.6766,2.732],[178.6625,63.6646,0.0],[178.6609,63.6609,0.0],[178.6812,63.6604,0.0],[178.6979,63.6542,5.331],[178.7083,63.6542,8.1715],[178.7109,63.6505,0.0],[178.7161,63.6495,0.0],[178.7208,63.6437,0.0],[178.7271,63.6437,0.0],[178.7312,63.6417,0.3657],[178.75,63.6417,0.0],[178.7563,63.6437,14.3979],[178.7646,63.6396,0.0],[178.7724,63.6391,4.1545],[178.7792,63.6271,0.2152],[178.7786,63.6234,0.0819],[178.7713,63.6224,0.0],[178.7734,63.6193,0.0],[178.7891,63.6141,0.0],[178.7953,63.6099,0.5488],[178.7922,63.6078,0.7689],[178.7937,63.6063,0.8822],[178.7974,63.6068,0.879],[178.8042,63.6125,0.0],[178.7979,63.6271,4.1028],[178.8,63.6312,2.0656],[178.7958,63.6417,4.6927],[178.7984,63.6474,0.0],[178.8016,63.6495,0.0],[178.7964,63.6505,3.3938],[178.7995,63.6536,0.0],[178.7943,63.6547,2.4743],[178.7974,63.6578,0.0],[178.7922,63.6589,3.0525],[178.7953,63.6609,0.0],[178.7974,63.6661,0.0],[178.788,63.6672,5.6122],[178.7912,63.6693,2.9407],[178.7922,63.6724,1.6265],[178.7953,63.6734,0.0],[178.7917,63.6813,3.1716],[178.7932,63.6849,0.0],[178.7901,63.6859,3.2978],[178.7932,63.6891,0.0],[178.788,63.6984,3.9283],[178.7917,63.7021,0.0],[178.7875,63.7104,3.0641],[178.7912,63.7141,0.0],[178.7859,63.7151,12.0244],[178.7891,63.7172,0.0],[178.7839,63.7276,9.5908],[178.787,63.7297,0.0],[178.787,63.7328,0.0],[178.7818,63.7339,6.2714],[178.7849,63.737,0.0],[178.7797,63.738,12.6873],[178.7828,63.7411,0.0],[178.7755,63.7464,3.4379],[178.7713,63.7547,5.1369],[178.7745,63.7568,1.8234],[178.7713,63.7589,4.5745],[178.7724,63.7641,0.0],[178.7703,63.7682,2.2724],[178.7651,63.7693,7.9442],[178.7646,63.7708,9.6082],[178.7682,63.7734,1.3229],[178.763,63.7839,8.7467],[178.7667,63.7875,0.0],[178.7625,63.7958,0.0],[178.7661,63.7995,0.0],[178.7609,63.8005,0.0],[178.762,63.8057,0.0],[178.7589,63.8068,0.0],[178.7547,63.813,7.5694],[178.7578,63.8161,0.0],[178.7484,63.8172,0.3337],[178.7464,63.8214,3.351],[178.7536,63.8266,0.0],[178.7484,63.8276,0.0],[178.7474,63.8307,0.0],[178.7422,63.8318,10.0859],[178.7453,63.8349,0.0],[178.7401,63.8359,8.32],[178.7432,63.8391,0.0],[178.738,63.8422,9.4102],[178.7396,63.8458,0.0],[178.7391,63.8495,0.0],[178.7214,63.8859,5.809],[178.7245,63.8891,0.0],[178.7193,63.8901,2.8931],[178.7146,63.9021,4.0008],[178.7182,63.9057,0.0],[178.7161,63.9078,0.0],[178.7109,63.9089,3.6267],[178.7109,63.912,4.1892],[178.7141,63.9141,0.0],[178.7063,63.9146,4.4494],[178.7021,63.9125,3.3527],[178.6917,63.9125,5.4099],[178.6891,63.9161,5.5606],[178.6839,63.9172,8.838],[178.6938,63.9229,3.0953],[178.6979,63.9229,4.1921],[178.7021,63.9208,4.4221],[178.7099,63.9214,0.0],[178.7099,63.9245,0.0],[178.7057,63.9328,0.0],[178.6917,63.9333,0.6853],[178.6891,63.937,0.0],[178.6797,63.938,1.0772],[178.6812,63.9396,0.0],[178.6974,63.9401,0.0],[178.6953,63.9432,0.0],[178.6833,63.9437,0.0],[178.6792,63.9417,0.0],[178.675,63.9417,0.0],[178.6672,63.9443,5.9935],[178.6662,63.9474,0.0],[178.6547,63.9505,4.9287],[178.6521,63.9542,0.0],[178.6021,63.9542,1.3738],[178.5917,63.9583,0.0],[178.5813,63.9583,1.7472],[178.5693,63.963,5.4311],[178.5661,63.9661,0.0],[178.5568,63.9672,10.1954],[178.5599,63.9703,0.0],[178.5521,63.9708,6.4511],[178.5495,63.9745,0.0],[178.5417,63.975,0.0],[178.5313,63.9792,0.0],[178.5167,63.9792,0.0],[178.5141,63.9755,0.0],[178.5109,63.9745,0.0],[178.512,63.9714,0.0],[178.5021,63.9688,0.0],[178.4917,63.9688,0.0],[178.4875,63.9667,12.3729],[178.4771,63.9708,0.0],[178.4693,63.9714,0.0],[178.4625,63.975,0.0],[178.4339,63.9755,1.1784],[178.4339,63.9786,1.3746],[178.4438,63.9813,0.0],[178.45,63.9813,1.1504],[178.4542,63.9792,0.0],[178.4583,63.9813,2.1554],[178.4729,63.9771,1.0773],[178.4807,63.9776,0.0],[178.4787,63.9828,0.0],[178.475,63.9854,0.2479],[178.4667,63.9854,-1.0],[178.4625,63.9833,-0.5],[178.4547,63.9839,1.2233],[178.4547,63.987,-0.5],[178.4688,63.9875,-1.0],[178.4708,63.9896,0.4605],[178.4688,63.9917,0.0],[178.4609,63.9922,0.5],[178.4641,63.9953,0.6177],[178.4588,63.9964,1.0441],[178.4542,64.0021,0.0],[178.4479,64.0,0.0],[178.4438,64.0021,0.0],[178.4396,64.0021,0.0],[178.4297,63.9974,0.0],[178.4307,63.9943,0.0],[178.4187,63.9938,0.0],[178.4005,63.9891,0.0],[178.3938,63.9854,1.4045],[178.3833,63.9854,1.7936],[178.3792,63.9875,0.787],[178.3646,63.9875,0.0],[178.3464,63.9828,0.0],[178.3422,63.9807,0.0],[178.3432,63.9776,2.1794],[178.3333,63.975,0.0],[178.3271,63.9771,0.8989],[178.3167,63.9771,0.0],[178.3125,63.9792,0.0],[178.3062,63.9792,0.0],[178.2958,63.9833,0.9938],[178.2854,63.9833,0.0],[178.2813,63.9854,0.0],[178.2729,63.9813,0.0],[178.2568,63.9818,0.0],[178.2583,63.9833,0.0],[178.2724,63.9859,0.0],[178.2792,63.9896,1.7422],[178.2833,63.9896,0.0],[178.2875,63.9875,0.0],[178.3,63.9875,14.0136],[178.3026,63.9839,0.0],[178.3104,63.9833,2.7768],[178.3146,63.9813,1.0356],[178.3271,63.9854,0.0],[178.3349,63.9859,0.0],[178.3396,63.9896,2.0054],[178.35,63.9896,0.0],[178.3542,63.9917,0.0],[178.3583,63.9917,0.0],[178.3599,63.9922,0.0],[178.3589,63.9953,0.0],[178.3604,63.9958,0.0],[178.3854,63.9958,0.0],[178.3901,63.9995,2.1633],[178.3995,64.0005,0.0],[178.4026,64.0036,0.0],[178.4182,64.0109,0.0],[178.4255,64.0162,1.565],[178.4375,64.0167,0.0],[178.4458,64.0208,0.9339],[178.4557,64.0214,0.0],[178.4479,64.025,0.4086],[178.4375,64.0229,0.0],[178.4255,64.0276,0.0],[178.4234,64.0297,0.9693],[178.425,64.0313,0.0],[178.4458,64.0313,0.0],[178.45,64.0292,0.0],[178.4542,64.0313,5.4015],[178.4604,64.0292,0.0],[178.4646,64.0313,1.0065],[178.4688,64.0292,0.0],[178.4875,64.0292,0.0],[178.4932,64.0318,0.0],[178.4943,64.0349,3.5197],[178.5005,64.0391,4.3771],[178.5099,64.0401,0.0],[178.5161,64.0443,0.0],[178.5151,64.0516,5.5223],[178.5224,64.0526,0.0],[178.5213,64.0557,0.0],[178.5313,64.0604,0.0],[178.5375,64.0604,0.0],[178.5521,64.0563,0.4666],[178.5646,64.0625,4.1477],[178.5792,64.0625,0.0],[178.5833,64.0604,0.0],[178.5953,64.0609,3.2584],[178.5901,64.063,7.4691],[178.5849,64.0724,2.0024],[178.5797,64.0734,9.5651],[178.5828,64.0755,0.0],[178.5797,64.0776,6.2048],[178.5807,64.0807,0.0],[178.5714,64.0839,9.9379],[178.5693,64.0859,9.6431],[178.5724,64.0891,0.0],[178.563,64.0901,9.8709],[178.5661,64.0922,0.0],[178.5661,64.0953,0.0],[178.5609,64.0964,10.1097],[178.5578,64.1016,0.0],[178.5526,64.1026,9.9735],[178.5557,64.1057,0.0],[178.5505,64.1068,10.552],[178.5495,64.1099,0.0],[178.5443,64.1109,11.058],[178.5474,64.1141,0.0],[178.5422,64.1151,9.5131],[178.537,64.1245,0.0],[178.5255,64.1318,8.4973],[178.5224,64.1391,0.0],[178.5172,64.1401,5.57],[178.5161,64.1432,0.0],[178.5109,64.1443,6.0031],[178.5141,64.1474,0.0],[178.5089,64.1484,0.0],[178.5068,64.1505,0.0],[178.5057,64.1557,0.0],[178.5005,64.1568,0.0],[178.4974,64.162,0.0],[178.4922,64.163,5.9804],[178.4912,64.1661,4.4085],[178.4818,64.1672,0.9666],[178.4891,64.1703,1.0323],[178.4818,64.1755,5.5257],[178.4807,64.1787,4.1725],[178.4755,64.1797,6.3422],[178.4682,64.1953,0.0],[178.4568,64.1984,7.7421],[178.4599,64.2005,0.0],[178.4599,64.2037,0.0],[178.4547,64.2047,5.1582],[178.4495,64.2141,0.0],[178.4417,64.2146,8.3299],[178.4375,64.2167,0.158],[178.4333,64.2146,0.9675],[178.4255,64.2151,7.0824],[178.4255,64.2182,0.7938],[178.4287,64.2203,0.9225],[178.4255,64.2255,1.6415],[178.4255,64.2286,1.0799],[178.4328,64.2297,1.6032],[178.4333,64.2312,2.2229],[178.4287,64.2391,0.0],[178.4234,64.2401,2.9604],[178.4203,64.2495,0.0],[178.4151,64.2505,6.3464],[178.413,64.2526,4.4716],[178.412,64.2578,0.0],[178.4042,64.2604,1.6937],[178.3875,64.2604,0.2641],[178.3755,64.2651,0.8722],[178.3776,64.2724,0.7022],[178.3797,64.2745,0.5201],[178.3917,64.2729,0.4898],[178.3938,64.275,1.5547],[178.3932,64.2766,4.6844],[178.388,64.2776,6.6148],[178.388,64.2807,6.6067],[178.3911,64.2828,0.0],[178.3891,64.2849,0.0],[178.3839,64.2859,7.1467],[178.3807,64.2953,0.0],[178.3755,64.2963,5.6273],[178.3708,64.3021,0.0],[178.363,64.3016,9.5924],[178.3542,64.2958,8.9553],[178.3464,64.2963,12.4168],[178.3495,64.2995,8.3668],[178.3443,64.3005,8.2382],[178.3443,64.3037,9.5804],[178.3646,64.3042,10.0184],[178.3703,64.3078,0.0],[178.3682,64.3099,0.0],[178.363,64.3109,5.338],[178.362,64.3141,0.0],[178.3568,64.3151,14.0178],[178.3568,64.3182,10.2486],[178.3599,64.3203,0.0],[178.3547,64.3214,0.0],[178.3495,64.3287,0.0],[178.3401,64.3318,8.2114],[178.3432,64.3349,0.0],[178.338,64.3359,2.9025],[178.3411,64.338,0.0],[178.3391,64.3432,0.0],[178.3276,64.3464,4.1266],[178.3224,64.3599,0.0],[178.3172,64.363,0.0],[178.312,64.3703,0.0],[178.3068,64.3714,3.6042],[178.3057,64.3766,1.7479],[178.3021,64.3771,3.2393],[178.2964,64.3745,0.0],[178.3016,64.3724,2.6334],[178.2984,64.3693,0.0],[178.3037,64.3682,2.7182],[178.3005,64.3651,0.0],[178.3042,64.3583,0.0],[178.3005,64.3547,0.0],[178.3057,64.3536,0.0],[178.3068,64.3505,0.0],[178.312,64.3495,0.9094],[178.3089,64.3464,0.0],[178.3245,64.3453,2.318],[178.3255,64.3401,0.0],[178.3307,64.3391,0.0],[178.3328,64.337,2.5615],[178.3255,64.3297,0.0],[178.3307,64.3287,0.0],[178.3349,64.3214,8.6303],[178.3276,64.3182,6.1129],[178.3266,64.3151,6.2636],[178.3172,64.3099,0.0],[178.3161,64.3068,4.1077],[178.2818,64.2891,0.0],[178.2786,64.2839,5.1319],[178.2713,64.2828,0.0],[178.2589,64.2766,1.8227],[178.2557,64.2734,3.9758],[178.2464,64.2724,0.0],[178.2474,64.2693,8.8155],[178.2432,64.2672,3.5],[178.2167,64.2604,4.3007],[178.2063,64.2604,0.0],[178.1979,64.2562,5.052],[178.1687,64.25,1.0186],[178.1536,64.2422,0.0],[178.1463,64.2412,0.0],[178.1396,64.2375,2.019],[178.1255,64.2349,0.0],[178.1245,64.2318,1.9973],[178.1214,64.2307,0.9383],[178.1234,64.2255,1.2267],[178.1286,64.2245,0.7679],[178.1255,64.2214,0.0],[178.1349,64.2203,0.0],[178.1396,64.2167,0.0],[178.1474,64.2161,0.0],[178.1463,64.2109,0.0],[178.1516,64.2078,0.0],[178.1547,64.2005,0.0],[178.1599,64.1995,0.0],[178.163,64.1943,0.0],[178.1792,64.1917,1.5328],[178.1807,64.1922,1.2992],[178.1818,64.1974,1.681],[178.1917,64.2,1.962],[178.1964,64.1943,0.5],[178.2016,64.1922,1.9881],[178.1854,64.1917,0.5],[178.1839,64.1901,0.0],[178.2146,64.1896,2.042],[178.2188,64.1875,0.0],[178.225,64.1896,2.8302],[178.2391,64.1849,2.5976],[178.2401,64.1797,0.0],[178.2453,64.1787,0.0],[178.2474,64.1766,0.0],[178.2458,64.175,0.0],[178.2229,64.1833,0.0],[178.1646,64.1833,1.7002],[178.1604,64.1854,0.0],[178.1438,64.1854,0.0],[178.1396,64.1875,0.0],[178.1354,64.1854,0.0],[178.1208,64.1854,1.5289],[178.1104,64.1896,0.0],[178.0938,64.1896,1.3395],[178.0911,64.1932,0.0],[178.0833,64.1937,1.0945],[178.063,64.2005,0.0],[178.0609,64.2078,0.9052],[178.0641,64.2099,1.0419],[178.062,64.212,0.0],[178.0437,64.2146,0.0],[178.0396,64.2167,0.0],[178.0354,64.2146,0.0],[178.0313,64.2167,0.0],[178.0188,64.2167,1.3919],[178.0146,64.2188,0.0],[178.0,64.2188,1.4141],[177.9984,64.2172,0.0],[178.0036,64.2161,0.7871],[178.0057,64.2089,0.0],[177.9917,64.2042,0.0],[177.9771,64.2042,0.0],[177.9563,64.2104,0.0],[177.95,64.2104,1.9111],[177.9474,64.2141,0.0],[177.9396,64.2146,1.1321],[177.9292,64.2188,0.0],[177.9229,64.2188,2.005],[177.9187,64.2208,0.0],[177.9125,64.2188,1.9737],[177.9083,64.2229,0.0],[177.9021,64.2229,1.7087],[177.8979,64.225,0.0],[177.8854,64.225,0.7509],[177.8771,64.2292,0.0],[177.8693,64.2297,0.0],[177.8646,64.2333,0.0],[177.8542,64.2333,1.2609],[177.8495,64.237,0.0],[177.8443,64.238,0.0],[177.8432,64.2412,0.0],[177.8318,64.2443,0.0],[177.8245,64.2495,0.0],[177.8193,64.2505,0.0],[177.8182,64.2536,0.0],[177.813,64.2547,0.0],[177.812,64.2578,0.0],[177.8005,64.2609,0.0],[177.7995,64.2641,0.0],[177.7917,64.2667,0.0],[177.7839,64.2672,0.0],[177.7807,64.2724,0.0],[177.7755,64.2734,0.0],[177.7745,64.2766,0.0],[177.7693,64.2776,0.0],[177.7599,64.2849,0.0],[177.7505,64.2859,1.9256],[177.7474,64.2911,0.0],[177.7422,64.2922,1.5425],[177.7453,64.2953,0.0],[177.7401,64.2963,0.0],[177.7391,64.2995,0.0],[177.7328,64.3016,0.0],[177.7234,64.3026,1.8585],[177.7203,64.3078,0.0],[177.7151,64.3089,0.0],[177.7141,64.312,0.0],[177.7057,64.3182,0.0],[177.6875,64.3229,0.0],[177.6797,64.3234,1.3563],[177.6787,64.3266,0.0],[177.6734,64.3276,0.0],[177.6703,64.3307,0.0],[177.6583,64.3354,0.0],[177.6463,64.3359,1.4945],[177.6479,64.3375,0.0],[177.6536,64.338,0.0],[177.6521,64.3396,0.0],[177.6396,64.3396,0.0],[177.6354,64.3438,0.0],[177.6292,64.3417,0.0],[177.625,64.3458,0.0],[177.6214,64.3453,0.0],[177.6224,64.3422,1.5781],[177.6208,64.3417,1.9067],[177.6162,64.3453,0.0],[177.6109,64.3464,2.3327],[177.6099,64.3495,0.0],[177.6035,64.35,2.1585],[177.6359,64.3258,1.9469],[177.7413,64.2403,1.9852],[177.782,64.2258,6.3341],[177.7504,64.2151,6.1042],[177.7915,64.1656,7.4071],[177.8008,64.115,31.1923],[177.7179,64.1117,9.6338],[177.5772,64.0799,12.0614],[177.5346,64.0384,23.754],[177.5912,64.0003,18.3223],[177.578,63.9598,26.5443],[177.5264,63.9242,9.5108],[177.4162,63.9018,23.2341],[177.3052,63.9108,17.0409],[177.1564,63.8998,17.3852],[177.0733,63.8884,22.9381],[177.0844,63.8809,20.5663],[176.9545,63.8736,30.935],[176.8941,63.8477,28.9265],[176.8551,63.8266,33.415],[176.8761,63.8021,40.0553],[176.8028,63.7796,40.5186],[176.8015,63.7398,56.8334],[176.8259,63.6869,69.024],[176.952,63.6747,38.6815],[177.0623,63.6911,46.2134],[177.2108,63.7249,47.5947],[177.3408,63.7425,12.3446],[177.468,63.7368,7.6413],[177.5367,63.6756,40.3243],[177.5512,63.6419,30.1237],[177.4856,63.5693,49.5246],[177.4853,63.4956,34.3713],[177.5542,63.4376,49.2585],[177.6322,63.4036,69.1349],[177.659,63.3614,205.7451],[177.6249,63.3151,256.6638],[177.6005,63.2667,588.934],[177.6203,63.1877,302.9295],[177.6045,63.1456,336.6776],[177.5418,63.0965,582.0475],[177.4312,63.0447,387.1344],[177.3565,63.0308,389.8781],[177.2855,63.0583,250.6586],[177.1849,63.0444,199.3848],[177.1384,63.0695,419.3731],[177.0272,63.0544,615.306],[176.9595,63.0273,618.1589],[176.9691,62.9658,51.4774],[176.9137,62.9465,627.5969],[176.7695,62.9234,666.0992],[176.6489,62.8891,688.2575],[176.5906,62.8639,497.3675],[176.5271,62.8849,298.1986],[176.5388,62.9382,590.5248],[176.5383,62.9803,435.5195],[176.4619,62.985,887.8376],[176.4021,62.9986,616.3044],[176.2316,62.9953,804.0782],[176.1919,63.0132,684.6726],[176.1208,63.0136,1258.5555],[176.02,63.0066,596.3045],[175.9281,63.0145,723.8273],[175.8948,63.0454,591.3902],[176.0488,63.132,774.6934],[176.2222,63.1722,611.9641],[176.2348,63.211,340.2558],[176.1108,63.2222,309.7045],[175.9384,63.2554,305.7572],[175.7988,63.2594,403.1832],[175.6405,63.2278,994.2235],[175.6937,63.173,658.1742],[175.6131,63.1485,660.3967],[175.5733,63.1185,440.6996],[175.5787,63.0743,642.2133],[175.5264,63.0617,826.5168],[175.3562,63.0601,503.6137],[175.2477,63.0942,479.8482],[175.0462,63.0604,219.7704],[175.0092,63.0258,356.6657],[174.9314,62.9927,249.8801],[174.8418,63.0136,649.0471],[174.7474,63.0138,387.0989],[174.6206,62.9914,900.6697],[174.5421,62.9965,456.24],[174.4649,63.0187,672.0679],[174.3975,63.033,536.2372],[174.108,63.0177,866.5123],[173.9545,62.9859,719.109],[173.8175,62.9481,601.8043],[173.79,62.9156,527.2787],[173.7791,62.8707,350.3518],[173.695,62.8503,339.1075],[173.6561,62.8753,447.5166],[173.683,62.9025,356.919],[173.6334,62.9152,562.9998],[173.6201,62.9455,528.1794],[173.5557,62.96,444.2507],[173.5112,62.9232,592.6611],[173.4334,62.9311,443.5468],[173.3623,62.9823,522.1154],[173.3668,62.9253,351.727],[173.3073,62.8859,321.4578],[173.2282,62.8745,305.4017],[173.1961,62.922,593.139],[173.1345,62.9349,647.062],[173.0842,62.8943,412.5886],[172.9811,62.8822,520.6343],[172.9479,62.8509,423.2626],[172.8732,62.8271,376.1486],[172.7634,62.8435,515.1367],[172.7286,62.8179,416.8984],[172.7472,62.7595,515.7573],[172.7072,62.7054,371.6458],[172.5837,62.6887,331.4871],[172.5413,62.6433,350.1964],[172.5782,62.6043,304.0787],[172.4356,62.5636,356.1735],[172.3315,62.522,371.6046],[172.2409,62.5195,479.8633],[172.1542,62.5399,645.9557],[172.0941,62.5435,472.6645],[171.9943,62.5206,731.2176],[171.9388,62.4837,464.0902],[171.5398,62.4321,844.6876],[171.4458,62.3868,878.046],[171.3172,62.3364,678.4102]]],
[[[179.2833,63.0021,2.8073],[179.2792,63.0021,0.0],[179.2776,63.0005,0.0],[179.2792,63.0,1.5957],[179.2792,62.9979,1.7992],[179.2813,62.9979,2.6109],[179.287,63.0005,0.0],[179.2833,63.0021,2.8073]]],
[[[179.0771,63.2813,0.0],[179.063,63.2849,0.0],[179.0651,63.2818,0.0],[179.0745,63.2786,0.0],[179.0714,63.2755,0.0],[179.0755,63.2693,0.0],[179.0911,63.2714,2.0033],[179.0859,63.2734,0.0],[179.0891,63.2766,0.0],[179.0797,63.2776,1.2157],[179.0771,63.2813,0.0]]],
[[[179.0526,63.2964,0.0],[179.0396,63.3,0.0],[179.038,63.2995,0.0],[179.0391,63.2943,0.2231],[179.0359,63.2922,0.3001],[179.0474,63.2891,0.4808],[179.05,63.2854,0.0],[179.062,63.2859,0.0],[179.0599,63.2891,0.0],[179.0547,63.2922,0.0],[179.0526,63.2964,0.0]]],
[[[179.0333,63.3063,1.0584],[179.0297,63.3057,0.641],[179.0297,63.3047,0.469],[179.0349,63.3047,0.0],[179.0333,63.3063,1.0584]]],
[[[179.0057,63.3286,1.1398],[179.0036,63.3328,0.0],[178.9984,63.3339,2.4433],[178.9953,63.3391,1.8281],[178.9922,63.3391,1.897],[178.9896,63.3333,0.0],[178.9922,63.3297,0.0],[178.9995,63.3286,0.0],[179.0026,63.3234,0.0],[179.0078,63.3224,0.0],[179.0151,63.3172,0.4999],[179.0245,63.3172,0.0],[179.013,63.3214,1.3299],[179.0099,63.3266,2.066],[179.0057,63.3286,1.1398]]],
[[[178.9891,63.3401,0.0],[178.9875,63.3417,0.0],[178.9859,63.3411,0.0],[178.9859,63.3401,0.0],[178.9891,63.3401,0.0]]],
[[[178.987,63.3443,1.21],[178.9854,63.3458,1.7154],[178.9839,63.3453,0.5736],[178.9854,63.3438,0.0],[178.987,63.3443,1.21]]],
[[[178.7292,63.4167,0.0],[178.7307,63.4182,0.0],[178.7255,63.4193,0.0],[178.7224,63.4266,0.0],[178.7208,63.4271,0.0],[178.7109,63.4224,0.0],[178.7125,63.4208,0.0],[178.7203,63.4203,9.328],[178.7151,63.4151,0.0],[178.7208,63.4146,0.0],[178.7245,63.412,0.0],[178.7339,63.3943,0.0],[178.7417,63.3937,2.4854],[178.7458,63.3917,0.0],[178.7542,63.3958,2.037],[178.7583,63.3958,0.0],[178.7625,63.3979,0.0],[178.7708,63.3979,0.0],[178.7776,63.4016,0.0],[178.7849,63.4026,0.0],[178.7917,63.4083,7.0887],[178.7896,63.4104,4.0557],[178.7833,63.4104,1.3373],[178.7766,63.4068,2.7439],[178.7667,63.4042,4.8647],[178.7479,63.4042,0.0],[178.7437,63.4063,0.0],[178.7359,63.4068,7.4502],[178.7328,63.412,5.5167],[178.7276,63.4151,15.0097],[178.7292,63.4167,0.0]]],
[[[178.8042,63.4354,5.1379],[178.7964,63.438,0.0],[178.7937,63.4417,0.0],[178.7729,63.4417,0.0],[178.7713,63.4411,0.0],[178.7724,63.438,35.3584],[178.7693,63.437,0.0],[178.7708,63.4354,0.0],[178.7786,63.4349,6.1505],[178.7755,63.4328,0.0],[178.7766,63.4276,6.4236],[178.7734,63.4255,0.0],[178.7813,63.4229,0.0],[178.7891,63.4224,0.0],[178.7859,63.4203,0.0],[178.7875,63.4188,0.0],[178.8083,63.4188,0.0],[178.8099,63.4193,0.0],[178.8089,63.4224,0.0],[178.8161,63.4255,1.38],[178.8089,63.4297,2.1921],[178.8078,63.4349,0.0],[178.8042,63.4354,5.1379]]],
[[[178.7729,63.5833,0.8069],[178.7688,63.5833,0.2501],[178.7672,63.5818,0.4627],[178.7745,63.5818,0.0],[178.7729,63.5833,0.8069]]],
[[[178.7776,63.5911,0.0],[178.7755,63.5859,0.216],[178.7828,63.588,0.0],[178.7807,63.5911,1.4423],[178.7776,63.5911,0.0]]],
[[[178.6958,63.3979,0.0],[178.6922,63.3943,0.0],[178.7036,63.3943,5.4188],[178.6995,63.3974,0.0],[178.6958,63.3979,0.0]]],
[[[178.662,63.4057,2.6386],[178.6589,63.4057,0.8453],[178.6589,63.4026,5.7752],[178.6641,63.4026,0.1614],[178.662,63.4057,2.6386]]],
[[[178.7417,63.575,0.0],[178.7453,63.5766,0.0],[178.7375,63.5792,0.0],[178.7292,63.5792,0.0],[178.7193,63.5766,0.0],[178.7146,63.5729,0.3135],[178.7188,63.5687,0.4594],[178.7292,63.5687,0.0],[178.7307,63.5693,0.0],[178.7297,63.5724,0.0],[178.7417,63.575,0.0]]],
[[[178.7083,63.9188,4.5786],[178.7042,63.9188,4.0079],[178.7026,63.9172,2.815],[178.712,63.9172,0.0],[178.7083,63.9188,4.5786]]],
[[[178.6891,63.9578,0.4425],[178.6859,63.9578,0.0],[178.6859,63.9568,0.0],[178.6875,63.9562,0.1882],[178.6891,63.9578,0.4425]]],
[[[178.6807,63.9766,0.8531],[178.6776,63.9766,0.612],[178.6776,63.9755,0.5455],[178.6792,63.975,0.0],[178.6807,63.9766,0.8531]]],
[[[178.6563,63.9979,0.0],[178.6526,63.9974,0.0],[178.6526,63.9964,0.9745],[178.6578,63.9964,0.0],[178.6563,63.9979,0.0]]],
[[[178.65,64.0021,0.3113],[178.6463,64.0005,0.3892],[178.6557,64.0005,0.0],[178.6542,64.0021,0.722],[178.65,64.0021,0.3113]]],
[[[178.6568,64.0089,0.9847],[178.6589,64.0068,0.67],[178.662,64.0068,2.0791],[178.6599,64.0099,2.566],[178.6568,64.0089,0.9847]]],
[[[178.6307,64.0328,2.1316],[178.6214,64.0339,1.3663],[178.6245,64.0359,1.1959],[178.6245,64.0391,2.4225],[178.6146,64.0458,1.4065],[178.6104,64.0458,0.0],[178.6062,64.0437,0.8329],[178.5943,64.0432,0.4019],[178.5901,64.0411,0.0],[178.5911,64.0359,1.2935],[178.588,64.0349,0.0],[178.5896,64.0333,0.1748],[178.6167,64.0333,0.5],[178.6208,64.0313,1.3107],[178.6271,64.0313,1.1579],[178.6349,64.0266,0.5478],[178.637,64.0214,0.922],[178.6339,64.0193,0.0],[178.6396,64.0188,0.6062],[178.6453,64.0214,3.4572],[178.6453,64.0245,2.8617],[178.6432,64.0266,2.831],[178.6307,64.0328,2.1316]]],
[[[178.5974,64.0568,0.9948],[178.5943,64.0547,0.0],[178.6,64.0542,0.0],[178.6021,64.0563,1.8666],[178.6,64.0583,2.1985],[178.5974,64.0568,0.9948]]],
[[[178.4724,63.6099,0.0],[178.4708,63.6104,0.0],[178.4693,63.6089,0.0],[178.4708,63.6083,0.0],[178.4724,63.6099,0.0]]],
[[[178.4766,63.612,0.0],[178.4734,63.612,0.0],[178.4734,63.6109,0.0],[178.4766,63.6109,0.0],[178.4766,63.612,0.0]]],
[[[178.4625,64.0188,0.0],[178.4588,64.0172,0.7596],[178.4661,64.0172,0.5262],[178.4661,64.0182,0.0],[178.4625,64.0188,0.0]]],
[[[177.5979,64.3542,0.0],[177.5974,64.3557,0.0],[177.5952,64.3562,0.0],[177.5962,64.3554,0.0],[177.5979,64.3542,0.0]]],
[[[178.2936,64.3854,2.7085],[178.2922,64.3839,1.0139],[178.2953,64.3839,3.8416],[178.2953,64.3849,3.9467],[178.2936,64.3854,2.7085]]],
[[[178.2917,64.3896,3.248],[178.2901,64.388,4.0599],[178.2953,64.388,0.0],[178.2953,64.3891,0.0],[178.2917,64.3896,3.248]]],
[[[178.25,64.4187,0.0],[178.2422,64.4213,3.7895],[178.237,64.4287,0.0],[178.2307,64.4328,2.8238],[178.2276,64.4328,0.0],[178.2276,64.4297,0.0],[178.2328,64.4203,1.9869],[178.2297,64.4172,0.0],[178.2349,64.4161,1.6259],[178.2318,64.413,0.0],[178.237,64.4099,1.1665],[178.2401,64.4047,0.8472],[178.2479,64.4021,0.0],[178.2625,64.4042,0.0],[178.2745,64.3995,0.0],[178.2776,64.3943,0.0],[178.2828,64.3932,2.9992],[178.2839,64.3901,0.0],[178.2875,64.3896,0.0],[178.2932,64.3922,0.0],[178.2818,64.3984,3.746],[178.2786,64.4036,0.0],[178.2672,64.4068,3.4626],[178.2661,64.4099,0.0],[178.2609,64.4109,3.2084],[178.2599,64.4141,0.0],[178.2547,64.4151,2.8242],[178.25,64.4187,0.0]]]]}}