{"type":"Feature","properties":{"featurecla":"Island","name":"Bering I.","namealt":null,"region":"Asia","subregion":null,"min_label":6.0,"max_label":11.0,"scalerank":6},
"geometry":{"type": "Polygon","coordinates": [[[165.95545494883376,55.365423895306577,0.0],[165.94031823008376,55.366156317181549,0.0],[165.9238387378962,55.359686590619049,0.0],[165.9165145191462,55.352240301556549,0.0],[165.90149987070876,55.331732489056549,0.0],[165.89002526133376,55.322455145306606,0.0],[165.85828698008376,55.310003973431577,38.0256],[165.8200789722712,55.302435614056634,6.5746],[165.7463485035212,55.298224188275356,0.0],[165.7646590503962,55.283880926556577,19.8111],[165.80030358164626,55.273138739056606,0.0],[165.8982039722712,55.258429266400327,35.9369],[165.96168053477126,55.231756903119106,0.0],[165.9926863941462,55.223150946087827,19.8894],[165.96949303477126,55.206732489056577,0.0],[165.9810897144587,55.194647528119106,0.635],[166.02344811289626,55.178778387494077,0.0],[166.0803328785212,55.121588446087856,0.0],[166.08838951914626,55.103338934369049,76.6001],[166.0847274097712,55.081061102337856,20.9376],[166.0798445972712,55.070563055462827,78.835],[166.08277428477126,55.061835028119134,22.2206],[166.1624861988337,55.000860907025356,8.853],[166.1777449878962,54.982977606244049,43.6024],[166.1823836597712,54.9736392273378,34.8331],[166.18921959727126,54.954901434369106,55.2078],[166.1950789722712,54.9456851257753,25.5265],[166.2063094410212,54.937811590619077,0.0269],[166.2315779957087,54.932684637494106,0.0],[166.25318444102126,54.919623114056606,42.0334],[166.2817488941462,54.909491278119106,0.0],[166.2876082691462,54.904730535931606,21.6229],[166.2906600269587,54.893194891400356,78.5798],[166.29810631602126,54.885016180462884,49.4824],[166.35621178477126,54.840765692181634,0.0],[166.3742781910212,54.834540106244106,179.6968],[166.3974715503962,54.832709051556577,0.0],[166.4449569019587,54.835150457806549,0.6388],[166.4746199878962,54.833502508587856,122.1832],[166.4998885425837,54.825873114056606,0.0],[166.48560631602126,54.802496649212856,6.1457],[166.50184166758376,54.781622625775356,0.0],[166.55445397227126,54.750189520306549,0.0],[166.5791121753962,54.7264468445253,172.696],[166.5921736988337,54.718878485150356,85.3441],[166.6128035816462,54.716009832806606,165.7729],[166.6244002613337,54.711249090619106,351.5504],[166.6518660816462,54.688544012494106,282.3979],[166.66431725352126,54.681280828900356,51.5705],[166.6545516285212,54.703558660931549,476.0812],[166.65821373789626,54.719122625775327,416.332],[166.6650496753962,54.734930731244049,60.1901],[166.66431725352126,54.757635809369077,7.2761],[166.65784752695876,54.771857000775327,342.9905],[166.64124596445876,54.797308660931577,33.1022],[166.63697350352126,54.8122622742128,95.7927],[166.64075768320876,54.8241030945253,354.1473],[166.6479598316462,54.835089422650327,12.912],[166.6496688160212,54.845770574994077,0.0],[166.58936608164626,54.8907534851503,0.0],[166.5847274097712,54.9060122742128,96.4925],[166.5731307300837,54.913580633587827,153.8622],[166.5407820972712,54.921515203900356,5.0185],[166.4787703785212,54.944769598431577,118.57],[166.4480086597712,54.9622866882753,0.0],[166.4183455738337,54.993902899212856,0.0],[166.40577233164626,55.000128485150384,58.9749],[166.3951522144587,55.007391668744049,27.4834],[166.38660729258376,55.032904364056606,89.4449],[166.3768416675837,55.040472723431634,29.562],[166.3646346363337,55.0468814148378,142.4667],[166.35316002695876,55.0555484070253,144.0329],[166.3183699878962,55.096869207806577,54.2366],[166.3061629566462,55.106695867962827,165.0191],[166.27979576914626,55.123846746869077,80.6038],[166.2671004566462,55.134405828900384,76.1654],[166.25013268320876,55.153509832806577,128.6104],[166.24415123789626,55.163580633587884,202.4151],[166.2398787769587,55.175360418744077,23.4097],[166.2407332691462,55.216131903119134,93.4096],[166.2260848316462,55.251288153119106,80.8023],[166.24097740977126,55.271185614056549,67.098],[166.2876082691462,55.305121160931549,0.0],[166.2761336597712,55.309027410931634,39.9585],[166.26587975352126,55.314642645306634,53.3157],[166.25806725352126,55.322455145306606,33.7775],[166.2534285816462,55.333014227337827,0.0],[166.2398787769587,55.333014227337827,0.0],[166.1798201832087,55.320624090619106,0.0],[165.95545494883376,55.365423895306577,0.0]]]}}