{"type":"Feature","properties":{"GID_3":"RUS.29.8.1_1","GID_0":"RUS","country":"Russia","GID_1":"RUS.29_1","province":"Khakass","NL_NAME_1":"РеспубликаХакасия","GID_2":"RUS.29.8_1","county":"Shirinskiyrayon","NL_NAME_2":"Ширинскийрайон","city":"NA","VARNAME_3":"NA","NL_NAME_3":"NA","TYPE_3":"NA","ENGTYPE_3":"NA","CC_3":"NA","HASC_3":"NA","name":"N_A.city"},
"geometry":{"type": "MultiPolygon","coordinates": [[[[89.1568,53.9024,1113.95],[89.2183,53.9049,1084.769],[89.2618,53.9276,927.0219],[89.2949,53.9741,960.9225],[89.316,54.0416,1026.8242],[89.3598,54.0863,873.2206],[89.4663,54.1104,932.0079],[89.5071,54.0941,1054.5022],[89.5634,54.1077,879.0129],[89.6376,54.1405,966.5754],[89.72,54.1437,793.4777],[89.838,54.1631,870.468],[89.9018,54.1938,936.8856],[89.9476,54.2265,904.367],[89.9915,54.2286,933.1369],[90.0389,54.2008,1018.275],[90.0983,54.2081,827.3688],[90.1447,54.2269,877.3033],[90.2347,54.2323,803.7669],[90.2837,54.2092,821.8448],[90.3497,54.2279,817.2974],[90.4125,54.2518,737.3101],[90.4608,54.3009,658.5817],[90.4921,54.3082,594.8958],[90.5149,54.3551,554.5097],[90.4707,54.3889,593.5291],[90.4224,54.4112,477.5682],[90.4182,54.5053,388.793],[90.4019,54.525,413.4962],[90.3749,54.5648,490.3196],[90.4076,54.5924,436.1472],[90.4762,54.5855,410.8025],[90.5155,54.5871,362.252],[90.5447,54.6143,408.3998],[90.5304,54.6461,424.8827],[90.4834,54.6778,493.2963],[90.4715,54.7125,472.7448],[90.4729,54.7676,422.8976],[90.4583,54.8708,464.4474],[90.4003,54.8466,419.7437],[90.0838,54.7985,572.7534],[89.9018,54.7501,399.0192],[89.8359,54.7854,595.7621],[89.8178,54.7534,399.202],[89.8423,54.6831,502.1107],[89.7747,54.6329,486.845],[89.6684,54.6138,420.8454],[89.5704,54.6552,601.04],[89.5563,54.681399999999996,543.6238],[89.5231,54.7122,606.259],[89.4527,54.7185,474.7833],[89.3039,54.6832,600.2455],[89.3248,54.7375,692.6245],[89.2712,54.7609,616.0918],[89.1978,54.7125,709.9866],[89.2264,54.6316,507.5136],[89.1574,54.6156,532.0916],[89.1127,54.557,647.0541],[89.0773,54.4836,719.4052],[88.9834,54.4366,946.2863],[88.9213,54.3936,884.4988],[88.8889,54.3791,972.2782],[88.895,54.3757,901.3997],[88.9053,54.3401,945.717],[88.9074,54.3155,886.9029],[88.9681,54.293,1231.3832],[89.0477,54.3052,1015.1764],[89.0863,54.3263,1294.1892],[89.1337,54.339,1320.4594],[89.1634,54.3189,1125.2634],[89.1874,54.2672,1079.6221],[89.2018,54.2163,1166.9839],[89.2027,54.1734,1155.3397],[89.1576,54.1352,1310.7228],[89.0639,54.0796,1119.6432],[89.0407,54.0315,1331.6486],[89.0294,53.9837,1479.8251],[89.0305,53.9517,1576.6914],[89.09,53.9419,1223.3086],[89.1577,53.9428,1082.8394],[89.1568,53.9024,1113.95]]]]}}