{"type":"Feature","properties":{"GID_3":"RUS.60.26.1_1","GID_0":"RUS","country":"Russia","GID_1":"RUS.60_1","province":"Sakha","NL_NAME_1":"РеспубликаСаха","GID_2":"RUS.60.26_1","county":"Suntarskiyrayon","NL_NAME_2":"Сунтарскийрайон","city":"NA","VARNAME_3":"NA","NL_NAME_3":"NA","TYPE_3":"NA","ENGTYPE_3":"NA","CC_3":"NA","HASC_3":"NA","name":"N_A.city"},
"geometry":{"type": "MultiPolygon","coordinates": [[[[117.6033,60.8742,330.7776],[117.673,60.8729,364.9789],[117.7958,60.8862,365.1779],[117.8661,60.9247,327.0444],[117.9243,60.962,345.6389],[118.0151,60.9839,372.1628],[118.126,61.0162,368.57],[118.213,61.058,343.4182],[118.297,61.1011,357.2802],[118.3556,61.1662,316.6191],[118.4091,61.1788,351.1404],[118.4564,61.1819,333.1853],[118.5234,61.1945,356.9324],[118.5644,61.2218,337.2999],[118.5209,61.2387,349.5757],[118.4156,61.2562,362.21],[118.4018,61.3,331.9515],[118.4501,61.3357,314.8269],[118.5072,61.358,321.9012],[118.6442,61.3978,284.2879],[118.7182,61.4561,297.4361],[118.7903,61.4801,300.6879],[118.8675,61.482,304.0643],[118.9494,61.4943,297.6309],[119.019,61.5335,321.5505],[119.1001,61.5506,316.8621],[119.182,61.5535,296.5374],[119.2698,61.5864,308.1366],[119.3538,61.6245,296.555],[119.3883,61.6637,283.196],[119.4203,61.7257,290.4189],[119.4857,61.7588,265.4968],[119.5479,61.7942,298.3844],[119.5909,61.8499,276.9414],[119.5801,61.8916,307.212],[119.4964,61.9133,316.1367],[119.4503,61.9336,332.1339],[119.4671,61.9771,296.9848],[119.5244,62.0235,287.0959],[119.5922,62.0274,275.8937],[119.6756,62.0365,289.0466],[119.7285,62.0105,299.282],[119.7702,61.986,326.8149],[119.8313,61.9729,306.8625],[119.8926,61.9475,290.1559],[119.8775,61.9075,248.4554],[119.9265,61.8922,290.6794],[120.0997,61.8697,285.611],[120.2154,61.8505,223.1643],[120.255,61.8954,209.8276],[120.3008,61.9855,222.4838],[120.343,62.0376,223.1886],[120.3925,62.0661,221.1953],[120.4452,62.1214,258.0222],[120.4886,62.1931,245.3041],[120.4695,62.2492,283.7567],[120.3697,62.2981,319.728],[120.3608,62.3219,288.2599],[120.3903,62.3515,269.2719],[120.3852,62.3785,327.4589],[120.3246,62.402,350.0568],[120.2393,62.3831,346.5967],[120.1109,62.417,345.0255],[120.0928,62.4532,299.2823],[120.0977,62.5209,269.917],[120.081,62.5719,289.8177],[120.0115,62.6115,256.0927],[119.9356,62.6126,282.3221],[119.8966,62.5917,317.4864],[119.8004,62.6198,302.9241],[119.872,62.6718,311.6406],[119.7743,62.6889,283.6457],[119.6659,62.7176,236.88],[119.5716,62.7583,285.2716],[119.4767,62.7493,315.2278],[119.3776,62.7477,297.5495],[119.2815,62.7482,300.5445],[119.1845,62.759,274.4349],[119.0898,62.7762,286.7085],[118.9765,62.7889,274.1416],[118.8853,62.7932,271.5287],[118.6022,62.8191,268.0657],[118.3855,62.8352,234.3283],[118.3264,62.8518,191.0003],[118.2775,62.8979,165.5424],[118.213,62.9431,187.7618],[117.9848,63.0008,176.4967],[117.675,63.0571,131.6192],[117.4025,63.0861,165.8172],[117.0987,63.1055,229.3458],[116.8243,63.1303,176.9526],[116.522,63.1632,198.007],[116.2977,63.2035,205.9467],[116.1201,63.2731,163.9232],[115.8472,63.3927,240.1002],[115.6587,63.5135,182.1286],[115.493,63.6357,169.802],[115.3249,63.7755,196.2432],[115.1898,63.8674,216.4819],[115.1964,63.9498,339.1458],[115.1764,63.9684,269.2413],[115.041,64.0342,284.9737],[114.8764,64.0835,337.0455],[114.7485,64.0764,318.7888],[114.6794,64.118,300.1129],[114.5742,64.1262,376.5521],[114.3981,64.1067,328.2961],[114.2965,64.1363,318.7936],[114.2868,64.116,314.0104],[114.1462,64.0782,362.4545],[114.0839,64.0323,376.836],[114.0105,64.0179,412.9426],[113.8856,64.0282,357.836],[113.8027,64.0438,349.2482],[113.6933,64.0332,400.0496],[113.6285,64.0004,510.4936],[113.6401,63.9433,490.7953],[113.7645,63.891,441.423],[113.8491,63.844,344.2661],[113.8817,63.7795,333.5459],[113.7984,63.6705,380.5387],[113.8252,63.5974,312.3639],[113.8803,63.5052,281.0229],[114.0067,63.4267,293.8132],[114.1814,63.3627,272.2577],[114.3154,63.3079,278.2979],[114.4706,63.2536,280.4757],[114.4999,63.1984,260.7513],[114.4277,63.1576,214.4515],[114.2991,63.1323,145.5],[114.214,63.1275,198.8577],[114.1196,63.1602,172.3731],[114.0618,63.1647,307.3787],[113.9772,63.1451,372.9442],[113.8424,63.185,300.1037],[113.7198,63.177,404.3183],[113.6634,63.1702,427.1626],[113.6807,63.1182,331.7061],[113.7258,63.1041,214.8275],[113.8119,63.1063,305.0149],[113.9136,63.0749,275.0544],[113.9693,63.0257,271.1577],[113.9619,62.9623,279.9543],[114.0538,62.8986,356.5],[114.1614,62.8471,370.059],[114.1624,62.8195,282.9511],[114.1177,62.7724,313.3918],[114.2101,62.7031,354.3574],[114.325,62.681,372.9946],[114.3641,62.6644,364.8886],[114.3348,62.5901,361.0426],[114.3391,62.5255,252.8362],[114.4318,62.4338,295.4261],[114.5283,62.3884,309.8823],[114.5967,62.3669,305.2103],[114.6955,62.3524,347.6146],[114.737,62.317,328.8079],[114.7608,62.2815,343.3696],[114.8026,62.2469,316.3495],[114.9246,62.2068,301.1176],[114.8381,62.1532,337.2722],[114.8182,62.1166,360.2306],[114.8008,62.0503,340.0417],[114.8092,61.9897,333.2174],[114.7968,61.9421,366.1228],[114.8374,61.926,356.7987],[114.8122,61.8283,378.132],[114.8624,61.7946,361.0954],[114.9973,61.7897,344.5531],[115.0558,61.7246,320.6062],[115.0468,61.6519,354.081],[115.0329,61.587,377.2087],[115.0854,61.551,348.2533],[115.124,61.5644,365.3527],[115.1597,61.6141,373.6419],[115.1873,61.6176,357.8425],[115.2425,61.5924,343.816],[115.3408,61.5864,323.9933],[115.4126,61.6321,340.5224],[115.4389,61.6856,341.9327],[115.5065,61.7124,320.0411],[115.5738,61.7715,321.6176],[115.6817,61.7994,346.3745],[115.8198,61.7676,349.7899],[115.8792,61.7896,354.8553],[115.9508,61.789,253.3172],[115.9911,61.7735,365.9474],[115.9907,61.731,370.8683],[116.0422,61.7298,379.7496],[116.1363,61.7729,340.8603],[116.2122,61.7957,233.1681],[116.2767,61.7736,267.8786],[116.2855,61.7282,284.5689],[116.3141,61.7074,328.2447],[116.3672,61.7198,331.1733],[116.4245,61.7567,270.7585],[116.476,61.7221,198.4552],[116.4562,61.6845,302.1967],[116.5814,61.6524,289.2051],[116.6446,61.6256,292.038],[116.644,61.5859,323.5714],[116.626,61.5592,341.6826],[116.681,61.5398,302.5124],[116.7516,61.5408,292.4845],[116.7848,61.5545,296.6242],[116.8548,61.5629,265.2879],[116.8934,61.5278,310.2111],[116.8524,61.4807,306.589],[116.8768,61.4629,342.8332],[116.9428,61.4718,288.3998],[117.0266,61.4785,315.0766],[117.0573,61.4553,297.2769],[117.032,61.4333,284.1841],[117.0535,61.4149,314.6905],[117.1968,61.3939,303.3812],[117.2757,61.363,335.3661],[117.3366,61.3082,333.4682],[117.3562,61.2324,318.7694],[117.3583,61.1633,317.381],[117.391,61.0933,254.901],[117.4476,61.0417,320.4569],[117.5243,60.9847,358.4677],[117.5708,60.9407,308.3126],[117.6033,60.8742,330.7776]]]]}}