{"type":"Feature","properties":{"featurecla":"Lake","scalerank":9,"name":"Ozero Kronotskoye","name_abb":"O. Kronotskoye","name_alt":"Lake Kronotskoye","note":null,"delta":null,"dam_name":null,"year":-99,"admin":null,"min_zoom":7.0,"min_label":8.0},
"geometry":{"type": "Polygon","coordinates": [[[160.33440396001811,54.914036058612112,377.9613],[160.3093830092119,54.925221895443116,493.5917],[160.29819717238087,54.9240444389346,466.6801],[160.291721161584,54.896962939238477,372.5],[160.27553113459174,54.89137002082299,376.5464],[160.25463128156542,54.891664384950104,449.6292],[160.23402579266616,54.882833461136158,374.0],[160.21194848313132,54.863994156999752,372.5],[160.19016553772354,54.851042135405947,504.8427],[160.07212552274376,54.802472054429217,428.8399],[160.05240312622595,54.797467864267986,474.5036],[160.077129712905,54.794229858869528,372.5],[160.06506078369262,54.780983473148609,375.1694],[160.02443853414843,54.756551250596686,404.7513],[160.03739055574221,54.757139978850944,407.9739],[160.04857639257324,54.755079429961029,372.5],[160.05475803924298,54.749780875672656,392.1546],[160.05240312622595,54.742127408367224,372.5],[160.0585847728957,54.735357033443194,396.8987],[160.07212552274376,54.7465428702742,372.5],[160.08654936497322,54.747131598528455,372.5],[160.10067884307551,54.744187957257139,372.5],[160.11363086466935,54.7456597778928,372.5],[160.12982089166155,54.75007523979977,372.5],[160.20252883106309,54.747720326782741,372.5],[160.23520324917473,54.742716136621482,372.5],[160.25109891203982,54.742127408367224,372.5],[160.28524515078709,54.748897783291255,372.5],[160.31850829715296,54.748897783291255,372.5],[160.34205742732348,54.754490701706771,372.5],[160.34500106859485,54.760672348376517,379.5271],[160.32851667747548,54.783632750292782,372.5],[160.32822231334831,54.792169309979613,372.5],[160.33057722636539,54.801883326174959,372.5],[160.33440396001811,54.839267570320686,373.0879],[160.34146869906925,54.858695602711379,372.5],[160.35442072066303,54.8737081731951,372.5],[160.37384875305372,54.886071466534617,372.5],[160.36001363907855,54.898434759874135,374.4926],[160.33440396001811,54.914036058612112,377.9613]]]}}