{"type":"Feature","properties":{"GID_3":"RUS.56.7.1_1","GID_0":"RUS","country":"Russia","GID_1":"RUS.56_1","province":"Primor'ye","NL_NAME_1":"Приморскийкрай","GID_2":"RUS.56.7_1","county":"Dal'negorsk","NL_NAME_2":"Дальнегорск","city":"NA","VARNAME_3":"NA","NL_NAME_3":"NA","TYPE_3":"NA","ENGTYPE_3":"NA","CC_3":"NA","HASC_3":"NA","name":"N_A.city"},
"geometry":{"type": "MultiPolygon","coordinates": [[[[135.6134,44.5537,169.51],[135.6048,44.5674,433.5788],[135.5858,44.5737,413.5578],[135.5652,44.5624,260.2282],[135.5678,44.5514,219.695],[135.6013,44.543,609.62],[135.6134,44.5537,169.51]]]]}}