{"type":"Feature","properties":{"GID_2":"RUS.56.12_1","GID_0":"RUS","country":"Russia","GID_1":"RUS.56_1","province":"Primor'ye","NL_NAME_1":"Приморскийкрай","county":"Khankayskiyrayon","VARNAME_2":"NA","NL_NAME_2":"Ханкайскийрайон","TYPE_2":"Raion","ENGTYPE_2":"District","CC_2":"R66001","HASC_2":"RU.PR.KK","name":"Khankayskiyrayon.county"},
"geometry":{"type": "MultiPolygon","coordinates": [[[[131.5305,45.0104,269.1378],[131.5508,44.9756,207.6034],[131.5618,44.92,231.9539],[131.5485,44.8687,384.2819],[131.6503,44.8108,325.1375],[131.7519,44.8327,518.4875],[131.8493,44.7833,261.4753],[131.8592,44.7288,174.0685],[131.8457,44.6952,147.1992],[131.8676,44.6779,133.133],[131.9681,44.6332,84.5247],[131.9997,44.6123,79.3624],[131.9731,44.5887,81.0279],[131.9474,44.5719,83.259],[132.0081,44.552,78.8884],[132.207,44.6187,70.1071],[132.2616,44.6059,68.0],[132.2935,44.6292,68.0],[132.1116,44.7407,68.0],[132.1836,44.9569,68.0],[132.0586,45.2356,68.0],[131.9998,45.2489,73.914],[131.9926,45.2531,69.7519],[131.9776,45.2676,75.1919],[131.9325,45.2799,80.9727],[131.9223,45.2899,92.5054],[131.9173,45.3146,93.1282],[131.9091,45.3301,128.0558],[131.8915,45.336,154.7822],[131.8728,45.3334,189.2372],[131.838,45.3133,153.8874],[131.8268,45.3087,166.0666],[131.8236,45.3021,157.768],[131.8247,45.2946,156.6437],[131.8183,45.2847,152.7678],[131.8058,45.2762,168.232],[131.7917,45.2593,160.8267],[131.7746,45.2202,162.3598],[131.7761,45.2119,179.0589],[131.7716,45.21,181.1738],[131.7645,45.2096,177.3481],[131.7086,45.2266,170.9433],[131.6918,45.2232,172.7628],[131.6782,45.2169,191.954],[131.6465,45.156,402.1588],[131.6521,45.1479,427.2322],[131.6595,45.1454,461.6204],[131.6771,45.1472,608.5565],[131.684,45.1442,575.6206],[131.6826,45.1299,504.1168],[131.6888,45.1227,559.6498],[131.6867,45.1142,630.1898],[131.6555,45.0914,423.1796],[131.6313,45.08,348.15],[131.6086,45.0607,383.1434],[131.6018,45.0578,527.8804],[131.5825,45.0558,396.0557],[131.5757,45.0533,370.8853],[131.5723,45.0363,277.6727],[131.5599,45.031,319.4288],[131.5305,45.0104,269.1378]]]]}}