{"type":"Feature","properties":{"GID_2":"RUS.71.16_1","GID_0":"RUS","country":"Russia","GID_1":"RUS.71_1","province":"Tuva","NL_NAME_1":"РеспубликаТыва","county":"Todzhinskiyrayon","VARNAME_2":"NA","NL_NAME_2":"Тоджинскийрайон","TYPE_2":"Raion","ENGTYPE_2":"District","CC_2":"R61001","HASC_2":"RU.TU.TO","name":"Todzhinskiyrayon.county"},
"geometry":{"type": "MultiPolygon","coordinates": [[[[99.2092,52.937,1987.6465],[99.0885,52.9751,2172.5806],[98.9837,53.0124,1599.5538],[98.8765,53.0588,1533.1183],[98.9505,53.1119,1783.3329],[98.8644,53.1493,1968.6694],[98.7956,53.1584,1785.6121],[98.7778,53.1399,1720.5469],[98.7099,53.1271,1822.2943],[98.6579,53.162,2238.657],[98.6134,53.1632,2010.3118],[98.5888,53.1381,1924.5007],[98.5284,53.1216,1676.9666],[98.3954,53.1296,1615.0718],[98.2722,53.1,1535.7073],[98.2077,53.1053,1739.7329],[98.1917,53.2166,1859.2317],[98.0553,53.2433,2142.3582],[97.9944,53.2357,1857.8381],[97.9247,53.29,1894.3574],[97.9231,53.3603,2215.1074],[97.8743,53.3766,1810.8789],[97.7735,53.3681,2238.9858],[97.6976,53.3992,2215.1047],[97.5977,53.4015,2360.5767],[97.5128,53.3821,2069.2781],[97.4799,53.448,2360.6389],[97.4074,53.4544,2160.8618],[97.3326,53.4972,2023.9486],[97.2997,53.5583,2398.0967],[97.2084,53.6115,2291.564],[97.0481,53.6108,2271.1658],[97.0006,53.6522,2278.8083],[96.9223,53.6646,2125.5168],[96.8147,53.7534,2057.5391],[96.6714,53.7471,1921.7272],[96.6534,53.6518,1760.7021],[96.6255,53.5953,1618.1763],[96.4772,53.555,2031.0605],[96.3558,53.5372,1494.1296],[96.1741,53.5891,1812.4242],[96.1496,53.5363,1301.3088],[96.0558,53.5228,1584.527],[96.0356,53.4865,1139.019],[95.9955,53.4713,1950.3323],[95.9034,53.4979,1936.8634],[95.7978,53.5029,1290.8162],[95.6921,53.4795,1498.8],[95.6573,53.511,1464.0084],[95.5425,53.4587,1470.4397],[95.4594,53.4497,1263.9871],[95.4225,53.4153,1498.9203],[95.3175,53.3988,1666.9208],[95.2125,53.4371,1390.8489],[95.1278,53.4624,1522.2848],[95.0392,53.4054,1519.3337],[94.9772,53.3896,1557.8634],[94.9679,53.4084,1652.0609],[94.9028,53.4062,1330.4846],[94.6667,53.3872,982.3407],[94.5661,53.3345,1528.8333],[94.6479,53.2884,1347.2808],[94.6477,53.2528,1175.1335],[94.5707,53.2177,826.4131],[94.5345,53.1161,842.3412],[94.5179,53.0089,882.5779],[94.4669,52.9365,1723.4097],[94.3894,52.9223,1254.8591],[94.4067,52.8865,1505.0134],[94.4829,52.8934,1820.5308],[94.5332,52.9098,1845.5984],[94.5963,52.9085,1312.6577],[94.68,52.8972,1216.7249],[94.6941,52.8319,1334.4773],[94.668,52.7847,1389.1379],[94.7179,52.7523,1427.9453],[94.8298,52.7671,1338.8693],[94.9027,52.7533,1586.4462],[94.9296,52.7133,1190.3501],[94.9684,52.6425,1152.7675],[95.03,52.5866,1024.0707],[95.0378,52.5318,808.6252],[94.9676,52.4888,809.2153],[94.8819,52.5003,797.2314],[94.8501,52.4647,810.2504],[94.8767,52.4125,1470.7141],[95.0419,52.297,2005.0514],[95.1609,52.251,2227.6201],[95.283,52.2722,1984.1116],[95.3972,52.2681,2372.7625],[95.5424,52.2144,2160.5503],[95.6546,52.1831,2175.6504],[95.7954,52.1472,1924.7311],[95.8844,52.1101,1977.2867],[95.9274,52.0526,1745.146],[95.9525,51.974,2005.3838],[96.0372,51.9272,1921.1375],[96.1514,51.8814,1935.2566],[96.3463,51.8318,1679.5917],[96.4487,51.8001,1701.126],[96.4998,51.7526,1718.2594],[96.5242,51.7255,1750.7253],[96.635,51.7254,1988.219],[96.8182,51.7478,1662.2811],[96.9312,51.7725,1757.2471],[96.9825,51.7786,1820.3434],[97.0323,51.7642,1478.894],[97.0359,51.6984,2083.8589],[97.0511,51.6727,1920.2876],[97.0914,51.6599,2108.9448],[97.158,51.6924,2069.4607],[97.1865,51.7238,1982.1088],[97.3173,51.7272,1839.1804],[97.4167,51.7241,1824.959],[97.4514,51.6589,2175.7107],[97.503,51.6397,1854.636],[97.5515,51.6399,2238.5625],[97.626,51.6937,1949.9314],[97.6868,51.7332,1661.7229],[97.6557,51.7809,1773.377],[97.6473,51.8439,1838.4514],[97.72,51.8641,1957.9055],[97.789,51.9491,2014.0375],[97.8633,51.9655,1744.4424],[97.9597,51.9619,1768.2919],[98.0516,51.9655,2023.9266],[98.1183,51.9964,1755.2102],[98.1583,52.0491,1969.1309],[98.1665,52.1197,2175.543],[98.1635,52.1687,1768.9763],[98.1851,52.2172,1639.0874],[98.2437,52.2302,1942.7549],[98.2986,52.2108,2189.6113],[98.3413,52.1875,1768.4315],[98.4209,52.2036,1868.8042],[98.4221,52.2425,2117.9614],[98.4785,52.2563,1876.4272],[98.5253,52.2468,1906.6262],[98.6289,52.3126,1944.6259],[98.6562,52.3515,2149.916],[98.6501,52.3985,2318.0623],[98.6475,52.4354,2265.772],[98.6908,52.444,2537.7168],[98.7218,52.4957,2157.5264],[98.8152,52.5405,2323.5205],[98.831,52.6243,2215.8936],[98.8827,52.6531,2355.9922],[98.9331,52.6855,2388.7832],[98.9557,52.7353,2220.0667],[98.9644,52.806,2330.6445],[98.9325,52.8003,2211.2222],[98.8891,52.7983,2060.1191],[98.8626,52.8201,2428.8596],[98.8705,52.8633,2412.2827],[98.8948,52.8992,2322.6216],[98.9289,52.9268,2155.4336],[98.9815,52.9436,2227.8281],[99.0071,52.9437,2036.1392],[99.0477,52.91,1698.2959],[99.0967,52.8927,2100.0029],[99.1573,52.8801,2082.0918],[99.1967,52.8784,2082.7617],[99.2206,52.8967,2230.4912],[99.2092,52.937,1987.6465]]]]}}