{"type":"Feature","properties":{"GID_3":"RUS.35.23.1_1","GID_0":"RUS","country":"Russia","GID_1":"RUS.35_1","province":"Krasnoyarsk","NL_NAME_1":"Красноярскийкрай","GID_2":"RUS.35.23_1","county":"Ilimpiyskiyrayon","NL_NAME_2":"Илимпийскийрайон","city":"NA","VARNAME_3":"NA","NL_NAME_3":"NA","TYPE_3":"NA","ENGTYPE_3":"NA","CC_3":"NA","HASC_3":"NA","name":"N_A.city"},
"geometry":{"type": "MultiPolygon","coordinates": [[[[108.0701,64.2308,505.227],[108.0575,64.194,688.0135],[107.9335,64.1941,632.6923],[107.8539,64.2311,656.8323],[107.7427,64.2514,649.72],[107.6217,64.2858,446.979],[107.5185,64.2926,447.8271],[107.4452,64.2651,719.7324],[107.306,64.2654,587.9249],[107.2739,64.3555,709.6],[107.2071,64.3541,583.3773],[107.0107,64.3658,626.6472],[106.9537,64.4195,593.416],[106.8886,64.4188,512.2579],[106.7762,64.4137,625.6709],[106.7295,64.4522,612.9158],[106.7197,64.512,604.4123],[106.6818,64.531,682.4708],[106.5967,64.5099,611.5253],[106.6132,64.4709,586.471],[106.5678,64.449,510.7237],[106.4564,64.4409,552.515],[106.3052,64.4352,567.7426],[106.1611,64.4071,673.8488],[106.0985,64.4415,536.6631],[106.1417,64.4745,490.3343],[106.1261,64.5207,477.5984],[105.9918,64.5368,539.6497],[105.9276,64.4954,509.8703],[105.8636,64.4796,491.9175],[105.8082,64.5017,612.3083],[105.7955,64.5441,508.1838],[105.7255,64.5704,492.7912],[105.7692,64.5943,513.1354],[105.7257,64.6744,500.1897],[105.8678,64.672,525.8607],[105.9033,64.6962,519.0569],[105.8637,64.7443,506.427],[105.8976,64.7814,529.4014],[105.9697,64.8253,645.5968],[105.9352,64.865,639.9222],[105.969,64.9131,580.1704],[106.0222,64.9176,563.0075],[106.0829,64.8769,623.1752],[106.1915,64.8928,658.6382],[106.0919,64.9277,627.0978],[106.0909,64.9717,569.4885],[106.0143,64.9993,583.4737],[106.0049,65.049,609.8826],[106.0447,65.0787,586.9376],[106.1662,65.0833,594.107],[106.2007,65.1277,632.6142],[106.312,65.1436,579.8853],[106.416,65.2156,609.9827],[106.5268,65.2157,772.6829],[106.4455,65.274,614.7351],[106.4739,65.3114,613.2084],[106.5309,65.3559,572.9067],[106.6383,65.3883,573.5593],[106.7532,65.3955,536.2283],[106.8366,65.3801,550.7937],[106.8717,65.4686,579.8904],[106.9752,65.4918,512.58],[107.0436,65.5211,515.0442],[107.006,65.5429,502.5448],[106.8527,65.542,400.3316],[106.7714,65.5757,482.2827],[106.694,65.6413,410.8943],[106.4958,65.6887,485.188],[106.4761,65.7372,436.5092],[106.5004,65.8126,432.7453],[106.507,65.895,465.3145],[106.5196,65.9846,499.5513],[106.5028,66.0542,520.314],[106.4496,66.1133,537.2847],[106.2885,66.1635,454.0587],[106.186,66.181,499.2336],[106.1998,66.4259,525.5417],[106.291,66.4704,544.1673],[106.3284,66.5196,582.5919],[106.3203,66.5916,471.6745],[106.271,66.6467,719.7567],[106.3121,66.7197,419.8051],[106.2307,66.7594,442.84],[106.2109,66.8098,623.6185],[106.1079,66.7987,590.4021],[106.0652,66.8167,574.9577],[106.1423,66.8673,465.4916],[106.1456,66.9196,474.3503],[106.0478,66.9092,601.3891],[105.9507,66.9061,694.5754],[105.9303,66.9564,472.4388],[105.8173,66.9656,523.6171],[105.7095,66.9425,532.899],[105.5235,67.0146,605.4464],[105.5472,67.046,521.6592],[105.6555,67.0388,474.8403],[105.7269,67.0448,518.025],[105.927,67.0447,588.9656],[106.0116,67.0648,649.0087],[106.0539,67.1148,643.9048],[106.0799,67.1956,465.6422],[106.2122,67.1984,395.3372],[106.2923,67.2076,470.8682],[106.3535,67.244,367.0856],[106.4726,67.2765,455.8398],[106.5614,67.2705,507.3744],[106.6538,67.2524,525.6533],[106.7516,67.2911,317.4298],[106.7973,67.3757,325.8822],[106.8113,67.4827,382.699],[106.8133,67.6379,353.4187],[106.8847,67.8931,373.2683],[106.9331,68.1791,348.59],[106.9601,68.6484,220.7934],[106.9039,68.877,219.1053],[106.5408,69.1507,451.9738],[106.1558,69.3913,673.016],[106.1925,69.4576,678.9353],[106.2873,69.4765,702.7447],[106.3667,69.535,751.6653],[106.2001,69.5349,716.4178],[106.0966,69.5573,669.4683],[105.9778,69.5026,614.446],[105.8422,69.5076,640.7078],[105.8441,69.4464,621.296],[105.547,69.3375,558.1425],[105.4068,69.3633,537.1873],[105.2968,69.3134,540.9554],[105.2223,69.3683,572.6768],[105.2528,69.4158,604.2678],[105.1299,69.4336,529.6187],[105.0307,69.4362,590.8642],[104.9563,69.4663,554.6583],[104.7611,69.4411,554.2122],[104.6498,69.4656,428.4964],[104.5354,69.4765,435.8265],[104.4922,69.4155,347.427],[104.4091,69.3655,345.7648],[104.2412,69.3364,252.6523],[104.0744,69.3372,266.4153],[103.9115,69.285,202.8776],[103.7642,69.276,203.8864],[103.6461,69.3255,199.5864],[103.5632,69.3762,139.9505],[103.5282,69.4223,172.6746],[103.4331,69.4258,259.1872],[103.3526,69.4126,246.5923],[103.2017,69.4406,288.1906],[103.0665,69.4272,244.9818],[102.9558,69.3725,218.9711],[102.8241,69.3589,234.6036],[102.6172,69.389,267.7418],[102.4909,69.4361,251.8098],[102.3059,69.4355,312.3824],[102.2041,69.4812,346.5752],[102.2155,69.5312,308.7205],[102.0534,69.5665,278.429],[101.9554,69.6012,295.0085],[101.7635,69.622,265.1478],[101.5702,69.5861,251.6791],[101.4508,69.6152,389.7905],[101.2368,69.6366,436.485],[100.907,69.6836,602.9167],[100.6765,69.6507,543.5225],[100.524,69.6,634.5342],[100.3635,69.6494,710.301],[100.441,69.6985,648.329],[100.4311,69.7523,669.4008],[100.2962,69.777,657.9811],[100.283,69.7989,701.0322],[100.3166,69.8407,573.7041],[100.2177,69.8554,553.2331],[100.0585,69.8718,486.2533],[100.0055,69.9173,301.591],[99.8694,69.9007,352.3766],[99.5076,69.9418,341.5343],[99.3528,69.8866,380.7556],[99.2972,69.8043,529.1544],[99.3123,69.756,732.7527],[99.1288,69.7323,628.9122],[98.9795,69.7533,601.1309],[98.8718,69.7363,711.3937],[98.7435,69.7517,689.2209],[98.607,69.7461,677.4913],[98.4706,69.7578,671.4149],[98.2026,69.8146,810.6305],[97.974,69.792,802.3616],[97.8536,69.7212,776.1733],[97.6775,69.6926,762.1526],[97.4767,69.6999,669.0299],[97.269,69.6604,370.7318],[97.2409,69.6243,423.5833],[97.0666,69.5686,401.726],[96.8493,69.575,529.9009],[96.7025,69.5541,1005.3682],[96.6412,69.4982,890.5401],[96.4256,69.4767,1203.3037],[96.249,69.3945,1244.1744],[95.8909,69.3456,1011.8558],[95.4876,69.3096,966.2136],[95.3125,69.2283,1357.0808],[95.0894,69.1969,1425.7635],[95.0794,69.1499,1471.3401],[94.8374,69.092,1353.6881],[95.0189,68.9681,1350.9298],[94.7995,68.8988,1044.6049],[94.7268,68.841,905.9758],[94.6785,68.8386,1266.1107],[94.6168,68.7783,918.3722],[94.5427,68.776,1280.2013],[94.4121,68.6879,1164.4729],[94.223,68.5995,885.9268],[94.2218,68.5364,419.8225],[94.2919,68.502,363.3324],[94.2986,68.4647,414.4793],[94.2211,68.4037,273.9967],[94.0561,68.3818,893.4283],[93.9234,68.4149,958.9221],[93.7851,68.4211,348.9059],[93.6104,68.4516,1009.9353],[93.3393,68.4601,155.6241],[93.1295,68.4376,346.5602],[92.9558,68.3658,106.6333],[92.8694,68.2808,837.0788],[92.7788,68.1617,113.0451],[92.2693,67.9732,106.9809],[92.029,67.8707,106.9989],[91.972,67.7716,264.5633],[91.8233,67.6443,201.7432],[91.5459,67.5041,235.6139],[91.3082,67.4463,129.0626],[91.3182,67.3585,486.9391],[91.1192,67.2976,439.7714],[90.9172,67.1738,169.0722],[90.714,67.0172,658.9481],[90.6919,66.9662,538.8266],[90.4493,66.8274,350.2017],[90.3029,66.7536,401.9671],[90.2076,66.6715,477.3214],[89.9596,66.6208,326.7315],[89.8633,66.6067,298.4843],[89.8381,66.5433,431.2433],[89.88,66.4592,301.5932],[89.846,66.4129,182.9913],[89.6252,66.4305,159.9809],[89.3876,66.4542,133.8437],[89.2091,66.4315,131.3882],[89.0496,66.3287,120.0993],[88.973,66.1906,126.2689],[89.0172,66.0431,115.9683],[89.0311,65.8872,115.9856],[88.9411,65.8238,353.8856],[88.8209,65.7463,102.6139],[88.6905,65.6569,101.261],[88.5774,65.5317,94.7338],[88.7005,65.4961,131.2857],[88.8056,65.4713,153.1173],[89.0279,65.4775,256.5739],[89.1228,65.4314,402.2063],[89.2677,65.4127,392.1951],[89.2821,65.3879,548.1062],[89.27,65.3419,530.0598],[89.3372,65.3078,486.8355],[89.4122,65.3174,499.256],[89.4399,65.2962,492.607],[89.4111,65.2473,529.4161],[89.327,65.2261,500.2841],[89.4529,65.17,572.4091],[89.4177,65.1023,582.6214],[89.3749,65.0608,473.9043],[89.3826,65.0033,426.7222],[89.2913,64.9668,401.4635],[89.1897,64.922,295.2197],[89.1008,64.8763,345.8935],[89.0668,64.8186,313.373],[89.1212,64.7488,225.9731],[89.24,64.7257,241.8401],[89.3694,64.7641,418.7884],[89.5085,64.7707,456.6401],[89.5445,64.7823,450.1585],[89.5546,64.8033,426.7997],[89.6391,64.8208,427.7625],[89.7528,64.7925,522.6611],[89.7916,64.7573,639.0007],[89.7052,64.7268,504.3835],[89.696,64.7078,609.2875],[89.8082,64.6959,638.462],[89.9839,64.7164,618.1589],[90.0074,64.7511,537.221],[90.1015,64.7515,565.5435],[90.1642,64.7151,646.0627],[90.072,64.6881,511.8047],[90.0453,64.6506,483.1018],[90.169,64.6483,375.0297],[90.2319,64.5908,590.4908],[90.3073,64.5477,524.8321],[90.2874,64.507,571.4167],[90.4085,64.498,467.2222],[90.4088,64.5568,521.488],[90.4498,64.6061,417.826],[90.5895,64.5862,418.1926],[90.6523,64.5459,452.6085],[90.6015,64.5199,372.6199],[90.5526,64.4885,392.7704],[90.5804,64.4691,375.3611],[90.687,64.4774,405.3333],[90.7315,64.4608,444.4683],[90.6944,64.4191,501.0089],[90.7589,64.4056,465.8062],[90.9129,64.4339,385.5579],[91.0955,64.4106,420.7499],[91.1184,64.378,544.2926],[91.1587,64.3437,424.6161],[91.2639,64.3386,384.2528],[91.3272,64.3825,400.399],[91.4408,64.3613,551.3919],[91.5116,64.356,548.1802],[91.5826,64.381,421.4417],[91.761,64.342,568.429],[91.7507,64.3021,516.0842],[91.8339,64.2553,483.0348],[91.8097,64.2256,453.6613],[91.9327,64.2001,400.5675],[91.9687,64.1617,470.3507],[92.1137,64.1546,571.8889],[92.1596,64.1093,468.6678],[92.1575,64.0681,471.1831],[92.111,64.0337,501.7949],[92.045,64.0075,408.5365],[92.0041,63.9779,477.5941],[91.9521,63.9496,445.3394],[92.007,63.9104,440.9673],[92.1283,63.9094,330.7819],[92.1583,63.8753,399.3756],[92.1598,63.8178,354.1386],[92.2073,63.6987,556.5585],[92.2805,63.718,525.1668],[92.3208,63.7401,518.7176],[92.3606,63.7676,495.4841],[92.4149,63.7776,545.4077],[92.5312,63.7779,416.6097],[92.699,63.7896,454.7164],[92.8398,63.8182,359.3282],[93.0078,63.8579,311.6634],[93.1312,63.8992,311.8297],[93.2172,63.903,308.7782],[93.2955,63.9011,299.9484],[93.3754,63.8809,269.0821],[93.4799,63.8244,326.112],[93.5952,63.7729,417.1638],[93.6593,63.6936,286.351],[93.6563,63.6279,366.7408],[93.6152,63.5715,247.5318],[93.524,63.532,404.296],[93.4325,63.5025,483.3567],[93.336,63.4854,434.2819],[93.2994,63.4628,415.6786],[93.3527,63.4179,406.6594],[93.3935,63.4098,458.6431],[93.4737,63.4006,466.4458],[93.5523,63.3532,453.0217],[93.7449,63.337,480.3875],[93.9602,63.3116,381.5459],[94.0531,63.309,350.2119],[94.0945,63.3335,402.2905],[94.1478,63.3428,346.5675],[94.268,63.3376,334.9581],[94.3479,63.319,319.2907],[94.4712,63.3092,374.8053],[94.6727,63.333,345.7817],[94.844,63.3129,303.4651],[94.9233,63.2794,281.4691],[94.9535,63.2296,327.6277],[95.0436,63.2018,316.1575],[95.2212,63.1398,228.2149],[95.2873,63.0613,216.2117],[95.4979,63.0372,231.1575],[95.6035,63.0558,229.4386],[95.7097,63.0825,209.9327],[95.7646,63.0515,219.0825],[95.7813,62.9823,227.0918],[95.8396,62.859,392.2237],[95.9015,62.7648,446.1871],[96.0083,62.7489,532.0791],[96.0796,62.7753,466.0669],[96.1049,62.8149,421.432],[96.2032,62.8374,441.9192],[96.254,62.8713,464.6261],[96.392,62.864,400.9795],[96.5694,62.8656,370.5856],[96.7178,62.8718,435.5644],[96.7711,62.9037,386.8423],[96.8394,62.9531,392.3448],[96.902,62.9897,416.2258],[97.0464,62.9864,606.4319],[97.1218,62.9743,695.7885],[97.236,62.9395,608.0786],[97.3357,62.9783,558.3931],[97.4146,62.9815,501.9168],[97.4778,62.9501,577.0485],[97.5501,62.9549,517.3011],[97.5943,62.9828,462.4303],[97.6592,63.0018,514.1293],[97.7891,62.9975,440.3971],[97.959,62.9304,357.6486],[98.1864,62.7754,384.1594],[98.2742,62.7052,526.5376],[98.4424,62.7161,565.8005],[98.6926,62.6987,495.4526],[98.7993,62.7464,498.8491],[98.8807,62.7767,619.3157],[98.9246,62.7203,370.2554],[98.9507,62.7214,361.4908],[99.2806,62.7007,415.8699],[99.3203,62.7333,449.905],[99.2496,62.7834,582.3778],[99.2,62.8336,319.8219],[99.237,62.8869,280.9907],[99.3006,62.9323,290.2773],[99.4688,62.9896,439.9319],[99.5877,63.0106,315.9171],[99.7277,63.0108,257.3158],[99.9068,63.0144,294.1802],[99.9636,63.0351,370.9821],[99.9476,63.0729,216.4633],[99.9397,63.099,164.8842],[99.8666,63.1342,195.381],[99.8037,63.2189,258.4472],[100.0906,63.2727,305.3481],[100.1265,63.2014,275.333],[100.1402,63.1006,338.3098],[100.2264,63.0599,477.5789],[100.6089,63.0459,402.2353],[100.6824,63.0707,386.3471],[100.7126,63.1497,579.2482],[100.822,63.2093,541.3488],[100.9169,63.2545,554.7894],[101.065,63.2894,589.6678],[101.2037,63.2856,751.725],[101.3084,63.2452,676.028],[101.3833,63.1952,822.6339],[101.5268,63.1688,763.1308],[101.6445,63.1605,727.311],[101.7669,63.1638,590.8842],[101.9107,63.1731,631.2889],[101.9795,63.1912,697.3216],[102.0328,63.1942,795.0442],[102.1105,63.1663,557.7254],[102.2604,63.1707,368.7943],[102.3524,63.2235,385.0393],[102.3551,63.2865,411.0845],[102.3792,63.3249,348.7722],[102.4597,63.3581,330.1792],[102.4706,63.2877,321.7043],[102.4807,63.2353,455.7807],[102.5175,63.1951,412.7594],[102.6028,63.1578,291.8644],[102.6647,63.0786,307.7275],[102.6818,62.9946,555.2125],[102.7216,62.8977,370.0966],[102.722,62.859,351.6718],[102.6925,62.8244,397.6816],[102.7951,62.8156,395.9325],[102.9928,62.8355,369.9781],[103.0291,62.8942,368.3181],[103.0893,62.9201,404.4846],[103.1353,62.8958,391.7168],[103.2122,62.8259,406.9685],[103.3908,62.8079,470.0048],[103.6127,62.8075,430.7199],[103.7206,62.8429,623.353],[103.7862,62.8945,324.836],[103.8461,62.9192,395.2198],[103.9351,62.9044,298.1801],[104.0561,62.7905,350.0392],[104.2634,62.6445,669.3743],[104.4354,62.6243,503.099],[104.5142,62.559,476.929],[104.6074,62.4617,462.097],[104.6601,62.3755,475.7497],[104.7049,62.2903,455.2676],[104.6692,62.1916,392.3229],[104.6303,62.1316,418.9748],[104.5886,62.1032,435.3364],[104.6244,61.9608,405.8829],[104.6508,61.8647,385.5762],[104.7045,61.7929,387.067],[104.7077,61.7388,351.7986],[104.6702,61.6698,403.8658],[104.5974,61.6397,394.941],[104.512,61.628,433.3602],[104.5234,61.5701,424.4462],[104.4589,61.474,406.9025],[104.4233,61.4283,424.4818],[104.3985,61.4039,421.466],[104.3841,61.3728,449.4582],[104.4215,61.3366,492.8692],[104.5096,61.3313,444.9414],[104.5842,61.3523,409.5985],[104.6854,61.3482,395.9248],[104.7588,61.336,416.8496],[104.8946,61.3247,376.3735],[104.9188,61.3432,378.4269],[104.9847,61.3698,394.651],[105.1432,61.394,379.3367],[105.2473,61.4146,401.4276],[105.2654,61.4535,373.5988],[105.3663,61.4984,370.1376],[105.4916,61.5369,378.5308],[105.5705,61.5664,398.4249],[105.6177,61.6114,384.8062],[105.701,61.6172,385.6679],[105.8069,61.613,406.305],[105.8707,61.6293,409.6816],[105.9473,61.664,384.3089],[105.9488,61.7,353.223],[105.9007,61.7344,413.4319],[105.8864,61.7926,378.1526],[105.9649,61.8345,405.7683],[106.1407,61.9173,392.66],[106.2686,61.9813,371.777],[106.3585,62.0062,378.0319],[106.3987,62.0829,375.3847],[106.4361,62.175,422.8775],[106.3735,62.2012,401.3516],[106.367,62.2339,410.7146],[106.4537,62.2843,429.4239],[106.4761,62.3338,354.4193],[106.5407,62.3562,445.9681],[106.6539,62.4134,454.5757],[106.7465,62.4678,353.6589],[106.7336,62.5199,318.6814],[106.8015,62.5511,368.1343],[106.8076,62.5779,387.3216],[106.677,62.5892,358.6029],[106.5527,62.612,386.9847],[106.4822,62.6566,330.4902],[106.5279,62.7097,315.3878],[106.4891,62.743899999999996,361.9807],[106.45,62.7583,394.6327],[106.3897,62.8196,334.6278],[106.2741,62.8588,304.6937],[106.2037,62.9006,328.1509],[106.2096,62.9636,379.2956],[106.1746,63.0229,379.8597],[106.3256,63.0302,320.7967],[106.3965,63.0534,285.8345],[106.4219,63.0858,456.0905],[106.4454,63.1644,305.3595],[106.3566,63.2098,279.1002],[106.3954,63.2734,301.367],[106.4781,63.2925,261.3617],[106.5854,63.257,254.2006],[106.6884,63.2824,258.9245],[106.7431,63.3234,237.4998],[106.708,63.3585,260.0098],[106.6407,63.3996,262.07],[106.5683,63.429,275.016],[106.5251,63.4844,262.3207],[106.651,63.5615,284.5959],[106.6392,63.6183,290.6223],[106.6681,63.6879,340.5703],[106.7192,63.7283,370.5157],[106.7595,63.7929,295.5897],[106.7425,63.8555,254.0243],[106.6924,63.9296,522.9937],[106.7347,63.9478,420.0891],[106.8423,63.9293,320.0848],[106.9841,63.8947,308.1963],[107.1135,63.8577,622.6722],[107.1728,63.8841,494.2478],[107.224,63.9172,346.2083],[107.2828,63.9007,313.3182],[107.3712,63.85,506.5648],[107.528,63.8386,375.7428],[107.6014,63.8604,407.5127],[107.6406,63.9287,294.197],[107.8158,63.9507,368.5297],[107.9738,63.9425,400.0657],[108.211,63.959,439.8506],[108.2906,63.9199,429.6906],[108.367,63.9842,380.2369],[108.4198,64.0408,406.1448],[108.3914,64.067,391.3755],[108.2879,64.1084,461.0806],[108.2689,64.1506,437.5247],[108.2249,64.1997,461.3699],[108.0701,64.2308,505.227]]]]}}