{"type":"Feature","properties":{"GID_3":"RUS.60.36.1_1","GID_0":"RUS","country":"Russia","GID_1":"RUS.60_1","province":"Sakha","NL_NAME_1":"РеспубликаСаха","GID_2":"RUS.60.36_1","county":"Yakutskgorsovet","NL_NAME_2":"Якутск(горсовет)","city":"NA","VARNAME_3":"NA","NL_NAME_3":"NA","TYPE_3":"NA","ENGTYPE_3":"NA","CC_3":"NA","HASC_3":"NA","name":"N_A.city"},
"geometry":{"type": "MultiPolygon","coordinates": [[[[128.7683,62.0107,268.8882],[128.898,62.033,204.4756],[128.9327,62.0257,195.1491],[128.9313,61.9915,227.4007],[128.8836,61.9551,228.1979],[128.8228,61.9255,225.4414],[128.8122,61.91,247.475],[128.87,61.887,259.9676],[128.9584,61.894,256.8566],[129.0385,61.9057,269.7211],[129.1492,61.897,277.9365],[129.2462,61.8812,271.1139],[129.3542,61.8679,257.5763],[129.4897,61.8305,238.9691],[129.5602,61.7923,167.79],[129.6545,61.7567,89.0],[129.6899,61.8313,89.0],[129.7393,61.8881,88.5],[129.8125,61.9306,88.5],[129.8857,61.9602,88.0],[129.9691,62.0005,133.873],[130.025,62.0509,148.2806],[129.9986,62.1007,90.9714],[129.996,62.1563,90.9053],[130.0138,62.1893,88.739],[130.1487,62.2742,149.6343],[130.1549,62.3168,134.9782],[130.1267,62.3642,87.58],[130.0804,62.3811,86.7051],[130.0356,62.3935,82.0],[129.989,62.3998,195.7764],[129.9246,62.3991,207.7212],[129.8395,62.3898,197.9568],[129.7371,62.3512,210.7027],[129.6366,62.302,216.6264],[129.5043,62.2726,219.097],[129.3617,62.275,219.5387],[129.2823,62.2917,217.2632],[129.1621,62.3257,217.3415],[128.8375,62.3794,223.2729],[128.6458,62.3692,243.2549],[128.6517,62.3208,254.422],[128.6791,62.277,259.5059],[128.7333,62.2423,238.6696],[128.7838,62.2182,256.2475],[128.8184,62.1953,263.0179],[128.8267,62.1542,248.4196],[128.795,62.1106,237.275],[128.7495,62.0766,275.1821],[128.7408,62.0381,229.2682],[128.7683,62.0107,268.8882]]]]}}