{"type":"Feature","properties":{"GID_3":"RUS.71.11.1_1","GID_0":"RUS","country":"Russia","GID_1":"RUS.71_1","province":"Tuva","NL_NAME_1":"РеспубликаТыва","GID_2":"RUS.71.11_1","county":"Ovyurskiyrayon","NL_NAME_2":"Овюрскийрайон","city":"NA","VARNAME_3":"NA","NL_NAME_3":"NA","TYPE_3":"NA","ENGTYPE_3":"NA","CC_3":"NA","HASC_3":"NA","name":"N_A.city"},
"geometry":{"type": "MultiPolygon","coordinates": [[[[93.0284,50.5874,761.5],[93.0399,50.5833,762.7087],[93.072,50.5857,763.4884],[93.0801,50.5837,765.6125],[93.0885,50.5745,764.7658],[93.1041,50.5669,765.6735],[93.1296,50.5627,766.9431],[93.1505,50.5615,768.0247],[93.1969,50.5697,770.6501],[93.303,50.5763,778.3147],[93.2657,50.6083,775.2302],[93.177,50.6891,818.1872],[93.1316,50.6964,849.5483],[93.0983,50.7166,880.2389],[93.1093,50.7557,1085.6775],[93.0994,50.7897,1457.1968],[93.056,50.8195,1446.0522],[93.026,50.8895,1655.0704],[93.0121,50.9119,1850.9822],[92.9659,50.9676,2175.0835],[92.8684,51.0001,2389.1211],[92.6998,51.0013,2098.9592],[92.6623,51.0658,2271.6511],[92.597,51.1115,2540.6501],[92.4374,51.1232,2544.551],[92.3856,51.0598,2361.0535],[92.3097,51.0261,2355.9617],[92.2258,51.0143,2633.8921],[92.0759,50.9637,2271.209],[91.9702,50.8715,2135.9644],[91.9347,50.8473,1999.2891],[91.8952,50.8507,1979.6462],[91.8534,50.8363,1914.6631],[91.8259,50.8098,1831.8435],[91.6935,50.7768,1746.7582],[91.6087,50.77,2026.4701],[91.5283,50.7494,1980.4739],[91.4733,50.7159,1881.0859],[91.4222,50.6519,2291.1956],[91.2714,50.586,2401.9023],[91.1113,50.5602,2407.9233],[90.9505,50.5435,2779.2427],[90.7447,50.53,2426.8201],[90.6222,50.518,1810.951],[90.6493,50.4896,2147.8604],[90.6725,50.4422,2354.9907],[90.6253,50.3976,2473.8562],[90.6134,50.3338,2364.8457],[90.6516,50.2568,1733.8485],[90.6762,50.2006,1862.5972],[90.6763,50.2029,1872.6807],[90.6834,50.213,1774.2808],[90.6952,50.2202,1671.667],[90.7525,50.2394,1555.8251],[90.7632,50.2472,1609.1735],[90.7699,50.2557,1683.8811],[90.7747,50.2666,1768.7474],[90.775,50.2885,1986.8418],[90.7709,50.2944,2086.2319],[90.7497,50.3051,2346.1792],[90.7442,50.3223,2481.04],[90.7349,50.3252,2499.4644],[90.7258,50.3231,2430.1084],[90.7175,50.3189,2386.5645],[90.7077,50.317,2417.9285],[90.6933,50.3167,2359.7417],[90.6842,50.3216,2418.9949],[90.668,50.3368,2355.8875],[90.6658,50.3595,2235.0483],[90.6705,50.3765,2139.5059],[90.6769,50.3818,2117.4907],[90.6835,50.3917,2124.3115],[90.7006,50.423,2063.9702],[90.6983,50.4452,1972.4133],[90.7049,50.4542,2025.6517],[90.722,50.4666,1997.5111],[90.7267,50.4797,1839.7362],[90.7377,50.4879,1810.6946],[90.7628,50.4743,1885.7211],[90.7742,50.4699,1894.9305],[90.798,50.4645,1988.4573],[90.8085,50.4637,1969.4354],[90.8225,50.4643,2083.6038],[90.8491,50.4713,2232.2051],[90.8713,50.4753,2245.1533],[90.899,50.4773,2231.7385],[90.9454,50.4768,2085.7051],[91.0451,50.4682,1896.4968],[91.0881,50.4564,1837.4778],[91.1393,50.4579,1790.5845],[91.189,50.4669,1724.4424],[91.2333,50.4819,1676.5808],[91.2442,50.4841,1670.4801],[91.2571,50.4845,1666.8763],[91.3821,50.468,1492.1443],[91.4029,50.4639,1490.2148],[91.4127,50.4601,1592.2509],[91.4292,50.4577,1653.0037],[91.4375,50.4601,1687.0005],[91.4443,50.4654,1648.7126],[91.4489,50.4775,1625.1758],[91.4507,50.4961,1624.2601],[91.4489,50.5039,1714.2867],[91.4361,50.5163,1848.5363],[91.4308,50.5264,1960.0558],[91.4368,50.543,1804.4495],[91.4407,50.5467,1909.567],[91.4464,50.5496,1966.9028],[91.4623,50.5523,1830.6698],[91.4797,50.5595,1623.4709],[91.5079,50.5637,1775.1804],[91.558,50.5635,1706.5374],[91.5749,50.5608,1642.4773],[91.5937,50.5605,1503.0106],[91.6457,50.5764,1390.1632],[91.6579,50.5838,1347.9877],[91.6599,50.5915,1346.7064],[91.6579,50.5985,1348.7705],[91.6503,50.61,1359.0345],[91.6495,50.6155,1374.6669],[91.6549,50.6325,1566.4854],[91.6527,50.6528,1735.5992],[91.6558,50.6596,1783.6553],[91.6629,50.6669,1707.8973],[91.6831,50.6798,1702.8286],[91.7106,50.6936,1769.8904],[91.7421,50.7011,1992.3195],[91.7477,50.7051,1960.9512],[91.7519,50.7179,1915.8395],[91.7566,50.7204,1981.1544],[91.8236,50.7219,1886.475],[91.8287,50.7245,1894.0334],[91.8361,50.7347,1979.0123],[91.8544,50.7356,2027.923],[91.8839,50.7304,1745.8546],[91.9176,50.7146,1809.0625],[91.9375,50.7115,1694.6687],[91.9511,50.7039,1525.4944],[91.9669,50.6985,1465.5037],[92.0228,50.6835,1362.4471],[92.0956,50.684,1218.1012],[92.1439,50.681,1140.0505],[92.1737,50.682,1145.3058],[92.1958,50.6848,1175.1746],[92.2073,50.6911,1130.1106],[92.2115,50.6956,1054.428],[92.2239,50.7033,1036.9059],[92.2599,50.7102,1082.231],[92.2758,50.7162,1091.4932],[92.2879,50.7241,1100.0883],[92.3006,50.7364,1150.2615],[92.3051,50.7441,1336.0137],[92.3045,50.7585,1294.3507],[92.288,50.7956,1494.8391],[92.2869,50.8086,1530.2499],[92.3009,50.8282,1659.5065],[92.3028,50.8428,1852.175],[92.3065,50.8484,1951.2961],[92.3184,50.8581,2044.746],[92.3205,50.8623,1966.6931],[92.3214,50.8793,1963.0587],[92.3253,50.8864,2025.226],[92.3314,50.8905,2151.1975],[92.3401,50.893,2355.8792],[92.3718,50.8946,2514.1885],[92.381,50.8932,2442.3755],[92.3912,50.8896,2297.7478],[92.4007,50.8829,2252.5454],[92.4081,50.8587,2039.6522],[92.4082,50.839,2095.7158],[92.4119,50.8156,1758.1888],[92.4472,50.7903,1466.5112],[92.4711,50.7767,1477.5887],[92.4942,50.7707,1558.0283],[92.5088,50.7695,1610.4385],[92.5754,50.7714,1320.5701],[92.5918,50.7703,1248.8785],[92.6026,50.7669,1188.7062],[92.6152,50.7576,1120.7516],[92.6175,50.749,1115.2543],[92.6075,50.722,1055.9163],[92.6071,50.716,1043.561],[92.6124,50.7066,1024.4335],[92.6161,50.7052,1023.0797],[92.6588,50.7008,1032.1696],[92.748,50.7093,1200.5186],[92.7524,50.7123,1194.5048],[92.755,50.7181,1176.4318],[92.746,50.7427,1251.7947],[92.7472,50.7517,1250.2629],[92.7504,50.7555,1233.4517],[92.7725,50.769,1273.0269],[92.8024,50.7835,1444.7048],[92.8187,50.7896,1501.1772],[92.8439,50.7941,1663.8317],[92.9206,50.7931,1533.9226],[92.9951,50.7882,1561.7095],[93.0092,50.784,1563.365],[93.0215,50.7772,1475.3309],[93.033,50.763,1198.8781],[93.0294,50.7553,1117.7878],[93.0163,50.7451,1031.3298],[93.0062,50.7315,904.8961],[93.0113,50.7156,850.33],[93.0094,50.7025,820.4083],[92.9889,50.6726,766.2339],[92.9825,50.6582,761.5],[92.9831,50.6305,761.5],[92.9899,50.6159,761.5],[93.0034,50.6019,761.5],[93.0284,50.5874,761.5]]]]}}