{"type":"Feature","properties":{"GID_3":"RUS.80.5.1_1","GID_0":"RUS","country":"Russia","GID_1":"RUS.80_1","province":"Yamal-Nenets","NL_NAME_1":"Ямало-НенецкийАОк","GID_2":"RUS.80.5_1","county":"NovyyUrengoy","NL_NAME_2":"НовыйУренгой","city":"NA","VARNAME_3":"NA","NL_NAME_3":"NA","TYPE_3":"NA","ENGTYPE_3":"NA","CC_3":"NA","HASC_3":"NA","name":"N_A.city"},
"geometry":{"type": "MultiPolygon","coordinates": [[[[76.7111,66.1002,46.5169],[76.6527,66.0917,50.9083],[76.6324,66.053,53.6244],[76.6562,66.0389,59.3306],[76.7117,66.0378,57.0751],[76.7558,66.0625,46.8555],[76.7449,66.0876,48.2375],[76.7111,66.1002,46.5169]]]]}}