{"type":"Feature","properties":{"GID_3":"RUS.56.10.1_1","GID_0":"RUS","country":"Russia","GID_1":"RUS.56_1","province":"Primor'ye","NL_NAME_1":"Приморскийкрай","GID_2":"RUS.56.10_1","county":"Dal'nerechenskiyrayon","NL_NAME_2":"Дальнереченскийрайон","city":"NA","VARNAME_3":"NA","NL_NAME_3":"NA","TYPE_3":"NA","ENGTYPE_3":"NA","CC_3":"NA","HASC_3":"NA","name":"N_A.city"},
"geometry":{"type": "MultiPolygon","coordinates": [[[[133.5764,45.8671,56.0706],[133.5655,45.8456,86.0092],[133.6182,45.8246,80.0831],[133.6685,45.8251,70.4224],[133.6994,45.7907,97.5689],[133.7486,45.7575,105.7412],[133.7732,45.7285,127.7804],[133.8026,45.6863,269.8777],[133.855,45.6589,257.8785],[133.9333,45.6142,395.5863],[134.0186,45.575,337.614],[134.0721,45.5604,234.0057],[134.0762,45.5412,335.1795],[134.0282,45.4697,310.6655],[133.993,45.4242,387.437],[133.9462,45.3822,479.0768],[133.9385,45.329,574.817],[133.8476,45.2391,294.2419],[133.8542,45.238,374.1317],[133.9021,45.2204,325.9556],[133.9386,45.1926,212.1936],[134.0085,45.185,204.1736],[134.0486,45.188,248.0761],[134.1041,45.1557,223.136],[134.2052,45.1565,317.2955],[134.3004,45.1741,485.3989],[134.3557,45.1595,273.7731],[134.334,45.0991,370.7571],[134.3454,45.06,461.1141],[134.3936,45.0658,480.4702],[134.4688,45.0724,275.0925],[134.5811,45.086,293.5699],[134.646,45.0588,606.2383],[134.6757,45.0184,595.3832],[134.6925,44.9748,550.5694],[134.7674,44.9685,432.93],[134.8144,44.9799,550.7275],[134.8282,45.0069,547.8062],[134.8375,45.0441,652.229],[134.8911,45.079,664.0938],[134.9315,45.0595,558.7853],[134.9536,45.0546,742.0129],[134.9935,45.0772,878.2042],[135.0284,45.1008,892.9116],[135.0637,45.0842,729.3242],[135.0646,45.0565,624.2233],[135.1048,45.0663,835.7783],[135.1528,45.0967,823.6237],[135.1421,45.1224,756.3192],[135.0943,45.1746,824.2488],[135.035,45.2344,864.3268],[135.0489,45.2706,823.8224],[135.0085,45.286,545.5015],[134.9305,45.2528,845.3763],[134.9312,45.2943,818.5407],[134.8763,45.3228,1178.4656],[134.7995,45.3704,400.0081],[134.8065,45.4093,370.7329],[134.9157,45.4102,652.6366],[134.9405,45.4304,521.0989],[134.9302,45.4669,481.8052],[134.961,45.4909,436.6017],[134.9643,45.5343,662.8022],[134.9159,45.5641,798.6082],[134.8674,45.5441,724.4257],[134.8292,45.5626,670.8837],[134.7575,45.5652,807.9536],[134.7245,45.542,706.1007],[134.6624,45.5304,917.3964],[134.5999,45.5542,431.7329],[134.6152,45.5845,316.6545],[134.5382,45.6326,234.9046],[134.4693,45.6462,159.1099],[134.2575,45.659,238.7582],[134.2183,45.7166,173.536],[134.1729,45.7188,137.322],[134.145,45.7358,88.4687],[134.1712,45.7752,83.5766],[134.2118,45.7914,106.01],[134.2543,45.7625,198.9236],[134.271,45.7178,178.7118],[134.3258,45.7129,231.7148],[134.3817,45.7313,274.7943],[134.403,45.7643,231.2267],[134.3651,45.8122,249.4749],[134.3471,45.8605,206.7757],[134.2869,45.8818,190.5256],[134.2122,45.8809,89.6764],[134.0561,45.8907,71.2783],[134.0206,45.9019,70.9648],[133.9844,45.8421,132.431],[133.9345,45.8078,113.4791],[133.7623,45.8284,74.6714],[133.7675,45.881,62.5713],[133.8503,45.9675,62.1035],[133.9899,45.9851,75.4631],[133.998,46.0097,289.6477],[134.0219,46.0559,289.668],[133.9616,46.0677,176.7426],[133.8862,46.1036,74.7879],[133.8477,46.1284,55.9488],[133.8067,46.1306,56.2886],[133.7725,46.1373,55.5647],[133.7414,46.1331,56.1922],[133.7204,46.1281,56.4372],[133.6942,46.115,51.5],[133.6965,46.1098,51.5],[133.7331,46.0767,52.1585],[133.7361,46.0615,51.5],[133.7345,46.0473,53.2965],[133.7252,46.0368,52.0],[133.6926,46.0081,52.7491],[133.6801,45.9922,52.0],[133.6771,45.9832,56.3693],[133.6762,45.9602,54.0459],[133.6686,45.9516,53.0],[133.6683,45.9439,54.0605],[133.6633,45.9379,54.3436],[133.6569,45.9377,55.986],[133.6419,45.9422,56.1767],[133.6345,45.9426,56.2657],[133.6075,45.937,55.7993],[133.6009,45.9278,55.3403],[133.5999,45.9208,55.0068],[133.6113,45.9089,55.3649],[133.6139,45.9025,62.977],[133.6071,45.8964,55.439],[133.591,45.89,55.1485],[133.5914,45.8711,54.5],[133.5835,45.8657,56.4393],[133.5764,45.8671,56.0706]]]]}}