{"type":"Feature","properties":{"GID_2":"RUS.35.31_1","GID_0":"RUS","country":"Russia","GID_1":"RUS.35_1","province":"Krasnoyarsk","NL_NAME_1":"Красноярскийкрай","county":"Kozul'skiyrayon","VARNAME_2":"NA","NL_NAME_2":"Козульскийрайон","TYPE_2":"Raion","ENGTYPE_2":"District","CC_2":"R62092","HASC_2":"RU.KY.KO","name":"Kozul'skiyrayon.county"},
"geometry":{"type": "MultiPolygon","coordinates": [[[[90.9291,55.9572,294.9729],[90.9484,55.9092,309.3723],[90.9356,55.8193,313.1309],[90.9809,55.7725,398.9261],[91.0524,55.7342,349.7845],[91.0694,55.6485,315.3396],[91.0685,55.6145,311.4023],[91.1216,55.6114,393.2817],[91.1797,55.5867,284.5025],[91.305,55.591,288.2774],[91.3811,55.6271,330.4507],[91.4679,55.6502,443.1958],[91.5516,55.6565,390.9045],[91.6127,55.6913,715.9019],[91.6959,55.6774,732.9211],[91.7861,55.695,667.3825],[91.7342,55.7507,672.8571],[91.6775,55.784,618.7257],[91.5704,55.8419,407.3239],[91.6139,55.8836,552.9819],[91.5829,55.9308,399.0638],[91.6562,55.9481,458.86],[91.7115,55.9366,421.3445],[91.8538,55.9214,415.1195],[91.917,55.926,396.6646],[91.9373,55.9512,398.3583],[91.9181,55.9764,420.6895],[91.8853,55.9978,414.1603],[91.8397,56.0183,416.161],[91.8208,56.0472,337.5778],[91.8298,56.0588,337.9249],[91.8553,56.0698,341.0499],[91.8735,56.0959,426.08],[91.8484,56.1261,391.7202],[91.7885,56.1337,406.8916],[91.7084,56.1187,349.7012],[91.6274,56.1191,286.515],[91.5599,56.126,317.7792],[91.5104,56.1608,305.6368],[91.4731,56.302,302.892],[91.4885,56.3389,322.8053],[91.5158,56.3832,313.293],[91.5623,56.4086,314.5059],[91.6093,56.4598,302.8032],[91.6461,56.5121,285.3368],[91.6788,56.5631,282.739],[91.7373,56.6169,270.3797],[91.7513,56.6748,271.7884],[91.6734,56.6839,322.8232],[91.5598,56.6765,302.9909],[91.5104,56.659,314.4653],[91.4599,56.6535,315.5618],[91.3988,56.6618,293.9294],[91.3924,56.6107,325.7864],[91.3299,56.5666,327.3886],[91.2957,56.5447,339.5767],[91.2371,56.5201,337.0728],[91.2184,56.4947,359.4467],[91.2556,56.4232,390.5279],[91.2744,56.3824,340.9951],[91.2396,56.3375,337.0432],[91.1715,56.3387,312.923],[91.0814,56.3464,326.2132],[90.9968,56.2966,267.8484],[90.9467,56.2587,308.9154],[90.9808,56.1999,315.489],[90.9575,56.1576,332.4625],[90.9087,56.1179,416.8837],[90.8773,56.0796,359.0944],[90.8983,56.0382,254.1657],[90.9283,56.0048,249.8387],[90.9291,55.9572,294.9729]]]]}}