{"type":"Feature","properties":{"GID_3":"RUS.2.21.1_1","GID_0":"RUS","country":"Russia","GID_1":"RUS.2_1","province":"Altay","NL_NAME_1":"Алтайскийкрай","GID_2":"RUS.2.21_1","county":"Krasnoshchekovskiyrayon","NL_NAME_2":"Краснощековскийрайон","city":"NA","VARNAME_3":"NA","NL_NAME_3":"NA","TYPE_3":"NA","ENGTYPE_3":"NA","CC_3":"NA","HASC_3":"NA","name":"N_A.city"},
"geometry":{"type": "MultiPolygon","coordinates": [[[[83.2878,51.7272,405.3979],[83.2533,51.733,364.1407],[83.2209,51.7551,425.2975],[83.2264,51.7739,414.6683],[83.2505,51.7955,387.0145],[83.2839,51.8309,428.7462],[83.2817,51.8606,498.7227],[83.2524,51.8861,492.7361],[83.1999,51.8665,477.3861],[83.1251,51.8527,426.4192],[83.0871,51.8664,439.8188],[83.0399,51.873,426.5113],[82.9749,51.8475,370.9419],[82.8937,51.8485,373.2313],[82.8094,51.8669,367.2526],[82.7776,51.8457,359.4354],[82.7064,51.8209,259.0354],[82.6361,51.8009,332.8148],[82.588,51.793,353.3784],[82.5456,51.7822,323.5167],[82.5349,51.7587,273.0533],[82.5152,51.7385,247.0125],[82.5006,51.7304,247.3416],[82.5218,51.7038,217.229],[82.5727,51.6887,224.5874],[82.5867,51.6608,260.8203],[82.4873,51.6226,253.9256],[82.4883,51.5935,309.5127],[82.6279,51.5026,422.0118],[82.7175,51.4241,606.1066],[82.7617,51.3389,565.4334],[82.7818,51.3073,559.3451],[82.8359,51.3077,405.7186],[82.8806,51.3188,562.4131],[82.9328,51.2925,699.7086],[82.9904,51.2575,645.1979],[83.0204,51.22,955.3655],[82.987799999999993,51.1204,786.7278],[82.9916,51.0946,1343.347],[83.02,51.0879,1122.7595],[83.0405,51.0922,961.5102],[83.0782,51.088,1565.7122],[83.1212,51.0752,1017.9451],[83.1665,51.0674,1354.6227],[83.1799,51.0743,1005.3665],[83.1696,51.0877,866.5494],[83.1469,51.1057,590.0989],[83.1328,51.1346,551.7271],[83.1363,51.1747,709.1929],[83.1582,51.2207,784.591],[83.1682,51.2769,673.5999],[83.1839,51.3237,710.8268],[83.1913,51.3758,455.2602],[83.2104,51.3977,549.7962],[83.2342,51.4053,655.0659],[83.3473,51.4158,456.5819],[83.3419,51.4422,384.5587],[83.3113,51.4534,434.0482],[83.2782,51.4707,426.6899],[83.2285,51.5013,494.6922],[83.2075,51.546,493.4098],[83.2681,51.5632,514.4305],[83.3074,51.5845,593.5797],[83.3152,51.6186,546.7001],[83.3088,51.6543,479.5419],[83.3061,51.699,407.4436],[83.2878,51.7272,405.3979]]]]}}