{"type":"Feature","properties":{"GID_3":"RUS.35.44.1_1","GID_0":"RUS","country":"Russia","GID_1":"RUS.35_1","province":"Krasnoyarsk","NL_NAME_1":"Красноярскийкрай","GID_2":"RUS.35.44_1","county":"Rybinskiyrayon","NL_NAME_2":"Рыбинскийрайон","city":"NA","VARNAME_3":"NA","NL_NAME_3":"NA","TYPE_3":"NA","ENGTYPE_3":"NA","CC_3":"NA","HASC_3":"NA","name":"N_A.city"},
"geometry":{"type": "MultiPolygon","coordinates": [[[[95.4114,55.9375,344.7452],[95.3871,55.9803,355.0777],[95.3542,56.03,333.619],[95.1789,56.1077,308.9283],[95.0656,56.1404,230.1799],[94.9579,56.1777,333.3525],[94.8402,56.1972,341.9486],[94.7354,56.2035,433.8811],[94.6775,56.2127,496.6796],[94.6436,56.2522,538.6836],[94.6097,56.3083,558.5524],[94.6169,56.3635,556.5386],[94.5943,56.4008,587.3365],[94.548,56.4297,586.2675],[94.4528,56.4278,473.1478],[94.3457,56.3858,593.4432],[94.2579,56.3594,413.2711],[94.2042,56.3365,483.0336],[94.1334,56.2879,347.7581],[94.0882,56.2544,330.9809],[94.004,56.2088,325.1125],[94.0583,56.1523,420.0467],[94.132,56.1151,274.4018],[94.2031,56.0768,345.3086],[94.2259,56.0561,367.7407],[94.3067,56.0447,351.1817],[94.3291,56.0175,434.6608],[94.3038,55.9816,431.0944],[94.3392,55.9578,447.2261],[94.4304,55.9569,398.7676],[94.4766,55.9372,283.8015],[94.4708,55.8831,354.2911],[94.4998,55.8535,318.2152],[94.5949,55.8207,320.189],[94.6253,55.772,361.0565],[94.5742,55.6856,373.3716],[94.5528,55.6363,385.8334],[94.568,55.5914,437.9307],[94.5565,55.5526,364.7363],[94.5424,55.5318,373.128],[94.5587,55.5089,352.1692],[94.6064,55.4839,363.4937],[94.6254,55.4465,431.5271],[94.6651,55.4885,357.2784],[94.6817,55.5094,345.1816],[94.7044,55.5287,344.3498],[94.7885,55.5381,337.8646],[94.845,55.558,346.1933],[94.9675,55.6173,375.3924],[95.0111,55.6621,346.6264],[94.9349,55.6805,361.6598],[94.8939,55.717,359.5477],[94.9053,55.7494,390.9602],[94.9255,55.7649,393.7385],[94.9798,55.7719,369.4728],[95.0467,55.7702,360.0337],[95.094,55.7577,365.2456],[95.1621,55.7615,353.1493],[95.1865,55.7953,374.4141],[95.1639,55.829,349.1782],[95.1058,55.8685,366.0364],[95.1047,55.8994,377.1142],[95.1264,55.9149,335.8553],[95.1603,55.931,350.1633],[95.2445,55.9472,360.6087],[95.3193,55.9521,355.8589],[95.4114,55.9375,344.7452]],
[[94.9644,55.8846,369.5213],[94.9484,55.8782,331.4236],[94.9074,55.8844,357.8906],[94.9074,55.9038,333.8534],[94.9232,55.911,302.3833],[94.9504,55.9114,267.1562],[94.969,55.8985,353.334],[94.9644,55.8846,369.5213]],
[[94.7461,55.9265,316.3162],[94.7086,55.9256,264.4034],[94.6987,55.9316,238.9895],[94.6938,55.948,217.067],[94.7068,55.9565,211.8164],[94.7505,55.9598,211.1638],[94.766,55.9511,241.8178],[94.7657,55.9345,331.9231],[94.7461,55.9265,316.3162]]]]}}