{"type":"Feature","properties":{"GID_3":"RUS.83.20.1_1","GID_0":"RUS","country":"Russia","GID_1":"RUS.83_1","province":"Zabaykal'ye","NL_NAME_1":"Забайкальскийкрай","GID_2":"RUS.83.20_1","county":"Kyrinskiyrayon","NL_NAME_2":"Кыринскийрайон","city":"NA","VARNAME_3":"NA","NL_NAME_3":"NA","TYPE_3":"NA","ENGTYPE_3":"NA","CC_3":"NA","HASC_3":"NA","name":"N_A.city"},
"geometry":{"type": "MultiPolygon","coordinates": [[[[109.3291,49.3415,1353.5751],[109.3662,49.332,1516.0864],[109.3462,49.3405,1375.5382],[109.3153,49.3431,1401.7229],[109.3291,49.3415,1353.5751]]],
[[[112.8482,49.5269,1255.0264],[112.8673,49.5391,1251.5785],[112.8889,49.5502,1241.6985],[112.9321,49.5663,1257.1497],[112.9661,49.5865,1168.1696],[112.9933,49.5933,1182.8768],[113.0875,49.6083,1107.3679],[113.1006,49.6143,1157.3147],[113.1035,49.625,1033.0746],[113.0959,49.6556,1059.2839],[113.1079,49.6811,1056.9923],[113.1191,49.6953,1131.6074],[113.1304,49.7195,1046.8167],[113.1459,49.7451,957.569],[113.1789,49.7906,1003.7647],[113.1586,49.8283,1153.7881],[113.1361,49.8526,1204.38],[113.102,49.8529,1197.1748],[113.0612,49.817,1225.6289],[112.9761,49.7933,984.9047],[112.9238,49.8046,978.2604],[112.8636,49.8089,1106.9622],[112.8493,49.8195,1028.4489],[112.8218,49.855,816.9255],[112.7406,49.8619,805.4503],[112.6866,49.8372,844.5938],[112.6149,49.8194,1037.9042],[112.546,49.8285,1029.2257],[112.4899,49.8478,968.554],[112.4378,49.8471,1202.6196],[112.2616,49.854,1447.4098],[112.2145,49.8887,1523.6631],[112.1624,49.9406,1576.0365],[112.1608,49.9924,1492.353],[112.2087,50.0093,1553.3027],[112.2416,50.0308,1506.0273],[112.2759,50.0931,1630.4714],[112.2909,50.1574,1329.1312],[112.3176,50.2359,1379.6357],[112.3462,50.288,1537.3958],[112.2088,50.2844,1367.6637],[112.1398,50.2962,1441.2949],[112.0773,50.312,1281.1864],[112.0431,50.3188,1339.9268],[111.9924,50.309,1555.4365],[111.9588,50.2633,1437.8314],[111.9393,50.2266,1642.1631],[111.899,50.2224,1539.186],[111.8751,50.2251,1475.2238],[111.8704,50.2596,1650.1736],[111.8498,50.2774,1472.9042],[111.8205,50.2875,1618.7523],[111.7978,50.2628,1786.6855],[111.7979,50.224,1653.3801],[111.7814,50.1869,1806.8059],[111.7529,50.1775,1541.491],[111.7338,50.1417,1509.2585],[111.7168,50.1183,1698.125],[111.681,50.1193,1511.1143],[111.6579,50.1481,1517.7904],[111.6222,50.1714,1668.1294],[111.6,50.1836,1741.3733],[111.5326,50.1802,1672.4006],[111.4819,50.175,1836.885],[111.456,50.1603,1485.9735],[111.4302,50.1096,1665.0742],[111.4064,50.0762,1724.1808],[111.3681,50.0638,1622.4088],[111.3333,50.0617,1678.3309],[111.2992,50.038,1709.9601],[111.273,49.9951,1589.1177],[111.255,49.9551,1647.801],[111.236,49.9337,1547.62],[111.1986,49.9241,1621.8401],[111.1729,49.9034,1509.962],[111.1602,49.8618,1464.6362],[111.1622,49.8177,1637.2196],[111.156,49.7891,1881.792],[111.1252,49.7699,2161.9663],[111.0928,49.747,1878.6721],[111.0309,49.7173,1834.8774],[111.0008,49.6716,1786.9104],[110.9788,49.626,1745.3191],[110.9505,49.5948,1691.7689],[110.8859,49.5937,1753.3717],[110.8449,49.59,1658.1921],[110.7989,49.5762,1541.0305],[110.8034,49.5405,1764.325],[110.7947,49.5082,1337.1453],[110.7665,49.4807,1571.7473],[110.7215,49.4785,1487.4271],[110.6573,49.4928,1532.6829],[110.6404,49.5796,1680.3232],[110.5782,49.5977,1721.6989],[110.5329,49.5817,1591.48],[110.4957,49.5707,1626.0317],[110.4356,49.5865,1584.0293],[110.3886,49.596,1824.1301],[110.352,49.5761,1717.6304],[110.3228,49.5223,1596.599],[110.2769,49.4877,1810.2725],[110.1967,49.4906,1821.4015],[110.1581,49.4777,1977.0369],[110.1575,49.4357,1743.8896],[110.1331,49.4057,1792.0892],[110.0931,49.3763,1825.438],[109.9567,49.3678,1864.7667],[109.9174,49.3696,1603.7601],[109.8484,49.3643,1498.6108],[109.8206,49.3894,1680.9658],[109.7873,49.4267,1458.312],[109.7963,49.468,1679.1918],[109.7328,49.4875,1561.2719],[109.7028,49.4795,1665.5565],[109.6694,49.4415,1880.0343],[109.6243,49.431,1904.3856],[109.6196,49.4646,1781.2349],[109.62,49.5076,1461.9751],[109.5875,49.5194,1521.0337],[109.4916,49.4723,1880.1711],[109.4829,49.4242,1653.1626],[109.4837,49.3742,1542.6011],[109.5034,49.3099,1392.9581],[109.4995,49.2798,1592.0294],[109.4957,49.2688,1636.6252],[109.501,49.2548,1523.2144],[109.5129,49.2409,1423.8899],[109.5397,49.2261,1319.4568],[109.5711,49.2226,1370.4899],[109.5925,49.2229,1322.814],[109.5981,49.2247,1370.7253],[109.6357,49.2265,1312.0804],[109.6615,49.2299,1436.1018],[109.7015,49.2316,1375.5355],[109.7564,49.2273,1450.8694],[109.7878,49.2208,1357.3643],[109.806,49.2137,1256.2632],[109.8284,49.1948,1305.1997],[109.8434,49.1913,1295.6602],[109.8589,49.1971,1329.918],[109.8764,49.2082,1346.7188],[109.887,49.21,1303.8628],[109.9392,49.2038,1365.4078],[109.9575,49.2032,1366.516],[109.9823,49.1987,1346.5837],[110.0185,49.1994,1414.3524],[110.0575,49.1943,1666.5902],[110.1503,49.1736,1497.1047],[110.1641,49.1723,1501.5851],[110.1849,49.1675,1532.0708],[110.2341,49.1651,1528.8928],[110.3025,49.1817,1448.7925],[110.3267,49.1917,1430.3698],[110.3515,49.2075,1297.1702],[110.3763,49.2333,1372.0747],[110.3873,49.2493,1341.2672],[110.3995,49.2585,1310.2166],[110.4155,49.2511,1297.8188],[110.4481,49.2247,1571.7524],[110.4827,49.2032,1534.9147],[110.4988,49.1985,1691.9681],[110.5183,49.199,1596.3761],[110.5405,49.1959,1510.1134],[110.5589,49.1815,1503.7295],[110.5689,49.1767,1451.6758],[110.5728,49.1718,1578.2385],[110.5963,49.1621,1478.8708],[110.6568,49.1499,1465.6027],[110.7066,49.1459,1302.4806],[110.7663,49.1451,1359.2151],[110.8063,49.1503,1190.2766],[110.8217,49.1545,1261.9216],[110.8421,49.1633,1440.4152],[110.8591,49.1671,1357.6425],[110.9247,49.1745,1332.3135],[110.9551,49.1843,1251.7125],[110.9923,49.1999,1224.2611],[111.033,49.2295,1334.8823],[111.0724,49.2474,1174.9551],[111.106,49.2735,1084.4426],[111.1329,49.2859,1262.2648],[111.1698,49.3003,1445.7919],[111.2169,49.3127,1382.0549],[111.2491,49.3168,1031.1925],[111.2703,49.3245,1183.7996],[111.3201,49.3337,1330.6415],[111.3333,49.3387,1244.6115],[111.3617,49.3683,1224.5375],[111.3797,49.3735,1306.4119],[111.3923,49.3731,1315.8625],[111.4617,49.3551,1237.2349],[111.4803,49.3475,1241.1912],[111.5019,49.3438,1304.906],[111.522,49.3461,1282.6226],[111.6625,49.3963,962.1968],[111.6949,49.4044,1011.08],[111.7159,49.4067,1282.5288],[111.7284,49.4059,1148.4724],[111.7717,49.3971,1259.7026],[111.8189,49.3911,1198.7036],[111.8977,49.3917,1081.667],[111.9345,49.3955,1049.3025],[111.9657,49.4025,987.6243],[111.9857,49.4091,1193.5804],[112.0195,49.4251,1119.9021],[112.0382,49.4282,996.7692],[112.1109,49.4313,989.4603],[112.1327,49.4362,889.5891],[112.1964,49.4591,1057.8622],[112.2241,49.4669,1088.0159],[112.2613,49.4837,926.1953],[112.2861,49.4901,1032.3987],[112.3373,49.494,880.6239],[112.4377,49.5247,859.9885],[112.4559,49.5339,857.0665],[112.4891,49.5426,848.4776],[112.5132,49.5465,835.8164],[112.593,49.5254,842.2157],[112.6085,49.5247,901.8823],[112.6469,49.5283,954.9236],[112.6611,49.5242,956.0493],[112.6916,49.5047,1218.9086],[112.7163,49.4918,1008.2439],[112.7413,49.4899,1076.8064],[112.7549,49.4924,1188.939],[112.7911,49.5031,1169.4017],[112.7985,49.5073,1237.4497],[112.8145,49.5111,1243.9385],[112.8409,49.5223,1245.1309],[112.8482,49.5269,1255.0264]]]]}}