{"type":"Feature","properties":{"GID_2":"RUS.30.22_1","GID_0":"RUS","country":"Russia","GID_1":"RUS.30_1","province":"Khanty-Mansiy","NL_NAME_1":"Ханты-МансийскийАОк","county":"Uray","VARNAME_2":"Uraysk","NL_NAME_2":"Урай","TYPE_2":"Gorsovet","ENGTYPE_2":"District","CC_2":"NA","HASC_2":"RU.KM.UR","name":"Uray.county"},
"geometry":{"type": "MultiPolygon","coordinates": [[[[64.8304,60.0977,63.379],[64.8337,60.1135,54.9212],[64.8236,60.1222,50.7307],[64.7993,60.1228,60.0448],[64.7732,60.1121,61.5094],[64.7868,60.0919,58.3814],[64.8304,60.0977,63.379]]]]}}