{"type":"Feature","properties":{"GID_2":"RUS.2.45_1","GID_0":"RUS","country":"Russia","GID_1":"RUS.2_1","province":"Altay","NL_NAME_1":"Алтайскийкрай","county":"Slavgorodskiyrayon","VARNAME_2":"NA","NL_NAME_2":"Славгородский","TYPE_2":"Raion","ENGTYPE_2":"District","CC_2":"R53093","HASC_2":"RU.AL.SR","name":"Slavgorodskiyrayon.county"},
"geometry":{"type": "MultiPolygon","coordinates": [[[[78.3851,52.8094,133.1626],[78.4097,52.8053,134.7861],[78.4561,52.7935,135.6311],[78.5013,52.7757,135.4528],[78.5155,52.7872,131.0536],[78.5469,52.7963,133.1776],[78.6625,52.8058,114.5764],[78.6978,52.8252,105.7462],[78.7196,52.8487,109.4011],[78.7665,52.8617,128.4856],[78.7731,52.8783,129.5074],[78.747,52.9362,127.0925],[78.7737,52.9596,126.2545],[78.7978,52.9424,125.6673],[78.8232,52.9511,124.6692],[78.9121,52.9879,112.1993],[78.6876,53.2564,129.927],[78.6737,53.2694,131.2333],[78.673,53.2494,127.8796],[78.6089,53.2206,132.437],[78.5896,53.2034,126.2963],[78.5941,53.1785,123.3301],[78.4655,53.1475,86.0],[78.4315,53.1733,92.3229],[78.3884,53.1896,95.3112],[78.300299999999993,53.1663,104.2222],[78.345,53.1025,100.8986],[78.373,53.1014,97.4919],[78.4066,53.0708,103.1438],[78.4094,53.0378,98.0],[78.3702,53.0224,108.9887],[78.3516,53.0129,110.3416],[78.3726,52.9817,116.0861],[78.3632,52.9645,115.7587],[78.3304,52.9493,116.5559],[78.2999,52.9605,119.9953],[78.2712,52.9882,121.0009],[78.2505,53.0186,124.4298],[78.2001,53.0037,124.8402],[78.2405,52.9602,124.9201],[78.2499,52.9543,125.8934],[78.2753,52.9229,127.8197],[78.2895,52.9094,128.392],[78.3079,52.8869,127.7493],[78.3438,52.853,129.47],[78.3851,52.8094,133.1626]],
[[78.6385,52.9893,121.1096],[78.6278,52.988,123.1275],[78.6229,52.9946,122.8839],[78.6306,52.9991,120.276],[78.6401,52.9979,117.6827],[78.6431,52.9948,118.8912],[78.6385,52.9893,121.1096]]]]}}