{"type":"Feature","properties":{"featurecla":"Lake","scalerank":9,"name":"null512","name_abb":null,"name_alt":null,"note":"_untitled_232","delta":null,"dam_name":null,"year":-99,"admin":null,"min_zoom":7.0,"min_label":8.0},
"geometry":{"type": "Polygon","coordinates": [[[71.024622152396688,69.795614505753662,28.0658],[70.985177359361046,69.811215804491667,23.3035],[70.952502941249435,69.818574907669955,20.0963],[70.916884881866508,69.817986179415669,31.549],[70.8739077193053,69.811215804491667,32.1612],[70.832991105634,69.799441239406377,44.5085],[70.8023772364123,69.7838399406684,40.7156],[70.816506714514617,69.776186473363,18.7556],[70.82092217642159,69.767061185421909,15.0],[70.815917986260331,69.75793589748082,15.0],[70.8023772364123,69.749693701921132,17.7329],[70.808558883082043,69.7558753485909,15.0],[70.790013943072751,69.752637343192447,18.0909],[70.786481573547178,69.747044424776959,18.6402],[70.793546312598323,69.740568413980043,18.147],[70.807675790700671,69.734092403183155,15.0],[70.831519284998336,69.728499484767667,15.0],[70.953386033630835,69.733798039056012,15.0],[71.04405018478738,69.7541091638281,20.0474],[71.090265352747053,69.7558753485909,17.8097],[71.062595124796673,69.776186473363,32.5803],[71.024622152396688,69.795614505753662,28.0658]]]}}