{"type":"Feature","properties":{"featurecla":"Lake","scalerank":4,"name":"Ozero Yambuto","name_abb":"O. Yambuto","name_alt":"Lake Yambuto","note":null,"delta":null,"dam_name":null,"year":-99,"admin":null,"min_zoom":4.0,"min_label":5.0},
"geometry":{"type": "Polygon","coordinates": [[[71.041695271770323,69.966640063617319,17.6852],[71.0699542279749,69.989306101406385,19.8526],[71.049643103202982,70.0057904925257,27.7605],[71.031098163193747,70.015504508721,27.1241],[70.985471723488217,70.028750894441941,19.4623],[70.8998117624929,70.041997280162889,17.1991],[70.878028817085067,70.051416932231177,17.2874],[70.946615658706889,70.084680078597046,17.5812],[70.966632419351811,70.107640480513339,17.7036],[70.946321294579661,70.133838887827949,17.8742],[70.9042272243999,70.142375447514837,30.5052],[70.843293850083569,70.141786719260608,17.9806],[70.79766741037821,70.12824596941249,19.4774],[70.802377236412269,70.098515192572222,24.5456],[70.793251948471209,70.092333545902477,22.2396],[70.77647319322466,70.084091350342817,28.4831],[70.767936633537943,70.0787927960543,20.1498],[70.766759177029485,70.064663317952125,29.9904],[70.759400073851111,70.057598578900922,35.6551],[70.747036780511621,70.057598578900922,35.3306],[70.725548199231014,70.064663317952125,24.2701],[70.704353982077464,70.063191497316438,28.1301],[70.6961117865178,70.054949301756778,33.375],[70.7128905417643,70.0405254595272,27.3549],[70.772646459572059,70.02109742713651,17.3632],[70.7885421224371,70.010500318559934,17.5466],[70.781771747513119,70.0031412153815,26.185],[70.792663220216923,69.996959568711759,30.7028],[70.811796888480615,69.979592085211038,17.3927],[70.822688361184419,69.972527346159836,17.4272],[70.843882578337968,69.966051335362863,17.1507],[71.000484293971851,69.959575324566117,17.3629],[71.041695271770323,69.966640063617319,17.6852]]]}}