{"type":"Feature","properties":{"featurecla":"Lake","scalerank":9,"name":"Ozero Yasaveyto","name_abb":"O. Yasaveyto","name_alt":"Lake Yasaveyto","note":null,"delta":null,"dam_name":null,"year":-99,"admin":null,"min_zoom":7.0,"min_label":8.0},
"geometry":{"type": "Polygon","coordinates": [[[70.304901861559756,69.705539082851374,39.4851],[70.278703454245061,69.7223178380979,26.7324],[70.195398406266776,69.75705280509942,32.1183],[70.164490172917965,69.763528815896336,59.4674],[70.090310412880768,69.751459886683932,45.184],[70.047333250319554,69.737624772708728,27.3054],[70.024961576657546,69.719962925080836,41.5715],[70.020840478877716,69.7149587349196,46.1873],[70.026727761420346,69.710543273012632,34.9874],[70.026727761420346,69.709954544758347,36.553],[70.026727761420346,69.709660180631232,36.553],[70.026727761420346,69.709365816504089,36.6056],[70.027022125547461,69.708777088249832,36.6056],[70.027022125547461,69.71024890888549,36.553],[70.0561641741335,69.689054691732,25.3218],[70.0894273204994,69.67109847997699,25.1447],[70.125928472263723,69.658735186637443,24.893],[70.164490172917965,69.654025360603327,25.0668],[70.258097965345826,69.666683018070017,23.6036],[70.302546948542727,69.682578680935109,24.3885],[70.304901861559756,69.705539082851374,39.4851]]]}}