{"type":"Feature","properties":{"featurecla":"Lake","scalerank":4,"name":"null329","name_abb":null,"name_alt":null,"note":"_untitled_15","delta":null,"dam_name":null,"year":-99,"admin":null,"min_zoom":4.0,"min_label":5.0},
"geometry":{"type": "Polygon","coordinates": [[[70.702587797314663,70.123536143378345,16.3236],[70.682571036669685,70.131189610683776,16.2828],[70.664320460787536,70.1470852735489,17.1911],[70.770585910682058,70.151500735455869,16.5156],[70.829458736108393,70.163864028795388,16.3746],[70.850064225007628,70.188590615474453,16.6182],[70.835346018651023,70.199776452305457,17.5786],[70.774118280207659,70.218615756441892,38.0953],[70.753807155435567,70.222148125967465,38.5889],[70.7299636611379,70.218910120569,39.6681],[70.692285052865032,70.2000708164326,19.9981],[70.654312080465047,70.189473707855853,17.5294],[70.634884048074355,70.176227322134935,29.5897],[70.621637662353436,70.162686572286873,16.2591],[70.618694021082121,70.155916197362842,16.334],[70.600737809327086,70.163864028795388,16.4324],[70.5551113696217,70.192122985000026,17.5775],[70.528912962306975,70.198893359924057,40.9595],[70.37878725746981,70.203603185958173,39.1497],[70.352588850155087,70.1991877240512,32.1702],[70.329334084111707,70.188590615474453,25.3017],[70.329334084111707,70.195360990398484,20.9973],[70.307551138703957,70.185646974203138,35.5102],[70.320797524424876,70.170045675465161,36.5631],[70.348762116502371,70.155033104981442,37.4246],[70.370839426037264,70.1470852735489,28.6638],[70.589257608368968,70.110878485911684,16.2655],[70.664320460787536,70.112939034801627,16.1635],[70.703470889696035,70.118826317344258,16.2157],[70.702587797314663,70.123536143378345,16.3236]]]}}