{"type":"Feature","properties":{"featurecla":"Lake","scalerank":3,"name":"Ozero Yarroto Vtoroye","name_abb":"O. Yarroto Vtoroye","name_alt":"Lake Yarroto Vtoroye","note":null,"delta":null,"dam_name":null,"year":-99,"admin":null,"min_zoom":3.0,"min_label":4.0},
"geometry":{"type": "Polygon","coordinates": [[[71.366673268123691,67.979682205478412,29.0],[71.392282947184157,67.9870413086567,29.0],[71.398170229726787,68.009412982318707,40.8285],[71.386395664641526,68.023836824548169,49.1676],[71.322813013181076,68.0603379763125,54.7003],[71.291610415705122,68.065930894727984,44.682],[71.235975595677246,68.060926704566754,42.6482],[71.1965308026416,68.079471644576046,45.6106],[71.158852194368734,68.08064910108456,45.0161],[71.142956531503643,68.083298378228761,43.829],[71.100273733069542,68.10154895411091,42.9582],[71.066127494322274,68.107141872526427,37.7956],[70.9354298218758,68.096250399822537,30.9028],[70.917473610120766,68.090068753152792,30.83],[70.911586327578135,68.077411095686131,31.7914],[70.925715805680454,68.057099970914038,31.4418],[70.918356702502166,68.057099970914038,31.6799],[70.9345467294944,68.045619769955891,31.5876],[70.962511321571924,68.015594628988481,29.0],[70.980467533326959,68.002642607394677,29.0],[71.006665940641653,67.992634227072188,29.0],[71.040223451134665,67.985569488021042,30.7655],[71.071426048610647,67.9870413086567,40.0504],[71.090265352747053,68.002642607394677,29.0],[71.07996260829745,68.010001710572965,29.0],[71.083494977823023,68.014122808352823,29.0],[71.095563907035427,68.0158889931156,29.0],[71.109987749264889,68.016183357242738,29.0],[71.124705955621465,68.014417172479938,29.0],[71.204772998201292,67.9861582162753,29.0],[71.238624872821418,67.981154026114069,29.0],[71.308683535078757,67.981448390241184,29.0],[71.366673268123691,67.979682205478412,29.0]]]}}