{"type":"Feature","properties":{"featurecla":"Lake","scalerank":9,"name":"Ozero Shuryshkarskiy Sor","name_abb":"O. Shuryshkarskiy Sor","name_alt":"Lake Shuryshkarskiy Sor","note":null,"delta":null,"dam_name":null,"year":-99,"admin":null,"min_zoom":7.0,"min_label":8.0},
"geometry":{"type": "Polygon","coordinates": [[[64.988685725561822,65.9273755111164,35.0307],[64.997222285248625,65.925609326353623,38.5126],[65.107314468795892,65.90529820158153,4.1173],[65.134395968491987,65.905592565708673,4.3614],[65.235362864098164,65.922960049209422,5.0696],[65.313663721915191,65.925609326353623,4.0522],[65.24919797807334,65.986248336542729,3.6381],[65.229769945682648,66.020394575290027,14.5971],[65.2377177771152,66.056012634672953,4.2924],[65.2218221142501,66.056306998800068,3.5886],[65.175606946290429,66.049242259748922,3.7498],[65.198861712333837,66.064549194359756,4.2076],[65.22417702726716,66.0760293953179,18.5273],[65.196506799316779,66.080739221352019,4.7501],[65.148231082467191,66.07573503119076,22.6593],[65.0990722732362,66.065137922614014,33.0207],[65.069635860523022,66.0527746292745,23.0143],[65.050207828132329,66.031580412121031,4.4417],[65.017533410020718,65.987720157178387,4.1328],[64.997516649375768,65.966525940024923,6.0981],[64.999871562392826,65.960638657482292,4.9567],[64.986919540799022,65.954751374939661,6.1879],[64.9839758995277,65.946803543507087,5.7021],[64.985153356036221,65.932085337150511,20.9364],[64.988685725561822,65.9273755111164,35.0307]]]}}