{"type":"Feature","properties":{"featurecla":"Lake","scalerank":9,"name":"Ozero Chaselskoye","name_abb":"O. Chaselskoye","name_alt":"Lake Chaselskoye","note":null,"delta":null,"dam_name":null,"year":-99,"admin":null,"min_zoom":7.0,"min_label":8.0},
"geometry":{"type": "Polygon","coordinates": [[[79.23738129937027,64.463502706890608,39.5],[79.2415023971501,64.474688543721612,42.8117],[79.217070174598177,64.487051837061159,39.5],[79.2041181530044,64.487346201188274,44.0721],[79.191166131410625,64.485874380552616,39.5],[79.180863386961,64.487346201188274,42.608],[79.172326827274162,64.505302412943308,42.9445],[79.161729718697416,64.506185505324709,45.2437],[79.134942583128463,64.500592586909193,39.5],[79.1417129580525,64.517665706282827,39.5],[79.14141859392538,64.531206456130889,43.6051],[79.134648219001349,64.542097928834778,44.5025],[79.121107469153287,64.552106309157239,47.5773],[79.102268165016824,64.55475558630144,47.5047],[79.090787964058677,64.542686657089035,39.5],[79.076364121829272,64.511189695485939,39.5],[79.06606137737964,64.510012238977424,43.5088],[79.05781918181998,64.524436081206858,42.0558],[79.045750252607547,64.555933042809954,42.344],[79.030737682123856,64.5656470590053,44.0921],[79.010132193224649,64.572711798056474,43.8681],[78.988054883689756,64.575361075200647,43.2224],[78.970098671934693,64.572711798056474,42.7389],[78.953025552561087,64.564175238369643,42.4382],[78.947432634145571,64.5571104993185,43.2425],[78.9515537319254,64.548279575504523,39.5],[78.973925405587408,64.523258624698343,39.5],[78.98422815003704,64.516193885647169,39.5],[78.9977688998851,64.5117784237402,39.5],[79.105211806288139,64.490584206586732,39.5],[79.14053550154398,64.4717449024503,39.5],[79.155548072027671,64.438481756084428,39.5],[79.170855006638533,64.431417017033255,39.5],[79.184690120613709,64.43436065830457,42.9217],[79.192637952046255,64.444663402754173,43.8613],[79.189694310774939,64.459675973237893,43.9282],[79.215892718089663,64.457321060220835,39.5],[79.23738129937027,64.463502706890608,39.5]]]}}