{"type":"Feature","properties":{"featurecla":"Lake","scalerank":4,"name":"Ozero Neyto","name_abb":"O. Neyto","name_alt":"Lake Neyto","note":null,"delta":null,"dam_name":null,"year":-99,"admin":null,"min_zoom":4.0,"min_label":5.0},
"geometry":{"type": "Polygon","coordinates": [[[70.39468292033493,70.112939034801627,15.7919],[70.363480322858976,70.116177040200057,15.9496],[70.267223253286915,70.140314898624865,45.3638],[70.21247152564041,70.145907817040353,33.1067],[70.16655072180788,70.140020534497722,40.6495],[70.135053760204784,70.1155883119458,50.1563],[70.123279195119522,70.0652520462063,41.7873],[70.155364884976876,70.03699309000163,18.4954],[70.22925028088693,70.01373832395825,16.2183],[70.310200415848129,69.998725753474531,15.7968],[70.363480322858976,69.99607647633033,15.8141],[70.37878725746981,70.001080666491589,15.7342],[70.418820778759709,70.024041068407854,15.8906],[70.515077848331771,70.044646557307061,15.8826],[70.52920732643409,70.05288875286675,15.7742],[70.534211516595349,70.065840774460554,15.8593],[70.5348002448496,70.089095540503962,15.8475],[70.515372212458914,70.099987013207823,15.8261],[70.39468292033493,70.112939034801627,15.7919]]]}}