{"type":"Feature","properties":{"featurecla":"Lake","scalerank":9,"name":"Ozero Pitlyarskiy Sor","name_abb":"O. Pitlyarskiy Sor","name_alt":"Lake Pitlyarskiy Sor","note":null,"delta":"New or modified in version 1.2","dam_name":null,"year":-99,"admin":null,"min_zoom":7.0,"min_label":8.0},
"geometry":{"type": "Polygon","coordinates": [[[66.208236304268326,65.755761224998651,5.0595],[66.208236304268326,65.790496192000177,13.8546],[66.169380239486941,65.789024371364519,10.9773],[66.12257634327301,65.801682028831181,26.5389],[66.076361175313338,65.793145469144378,19.2725],[66.011012339090115,65.796089110415693,22.5903],[65.978337920978475,65.782253996440488,34.7679],[65.970684453673073,65.782253996440488,31.5786],[65.972745002562988,65.781959632313374,30.0371],[65.9756886438343,65.781665268186231,32.448],[65.97627737208856,65.77989908342343,26.2316],[65.970684453673073,65.7748948932622,11.4386],[65.989229393682365,65.760471051032738,27.8663],[66.015133436869945,65.750168306583134,4.837],[66.042803664820326,65.7433979316591,4.608],[66.066352794990848,65.740748654514931,4.3984],[66.079304816584653,65.742220475150589,4.1015],[66.106975044535034,65.748696485947477,3.7989],[66.12169325089161,65.748107757693219,4.0531],[66.124931256290068,65.743692295786246,3.8466],[66.127286169307126,65.736038828480815,5.0268],[66.131995995341214,65.730151545938185,16.575],[66.14171001153656,65.730740274192442,17.4801],[66.1914575490218,65.75311194785445,4.3503],[66.208236304268326,65.755761224998651,5.0595]]]}}