{"type":"Feature","properties":{"GID_3":"RUS.2.66.1_1","GID_0":"RUS","country":"Russia","GID_1":"RUS.2_1","province":"Altay","NL_NAME_1":"Алтайскийкрай","GID_2":"RUS.2.66_1","county":"Zav'yalovskiyrayon","NL_NAME_2":"Завьяловскийрайон","city":"NA","VARNAME_3":"NA","NL_NAME_3":"NA","TYPE_3":"NA","ENGTYPE_3":"NA","CC_3":"NA","HASC_3":"NA","name":"N_A.city"},
"geometry":{"type": "MultiPolygon","coordinates": [[[[80.601,53.0446,182.523],[80.5689,53.0361,179.1622],[80.5334,53.0155,172.5824],[80.5532,52.9519,160.0229],[80.6292,52.8831,183.2193],[80.5496,52.8471,192.3208],[80.5192,52.8355,189.8853],[80.5174,52.7835,209.04],[80.5503,52.725,208.6362],[80.5174,52.7153,210.2719],[80.484,52.75,215.5438],[80.4456,52.7544,204.7419],[80.4215,52.7368,209.0367],[80.4296,52.724,214.509],[80.4307,52.6635,200.9642],[80.4507,52.6397,171.547],[80.5005,52.6127,176.6768],[80.5304,52.6248,170.5591],[80.5607,52.6426,168.3928],[80.5934,52.6182,180.5586],[80.6435,52.5874,198.2478],[80.6756,52.5515,216.2302],[80.7427,52.5768,205.267],[80.7676,52.6021,198.2961],[80.7602,52.6481,188.8686],[80.7732,52.6722,181.8049],[80.8226,52.699,178.3357],[80.9693,52.7543,172.5819],[81.0195,52.7546,176.6527],[81.0643,52.7719,174.6225],[81.0559,52.8016,168.168],[81.0758,52.8155,165.0083],[81.1367,52.8035,175.0933],[81.1894,52.8211,174.4241],[81.3279,52.8564,181.5708],[81.4313,52.8864,194.0779],[81.4181,52.904,186.3701],[81.3797,52.9248,173.3596],[81.3731,52.9481,168.0637],[81.3215,52.9959,174.0531],[81.296,53.0255,153.3417],[81.2786,53.0611,161.6302],[81.2642,53.0775,157.5286],[81.1729,53.0476,146.0526],[81.0751,53.0373,142.2454],[81.049,53.0838,141.8945],[81.013,53.1275,140.7994],[80.9137,53.1102,140.0],[80.8702,53.0894,140.9559],[80.8171,53.0687,139.5],[80.784,53.0874,176.2551],[80.7495,53.0899,189.5847],[80.6827,53.0648,189.7081],[80.601,53.0446,182.523]]]]}}