{"type":"Feature","properties":{"GID_2":"RUS.30.16_1","GID_0":"RUS","country":"Russia","GID_1":"RUS.30_1","province":"Khanty-Mansiy","NL_NAME_1":"Ханты-МансийскийАОк","county":"Pokachi","VARNAME_2":"NA","NL_NAME_2":"Покачи","TYPE_2":"Gorod","ENGTYPE_2":"City","CC_2":"NA","HASC_2":"RU.KM.PO","name":"Pokachi.county"},
"geometry":{"type": "MultiPolygon","coordinates": [[[[75.1732,61.6042,67.7888],[75.219,61.624,43.3643],[75.2201,61.6527,43.8693],[75.1526,61.675,42.5195],[75.0885,61.6634,47.9449],[75.0679,61.6427,48.9439],[75.0697,61.5968,42.6022],[75.1732,61.6042,67.7888]]]]}}