{"type":"Feature","properties":{"GID_2":"RUS.29.1_1","GID_0":"RUS","country":"Russia","GID_1":"RUS.29_1","province":"Khakass","NL_NAME_1":"РеспубликаХакасия","county":"Abakan","VARNAME_2":"NA","NL_NAME_2":"Абака́н","TYPE_2":"Gorod","ENGTYPE_2":"City","CC_2":"NA","HASC_2":"RU.KK.AB","name":"Abakan.county"},
"geometry":{"type": "MultiPolygon","coordinates": [[[[91.4528,53.7017,248.8637],[91.4508,53.711,248.9905],[91.4395,53.7174,253.2901],[91.4303,53.7145,250.3651],[91.4251,53.6989,249.8798],[91.4439,53.6974,249.0782],[91.4528,53.7017,248.8637]]]]}}