{"type":"Feature","properties":{"GID_2":"RUS.9.5_1","GID_0":"RUS","country":"Russia","GID_1":"RUS.9_1","province":"Buryat","NL_NAME_1":"РеспубликаБурятия","county":"Gusinoozersk","VARNAME_2":"NA","NL_NAME_2":"Гусиноозерск","TYPE_2":"Gorsovet","ENGTYPE_2":"District","CC_2":"NA","HASC_2":"RU.BU.GU","name":"Gusinoozersk.county"},
"geometry":{"type": "MultiPolygon","coordinates": [[[[106.5902,51.2831,727.1222],[106.5916,51.2917,736.2988],[106.5773,51.3041,638.6046],[106.552,51.2977,614.0513],[106.5598,51.2806,704.4006],[106.5741,51.2761,773.4565],[106.5902,51.2831,727.1222]]]]}}