{"type":"Feature","properties":{"featurecla":"Lake","scalerank":7,"name":"Ozero Teletskoye","name_abb":"O. Teletskoye","name_alt":"Lake Teletskoye","note":null,"delta":null,"dam_name":null,"year":-99,"admin":null,"min_zoom":5.7,"min_label":6.7},
"geometry":{"type": "Polygon","coordinates": [[[87.80426049128323,51.398445288278594,433.5],[87.729197638864662,51.529437324852182,450.6322],[87.721544171559231,51.555635732166905,808.6575],[87.697406313134479,51.581539775354486,500.1865],[87.692990851227478,51.605677633779294,955.1559],[87.696228856625908,51.633936589983932,874.2876],[87.694462671863164,51.67220392651106,530.217],[87.688281025193362,51.707527621766843,537.71],[87.686220476303447,51.7516822408366,846.3882],[87.683865563286417,51.757863887506375,728.6818],[87.683865563286417,51.763162441794748,568.2888],[87.690930302337563,51.771699001481551,577.4865],[87.698878133770108,51.776114463388524,536.0839],[87.722427263940631,51.784356658948212,896.6785],[87.728314546483261,51.788183392600928,954.1866],[87.725959633466232,51.801135414194732,435.9301],[87.705354144567025,51.795542495779216,433.5],[87.666203715658526,51.775231371007123,689.3899],[87.647364411522062,51.76993281671875,706.3058],[87.545808787661656,51.755508974489317,433.5],[87.520199108601219,51.755508974489317,687.5756],[87.488407782870979,51.761690621159062,886.4927],[87.46250373968337,51.762868077667605,814.6089],[87.416288571723726,51.760218800523404,433.5],[87.3918563491718,51.761690621159062,433.5],[87.41893784886787,51.746972414802485,488.4682],[87.628230743258541,51.724600741140478,586.6169],[87.6391222159624,51.718713458597847,433.5],[87.6320574769112,51.706350165258328,448.4878],[87.641477128979432,51.689865774138951,487.8011],[87.645009498505033,51.667788464604087,433.5],[87.648247503903463,51.599201622982406,433.5],[87.652368601683293,51.581245411227371,433.5],[87.661199525497238,51.565055384235109,433.5],[87.677095188362387,51.545921715971559,433.5],[87.684159927413532,51.5341471508863,433.5],[87.684454291540646,51.524727498818095,433.5],[87.6818050143965,51.515307846749863,487.6005],[87.6800388296337,51.504710738173117,815.5548],[87.681216286142217,51.492936173087855,1027.7251],[87.684454291540646,51.487048890545225,926.2184],[87.6977006772616,51.477040510222764,695.006],[87.708886514092569,51.462322303866159,535.0972],[87.728020182356147,51.428764793373148,433.5],[87.735673649661578,51.413457858762314,433.5],[87.738028562678608,51.388731272083248,509.0576],[87.7421496604585,51.377545435252244,472.9131],[87.751274948399555,51.368125783184041,433.5],[87.764226969993331,51.360177951751467,434.2393],[87.777767719841393,51.353996305081722,433.5],[87.802494306520487,51.346931566030548,569.2233],[87.820156154148378,51.344282288886376,919.1678],[87.836346181140584,51.346637201903434,508.3009],[87.8445883767003,51.357528674607295,433.5],[87.838995458284785,51.3660652342941,586.8575],[87.80426049128323,51.398445288278594,433.5]]]}}