{"type":"Feature","properties":{"GID_2":"RUS.28.23_1","GID_0":"RUS","country":"Russia","GID_1":"RUS.28_1","province":"Khabarovsk","NL_NAME_1":"Хабаровскийкрай","county":"Vyazemskiyrayon","VARNAME_2":"NA","NL_NAME_2":"Вяземскийрайон","TYPE_2":"Raion","ENGTYPE_2":"District","CC_2":"R67090","HASC_2":"RU.KH.VY","name":"Vyazemskiyrayon.county"},
"geometry":{"type": "MultiPolygon","coordinates": [[[[134.3584,47.4389,39.5],[134.334,47.4364,39.75],[134.2956,47.4211,40.0],[134.2682,47.4013,40.0],[134.2518,47.3788,40.0],[134.2483,47.3647,40.0],[134.242,47.3529,40.0],[134.2334,47.3465,42.4067],[134.187,47.3309,41.1567],[134.1813,47.3234,44.0359],[134.1669,47.2979,41.5],[134.157,47.2738,41.5],[134.1491,47.2595,42.8792],[134.1491,47.2467,41.5],[134.1606,47.2361,41.5],[134.2052,47.2098,41.5],[134.2757,47.28,97.0834],[134.3124,47.2336,140.3104],[134.3767,47.2432,162.616],[134.4468,47.2886,146.5733],[134.4933,47.2946,206.0367],[134.5631,47.2888,793.8552],[134.6693,47.2773,739.7201],[134.7707,47.2819,593.2254],[134.8503,47.3081,567.4389],[134.8368,47.2546,385.7225],[134.8579,47.2321,386.1846],[134.8615,47.1716,492.133],[134.8875,47.174,509.8761],[134.9493,47.1563,268.5461],[134.9885,47.1484,292.8031],[135.0305,47.162,334.1633],[135.0635,47.1966,447.9409],[135.0902,47.2286,484.6248],[135.1333,47.2253,390.1007],[135.1851,47.2165,269.3458],[135.2155,47.2016,268.1516],[135.2361,47.1822,454.4185],[135.2812,47.1863,357.5476],[135.327,47.1942,362.1928],[135.3544,47.1794,438.4536],[135.3865,47.2046,538.6382],[135.3889,47.2627,261.6393],[135.3299,47.3106,294.9168],[135.3474,47.3679,304.4126],[135.3206,47.4022,272.8734],[135.273,47.4279,230.0462],[135.4241,47.485,271.3882],[135.4359,47.5354,252.3432],[135.4459,47.5615,327.9727],[135.5275,47.5743,196.894],[135.5217,47.589,374.3661],[135.4788,47.6223,526.1469],[135.4792,47.6771,178.9102],[135.4857,47.7119,272.4717],[135.4643,47.7327,141.9832],[135.4295,47.7607,109.9918],[135.4296,47.7959,119.61],[135.4166,47.8237,123.3686],[135.3279,47.8403,99.7506],[135.1922,47.8262,74.9275],[135.0558,47.8204,61.9678],[134.9762,47.8311,57.314],[134.8721,47.8489,49.0122],[134.778,47.8452,47.6156],[134.7177,47.7951,36.0],[134.725,47.7853,36.5],[134.7593,47.7668,36.5],[134.7716,47.7535,40.8455],[134.7739,47.7291,36.5],[134.7613,47.705,36.5],[134.7533,47.6786,42.7913],[134.739,47.6681,39.6724],[134.7117,47.6537,37.0],[134.678,47.6307,37.0],[134.6746,47.6152,37.0],[134.676,47.6005,38.5851],[134.6698,47.5838,37.5],[134.6203,47.5415,39.0],[134.5759,47.5177,78.9392],[134.5744,47.4999,39.0],[134.5676,47.4942,39.0],[134.5284,47.4748,39.5977],[134.4935,47.4438,39.5],[134.4837,47.4435,39.5],[134.4609,47.4477,39.5],[134.4422,47.4453,39.5],[134.3962,47.4347,39.5],[134.3827,47.4343,39.5],[134.3584,47.4389,39.5]]]]}}