{"type":"Feature","properties":{"GID_3":"RUS.2.16.1_1","GID_0":"RUS","country":"Russia","GID_1":"RUS.2_1","province":"Altay","NL_NAME_1":"Алтайскийкрай","GID_2":"RUS.2.16_1","county":"Kamenskiyrayon","NL_NAME_2":"Каменскийрайон","city":"NA","VARNAME_3":"NA","NL_NAME_3":"NA","TYPE_3":"NA","ENGTYPE_3":"NA","CC_3":"NA","HASC_3":"NA","name":"N_A.city"},
"geometry":{"type": "MultiPolygon","coordinates": [[[[81.0098,53.3545,143.5227],[81.1972,53.4244,144.0733],[81.2776,53.456,140.4179],[81.3537,53.4802,145.9759],[81.3976,53.4819,134.6261],[81.4446,53.471,147.0354],[81.514,53.4365,195.5709],[81.5614,53.4012,192.0575],[81.6154,53.4017,189.7837],[81.6623,53.417,205.3194],[81.6534,53.4456,226.2204],[81.6426,53.4947,196.634],[81.6807,53.5151,127.6096],[81.7406,53.5269,123.4794],[81.7314,53.5696,122.5545],[81.7514,53.6114,123.809],[81.7775,53.6778,117.809],[81.8028,53.6481,118.5663],[81.8327,53.6529,118.9757],[81.8848,53.668,119.69],[82.021,53.6788,119.7703],[81.955,53.7029,122.1323],[81.8719,53.7223,118.6204],[81.8166,53.7067,119.1381],[81.7842,53.724,117.8801],[81.7178,53.7986,178.9552],[81.7163,53.8285,191.614],[81.7561,53.8463,202.2957],[81.8199,53.868,204.0058],[81.8159,53.9002,248.7282],[81.8285,53.9211,282.6395],[81.7879,53.931399999999996,254.6152],[81.7134,53.9183,268.1357],[81.6782,53.9341,274.6662],[81.6238,53.9393,247.691],[81.5675,53.9254,222.4916],[81.5595,53.9485,227.3056],[81.5574,53.9792,221.526],[81.563,54.0178,200.1157],[81.4732,54.0519,142.3014],[81.4019,54.025,141.5936],[81.3289,53.9856,132.0454],[81.3117,53.9252,135.3995],[81.3182,53.8632,114.9339],[81.2503,53.8076,133.7392],[81.1326,53.765,177.6783],[81.0446,53.7312,182.0713],[80.9118,53.7802,176.0054],[80.8217,53.7732,224.6356],[80.7225,53.7522,229.398],[80.664,53.7213,228.4541],[80.6091,53.6739,246.9601],[80.5912,53.6178,241.9163],[80.5902,53.56,233.0093],[80.6348,53.5263,204.4036],[80.7697,53.479,165.8896],[80.7971,53.4375,159.9548],[80.81,53.3802,142.9291],[80.9287,53.3697,136.3253],[81.0098,53.3545,143.5227]]]]}}