{"type":"Feature","properties":{"GID_2":"RUS.35.41_1","GID_0":"RUS","country":"Russia","GID_1":"RUS.35_1","province":"Krasnoyarsk","NL_NAME_1":"Красноярскийкрай","county":"Novoselovskiyrayon","VARNAME_2":"NA","NL_NAME_2":"Новоселовскийрайон","TYPE_2":"Raion","ENGTYPE_2":"District","CC_2":"R62092","HASC_2":"RU.KY.NV","name":"Novoselovskiyrayon.county"},
"geometry":{"type": "MultiPolygon","coordinates": [[[[90.9664,54.5747,361.9867],[91.0408,54.5927,232.0],[91.0936,54.6117,454.3229],[91.1101,54.5709,232.0],[91.1799,54.5765,382.8705],[91.2216,54.6055,482.6456],[91.2621,54.6152,458.3967],[91.3087,54.5686,414.5375],[91.3795,54.5888,500.4771],[91.4399,54.6082,361.4917],[91.4594,54.6472,608.6147],[91.4849,54.6931,659.4567],[91.5373,54.6981,688.9623],[91.5472,54.7299,645.434],[91.5179,54.7733,598.0951],[91.5122,54.8186,499.1613],[91.5429,54.8365,712.6581],[91.6007,54.841,418.5909],[91.6433,54.8652,306.5679],[91.6507,54.8951,295.1594],[91.5897,54.9014,508.324],[91.5246,54.9631,354.3795],[91.6054,54.993,294.4908],[91.5857,55.0272,360.7888],[91.5697,55.0818,232.0],[91.5348,55.0955,232.0],[91.53,55.1363,232.0],[91.4703,55.1637,444.066],[91.2647,55.1157,447.0497],[91.2403,55.144,470.5436],[91.1617,55.1689,322.1724],[91.0307,55.1401,315.0875],[91.0159,55.1087,366.4521],[90.9836,55.0786,404.808],[90.9342,55.0453,480.8228],[90.8364,55.0446,460.3998],[90.7857,55.067,411.2719],[90.7289,55.0879,386.1047],[90.6883,55.0946,394.9828],[90.5113,55.0577,495.862],[90.4356,55.0164,417.8932],[90.4827,54.9279,448.4555],[90.4485,54.8947,479.4822],[90.4583,54.8708,464.4474],[90.534,54.8855,526.1237],[90.6849,54.9047,341.0114],[90.7235,54.8713,309.9975],[90.7149,54.8312,325.452],[90.8405,54.8389,246.0369],[90.9153,54.7911,232.0],[90.8707,54.6638,232.0],[90.855,54.6268,314.0432],[90.9664,54.5747,361.9867]]]]}}