{"type":"Feature","properties":{"GID_3":"RUS.60.17.1_1","GID_0":"RUS","country":"Russia","GID_1":"RUS.60_1","province":"Sakha","NL_NAME_1":"РеспубликаСаха","GID_2":"RUS.60.17_1","county":"Namskiyrayon","NL_NAME_2":"Намскийрайон","city":"NA","VARNAME_3":"NA","NL_NAME_3":"NA","TYPE_3":"NA","ENGTYPE_3":"NA","CC_3":"NA","HASC_3":"NA","name":"N_A.city"},
"geometry":{"type": "MultiPolygon","coordinates": [[[[128.6458,62.3692,243.2549],[128.8375,62.3794,223.2729],[129.1621,62.3257,217.3415],[129.2823,62.2917,217.2632],[129.3617,62.275,219.5387],[129.5043,62.2726,219.097],[129.6366,62.302,216.6264],[129.7371,62.3512,210.7027],[129.8395,62.3898,197.9568],[129.9246,62.3991,207.7212],[129.989,62.3998,195.7764],[130.0356,62.3935,82.0],[130.0408,62.4396,85.0232],[130.0612,62.4818,88.7275],[130.1107,62.5495,108.9713],[130.1846,62.6187,128.086],[130.2568,62.6654,129.2635],[130.3295,62.72,146.2767],[130.3768,62.7653,141.1738],[130.3703,62.8064,127.8407],[130.2286,62.8105,113.6264],[130.1558,62.8154,114.7954],[130.0997,62.8482,114.1962],[130.1311,62.9048,122.4736],[130.1538,62.9802,127.0657],[130.0845,63.0484,124.7784],[130.0155,63.1035,108.3598],[129.9382,63.1405,86.205],[129.9316,63.1864,88.1412],[129.9638,63.241,88.7001],[129.9735,63.2846,100.0968],[129.9383,63.3296,85.5021],[129.8818,63.3691,81.4306],[129.8389,63.4354,105.312],[129.8645,63.4896,114.2923],[129.9496,63.5445,127.7431],[130.0338,63.5658,127.2114],[130.0923,63.5706,150.8925],[130.1198,63.5819,145.6447],[130.1192,63.5958,143.9701],[130.0462,63.6269,126.225],[129.9457,63.6476,173.3094],[129.7958,63.6208,117.9709],[129.6876,63.5705,91.152],[129.575,63.5241,82.4151],[129.4445,63.5347,82.8678],[129.3385,63.5828,93.6867],[129.163,63.6032,109.5273],[128.9383,63.6142,94.9931],[128.7789,63.5598,89.2009],[128.6492,63.4809,68.8867],[128.5613,63.4134,79.1457],[128.4319,63.3395,114.2516],[128.3257,63.2522,148.3929],[128.2583,63.1859,180.6611],[128.2197,63.1571,170.6781],[128.1326,63.1436,177.4519],[128.056,63.1599,163.8762],[128.0289,63.1911,132.1883],[127.9899,63.2201,138.5709],[127.9322,63.2316,166.1985],[127.8851,63.2276,157.2341],[127.888,63.1517,172.8701],[127.8999,63.0898,190.6617],[127.9263,63.0358,188.3945],[128.0165,62.9646,183.5808],[128.1903,62.8917,194.2468],[128.3964,62.8248,198.6275],[128.4932,62.7851,193.8315],[128.5846,62.7562,179.0728],[128.6306,62.7373,163.1741],[128.6155,62.6922,166.1537],[128.5765,62.6637,175.5518],[128.512,62.6491,172.8571],[128.4569,62.6424,183.6464],[128.4068,62.6318,192.428],[128.3126,62.5633,197.1806],[128.2475,62.5566,198.3205],[128.1321,62.5578,209.8436],[128.0318,62.5512,221.1496],[127.9649,62.5223,220.5194],[127.9209,62.4919,231.6771],[127.9522,62.4437,239.5041],[128.0723,62.4162,225.3406],[128.136,62.4045,242.2256],[128.174,62.3785,254.121],[128.2733,62.3519,272.2162],[128.3439,62.3367,252.6638],[128.4451,62.3537,257.2723],[128.6458,62.3692,243.2549]]]]}}