{"type":"Feature","properties":{"GID_3":"RUS.2.62.1_1","GID_0":"RUS","country":"Russia","GID_1":"RUS.2_1","province":"Altay","NL_NAME_1":"Алтайскийкрай","GID_2":"RUS.2.62_1","county":"Volchikhinskiyrayon","NL_NAME_2":"Волчихинскийрайон","city":"NA","VARNAME_3":"NA","NL_NAME_3":"NA","TYPE_3":"NA","ENGTYPE_3":"NA","CC_3":"NA","HASC_3":"NA","name":"N_A.city"},
"geometry":{"type": "MultiPolygon","coordinates": [[[[81.0846,52.0781,233.0166],[81.1041,52.0952,221.7315],[81.0762,52.1205,246.8422],[81.0485,52.1581,300.3758],[81.0986,52.1946,286.6873],[81.1285,52.2443,264.9489],[81.1505,52.2974,235.6897],[81.0863,52.3334,214.7664],[81.0576,52.3699,205.0498],[81.0016,52.3732,210.5462],[80.9632,52.3408,210.5517],[80.8927,52.3168,215.9037],[80.8368,52.3418,228.4962],[80.7329,52.307,245.6676],[80.6219,52.2745,269.0227],[80.5449,52.2424,281.9952],[80.5013,52.2609,291.0604],[80.482,52.2346,292.4053],[80.4168,52.2283,298.7119],[80.3536,52.2793,276.5564],[80.1918,52.255,248.3856],[80.1831,52.2267,256.4914],[80.1586,52.2079,247.0605],[80.082,52.1907,239.1974],[80.0388,52.1692,235.3592],[80.0496,52.1484,259.3441],[80.0513,52.1183,276.6411],[80.0481,52.0796,275.4586],[79.9945,52.0961,269.5496],[79.951,52.1022,245.8039],[79.9613,51.9755,208.0267],[79.9934,51.9197,191.4424],[80.0422,51.8556,194.1994],[80.035,51.8219,186.8139],[80.0138,51.7797,182.7708],[80.0624,51.7451,182.1575],[80.0892,51.7169,178.3261],[80.062,51.6984,168.1096],[80.0402,51.6751,161.1247],[80.066,51.6372,158.7013],[80.0817,51.6097,173.7659],[80.1574,51.6203,188.3222],[80.2072,51.6336,185.934],[80.2322,51.6507,176.4529],[80.2151,51.6722,193.5083],[80.2516,51.7058,196.9014],[80.3038,51.7176,190.4661],[80.2985,51.749,200.8145],[80.374,51.7755,182.4634],[80.4304,51.7795,183.7886],[80.4657,51.7613,194.7933],[80.4808,51.7346,188.8218],[80.5383,51.7301,198.7032],[80.5616,51.7963,187.8344],[80.6301,51.8127,221.3058],[80.6608,51.8374,218.1363],[80.6862,51.8725,240.0365],[80.7161,51.8894,234.2628],[80.7831,51.9339,251.3679],[80.8372,51.977,261.9097],[80.9019,52.0172,258.6905],[80.9844,52.0311,248.964],[81.0086,52.0259,233.9984],[81.0567,52.0535,231.8008],[81.0846,52.0781,233.0166]]]]}}