{"type":"Feature","properties":{"featurecla":"Lake","scalerank":9,"name":"Ozero Leushinskiy Tuman","name_abb":"O. Leushinskiy Tuman","name_alt":"Lake Leushinskiy Tuman","note":null,"delta":null,"dam_name":null,"year":-99,"admin":null,"min_zoom":7.0,"min_label":8.0},
"geometry":{"type": "Polygon","coordinates": [[[65.723124222755331,59.714820608002526,37.5],[65.66954995161737,59.71011078196841,37.5],[65.6439402725569,59.714526243875383,37.5],[65.56681687124842,59.744845748969965,40.5888],[65.538557915043782,59.74778939024128,41.2976],[65.449954312777152,59.744845748969965,41.292],[65.4579021442097,59.741902107698621,40.8102],[65.477918904854647,59.7313049991219,43.7091],[65.4375910194376,59.722768439435072,37.5],[65.414924981648483,59.7210022546723,37.5],[65.39873495465622,59.727478265469188,37.5],[65.384016748299643,59.736897917537391,39.0628],[65.366060536544609,59.739547194681592,37.5],[65.225354483775675,59.738075374045934,49.7252],[65.21828974472453,59.738958466427306,37.5],[65.212991190436156,59.741902107698621,37.5],[65.206809543766383,59.748378118495538,46.8674],[65.1985673482067,59.752204852148253,47.358],[65.177961859307487,59.749849939131195,37.5],[65.169425299620656,59.75191048802111,37.5],[65.156767642154,59.763390688979257,37.5],[65.158239462789652,59.7704554280304,37.5],[65.165304201840826,59.777814531208691,37.5],[65.169425299620656,59.789589096293952,40.024],[65.160888739933853,59.792238373438153,41.6013],[65.120855218643925,59.794004558200953,50.4709],[65.083765338625341,59.801658025506356,54.1596],[65.049619099878072,59.8028354820149,38.3022],[65.02018268716489,59.796359471217983,38.6347],[65.011351763350945,59.778991987717234,38.9284],[65.048736007496672,59.755148493419568,63.4015],[65.06198239321759,59.75014430325831,47.7884],[65.1176172132455,59.75191048802111,37.5],[65.129980506585014,59.748083754368395,37.5],[65.1391057945261,59.739547194681592,40.7005],[65.147053625958648,59.7304219067405,38.3462],[65.155295821518337,59.723945895943615,44.0272],[65.166776022476483,59.7201191622909,53.3438],[65.555336670290274,59.700691129900207,63.4707],[65.591249093800343,59.693626390849033,78.8027],[65.640702267158474,59.666250527025795,39.0031],[65.693099081787892,59.652709777177733,50.6054],[65.716942576085557,59.641818304473873,70.5499],[65.741669162764623,59.633576108914184,37.6178],[65.7563873691212,59.648883043525018,38.5536],[65.763452108172373,59.673315266076969,37.5],[65.765512657062288,59.693332026721919,37.5],[65.752560635468484,59.710699510222668,37.5],[65.723124222755331,59.714820608002526,37.5]]]}}