{"type":"Feature","properties":{"featurecla":"Lake","scalerank":9,"name":"Ozero Tursuntskiy Tuman","name_abb":"O. Tursuntskiy Tuman","name_alt":"Lake Tursuntskiy Tuman","note":null,"delta":null,"dam_name":null,"year":-99,"admin":null,"min_zoom":7.0,"min_label":8.0},
"geometry":{"type": "Polygon","coordinates": [[[64.071447105419537,60.497829186172766,46.0],[64.107065164802464,60.505777017605311,51.1972],[64.089697681301686,60.517551582690572,51.8543],[64.049664160011787,60.526088142377404,48.3603],[64.031707948256752,60.533152881428549,48.9568],[64.02111083968,60.544044354132438,49.8472],[64.009630638721887,60.571125853828562,48.523],[64.000799714907942,60.584077875422338,49.9014],[63.986081508551337,60.591436978600626,58.6869],[63.944281802498665,60.6070382773386,49.2324],[63.935450878684691,60.618224114169607,48.178],[63.9280917755064,60.632059228144811,51.1075],[63.910724292005654,60.6394183313231,64.0726],[63.890118803106418,60.640595787831614,64.4798],[63.873634411987041,60.635591597670384,58.2725],[63.878932966275414,60.616752293533949,46.0],[63.836250167841342,60.597912989397543,47.5],[63.826241787518853,60.580251141769622,47.622],[63.832717798315741,60.569948397320019,48.0311],[63.845081091655288,60.563178022395988,47.3438],[63.858033113249064,60.557879468107615,46.0],[63.867452765317296,60.553169642073527,46.0],[63.873340047859926,60.545516174768096,46.0],[63.8871751618351,60.51902340332623,46.0],[63.901599004064565,60.512547392529342,51.6183],[63.918377759311056,60.511075571893684,46.0],[63.935450878684691,60.5131361207836,46.0],[63.949874720914153,60.51902340332623,46.0],[63.957528188219584,60.528737419521576,73.3691],[63.9587056447281,60.538745799844065,46.0],[63.963709834889329,60.543749990005296,46.0],[63.983432231407164,60.539334528098323,46.0],[64.041127600324984,60.506954474113854,46.0],[64.071447105419537,60.497829186172766,46.0]]]}}