{"type":"Feature","properties":{"featurecla":"Lake","scalerank":9,"name":"Ozero Untor","name_abb":"O. Untor","name_alt":"Lake Untor","note":null,"delta":null,"dam_name":null,"year":-99,"admin":null,"min_zoom":7.0,"min_label":8.0},
"geometry":{"type": "Polygon","coordinates": [[[65.296296238414413,62.684071558379685,22.1667],[65.309836988262475,62.6843659225068,21.7393],[65.313663721915191,62.687603927905258,14.5],[65.304832798101216,62.694374302829289,14.5],[65.2907033199989,62.701733406007577,16.2918],[65.279223119040779,62.705560139660292,15.9643],[65.22829812504699,62.71026996569438,15.94],[65.217112288215986,62.709092509185865,17.0147],[65.181199864705917,62.6946686669564,17.6838],[65.172663305019114,62.688192656159515,17.9874],[65.160888739933853,62.6843659225068,17.4545],[65.14469871294159,62.688192656159515,16.9077],[65.1279199576951,62.6946686669564,14.5],[65.114379207847037,62.698201036482004,30.2378],[65.089063892913714,62.692019389812231,44.0603],[65.050207828132329,62.663760433607592,14.5],[65.028424882724579,62.657284422810676,14.5],[65.024892513199,62.6528689609037,14.5],[65.029307975105979,62.643154944708357,25.4104],[65.036667078284268,62.633735292640154,19.5861],[65.041965632572641,62.629319830733181,19.1785],[65.072285137667222,62.629025466606038,17.0069],[65.086414615769542,62.627259281843266,19.4698],[65.099955365617575,62.623138184063407,18.4761],[65.1084919253044,62.618722722156434,19.5295],[65.116439756736952,62.613129803740946,16.5317],[65.130863598966414,62.599294689765742,19.5837],[65.140871979288875,62.593407407223111,21.0551],[65.18326041359586,62.582221570392107,14.5],[65.171485848510571,62.568680820544046,21.6415],[65.162066196442368,62.554256978314612,22.4781],[65.175018218036172,62.542188049102208,21.8826],[65.195918071062522,62.549547152280496,15.9749],[65.215640467580329,62.567208999908388,14.5],[65.22417702726716,62.585165211663423,14.5],[65.220644657741559,62.595173591985912,14.5],[65.213579918690414,62.602827059291343,14.5],[65.209164456783441,62.610186162469631,16.3867],[65.213579918690414,62.619311450410692,14.5],[65.2200559294873,62.626964917716123,14.5],[65.221527750122959,62.632557836131639,14.5],[65.2218221142501,62.639622575182784,14.5],[65.22417702726716,62.650808412013788,14.5],[65.225354483775675,62.66434916186185,14.5],[65.224471391394275,62.670530808531623,14.5],[65.230064309809791,62.674063178057196,22.6528],[65.296296238414413,62.684071558379685,22.1667]]]}}