{"type":"Feature","properties":{"featurecla":"Lake","scalerank":9,"name":"Ozero Bolshoy Kazymskiy Sor","name_abb":"O. Bolshoy Kazymskiy Sor","name_alt":"Lake Bolshoy Kazymskiy Sor","note":null,"delta":null,"dam_name":null,"year":-99,"admin":null,"min_zoom":7.0,"min_label":8.0},
"geometry":{"type": "Polygon","coordinates": [[[66.058699327685446,63.8621167951606,14.6306],[66.0360332898963,63.857406969126515,13.6604],[66.022786904175376,63.856523876745115,13.4537],[66.006596877183142,63.862411159287745,11.6994],[65.99128994257228,63.873302631991606,14.1445],[65.97539427970716,63.877423729771465,13.4405],[65.957143703825011,63.862999887542,12.7554],[65.964208442876156,63.860056246270688,11.4174],[65.973039366690131,63.8526971430924,9.0694],[65.978337920978475,63.849459137693941,8.2894],[65.970095725418787,63.8126636218025,13.697],[66.003947600038941,63.792352497030407,14.5383],[66.051928952761415,63.778517383055231,12.696],[66.086663919762941,63.760855535427311,13.6919],[66.093434294686972,63.75997244304591,13.3791],[66.114334147713322,63.760855535427311,13.162],[66.110213049933463,63.770569551622657,12.402],[66.108152501043548,63.774396285275373,12.5509],[66.122870707400125,63.780283567818,13.6722],[66.128463625815641,63.7811666601994,12.3802],[66.0975553924668,63.793235589411807,12.2907],[66.083425914364483,63.802655241480011,11.6162],[66.08077663722031,63.815312898946672,11.7026],[66.0863695556358,63.821494545616446,10.9277],[66.105797588026491,63.824732551014904,13.5705],[66.114334147713322,63.828559284667591,11.6882],[66.11757215311178,63.833857838955964,11.6269],[66.118455245493152,63.83945075737148,13.864],[66.1205157943831,63.844454947532711,19.2029],[66.128463625815641,63.849459137693941,27.9051],[66.128463625815641,63.856523876745115,28.9111],[66.0704738927707,63.862999887542,14.6787],[66.058699327685446,63.8621167951606,14.6306]]]}}