{"type":"Feature","properties":{"featurecla":"Lake","scalerank":9,"name":"Ozero Tuman","name_abb":"O. Tuman","name_alt":"Lake Tuman","note":null,"delta":null,"dam_name":null,"year":-99,"admin":null,"min_zoom":7.0,"min_label":8.0},
"geometry":{"type": "Polygon","coordinates": [[[66.344526895130286,59.611204435252176,35.5],[66.336873427824855,59.62150717970178,35.5],[66.33893397671477,59.628571918752954,35.5],[66.354240911325633,59.641818304473873,35.5],[66.3677816611737,59.662718157500223,37.4522],[66.365721112283751,59.670371624805654,35.7612],[66.320389036705478,59.669782896551368,37.9928],[66.305965194476045,59.671843445441311,42.4084],[66.2841822490683,59.680968733382372,35.5],[66.256806385245056,59.685678559416488,37.927],[66.250036010321026,59.682440554018029,37.3021],[66.244443091905509,59.669782896551368,38.1199],[66.257395113499314,59.665661798771538,35.5],[66.269464042711718,59.65830269559325,35.5],[66.279766787161321,59.647999951143646,35.5],[66.286242797958209,59.6356366578041,37.963],[66.217950320463672,59.6356366578041,65.1572],[66.2238376030063,59.624450820973095,43.8461],[66.243559999524109,59.610910071125033,35.5],[66.252096559210941,59.600901690802573,35.5],[66.265048580804745,59.592365131115741,35.5],[66.283887884941151,59.586477848573111,35.5],[66.303021553204729,59.585006027937453,35.5],[66.329219960519424,59.596191864768457,35.5],[66.343643802748886,59.592659495242884,35.5],[66.357184552596948,59.587360940954511,35.5],[66.368076025300809,59.587360940954511,35.5],[66.376906949114755,59.597074957149857,47.1653],[66.3686647535551,59.603550967946745,41.3685],[66.344526895130286,59.611204435252176,35.5]]]}}