{"type":"Feature","properties":{"featurecla":"Lake","scalerank":9,"name":"Ozero Vandmtor","name_abb":"O. Vandmtor","name_alt":"Lake Vandmtor","note":null,"delta":null,"dam_name":null,"year":-99,"admin":null,"min_zoom":7.0,"min_label":8.0},
"geometry":{"type": "Polygon","coordinates": [[[65.957143703825011,62.239581726410847,26.0122],[65.9433085898498,62.246646465462021,20.8353],[65.932417117145945,62.251061927368994,18.6527],[65.925058013967657,62.257832302293025,18.5043],[65.922997465077742,62.273139236903859,16.2701],[65.928296019366115,62.282853253099205,16.7341],[65.938304399688576,62.291978541040294,18.4129],[65.945663502866864,62.30169255723564,23.1341],[65.9433085898498,62.314644578829416,18.0655],[65.930062204128888,62.322003682007704,19.9363],[65.90857362284828,62.323769866770505,17.6783],[65.868540101558381,62.321414953753447,16.0873],[65.90445252506845,62.334661339474394,16.319],[65.90945671522968,62.341726078525539,17.3816],[65.902097612051392,62.349085181703828,16.8975],[65.884435764423472,62.350851366466628,19.3785],[65.847934612659145,62.349379545830971,18.2965],[65.803779993589416,62.32759660042322,22.6483],[65.77728722214755,62.319943133117789,26.7933],[65.765512657062288,62.33171769820305,54.6526],[65.76227465166383,62.344375355669712,23.5669],[65.754621184358427,62.349085181703828,23.8314],[65.744318439908824,62.346435904559655,43.7847],[65.734310059586335,62.338488073127081,29.1724],[65.723124222755331,62.327007872168963,36.0985],[65.716648211958443,62.32347550264339,44.9731],[65.6848568862282,62.320531861372046,39.5138],[65.673965413524343,62.321120589626332,37.7705],[65.663662669074739,62.319060040736389,40.6148],[65.652182468116592,62.311112209303843,25.929],[65.641585359539846,62.306402383269727,30.3791],[65.6130320392081,62.305224926761213,26.5035],[65.600963109995689,62.30080946485424,25.9304],[65.646295185573962,62.281087068336404,16.6739],[65.666606310346054,62.266663226106971,18.5892],[65.6354037128701,62.251945019750394,28.9776],[65.625689696674755,62.245174644826363,28.5344],[65.621274234767782,62.239581726410847,22.0602],[65.62775024556467,62.231045166724044,18.4881],[65.640407903031331,62.231928259105416,17.6252],[65.6624852125662,62.239581726410847,17.4776],[65.684268157973946,62.242231003555048,16.7861],[65.701930005601838,62.249884470860451,16.2591],[65.73813679323905,62.2699012315054,13.5],[65.757564825629743,62.272844872776716,15.3147],[65.762863379918116,62.261070307691455,15.3567],[65.758447918011143,62.2289846178341,26.4195],[65.76315774404523,62.212500226714724,16.6501],[65.773460488494834,62.214855139731782,16.7676],[65.784940689452981,62.226629704817071,18.3618],[65.792594156758412,62.239581726410847,15.8272],[65.798481439301042,62.2587153946744,15.1099],[65.800247624063815,62.270195595632543,14.1891],[65.807017998987845,62.278143427065089,13.5],[65.826740395505681,62.286679986751921,13.5],[65.850878253930489,62.292272905167408,13.5],[65.868540101558381,62.290506720404636,13.5],[65.8826695796607,62.28167579659069,14.9278],[65.915932726026568,62.240464818792248,20.0079],[65.92770729111183,62.229573346088387,21.2703],[65.9433085898498,62.218387509257383,24.1908],[65.961853529859127,62.209556585443408,17.1438],[65.970978817800187,62.213677683223267,18.065],[65.970095725418787,62.225157884181385,26.1699],[65.957143703825011,62.239581726410847,26.0122]]]}}