{"type":"Feature","properties":{"featurecla":"Lake","scalerank":9,"name":"null508","name_abb":null,"name_alt":null,"note":"_untitled_236","delta":null,"dam_name":null,"year":-99,"admin":null,"min_zoom":7.0,"min_label":8.0},
"geometry":{"type": "Polygon","coordinates": [[[72.8985441857169,62.04765631552101,76.6326],[72.920915859378908,62.050599956792325,76.6446],[72.980966141313786,62.075032179344248,78.4617],[72.985970331475016,62.100053130150428,78.0982],[72.950941000346347,62.124190988575236,77.3311],[72.906786381276589,62.129195178736467,78.5535],[72.885297799995982,62.098581309514771,76.5558],[72.880587973961866,62.080625097759736,76.6433],[72.874406327292121,62.064140706640387,76.5754],[72.8770556044363,62.0523661415551,76.5888],[72.8985441857169,62.04765631552101,76.6326]]]}}