{"type":"Feature","properties":{"featurecla":"Lake","scalerank":9,"name":"Ozero Syrkovoye","name_abb":"O. Syrkovoye","name_alt":"Lake Syrkovoye","note":null,"delta":null,"dam_name":null,"year":-99,"admin":null,"min_zoom":7.0,"min_label":8.0},
"geometry":{"type": "Polygon","coordinates": [[[65.05697820305636,60.609981918609918,66.5],[65.0731682300486,60.628821222746353,66.5],[65.07375695830288,60.6488379833913,66.5],[65.059921844327675,60.66532237451068,66.5],[65.03696144241141,60.677391303723084,71.0463],[65.011351763350945,60.684161678647115,71.079],[64.984270263654849,60.682395493884314,66.5],[64.977205524603676,60.684161678647115,66.5],[64.969846421425387,60.688577140554088,66.5],[64.968080236662587,60.690637689444,66.5],[64.96749150840833,60.692992602461061,66.5],[64.9633704106285,60.697702428495177,66.5],[64.9624873182471,60.701823526275007,66.5],[64.964547867137014,60.70623898818198,71.0748],[64.966314051899815,60.711537542470353,70.2087],[64.9633704106285,60.718013553267241,70.6916],[64.956305671577326,60.723312107555614,70.6958],[64.948063476017637,60.725372656445529,70.8016],[64.929812900135488,60.725078292318415,70.8415],[64.904203221075022,60.720662830411442,69.8942],[64.833850194690569,60.684161678647115,69.9067],[64.845919123902945,60.668266015781995,69.2993],[64.86976261820061,60.652664717044019,66.5],[64.896255389642477,60.6403014237045,66.5],[64.915683422033169,60.635591597670384,66.5],[64.924808709974229,60.637063418306042,66.5],[64.9430592858564,60.642950700848672,66.5],[64.9504183890347,60.642950700848672,66.5],[64.959249312848641,60.6394183313231,66.5],[64.9607211334843,60.636474690051784,66.5],[64.960132405230041,60.632942320526212,71.1005],[64.9633704106285,60.628821222746353,70.6611],[64.979266073493591,60.619695934805264,66.5],[64.986036448417622,60.612631195754119,66.5],[64.99015754619748,60.601445358923115,69.7573],[65.006053209062571,60.590259522092111,66.5],[65.031662888123037,60.594969348126227,66.5],[65.05697820305636,60.609981918609918,66.5]]]}}