{"type":"Feature","properties":{"featurecla":"Lake","scalerank":9,"name":"Ozero Bolshoy Sor","name_abb":"O. Bolshoy Sor","name_alt":"Lake Bolshoy Sor","note":null,"delta":null,"dam_name":null,"year":-99,"admin":null,"min_zoom":7.0,"min_label":8.0},
"geometry":{"type": "Polygon","coordinates": [[[67.241160026373336,61.53870073971035,18.0],[67.250285314314425,61.539289467964608,18.0],[67.258527509874114,61.541644380981666,18.0],[67.266180977179545,61.546942935270039,22.5918],[67.2547007762214,61.554007674321184,23.2949],[67.229385461288075,61.563427326389416,23.4599],[67.224675635253988,61.571375157821961,18.0],[67.232034738432276,61.57873426100025,18.0],[67.265003520671,61.583444087034366,18.0],[67.272362623849318,61.591980646721169,37.4612],[67.263237335908229,61.608759401967689,38.3276],[67.2452811241532,61.622888880070008,18.0],[67.23232910255939,61.636135265790926,32.5109],[67.238216385102021,61.6499703797661,18.0],[67.220848901601272,61.666160406758365,31.458],[67.195533586667949,61.671753325173853,50.014],[67.053355713263358,61.663511129614164,21.1481],[67.036576958016838,61.667043499139766,21.6404],[67.003313811650969,61.684410982640514,25.5195],[66.95150572527578,61.692064449945946,38.1087],[66.901758187790534,61.686471531530458,28.4582],[66.874971052221554,61.663511129614164,18.0],[66.9785872249719,61.661450580724249,18.0],[67.0177376538804,61.652030928656046,18.0],[67.167274630463311,61.645849281986273,21.3009],[67.197888499685,61.636135265790926,18.0],[67.209663064770268,61.612586135620404,29.1552],[67.183464657455545,61.599928478153743,40.4535],[67.1189989136137,61.585504635924281,28.4505],[67.110167989799749,61.557245679719642,23.9157],[67.145786049182675,61.543999293998723,30.4331],[67.231446010178018,61.539878196218865,18.0],[67.241160026373336,61.53870073971035,18.0]]]}}