{"type":"Feature","properties":{"featurecla":"Lake","scalerank":9,"name":"Ozero Tormemtor","name_abb":"O. Tormemtor","name_alt":"Lake Tormemtor","note":null,"delta":null,"dam_name":null,"year":-99,"admin":null,"min_zoom":7.0,"min_label":8.0},
"geometry":{"type": "Polygon","coordinates": [[[79.486707715050784,61.284958862122835,64.9607],[79.457271302337631,61.287313775139893,67.867],[79.4487347426508,61.286430682758493,67.7862],[79.431955987404308,61.28201522085152,67.6016],[79.426363068988792,61.283487041487177,67.6157],[79.421064514700447,61.287019411012778,65.2778],[79.402813938818269,61.292612329428266,66.4116],[79.395749199767124,61.293495421809666,65.9827],[79.380736629283376,61.290846144665494,64.8563],[79.363369145782656,61.283487041487177,65.6693],[79.35365512958731,61.272595568783316,65.9321],[79.361014232765569,61.2593491830624,65.5],[79.378087352139232,61.257288634172482,65.5],[79.399281569292668,61.261409731952313,65.5],[79.41370541152213,61.26111536782517,65.5],[79.409878677869415,61.245808433214336,68.8295],[79.383680270554692,61.254344992901167,65.5],[79.285951380347,61.252578808138367,67.2309],[79.273882451134625,61.250223895121309,66.3417],[79.266817712083423,61.244336612578678,65.5],[79.260636065413678,61.237566237654647,65.5],[79.251216413345446,61.23197331923916,68.4801],[79.2415023971501,61.233150775747674,68.922],[79.232082745081925,61.237271873527504,68.6273],[79.223251821267979,61.23697750940039,68.4843],[79.217070174598177,61.224614216060843,65.5],[79.237086935243155,61.221376210662413,65.5],[79.268289532719109,61.204008727161636,65.5],[79.285951380347,61.197238352237605,65.5],[79.304201956229178,61.197532716364748,65.5],[79.322452532111356,61.201948178271721,65.5],[79.339231287357848,61.204008727161636,65.5],[79.354832586095824,61.197238352237605,65.5],[79.297137217178033,61.168979396032967,65.5],[79.296842853050862,61.159559743964763,65.5],[79.340997472120648,61.155733010312048,65.5],[79.359836776257055,61.157204830947705,65.5],[79.372788797850831,61.164858298253137,65.5],[79.383680270554692,61.17339485793994,65.5],[79.395749199767124,61.1775159557198,65.5],[79.4325447156586,61.175749770957,65.5],[79.449912199159314,61.17839904810117,67.4312],[79.457271302337631,61.187229971915144,65.5],[79.4549163893206,61.211662194467067,65.5],[79.459037487100431,61.22108184653527,65.5],[79.487590807432184,61.2278522214593,65.5],[79.497010459500416,61.236388781146132,65.5],[79.502603377915932,61.248457710358508,65.5],[79.504369562678676,61.262587188460827,65.5],[79.499071008390331,61.27789412307169,65.6558],[79.486707715050784,61.284958862122835,64.9607]]]}}