{"type":"Feature","properties":{"featurecla":"Lake","scalerank":9,"name":"null509","name_abb":null,"name_alt":null,"note":"_untitled_235","delta":null,"dam_name":null,"year":-99,"admin":null,"min_zoom":7.0,"min_label":8.0},
"geometry":{"type": "Polygon","coordinates": [[[73.4990470050655,61.764772389347456,77.8102],[73.453714929487234,61.742400715685449,78.0048],[73.441057272020572,61.737985253778476,74.5],[73.435169989477941,61.741517623304077,76.7675],[73.433403804715141,61.75093727537228,77.521],[73.433403804715141,61.763006204584684,75.5],[73.428399614553911,61.770659671890115,75.5],[73.416919413595764,61.77095403601723,75.5],[73.370115517381834,61.763594932838942,76.8643],[73.3224285287865,61.750348547118023,77.6206],[73.296818849726066,61.74593308521105,78.1422],[73.273858447809772,61.745049992829649,76.5763],[73.248248768749335,61.740928895049791,77.8173],[73.2294094646129,61.729448694091673,74.9555],[73.227937643977242,61.70501647153975,74.5],[73.243538942715219,61.691475721691688,74.5],[73.2694429859028,61.691475721691688,74.5],[73.296818849726066,61.695596819471518,74.5],[73.31712997449813,61.694124998835861,74.5],[73.328904539583419,61.68912080867463,74.5],[73.341562197050081,61.685588439149058,74.5],[73.367760604364776,61.683233526132,74.5],[73.378357712941522,61.686765895657572,77.557],[73.393664647552384,61.701484102014149,74.5],[73.40249557136633,61.70501647153975,74.5],[73.4245728809012,61.697951732488576,74.5],[73.416036321214392,61.667632227394023,74.5],[73.440174179639172,61.663511129614164,76.5727],[73.45930784790275,61.667926591521137,78.1569],[73.515825760312026,61.690886993437431,75.5],[73.504051195226737,61.70413337915835,75.7789],[73.494925907285676,61.717968493133526,78.7797],[73.507877928879452,61.7223839550405,76.0],[73.5184750374562,61.730331786473073,78.7676],[73.536431249211233,61.752114731880795,77.2869],[73.522596135236057,61.767421666491657,77.2005],[73.4990470050655,61.764772389347456,77.8102]]]}}