{"type":"Feature","properties":{"featurecla":"Lake","scalerank":9,"name":"null511","name_abb":null,"name_alt":null,"note":"_untitled_233","delta":null,"dam_name":null,"year":-99,"admin":null,"min_zoom":7.0,"min_label":8.0},
"geometry":{"type": "Polygon","coordinates": [[[69.561043712298044,60.611159375118461,28.0857],[69.5410269516531,60.574069495099877,23.4118],[69.52218764751666,60.56082310937893,21.9319],[69.4797992132097,60.552580913819241,23.8214],[69.4474191592252,60.533447245555692,22.6754],[69.410918007460879,60.519612131580516,24.701],[69.3944336163415,60.509015023003769,24.2207],[69.3755943122051,60.499889735062681,25.2737],[69.302003280422156,60.492236267757249,23.8062],[69.1471677495509,60.45308583884875,25.8701],[69.020002446630031,60.436895811856516,26.0377],[69.004989876146311,60.430714165186743,27.975],[68.999691321857938,60.415995958830166,25.7596],[69.002634963129253,60.3998059318379,35.2309],[69.012937707578857,60.3886200950069,27.5876],[69.023829180282746,60.386559546116985,23.6546],[69.0261840932998,60.391858100405358,24.7164],[69.027067185681176,60.400689024219304,23.5489],[69.0338375606052,60.40951994803325,27.1334],[69.046200853944754,60.417173415338681,27.2038],[69.055620506012957,60.421294513118539,24.9573],[69.066511978716846,60.423060697881311,34.2593],[69.12273552699898,60.421000148991396,39.5781],[69.1368650051013,60.423355062008454,40.7825],[69.171305607975711,60.436895811856516,27.8759],[69.187201270840831,60.439545089000688,29.421],[69.2325333464191,60.436895811856516,30.5146],[69.2437191832501,60.439545089000688,30.3788],[69.267562677547772,60.44808164868752,28.5654],[69.377360496967867,60.457501300755723,35.6434],[69.417982746512052,60.466037860442555,36.1507],[69.497755424964737,60.503422104588253,39.0671],[69.5410269516531,60.511958664275085,30.0588],[69.5616324405523,60.519612131580516,31.0901],[69.564576081823617,60.536096522699893,23.1906],[69.565459174205017,60.552580913819241,22.5868],[69.595484315172456,60.567593484302961,24.3676],[69.600194141206543,60.585844060185138,21.6952],[69.600194141206543,60.6061551849572,21.8608],[69.6025490542236,60.621462119568065,23.5069],[69.574290098018963,60.620579027186665,31.4664],[69.561043712298044,60.611159375118461,28.0857]]]}}