{"type":"Feature","properties":{"featurecla":"Lake","scalerank":9,"name":"Ozero Samotlor","name_abb":"O. Samotlor","name_alt":"Lake Samotlor","note":null,"delta":null,"dam_name":null,"year":-99,"admin":null,"min_zoom":7.0,"min_label":8.0},
"geometry":{"type": "Polygon","coordinates": [[[76.757069164158821,61.15249500491359,55.675],[76.7196849200131,61.169568124287224,55.3665],[76.684066860630168,61.1748666785756,55.7266],[76.647860072992984,61.149551363642274,54.6385],[76.665521920620876,61.121881135691893,54.3361],[76.692309056189856,61.108634749970975,52.0],[76.7241003819201,61.100392554411286,53.7065],[76.756480435904564,61.088029261071767,52.5],[76.7950421365588,61.094210907741513,54.1158],[76.829188375306074,61.113050211877948,52.0],[76.837136206738649,61.13336133665004,54.1799],[76.797985777830121,61.142780988718243,55.9995],[76.757069164158821,61.15249500491359,55.675]]]}}