{"type":"Feature","properties":{"GID_3":"RUS.56.6.1_1","GID_0":"RUS","country":"Russia","GID_1":"RUS.56_1","province":"Primor'ye","NL_NAME_1":"Приморскийкрай","GID_2":"RUS.56.6_1","county":"Chuguevskiyrayon","NL_NAME_2":"Чугуевскийрайон","city":"NA","VARNAME_3":"NA","NL_NAME_3":"NA","TYPE_3":"NA","ENGTYPE_3":"NA","CC_3":"NA","HASC_3":"NA","name":"N_A.city"},
"geometry":{"type": "MultiPolygon","coordinates": [[[[133.4797,43.8836,699.0398],[133.6059,43.8721,576.8079],[133.6421,43.8405,578.1704],[133.5793,43.8106,679.9764],[133.5339,43.7185,823.6538],[133.5952,43.7087,965.9808],[133.7491,43.6153,913.8112],[133.8835,43.5752,1136.6755],[133.9153,43.5802,935.4095],[133.939,43.6238,614.3271],[133.9744,43.6284,535.058],[134.0257,43.5795,870.2592],[134.0613,43.5402,1379.9174],[134.1658,43.5149,1047.4529],[134.2103,43.5519,641.5863],[134.3101,43.539,713.8542],[134.3628,43.6024,654.7719],[134.3732,43.6408,857.6226],[134.4352,43.7196,1133.1605],[134.4958,43.7476,886.824],[134.5429,43.7856,968.4962],[134.5696,43.8663,789.8147],[134.5135,43.9027,451.8512],[134.4769,43.9479,844.1705],[134.4768,43.9683,958.3651],[134.5056,44.0039,942.3591],[134.4393,44.0309,892.0221],[134.48,44.0865,518.2173],[134.5084,44.144,545.6754],[134.5143,44.1928,437.3671],[134.528,44.2553,1019.6611],[134.5792,44.3128,733.8356],[134.6448,44.3144,629.8566],[134.7274,44.2949,584.0344],[134.8025,44.2881,437.9307],[134.8554,44.3023,428.9941],[134.9047,44.3435,648.9279],[134.9285,44.3848,527.0035],[134.9093,44.4173,650.0518],[134.8611,44.4609,581.4373],[134.8102,44.5214,996.2887],[134.7913,44.5728,894.6298],[134.8382,44.6478,430.7267],[134.9116,44.7278,584.0596],[134.9697,44.726,747.6604],[135.0154,44.775,715.3899],[135.083,44.7872,653.0701],[135.1124,44.8385,1036.308],[135.177,44.8561,988.6876],[135.1801,44.8887,1043.5769],[135.0746,44.9028,746.0297],[135.0365,44.8572,624.1749],[135.0056,44.853,630.5166],[134.9671,44.8594,613.5026],[134.9605,44.8917,406.1315],[135.0119,44.9528,594.4644],[135.0139,45.011,548.9621],[135.0646,45.0565,624.2233],[135.0637,45.0842,729.3242],[135.0284,45.1008,892.9116],[134.9935,45.0772,878.2042],[134.9536,45.0546,742.0129],[134.9315,45.0595,558.7853],[134.8911,45.079,664.0938],[134.8375,45.0441,652.229],[134.8282,45.0069,547.8062],[134.8144,44.9799,550.7275],[134.7674,44.9685,432.93],[134.6925,44.9748,550.5694],[134.6757,45.0184,595.3832],[134.646,45.0588,606.2383],[134.5811,45.086,293.5699],[134.4688,45.0724,275.0925],[134.3936,45.0658,480.4702],[134.3343,45.0266,434.8109],[134.2805,45.0827,565.6834],[134.2397,45.0738,635.9658],[134.1898,45.0464,453.5347],[134.1114,44.9864,598.626],[134.1523,44.9261,264.8846],[134.1717,44.869,286.8412],[134.1806,44.8065,246.0341],[134.1604,44.7462,316.4188],[134.1183,44.684,196.47],[134.0932,44.6646,212.396],[134.0419,44.6746,259.8736],[134.0029,44.648,140.8976],[133.9998,44.606,201.1875],[133.9358,44.5672,349.7539],[133.8885,44.5271,376.1855],[133.8539,44.4776,330.1453],[133.8474,44.4083,611.1055],[133.8259,44.3377,375.9783],[133.7186,44.2475,344.6759],[133.6156,44.1734,436.0901],[133.5587,44.085,361.6637],[133.5229,44.0241,353.3517],[133.5073,44.005,397.9594],[133.5163,43.9823,338.8072],[133.4878,43.9121,484.8862],[133.4797,43.8836,699.0398]]]]}}