{"type":"Feature","properties":{"GID_3":"RUS.83.8.1_1","GID_0":"RUS","country":"Russia","GID_1":"RUS.83_1","province":"Zabaykal'ye","NL_NAME_1":"Забайкальскийкрай","GID_2":"RUS.83.8_1","county":"Chernyshevskiyrayon","NL_NAME_2":"Чернышевскийрайон","city":"NA","VARNAME_3":"NA","NL_NAME_3":"NA","TYPE_3":"NA","ENGTYPE_3":"NA","CC_3":"NA","HASC_3":"NA","name":"N_A.city"},
"geometry":{"type": "MultiPolygon","coordinates": [[[[117.9749,53.7102,1057.7307],[117.9585,53.6788,1019.7568],[117.9125,53.6037,1096.3022],[117.8438,53.5341,932.4713],[117.7726,53.4933,915.1404],[117.6317,53.4549,901.0839],[117.5417,53.4178,958.2324],[117.4548,53.3944,877.4891],[117.3827,53.397,922.0066],[117.3181,53.4277,915.1375],[117.2742,53.4514,921.498],[117.233,53.4841,904.3335],[117.1953,53.5106,1023.9852],[117.0886,53.5154,802.1273],[117.0048,53.4987,1097.9995],[116.961,53.4459,990.4843],[116.9966,53.384,825.9721],[117.05029999999999,53.3438,849.4236],[117.0969,53.3047,896.9044],[117.0442,53.2485,1070.5806],[116.8771,53.1991,1001.7908],[116.8345,53.1848,1136.0878],[116.784,53.1414,973.304],[116.7285,53.1185,1070.6626],[116.6474,53.0985,965.4773],[116.5906,53.1239,924.918],[116.5611,53.1443,1102.606],[116.5465,53.1662,1239.0664],[116.4646,53.1472,1133.6819],[116.4351,53.1185,906.5416],[116.4193,53.0464,1007.7604],[116.3768,53.0733,1120.6284],[116.3264,53.0571,1027.4006],[116.2501,53.007,1053.6041],[116.1891,53.0102,1123.7867],[116.1374,52.9875,962.214],[116.1422,52.9388,872.8592],[116.1521,52.8977,965.8082],[116.1291,52.8841,861.0814],[116.1558,52.8463,979.8699],[116.1711,52.8186,893.2962],[116.2804,52.8442,1038.0127],[116.319,52.8235,920.963],[116.3437,52.7934,848.2301],[116.3986,52.7702,869.7896],[116.4006,52.7529,910.3993],[116.3603,52.7126,726.3087],[116.3602,52.6512,773.153],[116.3938,52.548,714.2386],[116.4091,52.506,682.2827],[116.3886,52.4495,646.279],[116.3761,52.3927,700.2228],[116.4077,52.3652,726.7364],[116.4639,52.3322,718.0322],[116.4771,52.2668,652.7063],[116.4816,52.2073,665.0128],[116.4985,52.1744,648.1023],[116.5635,52.156,639.7919],[116.6206,52.1711,620.8749],[116.67,52.1939,622.6565],[116.6979,52.1498,710.5726],[116.7468,52.1167,665.7962],[116.805,52.1011,669.5561],[116.8791,52.1115,649.6714],[116.9483,52.1616,574.9912],[117.0374,52.2218,712.4605],[117.1372,52.2736,622.6295],[117.1827,52.2892,688.9875],[117.2889,52.3058,638.1749],[117.3228,52.345,604.6437],[117.2797,52.3774,783.7314],[117.2753,52.4209,726.0553],[117.447,52.6129,946.7209],[117.5108,52.6644,844.9812],[117.5518,52.6617,911.712],[117.5929,52.6618,914.4747],[117.6402,52.6912,923.1764],[117.6751,52.7483,827.3198],[117.7242,52.7565,801.5991],[117.7672,52.7402,819.5861],[117.8001,52.7633,814.6724],[117.8175,52.788,686.1713],[117.8499,52.7866,795.0879],[117.8924,52.7731,801.6176],[117.9522,52.7909,735.9997],[118.0143,52.778,651.9065],[118.0518,52.751,780.4713],[118.1264,52.7587,883.7637],[118.1598,52.7798,943.3385],[118.1902,52.8052,753.9928],[118.2738,52.7943,825.6339],[118.3026,52.8294,688.0107],[118.3397,52.8851,690.6205],[118.3907,52.9098,686.4606],[118.4007,52.969,752.4034],[118.438,53.0179,730.2892],[118.368,53.0267,743.8827],[118.3446,53.0762,804.52],[118.3243,53.1108,735.0043],[118.2573,53.1304,820.5769],[118.2413,53.1567,785.482],[118.2458,53.2006,568.7698],[118.2188,53.2211,565.3215],[118.1563,53.2455,623.3747],[118.1694,53.3079,710.2833],[118.081,53.3885,962.4821],[118.0777,53.443,1304.1036],[118.1019,53.5092,1385.9896],[118.1925,53.543,1311.5931],[118.196,53.5709,1422.0874],[118.1851,53.6295,959.369],[118.1282,53.6698,894.3548],[118.1235,53.698,779.1235],[118.0921,53.7238,778.9777],[118.0086,53.6936,1091.5464],[117.9749,53.7102,1057.7307]]]]}}