{"type":"Feature","properties":{"GID_3":"RUS.9.25.1_1","GID_0":"RUS","country":"Russia","GID_1":"RUS.9_1","province":"Buryat","NL_NAME_1":"РеспубликаБурятия","GID_2":"RUS.9.25_1","county":"Zakamenskiyrayon","NL_NAME_2":"Закаменскийрайон","city":"NA","VARNAME_3":"NA","NL_NAME_3":"NA","TYPE_3":"NA","ENGTYPE_3":"NA","CC_3":"NA","HASC_3":"NA","name":"N_A.city"},
"geometry":{"type": "MultiPolygon","coordinates": [[[[104.3509,50.2751,1480.8345],[104.3597,50.2881,1632.9929],[104.3677,50.2939,1534.5494],[104.3761,50.2975,1603.7817],[104.4053,50.305,1385.6084],[104.408,50.3182,1502.5883],[104.4067,50.3644,1383.0459],[104.3891,50.4247,930.4432],[104.3507,50.4736,877.6419],[104.301,50.567,1042.3074],[104.2369,50.5959,1369.2452],[104.1623,50.6185,1710.4874],[104.0821,50.6317,1382.1643],[104.0316,50.6216,1397.7441],[103.9956,50.6557,1370.541],[104.0659,50.6812,1505.968],[104.1099,50.6993,1657.426],[104.2419,50.6961,1614.7102],[104.3284,50.6967,1560.8352],[104.4208,50.7239,1152.329],[104.474,50.7796,1512.3807],[104.4997,50.8337,1629.1018],[104.4882,50.8915,1526.0748],[104.4706,50.9466,1336.043],[104.4599,51.0376,1556.859],[104.426,51.0924,1345.4844],[104.4392,51.163,1253.3047],[104.463,51.2312,1509.8069],[104.5486,51.285,1216.074],[104.4885,51.3096,1359.7098],[104.4448,51.2946,1497.9921],[104.3997,51.273,1252.5231],[104.2817,51.2633,1553.9429],[104.2041,51.2592,1686.0742],[104.1403,51.2109,1688.4453],[104.0894,51.197,1661.2983],[103.9911,51.1908,2059.3516],[103.9568,51.1705,1925.0621],[103.9111,51.1383,1824.2693],[103.8323,51.1188,1841.2693],[103.8078,51.1208,1922.0348],[103.7682,51.1025,1649.3225],[103.7187,51.0884,1399.8762],[103.6644,51.0963,1856.0432],[103.6432,51.1445,1699.1868],[103.6318,51.1876,1876.6412],[103.5707,51.2042,1937.0204],[103.5458,51.2147,1853.6904],[103.5391,51.2358,1839.969],[103.487,51.251,1936.7363],[103.4181,51.2328,2164.1895],[103.3096,51.2539,1527.7115],[103.2714,51.2505,2121.8103],[103.2504,51.2125,2104.9395],[103.2663,51.1636,2156.4434],[103.2684,51.0944,2195.636],[103.2544,51.057,2117.802],[103.2199,51.0288,1969.9417],[103.1905,51.0195,1793.5845],[103.1605,51.0433,1940.3525],[103.155,51.0729,1977.876],[103.1533,51.108,2102.9656],[103.1261,51.1393,2084.9412],[103.0947,51.148,2154.834],[103.0339,51.133,2190.2261],[102.9818,51.1339,2213.0923],[102.938,51.1448,2190.4158],[102.8155,51.1233,1742.6238],[102.777,51.0762,1974.9818],[102.7419,51.0574,2037.5131],[102.6877,51.0668,2104.7493],[102.6347,51.0533,1725.4717],[102.5864,51.0652,2101.8367],[102.5779,51.091,2001.0304],[102.5964,51.1188,1647.5696],[102.568,51.1301,1611.8724],[102.5205,51.1126,2128.6707],[102.4673,51.1217,1943.3076],[102.4367,51.1358,2055.2786],[102.3774,51.1224,2292.3198],[102.2961,51.1209,1791.6714],[102.2611,51.1389,1998.9958],[102.1892,51.1418,1991.4692],[102.1737,51.1409,1921.7023],[102.1858,51.1076,2081.3652],[102.1942,51.0718,2132.9734],[102.2017,51.0593,1954.3733],[102.2499,51.0013,2063.8896],[102.2637,50.9803,1772.3459],[102.2669,50.9655,1808.4131],[102.2601,50.9343,1817.9133],[102.2555,50.9251,1763.116],[102.2421,50.9101,1800.1814],[102.2282,50.884,1798.4963],[102.2219,50.8651,1769.7753],[102.2246,50.8413,1745.7512],[102.2309,50.8289,1765.1544],[102.2407,50.8185,1669.9169],[102.2548,50.8076,1748.1294],[102.2714,50.797,1775.353],[102.3355,50.7665,1647.6538],[102.3479,50.7579,1716.6825],[102.355,50.7502,1751.2313],[102.3582,50.7397,1917.9246],[102.354,50.7267,1913.3027],[102.3416,50.7105,1963.1284],[102.3113,50.6795,1962.7808],[102.2933,50.6503,1887.6382],[102.2889,50.6319,1959.6915],[102.2942,50.6104,1733.9048],[102.3017,50.5998,1776.8778],[102.3206,50.5841,1755.2888],[102.3357,50.5765,1763.7517],[102.4038,50.551,1675.1758],[102.449,50.5429,1788.9161],[102.5052,50.5409,1736.1958],[102.5303,50.5329,1761.6874],[102.5451,50.5207,1734.4325],[102.5535,50.5023,1730.6359],[102.5679,50.4829,1770.8171],[102.5837,50.4696,1758.3936],[102.6109,50.4556,1603.7673],[102.6421,50.4294,1595.6331],[102.6603,50.4213,1482.6726],[102.7055,50.4064,1572.7371],[102.8246,50.3786,1569.6382],[102.8507,50.3651,1573.8284],[102.8611,50.3557,1410.9836],[102.8813,50.3317,1688.2524],[102.8907,50.3245,1658.4833],[102.9157,50.3143,1735.3984],[102.9407,50.3074,1861.7568],[102.9807,50.3043,1898.5552],[103.0983,50.3089,1668.3765],[103.1583,50.3143,1638.2625],[103.2046,50.3127,1556.0374],[103.2258,50.3075,1555.4152],[103.2367,50.3031,1494.2881],[103.2452,50.2962,1494.8481],[103.2491,50.2905,1545.5383],[103.2587,50.255,1524.2667],[103.2675,50.2387,1769.0845],[103.2743,50.2305,1794.4133],[103.2872,50.2192,1709.5009],[103.3132,50.2041,1711.0117],[103.3205,50.2021,1545.6295],[103.3379,50.2015,1543.3262],[103.3495,50.2031,1593.0793],[103.3967,50.2153,1625.0554],[103.4393,50.2157,1711.2731],[103.4751,50.2053,1704.0762],[103.5872,50.1603,1523.6807],[103.6504,50.1422,1563.4215],[103.67,50.1386,1619.8306],[103.6905,50.1372,1676.8022],[103.6997,50.1389,1575.999],[103.7079,50.1423,1452.5839],[103.7201,50.1504,1297.2678],[103.7577,50.1941,1280.4532],[103.772,50.2034,1642.7114],[103.7919,50.2075,1419.7124],[103.8035,50.2085,1309.9504],[103.8389,50.2065,1534.4611],[103.8548,50.2029,1489.5236],[103.9117,50.1839,1476.5106],[103.9544,50.1784,1457.7321],[104.0187,50.1559,1417.8359],[104.0313,50.1541,1502.6274],[104.0611,50.1545,1889.8842],[104.1287,50.1685,1328.7571],[104.1649,50.179,1325.5121],[104.1899,50.1837,1334.2961],[104.2285,50.1867,1514.0253],[104.2449,50.1949,1488.0917],[104.251,50.2019,1447.3245],[104.2678,50.2369,1279.3511],[104.2847,50.2529,1487.9934],[104.2992,50.2566,1363.5187],[104.3317,50.2562,1257.2759],[104.3408,50.2591,1406.0981],[104.3454,50.2639,1363.3745],[104.3509,50.2751,1480.8345]]]]}}