{"type":"Feature","properties":{"GID_2":"RUS.60.24_1","GID_0":"RUS","country":"Russia","GID_1":"RUS.60_1","province":"Sakha","NL_NAME_1":"РеспубликаСаха","county":"Oymyakonskiyrayon","VARNAME_2":"NA","NL_NAME_2":"Оймяконскийрайон","TYPE_2":"Raion","ENGTYPE_2":"District","CC_2":"R65002","HASC_2":"RU.SK.OY","name":"Oymyakonskiyrayon.county"},
"geometry":{"type": "MultiPolygon","coordinates": [[[[144.7892,62.0412,1528.5566],[144.7816,62.0615,1718.3613],[144.7769,62.1019,1367.1425],[144.8501,62.1133,1360.196],[144.9214,62.1595,1363.1702],[144.9762,62.1478,1506.634],[145.0381,62.1745,1330.5309],[145.0614,62.2198,1415.7423],[145.1123,62.2174,1276.3115],[145.1544,62.2262,1581.9628],[145.1957,62.281,1512.4028],[145.1932,62.3232,1385.455],[145.1708,62.3587,1558.2178],[145.1906,62.3858,1639.9913],[145.2501,62.433,1467.0354],[145.1889,62.4803,1623.2407],[145.2998,62.5296,1344.6461],[145.3376,62.5114,1419.8077],[145.4495,62.5271,1786.8639],[145.4856,62.5531,1811.9468],[145.4144,62.5926,1780.416],[145.4603,62.6437,1906.3097],[145.4228,62.6527,1901.8295],[145.4788,62.6991,1888.6337],[145.468,62.7133,1796.0642],[145.3922,62.7257,1790.197],[145.3807,62.7665,1839.9929],[145.4667,62.8285,1339.4225],[145.4492,62.9508,1311.243],[145.3679,62.9856,1608.2211],[145.2546,63.0224,1393.1718],[145.3225,63.0591,1656.7911],[145.3214,63.1042,1511.9382],[145.2307,63.1603,1425.7235],[145.271,63.2184,1129.6539],[145.3399,63.2641,1046.8337],[145.4006,63.2943,1008.4819],[145.3877,63.3391,982.4539],[145.4389,63.382,955.5771],[145.4733,63.4251,975.9431],[145.4528,63.4772,974.2515],[145.5069,63.5261,957.9016],[145.6029,63.5684,956.8993],[145.6155,63.6274,844.7607],[145.6727,63.6731,829.3661],[145.6425,63.7034,826.376],[145.6264,63.7934,794.6303],[145.654,63.8357,805.3399],[145.767,63.8481,834.077],[145.8615,63.8623,855.3936],[146.1374,63.925,912.3612],[146.2581,63.9986,1045.4645],[146.3013,64.0859,1222.42],[146.3567,64.1539,1039.9187],[146.2798,64.1835,1410.1312],[146.1961,64.2026,1362.7961],[146.124,64.2292,1257.3157],[146.083,64.2657,1264.869],[146.0412,64.2955,1025.6572],[145.9208,64.3492,1266.6124],[145.7608,64.3988,1326.7031],[145.5859,64.4358,1217.9863],[145.4585,64.4504,1448.3038],[145.3261,64.4781,1053.1997],[145.2345,64.5172,1106.9845],[145.1029,64.5512,1124.2407],[144.9631,64.5531,1311.7839],[144.8374,64.5834,992.7658],[144.761,64.5904,1056.4369],[144.6359,64.5791,758.6464],[144.5532,64.5926,659.733],[144.63,64.6659,851.6258],[144.6598,64.7157,751.6414],[144.6603,64.7581,854.2987],[144.6058,64.8012,976.015],[144.3573,64.9028,1057.3019],[144.1734,64.9359,1394.646],[144.174,64.9769,1246.9187],[144.1416,65.009,1417.4818],[143.9067,65.052,1850.849],[143.7342,65.0691,1530.3638],[143.6049,65.0893,1724.4187],[143.4698,65.1476,1407.1129],[143.3716,65.1839,1314.3607],[143.2286,65.2044,688.226],[143.0823,65.2133,569.9585],[142.9788,65.2113,1143.0723],[142.8261,65.2851,1366.733],[142.7132,65.2991,1214.4181],[142.5999,65.2895,1607.7073],[142.3921,65.3161,1021.4951],[142.0323,65.3999,1300.3997],[141.8808,65.4212,1157.5575],[141.8042,65.409,1254.0385],[141.7126,65.4124,1128.3945],[141.6357,65.4428,2246.447],[141.5459,65.4712,2156.1492],[141.3919,65.4891,1627.3616],[141.0012,65.5247,1628.322],[140.9734,65.5614,1902.4131],[140.9367,65.5941,1964.8127],[140.8345,65.623,1344.2273],[140.647,65.5873,1368.3916],[140.4988,65.5682,1798.6912],[140.3287,65.5606,2054.6555],[140.2131,65.53,1562.8938],[140.0574,65.5061,1620.6417],[139.9261,65.4534,1332.8904],[139.7799,65.3588,1071.551],[139.6593,65.2573,1014.0953],[139.5478,65.099,1271.8838],[139.4413,64.9853,1162.9436],[139.4023,64.9176,1046.3088],[139.4532,64.8686,809.3108],[139.6168,64.8493,795.0274],[139.9915,64.7615,860.3021],[140.0375,64.7101,797.4114],[140.0917,64.6639,805.5239],[140.2471,64.6216,780.8098],[140.3336,64.5912,798.6775],[140.4033,64.5424,778.619],[140.4019,64.4889,849.0891],[140.2924,64.4315,938.1248],[140.2632,64.3696,1198.2378],[140.2966,64.317,1239.7036],[140.259,64.2796,1262.0281],[140.2197,64.2306,1081.6332],[140.2695,64.1952,1188.9304],[140.4753,64.1612,946.4326],[140.5981,64.1294,1035.3921],[140.6755,64.0921,830.6837],[140.6825,64.0359,1078.0393],[140.6141,63.9625,1252.2861],[140.5338,63.9017,1180.4653],[140.4919,63.8549,974.6273],[140.4791,63.7953,1318.4584],[140.5426,63.7372,1196.0652],[140.6187,63.6951,1388.5237],[140.6493,63.659,1560.7523],[140.6423,63.5871,1230.1256],[140.573,63.5337,1118.412],[140.4962,63.5141,1105.7511],[140.413,63.505,1169.7527],[140.278,63.4776,1169.6869],[140.1413,63.4376,1503.6514],[140.0089,63.3381,1182.7438],[139.9352,63.3348,1279.8812],[139.8637,63.3212,1571.7163],[139.7946,63.2992,1695.3665],[139.7307,63.224,1586.4353],[139.7248,63.1514,2030.9135],[139.7001,63.0724,1732.054],[139.6477,63.0113,1856.2087],[139.6671,62.9765,1899.8702],[139.7382,62.9233,1630.1331],[139.7354,62.8713,1805.9852],[139.7017,62.8144,1680.3621],[139.7155,62.7587,1664.9429],[139.7698,62.7167,1734.7858],[139.8566,62.6682,1672.4539],[139.956,62.6399,1430.1184],[140.0346,62.6314,1503.9335],[140.0662,62.6479,1399.1788],[140.1711,62.6835,1397.4009],[140.2136,62.6695,1914.0045],[140.2558,62.6242,1462.147],[140.2707,62.5718,1697.834],[140.3566,62.5761,2027.8679],[140.4412,62.5568,1883.9122],[140.4928,62.5083,1942.5212],[140.5222,62.4021,2084.9792],[140.6378,62.3926,1878.5219],[140.7243,62.4051,1697.645],[140.7794,62.4438,1863.5498],[140.8229,62.4926,2239.6907],[140.9641,62.4935,1919.8745],[140.9954,62.4608,2469.0085],[141.0242,62.443,2193.9524],[141.1112,62.4542,1807.6198],[141.1501,62.4464,1899.3718],[141.1469,62.4232,1968.9265],[141.1443,62.3812,1671.5708],[141.2027,62.3738,1820.7737],[141.2587,62.3771,2451.156],[141.3515,62.3983,2693.7527],[141.3752,62.3424,2503.2644],[141.4785,62.2698,1992.7419],[141.5973,62.2351,1757.6794],[141.5927,62.1681,1833.3865],[141.6588,62.1225,1332.193],[141.7507,62.1005,1769.0621],[141.7703,62.0676,1698.502],[141.8915,62.0525,1659.2135],[141.9639,61.9845,1486.0222],[142.0377,62.0058,1326.9519],[142.1042,62.0073,1395.2819],[142.1634,62.0456,1647.6049],[142.264,62.0469,1783.4714],[142.2757,62.0041,1639.7083],[142.2976,61.9557,1603.0735],[142.3274,61.9235,1568.1919],[142.4,61.9128,1861.5214],[142.452,61.8898,1758.9376],[142.4818,61.8721,1569.4636],[142.5885,61.8787,1392.3602],[142.7167,61.9475,1715.6929],[142.9666,61.9135,2227.9956],[143.0032,61.8641,1666.3646],[143.0916,61.8788,1489.0778],[143.1024,61.9335,2190.4194],[143.1476,61.9608,2086.582],[143.2129,61.9958,1462.8138],[143.2176,62.0313,1625.3768],[143.2063,62.0767,1932.6852],[143.2612,62.1007,2135.9651],[143.3351,62.1025,1715.9506],[143.3401,62.0501,1514.979],[143.4347,62.0188,1772.3529],[143.4288,61.9938,1530.9008],[143.4817,61.9982,1435.3082],[143.5489,62.028,1558.5457],[143.6403,62.019,1802.7687],[143.6857,61.9682,1685.1337],[143.6489,61.9438,1594.2822],[143.6896,61.9138,1527.4309],[143.7694,61.842,1145.8107],[143.8495,61.9191,1302.1978],[143.9325,61.9296,1469.8601],[144.0031,61.957,1351.8182],[144.0598,61.945,1359.2159],[144.0231,61.9148,1516.5284],[144.0161,61.8833,1387.0355],[144.049,61.8366,1332.6438],[143.9871,61.7893,1599.1609],[144.0053,61.7478,1800.8556],[144.1135,61.7196,1622.1514],[144.1786,61.7419,1771.0065],[144.2458,61.7395,1798.5863],[144.3298,61.7448,1552.1908],[144.3985,61.7702,1218.7456],[144.4365,61.8135,1452.8612],[144.5272,61.822,1482.5345],[144.5953,61.8396,1318.2192],[144.6071,61.8695,1388.6615],[144.6423,61.9299,1371.8735],[144.6693,61.9851,1646.1333],[144.7453,62.0103,1522.5801],[144.7892,62.0412,1528.5566]]]]}}