{"type":"Feature","properties":{"GID_3":"RUS.2.2.1_1","GID_0":"RUS","country":"Russia","GID_1":"RUS.2_1","province":"Altay","NL_NAME_1":"Алтайскийкрай","GID_2":"RUS.2.2_1","county":"Aleyskiyrayon","NL_NAME_2":"Алейскийрайон","city":"NA","VARNAME_3":"NA","NL_NAME_3":"NA","TYPE_3":"NA","ENGTYPE_3":"NA","CC_3":"NA","HASC_3":"NA","name":"N_A.city"},
"geometry":{"type": "MultiPolygon","coordinates": [[[[82.0347,52.6243,231.1123],[82.0826,52.5847,230.545],[82.0987,52.56,244.3593],[82.0813,52.5035,273.236],[82.1045,52.4669,278.8277],[82.1286,52.438,272.583],[82.1696,52.4297,230.7291],[82.2243,52.4388,255.0593],[82.2603,52.4043,238.7961],[82.3137,52.3586,221.3596],[82.3798,52.3149,212.6154],[82.4394,52.272,166.6931],[82.5219,52.2188,232.0104],[82.5477,52.1958,265.1252],[82.6254,52.2009,232.0805],[82.7306,52.2273,235.1072],[82.8046,52.227,220.6294],[82.8167,52.2065,192.7935],[82.8537,52.1748,167.6662],[82.9219,52.1388,177.4955],[82.9815,52.1286,202.5224],[83.1121,52.139,221.7722],[83.1484,52.1616,219.0408],[83.177,52.1914,226.3629],[83.2661,52.2991,229.8155],[83.2867,52.3482,211.993],[83.2376,52.3799,198.0386],[83.18,52.413,233.5236],[83.1206,52.4647,200.1657],[83.0574,52.4998,224.9456],[82.9712,52.5303,154.8485],[82.9003,52.5575,187.9873],[82.9179,52.5809,192.2449],[82.9187,52.6288,217.7082],[82.8948,52.701,206.5439],[82.8435,52.736,233.8157],[82.7759,52.7759,217.4674],[82.7384,52.7794,233.0152],[82.73,52.749,230.3028],[82.6179,52.7133,226.6852],[82.6004,52.7246,238.9005],[82.5763,52.7226,229.4473],[82.5044,52.6951,248.0366],[82.4658,52.7254,244.593],[82.4103,52.7409,237.6951],[82.3614,52.7179,231.8083],[82.3077,52.7467,234.9149],[82.1988,52.6913,219.524],[82.1018,52.6546,233.8083],[82.0347,52.6243,231.1123]],
[[82.8136,52.536,209.8678],[82.8121,52.5318,205.5617],[82.8097,52.5345,207.9699],[82.8121,52.537,210.0242],[82.8136,52.536,209.8678]]]]}}