{"type":"Feature","properties":{"GID_3":"RUS.2.47.1_1","GID_0":"RUS","country":"Russia","GID_1":"RUS.2_1","province":"Altay","NL_NAME_1":"Алтайскийкрай","GID_2":"RUS.2.47_1","county":"Soloneshenskiyrayon","NL_NAME_2":"Солонешенскийрайон","city":"NA","VARNAME_3":"NA","NL_NAME_3":"NA","TYPE_3":"NA","ENGTYPE_3":"NA","CC_3":"NA","HASC_3":"NA","name":"N_A.city"},
"geometry":{"type": "MultiPolygon","coordinates": [[[[84.7675,51.7116,731.6099],[84.7427,51.7586,561.7385],[84.7522,51.7805,592.9891],[84.797,51.8402,505.9188],[84.7032,51.9221,943.4969],[84.6113,51.8735,638.2414],[84.550299999999993,51.8581,584.0441],[84.4723,51.9076,492.1886],[84.4218,51.9452,458.0694],[84.3857,51.9213,585.892],[84.3641,51.9405,528.764],[84.354,51.954,400.7349],[84.314,51.9809,347.1193],[84.2833,51.9774,459.7736],[84.2407,51.9655,466.7552],[84.213,51.9474,392.5316],[84.1767,51.9205,587.73],[84.1446,51.9092,590.8297],[84.0982,51.907,501.8128],[84.0348,51.9162,401.9865],[83.9861,51.9192,320.679],[83.9399,51.902,433.0519],[83.8933,51.8781,549.1019],[83.8699,51.8577,473.4676],[83.8707,51.8269,623.7001],[83.9194,51.7254,675.0688],[83.959,51.6601,473.4457],[84.0066,51.5866,780.041],[84.0345,51.5777,693.4399],[84.0738,51.5817,496.6353],[84.1226,51.5956,773.1238],[84.1524,51.586,666.8439],[84.1772,51.555,925.4481],[84.0822,51.5323,1090.5149],[84.0855,51.5206,1058.0841],[84.1388,51.4761,951.6542],[84.1864,51.4232,1008.7026],[84.2261,51.4038,1063.9578],[84.3037,51.3985,956.5321],[84.4408,51.3691,1169.3528],[84.4676,51.3515,1541.1274],[84.4986,51.3232,1175.1849],[84.5811,51.3503,1291.3376],[84.675299999999993,51.3894,850.6604],[84.7371,51.4311,1165.6724],[84.8276,51.4311,1286.0205],[84.8169,51.481,1111.0222],[84.7947,51.5218,1131.6492],[84.7921,51.5664,987.3848],[84.7422,51.6079,892.3708],[84.7627,51.6249,800.1997],[84.7715,51.6598,772.9755],[84.7675,51.7116,731.6099]]]]}}