{"type":"Feature","properties":{"GID_2":"RUS.2.50_1","GID_0":"RUS","country":"Russia","GID_1":"RUS.2_1","province":"Altay","NL_NAME_1":"Алтайскийкрай","county":"Suetskiyrayon","VARNAME_2":"NA","NL_NAME_2":"Суетскийрайон","TYPE_2":"Raion","ENGTYPE_2":"District","CC_2":"R53090","HASC_2":"RU.AL.SU","name":"Suetskiyrayon.county"},
"geometry":{"type": "MultiPolygon","coordinates": [[[[79.9936,53.4401,218.5321],[79.9736,53.4232,224.4233],[79.8573,53.4001,220.792],[79.7855,53.3841,206.9083],[79.7748,53.3622,198.558],[79.7869,53.3454,179.1696],[79.7537,53.3146,171.8148],[79.7393,53.2816,152.4276],[79.6069,53.2446,132.1036],[79.5391,53.2101,121.2372],[79.5625,53.1432,100.6144],[79.5901,53.154,101.7441],[79.6104,53.1521,102.49],[79.6414,53.1389,101.9387],[79.6661,53.1226,101.376],[79.7038,53.1239,102.1842],[79.7253,53.1194,98.0],[79.7234,53.0991,99.2408],[79.7093,53.0926,100.5819],[79.714,53.089,99.7019],[79.9963,53.0044,104.2965],[80.3648,53.1263,112.9994],[80.322,53.1395,129.894],[80.2851,53.1707,144.5246],[80.2471,53.1733,146.5106],[80.2281,53.1699,153.1637],[80.183,53.2167,149.0945],[80.1608,53.2563,152.8273],[80.1709,53.2704,153.4722],[80.2076,53.2799,159.0577],[80.1963,53.3015,147.5131],[80.1797,53.3241,151.5141],[80.1296,53.334,152.1792],[80.1001,53.3476,153.1058],[80.0876,53.3804,172.1732],[80.0476,53.4168,208.5635],[80.0178,53.4246,221.2197],[79.9936,53.4401,218.5321]]]]}}