{"type":"Feature","properties":{"GID_3":"RUS.35.34.1_1","GID_0":"RUS","country":"Russia","GID_1":"RUS.35_1","province":"Krasnoyarsk","NL_NAME_1":"Красноярскийкрай","GID_2":"RUS.35.34_1","county":"Kuraginskiyrayon","NL_NAME_2":"Курагинскийрайон","city":"NA","VARNAME_3":"NA","NL_NAME_3":"NA","TYPE_3":"NA","ENGTYPE_3":"NA","CC_3":"NA","HASC_3":"NA","name":"N_A.city"},
"geometry":{"type": "MultiPolygon","coordinates": [[[[95.5929,54.3124,1565.847],[95.5518,54.3289,1287.5562],[95.5115,54.3736,1061.0353],[95.4481,54.3655,1845.4333],[95.3915,54.3331,1894.6786],[95.3147,54.3244,1658.3916],[95.2734,54.3599,1478.608],[95.1326,54.3791,1556.3788],[95.0098,54.3481,1121.6038],[94.9516,54.3299,1548.9594],[94.8757,54.3536,1382.3645],[94.8312,54.4089,1498.7147],[94.7773,54.4554,1467.15],[94.6962,54.4824,1406.3608],[94.6589,54.5079,1473.9683],[94.631,54.5365,1178.8163],[94.5533,54.5518,1259.397],[94.4908,54.5977,1116.1158],[94.3812,54.6003,1272.6536],[94.3244,54.5528,1424.3298],[94.2829,54.5388,1467.3822],[94.2297,54.556,1351.9182],[94.2133,54.6161,1419.6614],[94.1207,54.6321,1061.3779],[94.0319,54.66,1017.7218],[93.9281,54.6406,1067.4668],[93.7874,54.6518,1111.6289],[93.7045,54.6278,979.3201],[93.6506,54.6466,1139.6039],[93.5985,54.6836,1074.8606],[93.5506,54.7282,947.4517],[93.4782,54.743899999999996,1031.4363],[93.4411,54.7909,1027.7771],[93.3652,54.8036,941.0052],[93.3131,54.845,881.511],[93.258,54.8681,881.15],[93.1602,54.883,902.649],[93.0725,54.8765,769.0555],[93.0017,54.9048,804.7961],[92.9352,54.9425,636.564],[92.8545,54.9555,925.429],[92.7996,54.9683,556.7035],[92.759,54.9556,677.1078],[92.8237,54.9279,791.3937],[92.8486,54.8839,693.9591],[92.8265,54.8415,689.2134],[92.7994,54.8187,643.1967],[92.7765,54.7843,755.4382],[92.7771,54.726,936.4367],[92.8197,54.6878,938.5953],[92.864,54.6724,1040.7599],[92.9123,54.692,892.5873],[92.9463,54.7115,792.7413],[93.0066,54.7118,680.321],[93.0544,54.6939,730.1389],[93.0892,54.6286,780.025],[93.1039,54.5594,697.5581],[93.0958,54.4886,963.2757],[93.0238,54.39,614.1694],[92.9192,54.3732,630.2131],[92.8225,54.3613,610.4568],[92.7061,54.3544,503.186],[92.6556,54.3482,423.868],[92.5922,54.3165,426.5365],[92.4432,54.2861,519.4498],[92.3659,54.2596,477.9602],[92.2527,54.2114,456.6364],[92.1987,54.1928,366.4936],[92.0891,54.1794,446.1118],[91.9763,54.1719,492.1868],[92.0138,54.1299,453.7155],[92.0022,54.1117,418.8241],[92.0186,54.0754,345.9207],[92.0279,54.0314,345.0111],[92.0038,53.993,500.272],[91.9457,53.9758,301.4461],[91.9022,53.968,246.362],[91.9327,53.9556,247.2046],[91.9423,53.8877,332.9671],[92.0008,53.8821,328.2873],[92.0626,53.9169,253.4256],[92.1496,53.9114,298.8658],[92.1816,53.879,257.6455],[92.1942,53.8424,275.9726],[92.2576,53.8424,292.8271],[92.3378,53.851,347.0454],[92.3854,53.8315,269.1297],[92.4204,53.7984,300.1112],[92.4535,53.7806,295.8192],[92.5065,53.7862,329.944],[92.536,53.7983,284.4666],[92.5125,53.8515,507.0541],[92.58,53.8553,274.9327],[92.62,53.8435,284.902],[92.6667,53.8247,343.281],[92.7148,53.8244,398.9554],[92.7909,53.8534,381.4666],[92.8735,53.8818,405.5424],[93.0044,53.8859,361.004],[93.0859,53.8647,342.2049],[93.141,53.829,316.4783],[93.1742,53.8156,315.2546],[93.2342,53.8103,377.2993],[93.2772,53.8203,395.8564],[93.2938,53.847,468.02],[93.3588,53.8784,852.4491],[93.4206,53.8978,758.5069],[93.527,53.8833,441.1085],[93.5752,53.8324,467.9065],[93.5988,53.7671,422.6208],[93.6543,53.7185,622.7579],[93.7594,53.6982,1268.5325],[93.8357,53.6954,1212.7924],[93.8583,53.6693,801.4426],[93.8984,53.6159,1073.7195],[93.9785,53.6068,850.0796],[94.0292,53.5878,1044.5865],[94.0677,53.5607,954.8657],[94.0967,53.5167,819.2556],[94.1546,53.4897,1632.2614],[94.2248,53.4918,1456.5989],[94.3811,53.5112,939.4074],[94.4216,53.4887,1018.9196],[94.4471,53.4608,964.1117],[94.4942,53.4341,1019.0903],[94.5519,53.4297,710.6584],[94.5983,53.4239,726.0831],[94.6399,53.405,835.8218],[94.6667,53.3872,982.3407],[94.9028,53.4062,1330.4846],[94.9679,53.4084,1652.0609],[94.9772,53.3896,1557.8634],[95.0392,53.4054,1519.3337],[95.1278,53.4624,1522.2848],[95.2125,53.4371,1390.8489],[95.3175,53.3988,1666.9208],[95.4225,53.4153,1498.9203],[95.4594,53.4497,1263.9871],[95.5425,53.4587,1470.4397],[95.6573,53.511,1464.0084],[95.6921,53.4795,1498.8],[95.7978,53.5029,1290.8162],[95.9034,53.4979,1936.8634],[95.9955,53.4713,1950.3323],[96.0356,53.4865,1139.019],[96.0558,53.5228,1584.527],[96.1496,53.5363,1301.3088],[96.1741,53.5891,1812.4242],[96.3558,53.5372,1494.1296],[96.4772,53.555,2031.0605],[96.6255,53.5953,1618.1763],[96.6534,53.6518,1760.7021],[96.6574,53.6729,1553.4072],[96.5171,53.6821,2188.5649],[96.427,53.7055,1757.7607],[96.3937,53.7381,1232.6891],[96.3262,53.7995,1397.5879],[96.2345,53.8337,2210.0374],[96.1582,53.9156,1449.7478],[96.089,53.9859,1589.0968],[96.0213,53.9925,1653.6675],[95.9815,54.0238,1354.2726],[95.976,54.0818,1815.9053],[95.9007,54.1108,1513.6818],[95.77,54.1685,1043.9668],[95.6947,54.2347,1720.594],[95.582,54.2465,1460.2296],[95.5929,54.3124,1565.847]]]]}}