{"type":"Feature","properties":{"GID_3":"RUS.71.8.1_1","GID_0":"RUS","country":"Russia","GID_1":"RUS.71_1","province":"Tuva","NL_NAME_1":"РеспубликаТыва","GID_2":"RUS.71.8_1","county":"Kyzyl","NL_NAME_2":"Кызыл","city":"NA","VARNAME_3":"NA","NL_NAME_3":"NA","TYPE_3":"NA","ENGTYPE_3":"NA","CC_3":"NA","HASC_3":"NA","name":"N_A.city"},
"geometry":{"type": "MultiPolygon","coordinates": [[[[94.2628,51.7287,805.6289],[94.2965,51.6619,614.4536],[94.4011,51.6112,753.479],[94.5448,51.731,688.9604],[94.5415,51.756,798.9446],[94.4261,51.8158,718.4657],[94.379,51.8184,913.7567],[94.2628,51.7287,805.6289]]]]}}