{"type":"Feature","properties":{"GID_3":"RUS.35.43.1_1","GID_0":"RUS","country":"Russia","GID_1":"RUS.35_1","province":"Krasnoyarsk","NL_NAME_1":"Красноярскийкрай","GID_2":"RUS.35.43_1","county":"Pirovskiyrayon","NL_NAME_2":"Пировскийрайон","city":"NA","VARNAME_3":"NA","NL_NAME_3":"NA","TYPE_3":"NA","ENGTYPE_3":"NA","CC_3":"NA","HASC_3":"NA","name":"N_A.city"},
"geometry":{"type": "MultiPolygon","coordinates": [[[[91.6981,57.0125,211.6569],[91.7651,57.0651,258.9906],[91.8396,57.0924,265.455],[91.9632,57.1258,241.3755],[92.0431,57.169,216.8662],[92.1732,57.2136,215.1959],[92.2616,57.2361,255.3153],[92.2786,57.2647,273.4551],[92.2791,57.2832,307.7993],[92.2708,57.3551,263.1797],[92.3199,57.3794,250.9967],[92.3334,57.4097,265.6159],[92.3216,57.4374,252.9045],[92.3146,57.4828,257.3506],[92.376,57.5144,240.1796],[92.4329,57.5116,239.1496],[92.4712,57.5315,214.7417],[92.4987,57.5755,193.0522],[92.5086,57.6376,206.86],[92.4498,57.6632,196.4813],[92.4116,57.6571,177.1917],[92.3884,57.6813,164.239],[92.4421,57.7095,197.7175],[92.4902,57.72,208.9123],[92.5203,57.732,219.2359],[92.5872,57.7784,186.749],[92.5506,57.8256,163.0787],[92.5222,57.8578,164.9884],[92.4524,57.8909,162.7213],[92.362799999999993,57.9678,194.2416],[92.2294,58.0087,216.8556],[92.0619,58.0233,149.9363],[91.9487,58.001,140.5956],[91.8604,57.9417,135.3695],[91.7885,57.9322,170.953],[91.6794,57.7877,210.459],[91.6143,57.7169,181.1479],[91.531,57.7238,192.7902],[91.4057,57.804,172.2029],[91.2757,57.8285,182.0725],[91.1533,57.8756,178.417],[91.0938,57.8896,167.1883],[91.0259,57.832,187.6323],[91.0433,57.7827,189.6852],[91.0164,57.7475,180.5107],[90.9857,57.7318,179.6269],[91.0293,57.7071,192.6298],[91.0576,57.6936,183.2722],[91.1175,57.6898,178.891],[91.1772,57.6998,168.2766],[91.2109,57.7097,186.9178],[91.2753,57.7015,212.1259],[91.3147,57.6842,200.5033],[91.3021,57.6538,221.0437],[91.2755,57.6169,182.8387],[91.2629,57.5737,194.2781],[91.2964,57.5394,190.9288],[91.3355,57.5091,185.4812],[91.4036,57.493,203.8528],[91.4892,57.4799,218.612],[91.5747,57.4833,221.8332],[91.6346,57.4692,204.5194],[91.6411,57.4458,225.6678],[91.6054,57.423,218.7486],[91.5625,57.3832,219.9732],[91.5694,57.323,227.8129],[91.5274,57.2694,236.477],[91.439,57.2345,245.7348],[91.4028,57.1914,256.2576],[91.4307,57.1107,246.5862],[91.504,57.049,212.5168],[91.6112,57.009,212.9516],[91.6981,57.0125,211.6569]]]]}}