{"type":"Feature","properties":{"GID_2":"RUS.56.15_1","GID_0":"RUS","country":"Russia","GID_1":"RUS.56_1","province":"Primor'ye","NL_NAME_1":"Приморскийкрай","county":"Kirovskiyrayon","VARNAME_2":"NA","NL_NAME_2":"Кировскийрайон","TYPE_2":"Raion","ENGTYPE_2":"District","CC_2":"R66000","HASC_2":"RU.PR.KI","name":"Kirovskiyrayon.county"},
"geometry":{"type": "MultiPolygon","coordinates": [[[[133.1318,45.4168,64.9904],[133.1296,45.4117,65.147],[133.1363,45.4062,65.27],[133.1348,45.3996,64.9592],[133.1299,45.3965,65.3638],[133.1387,45.3911,65.0188],[133.1393,45.3864,65.3952],[133.1354,45.3806,64.6346],[133.1292,45.3757,64.8732],[133.1287,45.3731,66.527],[133.1377,45.3704,67.0392],[133.1383,45.3642,67.3227],[133.1188,45.3443,65.5761],[133.1198,45.333,65.0185],[133.1249,45.325,65.1849],[133.1197,45.3176,65.5528],[133.1102,45.3089,65.5278],[133.1111,45.2991,65.7049],[133.1065,45.2928,65.9367],[133.0939,45.2876,65.5577],[133.0889,45.2771,66.5337],[133.0967,45.2717,65.8148],[133.1086,45.2708,66.2845],[133.1287,45.2518,66.7583],[133.1584,45.2177,66.9875],[133.1804,45.1791,69.6283],[133.2092,45.1108,68.6872],[133.2732,45.0708,73.0633],[133.3186,45.0523,75.6607],[133.3228,45.033,77.0951],[133.3033,44.9841,82.873],[133.2621,44.9457,121.0279],[133.298,44.9246,119.7691],[133.3501,44.9191,90.3411],[133.4007,44.8692,168.1127],[133.4762,44.8996,214.9692],[133.5404,44.9615,95.8279],[133.6103,44.9719,103.3715],[133.6384,44.9233,109.9187],[133.7045,44.9152,118.5491],[133.7561,44.7965,173.3666],[133.7822,44.7494,375.0178],[133.9728,44.68,144.2428],[134.0581,44.7471,355.3025],[134.1183,44.684,196.47],[134.1604,44.7462,316.4188],[134.1806,44.8065,246.0341],[134.1717,44.869,286.8412],[134.1523,44.9261,264.8846],[134.1114,44.9864,598.626],[134.1898,45.0464,453.5347],[134.2397,45.0738,635.9658],[134.2805,45.0827,565.6834],[134.3343,45.0266,434.8109],[134.3936,45.0658,480.4702],[134.3454,45.06,461.1141],[134.334,45.0991,370.7571],[134.3557,45.1595,273.7731],[134.3004,45.1741,485.3989],[134.2052,45.1565,317.2955],[134.1041,45.1557,223.136],[134.0486,45.188,248.0761],[134.0085,45.185,204.1736],[133.9386,45.1926,212.1936],[133.9021,45.2204,325.9556],[133.8542,45.238,374.1317],[133.812,45.2451,238.8528],[133.7655,45.2413,265.9484],[133.7099,45.2202,128.3606],[133.6616,45.2389,138.1469],[133.659,45.2618,130.2651],[133.6727,45.2835,158.2655],[133.6453,45.2972,127.8836],[133.549,45.2678,74.8907],[133.4649,45.2513,88.4349],[133.3793,45.2622,74.1547],[133.3512,45.3,71.8607],[133.2609,45.3458,70.0532],[133.1322,45.4179,64.7646],[133.1318,45.4168,64.9904]]]]}}