{"type":"Feature","properties":{"GID_2":"RUS.83.6_1","GID_0":"RUS","country":"Russia","GID_1":"RUS.83_1","province":"Zabaykal'ye","NL_NAME_1":"Забайкальскийкрай","county":"Borzinskiyrayon","VARNAME_2":"NA","NL_NAME_2":"Борзинскийрайон","TYPE_2":"Raion","ENGTYPE_2":"District","CC_2":"R64090","HASC_2":"RU.CT.BO","name":"Borzinskiyrayon.county"},
"geometry":{"type": "MultiPolygon","coordinates": [[[[116.0715,50.0113,716.708],[116.0885,50.0413,671.716],[116.1704,50.0443,674.5034],[116.1848,50.0878,688.0471],[116.3169,50.0897,678.9984],[116.3382,50.1312,718.5159],[116.435,50.1316,722.0579],[116.4312,50.1079,715.0752],[116.6086,50.1248,868.065],[116.6323,50.1725,889.6583],[116.7445,50.1955,874.4319],[116.7414,50.1416,793.0935],[116.8198,50.1534,793.9684],[116.8528,50.2481,837.388],[116.9325,50.2654,885.9791],[117.0014,50.2039,791.0256],[117.0492,50.2272,739.3264],[117.0913,50.2009,712.8957],[117.2094,50.2613,704.2557],[117.2727,50.2684,693.1348],[117.3098,50.3166,691.1725],[117.3069,50.3413,698.4486],[117.2977,50.369,709.0695],[117.3187,50.3908,723.6036],[117.3796,50.3807,689.4945],[117.4078,50.4119,695.0236],[117.4268,50.4572,694.2139],[117.4361,50.5031,698.2964],[117.4245,50.5485,846.6417],[117.4522,50.6,908.2716],[117.4845,50.6226,913.6569],[117.5168,50.6598,903.9074],[117.5307,50.7135,1166.5439],[117.4963,50.7471,1085.1138],[117.4129,50.7628,919.0621],[117.3509,50.7565,875.2997],[117.2778,50.7424,970.2636],[117.1676,50.7864,785.5626],[117.0916,50.8362,795.7191],[117.0467,50.8992,932.1257],[117.0504,50.94,1108.2754],[117.0399,50.9907,984.7396],[117.0,51.0269,1010.0812],[116.9441,50.9906,1196.474],[116.8939,50.9678,1088.8745],[116.8425,50.9557,1114.4781],[116.7922,50.9493,1179.1709],[116.7156,50.8699,1030.3126],[116.6621,50.8013,1120.5942],[116.5834,50.7655,879.2415],[116.4833,50.7348,909.0347],[116.4484,50.7045,821.6317],[116.4275,50.6634,885.752],[116.3849,50.6314,715.7187],[116.3343,50.6083,698.7382],[116.2972,50.5676,745.3956],[116.2132,50.5545,950.7725],[116.167,50.52,852.5137],[116.115,50.4853,839.3568],[115.9706,50.4908,707.199],[115.947,50.4489,713.4671],[115.893,50.4203,733.6255],[115.7512,50.3999,650.3859],[115.721,50.3598,649.041],[115.709,50.2976,650.1901],[115.741,50.2512,681.0759],[115.7911,50.2243,695.6271],[115.8114,50.2096,733.3616],[115.8039,50.1486,594.0],[115.8023,50.0983,594.0],[115.7454,50.0563,594.0],[115.6583,50.0469,609.0198],[115.5585,50.0296,594.5],[115.5048,50.0074,594.5],[115.4748,49.9787,594.5],[115.4384,49.9363,594.5],[115.4178,49.9012,600.0372],[115.4579,49.9087,594.5],[115.4677,49.9081,608.9951],[115.4879,49.8969,599.1142],[115.5091,49.8961,599.0353],[115.5529,49.9073,599.2984],[115.5927,49.9034,602.0782],[115.6198,49.8976,604.5139],[115.667,49.8905,608.8322],[115.7209,49.8846,621.2015],[115.7415,49.8848,621.3962],[115.7593,49.8871,624.0963],[115.7689,49.8901,626.3628],[115.8553,49.9327,635.8407],[115.8926,49.9469,637.3613],[115.9089,49.9499,641.6833],[115.9194,49.9559,645.752],[115.9517,49.9687,679.2812],[115.9663,49.9727,680.0037],[116.0261,49.9985,701.789],[116.0715,50.0113,716.708]],
[[116.594,50.3759,740.7795],[116.5781,50.374,725.0694],[116.5574,50.3833,688.8317],[116.5547,50.3911,681.6351],[116.5785,50.4073,685.1951],[116.6069,50.3998,696.4561],[116.6041,50.3869,704.9681],[116.594,50.3759,740.7795]]]]}}