{"type":"Feature","properties":{"GID_2":"RUS.71.5_1","GID_0":"RUS","country":"Russia","GID_1":"RUS.71_1","province":"Tuva","NL_NAME_1":"РеспубликаТыва","county":"Dzun-Khemchikskiyrayon","VARNAME_2":"NA","NL_NAME_2":"Дзун-Хемчикскийрайон","TYPE_2":"Raion","ENGTYPE_2":"District","CC_2":"R61000","HASC_2":"RU.TU.DZ","name":"Dzun-Khemchikskiyrayon.county"},
"geometry":{"type": "MultiPolygon","coordinates": [[[[91.1113,50.5602,2407.9233],[91.2714,50.586,2401.9023],[91.4222,50.6519,2291.1956],[91.4733,50.7159,1881.0859],[91.5283,50.7494,1980.4739],[91.6087,50.77,2026.4701],[91.6935,50.7768,1746.7582],[91.8259,50.8098,1831.8435],[91.8534,50.8363,1914.6631],[91.8952,50.8507,1979.6462],[91.9347,50.8473,1999.2891],[91.9702,50.8715,2135.9644],[92.0759,50.9637,2271.209],[92.2258,51.0143,2633.8921],[92.3097,51.0261,2355.9617],[92.3856,51.0598,2361.0535],[92.4374,51.1232,2544.551],[92.3554,51.1153,2081.8662],[92.25,51.1288,1915.1237],[92.2061,51.1544,2137.0576],[92.1448,51.2316,1316.9507],[92.0245,51.2689,1333.6499],[92.0378,51.3192,1395.3129],[91.9973,51.3541,1674.625],[91.9153,51.3793,1573.6429],[91.8817,51.4426,1471.911],[91.831,51.4692,1546.3959],[91.7414,51.4389,1214.9152],[91.6091,51.3883,1174.8976],[91.5171,51.3705,858.3821],[91.4378,51.3807,712.4272],[91.4162,51.4328,687.8988],[91.3799,51.4315,690.09],[91.3397,51.4078,695.7101],[91.3551,51.3441,883.2511],[91.3511,51.3168,1079.9128],[91.3143,51.3044,1014.1252],[91.2742,51.3103,916.4564],[91.2235,51.2958,805.9565],[91.206,51.2748,776.5638],[91.1386,51.2653,808.7977],[91.094,51.2838,752.304],[90.946,51.256,777.602],[90.7968,51.2094,843.8751],[90.8031,51.1505,1158.0909],[90.8247,51.1059,993.1723],[90.864,51.0489,1158.3042],[90.8271,50.9609,1299.7853],[90.8812,50.921,1358.7853],[90.8764,50.8777,1441.652],[90.8636,50.8626,1849.5107],[90.9034,50.8269,2283.7234],[90.8917,50.783,2003.25],[90.9419,50.7622,2070.4346],[91.0174,50.6372,1895.3408],[91.0754,50.588,2230.0552],[91.1113,50.5602,2407.9233]]]]}}