{"type":"Feature","properties":{"GID_3":"RUS.30.10.1_1","GID_0":"RUS","country":"Russia","GID_1":"RUS.30_1","province":"Khanty-Mansiy","NL_NAME_1":"Ханты-МансийскийАОк","GID_2":"RUS.30.10_1","county":"Nefteyugansk","NL_NAME_2":"Нефтеюганск","city":"NA","VARNAME_3":"NA","NL_NAME_3":"NA","TYPE_3":"NA","ENGTYPE_3":"NA","CC_3":"NA","HASC_3":"NA","name":"N_A.city"},
"geometry":{"type": "MultiPolygon","coordinates": [[[[72.7408,61.1428,36.1489],[72.7398,61.1458,30.4221],[72.7354,61.1488,32.8489],[72.7252,61.1475,30.3059],[72.7203,61.1457,30.1376],[72.7193,61.1431,30.6072],[72.7262,61.1391,29.6754],[72.7329,61.1389,29.7258],[72.7408,61.1428,36.1489]]]]}}