{"type":"Feature","properties":{"GID_3":"RUS.2.9.1_1","GID_0":"RUS","country":"Russia","GID_1":"RUS.2_1","province":"Altay","NL_NAME_1":"Алтайскийкрай","GID_2":"RUS.2.9_1","county":"Blagoveshchenskiyrayon","NL_NAME_2":"Благовещенскийрайон","city":"NA","VARNAME_3":"NA","NL_NAME_3":"NA","TYPE_3":"NA","ENGTYPE_3":"NA","CC_3":"NA","HASC_3":"NA","name":"N_A.city"},
"geometry":{"type": "MultiPolygon","coordinates": [[[[80.3648,53.1263,112.9994],[79.9963,53.0044,104.2965],[79.714,53.089,99.7019],[79.7523,53.0598,103.0788],[79.7525,53.0446,98.0],[79.7334,53.0296,98.0],[79.7858,53.0119,102.5792],[79.8119,52.9958,100.312],[79.7839,52.9707,98.0],[79.7568,52.9589,102.1342],[79.7147,52.9634,101.4189],[79.6933,52.9528,98.0],[79.6854,52.938,98.0],[79.7026,52.888,98.0],[79.7079,52.8661,98.678],[79.7509,52.8628,98.0],[79.7767,52.8381,100.0323],[79.7686,52.8205,102.7454],[79.7516,52.8078,106.7115],[79.7338,52.8234,100.7147],[79.6678,52.8196,98.0],[79.6195,52.821,98.0],[79.5824,52.8311,98.0],[79.5359,52.8527,98.0],[79.5022,52.8416,106.6678],[79.455,52.8145,104.7716],[79.4145,52.784,105.491],[79.3879,52.757,113.9668],[79.3251,52.724,118.9321],[79.3779,52.7112,118.9417],[79.4132,52.7075,110.5614],[79.4829,52.6369,115.3945],[79.5381,52.6456,116.599],[79.5713,52.6072,116.5035],[79.607,52.573,123.5207],[79.6672,52.5397,134.821],[79.7305,52.5536,128.1334],[79.7354,52.5859,112.6867],[79.8388,52.6016,111.6456],[79.8757,52.5942,122.4258],[79.9629,52.6229,125.9716],[80.0749,52.6342,134.4913],[80.0813,52.6763,124.0469],[80.1385,52.6964,137.4778],[80.1899,52.6792,148.94],[80.2884,52.7049,177.9846],[80.2755,52.7452,161.9667],[80.2518,52.7788,155.0106],[80.3545,52.7691,180.6403],[80.4009,52.7861,188.5941],[80.4651,52.8148,186.9695],[80.5496,52.8471,192.3208],[80.6292,52.8831,183.2193],[80.5532,52.9519,160.0229],[80.5334,53.0155,172.5824],[80.5689,53.0361,179.1622],[80.601,53.0446,182.523],[80.5083,53.0801,145.7026],[80.3648,53.1263,112.9994]]]]}}