{"type":"Feature","properties":{"GID_2":"RUS.30.20_1","GID_0":"RUS","country":"Russia","GID_1":"RUS.30_1","province":"Khanty-Mansiy","NL_NAME_1":"Ханты-МансийскийАОк","county":"Surgut","VARNAME_2":"NA","NL_NAME_2":"Сургут","TYPE_2":"Gorod","ENGTYPE_2":"City","CC_2":"NA","HASC_2":"RU.KM.SG","name":"Surgut.county"},
"geometry":{"type": "MultiPolygon","coordinates": [[[[73.5556,61.3608,61.7838],[73.543,61.3902,62.8201],[73.4797,61.4026,65.6947],[73.4391,61.3573,69.781],[73.4425,61.3385,53.516],[73.4899,61.3292,57.0575],[73.5556,61.3608,61.7838]]]]}}