{"type":"Feature","properties":{"GID_2":"RUS.83.34_1","GID_0":"RUS","country":"Russia","GID_1":"RUS.83_1","province":"Zabaykal'ye","NL_NAME_1":"Забайкальскийкрай","county":"Uletovskiyrayon","VARNAME_2":"NA","NL_NAME_2":"Улетовскийрайон","TYPE_2":"Raion","ENGTYPE_2":"District","CC_2":"R64092","HASC_2":"RU.CT.UL","name":"Uletovskiyrayon.county"},
"geometry":{"type": "MultiPolygon","coordinates": [[[[112.5964,50.5985,1135.9125],[112.5822,50.62,1127.5022],[112.616,50.6537,1162.5134],[112.645,50.713,1121.6659],[112.6277,50.743,1228.7183],[112.5927,50.7298,1140.957],[112.5466,50.7313,1136.4744],[112.5219,50.7621,1215.2092],[112.4845,50.7694,1285.6945],[112.4226,50.7592,1196.9449],[112.3604,50.7423,1143.1979],[112.303,50.7374,1080.4789],[112.2719,50.7554,1254.2212],[112.2458,50.8056,1365.0507],[112.2423,50.8916,1258.0801],[112.2866,50.9394,1293.7729],[112.357,50.9976,1122.9692],[112.4503,51.0607,1237.0408],[112.4789,51.1207,1114.1459],[112.5637,51.1645,1065.3191],[112.6657,51.1354,1052.1907],[112.752,51.1405,1105.2603],[112.8186,51.1283,1000.7482],[112.8692,51.1337,1021.6214],[112.9207,51.1419,859.0352],[112.9591,51.168,1020.9176],[113.003,51.2182,1025.8635],[113.0454,51.2705,969.9982],[113.0523,51.3298,978.5831],[113.1022,51.383,916.9705],[113.1596,51.4294,899.2827],[113.2067,51.479,991.7889],[113.2366,51.5334,981.3214],[113.2224,51.5856,913.3533],[113.1842,51.6197,981.4534],[113.1473,51.6033,917.7516],[113.031,51.6212,681.4441],[112.9471,51.6398,774.811],[112.897,51.6619,844.0546],[112.8529,51.7079,993.749],[112.7816,51.7201,1205.801],[112.701,51.7182,1101.0361],[112.5592,51.6387,1051.9927],[112.4968,51.5783,1183.2683],[112.4499,51.538,1056.8711],[112.3971,51.5459,1193.2305],[112.3417,51.595,1181.9731],[112.216,51.5721,1170.8794],[112.1628,51.5181,1194.6423],[112.1,51.4889,1253.7681],[112.0545,51.4616,1212.5647],[111.9911,51.4333,1412.8741],[111.9022,51.3906,1338.1997],[111.8346,51.3474,1262.3503],[111.8029,51.3299,1248.3116],[111.777,51.2916,1318.4945],[111.7252,51.2772,1166.337],[111.6828,51.2588,1266.2],[111.6598,51.2364,1328.7715],[111.6164,51.1818,1126.1514],[111.5609,51.1475,1093.8781],[111.5114,51.1403,1179.0051],[111.4548,51.1492,1306.1823],[111.4101,51.1281,1299.774],[111.3818,51.1109,1373.0597],[111.3103,51.1184,1164.4154],[111.1681,51.1245,1350.9734],[111.1299,51.1131,1290.0469],[111.1103,51.0739,1225.2084],[111.0247,51.0683,1296.7117],[110.9756,51.0551,1274.2256],[110.9602,51.0135,1215.5424],[110.9575,50.9715,991.256],[110.9348,50.9201,1041.0959],[110.8957,50.8721,1192.8541],[110.8357,50.8349,1341.7748],[110.8256,50.7733,1252.8196],[110.8797,50.7294,1304.3562],[110.9317,50.7164,1115.3022],[110.9668,50.6839,1022.1074],[111.0071,50.6663,1047.067],[111.0192,50.6342,1110.2948],[111.0039,50.572,1266.0128],[111.0007,50.5076,1260.7841],[110.9751,50.4706,1339.2068],[110.9671,50.4202,1396.7246],[110.9329,50.3472,1177.8582],[110.954,50.2519,1545.655],[110.9434,50.2026,1591.3539],[110.9334,50.1657,1581.1345],[110.9023,50.1417,1557.0001],[110.8574,50.1444,1614.6859],[110.8233,50.143,1273.877],[110.7958,50.1254,1259.2266],[110.7842,50.0439,1147.2539],[110.7662,50.0127,1522.4722],[110.7551,49.9778,1520.5631],[110.7815,49.9469,1196.8599],[110.8161,49.9151,1246.0916],[110.8685,49.901,1469.287],[110.8955,49.868899999999996,1559.6782],[110.8873,49.8113,1643.0732],[110.8661,49.7647,1556.5922],[110.8372,49.7306,1736.7122],[110.8065,49.724,1750.8774],[110.7739,49.7078,1811.0039],[110.7944,49.6138,1653.5337],[110.7989,49.5762,1541.0305],[110.8449,49.59,1658.1921],[110.8859,49.5937,1753.3717],[110.9505,49.5948,1691.7689],[110.9788,49.626,1745.3191],[111.0008,49.6716,1786.9104],[111.0309,49.7173,1834.8774],[111.0928,49.747,1878.6721],[111.1252,49.7699,2161.9663],[111.156,49.7891,1881.792],[111.1622,49.8177,1637.2196],[111.1602,49.8618,1464.6362],[111.1729,49.9034,1509.962],[111.1986,49.9241,1621.8401],[111.236,49.9337,1547.62],[111.255,49.9551,1647.801],[111.273,49.9951,1589.1177],[111.2992,50.038,1709.9601],[111.3333,50.0617,1678.3309],[111.3681,50.0638,1622.4088],[111.4064,50.0762,1724.1808],[111.4302,50.1096,1665.0742],[111.456,50.1603,1485.9735],[111.4819,50.175,1836.885],[111.5326,50.1802,1672.4006],[111.6,50.1836,1741.3733],[111.6222,50.1714,1668.1294],[111.6579,50.1481,1517.7904],[111.681,50.1193,1511.1143],[111.7168,50.1183,1698.125],[111.7338,50.1417,1509.2585],[111.7529,50.1775,1541.491],[111.7814,50.1869,1806.8059],[111.7979,50.224,1653.3801],[111.7978,50.2628,1786.6855],[111.8205,50.2875,1618.7523],[111.8498,50.2774,1472.9042],[111.8704,50.2596,1650.1736],[111.8751,50.2251,1475.2238],[111.899,50.2224,1539.186],[111.9393,50.2266,1642.1631],[111.9588,50.2633,1437.8314],[111.9924,50.309,1555.4365],[112.0431,50.3188,1339.9268],[112.0773,50.312,1281.1864],[112.1398,50.2962,1441.2949],[112.2088,50.2844,1367.6637],[112.3462,50.288,1537.3958],[112.3828,50.3419,1373.0345],[112.4167,50.4107,1426.9006],[112.4702,50.4664,1260.2296],[112.5444,50.4799,1051.821],[112.5906,50.5113,1176.2812],[112.5964,50.5985,1135.9125]]]]}}