{"type":"Feature","properties":{"GID_2":"RUS.30.21_1","GID_0":"RUS","country":"Russia","GID_1":"RUS.30_1","province":"Khanty-Mansiy","NL_NAME_1":"Ханты-МансийскийАОк","county":"Surgutskiyrayon","VARNAME_2":"NA","NL_NAME_2":"Сургутскийрайон","TYPE_2":"Raion","ENGTYPE_2":"District","CC_2":"R58010","HASC_2":"RU.KM.SR","name":"Surgutskiyrayon.county"},
"geometry":{"type": "MultiPolygon","coordinates": [[[[71.1185,63.165,136.6206],[71.1497,62.9925,114.7799],[71.1917,62.8431,105.5214],[71.242,62.7194,95.8961],[71.2611,62.615,91.0],[71.2734,62.5341,88.4171],[71.3301,62.4546,85.0],[71.3504,62.3784,82.0],[71.3097,62.3149,80.5],[71.1733,62.2578,84.0395],[71.1235,62.2102,79.2892],[71.1004,62.1513,72.7226],[70.9663,62.0693,70.714],[70.8396,62.0296,62.6771],[70.7004,62.0129,63.0682],[70.6131,61.9986,54.4147],[70.5132,61.9564,53.5046],[70.4741,61.8996,49.8209],[70.4675,61.847,45.7544],[70.5295,61.7778,84.6827],[70.5801,61.7281,90.8118],[70.6725,61.7047,49.4196],[70.8004,61.6692,58.9701],[70.8813,61.6332,82.3039],[70.966,61.5931,49.1172],[71.0728,61.511,51.0478],[71.16,61.4265,40.645],[71.1512,61.3487,32.1259],[71.0956,61.2475,20.7617],[71.0732,61.1536,24.9688],[71.0687,61.1067,27.3885],[71.1166,61.0934,26.245],[71.1621,61.1006,27.4324],[71.1927,61.1124,26.8059],[71.2969,61.0977,27.5342],[71.3643,61.1237,27.9019],[71.4075,61.1442,28.4524],[71.4822,61.1427,28.0102],[71.5105,61.1041,29.6942],[71.6356,61.0978,28.2544],[71.7776,61.0732,28.924],[71.8884,61.0417,28.8146],[71.9333,61.0336,29.3784],[72.0808,61.0606,28.5909],[72.1811,61.0871,27.2719],[72.2196,61.1152,29.1683],[72.2178,61.1555,31.1381],[72.2419,61.1745,28.146],[72.3392,61.1933,41.8582],[72.429,61.2044,42.5381],[72.4989,61.1895,31.0306],[72.5515,61.1661,30.4498],[72.6681,61.1728,31.0836],[72.8357,61.1941,32.2081],[72.9431,61.1947,30.5246],[73.0058,61.185,31.9894],[73.1401,61.1901,28.3242],[73.2558,61.2021,31.2019],[73.3568,61.205,27.7529],[73.4361,61.1995,32.9853],[73.4801,61.18,86.8],[73.497,61.1204,32.831],[73.4809,61.0207,32.6535],[73.4789,60.9948,32.2182],[73.5197,60.9667,27.0598],[73.5904,60.9703,31.8221],[73.646,60.9581,32.2112],[73.7057,60.9102,33.8455],[73.7427,60.8932,32.4457],[73.7898,60.8762,34.1598],[73.8195,60.8174,36.2653],[73.7733,60.7903,33.4393],[73.7157,60.7599,39.7738],[73.6583,60.7246,45.5764],[73.6136,60.6889,44.1514],[73.5921,60.6451,72.8815],[73.5987,60.6042,73.9823],[73.6289,60.5711,54.5239],[73.5976,60.5174,87.8871],[73.5458,60.4643,66.9916],[73.5238,60.4165,71.3626],[73.4592,60.4,82.4698],[73.4189,60.3857,65.9547],[73.355,60.3142,58.6863],[73.3669,60.2862,56.3331],[73.3389,60.2625,62.5022],[73.2767,60.2435,56.4957],[73.235,60.1794,52.6842],[73.221,60.13,53.1521],[73.21,60.0725,62.5072],[73.1717,60.0494,66.1321],[73.0816,60.0332,77.1079],[72.9787,60.018,79.3913],[72.9716,59.968,81.5423],[72.9803,59.8997,85.5919],[72.9666,59.8294,88.0887],[72.9687,59.7339,88.0388],[72.9584,59.6505,94.7765],[72.9395,59.589,100.9571],[72.8877,59.5152,96.3488],[72.8229,59.501,95.8451],[72.7876,59.4754,94.9399],[72.7469,59.4307,95.1047],[72.7211,59.3893,94.7652],[72.6646,59.3589,104.0384],[72.6,59.3425,94.0856],[72.5256,59.3468,110.3499],[72.4285,59.3568,96.9322],[72.3531,59.359,98.7734],[72.4389,59.2995,96.4295],[72.4371,59.2624,96.2183],[72.4305,59.2241,99.2167],[72.4575,59.1944,99.9554],[72.5713,59.1541,96.154],[72.6218,59.1147,95.9589],[72.6543,59.099,94.8488],[72.7192,59.1074,95.3423],[72.7765,59.1249,93.1159],[72.8277,59.152,92.8266],[72.8896,59.1547,92.4237],[72.9619,59.1308,88.1929],[72.9825,59.1105,89.1733],[72.9848,59.0912,90.8895],[72.8969,59.0522,95.6782],[72.899,59.0309,96.7831],[72.9895,58.9962,95.9242],[73.065,58.9701,94.7552],[73.0918,58.9561,95.9565],[73.0995,58.935,93.1895],[73.0676,58.9103,95.0256],[72.9938,58.8852,96.2975],[72.9622,58.8674,96.1089],[72.9646,58.855,95.5032],[73.0962,58.8234,91.185],[73.341,58.7867,89.7485],[73.4439,58.7921,99.1705],[73.6212,58.8459,96.1987],[73.6834,58.8424,98.6786],[73.7453,58.8102,96.8937],[73.8075,58.785,92.3263],[73.8799,58.7924,97.7989],[73.9474,58.8037,95.0763],[73.9961,58.7855,93.0532],[74.047,58.7499,100.4693],[74.0997,58.7166,95.6044],[74.1282,58.702,95.4282],[74.2671,58.7044,99.3521],[74.4122,58.711,103.6437],[74.539,58.7068,110.4374],[74.6363,58.7062,114.2173],[74.7249,58.7018,121.7947],[74.8165,58.6911,118.1125],[74.8707,58.6796,116.4015],[75.0081,58.6957,124.4377],[75.0425,58.6928,123.7918],[75.0789,58.6796,123.1947],[75.1425,58.6492,119.8603],[75.1793,58.6987,125.4097],[75.2842,58.7383,118.5918],[75.3704,58.7779,117.3125],[75.4606,58.8251,118.1762],[75.6774,58.9457,114.7997],[75.7023,59.0101,110.447],[75.6753,59.078,107.9664],[75.6155,59.1825,106.113],[75.7044,59.2202,105.392],[75.7771,59.2488,103.6255],[75.8264,59.2807,100.6036],[75.8419,59.3276,99.9561],[75.874,59.3649,98.1378],[75.9383,59.4083,100.7623],[75.9937,59.4062,101.4758],[76.0498,59.4187,102.3882],[76.0808,59.4528,98.7834],[76.172,59.5205,93.2216],[76.2536,59.5144,93.1836],[76.35,59.5275,93.3344],[76.4492,59.545,96.3013],[76.568,59.5455,100.0029],[76.6702,59.5643,102.4603],[76.6826,59.6063,103.9361],[76.6789,59.6521,107.9935],[76.4862,59.7141,114.0265],[76.3473,59.7629,101.0396],[76.1607,59.8307,103.2849],[76.0232,59.8893,93.252],[75.9109,59.9214,98.2793],[75.7736,59.937,101.7486],[75.6332,59.9334,96.0519],[75.4777,59.9033,84.2012],[75.4614,60.0112,99.8365],[75.3866,60.0494,90.4453],[75.2714,60.1138,90.9447],[75.1807,60.1488,90.5066],[75.0721,60.1685,96.573],[75.0852,60.1896,91.2868],[75.0902,60.2286,88.9776],[75.1031,60.2702,88.1404],[75.1233,60.2673,93.953],[75.1925,60.2652,92.9976],[75.2664,60.2697,68.5773],[75.2628,60.2895,81.1492],[75.2384,60.3131,85.577],[75.1,60.4052,88.4136],[75.11,60.453,90.0609],[75.1126,60.51,83.7716],[75.0801,60.571,85.9731],[75.0535,60.6068,86.6421],[74.9991,60.6246,93.1451],[74.9325,60.6848,68.915],[74.8391,60.6833,69.9463],[74.716,60.6758,79.1899],[74.6947,60.7019,96.6106],[74.6518,60.7668,56.3177],[74.6702,60.8261,69.887],[74.6951,60.8378,68.079],[74.7416,60.8479,48.8163],[74.8325,60.8509,47.5116],[75.1069,60.8648,46.2108],[75.3867,60.8946,42.4164],[75.3909,60.9071,34.178],[75.3329,60.9341,49.9116],[75.3529,61.003,46.6806],[75.4075,61.0211,36.558],[75.3846,61.0499,37.7057],[75.3437,61.083,35.4441],[75.3315,61.1109,36.0092],[75.3064,61.1549,37.5194],[75.2492,61.2054,35.6506],[75.1794,61.2234,34.6396],[75.1217,61.2037,35.0768],[75.0547,61.1754,34.7831],[74.8924,61.2859,45.1533],[74.8849,61.3322,42.0437],[74.879,61.414,38.1462],[74.8529,61.5895,52.1056],[74.8964,61.8229,53.1878],[74.964,62.0187,69.1023],[75.1717,62.0017,74.7269],[75.3764,62.0082,60.3098],[75.7887,62.0604,69.1369],[75.9546,62.0938,69.6276],[75.9681,62.1651,72.8529],[75.9904,62.2281,75.0802],[76.0416,62.2274,75.2118],[76.4241,62.2836,73.8919],[76.5885,62.5669,88.2692],[76.5949,62.6172,88.3694],[76.6245,62.771,105.7462],[76.6407,62.9282,114.715],[76.6411,63.0412,128.1995],[76.5774,63.0344,124.6458],[76.4885,63.0059,121.9041],[76.4053,62.9706,127.6212],[76.3363,62.9705,132.9622],[76.3046,63.0008,124.168],[76.2415,63.0298,120.6517],[76.0819,63.0624,138.7231],[75.9085,63.0927,121.0],[75.7993,63.1212,127.3575],[75.6226,63.1088,126.0],[75.5107,63.0921,131.8638],[75.3972,63.0973,143.3494],[75.2868,63.0914,140.3574],[75.1789,63.0653,140.8171],[75.0422,63.0496,135.5061],[74.7166,63.0355,117.674],[74.5311,63.0327,111.0],[74.434,63.0938,113.572],[74.3067,63.1465,137.2099],[74.2574,63.1617,139.0726],[74.208,63.1604,135.2591],[74.1719,63.1781,140.5345],[73.9584,63.1871,122.6788],[73.7442,63.1801,127.4675],[73.531,63.1788,124.8304],[73.4247,63.2065,125.5904],[73.2908,63.3084,132.5062],[73.2154,63.3263,131.4869],[73.1751,63.3746,128.4487],[73.1524,63.4114,128.8405],[72.9898,63.4174,142.0497],[72.9338,63.4105,131.9762],[72.8857,63.3618,148.1555],[72.7483,63.2907,134.0045],[72.5693,63.2752,137.5175],[72.4351,63.2841,147.4657],[72.3101,63.2859,136.8328],[72.2197,63.2954,137.2571],[72.1639,63.2576,138.6993],[72.0887,63.2434,139.1988],[71.8923,63.2314,139.0205],[71.7768,63.202,142.9699],[71.6789,63.1968,135.7927],[71.5374,63.1925,138.6451],[71.3542,63.1784,133.2388],[71.1185,63.165,136.6206]],
[[73.9851,62.4782,77.0],[73.9739,62.4776,77.0],[73.9652,62.4799,77.0],[73.9613,62.4846,77.0],[73.9656,62.4892,77.0],[73.9884,62.4919,77.0],[73.9958,62.4871,77.0],[73.9975,62.4812,77.0],[73.9851,62.4782,77.0]],
[[73.5556,61.3608,61.7838],[73.4899,61.3292,57.0575],[73.4425,61.3385,53.516],[73.4391,61.3573,69.781],[73.4797,61.4026,65.6947],[73.543,61.3902,62.8201],[73.5556,61.3608,61.7838]]]]}}