{"type":"Feature","properties":{"GID_3":"RUS.83.14.1_1","GID_0":"RUS","country":"Russia","GID_1":"RUS.83_1","province":"Zabaykal'ye","NL_NAME_1":"Забайкальскийкрай","GID_2":"RUS.83.14_1","county":"Kalganskiyrayon","NL_NAME_2":"Калганскийрайон","city":"NA","VARNAME_3":"NA","NL_NAME_3":"NA","TYPE_3":"NA","ENGTYPE_3":"NA","CC_3":"NA","HASC_3":"NA","name":"N_A.city"},
"geometry":{"type": "MultiPolygon","coordinates": [[[[119.5581,50.9389,485.1034],[119.4849,50.9437,521.3506],[119.4075,50.9363,564.6207],[119.3684,50.9435,623.5647],[119.3119,50.9433,733.0005],[119.1859,50.892,650.1037],[119.0873,50.8762,742.3148],[119.0369,50.9046,648.816],[119.0019,50.933,746.194],[119.0185,50.959,619.3301],[119.0346,50.9926,662.4042],[118.9975,51.0205,851.1102],[118.993,51.0627,716.3525],[119.0437,51.0921,606.9698],[119.1001,51.1204,753.7107],[119.1497,51.1547,804.8455],[119.1401,51.1824,912.919],[119.0961,51.1923,810.6786],[119.0699,51.2181,681.7043],[119.0135,51.2187,654.2507],[118.9929,51.1945,723.2898],[118.9609,51.1656,827.6556],[118.9059,51.1562,828.958],[118.8849,51.1955,706.3986],[118.9047,51.2054,733.9998],[118.9335,51.2406,704.1644],[118.8739,51.2637,905.1177],[118.8039,51.279,824.243],[118.7773,51.2597,814.2303],[118.7503,51.2472,1060.2856],[118.6941,51.2571,1061.7811],[118.647,51.225,909.6346],[118.5899,51.1803,928.8981],[118.5573,51.1465,1122.9037],[118.5436,51.0759,1233.4023],[118.5324,51.0326,1152.9961],[118.4684,50.9889,964.4985],[118.3858,50.9734,814.2559],[118.3539,50.9626,861.7356],[118.3444,50.9277,881.8785],[118.4163,50.9075,744.7504],[118.4712,50.8854,707.6356],[118.501,50.8416,627.8574],[118.5111,50.8042,612.8303],[118.5375,50.7619,684.3648],[118.6042,50.7338,713.1234],[118.664,50.7165,660.6387],[118.6761,50.6776,657.8746],[118.7205,50.6505,592.2865],[118.7639,50.6427,603.5847],[118.8561,50.6504,598.3918],[119.0557,50.6387,554.1245],[119.1541,50.6565,610.3344],[119.2255,50.6416,530.2848],[119.3063,50.6185,498.6876],[119.312,50.6214,498.8193],[119.319,50.6283,498.0147],[119.321,50.635,498.2338],[119.3255,50.6373,496.7961],[119.3324,50.6366,497.3846],[119.3402,50.6316,497.3295],[119.3441,50.6315,497.7663],[119.3575,50.6482,497.1154],[119.3713,50.6569,495.0931],[119.375,50.6632,496.5872],[119.3738,50.6675,495.9637],[119.3693,50.6719,496.3923],[119.3691,50.677,493.5],[119.3722,50.6811,543.5179],[119.3796,50.6848,496.2654],[119.4114,50.6878,495.908],[119.4283,50.6934,494.8914],[119.4331,50.6987,494.8616],[119.4357,50.7075,494.2027],[119.4511,50.7152,494.2524],[119.4803,50.7395,490.7438],[119.4896,50.7545,492.4208],[119.4882,50.7722,490.4447],[119.4912,50.7791,491.1029],[119.5059,50.7888,491.2843],[119.5054,50.8057,489.981],[119.5021,50.8181,489.8547],[119.489,50.8394,486.5],[119.4939,50.8439,488.8714],[119.5076,50.8472,488.5482],[119.5103,50.8604,487.7648],[119.5181,50.8639,488.6999],[119.5212,50.8827,487.689],[119.5109,50.901,486.8254],[119.5144,50.9066,487.217],[119.5347,50.9163,486.3228],[119.5416,50.9237,486.0836],[119.5498,50.929,485.8043],[119.5581,50.9389,485.1034]]]]}}