{"type":"Feature","properties":{"featurecla":"Reservoir","scalerank":7,"name":"Novosibirsk Reservoir","name_abb":"Novosibirsk Res.","name_alt":"Ob Sea","note":"Novosibirskoye Reservoir","delta":null,"dam_name":"Novosibirsk","year":1957,"admin":null,"min_zoom":5.7,"min_label":6.7},
"geometry":{"type": "Polygon","coordinates": [[[82.869245899920827,54.670891289601371,109.5],[82.880726100878974,54.66147163753314,109.5],[82.8866133834216,54.659705452770368,121.0956],[82.892206301837064,54.661766001660283,128.3845],[82.901331589778181,54.671480017855629,120.3078],[82.907218872320811,54.673834930872687,109.5],[82.913400518990557,54.677072936271117,115.5714],[82.931651094872734,54.690613686119178,109.5],[82.9416594751952,54.693851691517636,109.5],[82.968152246637032,54.695912240407552,109.5],[82.996116838714556,54.702388251204468,109.5],[83.01996033301225,54.712985359781186,122.6518],[83.034089811114541,54.728586658519163,140.4893],[83.035855995877341,54.737123218205994,131.7567],[83.034089811114541,54.773035641716064,140.8888],[83.038505273021542,54.783632750292782,137.7565],[83.047924925089717,54.793641130615271,121.53],[83.057050213030834,54.796879136013729,109.5],[83.061465674937779,54.78687075569124,109.5],[83.074417696531611,54.779806016640094,109.5],[83.213946292792,54.7456597778928,109.5],[83.232785596928409,54.731824663917621,109.5],[83.24367706963227,54.728586658519163,109.5],[83.246915075030756,54.7185782781967,110.4566],[83.264282558531534,54.702093887077325,160.9595],[83.278706400760939,54.698855881678867,177.1985],[83.273702210599708,54.728586658519163,155.3096],[83.268109292184249,54.737711946460252,186.702],[83.24367706963227,54.759494891868,109.5],[83.202466091833855,54.783632750292782,175.8312],[83.156545288001325,54.780983473148609,135.5548],[83.131524337195117,54.782455293784267,109.5],[83.1097413917874,54.7901087610897,153.4493],[83.094728821303647,54.806298788081932,159.6357],[83.0867809898711,54.824254999836967,159.9531],[83.073828968277326,54.838678842066429,155.0921],[83.044392555564173,54.844566124609059,120.033],[82.972273344416919,54.844271760481917,109.5],[82.781819754162711,54.796584771886586,109.5],[82.740020048110011,54.769503272190462,109.5],[82.68144158681082,54.7047431642215,112.3405],[82.658186820767412,54.687964408975006,109.5],[82.634932054724,54.681488398178118,109.5],[82.582240875967443,54.673834930872687,109.5],[82.571938131517811,54.668536376584314,109.5],[82.564579028339551,54.66147163753314,109.5],[82.5557481045256,54.655289990863395,109.5],[82.449188290503912,54.644398518159505,117.9522],[82.423578611443475,54.63733377910836,112.6924],[82.402090030162867,54.6246761216417,109.5],[82.382956361899289,54.605542453378121,109.5],[82.379423992373688,54.598183350199832,109.5],[82.376480351102373,54.588763698131629,113.3931],[82.372653617449714,54.5811102308262,109.5],[82.365588878398512,54.577577861300625,110.3124],[82.354991769821766,54.574928584156453,113.8688],[82.345572117753591,54.568452573359536,110.2014],[82.331442639651243,54.55373436700296,109.5],[82.3261440853629,54.545197807316129,109.5],[82.318784982184582,54.524297954289807,109.5],[82.314075156150466,54.516350122857233,109.5],[82.3049498682094,54.507519199043287,109.5],[82.284050015183027,54.493978449195225,109.5],[82.206337885620314,54.458949118066556,109.5],[82.169542369728845,54.448646373616953,109.5],[82.109492087793967,54.406257939309995,109.5],[82.043260159189344,54.376232798342556,109.5],[82.023243398544423,54.372111700562726,128.1192],[81.946708725490168,54.374172249452641,136.8744],[81.9314017908793,54.372111700562726,111.7366],[81.9152117638871,54.361220227858837,128.6358],[81.779804265406483,54.331783815145684,137.2662],[81.7418312930065,54.314416331644907,137.8134],[81.710923059657716,54.287923560203069,109.5],[81.686785201232908,54.25789841923563,109.5],[81.643513674544522,54.186956664596892,145.5255],[81.608189979288738,54.157520251883739,138.4626],[81.519586377022108,54.112188176305466,110.0],[81.494859790343071,54.103651616618635,110.0],[81.468661383028348,54.099236154711662,117.0272],[81.413320927127586,54.097764334076004,129.8372],[81.384178878541547,54.093643236296174,142.007],[81.360041020116739,54.083340491846542,111.5],[81.27909088515554,54.035064774996954,111.5],[81.248771380060987,54.003862177521,113.3227],[81.228754619416009,53.965300476866759,111.5],[81.231698260687324,53.934097879390805,111.5],[81.230815168305924,53.9229120425598,114.5004],[81.231403896560209,53.913198026364455,114.4723],[81.233758809577239,53.905250194931881,113.9784],[81.238468635611355,53.89936291238925,114.0196],[81.236702450848554,53.887293983176875,114.6297],[81.242884097518356,53.887588347303989,113.7328],[81.259662852764848,53.89936291238925,114.3079],[81.268199412451679,53.909665656838854,116.8354],[81.271437417850109,53.921145857797,119.4715],[81.275264151502824,53.976780677824877,113.4992],[81.28232889055397,53.989732699418681,114.5217],[81.299990738181862,54.002390356885343,111.5],[81.2952809121478,53.970010302900846,118.4782],[81.295575276274917,53.929388053356689,124.0517],[81.306761113105892,53.895830542863678,112.5],[81.33413697692913,53.885527798414074,126.4031],[81.325600417242356,53.906427651440424,139.1919],[81.3129427597757,53.929388053356689,134.6408],[81.306761113105892,53.9535259117815,116.7542],[81.336491889946217,54.014753650224861,114.1383],[81.348855183285764,54.030649313089981,111.5],[81.368871943930685,54.036536595632612,111.5],[81.36592830265937,54.030943677217124,113.1977],[81.36357338964234,54.028000035945809,112.5963],[81.355331194082623,54.022701481657435,111.5],[81.362101569006654,54.015931106733404,111.5],[81.356803014718309,54.013281829589204,111.5],[81.348266455031478,54.006217090538058,112.0093],[81.341496080107447,54.002390356885343,125.5678],[81.355331194082623,53.9953256178342,121.4555],[81.414792747763215,54.043601334683785,138.2626],[81.45953609508723,54.067150464854308,110.0],[81.513404730352363,54.0874615896264,110.0],[81.558148077676378,54.095115056931832,118.1198],[81.586701398008131,54.104829073127178,136.7464],[81.61172234881434,54.117192366466696,125.4448],[81.632916565967776,54.142213317272876,110.0],[81.680897918690277,54.170766637604657,145.5812],[81.697382309809655,54.187251028724035,153.073],[81.722108896488692,54.242297120497653,141.7193],[81.735355282209639,54.259370239871288,137.9472],[81.755666406981732,54.275854630990665,134.5657],[81.778921173025083,54.287629196075926,109.5],[81.827785618128985,54.30381922306816,109.5],[82.060922006817236,54.351800575790634,109.5],[82.239601031986183,54.433633803133233,109.5],[82.3226117158373,54.449529465998353,140.7458],[82.365000150144283,54.480437699347164,143.7882],[82.430937714621734,54.509285383806088,131.7382],[82.447127741614,54.532540149849467,109.5],[82.478919067344236,54.5419598019177,109.5],[82.587539430255788,54.546963992078929,109.5],[82.620802576621713,54.557561100655676,109.5],[82.651122081716267,54.572868035266509,109.5],[82.760625537009219,54.652346349592079,109.5],[82.80772379735032,54.671774381982772,109.5],[82.862181160869682,54.673834930872687,109.5],[82.869245899920827,54.670891289601371,109.5]]]}}