{"type":"Feature","properties":{"featurecla":"River","scalerank":4,"rivernum":114,"dissolve":"114River","name":"Ob8","name_alt":null,"note":null,"min_zoom":4.0,"strokeweig":0.25,"name_en":"Ob","min_label":5.0},
"geometry":{"type": "LineString","coordinates": [[85.05615234375,52.433612371869117,174.0322],[85.04150390625,52.43256256718162,167.1668],[84.984619140625,52.44306061405662,169.6078],[84.929101562500023,52.44684479374412,170.0879],[84.901123046875,52.444598699994117,160.8984],[84.829833984375,52.426385809369116,159.5789],[84.433398437499989,52.41791412968162,156.1277],[84.227294921875,52.36725494999412,149.5],[84.110253906250023,52.320331121869117,149.2144],[84.08935546875,52.31647369999412,153.6262],[84.07080078125,52.32025787968162,154.2872],[84.016503906250023,52.338251043744116,155.4547],[83.7451171875,52.37689850468162,146.7926],[83.731542968750034,52.38910553593162,147.0482],[83.721923828125,52.433465887494116,146.2531],[83.685302734375,52.48786041874412,145.6484],[83.677148437500023,52.52643463749412,147.2363],[83.685302734375,52.65912506718162,142.4467],[83.675097656249989,52.714715887494116,142.2148],[83.675097656249989,52.72431061405662,142.5357],[83.682519531250023,52.73615143436912,141.4435],[83.696386718750034,52.775018621869116,140.4721],[83.698828125000034,52.78949616093162,140.53]]}}