{"type":"Feature","properties":{"featurecla":"Lake Centerline","scalerank":4,"rivernum":114,"dissolve":"114Lake Centerline","name":"Ob7","name_alt":null,"note":null,"min_zoom":4.0,"strokeweig":0.3,"name_en":"Ob","min_label":5.0},
"geometry":{"type": "LineString","coordinates": [[83.025390625,54.845233465619117,105.484],[83.014062500000023,54.82001373905662,109.5],[82.996679687500034,54.801044012494117,109.5],[82.9677734375,54.786737371869116,109.5],[82.904541015625,54.755487371869116,109.5],[82.815039062500034,54.72980377811912,109.5],[82.7255859375,54.685565496869117,109.5],[82.641699218750034,54.63593170780662,109.5],[82.54248046875,54.603290106244117,109.5],[82.45703125,54.58295319218162,109.5],[82.402587890625,54.55182526249412,109.5],[82.346923828125,54.50372955936912,109.5],[82.28515625,54.46954987186912,109.5],[82.21630859375,54.44147369999412,109.5],[82.074804687500034,54.37274811405662,109.5],[82.01025390625,54.357049871869116,109.5],[81.92724609375,54.34198639530662,109.5],[81.853125,54.32855866093162,110.2318],[81.791406250000023,54.315204168744117,111.7693],[81.720898437500011,54.27020905155662,109.5],[81.677148437500023,54.191669012494117,110.0],[81.587792968750023,54.129999090619116,110.0],[81.534082031250023,54.10407135624412,110.0],[81.4150390625,54.06598541874412,110.5],[81.351318359375,54.04718659061912,113.9862],[81.324951171875,54.02631256718162,115.2504],[81.30859375,53.98700592655662,114.6027],[81.303320312500034,53.97089264530662,119.0839],[81.3017578125,53.93866608280662,119.038],[81.31201171875,53.90985748905662,114.2223],[81.317968750000034,53.89960358280662,117.1799],[81.334082031250034,53.885614324994116,126.4031]]}}