{"type":"Feature","properties":{"featurecla":"River","scalerank":4,"rivernum":113,"dissolve":"113River","name":"Yenisey4","name_alt":null,"note":null,"min_zoom":4.0,"strokeweig":1.0,"name_en":"Yenisey","min_label":5.0},
"geometry":{"type": "LineString","coordinates": [[87.4931640625,66.289422918744123,14.0343],[87.292871093750023,66.24274323124412,17.2377],[87.26171875,66.22614166874412,4.3849],[87.256591796875,66.20343659061912,3.5083],[87.271484375,66.17975494999412,12.7383],[87.300097656249989,66.160516668744123,3.9905],[87.329980468750023,66.149676824994117,3.7369],[87.864013671875,66.10101959843162,31.9442],[87.905664062500023,66.09027741093162,4.5841],[87.933007812500023,66.071307684369117,4.7852],[87.947851562500034,66.04205963749412,13.7489],[87.949951171875,66.00824616093162,15.7669],[87.938720703125,65.97589752811912,19.234],[87.9111328125,65.95368073124412,5.4663],[87.8720703125,65.944940496869123,14.1209],[87.794189453125,65.93744537968162,13.0983],[87.766796875000011,65.92218659061912,14.5235],[87.7578125,65.89911530155662,20.2123],[87.76123046875,65.871844793744117,17.9935],[87.783398437500011,65.818866278119117,5.4851],[87.79150390625,65.80841705936912,5.867],[87.802978515625,65.799823309369117,6.0472],[87.821044921875,65.792352606244123,6.0375],[87.858984375000034,65.78546784061912,5.847],[87.937744140625,65.783075262494123,10.2677],[87.967187500000023,65.778924871869123,5.0],[87.990478515625,65.763690496869117,6.1456],[88.037011718750023,65.687762762494117,6.1172],[88.0419921875,65.671014715619123,7.2726],[88.040625,65.65289948124412,7.2754],[88.02685546875,65.61847565311912,13.3443],[88.025097656250011,65.60553619999412,18.3214],[88.02685546875,65.56122467655662,6.9984],[88.02392578125,65.54657623905662,7.7663],[88.018847656249989,65.53607819218162,7.3733],[87.995996093750023,65.510516668744117,7.1712],[87.984765625000023,65.49371979374412,7.2758],[87.975488281250023,65.47345612186912,7.9262],[87.968847656250034,65.45197174686912,7.4107],[87.966064453125,65.431903387494117,7.5987],[87.966796875,65.41913483280662,7.8368],[87.9716796875,65.393915106244123,7.9443],[87.97265625,65.381219793744123,7.7958],[87.970703125,65.367938543744117,8.109],[87.966552734375,65.35504791874412,7.9333],[87.95458984375,65.33075592655662,7.9822],[87.894775390625,65.24799225468162,8.1941],[87.879199218749989,65.220575262494123,8.5558],[87.875390625000023,65.192254949994123,8.4232],[87.884667968750023,65.16449616093162,8.5035],[87.896582031250034,65.14105866093162,9.0791],[87.902734375000023,65.11688873905662,8.8516],[87.89453125,65.087030340619123,8.9354],[87.808398437499989,64.953973699994123,9.0818],[87.80517578125,64.93695709843162,9.4753],[87.816699218749989,64.89057037968162,10.2171],[87.817285156250023,64.878436590619117,10.1846],[87.8154296875,64.864764715619117,8.0],[87.794824218750023,64.816669012494117,10.1969]]}}