{"type":"Feature","properties":{"featurecla":"River","scalerank":4,"rivernum":113,"dissolve":"113River","name":"Yenisey2","name_alt":null,"note":null,"min_zoom":4.0,"strokeweig":0.6,"name_en":"Yenisey","min_label":5.0},
"geometry":{"type": "LineString","coordinates": [[88.33984375,62.88751862186912,19.7002],[88.440673828125,62.85822174686912,17.5],[88.465576171875,62.84271881718162,17.5],[88.482421875,62.82001373905662,17.5],[88.48974609375,62.78803131718162,18.0],[88.4951171875,62.731463934369117,37.23],[88.505273437500023,62.707538153119117,20.8522],[88.525292968750023,62.68414948124412,20.9373],[88.8056640625,62.485858465619117,32.9036],[88.833251953125,62.474969793744123,20.305],[88.96142578125,62.448114324994123,39.6176],[89.01220703125,62.42853424686912,19.5],[89.017578125,62.418231512494117,19.5],[89.023681640625,62.41046784061912,20.0],[89.026757812500023,62.40204498905662,20.0],[89.016357421875,62.36981842655662,20.0],[89.01611328125,62.35700104374412,22.7873],[89.01171875,62.34747955936912,22.5493],[89.006103515625,62.33869049686912,22.6763],[89.002197265625,62.328241278119123,20.0],[89.001074218750034,62.31220123905662,20.0],[89.00390625,62.30365631718162,20.0],[89.007714843750023,62.29633209843162,20.5],[89.009521484375,62.28351471561912,20.5],[89.017675781250034,62.26654694218162,20.5],[89.037207031250034,62.24872467655662,20.5],[89.096435546875,62.20831940311912,26.3286],[89.111718750000023,62.189325262494123,23.0661],[89.122167968750034,62.16791412968162,23.3413],[89.126220703125,62.14667389530662,23.3488],[89.1337890625,62.130731512494123,23.6528],[89.2666015625,61.96954987186912,62.6975],[89.270263671875,61.961688543744117,72.767],[89.277148437499989,61.91669342655662,75.9049],[89.2958984375,61.89923737186912,29.0474],[89.469824218750034,61.82672760624412,66.3004]]}}