{"type":"Feature","properties":{"featurecla":"River","scalerank":4,"rivernum":113,"dissolve":"113River","name":"Yenisey6","name_alt":null,"note":null,"min_zoom":4.0,"strokeweig":1.5,"name_en":"Yenisey","min_label":5.0},
"geometry":{"type": "LineString","coordinates": [[83.1767578125,70.08307526249412,42.5697],[83.33837890625,70.054217840619117,0.0],[83.4208984375,70.01850006718162,0.0],[83.488378906250034,69.95062897343162,0.3703],[83.532958984375,69.89081452030662,-1.0303],[83.56005859375,69.86737702030662,2.0797],[83.59423828125,69.849139715619117,5.6152],[83.85107421875,69.78693268436912,-1.0239],[84.005615234375,69.72772858280662,-0.8274],[84.174707031250023,69.69599030155662,-0.7856],[84.216064453125,69.68244049686912,-0.2304],[84.337597656250011,69.62164948124412,-0.5947],[84.379638671875,69.610858465619117,-0.882],[84.425878906250034,69.61066315311912,-1.118],[84.514404296875,69.630487371869123,-0.7986],[84.8095703125,69.755389715619117,11.5879],[85.15185546875,69.79901764530662,12.9463],[85.194580078125,69.79852936405662,6.3543],[85.499414062500023,69.72125885624412,5.4723],[86.068603515625,69.489764715619117,35.7893],[86.107177734375,69.46332428593162,60.1678],[86.120996093750023,69.402850653119117,-0.4103],[86.046777343750023,69.35785553593162,-0.5106],[85.947167968750023,69.319940496869123,-0.7563],[85.884521484375,69.281024481244117,13.0968],[85.879492187500034,69.268085028119117,14.0121],[85.8779296875,69.25470612186912,13.4137],[85.879199218749989,69.24103424686912,2.1666],[85.8818359375,69.227557684369117,-0.097],[85.9150390625,69.200799871869123,30.0303],[85.95654296875,69.189960028119117,27.0149],[86.043554687500034,69.180438543744117,46.3385],[86.07373046875,69.16461823124412,47.5751],[86.09375,69.13739655155662,4.2856],[86.102929687500023,69.104120184369123,-0.2258],[86.100683593750034,69.07013580936912,-0.1169],[86.08447265625,69.03363678593162,-0.4006],[86.059277343750011,69.00775787968162,-0.3327],[85.955078125,68.949090887494123,-0.2456],[85.919677734375,68.92096588749412,9.8873],[85.906152343750023,68.88739655155662,2.812],[85.9345703125,68.85065338749412,-0.2983],[85.951904296875,68.84296295780662,25.2082],[86.007910156250034,68.83368561405662,42.4956],[86.024658203125,68.82514069218162,40.8986],[86.03759765625,68.813739324994117,39.7229],[86.061914062500023,68.78681061405662,58.087],[86.09033203125,68.76605866093162,50.9436],[86.20458984375,68.72455475468162,48.8154],[86.247802734375,68.70038483280662,55.5739]]}}