{"type":"Feature","properties":{"featurecla":"River","scalerank":4,"rivernum":113,"dissolve":"113River","name":"Yenisey","name_alt":null,"note":null,"min_zoom":4.0,"strokeweig":0.4,"name_en":"Yenisey","min_label":5.0},
"geometry":{"type": "LineString","coordinates": [[90.120019531250023,60.416522528119117,64.0442],[90.174560546875,60.388544012494123,133.4855],[90.181640625,60.36933014530662,52.0117],[90.168212890625,60.361590887494117,46.0987],[90.082910156250023,60.360858465619117,70.8186],[90.064697265625,60.35614655155662,46.7003],[90.047949218750034,60.344501043744117,42.0],[90.056738281250034,60.32746002811912,53.292],[90.10107421875,60.31391022343162,55.2254],[90.181396484375,60.299823309369117,62.2974],[90.216064453125,60.287713934369123,63.1619],[90.232617187500011,60.27924225468162,63.2583],[90.24658203125,60.26911041874412,69.4927],[90.26318359375,60.26129791874412,69.5257],[90.3056640625,60.25556061405662,63.7456],[90.392822265625,60.20880768436912,67.3285],[90.641015625000023,60.007684637494123,52.4201],[90.686914062500023,59.91657135624412,61.0574],[90.72265625,59.874627996869123,55.2068],[90.774658203125,59.85016510624412,54.4304],[90.800390625000034,59.83331940311912,54.3026],[90.811425781250023,59.809442449994123,66.3038],[90.80517578125,59.79743073124412,66.1046],[90.791796874999989,59.79181549686912,52.0],[90.77978515625,59.78388092655662,55.0517],[90.777246093750023,59.764764715619123,55.4156],[90.782958984375,59.753290106244123,55.4747],[90.793847656250023,59.74433014530662,55.6351],[90.86669921875,59.70905182499412,56.0527],[90.8740234375,59.70026276249412,55.6376],[90.876074218750034,59.69708893436912,56.0832],[90.880615234375,59.69281647343162,71.7641],[90.885156250000023,59.687274481244117,67.4545],[90.887109375000023,59.67975494999412,67.1616],[90.885156250000023,59.67401764530662,69.5861],[90.876074218750034,59.66474030155662,66.2418],[90.87060546875,59.64789459843162,55.5332],[90.855859375000023,59.62274811405662,56.6739],[90.85302734375,59.60773346561912,56.8605],[90.855859375000023,59.59393952030662,61.557],[90.862207031250023,59.58356354374412,57.8592],[90.880859375,59.566766668744123,66.8188],[91.03076171875,59.47296784061912,59.5894],[91.14892578125,59.38019440311912,60.509],[91.315332031250023,59.29230377811912,58.5],[91.33251953125,59.27765534061912,58.5],[91.343017578125,59.25763580936912,58.5],[91.346435546875,59.22724030155662,72.9545],[91.35546875,59.191913153119117,82.3599],[91.379003906250034,59.17804596561912,85.3607],[91.412011718750023,59.172381903119117,84.1089],[91.44873046875,59.16144440311912,79.0459],[91.526123046875,59.10883209843162,60.0913],[91.551855468750034,59.10126373905662,74.4192],[91.597753906250034,59.09870026249412,87.8622],[91.6201171875,59.09430573124412,59.5],[91.641210937500034,59.08698151249412,59.5],[91.657324218750034,59.07758209843162,78.862],[91.665136718750034,59.06854889530662,80.6941],[91.675976562500011,59.046014715619123,60.0],[91.72607421875,58.99005768436912,61.5064],[91.739990234375,58.97028229374412,74.3676],[91.737890625000034,58.944208074994123,61.0],[91.719628906250023,58.920770574994123,61.0],[91.71044921875,58.901629949994117,61.0],[91.736230468750023,58.88837311405662,81.2323],[91.757519531250011,58.88837311405662,71.3455],[91.825878906250011,58.90204498905662,93.4869],[91.908398437500011,58.90204498905662,120.6168],[91.942773437500023,58.89716217655662,64.0],[91.973876953125,58.885028387494117,78.9946],[92.03173828125,58.85358307499412,65.0],[92.05126953125,58.839129949994117,65.5],[92.078515625000023,58.813836981244123,67.1102],[92.096093750000023,58.78986237186912,68.4806],[92.0869140625,58.77912018436912,85.0473],[92.069042968750011,58.77631256718162,84.181],[92.011132812500023,58.75739166874412,69.4951],[91.977929687500023,58.753436590619117,66.0],[91.96337890625,58.748797918744117,66.0],[91.94970703125,58.737567449994117,66.0],[92.058691406250034,58.715594793744117,76.9823],[92.080078125,58.69660065311912,66.5],[92.079687500000034,58.676629949994123,66.5],[92.057861328125,58.637323309369123,66.5],[92.05224609375,58.617450262494117,67.0],[92.054882812500011,58.60785553593162,67.0],[92.0732421875,58.57306549686912,75.4042],[92.07763671875,58.54730866093162,77.3059],[92.086816406250023,58.51581452030662,70.8757],[92.094482421875,58.50787994999412,73.4894],[92.124121093750034,58.50202057499412,67.5],[92.133886718750034,58.49469635624412,76.5212],[92.140039062500023,58.48468659061912,77.6001],[92.142187500000034,58.473749090619123,68.0],[92.21875,58.475702215619123,68.0],[92.272363281250023,58.470331121869123,68.0],[92.298583984375,58.44953034061912,68.5],[92.293847656250023,58.43598053593162,68.5],[92.282128906250023,58.42853424686912,68.5],[92.272705078125,58.41962311405662,68.5],[92.275,58.401727606244123,69.0],[92.284912109375,58.391961981244123,69.0],[92.300390625000034,58.386590887494123,69.0],[92.317578125000011,58.38275787968162,69.2579],[92.350830078125,58.37042877811912,80.6508],[92.390380859375,58.36115143436912,82.3299],[92.408398437500011,58.35394928593162,85.6684],[92.424414062500034,58.344842840619123,93.6722],[92.4296875,58.339715887494123,98.6863],[92.427832031250034,58.30255768436912,70.0],[92.425878906250034,58.29181549686912,70.0],[92.427978515625,58.28180573124412,70.0],[92.439160156250011,58.267938543744123,70.5],[92.44970703125,58.26154205936912,70.5],[92.485595703125,58.247430731244123,80.7514],[92.497802734375,58.24469635624412,84.4609],[92.518652343750034,58.23578522343162,71.125],[92.5556640625,58.19196198124412,72.0],[92.572851562500034,58.17584869999412,72.5],[92.60693359375,58.16132233280662,72.5],[92.737597656249989,58.130145574994117,74.0],[92.758691406250023,58.128924871869117,74.0],[92.778710937500023,58.133075262494117,74.0],[92.810302734375,58.152460028119123,75.0838],[92.830322265625,58.156366278119123,77.0051],[92.850976562500023,58.156122137494123,74.0],[92.900634765625,58.140252996869123,74.0],[92.93603515625,58.13324616093162,74.0],[92.9697265625,58.12250397343162,74.0],[92.998046875,58.100116278119117,74.0]]}}