{"type":"Feature","properties":{"featurecla":"River","scalerank":4,"rivernum":113,"dissolve":"113River","name":"Yenisey5","name_alt":null,"note":null,"min_zoom":4.0,"strokeweig":1.25,"name_en":"Yenisey","min_label":5.0},
"geometry":{"type": "LineString","coordinates": [[86.247802734375,68.70038483280662,55.5739],[86.288671875000034,68.667743231244117,8.5419],[86.305761718750034,68.64935944218162,0.0058],[86.357177734375,68.56525299686912,0.543],[86.367919921875,68.529169012494123,0.5101],[86.362597656249989,68.49518463749412,1.3994],[86.3349609375,68.459588934369123,0.382],[86.32958984375,68.44232819218162,0.7796],[86.34033203125,68.41962311405662,0.6548],[86.365625,68.388544012494123,0.5593],[86.393945312500023,68.36066315311912,0.6993],[86.4326171875,68.341669012494123,6.6962],[86.522070312500034,68.32196686405662,27.9221],[86.56396484375,68.30744049686912,35.9317],[86.565820312500023,68.29486725468162,9.3584],[86.57958984375,68.27496979374412,0.7145],[86.584716796875,68.26337311405662,0.1883],[86.584228515625,68.24738190311912,1.1647],[86.577246093750034,68.23187897343162,17.2998],[86.566699218749989,68.218036199994117,27.136],[86.555419921875,68.20673248905662,25.8169],[86.525976562500034,68.18781159061912,33.9524],[86.420800781250023,68.14850494999412,46.1153],[86.38818359375,68.06464264530662,1.0037],[86.391699218750034,68.026239324994123,0.905],[86.4267578125,67.99433014530662,0.712],[86.502197265625,67.94989655155662,32.3305],[86.537841796875,67.92267487186912,42.837],[86.56875,67.892450262494123,1.0019],[86.580761718750011,67.868768621869123,0.8375],[86.572265625,67.854022528119117,0.9694],[86.550537109375,67.84638092655662,1.0468],[86.499902343750023,67.84308502811912,50.0158],[86.478759765625,67.83942291874412,56.3079],[86.436132812500034,67.82428619999412,66.2929],[86.3779296875,67.792743231244117,0.6586],[86.3525390625,67.77277252811912,0.5545],[86.268457031250023,67.68463776249412,1.3349],[86.25390625,67.661395574994117,3.4754],[86.255468750000034,67.615741278119117,2.2969],[86.334375,67.557977606244123,1.7222],[86.35302734375,67.51788971561912,2.3608],[86.351953125000023,67.493182684369117,1.598],[86.354882812500023,67.474383856244117,4.2045],[86.364990234375,67.459247137494117,1.1766],[86.386132812500023,67.44537994999412,2.1346],[86.446044921875,67.43451569218162,2.2673],[86.574316406250034,67.44159577030662,0.7261],[86.628515625000034,67.41095612186912,1.3173],[86.644140625000034,67.36652252811912,16.9904],[86.630078125000011,67.31940338749412,1.0525],[86.604882812500023,67.27240631718162,0.7379],[86.5875,67.228534246869117,15.9773],[86.587304687500023,67.203241278119123,17.5451],[86.596289062500034,67.18585846561912,17.9514],[86.612060546875,67.17413971561912,16.7702],[86.67578125,67.152215887494123,23.3001],[86.69482421875,67.14215729374412,22.6177],[86.708984375,67.127069403119123,22.0769],[86.7119140625,67.094745184369117,0.3225],[86.674218750000023,67.026483465619123,2.6418],[86.666894531250023,66.99115631718162,4.4564],[86.67626953125,66.959100653119123,16.3225],[86.747656250000034,66.820575262494117,0.4621],[86.75146484375,66.796258856244123,0.5496],[86.742431640625,66.77643463749412,0.0],[86.724609375,66.76154205936912,0.2913],[86.7021484375,66.751727606244117,0.7642],[86.6767578125,66.74872467655662,0.7768],[86.626708984375,66.753436590619117,18.9221],[86.6015625,66.74921295780662,15.3269],[86.49169921875,66.706805731244117,2.6604],[86.3720703125,66.679706121869117,1.9748],[86.31884765625,66.658954168744117,0.7838],[86.294335937500023,66.64459869999412,0.5621],[86.273193359375,66.62567780155662,0.9422],[86.265039062500023,66.610711981244123,0.4264],[86.266699218750034,66.597674871869117,0.6401],[86.275390625,66.58539459843162,0.8007],[86.288281250000011,66.57257721561912,0.1438],[86.345312500000034,66.545184637494117,0.0324],[86.410449218749989,66.54999420780662,0.1211],[86.53564453125,66.59223053593162,45.3167],[86.666113281250034,66.61896393436912,9.3106],[86.835205078125,66.625262762494117,2.3707],[86.87353515625,66.61969635624412,0.0],[86.91064453125,66.60956452030662,1.4317],[87.099853515625,66.529315496869117,1.7122],[87.174707031250023,66.478290106244117,1.5936],[87.213134765625,66.45807526249412,1.4831],[87.485253906250023,66.38092682499412,2.4572],[87.50927734375,66.36810944218162,2.6322],[87.525097656250011,66.34808991093162,11.213],[87.528906250000034,66.327997137494123,11.2192],[87.523681640625,66.311542059369117,3.2678],[87.51123046875,66.29865143436912,3.4378],[87.4931640625,66.289422918744123,14.0343]]}}