{"type":"Feature","properties":{"GID_2":"RUS.60.7_1","GID_0":"RUS","country":"Russia","GID_1":"RUS.60_1","province":"Sakha","NL_NAME_1":"РеспубликаСаха","county":"Churapchinskiyrayon","VARNAME_2":"NA","NL_NAME_2":"Чурапчинскийрайон","TYPE_2":"Raion","ENGTYPE_2":"District","CC_2":"R65003","HASC_2":"RU.SK.CH","name":"Churapchinskiyrayon.county"},
"geometry":{"type": "MultiPolygon","coordinates": [[[[133.1009,61.2171,267.0478],[133.1659,61.2231,318.1213],[133.2772,61.2387,290.606],[133.392,61.2596,316.9785],[133.4855,61.2399,327.8301],[133.5523,61.2525,330.3282],[133.6412,61.2829,228.2527],[133.7508,61.3101,303.2569],[133.8956,61.3252,185.7816],[134.0181,61.342,237.3145],[134.1472,61.3415,198.3571],[134.3971,61.3519,198.2164],[134.5274,61.388,158.4884],[134.5335,61.4688,258.2767],[134.4592,61.5168,178.3095],[134.3896,61.5728,193.8198],[134.3952,61.6835,277.1214],[134.3507,61.7124,248.4506],[134.2612,61.7384,214.6346],[134.2111,61.7913,274.8479],[134.0475,61.8236,310.1297],[133.9571,61.83,273.7411],[133.8832,61.8241,311.2309],[133.7859,61.8558,229.3134],[133.5385,61.8513,137.0382],[133.4011,61.9244,232.452],[133.3619,61.8545,206.4601],[133.299,61.8323,211.2515],[133.1934,61.8259,225.3374],[133.1487,61.8492,251.2692],[133.1054,61.9088,257.128],[132.984,61.9234,241.1565],[132.9603,62.025,243.3011],[132.9271,62.1136,162.8204],[132.864,62.183,185.3405],[132.7296,62.2003,203.6685],[132.6918,62.2186,187.4488],[132.7256,62.2644,215.0133],[132.6839,62.303,204.3988],[132.661,62.3268,212.6028],[132.7269,62.371,215.4396],[132.7566,62.4178,213.0775],[132.6783,62.458,214.0511],[132.573,62.4721,205.5641],[132.5076,62.4725,203.0992],[132.4315,62.4824,207.1784],[132.2406,62.4364,181.8502],[132.1796,62.4063,206.84],[132.125,62.3665,187.6672],[132.0558,62.3262,239.8586],[131.9152,62.2977,248.5846],[131.7745,62.3035,231.096],[131.6504,62.3286,221.4931],[131.4921,62.3263,187.9495],[131.4324,62.3059,157.8819],[131.371,62.288,202.7663],[131.4181,62.2639,226.9174],[131.432,62.2254,209.2835],[131.4611,62.1823,211.7429],[131.5339,62.1572,214.1963],[131.5548,62.1392,231.6128],[131.4958,62.0825,221.4354],[131.5884,62.0476,258.5811],[131.6028,62.0261,245.7232],[131.5882,61.9751,240.4002],[131.5336,61.9174,232.2485],[131.5413,61.8945,233.4578],[131.6611,61.85,232.0869],[131.6607,61.7393,244.7536],[131.6295,61.6914,243.3195],[131.7088,61.6614,224.3209],[131.8513,61.6414,241.6769],[131.8753,61.6114,251.8558],[131.8715,61.587,257.3251],[131.9199,61.5694,263.3301],[131.9573,61.5433,237.4445],[131.9485,61.5174,274.2144],[131.9144,61.4912,271.4821],[131.9252,61.4675,278.3604],[131.9631,61.4452,262.0],[132.0337,61.4341,289.1705],[132.0818,61.4366,348.447],[132.1181,61.456,345.8362],[132.1653,61.4879,349.9399],[132.2101,61.5133,236.6693],[132.2778,61.517,223.3479],[132.3494,61.5147,182.1271],[132.4305,61.5313,301.6799],[132.5469,61.6273,274.7447],[132.9043,61.6287,222.9693],[132.9993,61.6055,171.8051],[133.0808,61.5594,136.1193],[133.1244,61.4998,275.9315],[133.1245,61.4408,322.206],[133.0708,61.3942,327.1794],[132.9964,61.359,271.749],[132.9417,61.2839,287.9128],[132.9544,61.2386,237.9137],[133.0349,61.2205,283.9433],[133.1009,61.2171,267.0478]]]]}}