{"type":"Feature","properties":{"GID_2":"RUS.12.3_1","GID_0":"RUS","country":"Russia","GID_1":"RUS.12_1","province":"Chukot","NL_NAME_1":"ЧукотскийАОк","county":"Bilibinskiyrayon","VARNAME_2":"NA","NL_NAME_2":"Билибинскийрайон","TYPE_2":"Raion","ENGTYPE_2":"District","CC_2":"R70010","HASC_2":"RU.CK.BI","name":"Bilibinskiyrayon.county"},
"geometry":{"type": "MultiPolygon","coordinates": [[[[170.9022,67.0608,632.6359],[170.9638,67.0888,629.1537],[170.8827,67.1312,669.7202],[170.7997,67.1481,620.2374],[170.6993,67.1579,582.0105],[170.6395,67.1787,878.5513],[170.5822,67.2085,627.431],[170.47,67.2101,802.0368],[170.4548,67.2484,908.7274],[170.3804,67.2621,879.7902],[170.3151,67.2671,756.8508],[170.3012,67.3184,792.1953],[170.2492,67.3428,751.3409],[170.1466,67.3674,1092.6886],[170.0709,67.3964,1080.2775],[170.1112,67.4288,884.9],[170.1116,67.4587,1182.2119],[169.9832,67.4551,1077.0686],[169.9082,67.4904,980.7903],[169.8201,67.5086,1043.9873],[169.7722,67.4867,805.6891],[169.5458,67.4745,760.7894],[169.4577,67.4933,915.1551],[169.4149,67.5373,658.5281],[169.2881,67.5396,673.0226],[169.1252,67.5745,946.0159],[169.0354,67.6226,971.616],[168.9664,67.6338,780.4642],[168.6925,67.5806,1011.5902],[168.5859,67.5778,649.1932],[168.4572,67.62,1289.0782],[168.373,67.6718,1086.2316],[168.2121,67.6843,830.9953],[168.0662,67.7394,668.8808],[168.0266,67.7678,964.8467],[167.9759,67.8194,686.4172],[167.8524,67.8207,533.7027],[167.7642,67.8474,734.9083],[167.7435,67.8781,698.001],[167.6394,67.9158,717.4483],[167.512,67.9153,706.8111],[167.4455,67.9523,543.5455],[167.4296,67.9898,620.1321],[167.3344,68.0198,516.9483],[167.3028,68.0643,490.6735],[167.2808,68.1097,673.9657],[167.3564,68.1597,676.6293],[167.5356,68.2213,606.7881],[167.6378,68.2651,707.1224],[167.6407,68.2949,780.9734],[167.6926,68.374,884.0154],[167.5804,68.3443,786.4411],[167.4234,68.3398,542.5419],[167.2816,68.3729,772.0146],[167.0875,68.437,845.7052],[167.0418,68.5082,434.873],[167.1776,68.5506,558.1796],[167.1195,68.5868,416.2428],[167.2125,68.6525,410.5499],[167.2947,68.6913,447.7718],[167.4334,68.7336,575.7819],[167.4685,68.7812,215.6738],[167.381,68.8861,170.4838],[167.2752,68.9631,309.8045],[167.216,69.0189,181.6744],[167.0953,69.0523,217.9837],[166.976,69.0723,152.9056],[166.9118,69.1272,362.852],[167.0004,69.1827,113.6186],[167.1477,69.2641,59.5428],[167.3254,69.3249,3.6722],[167.4454,69.3834,25.297],[167.4519,69.4311,22.4363],[167.3155,69.4773,1.3622],[167.2077,69.5206,1.0593],[167.1586,69.5325,0.4605],[167.15,69.5313,0.0],[167.1417,69.5271,0.0],[167.1292,69.5271,0.0],[167.1099,69.5172,0.8966],[167.1005,69.5162,0.0],[167.0896,69.5104,1.138],[167.0771,69.5104,0.0],[167.0688,69.5062,1.0984],[167.0625,69.5062,0.0],[167.05,69.5,0.9048],[167.0422,69.4995,0.0],[167.038,69.4974,0.0],[167.0391,69.4943,0.5],[167.0375,69.4938,0.9374],[167.0083,69.4917,0.0],[166.9917,69.4833,0.9846],[166.9854,69.4833,0.5282],[166.9708,69.4792,1.0344],[166.9646,69.4792,0.0],[166.9604,69.4771,0.852],[166.9187,69.4771,0.0],[166.913,69.4745,0.0],[166.9141,69.4714,0.9485],[166.9083,69.4688,0.0],[166.9047,69.4693,0.0],[166.8979,69.4771,0.3105],[166.8984,69.4786,0.0],[166.9042,69.4812,0.0],[166.912,69.4818,0.0],[166.9083,69.4854,0.0],[166.8938,69.4854,0.5635],[166.8896,69.4875,0.0],[166.8667,69.4875,0.7428],[166.8625,69.4896,0.0],[166.8562,69.4896,0.0],[166.8521,69.4875,0.5096],[166.8146,69.4875,0.0],[166.8104,69.4854,0.3338],[166.8,69.4854,0.0],[166.7937,69.4833,0.6953],[166.7896,69.4854,0.0],[166.7734,69.4859,0.0],[166.7713,69.4891,0.0],[166.7745,69.4912,0.1353],[166.7688,69.4917,0.181],[166.7583,69.4958,0.2081],[166.7479,69.4958,0.0],[166.7437,69.4979,0.0],[166.7292,69.4979,0.2176],[166.725,69.5,0.1723],[166.7167,69.5,0.3424],[166.7021,69.4958,0.9033],[166.6958,69.4958,0.0],[166.6875,69.4917,0.677],[166.6797,69.4912,0.0],[166.6807,69.488,1.3527],[166.6776,69.487,0.0],[166.6787,69.4838,1.414],[166.6755,69.4828,0.0],[166.6755,69.4797,0.0],[166.6776,69.4776,0.0],[166.6833,69.4771,0.0],[166.6849,69.4755,9.92],[166.6708,69.4688,21.7002],[166.6646,69.4688,0.0],[166.6604,69.4667,0.0],[166.6417,69.4667,0.0],[166.6375,69.4646,1.4356],[166.6229,69.4646,2.0842],[166.6187,69.4667,0.0],[166.6125,69.4667,0.0],[166.6062,69.4646,1.3521],[166.6021,69.4667,0.0],[166.5875,69.4667,0.0],[166.5833,69.4646,0.0],[166.5771,69.4646,2.5204],[166.5755,69.4661,1.33],[166.5813,69.4688,2.0121],[166.6104,69.4688,0.0],[166.6167,69.4708,1.8869],[166.6229,69.4688,0.0],[166.6271,69.4708,0.0],[166.6438,69.4708,0.3387],[166.6479,69.4729,0.9379],[166.6542,69.4729,0.0],[166.6557,69.4745,0.0],[166.6396,69.475,0.0],[166.6354,69.4771,0.6176],[166.625,69.4771,1.3646],[166.6208,69.4792,1.4343],[166.6109,69.4797,1.8262],[166.6125,69.4812,0.5249],[166.6203,69.4818,1.1021],[166.6245,69.4849,0.0],[166.6172,69.4859,1.1841],[166.6141,69.4912,0.0],[166.6042,69.4938,0.2815],[166.5838,69.4932,1.365],[166.5838,69.4901,1.565],[166.5995,69.487,0.0],[166.6016,69.4849,0.0],[166.6,69.4833,0.7602],[166.5813,69.4875,1.5181],[166.5714,69.4922,0.8695],[166.5771,69.4958,0.0],[166.5896,69.4958,0.185],[166.5938,69.4979,0.0],[166.6021,69.4979,1.1928],[166.6062,69.4958,0.0],[166.6167,69.5,0.0],[166.6203,69.4974,1.4219],[166.6172,69.4943,1.1987],[166.6193,69.4922,0.0],[166.6245,69.4912,0.9378],[166.6318,69.4838,0.0],[166.6479,69.4792,0.0],[166.6563,69.4792,0.0],[166.662,69.4818,0.0],[166.6609,69.4849,1.1556],[166.6641,69.4859,0.6522],[166.663,69.4891,0.699],[166.6667,69.4917,0.0],[166.662,69.4974,0.8944],[166.6568,69.4974,1.0686],[166.6578,69.4943,0.8972],[166.6563,69.4938,0.6932],[166.6375,69.4938,0.0],[166.6333,69.4917,0.4522],[166.6297,69.4943,0.6984],[166.6328,69.4974,0.5838],[166.6271,69.4979,0.7689],[166.6255,69.4995,1.3063],[166.6354,69.5,1.1273],[166.6417,69.4979,0.0],[166.6458,69.5,0.9234],[166.6687,69.5,0.0],[166.6729,69.5021,0.3249],[166.6854,69.5021,0.0],[166.6896,69.5042,2.019],[166.7083,69.5042,0.0],[166.7141,69.5078,0.3343],[166.7099,69.512,0.9439],[166.7,69.5146,0.0],[166.6958,69.5125,1.6413],[166.6771,69.5125,0.0],[166.6625,69.5083,2.2395],[166.6333,69.5062,0.0],[166.6292,69.5042,2.7305],[166.6187,69.5042,0.0],[166.6146,69.5021,2.6884],[166.5958,69.5021,0.0],[166.5917,69.5,2.7713],[166.5625,69.5,0.0],[166.5583,69.4979,2.0809],[166.55,69.5,0.0],[166.5458,69.4979,2.6136],[166.4917,69.4979,0.9331],[166.4875,69.4958,2.9332],[166.4688,69.4958,2.9786],[166.4646,69.4979,0.0],[166.4083,69.4979,19.0514],[166.4042,69.5,0.0],[166.3458,69.5,16.692],[166.3417,69.5021,0.0],[166.3083,69.5021,26.7933],[166.3042,69.5042,0.0],[166.2646,69.5042,20.6847],[166.2604,69.5062,0.0],[166.2542,69.5042,23.0268],[166.25,69.5062,5.4692],[166.2167,69.5062,35.2074],[166.2125,69.5083,0.0],[166.1917,69.5083,25.4944],[166.1875,69.5104,0.0],[166.1708,69.5104,25.8976],[166.1667,69.5125,0.0],[166.1521,69.5125,20.7507],[166.1479,69.5146,0.0],[166.1375,69.5146,2.4827],[166.1333,69.5167,0.0],[166.1187,69.5167,10.6555],[166.1146,69.5188,0.0],[166.0917,69.5208,27.4709],[166.0875,69.5229,3.2977],[166.0771,69.5229,34.6931],[166.0729,69.525,2.2008],[166.0646,69.525,11.4575],[166.0521,69.5292,0.0],[166.0292,69.5313,18.2417],[166.0104,69.5375,0.0],[165.9875,69.5396,11.6315],[165.9812,69.5437,0.0],[165.9708,69.5437,15.4577],[165.9604,69.5479,0.0],[165.9563,69.5479,2.5634],[165.9521,69.55,0.0],[165.9417,69.55,6.3018],[165.9312,69.5542,0.0],[165.9208,69.5542,16.5705],[165.9167,69.5563,0.0],[165.9021,69.5563,37.305],[165.8896,69.5604,13.8921],[165.875,69.5604,34.4944],[165.8708,69.5625,4.5259],[165.8604,69.5625,13.6802],[165.8562,69.5646,0.0],[165.8458,69.5646,5.1063],[165.8417,69.5667,0.0],[165.8208,69.5667,12.8306],[165.8167,69.5687,0.2295],[165.8083,69.5687,8.0142],[165.8042,69.5708,0.0],[165.7667,69.5708,0.37],[165.7604,69.5687,1.0473],[165.7563,69.5708,0.1148],[165.7396,69.5708,1.8154],[165.7354,69.5729,0.0],[165.7292,69.5729,0.0],[165.725,69.5708,18.6555],[165.7188,69.5729,0.0],[165.7042,69.5729,0.0],[165.6979,69.5708,21.1807],[165.6938,69.5729,0.0],[165.6687,69.5729,0.0],[165.6625,69.5708,18.4816],[165.6583,69.5729,0.0],[165.65,69.5729,0.0],[165.6458,69.5708,35.8505],[165.6333,69.5708,32.5835],[165.6271,69.5729,0.0],[165.6208,69.5708,16.9898],[165.6146,69.5729,0.0],[165.6104,69.5708,23.8833],[165.55,69.5708,0.0],[165.5458,69.5687,1.5259],[165.5417,69.5708,0.0],[165.5333,69.5708,0.0],[165.5292,69.5687,13.9458],[165.5146,69.5687,34.4659],[165.5083,69.5708,0.0],[165.5042,69.5687,35.1896],[165.5,69.5708,0.0],[165.4417,69.5708,1.2259],[165.4375,69.5729,0.0],[165.4167,69.5729,10.7007],[165.4125,69.575,0.0],[165.3896,69.575,17.5591],[165.3854,69.5771,0.0],[165.3708,69.5771,1.5294],[165.3667,69.5792,0.0],[165.3521,69.5792,5.3274],[165.3479,69.5813,0.0],[165.325,69.5813,4.8767],[165.3146,69.5854,0.0],[165.275,69.5854,4.0892],[165.2708,69.5875,0.0],[165.2646,69.5854,2.1256],[165.25,69.5854,1.4319],[165.2437,69.5875,0.0],[165.2292,69.5833,0.0],[165.2188,69.5833,0.725],[165.2161,69.5797,0.6257],[165.2083,69.5792,0.0],[165.2047,69.5828,0.6733],[165.2104,69.5854,1.0166],[165.2167,69.5854,0.0],[165.2182,69.587,1.2714],[165.2083,69.5875,1.6442],[165.2042,69.5854,2.0412],[165.1917,69.5854,0.0],[165.1875,69.5833,2.0636],[165.1812,69.5833,0.0],[165.1771,69.5813,1.9688],[165.1667,69.5813,0.0],[165.1625,69.5792,3.8469],[165.1438,69.5792,0.0],[165.1292,69.575,33.5614],[165.1125,69.575,0.0],[165.1083,69.5729,48.1158],[165.0771,69.5729,0.0],[165.0729,69.5708,15.015],[165.0625,69.5708,0.0],[165.0583,69.5687,46.6187],[165.0271,69.5687,0.0],[165.0229,69.5667,15.3879],[165.0104,69.5667,0.0],[165.0063,69.5646,17.5507],[164.9896,69.5646,0.0],[164.9854,69.5625,20.3466],[164.9604,69.5625,0.0],[164.9563,69.5604,18.8036],[164.9333,69.5604,0.0],[164.9292,69.5583,34.0174],[164.9229,69.5604,0.0],[164.9146,69.5604,0.0],[164.9104,69.5583,18.3983],[164.9042,69.5604,0.0],[164.9,69.5583,20.5545],[164.8625,69.5583,36.2445],[164.8562,69.5604,0.0],[164.85,69.5583,38.5693],[164.8458,69.5604,4.5172],[164.8188,69.5604,12.4415],[164.8146,69.5625,0.0],[164.7979,69.5625,9.2798],[164.7937,69.5646,0.0],[164.7667,69.5646,7.4769],[164.7604,69.5667,0.0],[164.7542,69.5646,0.0],[164.75,69.5667,1.0449],[164.7354,69.5667,2.1931],[164.7312,69.5687,0.0],[164.7146,69.5687,6.5748],[164.7104,69.5708,0.0],[164.7042,69.5687,10.0345],[164.7,69.5708,0.0],[164.6771,69.5708,18.6135],[164.6729,69.5729,0.0],[164.6521,69.5729,22.6659],[164.6479,69.575,0.0],[164.6271,69.575,16.1679],[164.6229,69.5771,0.0],[164.6,69.5771,17.538],[164.5958,69.5792,0.0],[164.5875,69.5792,11.7679],[164.5833,69.5813,0.0],[164.5604,69.5813,24.1056],[164.55,69.5854,2.1625],[164.5396,69.5854,4.8034],[164.5297,69.588,18.9054],[164.525,69.5917,0.0],[164.5021,69.5938,28.3983],[164.4974,69.5974,0.0],[164.4875,69.6,0.81],[164.4729,69.6,0.6099],[164.4667,69.6042,0.0],[164.4479,69.6,7.6891],[164.4375,69.6042,0.2635],[164.4208,69.6042,0.0],[164.4193,69.6057,1.2759],[164.4287,69.6068,1.0358],[164.437,69.612,0.2789],[164.4349,69.6141,0.0],[164.4292,69.6146,0.9719],[164.4187,69.6188,0.0],[164.3963,69.6234,10.2293],[164.3917,69.6271,0.0],[164.3833,69.6271,11.6418],[164.3786,69.6307,0.0],[164.3646,69.6333,8.497],[164.3599,69.637,0.0],[164.3521,69.6396,0.0],[164.3313,69.6438,10.6691],[164.3286,69.6474,0.0],[164.3062,69.6521,1.2713],[164.3,69.6563,0.0],[164.2917,69.6563,0.5808],[164.2792,69.6604,0.0],[164.2688,69.6604,17.1303],[164.2672,69.662,0.0],[164.2703,69.663,0.0],[164.2688,69.6646,0.0],[164.2625,69.6625,2.8773],[164.2589,69.663,8.873],[164.2589,69.6661,1.4276],[164.262,69.6672,0.0],[164.2599,69.6703,0.7992],[164.2542,69.6708,1.9514],[164.2495,69.6745,0.0],[164.2422,69.6755,0.0],[164.2307,69.6828,0.0],[164.2234,69.6839,0.0],[164.2188,69.6875,0.0],[164.213,69.688,3.2499],[164.2099,69.6911,0.0],[164.2026,69.6922,3.6441],[164.1995,69.6974,0.5145],[164.1839,69.7005,8.2308],[164.187,69.7037,0.0],[164.1812,69.7042,3.0588],[164.1776,69.7068,6.7308],[164.1755,69.712,44.1852],[164.1787,69.7141,0.0],[164.1625,69.7146,140.9624],[164.1583,69.7125,203.6659],[164.1401,69.7099,350.9551],[164.1411,69.7068,259.196],[164.1396,69.7063,269.5283],[164.1297,69.7068,304.6595],[164.1266,69.712,373.1667],[164.1208,69.7125,366.4911],[164.1193,69.7141,307.328],[164.125,69.7167,226.6314],[164.1563,69.7146,162.5322],[164.1604,69.7167,75.3503],[164.1682,69.7172,43.5316],[164.1672,69.7203,64.67],[164.1687,69.7208,67.0098],[164.1766,69.7214,0.0],[164.1667,69.725,166.5284],[164.1563,69.725,252.5889],[164.1521,69.7271,351.3654],[164.1479,69.725,293.3017],[164.1339,69.7234,255.4738],[164.1297,69.7286,213.4593],[164.1391,69.7297,227.2458],[164.138,69.7328,127.3642],[164.1396,69.7333,109.0848],[164.1474,69.7338,90.9693],[164.137,69.7453,0.0],[164.1292,69.7479,0.0],[164.1062,69.7479,3.7141],[164.1021,69.75,0.0],[164.0562,69.75,24.8325],[164.05,69.7521,0.0],[164.0458,69.75,29.7918],[164.0375,69.75,37.9477],[164.0333,69.7521,0.0],[164.025,69.7521,46.6598],[164.0208,69.7542,15.6362],[164.0125,69.7542,0.0],[164.0083,69.7521,49.657],[163.9958,69.7521,0.0],[163.9917,69.75,26.6732],[163.9839,69.7495,0.0],[163.9912,69.7464,38.2194],[163.9854,69.7438,0.0],[163.9672,69.7412,0.0],[163.963,69.7391,0.0],[163.9641,69.7359,48.3344],[163.9568,69.7328,0.0],[163.9578,69.7297,0.0],[163.9203,69.7109,13.1835],[163.913,69.7099,0.0],[163.9021,69.7042,3.9789],[163.8943,69.7037,0.0],[163.8792,69.6958,15.4179],[163.8729,69.6958,0.0],[163.8662,69.6922,7.3802],[163.8583,69.6917,0.0],[163.8542,69.6896,0.0],[163.8479,69.6896,0.0],[163.8396,69.6854,20.2959],[163.8292,69.6854,0.0],[163.8146,69.6813,1.4208],[163.8083,69.6813,0.0],[163.8042,69.6792,12.5573],[163.7917,69.6792,0.0],[163.7875,69.6771,9.0286],[163.7583,69.6771,0.0],[163.7521,69.675,18.6349],[163.7458,69.6771,0.0],[163.7417,69.675,1.3647],[163.7188,69.675,0.0],[163.7146,69.6729,45.9796],[163.6833,69.6729,0.0],[163.6792,69.6708,30.7788],[163.5583,69.6708,9.846],[163.5542,69.6729,0.0],[163.5458,69.6729,0.0],[163.5396,69.6708,18.2892],[163.5354,69.6729,4.6483],[163.5021,69.6729,16.8403],[163.4979,69.675,0.0],[163.4896,69.6729,28.1809],[163.4792,69.6771,0.0],[163.4708,69.675,77.1829],[163.4667,69.6771,71.7929],[163.4625,69.6771,89.6938],[163.4578,69.6807,36.2041],[163.4396,69.6854,14.2848],[163.4187,69.6854,20.233],[163.4005,69.6901,14.2836],[163.3958,69.6937,10.5848],[163.3813,69.6937,79.2011],[163.3687,69.6979,53.5421],[163.3583,69.6979,49.2856],[163.3542,69.7,7.3319],[163.3458,69.7,38.01],[163.3417,69.7021,0.0],[163.3313,69.7021,25.4708],[163.3271,69.7042,0.0],[163.3,69.7042,75.4711],[163.2958,69.7021,94.7213],[163.2917,69.7042,60.6425],[163.2708,69.7042,0.0],[163.2667,69.7021,4.3152],[163.2312,69.7021,0.0],[163.2271,69.7,57.77],[163.2146,69.7,60.7026],[163.2104,69.6979,177.1972],[163.1979,69.6979,97.7023],[163.1964,69.6974,55.7575],[163.1974,69.6943,197.1618],[163.1958,69.6937,196.9902],[163.1854,69.6937,108.3486],[163.1771,69.6896,135.7293],[163.1479,69.6875,0.0],[163.138,69.6849,0.0],[163.1313,69.6813,74.9202],[163.125,69.6813,21.2721],[163.1193,69.6787,107.453],[163.1203,69.6755,185.9581],[163.1187,69.675,203.6387],[163.1104,69.675,127.6491],[163.1042,69.6771,0.0],[163.0896,69.6729,49.2679],[163.0625,69.6708,0.0],[163.0583,69.6687,27.7575],[163.0521,69.6708,0.0],[163.0437,69.6708,0.0],[163.0396,69.6687,28.2349],[163.0292,69.6687,0.0],[163.025,69.6667,7.7446],[162.9979,69.6625,0.0],[162.9937,69.6604,20.127],[162.9833,69.6604,0.0],[162.975,69.6563,27.9924],[162.9625,69.6563,0.0],[162.9583,69.6542,23.7226],[162.9167,69.6542,0.0],[162.8932,69.6422,0.0],[162.8875,69.6417,0.0],[162.8807,69.638,0.0],[162.8729,69.6375,0.0],[162.8687,69.6354,17.9754],[162.8313,69.6354,28.0306],[162.8271,69.6375,0.0],[162.8104,69.6375,23.9483],[162.8062,69.6396,0.0],[162.7875,69.6396,32.9174],[162.7792,69.6354,30.3144],[162.7667,69.6354,0.0],[162.7625,69.6333,31.4177],[162.75,69.6333,41.7364],[162.7458,69.6354,7.5376],[162.7292,69.6354,24.3115],[162.7229,69.6396,0.0],[162.7146,69.6375,19.4175],[162.7083,69.6417,0.0],[162.6729,69.65,18.3212],[162.6667,69.6542,0.0],[162.6458,69.6583,40.7842],[162.6396,69.6646,0.0],[162.6229,69.6646,86.1786],[162.6187,69.6667,30.8701],[162.5938,69.6687,39.8306],[162.5896,69.6708,0.0],[162.5833,69.6708,0.0],[162.5688,69.6667,12.9593],[162.55,69.6667,0.0],[162.5464,69.6641,7.2493],[162.5453,69.6609,19.7932],[162.5396,69.6604,0.0],[162.5313,69.6563,1.8843],[162.488,69.6557,0.0],[162.4932,69.6495,0.0],[162.4901,69.6464,0.0],[162.5016,69.6474,0.3973],[162.5047,69.6443,0.0],[162.5099,69.6432,1.1394],[162.5151,69.638,0.0],[162.5224,69.637,0.0],[162.5245,69.6349,0.0],[162.5229,69.6333,0.0],[162.5146,69.6333,1.1986],[162.5068,69.6359,0.5702],[162.5036,69.6391,0.0],[162.4896,69.6417,0.9558],[162.4849,69.6453,0.0],[162.4776,69.6464,6.4049],[162.4714,69.6526,0.0],[162.4745,69.6547,1.762],[162.4729,69.6563,0.0],[162.4646,69.6542,2.6291],[162.4583,69.6563,0.0],[162.4542,69.6542,3.1414],[162.4479,69.6563,0.0],[162.4417,69.6542,4.2128],[162.4375,69.6563,0.0],[162.4125,69.6583,6.5559],[162.3963,69.663,0.0],[162.3854,69.6729,0.0],[162.375,69.6729,16.8545],[162.3708,69.675,11.3593],[162.3609,69.6745,0.0],[162.363,69.6713,0.0],[162.3786,69.6682,15.7198],[162.3807,69.6651,16.5169],[162.3776,69.663,14.0828],[162.3849,69.6557,18.1564],[162.3829,69.654,17.7649],[162.385,69.6467,14.07],[162.3696,69.6391,13.0081],[162.3594,69.6289,13.9712],[162.3555,69.6288,11.3698],[162.3679,69.5878,112.5473],[162.3121,69.546,200.8673],[162.2938,69.5133,98.5309],[162.1947,69.4963,43.7963],[162.2991,69.4422,109.6025],[162.2619,69.3917,210.2357],[162.39,69.369,444.6253],[162.4133,69.3401,284.4373],[162.4026,69.2932,406.1243],[162.7004,69.1583,441.5294],[162.7056,69.1291,427.2545],[162.5053,69.1128,639.6346],[162.4635,69.0724,427.086],[162.439,68.9634,459.1918],[162.4992,68.9227,233.632],[162.5591,68.9099,270.2946],[162.6706,68.8986,325.6858],[162.7201,68.8505,240.9295],[162.773,68.8195,308.4654],[162.6756,68.7571,273.0264],[162.5514,68.7277,355.2224],[162.564,68.6707,266.7957],[162.6772,68.6386,451.1006],[162.628,68.5916,501.0604],[162.6427,68.5488,638.6281],[162.5203,68.5213,335.8083],[162.5325,68.4251,142.6944],[162.4745,68.3857,115.9044],[162.4817,68.302,124.4739],[162.4006,68.2514,219.8965],[162.0237,68.3163,44.5325],[161.4075,68.3858,14.2441],[161.2655,68.3737,5.3925],[160.95,68.2677,5.2308],[160.7359,68.2356,10.457],[160.2979,68.257,44.3764],[159.9906,68.264,57.2304],[159.888,68.2542,56.5591],[159.8111,68.2235,56.8638],[159.744,68.1636,49.1777],[159.6517,68.1829,60.9521],[159.5887,68.1903,28.0502],[159.5322,68.1746,27.7313],[159.4313,68.1761,67.0892],[159.3774,68.205,73.9018],[159.3466,68.2117,56.2753],[159.2491,68.1736,71.1631],[159.167,68.1571,64.1244],[159.1177,68.1509,85.6917],[158.959,68.0871,185.6461],[158.8066,68.0987,168.4743],[158.5896,68.0956,81.2106],[158.4063,68.0456,85.3178],[158.3237,67.9623,53.3715],[158.3189,67.9145,98.02],[158.2582,67.8816,118.5229],[158.1702,67.8416,161.9115],[158.2256,67.7897,162.9043],[158.352,67.7644,193.2564],[158.3614,67.7449,239.7099],[158.3071,67.7092,191.8681],[158.1691,67.6862,282.5328],[158.043,67.6944,224.2295],[157.882,67.6797,236.9794],[157.8715,67.6032,243.6628],[157.8305,67.5441,193.4529],[157.8513,67.4528,289.2339],[157.9683,67.3709,247.0995],[157.9573,67.3028,270.1368],[157.9402,67.2554,437.673],[157.9698,67.2269,298.0723],[158.1546,67.2039,747.1468],[158.2075,67.162,412.091],[158.285,67.1477,621.6122],[158.3474,67.1028,591.5999],[158.5216,67.0919,413.7739],[158.665,67.0683,397.1821],[158.8251,67.0324,262.557],[158.8595,66.9705,269.2098],[158.8314,66.9161,339.0389],[158.8171,66.878,478.0057],[158.9762,66.7984,324.2272],[158.9966,66.7639,445.1129],[158.8444,66.7297,448.9199],[158.7785,66.6767,365.6547],[158.7884,66.6278,283.7454],[158.6846,66.5783,369.1854],[158.6126,66.5244,324.2857],[158.575,66.4594,520.4689],[158.456,66.426,495.5153],[158.4982,66.3842,403.2107],[158.496,66.3599,494.3034],[158.5754,66.3175,420.7224],[158.7094,66.3131,592.5753],[158.7463,66.2663,509.722],[158.9713,66.2086,228.6334],[159.1385,66.2013,153.0375],[159.244,66.2025,151.6919],[159.2323,66.1658,160.8142],[159.0472,66.0624,161.9207],[158.9783,65.9901,167.9773],[158.9613,65.8833,188.2127],[158.9682,65.7502,237.1408],[159.1305,65.6744,197.4216],[159.3952,65.6245,204.6655],[159.6137,65.6045,211.4679],[159.7687,65.5783,236.5142],[159.8512,65.5252,220.6306],[159.9993,65.5091,230.2004],[160.1321,65.5,250.5225],[160.1884,65.4614,234.5096],[160.2253,65.381,239.2071],[160.4563,65.2527,258.3115],[160.6401,65.1753,269.4429],[160.8217,65.1521,284.6869],[161.0819,65.1518,311.6345],[161.3069,65.124,336.851],[161.534,65.0546,384.7637],[161.686,65.0433,411.2491],[161.7822,64.9402,610.0381],[161.9075,64.8499,673.9037],[162.1087,64.7897,553.9017],[162.4776,64.7533,606.3027],[162.5819,64.7549,620.9899],[162.6429,64.733,704.2491],[162.7085,64.6886,829.2497],[162.7915,64.6612,714.1561],[162.9806,64.6615,774.8186],[163.1175,64.6639,1083.9015],[163.2343,64.6692,1162.7476],[163.2292,64.709,1112.2915],[163.1531,64.7419,1105.083],[163.1582,64.7768,1172.2233],[163.2082,64.7927,1042.1865],[163.3151,64.7842,885.0112],[163.421,64.8338,1122.8245],[163.5023,64.8849,889.5881],[163.5322,64.9113,1078.6083],[163.5941,64.8886,916.1058],[163.7145,64.884,1086.363],[163.7948,64.8523,966.9028],[163.9656,64.8553,859.8879],[164.058,64.8896,851.6064],[164.1886,64.8888,673.4445],[164.3794,64.8388,866.935],[164.5374,64.7898,1053.2865],[164.5859,64.7642,1153.7031],[164.7055,64.7634,915.2368],[164.7691,64.7318,999.8301],[164.8165,64.6966,974.4479],[164.8349,64.6584,755.6143],[164.8727,64.6438,1037.7861],[164.9543,64.6698,881.6471],[164.9494,64.7147,810.1848],[164.9069,64.7544,748.876],[164.9519,64.7896,723.692],[165.1119,64.8129,722.8452],[165.2035,64.798,903.6425],[165.2729,64.8375,896.7862],[165.3057,64.8631,844.4232],[165.3503,64.8798,767.0025],[165.4201,64.8982,777.9857],[165.4361,64.9187,889.0974],[165.4202,64.9501,813.4999],[165.439,64.9868,863.2222],[165.5172,65.0291,814.9744],[165.5515,65.0636,1101.7355],[165.5167,65.0859,985.5588],[165.4202,65.102,804.1799],[165.3732,65.0975,824.2302],[165.3425,65.0735,846.8898],[165.2679,65.0999,1021.8702],[165.2987,65.1525,1189.9142],[165.3852,65.2384,875.1959],[165.4612,65.3057,829.623],[165.5395,65.3249,1268.3386],[165.6243,65.3786,1398.5471],[165.6577,65.4451,1037.207],[165.6602,65.4874,1178.3362],[165.5772,65.5056,1018.5704],[165.5434,65.5025,1014.9838],[165.5146,65.4942,858.4478],[165.4615,65.5224,1044.3932],[165.4591,65.5431,927.4992],[165.6343,65.6256,1200.6626],[165.7228,65.652,811.4871],[165.8096,65.6369,889.9434],[165.9579,65.7256,983.7985],[165.9599,65.775,818.4234],[165.9339,65.8173,1124.2487],[166.0106,65.8465,681.7028],[166.0243,65.8795,970.2015],[165.9651,65.9139,1318.0763],[165.9608,65.9724,731.426],[166.0913,66.0196,717.2215],[166.1239,66.0728,780.9821],[166.215,66.1202,1077.5284],[166.186,66.1773,924.1073],[166.3205,66.2228,1061.2498],[166.4507,66.2314,684.9072],[166.5712,66.2166,816.0483],[166.6942,66.1882,655.6169],[166.8506,66.1372,617.2091],[166.9178,66.1365,712.2437],[167.0313,66.1719,647.9697],[167.1783,66.2137,663.1266],[167.3536,66.2377,739.0905],[167.4509,66.2065,562.2711],[167.585,66.2012,749.5597],[167.8045,66.1645,804.0018],[167.9453,66.1806,612.8215],[168.1048,66.2049,853.1234],[168.0663,66.2447,591.5978],[168.0773,66.2905,705.8987],[168.121,66.3478,789.8358],[168.2051,66.3731,758.8958],[168.3,66.3623,645.6791],[168.3867,66.3662,684.3761],[168.5169,66.3843,757.8637],[168.6311,66.3745,607.8688],[168.7503,66.3842,521.9097],[168.8473,66.4152,626.8168],[168.9437,66.4605,661.761],[168.9407,66.4968,553.8719],[168.9238,66.5512,747.1224],[168.9404,66.5892,648.3091],[169.05,66.6001,632.9432],[168.9898,66.6198,712.2643],[168.8966,66.6223,775.6859],[168.8483,66.6377,653.2761],[168.8349,66.6737,605.4002],[168.9088,66.7146,581.4985],[169.0015,66.7434,721.2656],[169.1285,66.7538,743.1498],[169.1794,66.7388,639.8538],[169.3241,66.7467,688.3323],[169.4359,66.7656,615.4199],[169.5352,66.8079,630.4332],[169.6902,66.8309,616.0244],[169.7506,66.8006,633.4598],[169.8795,66.8205,680.6322],[170.0132,66.7797,476.2371],[170.1688,66.7947,798.6531],[170.3554,66.8005,527.5236],[170.6397,66.8281,602.1099],[170.7217,66.8454,813.6378],[170.6964,66.873,650.4245],[170.603,66.8931,659.3842],[170.5078,66.9165,607.3604],[170.3948,66.9613,699.509],[170.4218,66.9775,840.4877],[170.5155,67.0114,932.1404],[170.6131,67.0387,593.6358],[170.7324,67.0533,741.772],[170.9022,67.0608,632.6359]]],
[[[164.4458,69.6042,0.0],[164.4583,69.6042,0.5781],[164.4599,69.6057,0.9642],[164.4563,69.6083,0.0],[164.4422,69.6078,0.5665],[164.4458,69.6042,0.0]]]]}}