{"type":"Feature","properties":{"GID_3":"RUS.83.26.1_1","GID_0":"RUS","country":"Russia","GID_1":"RUS.83_1","province":"Zabaykal'ye","NL_NAME_1":"Забайкальскийкрай","GID_2":"RUS.83.26_1","county":"Ononskiyrayon","NL_NAME_2":"Ононскийрайон","city":"NA","VARNAME_3":"NA","NL_NAME_3":"NA","TYPE_3":"NA","ENGTYPE_3":"NA","CC_3":"NA","HASC_3":"NA","name":"N_A.city"},
"geometry":{"type": "MultiPolygon","coordinates": [[[[115.4178,49.9012,600.0372],[115.4384,49.9363,594.5],[115.4748,49.9787,594.5],[115.5048,50.0074,594.5],[115.5585,50.0296,594.5],[115.6583,50.0469,609.0198],[115.7454,50.0563,594.0],[115.8023,50.0983,594.0],[115.8039,50.1486,594.0],[115.8114,50.2096,733.3616],[115.7911,50.2243,695.6271],[115.741,50.2512,681.0759],[115.709,50.2976,650.1901],[115.721,50.3598,649.041],[115.7512,50.3999,650.3859],[115.7709,50.455,603.5067],[115.7142,50.4789,648.1729],[115.7192,50.5188,614.0562],[115.6685,50.5572,589.7358],[115.6395,50.573,650.1976],[115.6019,50.6105,586.4548],[115.5752,50.5976,589.782],[115.5356,50.5484,661.0664],[115.4537,50.5149,668.1263],[115.371,50.5299,669.7316],[115.2531,50.5537,605.1268],[115.1707,50.551,609.2555],[115.089,50.5201,614.0239],[115.0144,50.4737,685.2192],[114.9318,50.4853,697.9722],[114.8326,50.4838,689.6262],[114.7516,50.4458,687.9008],[114.6183,50.4507,693.2493],[114.4945,50.4774,646.4636],[114.43,50.4484,682.1944],[114.361,50.4443,811.7828],[114.2756,50.4529,745.4734],[114.2275,50.4699,724.361],[114.1914,50.4796,666.4056],[114.1467,50.4982,666.9493],[114.0735,50.4953,671.0487],[114.0438,50.4683,681.823],[113.9719,50.4556,815.9001],[113.9222,50.463,682.8802],[113.8765,50.4535,694.597],[113.875,50.4238,726.9333],[113.8364,50.4094,691.007],[113.8872,50.3683,831.3204],[113.9057,50.3194,802.4611],[113.8974,50.2613,882.1198],[113.9191,50.2303,938.2438],[113.9564,50.2079,1034.6316],[113.9953,50.1902,882.5855],[114.0012,50.1673,939.6818],[114.0159,50.1777,922.8167],[114.0344,50.1857,837.109],[114.0757,50.1846,859.0825],[114.0839,50.1867,871.5582],[114.0955,50.1931,885.6196],[114.1083,50.2078,1011.8287],[114.1121,50.2103,971.6763],[114.1389,50.2191,911.4329],[114.1957,50.2471,911.3624],[114.2322,50.2586,873.3407],[114.2871,50.2719,877.2171],[114.3335,50.2795,847.9945],[114.3401,50.2823,862.7714],[114.3694,50.2811,780.9029],[114.3951,50.2639,785.8075],[114.4207,50.2534,781.8454],[114.4545,50.2445,781.816],[114.4863,50.2424,850.9957],[114.4884,50.2396,864.0077],[114.5073,50.2371,813.3723],[114.5468,50.238,800.4808],[114.5838,50.2423,759.7406],[114.5935,50.2455,788.7493],[114.6427,50.2552,795.5513],[114.6723,50.2563,772.2035],[114.7089,50.2527,776.7456],[114.7488,50.2462,748.4845],[114.8113,50.2325,733.842],[114.8223,50.2273,713.9993],[114.8554,50.222,715.5731],[114.9534,50.1946,691.905],[114.9644,50.1934,676.0],[115.0041,50.1774,680.717],[115.0073,50.1723,687.1161],[115.0255,50.1573,726.2187],[115.0679,50.1121,676.3715],[115.1527,50.0497,654.2509],[115.1785,50.0292,650.9548],[115.1813,50.0237,648.8106],[115.2136,49.9961,651.3842],[115.2379,49.9794,650.4364],[115.2661,49.9657,614.6472],[115.3251,49.9405,664.4968],[115.346,49.9296,612.4894],[115.36,49.9164,604.7581],[115.3746,49.9078,598.368],[115.4007,49.9023,599.6056],[115.4178,49.9012,600.0372]]]]}}