{"type":"Feature","properties":{"GID_2":"RUS.30.8_1","GID_0":"RUS","country":"Russia","GID_1":"RUS.30_1","province":"Khanty-Mansiy","NL_NAME_1":"Ханты-МансийскийАОк","county":"Langepas","VARNAME_2":"NA","NL_NAME_2":"Лангепас","TYPE_2":"Gorod","ENGTYPE_2":"City","CC_2":"NA","HASC_2":"RU.KM.LA","name":"Langepas.county"},
"geometry":{"type": "MultiPolygon","coordinates": [[[[75.2359,61.2703,45.1381],[75.2574,61.2796,44.9685],[75.2445,61.3096,42.4978],[75.1952,61.3005,45.4171],[75.1792,61.2784,45.2493],[75.191,61.2698,45.8341],[75.2359,61.2703,45.1381]]]]}}