{"type":"Feature","properties":{"GID_3":"RUS.56.4.1_1","GID_0":"RUS","country":"Russia","GID_1":"RUS.56_1","province":"Primor'ye","NL_NAME_1":"Приморскийкрай","GID_2":"RUS.56.4_1","county":"Bol'shoyKamen'","NL_NAME_2":"БольшойКамень","city":"NA","VARNAME_3":"NA","NL_NAME_3":"NA","TYPE_3":"NA","ENGTYPE_3":"NA","CC_3":"NA","HASC_3":"NA","name":"N_A.city"},
"geometry":{"type": "MultiPolygon","coordinates": [[[[132.3284,43.0012,96.0752],[132.3301,43.0005,96.0752],[132.3336,43.0024,142.9931],[132.3332,43.005,153.1338],[132.3281,43.0054,82.3524],[132.3284,43.0012,96.0752]]]]}}