{"type":"Feature","properties":{"GID_3":"RUS.24.7.1_1","GID_0":"RUS","country":"Russia","GID_1":"RUS.24_1","province":"Kamchatka","NL_NAME_1":"Камчатскаякрай","GID_2":"RUS.24.7_1","county":"Penzhinskiyrayon","NL_NAME_2":"Пенжинскийрайон","city":"NA","VARNAME_3":"NA","NL_NAME_3":"NA","TYPE_3":"NA","ENGTYPE_3":"NA","CC_3":"NA","HASC_3":"NA","name":"N_A.city"},
"geometry":{"type": "MultiPolygon","coordinates": [[[[163.6646,60.8854,0.0],[163.6703,60.8839,0.0],[163.6667,60.8875,0.0],[163.663,60.887,0.0],[163.6646,60.8854,0.0]]],
[[[163.6938,60.8979,0.0],[163.6922,60.8974,0.0],[163.6922,60.8964,0.0],[163.6953,60.8964,0.0],[163.6938,60.8979,0.0]]],
[[[164.0021,61.3104,53.9511],[164.0005,61.3099,31.7615],[164.0005,61.3089,54.9649],[164.0036,61.3089,105.5759],[164.0021,61.3104,53.9511]]],
[[[163.0213,61.4651,0.0],[163.0109,61.4682,6.3662],[163.012,61.4651,154.8107],[163.0078,61.4609,144.3114],[163.0,61.4604,49.1153],[162.9922,61.4578,57.019],[162.988,61.4557,8.6003],[162.9839,61.4505,0.0],[163.0,61.45,0.0],[163.0042,61.4521,54.3295],[163.0125,61.4521,164.6631],[163.0182,61.4505,0.0],[163.0172,61.4536,46.3465],[163.0213,61.4578,0.0],[163.0266,61.4589,0.0],[163.0213,61.4651,0.0]]],
[[[163.0,61.4792,9.1691],[163.0078,61.4859,0.0],[163.0057,61.4891,134.575],[162.9964,61.487,41.1405],[162.9943,61.4849,0.0],[162.9995,61.4828,213.1145],[162.9984,61.4797,1.8037],[163.0,61.4792,9.1691]]],
[[[162.9661,61.5307,0.0],[162.963,61.5307,0.0],[162.963,61.5297,0.0],[162.9646,61.5292,0.0],[162.9661,61.5307,0.0]]],
[[[162.9682,61.5411,0.0],[162.9651,61.5411,0.0],[162.9651,61.5401,0.0],[162.9682,61.5401,0.0],[162.9682,61.5411,0.0]]],
[[[162.9187,61.5604,0.0],[162.9203,61.5609,0.0],[162.9193,61.5641,0.0],[162.9234,61.5682,0.0],[162.9287,61.5703,0.0],[162.9187,61.5708,0.0],[162.9089,61.5661,0.0],[162.9141,61.5641,0.0],[162.9109,61.5589,0.0],[162.9187,61.5604,0.0]]],
[[[162.5979,61.575,35.4888],[162.5943,61.5755,40.021],[162.5807,61.5891,33.8401],[162.575,61.5896,0.0],[162.5609,61.5849,136.6523],[162.5578,61.5818,251.0397],[162.5443,61.5786,255.0902],[162.5495,61.5766,356.3668],[162.5479,61.575,419.8355],[162.538,61.5755,261.7856],[162.5391,61.5786,162.5818],[162.5375,61.5792,92.2217],[162.5333,61.5771,143.27],[162.5271,61.5771,38.2816],[162.5229,61.575,69.7536],[162.5083,61.5729,0.0],[162.5068,61.5714,0.0],[162.5141,61.5703,0.0],[162.513,61.5672,0.0],[162.5167,61.5646,0.0],[162.525,61.5646,0.0],[162.5292,61.5667,20.2328],[162.5333,61.5667,16.5941],[162.5479,61.5625,0.0],[162.5604,61.5625,5.7833],[162.5646,61.5604,0.0],[162.5729,61.5604,0.0],[162.5771,61.5625,28.1421],[162.5813,61.5604,0.0],[162.5854,61.5604,0.0],[162.5896,61.5625,44.7893],[162.6021,61.5625,0.0],[162.6062,61.5646,0.0],[162.6229,61.5646,87.3565],[162.6271,61.5625,0.0],[162.6313,61.5625,2.1194],[162.6438,61.5667,2.5153],[162.65,61.5667,0.0],[162.6536,61.5693,0.0],[162.6458,61.5729,57.5611],[162.625,61.5729,134.4909],[162.6208,61.575,56.2142],[162.6167,61.575,42.8782],[162.6125,61.5729,125.893],[162.6042,61.5729,140.0353],[162.5979,61.575,35.4888]]],
[[[162.8693,61.587,0.0],[162.8729,61.5833,0.0],[162.8766,61.5859,0.0],[162.875,61.5875,0.0],[162.8693,61.587,0.0]]],
[[[162.6516,61.6057,0.0],[162.65,61.6063,0.0],[162.6484,61.6047,0.0],[162.65,61.6042,0.0],[162.6516,61.6057,0.0]]],
[[[163.0089,61.4911,103.4556],[163.0104,61.4896,6.4997],[163.0161,61.4901,0.0],[163.0146,61.4917,0.0],[163.0089,61.4911,103.4556]]],
[[[163.4854,62.3396,0.1196],[163.4891,62.3401,0.0],[163.4932,62.3453,0.0],[163.4854,62.3521,99.6116],[163.4651,62.3516,0.0],[163.4661,62.3484,56.8462],[163.4609,62.3432,0.0],[163.4625,62.3417,0.0],[163.4854,62.3396,0.1196]]],
[[[164.0396,62.5292,0.0],[164.038,62.5276,0.0],[164.0412,62.5276,0.0],[164.0412,62.5286,0.0],[164.0396,62.5292,0.0]]],
[[[165.4479,62.4604,5.8593],[165.4396,62.4604,6.1509],[165.4354,62.4625,2.0],[165.4297,62.462,6.1403],[165.4375,62.4583,4.4493],[165.4495,62.4589,5.9566],[165.4479,62.4604,5.8593]]],
[[[165.4266,62.4641,5.3327],[165.4234,62.4641,5.4791],[165.4234,62.463,5.4223],[165.425,62.4625,5.9615],[165.4266,62.4641,5.3327]]],
[[[164.6812,62.5875,0.0],[164.6776,62.587,0.0],[164.6776,62.5859,0.7669],[164.6849,62.5859,0.0],[164.6812,62.5875,0.0]]],
[[[164.6792,62.6208,0.0],[164.6755,62.6193,0.0],[164.6849,62.6193,0.0],[164.6833,62.6208,0.0],[164.6792,62.6208,0.0]]],
[[[164.5391,62.6651,18.6727],[164.538,62.663,0.0],[164.5396,62.6625,0.0],[164.55,62.6625,0.0],[164.5537,62.6661,0.0],[164.5417,62.6667,0.0],[164.5391,62.6651,18.6727]]],
[[[165.6529,64.7142,575.371],[165.4988,64.7099,824.5295],[165.2849,64.7232,545.0206],[165.262,64.759,528.5673],[165.2035,64.798,903.6425],[165.1119,64.8129,722.8452],[164.9519,64.7896,723.692],[164.9069,64.7544,748.876],[164.9494,64.7147,810.1848],[164.9543,64.6698,881.6471],[164.8727,64.6438,1037.7861],[164.8349,64.6584,755.6143],[164.8165,64.6966,974.4479],[164.7691,64.7318,999.8301],[164.7055,64.7634,915.2368],[164.5859,64.7642,1153.7031],[164.5374,64.7898,1053.2865],[164.3794,64.8388,866.935],[164.1886,64.8888,673.4445],[164.058,64.8896,851.6064],[163.9656,64.8553,859.8879],[163.7948,64.8523,966.9028],[163.7145,64.884,1086.363],[163.5941,64.8886,916.1058],[163.5322,64.9113,1078.6083],[163.5023,64.8849,889.5881],[163.421,64.8338,1122.8245],[163.3151,64.7842,885.0112],[163.2082,64.7927,1042.1865],[163.1582,64.7768,1172.2233],[163.1531,64.7419,1105.083],[163.2292,64.709,1112.2915],[163.2343,64.6692,1162.7476],[163.2157,64.6026,1004.6279],[163.2412,64.5419,1006.6796],[163.3373,64.4837,1211.5886],[163.419,64.4617,958.3222],[163.4173,64.4185,859.2315],[163.4654,64.3908,925.6162],[163.5138,64.3708,826.6199],[163.5104,64.3388,1024.5931],[163.3971,64.3102,855.3793],[163.3249,64.2744,754.8403],[163.2514,64.2566,830.5098],[163.2355,64.2294,904.2321],[163.2886,64.1998,991.261],[163.2079,64.1701,783.8406],[162.9874,64.1571,761.9501],[162.8663,64.1193,841.6127],[162.8419,64.0702,802.5266],[162.8948,64.0289,959.3573],[162.9564,63.9869,776.152],[162.9705,63.8618,724.3599],[162.8851,63.8301,621.9425],[162.8331,63.7868,711.8971],[162.7886,63.7247,729.1157],[162.8862,63.6903,677.2766],[162.8912,63.6474,925.8537],[162.9974,63.6276,882.718],[163.0605,63.5774,903.1271],[163.0709,63.4994,821.9232],[162.9806,63.4349,682.055],[162.9022,63.3917,522.1177],[162.7478,63.3677,565.8342],[162.7416,63.3345,985.3463],[162.797,63.2842,831.0837],[162.7483,63.235,648.5916],[162.8338,63.1971,787.4595],[162.8257,63.1736,687.6634],[162.7032,63.1487,768.3095],[162.6465,63.1088,494.5279],[162.6104,63.0863,573.6729],[162.5098,63.0739,515.0884],[162.4255,63.0913,684.8327],[162.3582,63.0535,433.3629],[162.2885,62.9172,378.7939],[162.2976,62.8602,258.3628],[162.4432,62.8432,399.1971],[162.5989,62.7828,386.2696],[162.6715,62.7423,210.0569],[162.5955,62.6925,248.3649],[162.6516,62.6711,168.7834],[162.763,62.6704,143.8839],[162.8298,62.6451,189.838],[162.8064,62.6003,185.7567],[162.6828,62.5482,34.1284],[162.7221,62.4996,29.3738],[162.8009,62.4385,95.3632],[162.7574,62.3801,118.4018],[162.7443,62.3302,177.7272],[162.7796,62.2951,226.1081],[162.7541,62.2612,373.9437],[162.6559,62.222,388.1624],[162.5314,62.1914,380.719],[162.4222,62.1733,685.0941],[162.3106,62.1596,487.5217],[162.2221,62.1449,517.1509],[162.1996,62.105,384.693],[162.2706,62.0712,316.4864],[162.3792,62.0632,422.5921],[162.4988,62.0487,463.4941],[162.5486,61.9792,337.1928],[162.4589,61.9213,343.326],[162.4165,61.9047,411.2359],[162.3424,61.9106,693.3982],[162.2839,61.8842,545.8235],[162.309,61.8358,658.2946],[162.3724,61.7802,296.6285],[162.4503,61.754,184.2552],[162.4753,61.7304,123.9545],[162.4762,61.6956,74.8189],[162.4468,61.6667,0.0],[162.4542,61.6646,0.0],[162.4688,61.6646,7.6372],[162.4729,61.6625,0.0],[162.4854,61.6625,2.7401],[162.4896,61.6604,0.0],[162.5,61.6604,4.5016],[162.5208,61.6542,0.0],[162.5292,61.6542,12.0923],[162.5437,61.65,0.0],[162.5542,61.65,46.9717],[162.5646,61.6458,0.0],[162.5688,61.6458,4.9383],[162.5734,61.6422,0.0],[162.5828,61.6411,4.6655],[162.5818,61.638,0.0],[162.5932,61.6349,22.9524],[162.5922,61.6318,0.0],[162.5974,61.6307,0.0],[162.5995,61.6286,0.0],[162.5984,61.6255,0.0],[162.6005,61.6234,0.0],[162.6125,61.6229,0.0],[162.6167,61.625,0.0],[162.6271,61.625,0.0],[162.6313,61.6271,8.5061],[162.637,61.6224,11.5975],[162.6359,61.6193,0.0],[162.6411,61.6182,34.452],[162.6443,61.6151,0.0],[162.6516,61.6141,0.0],[162.6536,61.612,36.6197],[162.6526,61.6089,0.0],[162.6547,61.6068,0.0],[162.6625,61.6063,74.5097],[162.6672,61.6026,0.0],[162.675,61.6,0.0],[162.6807,61.6005,18.013],[162.6854,61.6042,0.0],[162.6958,61.6042,0.0],[162.7,61.6021,0.0],[162.7292,61.6021,144.2052],[162.737,61.5995,0.0],[162.7391,61.5974,0.0],[162.738,61.5943,4.206],[162.7396,61.5938,4.206],[162.7625,61.5917,0.0],[162.7786,61.5974,0.0],[162.7755,61.6005,77.5693],[162.7766,61.6036,0.0],[162.7693,61.6047,13.9769],[162.7703,61.6078,0.0],[162.7609,61.6089,0.0],[162.762,61.612,0.0],[162.7609,61.6141,0.0],[162.7641,61.6182,0.0],[162.7547,61.6193,96.2413],[162.7505,61.6234,0.0],[162.7516,61.6266,0.0],[162.7312,61.6271,0.0],[162.7271,61.625,18.2587],[162.7125,61.625,0.0],[162.7083,61.6229,10.8393],[162.7042,61.625,0.0],[162.7,61.6229,0.0],[162.6958,61.625,0.0],[162.6859,61.6255,0.0],[162.6687,61.6333,0.0],[162.6438,61.6333,2.2591],[162.6422,61.6349,2.2938],[162.6521,61.6354,0.0],[162.6536,61.637,0.0],[162.6463,61.6422,0.0],[162.6495,61.6453,0.0],[162.6396,61.6458,0.0],[162.6359,61.6484,0.0],[162.6391,61.6526,0.0],[162.638,61.6557,0.0],[162.6422,61.6599,0.0],[162.6474,61.6609,0.0],[162.6547,61.6661,0.0],[162.6682,61.6714,0.0],[162.6714,61.6745,0.0],[162.6792,61.675,0.0],[162.6854,61.6792,0.0],[162.6938,61.6792,0.0],[162.6984,61.6828,0.0],[162.7063,61.6833,0.0],[162.7141,61.6859,0.0],[162.7193,61.6911,0.0],[162.7245,61.6922,0.0],[162.7276,61.6953,0.0],[162.7375,61.6979,0.0],[162.7437,61.6979,0.0],[162.7479,61.7,0.0],[162.7583,61.7,0.0],[162.7625,61.7021,0.0],[162.775,61.7021,0.0],[162.7958,61.7083,0.0],[162.8292,61.7083,0.0],[162.8333,61.7104,0.0],[162.8375,61.7083,0.0],[162.8479,61.7083,0.0],[162.8521,61.7062,0.0],[162.8562,61.7062,2.8619],[162.8578,61.7057,2.4075],[162.8568,61.7026,0.0],[162.8833,61.6937,0.0],[162.8911,61.6932,22.8141],[162.8984,61.688,0.0],[162.9036,61.687,0.0],[162.9068,61.6839,0.0],[162.912,61.6828,28.0322],[162.9109,61.6797,0.0],[162.9245,61.6745,17.1111],[162.9234,61.6714,0.0],[162.9328,61.6661,1.0931],[162.9318,61.663,0.6233],[162.9328,61.6609,0.0],[162.9276,61.6599,0.0],[162.9287,61.6568,0.0],[162.9266,61.6547,0.0],[162.9214,61.6536,0.0],[162.9266,61.6505,0.0],[162.9214,61.6495,0.0],[162.9141,61.6422,0.0],[162.9083,61.6437,0.0],[162.8979,61.6437,0.0],[162.8932,61.6401,0.0],[162.888,61.6391,0.0],[162.8891,61.6359,0.0],[162.8839,61.6307,0.0],[162.8849,61.6276,105.0604],[162.8771,61.6271,0.0],[162.8693,61.6245,44.7767],[162.8599,61.6151,56.8918],[162.8505,61.612,0.0],[162.8484,61.6089,0.0],[162.8542,61.6104,0.0],[162.8557,61.6089,0.0],[162.8484,61.6047,0.0],[162.8521,61.6021,0.0],[162.862,61.6047,8.0599],[162.8687,61.6104,0.0],[162.8792,61.6104,0.0],[162.8833,61.6125,41.6823],[162.8875,61.6125,0.0],[162.9063,61.6063,0.0],[162.9141,61.6057,8.3856],[162.9089,61.6036,0.0],[162.9109,61.6005,0.0],[162.9162,61.5995,0.0],[162.912,61.5943,2.0925],[162.9021,61.5896,0.0],[162.8963,61.5891,0.0],[162.8974,61.5859,-0.3495],[162.8922,61.5839,0.0],[162.8974,61.5828,0.0],[162.9083,61.575,0.0],[162.9125,61.575,0.0],[162.9229,61.5792,16.2779],[162.9333,61.5792,-0.0164],[162.9375,61.5812,-1.2085],[162.9417,61.5792,0.0],[162.9599,61.5786,-0.2605],[162.9547,61.5724,0.0],[162.9599,61.5661,1.8838],[162.9588,61.563,0.0],[162.9609,61.5609,0.0],[162.9661,61.5599,9.2047],[162.9693,61.5568,0.0],[162.9787,61.5557,109.1251],[162.9828,61.5516,115.5239],[162.9776,61.5495,0.0],[162.9787,61.5464,0.0],[162.9776,61.5443,0.0],[162.9807,61.5401,0.0],[162.9755,61.538,0.0],[162.9812,61.5333,0.0],[162.9912,61.5328,142.2738],[162.9859,61.5286,0.0],[162.9875,61.5271,0.0],[162.9932,61.5266,0.0],[162.9901,61.5234,0.0],[163.0016,61.5224,0.0],[163.0047,61.5193,0.0],[163.0099,61.5182,0.0],[163.0089,61.5151,0.0],[163.0104,61.5146,0.0],[163.0375,61.5146,0.0],[163.0417,61.5167,0.0],[163.0479,61.5167,0.0],[163.0557,61.5193,0.0],[163.0609,61.5245,0.0],[163.0688,61.525,0.0],[163.0734,61.5286,0.0],[163.0807,61.5297,0.0],[163.0859,61.5349,0.0],[163.0911,61.5359,0.0],[163.0984,61.5432,127.4293],[163.1162,61.5484,0.0],[163.1047,61.5609,0.0],[163.1078,61.5651,0.0],[163.1068,61.5682,48.8439],[163.1078,61.5703,0.0],[163.0964,61.5734,107.8875],[163.0974,61.5766,0.0],[163.0792,61.5792,3.6158],[163.0714,61.5839,50.5052],[163.0729,61.5854,55.1188],[163.0849,61.588,0.0],[163.087,61.5911,0.0],[163.0818,61.5932,107.7481],[163.087,61.5943,0.0],[163.0922,61.5995,0.0],[163.0974,61.6005,0.0],[163.1109,61.6141,0.0],[163.1266,61.6193,0.0],[163.1313,61.6229,0.0],[163.1375,61.6229,0.0],[163.1479,61.6271,41.3068],[163.1563,61.6271,0.0],[163.1604,61.6292,17.7764],[163.175,61.6292,0.0],[163.1792,61.6312,15.3523],[163.1833,61.6292,0.0],[163.1911,61.6286,2.9392],[163.1901,61.6255,0.0],[163.1953,61.6224,78.1124],[163.1922,61.6193,0.0],[163.1984,61.6151,0.0],[163.2104,61.6146,14.0163],[163.2208,61.6104,0.0],[163.2307,61.6109,1.7302],[163.2266,61.6161,134.0435],[163.2214,61.6172,196.9836],[163.2224,61.6203,86.7802],[163.2182,61.6245,28.8452],[163.2125,61.625,0.0],[163.2068,61.6234,69.5085],[163.2005,61.6297,2.2742],[163.2016,61.6328,0.0],[163.2005,61.6349,17.2618],[163.2099,61.6359,0.0],[163.2141,61.6401,2.8998],[163.213,61.6432,9.3942],[163.2146,61.6437,9.3942],[163.2437,61.6437,0.0],[163.2479,61.6458,231.3303],[163.2521,61.6437,0.0],[163.2563,61.6437,0.0],[163.2625,61.6479,43.1455],[163.2792,61.6479,0.0],[163.2833,61.65,22.9277],[163.2937,61.65,0.0],[163.3016,61.6526,4.2185],[163.3005,61.6557,119.1781],[163.3083,61.6583,13.0981],[163.3266,61.6589,0.0],[163.3286,61.662,0.0],[163.3234,61.6641,82.5474],[163.3286,61.6703,0.0],[163.3234,61.6714,107.2496],[163.3245,61.6786,0.0],[163.3193,61.6797,145.1732],[163.3224,61.6849,0.0],[163.3193,61.6891,71.9324],[163.3234,61.6932,21.3217],[163.3286,61.6943,0.0],[163.3318,61.6974,13.4311],[163.3391,61.6984,0.0],[163.3432,61.7026,6.8835],[163.3396,61.7062,94.9084],[163.3354,61.7042,234.8139],[163.3318,61.7047,242.3639],[163.337,61.7089,23.0002],[163.3354,61.7104,60.9848],[163.3146,61.7104,54.5353],[163.3104,61.7125,27.8343],[163.3042,61.7125,28.9659],[163.2995,61.7161,0.0],[163.2859,61.7193,28.8495],[163.2839,61.7224,57.3401],[163.287,61.7245,6.6729],[163.2729,61.725,127.9569],[163.25,61.7333,81.7537],[163.2375,61.7333,108.3265],[163.2333,61.7354,88.8094],[163.2063,61.7354,43.6504],[163.1938,61.7396,0.0],[163.1833,61.7396,65.3608],[163.1687,61.7438,0.0],[163.1646,61.7417,40.6311],[163.1542,61.7417,2.9195],[163.15,61.7438,0.2259],[163.1396,61.7438,10.3289],[163.1318,61.7464,32.3736],[163.1276,61.7505,25.587],[163.1328,61.7526,0.0],[163.1307,61.7557,0.0],[163.1229,61.7583,9.9705],[163.1146,61.7583,63.8036],[163.1104,61.7604,0.0],[163.0958,61.7562,14.371],[163.0917,61.7562,28.2302],[163.0875,61.7583,0.0],[163.075,61.7583,47.0009],[163.0688,61.7625,6.0394],[163.0625,61.7625,46.2113],[163.0521,61.7667,0.0],[163.0458,61.7667,27.074],[163.0354,61.7708,0.0],[163.0313,61.7708,23.7268],[163.0172,61.7755,26.6992],[163.0141,61.7786,0.0],[163.0063,61.7792,24.3839],[162.9984,61.7818,12.9708],[162.9912,61.787,1.387],[162.9818,61.788,11.9367],[162.9828,61.7911,0.0],[162.9787,61.7953,0.0],[162.9734,61.7964,9.7047],[162.9745,61.7995,0.0],[162.9693,61.8047,2.9943],[162.9734,61.8099,2.7079],[162.9787,61.8109,-0.0117],[162.9807,61.813,0.0],[162.9797,61.8161,9.8207],[162.9932,61.8193,0.0],[162.9974,61.8234,0.0],[162.9964,61.8266,39.304],[163.0099,61.8318,0.0],[163.012,61.8349,0.0],[163.0068,61.8411,16.569],[163.012,61.8464,0.0],[163.0109,61.8495,0.0],[163.0141,61.8505,0.0],[163.0109,61.8536,32.4219],[163.0172,61.8578,26.9872],[163.025,61.8604,1.1926],[163.0328,61.8609,0.0],[163.0255,61.8703,38.5682],[163.038,61.8828,12.2504],[163.0443,61.887,0.0],[163.0495,61.888,0.0],[163.0547,61.8932,0.0],[163.0599,61.8943,0.0],[163.0547,61.8964,0.0],[163.0578,61.9016,7.3756],[163.0526,61.9026,0.0],[163.0505,61.9057,0.9641],[163.0547,61.9099,0.0],[163.0599,61.9109,0.0],[163.0661,61.9151,0.0],[163.0641,61.9182,31.4851],[163.0271,61.9188,0.6263],[163.0255,61.9203,0.8481],[163.0286,61.9214,1.2994],[163.0339,61.9266,1.3617],[163.0521,61.9292,0.0],[163.0568,61.9328,18.9709],[163.0641,61.9339,0.0],[163.062,61.937,0.0],[163.0562,61.9375,0.0],[163.0547,61.9391,2.0903],[163.0688,61.9396,0.0],[163.0729,61.9417,0.0],[163.0807,61.9422,0.0],[163.0786,61.9453,4.2838],[163.0672,61.9495,0.0],[163.0807,61.9547,14.1818],[163.0797,61.9578,22.8647],[163.0854,61.9583,0.0],[163.087,61.9599,0.0],[163.0729,61.9604,0.6299],[163.063,61.9661,4.1287],[163.0682,61.9672,0.496],[163.0734,61.9724,18.6844],[163.0833,61.975,1.4012],[163.0891,61.9745,20.3094],[163.0938,61.9708,21.776],[163.0995,61.9714,22.3956],[163.1162,61.9859,0.0],[163.1109,61.988,10.9731],[163.113,61.9911,0.0],[163.1245,61.9943,0.0],[163.1234,61.9974,56.4882],[163.1276,62.0016,2.6776],[163.1432,62.0026,0.0],[163.1411,62.0057,0.0],[163.1359,62.0068,113.2129],[163.1391,62.012,0.0],[163.137,62.0141,0.0],[163.1318,62.0151,89.7657],[163.1328,62.0182,0.0],[163.1318,62.0203,54.5719],[163.137,62.0214,0.0],[163.1359,62.0328,63.2406],[163.1557,62.038,0.0],[163.1609,62.0432,125.487],[163.1687,62.0438,0.0],[163.1766,62.0464,12.8879],[163.1839,62.0516,2.2934],[163.1891,62.0526,0.0],[163.188,62.0557,114.1845],[163.1911,62.0589,46.3488],[163.188,62.063,60.8943],[163.1891,62.0661,38.8947],[163.187,62.0682,1.3217],[163.1792,62.0708,7.429],[163.1625,62.0708,50.9358],[163.1609,62.0714,51.5638],[163.162,62.0745,0.0],[163.1604,62.075,5.6642],[163.1479,62.075,1.4457],[163.1432,62.0714,9.2454],[163.1354,62.0687,29.1326],[163.1229,62.0667,0.0],[163.1141,62.0745,3.3178],[163.1089,62.0755,18.2233],[163.1099,62.0828,0.0],[163.1047,62.0839,0.0],[163.1057,62.087,0.0],[163.0984,62.0953,5.6558],[163.1328,62.0984,0.5505],[163.1391,62.1047,1.0283],[163.1359,62.1099,49.109],[163.1411,62.1151,25.2576],[163.1339,62.1245,46.8141],[163.1391,62.1276,0.0],[163.1411,62.1307,0.0],[163.1229,62.1312,83.2415],[163.113,62.1401,-0.057],[163.1162,62.1443,0.2866],[163.1151,62.1474,74.4265],[163.1162,62.1495,40.8286],[163.1099,62.1557,2.6295],[163.1047,62.1568,62.3062],[163.1099,62.1599,0.0],[163.1078,62.162,0.0],[163.1026,62.163,56.534],[163.0922,62.1734,0.3536],[163.0932,62.1766,0.4361],[163.0922,62.1786,0.1261],[163.0974,62.1797,14.0963],[163.0995,62.1818,0.0],[163.0943,62.188,40.5662],[163.0974,62.1932,0.0],[163.0943,62.1964,0.0],[163.0953,62.1995,0.0],[163.0943,62.2016,0.0],[163.0995,62.2047,0.0],[163.0984,62.2078,0.0],[163.1016,62.212,0.0],[163.0901,62.213,19.1944],[163.0932,62.2151,0.4579],[163.0911,62.2182,0.0],[163.0854,62.2188,9.648],[163.0776,62.2224,0.0],[163.0833,62.2271,0.0],[163.0958,62.2271,0.0],[163.1141,62.2339,0.0],[163.113,62.237,0.0],[163.1245,62.2401,0.0],[163.1266,62.2422,0.0],[163.1255,62.2453,24.5611],[163.1276,62.2474,35.1219],[163.1349,62.2484,0.0],[163.138,62.2516,0.0],[163.1432,62.2526,0.0],[163.1422,62.2557,27.0705],[163.1474,62.2568,0.0],[163.1526,62.262,27.1912],[163.1662,62.2651,0.0],[163.1693,62.2682,28.4891],[163.1828,62.2714,0.0],[163.1859,62.2745,0.0],[163.1938,62.2771,19.323],[163.2083,62.2771,0.0],[163.2125,62.275,0.0],[163.2167,62.275,1.4513],[163.2412,62.2839,0.0],[163.2432,62.287,0.0],[163.2339,62.288,36.541],[163.2307,62.2911,18.4417],[163.2234,62.2922,7.9366],[163.2193,62.2964,43.2843],[163.2214,62.2995,5.8282],[163.2245,62.3005,0.0],[163.2234,62.3036,0.0],[163.2318,62.312,2.7981],[163.2432,62.313,0.0],[163.2401,62.3161,10.4375],[163.25,62.3187,10.6362],[163.2604,62.3187,0.0],[163.2646,62.3208,0.0],[163.2729,62.3208,0.0],[163.2875,62.325,6.1241],[163.325,62.325,12.5313],[163.3292,62.3229,0.0],[163.3333,62.325,21.6605],[163.3542,62.325,0.0],[163.362,62.3276,0.0],[163.3651,62.3307,74.5145],[163.3745,62.3318,0.0],[163.3714,62.337,57.9381],[163.3745,62.3391,0.0],[163.363,62.3401,59.9357],[163.3641,62.3432,0.0],[163.3547,62.3443,69.1318],[163.3557,62.3474,0.0],[163.3537,62.3495,0.0],[163.3443,62.3505,53.3479],[163.3453,62.3536,0.0],[163.3338,62.3568,32.1193],[163.3307,62.3599,0.0],[163.3193,62.3609,101.2691],[163.3203,62.3641,36.7689],[163.3182,62.3661,111.0329],[163.3161,62.3682,17.9647],[163.3109,62.3693,118.623],[163.3078,62.3724,0.0],[163.2875,62.3729,1.5402],[163.2833,62.3708,32.9697],[163.2708,62.3708,7.3026],[163.2667,62.3729,4.5368],[163.2583,62.3729,12.8797],[163.2443,62.3776,4.4756],[163.2396,62.3812,2.7357],[163.2318,62.3818,5.0204],[163.2276,62.3859,3.3773],[163.2307,62.3901,2.9764],[163.2276,62.3943,4.9919],[163.2287,62.3974,4.83],[163.2276,62.3995,4.7202],[163.2307,62.4036,2.4972],[163.2276,62.4078,17.0047],[163.2307,62.412,4.28],[163.2224,62.4203,11.1437],[163.2021,62.4208,11.8003],[163.1979,62.4188,44.5977],[163.1854,62.4188,9.2245],[163.1839,62.4203,1.9822],[163.1891,62.4224,2.5065],[163.1708,62.425,3.3893],[163.1651,62.4203,4.5679],[163.1662,62.4172,3.9041],[163.1604,62.4188,3.968],[163.1547,62.4172,2.6851],[163.1609,62.4245,0.0],[163.1766,62.4297,3.5258],[163.1859,62.4391,3.6874],[163.1958,62.4417,3.4269],[163.2167,62.4417,2.5166],[163.2245,62.4443,2.6822],[163.2276,62.4474,5.2731],[163.2375,62.4479,2.1069],[163.2516,62.4526,2.8123],[163.2568,62.4578,33.7058],[163.2641,62.4589,2.586],[163.263,62.4661,53.4071],[163.2661,62.4703,17.4003],[163.2609,62.4755,7.396],[163.2641,62.4807,2.3831],[163.2589,62.4859,3.6692],[163.2599,62.4932,2.4661],[163.2568,62.4964,6.1024],[163.2599,62.4995,2.3756],[163.2526,62.5005,6.2039],[163.2505,62.5036,3.963],[163.2536,62.5057,2.4689],[163.2443,62.5099,3.4322],[163.2516,62.5109,2.9487],[163.2505,62.5141,5.2911],[163.262,62.5172,4.7989],[163.2667,62.5208,4.459],[163.2724,62.5214,4.1575],[163.2776,62.5266,5.0382],[163.2937,62.5292,3.3176],[163.3042,62.5333,3.9889],[163.3125,62.5333,2.8518],[163.3333,62.5396,5.5943],[163.3458,62.5396,2.7029],[163.3562,62.5438,7.2226],[163.3687,62.5438,2.7261],[163.3833,62.5479,6.3727],[163.4,62.5479,2.6695],[163.4042,62.55,13.2971],[163.4104,62.5479,3.3076],[163.4141,62.5505,4.0623],[163.413,62.5536,3.5807],[163.4208,62.5563,4.764],[163.4312,62.5563,7.1876],[163.4391,62.5536,2.8684],[163.438,62.5505,2.9661],[163.4458,62.5479,2.3204],[163.4771,62.5479,0.0],[163.4812,62.55,7.9039],[163.4896,62.55,0.0],[163.5,62.5542,6.5653],[163.5063,62.5542,0.0],[163.5188,62.5583,9.0872],[163.5458,62.5604,0.0],[163.5641,62.5672,0.0],[163.5672,62.5703,1.8298],[163.5776,62.5745,0.0],[163.6104,62.5833,2.7066],[163.6333,62.5833,9.125],[163.6375,62.5812,0.0],[163.6417,62.5833,12.4417],[163.6479,62.5833,19.7974],[163.6521,62.5812,0.0],[163.6687,62.5812,0.0],[163.6729,62.5833,13.0218],[163.6812,62.5833,0.0],[163.7125,62.5938,20.3832],[163.7312,62.5958,0.0],[163.7625,62.6042,8.8658],[163.7833,62.6042,0.0],[163.7875,62.6063,1.3476],[163.8208,62.6063,0.0],[163.825,62.6083,13.4587],[163.8313,62.6063,0.0],[163.8354,62.6083,14.4852],[163.8438,62.6083,9.7983],[163.8583,62.6042,0.0],[163.8682,62.6036,3.1481],[163.8755,62.5964,2.0849],[163.8979,62.5875,0.0],[163.9063,62.5875,25.126],[163.9104,62.5854,0.0],[163.9271,62.5854,0.0],[163.9328,62.588,11.7749],[163.938,62.5932,1.5281],[163.9432,62.5943,0.0],[163.9453,62.5964,0.0],[163.9443,62.5995,0.0],[163.9516,62.6047,0.0],[163.9505,62.6078,14.135],[163.9547,62.612,9.8575],[163.9578,62.613,15.0307],[163.963,62.6182,19.8308],[163.9682,62.6193,0.0],[163.9745,62.6234,0.0],[163.9859,62.6349,6.8103],[164.0083,62.6437,0.0],[164.0271,62.6458,0.0],[164.0375,62.65,5.8466],[164.0458,62.65,0.0],[164.05,62.6521,0.0],[164.1062,62.6521,0.0],[164.1104,62.6542,14.021],[164.1146,62.6521,0.0],[164.1187,62.6542,0.0],[164.1271,62.6542,0.0],[164.1333,62.6583,1.3188],[164.15,62.6583,0.0],[164.1542,62.6604,0.0],[164.1625,62.6604,0.0],[164.1687,62.6646,3.8588],[164.1771,62.6646,12.5309],[164.1812,62.6625,0.0],[164.2083,62.6625,0.0418],[164.2125,62.6646,3.2883],[164.2229,62.6646,3.1206],[164.2271,62.6625,0.0],[164.2479,62.6625,11.2746],[164.2521,62.6604,0.0],[164.2563,62.6604,0.0],[164.2604,62.6625,14.2634],[164.2667,62.6604,0.0],[164.2708,62.6625,10.3339],[164.2917,62.6625,0.0],[164.3083,62.6688,6.4121],[164.3141,62.6693,0.0],[164.3188,62.6729,0.0],[164.3286,62.6734,0.0],[164.3338,62.6786,0.0],[164.3391,62.6797,0.0],[164.3438,62.6833,0.0],[164.3521,62.6833,0.0],[164.3562,62.6854,0.0],[164.3687,62.6854,0.0],[164.3755,62.6911,0.0],[164.3896,62.6937,0.0],[164.3938,62.6917,0.0],[164.4042,62.6917,0.0],[164.4083,62.6896,0.0],[164.4146,62.6917,0.0],[164.4375,62.6917,0.0],[164.4417,62.6896,0.0],[164.4563,62.6896,0.0],[164.4604,62.6875,0.0],[164.4729,62.6875,0.0],[164.4896,62.6813,20.2374],[164.4979,62.6854,0.0],[164.5146,62.6854,16.4566],[164.5161,62.6849,34.9866],[164.5151,62.6818,0.0],[164.5229,62.6813,0.0],[164.5245,62.6818,0.0],[164.5234,62.6849,0.0],[164.5333,62.6854,0.0],[164.538,62.6818,0.0],[164.5604,62.675,0.0],[164.5646,62.6771,3.1596],[164.5813,62.6771,0.0],[164.5854,62.6792,5.4546],[164.5896,62.6792,2.0058],[164.5938,62.6771,0.0],[164.5979,62.6792,1.9758],[164.6062,62.6792,1.7453],[164.6104,62.6813,14.9412],[164.6193,62.6734,1.452],[164.6328,62.6682,0.0],[164.6318,62.6651,0.0],[164.6391,62.6578,26.67],[164.6359,62.6526,0.0],[164.6411,62.6516,8.0364],[164.6526,62.6443,0.0],[164.6604,62.6437,29.8989],[164.6651,62.6401,0.0],[164.6729,62.6396,4.1811],[164.6776,62.6359,0.0],[164.6849,62.6349,14.1159],[164.6849,62.6318,0.0],[164.6797,62.6297,0.0],[164.6849,62.6286,0.0],[164.687,62.6266,0.0],[164.6859,62.6234,0.0],[164.6901,62.6193,0.0],[164.6953,62.6182,57.2323],[164.6943,62.6151,0.0],[164.6995,62.6141,28.2348],[164.7016,62.612,37.9224],[164.7005,62.6089,0.0],[164.7026,62.6068,0.0],[164.7078,62.6057,49.7269],[164.7068,62.6026,0.0],[164.7161,62.6016,25.77],[164.7151,62.5984,0.0],[164.7161,62.5964,58.0909],[164.7104,62.5958,16.1147],[164.7088,62.5943,0.0],[164.7141,62.5891,0.0],[164.7109,62.5839,0.0],[164.7161,62.5828,61.7675],[164.7151,62.5797,0.0],[164.7214,62.5734,0.0],[164.7349,62.5724,29.2822],[164.738,62.5693,0.0],[164.7516,62.5661,88.0191],[164.7484,62.563,0.0],[164.7646,62.5604,0.0],[164.7693,62.5568,0.0],[164.7771,62.5563,60.9004],[164.7833,62.5521,0.0],[164.7891,62.5526,0.0],[164.7958,62.5563,8.9524],[164.8125,62.5583,25.7645],[164.8188,62.5542,0.0],[164.8375,62.5542,58.2345],[164.8479,62.55,0.0],[164.8583,62.5521,88.3956],[164.8687,62.5479,0.0],[164.875,62.5479,0.0],[164.8792,62.5458,0.0],[164.8917,62.5458,0.0],[164.8958,62.5438,0.0],[164.9021,62.5438,5.2453],[164.9109,62.5359,0.0],[164.9187,62.5333,0.0],[164.9312,62.5333,20.6938],[164.9458,62.525,0.0],[164.9521,62.525,0.0],[164.9563,62.5229,0.0],[164.9708,62.5208,36.8525],[164.9724,62.5193,0.0],[164.9693,62.5172,0.0],[164.9708,62.5167,0.0],[164.9833,62.5167,0.0],[164.9896,62.5125,0.0],[165.0208,62.5104,2.5475],[165.0375,62.5042,0.0],[165.05,62.5042,16.2778],[165.0578,62.5016,14.9325],[165.0609,62.4984,4.7532],[165.0724,62.4953,20.1282],[165.0755,62.4922,21.199],[165.0896,62.4875,0.0],[165.1104,62.4875,25.3221],[165.1146,62.4854,0.0],[165.1292,62.4854,0.0],[165.1333,62.4875,8.1816],[165.2542,62.4875,5.038],[165.2708,62.4813,3.632],[165.2792,62.4813,13.5386],[165.2833,62.4792,1.0],[165.2875,62.4813,6.2803],[165.3062,62.4813,11.0558],[165.3104,62.4792,1.0],[165.3146,62.4813,10.442],[165.3562,62.4813,17.383],[165.3604,62.4792,1.5],[165.375,62.4792,12.2782],[165.3896,62.475,1.5],[165.4021,62.475,25.9295],[165.4063,62.4729,1.5],[165.4229,62.4708,1.5],[165.4271,62.4688,1.5],[165.4354,62.4688,44.9359],[165.4458,62.4646,2.0],[165.4536,62.4641,2.0],[165.4583,62.4604,2.0],[165.4646,62.4604,2.0],[165.4688,62.4583,2.0],[165.4854,62.4583,47.9996],[165.4896,62.4562,2.0],[165.5104,62.4562,4.2406],[165.5313,62.45,3.4795],[165.5417,62.45,4.8617],[165.5458,62.4479,2.2217],[165.5688,62.4479,1.4455],[165.575,62.45,0.8885],[165.5891,62.4453,4.7211],[165.5922,62.4422,3.0576],[165.6,62.4396,2.7537],[165.6146,62.4396,3.3143],[165.6193,62.4359,3.4044],[165.6266,62.4349,3.3761],[165.625,62.4333,4.79],[165.6104,62.4333,8.4071],[165.6042,62.4375,0.935],[165.5838,62.4401,4.0278],[165.5792,62.4458,1.9885],[165.5604,62.4458,2.2756],[165.5589,62.4443,6.4339],[165.5609,62.4422,4.9374],[165.5661,62.4401,2.7157],[165.5542,62.4396,6.1756],[165.5375,62.4458,2.2928],[165.5313,62.4458,6.8763],[165.5271,62.4479,1.8788],[165.5146,62.4479,5.2233],[165.5104,62.45,2.3824],[165.4583,62.45,6.6181],[165.4542,62.4521,2.0],[165.4229,62.4542,9.6091],[165.4187,62.4562,7.8822],[165.4125,62.4562,9.4954],[165.3958,62.4625,5.9371],[165.3771,62.4625,5.8807],[165.3729,62.4604,4.4194],[165.3646,62.4604,7.1243],[165.3604,62.4625,1.5],[165.3313,62.4625,7.6357],[165.3271,62.4646,3.7115],[165.3208,62.4646,3.5959],[165.3104,62.4604,7.6572],[165.2937,62.4604,4.3398],[165.275,62.4542,9.0026],[165.2708,62.4562,3.1616],[165.2604,62.4562,7.0615],[165.2563,62.4583,3.658],[165.2271,62.4583,7.1566],[165.2229,62.4604,4.5081],[165.1812,62.4604,5.4107],[165.1771,62.4583,6.5618],[165.1646,62.4583,3.4852],[165.1604,62.4562,6.61],[165.1542,62.4562,4.5723],[165.1354,62.45,6.7759],[165.1167,62.4479,5.4861],[165.1047,62.4391,5.129],[165.1057,62.4359,5.3978],[165.1047,62.4339,5.9485],[165.1089,62.4297,6.7235],[165.1167,62.4292,7.2623],[165.1214,62.4255,7.2149],[165.1266,62.4245,6.3698],[165.1297,62.4214,3.4361],[165.15,62.4146,3.9179],[165.1557,62.4141,7.9106],[165.1672,62.4068,3.036],[165.1787,62.4036,7.0278],[165.1818,62.4005,4.2645],[165.2083,62.3917,1.0],[165.2208,62.3917,4.2626],[165.225,62.3896,1.5],[165.2354,62.3896,7.7188],[165.2396,62.3875,1.5],[165.2521,62.3875,6.3458],[165.2703,62.3828,7.0269],[165.2797,62.3734,1.5],[165.2912,62.3703,5.0334],[165.2932,62.3682,3.928],[165.2922,62.3651,2.0],[165.2974,62.3641,3.8816],[165.3078,62.3536,4.1657],[165.3062,62.35,4.0029],[165.3078,62.3474,4.3503],[165.3068,62.3443,3.5997],[165.312,62.3432,5.1479],[165.3172,62.338,3.0],[165.3224,62.337,3.0],[165.3245,62.3339,3.0],[165.3208,62.3312,4.8012],[165.3161,62.3349,3.0],[165.3047,62.338,6.7676],[165.3016,62.3411,2.5],[165.2964,62.3422,2.5],[165.2974,62.3495,2.5],[165.287,62.3599,2.0],[165.2693,62.3651,6.8981],[165.2641,62.3703,5.5924],[165.2589,62.3714,5.3793],[165.2557,62.3745,5.0479],[165.2479,62.375,5.4928],[165.2437,62.3771,4.6224],[165.2271,62.3771,4.9542],[165.2229,62.3792,4.6664],[165.2188,62.3771,4.6145],[165.2042,62.3812,4.1435],[165.1771,62.3833,5.0685],[165.1693,62.3859,6.0238],[165.1641,62.3911,1.0],[165.1578,62.3932,1.0],[165.1521,62.3937,5.8053],[165.1417,62.3979,5.3019],[165.1354,62.3979,5.0985],[165.1187,62.4042,3.9205],[165.1125,62.4042,4.924],[165.1083,62.4063,4.7017],[165.0771,62.4083,4.4547],[165.0729,62.4063,4.7737],[165.0271,62.4063,4.8227],[165.0146,62.4021,5.0479],[165.0104,62.4042,5.2496],[164.9625,62.4042,4.0972],[164.9583,62.4063,4.0667],[164.9401,62.4089,5.0556],[164.9417,62.4104,4.3915],[164.9495,62.4109,4.6328],[164.9417,62.4146,4.1884],[164.9375,62.4125,4.2589],[164.9229,62.4125,21.055],[164.9063,62.4188,4.2927],[164.9,62.4188,29.2439],[164.8896,62.4229,22.7087],[164.8813,62.4229,75.3371],[164.8646,62.4292,9.1329],[164.8542,62.4292,57.7402],[164.85,62.4313,0.0],[164.825,62.4313,68.3195],[164.8208,62.4333,26.1666],[164.8125,62.4333,82.7923],[164.8021,62.4375,0.0],[164.7854,62.4396,36.9133],[164.775,62.4437,11.4151],[164.7708,62.4437,77.5166],[164.763,62.4464,67.74],[164.7599,62.4495,28.6824],[164.7521,62.4521,50.329],[164.7458,62.4521,28.9966],[164.7354,62.4562,0.0],[164.7229,62.4521,15.557],[164.7021,62.4521,0.0],[164.6979,62.45,64.1591],[164.6938,62.45,72.0295],[164.6896,62.4521,0.0],[164.6604,62.4521,51.8048],[164.6563,62.4542,0.0],[164.6396,62.4542,53.2288],[164.6354,62.4562,16.2426],[164.6109,62.4474,0.0],[164.6,62.4396,19.1927],[164.5917,62.4396,1.4661],[164.5875,62.4417,0.0],[164.5646,62.4417,0.0],[164.5604,62.4396,40.3131],[164.5354,62.4396,18.4916],[164.5255,62.437,0.0],[164.5234,62.4349,0.0],[164.5245,62.4234,51.9975],[164.4995,62.4026,13.6596],[164.4729,62.4021,0.0],[164.4688,62.4,75.3606],[164.4563,62.4,0.0],[164.4484,62.3974,69.9072],[164.4422,62.3932,0.0],[164.4432,62.3901,0.0],[164.4422,62.388,0.0],[164.4453,62.3849,41.6166],[164.4422,62.3807,0.0],[164.4432,62.3776,0.0],[164.4339,62.3703,0.0],[164.4411,62.362,0.0],[164.437,62.3568,28.0151],[164.4312,62.3563,0.0],[164.4146,62.35,14.3611],[164.4063,62.35,0.0],[164.4021,62.3479,107.6296],[164.3979,62.35,0.0],[164.375,62.35,0.0],[164.3693,62.3453,0.0],[164.3703,62.3422,27.4449],[164.3583,62.3333,3.7121],[164.3375,62.3333,0.0],[164.3333,62.3312,11.843],[164.3292,62.3312,0.0],[164.325,62.3333,0.0],[164.3167,62.3333,0.0],[164.3068,62.3307,0.0],[164.3037,62.3276,39.0896],[164.2958,62.325,30.4586],[164.2875,62.325,0.0],[164.2708,62.3187,56.5949],[164.2583,62.3187,72.0184],[164.2521,62.3146,0.0],[164.2396,62.3146,0.0],[164.2318,62.312,0.0],[164.2328,62.3047,72.9566],[164.2214,62.2953,0.0],[164.2224,62.2922,27.1856],[164.2203,62.2901,44.157],[164.2104,62.2896,0.0],[164.1964,62.2849,0.0],[164.1932,62.2818,59.2407],[164.1833,62.2792,52.5648],[164.1672,62.2786,0.0],[164.1682,62.2755,106.8258],[164.1568,62.2745,0.0],[164.1474,62.2651,36.8262],[164.1443,62.2641,0.0],[164.1474,62.2589,66.3821],[164.1438,62.2562,116.8924],[164.1359,62.2557,0.0],[164.137,62.2484,21.9326],[164.1339,62.2474,0.0],[164.1349,62.2443,132.309],[164.1297,62.2432,0.0],[164.1307,62.2359,58.0156],[164.1276,62.2328,18.5109],[164.1286,62.2297,55.5373],[164.1234,62.2266,0.0],[164.1245,62.2193,0.0],[164.1234,62.2172,0.0],[164.1266,62.2141,0.0],[164.1255,62.2026,0.0],[164.1286,62.1984,21.9304],[164.1234,62.1943,0.0],[164.1292,62.1937,97.9227],[164.1307,62.1922,102.2758],[164.1234,62.187,0.0],[164.1245,62.1839,2.5753],[164.1162,62.1755,21.5217],[164.1068,62.1724,0.0],[164.1047,62.1703,0.0],[164.1057,62.1672,2.0],[164.1047,62.1651,3.4791],[164.1099,62.1589,21.7261],[164.1047,62.1568,0.0],[164.1099,62.1557,0.0],[164.1089,62.1526,0.0],[164.1141,62.1516,0.0],[164.1162,62.1495,0.0],[164.1182,62.1474,0.0],[164.1172,62.1443,0.0],[164.1224,62.1432,51.4323],[164.1214,62.1401,55.6025],[164.1224,62.138,19.5602],[164.1193,62.1359,0.0],[164.1266,62.1286,0.0],[164.1255,62.1255,26.6684],[164.1266,62.1234,174.616],[164.1214,62.1224,89.116],[164.1172,62.1182,0.0],[164.1182,62.1151,31.0817],[164.1162,62.113,41.2718],[164.1068,62.1099,0.0],[164.1016,62.1047,168.8942],[164.088,62.1016,0.0],[164.0776,62.0911,0.0],[164.0797,62.088,0.0],[164.0849,62.087,119.2815],[164.087,62.0849,110.9257],[164.0859,62.0818,0.0],[164.088,62.0797,0.0],[164.0932,62.0786,32.7937],[164.0922,62.0714,50.4743],[164.0995,62.0641,0.0],[164.0964,62.0609,0.0],[164.0984,62.0589,0.0],[164.1057,62.0578,160.0337],[164.1005,62.0536,0.0],[164.1016,62.0505,0.0],[164.1005,62.0484,0.0],[164.1078,62.0411,0.0],[164.1068,62.0339,0.0],[164.112,62.0286,63.5775],[164.1109,62.0255,37.1043],[164.1141,62.0214,94.6129],[164.1068,62.0161,0.0],[164.1078,62.013,3.5377],[164.1026,62.012,0.0],[164.1005,62.0099,0.0],[164.1016,62.0068,24.1766],[164.0932,61.9984,14.2583],[164.0854,61.9938,7.5916],[164.0776,61.9932,0.0],[164.0714,61.987,0.0],[164.0766,61.9849,14.6178],[164.0755,61.9818,5.9423],[164.0807,61.9807,28.2053],[164.0828,61.9786,28.6053],[164.0818,61.9755,14.9899],[164.0849,61.9714,9.6336],[164.0818,61.9693,0.0],[164.0911,61.962,2.2699],[164.088,61.9599,0.0],[164.0911,61.9557,0.0],[164.088,61.9516,0.0],[164.0891,61.9443,9.6859],[164.087,61.9422,5.5637],[164.0818,61.9411,0.0],[164.0797,61.938,1.8361],[164.0859,61.9318,8.1217],[164.0911,61.9307,27.7328],[164.0901,61.9276,0.0],[164.0953,61.9266,24.9416],[164.0995,61.9224,19.5222],[164.0922,61.9193,0.0],[164.0995,61.9182,0.0],[164.1037,61.9141,118.6272],[164.0984,61.9099,0.0],[164.0995,61.9068,0.0],[164.0964,61.9036,0.0],[164.0974,61.8964,90.8957],[164.0922,61.8911,91.1723],[164.0932,61.888,131.2796],[164.0859,61.887,0.0],[164.087,61.8839,67.1563],[164.0818,61.8776,0.0],[164.087,61.8755,80.077],[164.0776,61.8661,82.4031],[164.0786,61.863,219.843],[164.0714,61.862,104.7209],[164.0672,61.8578,52.1678],[164.0682,61.8547,113.3001],[164.0651,61.8516,179.9599],[164.0661,61.8484,131.5772],[164.0464,61.8432,0.0],[164.0547,61.8339,0.0],[164.0599,61.8328,3.1819],[164.062,61.8307,18.0866],[164.0609,61.8276,0.0],[164.0651,61.8234,0.0],[164.0724,61.8224,70.1091],[164.0693,61.8203,0.0],[164.0745,61.8141,20.1812],[164.0734,61.7943,103.1564],[164.0745,61.7922,125.5855],[164.0714,61.788,13.8934],[164.0766,61.7828,68.335],[164.0755,61.7797,102.1581],[164.0766,61.7776,135.8613],[164.0714,61.7745,0.0],[164.0724,61.7589,246.4989],[164.0672,61.7536,104.1989],[164.0703,61.7495,213.5938],[164.0693,61.7422,247.1515],[164.0703,61.7401,288.8084],[164.0609,61.7328,0.0],[164.062,61.7297,21.824],[164.0589,61.7255,8.2527],[164.062,61.7214,169.5845],[164.0568,61.7151,9.5359],[164.062,61.713,168.4085],[164.0568,61.7078,46.488],[164.0578,61.7047,118.252],[164.0526,61.7016,0.0],[164.0537,61.6901,26.132],[164.0505,61.6859,0.0],[164.0557,61.6839,3.7337],[164.0505,61.6828,12.3259],[164.0458,61.6792,169.629],[164.0297,61.6766,0.0],[164.0276,61.6745,0.0],[164.0286,61.6714,104.8461],[164.0193,61.6703,0.0],[164.0203,61.6672,62.4414],[164.0151,61.6661,0.0],[164.0182,61.662,1.5581],[164.0167,61.6604,2.5993],[164.0125,61.6625,2.4527],[164.0021,61.6625,0.0],[163.9979,61.6604,116.6146],[163.9937,61.6625,0.0],[163.9896,61.6604,112.0303],[163.9729,61.6604,80.8365],[163.9604,61.6646,0.0],[163.9271,61.6646,100.5172],[163.9109,61.6599,0.0],[163.912,61.6568,30.387],[163.9104,61.6563,66.8598],[163.8958,61.6563,0.0],[163.8917,61.6542,31.07],[163.8833,61.6542,0.0],[163.8786,61.6505,221.9567],[163.8734,61.6495,148.5133],[163.8693,61.6453,77.6258],[163.8703,61.6422,220.5577],[163.8651,61.637,184.0123],[163.8662,61.6339,334.5315],[163.8609,61.6307,4.156],[163.862,61.6234,162.4685],[163.8589,61.6203,2.1016],[163.8599,61.6172,61.6461],[163.8568,61.6141,0.0],[163.8599,61.6099,215.7947],[163.8589,61.6068,160.6837],[163.8599,61.6047,252.8381],[163.8547,61.5995,0.0],[163.8557,61.5839,251.5547],[163.8505,61.5807,0.0],[163.8516,61.5776,149.8488],[163.8484,61.5745,36.1091],[163.8516,61.5693,193.1859],[163.8464,61.5682,41.848],[163.8443,61.5661,17.3182],[163.8453,61.563,178.7549],[163.8401,61.562,6.6081],[163.8338,61.5557,0.0],[163.8349,61.5526,11.9133],[163.8151,61.5349,0.0],[163.8161,61.5318,4.525],[163.8078,61.5234,25.1928],[163.8026,61.5224,0.0],[163.7964,61.5182,0.0],[163.7974,61.5151,116.735],[163.7922,61.5099,21.8958],[163.7932,61.5068,136.9053],[163.788,61.5057,82.6723],[163.7891,61.5026,258.0109],[163.787,61.5005,301.3399],[163.7755,61.4974,34.118],[163.7672,61.4911,0.0],[163.7682,61.4839,265.2371],[163.7609,61.4766,173.5997],[163.762,61.4734,235.7845],[163.7568,61.4724,56.0247],[163.7578,61.4693,31.8201],[163.7526,61.4682,73.8743],[163.7536,61.4651,184.4078],[163.7526,61.463,206.5832],[163.7557,61.4599,311.2234],[163.7547,61.4568,358.4909],[163.7557,61.4547,318.166],[163.7526,61.4516,217.1283],[163.7557,61.4474,105.5155],[163.7547,61.4443,16.0158],[163.7583,61.4417,170.961],[163.7625,61.4417,290.228],[163.7667,61.4437,343.7512],[163.7724,61.4432,360.2419],[163.7713,61.4401,333.6026],[163.7724,61.438,289.631],[163.763,61.437,278.6761],[163.7682,61.4339,241.2953],[163.763,61.4328,96.959],[163.7609,61.4297,7.8165],[163.7661,61.4286,90.8945],[163.7682,61.4266,135.4703],[163.7672,61.4234,141.0169],[163.7724,61.4182,212.9325],[163.7713,61.4151,0.0],[163.7729,61.4146,115.0968],[163.7953,61.4193,0.0],[163.7995,61.4234,0.0],[163.7984,61.4266,0.0],[163.8037,61.4297,0.0],[163.8026,61.4328,0.0],[163.8057,61.4359,0.0],[163.8047,61.4391,17.2126],[163.8125,61.4417,0.0],[163.8188,61.4417,0.0],[163.8229,61.4437,0.0],[163.8375,61.4437,0.0],[163.8417,61.4458,7.0314],[163.8479,61.4437,0.0],[163.8521,61.4458,24.6007],[163.8708,61.4458,0.0],[163.875,61.4479,0.0],[163.8792,61.4458,0.0],[163.8917,61.4458,27.8418],[163.8958,61.4437,0.0],[163.9021,61.4437,0.0],[163.9068,61.4401,0.0],[163.9271,61.4333,0.0],[163.9349,61.4328,0.0],[163.9396,61.4292,0.0],[163.9479,61.4292,14.4294],[163.9542,61.425,0.0],[163.962,61.4245,0.0],[163.9672,61.4193,0.0],[163.9787,61.4161,32.5916],[163.9776,61.413,0.0],[163.9828,61.412,12.4614],[163.9932,61.4016,11.5498],[163.9922,61.3984,0.0],[163.9974,61.3974,69.4385],[163.9964,61.3943,0.0],[164.0141,61.3766,0.0],[164.013,61.3734,0.0],[164.0182,61.3724,16.9191],[164.0203,61.3703,0.0],[164.0193,61.3672,0.0],[164.0266,61.3599,0.0],[164.0255,61.3568,0.0],[164.0286,61.3536,0.0],[164.0276,61.3505,0.0],[164.0307,61.3474,86.8863],[164.0297,61.3443,43.4478],[164.0307,61.3422,125.6308],[164.0245,61.3359,138.7268],[164.0167,61.3333,49.6967],[164.0089,61.3328,0.0],[164.0099,61.3297,32.9853],[164.0089,61.3276,2.4027],[164.012,61.3245,70.9366],[164.0109,61.3214,6.8595],[164.0141,61.3172,72.4027],[164.0109,61.3161,60.567],[164.0068,61.3109,154.3607],[164.0141,61.3068,340.4274],[164.0047,61.3057,165.5711],[164.0016,61.3026,252.6516],[163.988,61.2974,96.4534],[163.9807,61.2901,343.1018],[163.9672,61.287,66.5853],[163.9641,61.2839,147.5594],[163.9588,61.2828,0.0],[163.9599,61.2797,32.7446],[163.9557,61.2755,30.7064],[163.9505,61.2745,0.0],[163.9484,61.2724,0.0],[163.9495,61.2693,50.4497],[163.9443,61.2682,0.0],[163.9495,61.2661,0.0],[163.9557,61.2599,14.253],[163.9526,61.2547,0.0],[163.9578,61.2526,13.3907],[163.9547,61.2495,0.0],[163.9557,61.2422,103.0927],[163.9536,61.2401,159.8694],[163.9484,61.2391,39.1924],[163.938,61.2307,0.0],[163.9391,61.2234,84.7674],[163.9255,61.2182,0.0],[163.9203,61.213,44.0338],[163.9125,61.2104,173.9213],[163.9047,61.2099,0.0],[163.9,61.2062,158.1066],[163.8938,61.2083,0.0],[163.8813,61.2083,0.0],[163.8667,61.2042,14.6229],[163.8604,61.2042,12.0913],[163.8547,61.1995,34.1949],[163.8557,61.1964,168.2888],[163.8542,61.1958,167.8703],[163.8417,61.1958,83.88],[163.8375,61.1937,163.2103],[163.8333,61.1958,0.0],[163.8271,61.1917,83.6956],[163.8208,61.1917,0.0],[163.813,61.1891,0.0],[163.8078,61.1839,39.4009],[163.7937,61.1792,108.5401],[163.763,61.1745,89.7544],[163.7536,61.1651,64.8145],[163.7443,61.1641,9.8205],[163.7453,61.1609,100.6497],[163.738,61.1599,0.0],[163.7328,61.1547,50.18],[163.7276,61.1536,48.7909],[163.7287,61.1505,172.1844],[163.7208,61.15,88.0277],[163.713,61.1474,0.0],[163.7057,61.1401,30.7823],[163.7005,61.1391,0.0],[163.6958,61.1354,139.0572],[163.675,61.1354,0.0],[163.6708,61.1333,137.2138],[163.6589,61.1328,0.0],[163.6568,61.1307,0.0],[163.6578,61.1276,98.9431],[163.6526,61.1266,0.0],[163.6536,61.1234,98.3723],[163.6484,61.1224,0.0],[163.6411,61.1151,156.2456],[163.6172,61.1099,25.132],[163.6224,61.1036,0.0],[163.6214,61.1005,0.0],[163.6286,61.0995,6.1073],[163.6307,61.0974,22.0892],[163.6297,61.0943,0.0],[163.6349,61.0932,61.1541],[163.6339,61.0818,0.0],[163.637,61.0786,43.6268],[163.6328,61.0734,19.1399],[163.6234,61.0703,0.0],[163.6286,61.0661,77.3505],[163.6266,61.063,164.3517],[163.6193,61.062,0.0],[163.6245,61.0568,79.5837],[163.6172,61.0557,0.0],[163.612,61.0505,79.9035],[163.6068,61.0495,0.0],[163.6037,61.0464,62.9573],[163.5984,61.0453,32.1874],[163.5938,61.0417,236.3179],[163.5813,61.0417,209.0481],[163.575,61.0458,176.9555],[163.5562,61.0458,90.4162],[163.5484,61.0432,54.8752],[163.5412,61.0359,157.0945],[163.5271,61.0313,205.031],[163.5208,61.0313,36.4993],[163.5161,61.0276,197.6158],[163.5109,61.0266,99.6989],[163.4995,61.0151,149.0258],[163.4943,61.0141,0.0],[163.4953,61.0109,152.9619],[163.4901,61.0099,0.0],[163.4922,61.0068,79.3802],[163.5036,61.0036,13.4921],[163.5026,61.0005,0.0],[163.5057,60.9974,78.2197],[163.5047,60.9943,0.0],[163.5078,60.9943,16.4364],[163.5109,60.9974,74.3453],[163.525,61.0021,0.0],[163.5292,61.0021,9.2065],[163.5359,60.9964,0.0],[163.5412,60.9953,88.0913],[163.5401,60.9922,0.0],[163.5432,60.9891,0.0],[163.5422,60.9859,0.0],[163.5495,60.9849,71.8382],[163.5484,60.9818,65.4854],[163.5505,60.9797,67.0378],[163.5667,60.9792,0.0],[163.5708,60.9771,0.0],[163.5771,60.9771,9.363],[163.5786,60.9766,4.9107],[163.5776,60.9734,0.0],[163.5917,60.9688,16.6398],[163.5995,60.9682,30.5006],[163.6026,60.9651,0.0],[163.6104,60.9625,0.0],[163.6203,60.962,28.0975],[163.6193,60.9589,0.0],[163.6208,60.9583,0.0],[163.625,60.9604,1.9794],[163.6292,60.9583,0.0],[163.6396,60.9583,0.0],[163.65,60.9542,0.0],[163.6563,60.9542,0.0],[163.6609,60.9505,0.0],[163.6662,60.9495,0.0],[163.6703,60.9453,0.0],[163.6693,60.9422,0.0],[163.6807,60.9411,43.1359],[163.6859,60.9359,0.0],[163.6911,60.9349,4.9607],[163.6984,60.9276,0.0],[163.7057,60.9286,0.0],[163.7047,60.9255,0.0],[163.7057,60.9234,0.0],[163.6922,60.9224,0.0],[163.688,60.9172,0.0],[163.6932,60.9161,0.0],[163.6953,60.9141,0.0],[163.6922,60.9099,0.0],[163.6943,60.9068,0.0],[163.7,60.9083,0.0],[163.7078,60.9057,0.0],[163.7005,60.9016,0.0],[163.7016,60.8984,0.0],[163.6964,60.8922,0.0],[163.7021,60.8917,0.0],[163.7125,60.8958,0.0],[163.7161,60.8922,0.0],[163.7083,60.8917,0.0],[163.7042,60.8896,0.0],[163.6901,60.8911,0.0],[163.6911,60.888,0.0],[163.687,60.8839,0.0],[163.6792,60.8812,0.0],[163.6734,60.8828,0.0],[163.6807,60.8734,0.0],[163.6687,60.8729,0.0],[163.6672,60.8714,0.0],[163.6708,60.8688,0.0],[163.675,60.8688,0.0],[163.6792,60.8708,0.0],[163.6849,60.8703,0.0],[163.6797,60.8682,0.0],[163.6849,60.8661,0.0],[163.6839,60.8589,0.0],[163.6859,60.8568,2.2241],[163.6911,60.8557,4.1531],[163.6943,60.8526,3.2648],[163.7021,60.85,1.0],[163.7083,60.85,1.5],[163.7125,60.8479,3.3263],[163.7458,60.8479,2.5],[163.7474,60.8464,2.5],[163.7396,60.8438,3.7667],[163.7188,60.8438,2.8318],[163.7146,60.8417,3.3565],[163.7021,60.8417,3.3501],[163.6974,60.8453,2.851],[163.6896,60.8458,2.747],[163.6849,60.8495,1.2698],[163.6797,60.8505,11.0631],[163.6776,60.8526,37.5232],[163.6787,60.8557,0.0],[163.6724,60.862,0.0],[163.6684,60.8626,4.4189],[163.6507,60.8324,62.2227],[163.6462,60.8073,64.5],[163.6829,60.7908,28.4677],[163.7161,60.7673,61.4531],[163.699,60.729,66.0298],[163.6778,60.6733,40.6991],[163.7376,60.5997,50.3307],[163.8542,60.555,85.7299],[163.9861,60.5169,95.6126],[164.1233,60.5015,77.5849],[164.2211,60.5151,67.0214],[164.2651,60.5492,104.102],[164.2667,60.5992,112.6834],[164.242,60.6564,117.6452],[164.2757,60.6958,99.7092],[164.3834,60.7314,122.0631],[164.5174,60.7627,219.1747],[164.6238,60.7483,194.6342],[164.7183,60.7246,362.8924],[164.8255,60.7144,286.3562],[164.9187,60.7178,623.4945],[164.926,60.7413,297.5641],[164.9346,60.7806,632.1152],[165.0161,60.8268,348.6799],[165.1155,60.85,332.001],[165.2288,60.8568,553.4053],[165.2979,60.8417,468.9535],[165.4087,60.8331,363.7397],[165.4852,60.8694,625.0164],[165.4794,60.8927,616.1592],[165.4753,60.9411,723.9438],[165.5168,60.9626,649.3501],[165.5302,60.9945,358.1007],[165.5387,61.0548,616.7178],[165.6501,61.1087,520.0591],[165.8969,61.1447,309.2054],[165.9822,61.171,371.3577],[166.0884,61.2182,310.4138],[166.1885,61.259,430.7885],[166.2586,61.255,253.3795],[166.4573,61.2153,621.6955],[166.5747,61.2383,400.2112],[166.6533,61.2752,618.2302],[166.685,61.331,460.3372],[166.7079,61.3818,423.2193],[166.7875,61.431,407.6801],[166.9077,61.4487,637.1638],[167.1333,61.4185,257.8821],[167.2586,61.4288,280.2339],[167.3186,61.3962,407.6184],[167.4084,61.3882,315.1733],[167.5592,61.3993,634.002],[167.7273,61.4672,414.3443],[168.0132,61.5667,446.7992],[168.2965,61.6384,937.8361],[168.5212,61.6351,837.9775],[168.7088,61.6235,505.8812],[168.9769,61.7287,633.2983],[169.262,61.7999,653.8541],[169.5654,61.9125,766.15],[169.6819,62.0649,982.7775],[169.7686,62.1407,1232.3828],[169.8815,62.1951,1141.0958],[170.0296,62.2206,1044.197],[170.0263,62.2593,1158.1062],[169.9841,62.2873,1260.1696],[169.9906,62.3202,1068.4911],[169.9122,62.3626,1130.1311],[169.9368,62.4036,847.7889],[169.8353,62.4527,1100.2975],[169.8644,62.5263,817.0266],[169.8242,62.5806,642.2062],[169.717,62.5847,637.7973],[169.6312,62.6231,843.8887],[169.539,62.6211,823.6256],[169.4996,62.655,562.9579],[169.4207,62.7169,479.4344],[169.2331,62.7743,389.0034],[169.1533,62.8165,355.1111],[168.9528,62.8754,295.8446],[168.7969,62.8581,268.5191],[168.621,62.8913,233.5475],[168.5539,62.9384,214.4865],[168.4328,62.9581,249.6605],[168.2931,63.0071,338.9353],[168.3037,63.0516,183.0076],[168.4001,63.0685,233.9312],[168.4346,63.1022,316.2818],[168.5598,63.1143,389.2915],[168.6293,63.1647,504.5541],[168.6827,63.1776,327.579],[168.681,63.248,211.1646],[168.7619,63.2728,275.1823],[168.8067,63.3288,281.8223],[168.9422,63.3517,283.8822],[169.0288,63.4217,284.5338],[169.1136,63.454,352.1463],[169.1675,63.4582,531.2162],[169.2846,63.4734,315.0157],[169.3906,63.5134,418.4792],[169.3798,63.5384,513.3704],[169.4471,63.5808,277.4767],[169.4083,63.6178,224.3167],[169.3596,63.708,200.1654],[169.3337,63.7713,134.5545],[169.1896,63.8099,222.2258],[169.2,63.8678,219.215],[169.1047,63.8895,311.578],[169.0063,63.8862,308.7777],[168.8627,63.9001,197.6217],[168.8248,63.9319,241.7247],[168.7186,63.9756,348.136],[168.6651,64.0521,450.6056],[168.6419,64.148,217.9674],[168.4447,64.1674,213.562],[168.378,64.2089,409.0288],[168.3424,64.2909,576.3555],[168.152,64.2711,853.8602],[168.0975,64.2872,643.5217],[167.9995,64.2481,528.6844],[167.8439,64.2305,817.096],[167.7513,64.2441,659.9812],[167.7332,64.2949,692.9936],[167.5929,64.2741,733.7682],[167.5258,64.2866,333.4757],[167.5082,64.3333,395.4724],[167.5121,64.3839,621.2449],[167.3527,64.4192,349.7138],[167.2494,64.4681,672.0349],[167.1438,64.5406,724.251],[167.0955,64.5874,695.3878],[167.0269,64.578,633.5345],[166.9971,64.554,772.666],[166.9236,64.5132,653.5643],[166.7624,64.4844,609.9323],[166.6383,64.4939,715.3062],[166.4733,64.4715,533.2787],[166.4106,64.4955,624.4104],[166.3093,64.5514,522.6624],[166.1408,64.5647,724.7679],[166.0182,64.5865,793.6471],[165.9154,64.5227,646.0919],[165.8049,64.5124,456.4617],[165.7336,64.5312,683.2073],[165.7625,64.5677,487.794],[165.7714,64.5897,782.4216],[165.7221,64.6351,638.4083],[165.7074,64.6869,668.4822],[165.6529,64.7142,575.371]]]]}}