{"type":"Feature","properties":{"GID_2":"RUS.60.2_1","GID_0":"RUS","country":"Russia","GID_1":"RUS.60_1","province":"Sakha","NL_NAME_1":"РеспубликаСаха","county":"Aldanskiyrayon","VARNAME_2":"NA","NL_NAME_2":"Алданскийрайон","TYPE_2":"Raion","ENGTYPE_2":"District","CC_2":"R65000","HASC_2":"RU.SK.AL","name":"Aldanskiyrayon.county"},
"geometry":{"type": "MultiPolygon","coordinates": [[[[132.6249,58.8861,554.296],[132.5891,58.9133,520.9949],[132.5226,58.9309,532.9568],[132.4807,58.9218,474.3483],[132.3906,58.8879,433.131],[132.2922,58.84,712.4918],[132.2192,58.8652,541.5353],[132.2448,58.8968,433.3266],[132.2736,58.9458,393.4192],[132.2639,58.9897,382.5889],[132.2177,59.0361,356.0317],[132.2218,59.0662,253.1647],[132.2903,59.0857,265.5397],[132.2945,59.1118,281.8694],[132.1284,59.1096,164.4861],[132.1313,59.136,172.3102],[132.0613,59.145,171.4521],[132.0142,59.1601,172.9711],[131.9998,59.2363,222.7554],[131.9563,59.3178,278.9655],[131.8508,59.3748,347.6166],[131.8201,59.4328,196.8723],[131.8162,59.5,253.5623],[131.7716,59.6317,286.7372],[131.7778,59.8146,425.8318],[131.7916,59.9234,367.9454],[131.7729,59.937,330.9783],[131.8055,59.977,357.2902],[131.8123,60.0124,319.773],[131.7826,60.0258,278.8389],[131.737,60.0381,255.8661],[131.6911,60.0316,270.6671],[131.646,60.0057,388.9181],[131.6076,60.0082,401.4814],[131.4449,60.0785,325.7589],[131.321,60.087,395.3449],[131.2263,60.0912,384.5668],[131.1288,60.1081,258.0608],[131.0847,60.064,384.5046],[131.0421,60.0105,398.2604],[130.976,59.9708,386.8542],[130.9151,59.9487,346.7926],[130.6806,59.893,364.3752],[130.6316,59.8411,335.3903],[130.6275,59.7863,361.4214],[130.5766,59.7189,421.6418],[130.5253,59.6216,385.5808],[130.4158,59.4876,310.1114],[130.3849,59.4811,374.9617],[130.3553,59.5093,402.0517],[130.3544,59.5443,416.6544],[130.3621,59.6033,359.4232],[130.3768,59.6605,397.7388],[130.3442,59.7092,428.8393],[130.2377,59.7488,391.4581],[130.1651,59.7383,401.6035],[130.0972,59.7436,447.3773],[130.0101,59.7742,388.8385],[129.9552,59.7654,461.1791],[129.8877,59.7457,432.0841],[129.7925,59.7473,412.963],[129.6752,59.7561,425.3724],[129.5166,59.8071,422.8578],[129.4129,59.8806,394.4917],[129.3628,59.9209,297.8885],[129.2764,59.9487,319.074],[129.1928,59.9945,293.7388],[129.1484,60.0342,376.4236],[129.0675,60.1157,374.3437],[129.026,60.1939,345.7292],[128.9828,60.3284,278.5628],[128.9581,60.5177,406.3457],[128.947,60.6841,334.0317],[128.9482,60.8077,414.956],[128.961,60.9286,350.8004],[128.7818,60.9442,376.6972],[128.5914,60.9501,328.3803],[128.3625,60.9785,350.0064],[128.2091,61.0022,296.6837],[128.0929,60.9817,311.6581],[128.0954,60.9129,333.8307],[128.1142,60.8514,359.5572],[128.1604,60.7967,306.1544],[128.1647,60.7743,346.7343],[127.926,60.7389,369.2835],[127.8541,60.6692,480.7372],[127.814,60.6386,463.5421],[127.7079,60.6248,446.0705],[127.6625,60.6265,469.0835],[127.6582,60.7062,344.4432],[127.6612,60.7464,263.8597],[127.6486,60.7579,263.0233],[127.2425,60.5559,470.4973],[127.1848,60.5318,509.9737],[127.0903,60.4377,500.6038],[127.0218,60.3818,539.3595],[126.9557,60.3614,580.4167],[126.8969,60.3636,556.7946],[126.8241,60.3919,524.715],[126.7847,60.4512,512.8604],[126.7745,60.5045,415.3231],[126.7454,60.5374,501.761],[126.707,60.5518,497.0991],[126.6291,60.5364,435.7131],[126.5594,60.4972,495.5648],[126.5033,60.4445,507.2587],[126.4949,60.4201,475.4391],[126.5091,60.3912,551.6826],[126.4644,60.3691,507.2942],[126.3871,60.3854,519.7369],[126.3289,60.393,470.8839],[126.27,60.3824,514.3093],[126.1729,60.3406,590.8476],[125.9791,60.2655,592.5992],[125.8059,60.2402,592.3596],[125.6198,60.2277,593.3939],[125.5426,60.229,540.9933],[125.4853,60.1946,535.5278],[125.4275,60.1544,610.7112],[125.4114,60.1112,594.1135],[125.3714,60.1034,545.6035],[125.3046,60.1093,517.1011],[125.1768,60.0533,526.4636],[124.8873,60.0513,442.0375],[124.8028,60.0188,509.1062],[124.7408,59.9888,507.2221],[124.6291,59.9823,501.6327],[124.5502,59.9852,507.3102],[124.445,59.914,579.139],[124.3882,59.8406,570.2166],[124.3283,59.8217,558.1537],[124.2668,59.7944,550.2979],[124.162,59.698,578.8055],[124.1056,59.6343,595.7059],[124.0706,59.5974,608.6208],[124.0034,59.5989,615.8356],[123.9377,59.6098,527.2175],[123.8986,59.6341,609.7565],[123.8348,59.6455,601.1223],[123.7638,59.6303,581.5283],[123.6917,59.625,625.4286],[123.6204,59.6453,627.4105],[123.5233,59.6511,545.9856],[123.4808,59.6346,583.0502],[123.4316,59.5573,562.4122],[123.4497,59.512,574.9449],[123.4393,59.4622,685.2052],[123.408,59.4237,550.5458],[123.3406,59.407,638.9545],[123.278,59.4142,650.662],[123.203,59.3931,659.65],[123.1588,59.3712,672.1387],[123.101,59.3623,619.3423],[123.0513,59.3347,570.5577],[122.9919,59.2744,522.3821],[122.9153,59.2611,532.5334],[122.8754,59.2307,489.0161],[122.8265,59.1762,499.9204],[122.7825,59.1504,492.6063],[122.7431,59.1095,572.9358],[122.7582,59.0513,514.2236],[122.805,59.0076,525.9734],[122.8746,58.9867,456.2394],[122.9343,59.0048,518.5294],[122.9687,58.9882,644.2595],[122.9957,58.9556,663.933],[122.9958,58.9143,661.5636],[123.0412,58.8889,600.5747],[122.9792,58.8184,949.0063],[122.918,58.7813,784.9882],[122.8805,58.7842,651.579],[122.8026,58.7606,983.5724],[122.8039,58.7297,719.3678],[122.8209,58.6844,919.1266],[122.791,58.6129,1042.9801],[122.7842,58.5776,1080.1282],[122.813,58.5533,988.0231],[122.8519,58.555,992.4609],[122.8819,58.5851,851.562],[122.9039,58.6187,699.7967],[122.9507,58.6122,908.893],[122.9473,58.5743,678.5048],[122.8934,58.5167,879.741],[122.8792,58.4587,697.709],[122.8789,58.4145,792.8829],[122.8627,58.3761,833.4584],[122.8013,58.3429,716.0613],[122.8091,58.2876,727.2964],[122.7939,58.2615,726.4258],[122.768,58.2315,763.4072],[122.8477,58.1863,740.9419],[122.9742,58.1729,791.0865],[123.0384,58.218,675.9132],[123.0809,58.2536,685.6654],[123.1497,58.2728,528.4028],[123.2458,58.2928,489.0203],[123.374,58.2864,518.7894],[123.4753,58.2676,555.583],[123.6084,58.263,604.1147],[123.7775,58.2728,497.8525],[123.9208,58.3222,681.9725],[124.0227,58.3542,381.7105],[124.1128,58.3651,602.516],[124.1934,58.3535,456.8353],[124.2549,58.3689,611.8983],[124.4378,58.4637,625.9578],[124.4168,58.4891,582.7861],[124.3638,58.4993,501.6573],[124.3556,58.5281,568.7003],[124.4133,58.547,385.4255],[124.4952,58.5477,447.7705],[124.6202,58.543,593.4355],[124.6919,58.5582,521.3862],[124.7343,58.5538,542.8474],[124.8272,58.5327,708.0944],[124.9004,58.5417,860.5385],[124.8946,58.4825,744.3011],[124.8308,58.4376,671.7369],[124.7561,58.3716,715.8738],[124.6939,58.302,732.1917],[124.6457,58.2512,762.7252],[124.6125,58.1974,662.2692],[124.6003,58.1521,747.5488],[124.5428,58.1215,652.8586],[124.4761,58.0966,709.7054],[124.4413,58.0655,742.1899],[124.4366,58.0149,633.5738],[124.4427,57.9631,778.1349],[124.4286,57.9094,774.7256],[124.3789,57.8705,710.5649],[124.3639,57.8442,809.0802],[124.3797,57.809,857.4169],[124.451,57.789,882.0379],[124.5231,57.7581,1148.2197],[124.5514,57.7242,1074.2164],[124.5864,57.6752,1008.811],[124.6453,57.6273,1173.9294],[124.758,57.5997,1108.6472],[124.8709,57.5796,1140.4882],[124.9414,57.5976,1133.433],[125.0091,57.5964,1152.5977],[125.0731,57.5803,1190.9214],[125.0974,57.5577,1311.6091],[125.1317,57.5438,1441.9646],[125.2082,57.5299,1286.4534],[125.2706,57.5297,1162.323],[125.3272,57.5591,1124.5513],[125.4956,57.7222,1164.6855],[125.5458,57.7648,1268.4845],[125.6067,57.7736,1211.3857],[125.6677,57.7677,1177.6884],[125.774,57.7139,1155.7609],[125.8313,57.6555,1209.1025],[125.8847,57.6234,1252.6903],[125.9605,57.6073,1249.0381],[126.0721,57.5518,1246.5328],[126.3226,57.5221,1074.384],[126.6016,57.448,1058.7793],[126.8402,57.4206,1184.3047],[126.9195,57.4217,1061.2964],[127.0544,57.4021,1046.8145],[127.1483,57.3799,874.0386],[127.1858,57.3376,1017.0251],[127.2034,57.2868,627.3219],[127.2307,57.2299,897.1417],[127.396,57.1531,848.9247],[127.5181,57.063,1177.5529],[127.6103,57.0235,1586.6917],[127.6775,57.0337,1617.6864],[127.7145,57.0679,1472.1487],[127.7695,57.0909,1294.0104],[127.8237,57.0921,1198.4567],[127.8961,57.076,1524.2412],[127.9452,57.0384,1613.5769],[128.0532,57.0348,1393.7177],[128.1393,57.0132,1439.9349],[128.1876,56.9866,1176.1938],[128.2399,56.9641,1438.0836],[128.3405,56.9658,1594.2076],[128.3933,56.9801,1521.8225],[128.4382,57.0194,1601.1943],[128.4435,57.0532,1423.2166],[128.4717,57.0845,1181.562],[128.5074,57.0949,1176.2871],[128.5854,57.088,1115.949],[128.7374,57.061,1234.0536],[128.8715,57.0302,1249.3041],[128.9836,57.0066,1243.3507],[129.0582,57.0053,1416.4736],[129.187,57.0297,1382.6104],[129.3643,57.057,1322.652],[129.5381,57.0618,1323.0837],[129.692,57.0563,1397.8799],[129.8059,57.0497,1426.089],[129.9422,57.0332,1420.9048],[130.1058,56.9831,1207.093],[130.1415,56.9617,1097.2083],[130.1507,56.9279,829.0515],[130.1898,56.8812,880.1097],[130.2347,56.8645,891.7415],[130.272,56.8833,782.2556],[130.2654,56.9266,1209.3013],[130.2892,56.9499,1176.0126],[130.3362,56.9478,885.0472],[130.435,56.8905,1103.6315],[130.5197,56.8663,994.6075],[130.5971,56.8693,1106.1288],[130.7471,56.9347,1004.842],[130.8625,56.9734,1095.2395],[130.9657,57.0042,986.3749],[131.0828,57.0311,832.2383],[131.2745,57.1085,860.4785],[131.3588,57.1227,707.6808],[131.4348,57.1487,375.944],[131.3629,57.1793,573.4311],[131.2642,57.1852,388.7503],[131.2283,57.2571,635.4283],[131.3025,57.2659,780.8927],[131.3324,57.3364,618.3583],[131.3867,57.3413,926.3179],[131.3856,57.3121,872.1003],[131.4498,57.2969,966.6642],[131.536,57.2717,462.7117],[131.5902,57.2908,862.9213],[131.6526,57.3568,754.288],[131.6501,57.4004,845.7651],[131.657,57.4363,987.6731],[131.7211,57.4813,1134.1898],[131.8131,57.5403,1623.7717],[131.8266,57.5805,1256.7229],[131.9378,57.6343,1151.0254],[132.0172,57.6383,1215.6427],[132.0364,57.6841,1363.179],[132.0941,57.6899,1238.1361],[132.1302,57.7271,1170.62],[132.0948,57.7663,962.1663],[132.0237,57.8028,955.6218],[131.9236,57.8601,900.4146],[131.8199,57.903,860.0307],[131.8709,57.9524,717.0314],[131.8092,57.9769,862.2418],[131.714,57.9868,893.3926],[131.6371,58.0363,1037.049],[131.6765,58.0716,991.0573],[131.6618,58.0987,939.6651],[131.5641,58.1111,1020.988],[131.5422,58.1956,988.0826],[131.6284,58.2096,998.499],[131.7275,58.2192,938.9857],[131.8015,58.1583,864.5466],[131.874,58.1524,894.2405],[131.969,58.1213,764.907],[132.0476,58.072,879.5189],[132.1932,58.0768,880.1547],[132.1494,58.1393,1010.2628],[132.1309,58.2142,819.4153],[132.1819,58.2706,675.8969],[132.2551,58.2846,548.5465],[132.2402,58.3271,746.6056],[132.1974,58.4357,649.3778],[132.1911,58.5285,654.7836],[132.444,58.512,711.7319],[132.4784,58.5424,627.9446],[132.4789,58.5818,539.8828],[132.5742,58.6425,458.0491],[132.5217,58.7131,484.9096],[132.5763,58.7614,437.2438],[132.5749,58.8114,473.057],[132.6249,58.8861,554.296]]]]}}