{"type":"Feature","properties":{"GID_2":"RUS.35.14_1","GID_0":"RUS","country":"Russia","GID_1":"RUS.35_1","province":"Krasnoyarsk","NL_NAME_1":"Красноярскийкрай","county":"Divnogorsk","VARNAME_2":"NA","NL_NAME_2":"Дивногорск","TYPE_2":"Gorsovet","ENGTYPE_2":"District","CC_2":"NA","HASC_2":"RU.KY.DI","name":"Divnogorsk.county"},
"geometry":{"type": "MultiPolygon","coordinates": [[[[92.4334,55.9373,476.7258],[92.4429,55.961,141.0],[92.43,55.9667,210.202],[92.3852,55.9631,205.573],[92.3874,55.9459,354.206],[92.4039,55.9354,523.5839],[92.4334,55.9373,476.7258]]]]}}