{"type":"Feature","properties":{"GID_3":"RUS.30.8.1_1","GID_0":"RUS","country":"Russia","GID_1":"RUS.30_1","province":"Khanty-Mansiy","NL_NAME_1":"Ханты-МансийскийАОк","GID_2":"RUS.30.8_1","county":"Langepas","NL_NAME_2":"Лангепас","city":"NA","VARNAME_3":"NA","NL_NAME_3":"NA","TYPE_3":"NA","ENGTYPE_3":"NA","CC_3":"NA","HASC_3":"NA","name":"N_A.city"},
"geometry":{"type": "MultiPolygon","coordinates": [[[[75.2359,61.2703,45.1381],[75.2574,61.2796,44.9685],[75.2445,61.3096,42.4978],[75.1952,61.3005,45.4171],[75.1792,61.2784,45.2493],[75.191,61.2698,45.8341],[75.2359,61.2703,45.1381]]]]}}