{"type":"Feature","properties":{"GID_2":"RUS.60.27_1","GID_0":"RUS","country":"Russia","GID_1":"RUS.60_1","province":"Sakha","NL_NAME_1":"РеспубликаСаха","county":"Tattinskiyrayon","VARNAME_2":"Alekseyevskiy","NL_NAME_2":"Таттинскийрайон","TYPE_2":"Raion","ENGTYPE_2":"District","CC_2":"R65002","HASC_2":"RU.SK.TA","name":"Tattinskiyrayon.county"},
"geometry":{"type": "MultiPolygon","coordinates": [[[[134.5274,61.388,158.4884],[134.6252,61.3791,237.7335],[134.7927,61.4024,224.2488],[134.9008,61.3833,262.5486],[135.0813,61.3803,257.7974],[135.27,61.4432,221.1093],[135.3371,61.4969,140.3973],[135.422,61.519,132.7463],[135.559,61.5728,225.8352],[135.5696,61.5882,385.4037],[135.567,61.6013,203.6612],[135.5536,61.6158,132.4944],[135.5174,61.624,132.4308],[135.4767,61.6225,152.0218],[135.4073,61.6026,134.5302],[135.3157,61.592,213.5559],[135.2615,61.6152,191.9941],[135.2503,61.6596,142.6049],[135.2986,61.7369,156.9919],[135.3604,61.7652,127.1735],[135.407,61.7705,144.3897],[135.4754,61.7909,139.5223],[135.5345,61.8188,131.61],[135.5621,61.8654,247.0026],[135.6185,61.8983,273.5644],[135.7191,61.9319,203.5782],[135.7749,61.9951,140.7882],[135.72,62.0575,220.4691],[135.6074,62.1579,300.5301],[135.4329,62.2702,296.6405],[135.2719,62.3619,234.7438],[135.177,62.4342,234.6376],[135.097,62.4621,206.1974],[134.9665,62.4904,132.2474],[134.5774,62.5956,209.0759],[134.4854,62.5826,189.9672],[134.4059,62.5964,240.0592],[134.2034,62.6512,239.9194],[134.044,62.7022,220.2204],[134.015,62.7804,184.1471],[134.0364,62.909,131.2569],[134.0348,63.0495,104.1313],[134.0896,63.1773,170.8693],[134.0557,63.2722,186.5473],[134.0859,63.3143,197.4515],[134.08,63.3859,232.552],[134.012,63.457,267.2696],[133.9665,63.4639,260.4018],[133.8888,63.4239,220.8691],[133.7547,63.3677,208.6428],[133.5746,63.3349,191.669],[133.3535,63.3282,105.7248],[133.0966,63.3593,97.5201],[132.9847,63.3417,102.5217],[132.8435,63.3396,92.0548],[132.8358,63.2914,101.5218],[132.8031,63.2133,163.3367],[132.6942,63.0778,191.449],[132.543,62.9462,181.5566],[132.5157,62.8621,199.904],[132.4672,62.7291,225.9001],[132.4665,62.5961,208.9448],[132.4315,62.4824,207.1784],[132.5076,62.4725,203.0992],[132.573,62.4721,205.5641],[132.6783,62.458,214.0511],[132.7566,62.4178,213.0775],[132.7269,62.371,215.4396],[132.661,62.3268,212.6028],[132.6839,62.303,204.3988],[132.7256,62.2644,215.0133],[132.6918,62.2186,187.4488],[132.7296,62.2003,203.6685],[132.864,62.183,185.3405],[132.9271,62.1136,162.8204],[132.9603,62.025,243.3011],[132.984,61.9234,241.1565],[133.1054,61.9088,257.128],[133.1487,61.8492,251.2692],[133.1934,61.8259,225.3374],[133.299,61.8323,211.2515],[133.3619,61.8545,206.4601],[133.4011,61.9244,232.452],[133.5385,61.8513,137.0382],[133.7859,61.8558,229.3134],[133.8832,61.8241,311.2309],[133.9571,61.83,273.7411],[134.0475,61.8236,310.1297],[134.2111,61.7913,274.8479],[134.2612,61.7384,214.6346],[134.3507,61.7124,248.4506],[134.3952,61.6835,277.1214],[134.3896,61.5728,193.8198],[134.4592,61.5168,178.3095],[134.5335,61.4688,258.2767],[134.5274,61.388,158.4884]]]]}}