{"type":"Feature","properties":{"GID_3":"RUS.28.19.1_1","GID_0":"RUS","country":"Russia","GID_1":"RUS.28_1","province":"Khabarovsk","NL_NAME_1":"Хабаровскийкрай","GID_2":"RUS.28.19_1","county":"Tuguro-Chumikanskiyrayon","NL_NAME_2":"Тугуро-Чумиканскийрайон","city":"NA","VARNAME_3":"NA","NL_NAME_3":"NA","TYPE_3":"NA","ENGTYPE_3":"NA","CC_3":"NA","HASC_3":"NA","name":"N_A.city"},
"geometry":{"type": "MultiPolygon","coordinates": [[[[137.4961,53.6544,1.7541],[137.4953,53.6534,0.0],[137.4995,53.6557,0.0],[137.4981,53.656,1.7066],[137.4961,53.6544,1.7541]]],
[[[137.4101,54.075,0.0],[137.4121,54.0737,0.0],[137.4179,54.0775,0.0],[137.414,54.0772,0.0],[137.4101,54.075,0.0]]],
[[[137.4295,54.0819,0.576],[137.4306,54.0807,0.576],[137.4403,54.0849,0.6155],[137.4353,54.0843,0.6931],[137.4295,54.0819,0.576]]],
[[[137.4446,54.1438,1.8019],[137.4457,54.1426,1.0663],[137.4468,54.1443,1.2627],[137.4464,54.1451,1.2627],[137.4446,54.1438,1.8019]]],
[[[134.7983,53.1599,1430.1721],[134.7929,53.13,1500.8588],[134.8231,53.0899,1384.5898],[134.7897,53.052,1258.4229],[134.7856,52.9972,1213.1927],[134.8048,52.9694,1214.76],[134.8786,52.9372,1137.2555],[134.9649,52.928,1311.3151],[135.0478,52.8765,1101.651],[135.0945,52.8579,1016.163],[135.1803,52.8612,923.2152],[135.2246,52.8307,1028.8008],[135.3095,52.8056,926.4551],[135.4034,52.8282,812.2639],[135.4153,52.791,884.6303],[135.4696,52.746,791.8307],[135.4726,52.7089,904.3787],[135.5499,52.6811,656.3692],[135.5608,52.6496,397.6223],[135.6223,52.6411,346.5159],[135.702,52.6832,318.369],[135.7437,52.7509,293.1313],[135.8759,52.8046,235.1758],[135.9616,52.8722,194.4544],[136.0654,52.9336,157.4342],[136.1646,52.9353,222.9609],[136.2288,52.9755,123.0139],[136.3032,53.0033,105.6693],[136.3771,53.0115,96.3137],[136.4059,53.0387,93.5023],[136.4028,53.0793,98.7009],[136.6836,53.1062,535.7981],[136.6748,53.1567,541.4651],[136.76,53.1696,506.3258],[136.9321,53.1563,565.2374],[136.9663,53.1827,617.4108],[137.0098,53.1856,474.1873],[137.0378,53.1441,363.4359],[137.167,53.1909,518.0147],[137.2538,53.1906,271.6304],[137.2766,53.1506,197.38],[137.3898,53.1278,374.495],[137.3741,53.088,232.9823],[137.3324,53.0781,234.3055],[137.4008,53.0232,156.5415],[137.5694,53.0227,348.2665],[137.6334,53.0039,320.0865],[137.6552,52.9856,506.4375],[137.6953,52.9437,402.3619],[137.74,52.9444,251.7858],[137.8129,53.011,422.2919],[137.8494,53.0126,623.4978],[137.9213,53.0018,564.5317],[137.9691,53.028,533.5641],[138.059,53.0668,375.1302],[138.1467,53.1275,418.2587],[138.2269,53.1944,290.1482],[138.309,53.2504,364.3339],[138.4203,53.3037,172.6963],[138.5188,53.3074,388.5462],[138.567,53.3537,349.0224],[138.6365,53.3674,225.0779],[138.6581,53.5032,118.2993],[138.5942,53.5438,222.8666],[138.6862,53.537,266.9273],[138.7233,53.5552,431.1618],[138.765,53.626,198.4219],[138.8129,53.6984,171.9523],[138.7462,53.7631,350.1747],[138.8194,53.8285,172.6094],[138.8818,53.9318,533.0586],[138.9717,53.9392,384.879],[139.056,53.9516,422.837],[139.0897,53.9065,461.8847],[139.1645,53.888,440.9479],[139.1858,53.8582,231.9067],[139.2349,53.8418,130.7189],[139.3844,53.9147,223.7764],[139.4374,53.9424,437.1884],[139.432,53.9803,645.7767],[139.4911,54.0235,769.3545],[139.5474,54.0601,831.7374],[139.5813,54.1136,239.3629],[139.6495,54.1486,260.5228],[139.6843,54.1887,410.1107],[139.7252,54.2179,251.4783],[139.7683,54.2521,203.1496],[139.7865,54.2442,105.915],[139.7927,54.2646,0.0],[139.7917,54.2719,57.7491],[139.7892,54.2744,44.9678],[139.7889,54.2811,11.4761],[139.785,54.2839,0.0],[139.7856,54.2869,10.8119],[139.7894,54.2886,4.533],[139.7893,54.2901,30.9726],[139.7294,54.2963,0.0],[139.7083,54.2864,30.2361],[139.6956,54.285,29.3955],[139.6772,54.2772,2.4792],[139.6661,54.2714,5.2217],[139.6435,54.2525,0.0],[139.6396,54.251,7.2309],[139.6061,54.2397,34.5379],[139.5611,54.2281,19.6841],[139.5369,54.2252,45.3079],[139.5117,54.2192,0.0],[139.4845,54.205,6.568],[139.4717,54.2011,5.4382],[139.4419,54.1933,5.9503],[139.4024,54.1921,0.0],[139.3892,54.1889,5.0061],[139.3757,54.188,7.3832],[139.3585,54.1882,6.6284],[139.3215,54.1776,0.0],[139.3022,54.1765,21.083],[139.2621,54.178,3.6182],[139.1672,54.1876,3.2022],[139.1045,54.1987,4.5637],[138.9967,54.2211,7.2685],[138.9403,54.2349,9.1541],[138.8967,54.2478,4.4302],[138.8522,54.2636,8.015],[138.8324,54.2745,10.9265],[138.766,54.2904,61.8326],[138.7528,54.2961,39.0982],[138.7511,54.2983,77.9776],[138.7533,54.3019,0.0],[138.7483,54.3042,0.0],[138.7345,54.3033,50.8372],[138.7274,54.3068,2.9267],[138.7179,54.3001,60.6205],[138.7114,54.2982,33.8526],[138.6965,54.2992,0.0],[138.6939,54.2981,0.0],[138.6925,54.2947,8.3626],[138.6989,54.2892,5.0494],[138.6961,54.2867,36.2447],[138.6806,54.285,35.7455],[138.6728,54.2883,7.9508],[138.6584,54.2862,0.0],[138.6622,54.28,0.0],[138.6745,54.2752,25.8748],[138.675,54.2736,0.0],[138.6806,54.2739,37.9125],[138.6828,54.2697,0.0],[138.6928,54.2653,0.0],[138.7056,54.2633,0.0],[138.7186,54.265,0.0],[138.7276,54.2628,0.0],[138.7327,54.258,36.665],[138.7367,54.2477,80.3851],[138.735,54.24,10.1871],[138.7361,54.2386,11.4848],[138.7339,54.2375,0.0],[138.7345,54.2356,43.2244],[138.73,54.2275,6.8401],[138.7311,54.2256,11.0795],[138.7294,54.2236,0.0],[138.7294,54.2136,0.0],[138.7244,54.2069,63.5048],[138.7244,54.2044,120.3838],[138.72,54.1969,27.3369],[138.72,54.1942,10.402],[138.7251,54.1906,62.803],[138.7261,54.1839,0.0],[138.725,54.1803,0.0],[138.7322,54.1683,60.0956],[138.7306,54.1653,0.0],[138.7308,54.1551,9.2551],[138.7293,54.1512,0.0],[138.7272,54.1503,0.0],[138.7283,54.1481,10.7614],[138.7103,54.1218,20.9865],[138.7075,54.1155,7.596],[138.6983,54.1044,0.0],[138.6956,54.098,19.8415],[138.6811,54.0819,28.227],[138.6625,54.0651,20.3961],[138.6617,54.0603,0.0],[138.6661,54.0561,4.3397],[138.6833,54.0561,4.6878],[138.7017,54.0678,6.1084],[138.7104,54.0692,4.6466],[138.7162,54.0734,4.2235],[138.7367,54.0767,1.377],[138.755,54.0847,2.5174],[138.7589,54.0836,0.9061],[138.7622,54.0908,6.2364],[138.7683,54.0931,1.2175],[138.7717,54.0919,3.2206],[138.7672,54.0914,2.4555],[138.7633,54.0886,1.4878],[138.7645,54.085,2.1206],[138.7722,54.0819,3.0042],[138.7756,54.0772,2.8999],[138.7739,54.0725,2.4653],[138.7717,54.0711,2.5065],[138.7722,54.0675,5.9962],[138.7672,54.0639,3.418],[138.765,54.0531,0.9715],[138.7667,54.0503,3.2479],[138.7617,54.0469,0.0],[138.7604,54.0422,4.1341],[138.7605,54.0373,4.9369],[138.765,54.0294,5.4202],[138.7689,54.0164,4.3687],[138.7678,54.0142,3.6819],[138.7706,54.0106,11.3617],[138.77,54.0,28.9335],[138.7683,53.9997,4.5162],[138.7637,53.991,1.7621],[138.7694,53.9871,35.9774],[138.7694,53.9808,32.9064],[138.7569,53.9625,15.7689],[138.7531,53.9527,9.7699],[138.7417,53.9417,0.0],[138.7444,53.9389,21.4704],[138.7372,53.9281,20.9512],[138.7317,53.9239,15.3386],[138.7228,53.9219,11.3314],[138.7222,53.9206,11.3314],[138.7261,53.9178,13.0237],[138.725,53.9158,21.0177],[138.72,53.9131,16.3047],[138.7128,53.9119,8.3971],[138.7195,53.9078,13.8336],[138.7117,53.905,10.5703],[138.7122,53.9028,11.8395],[138.7167,53.9,13.296],[138.7161,53.8983,14.3022],[138.7133,53.8956,10.1839],[138.7056,53.8931,7.1451],[138.7117,53.8861,15.6359],[138.7117,53.8828,20.8333],[138.71,53.8789,15.0667],[138.7044,53.8761,3.927],[138.7039,53.868899999999996,2.7114],[138.7067,53.8633,3.0936],[138.705,53.8581,0.0],[138.7067,53.8528,0.0],[138.7061,53.8489,1.4831],[138.7078,53.8469,14.8763],[138.7039,53.84,0.0],[138.7044,53.8347,0.0],[138.6956,53.8239,0.0],[138.6961,53.8208,6.8951],[138.6928,53.8161,1.7948],[138.6933,53.8144,10.4906],[138.6894,53.8092,8.9425],[138.678,53.7845,4.7184],[138.679,53.7738,32.4469],[138.6742,53.7569,7.6294],[138.6685,53.7499,8.5563],[138.6647,53.7417,33.2178],[138.6666,53.7315,27.0518],[138.6633,53.7126,4.9636],[138.6577,53.7053,13.6252],[138.6501,53.7002,5.7657],[138.6497,53.696,0.0],[138.6465,53.6933,0.0],[138.6463,53.6883,1.1314],[138.6441,53.6844,33.4174],[138.6289,53.6736,0.0],[138.6289,53.6714,0.0],[138.6267,53.67,0.0],[138.6278,53.6686,0.0],[138.6233,53.6644,0.0],[138.6245,53.6631,0.0],[138.6222,53.6625,0.0],[138.62,53.6581,0.0],[138.6222,53.6569,3.0909],[138.6172,53.6528,0.0],[138.6178,53.6511,0.0],[138.615,53.6489,0.0],[138.6156,53.6472,3.209],[138.6133,53.6439,4.7674],[138.6017,53.6339,0.0],[138.5983,53.6294,0.0],[138.6,53.6283,3.9895],[138.5961,53.6264,0.0],[138.595,53.6228,12.7092],[138.59,53.6206,0.0],[138.5911,53.6192,1.1578],[138.5778,53.6081,10.0643],[138.5589,53.5958,0.0],[138.5594,53.5942,2.6666],[138.5561,53.5911,0.0],[138.5572,53.5886,14.427],[138.5517,53.5828,19.1671],[138.5456,53.5803,0.6072],[138.5472,53.5789,9.839],[138.5456,53.5769,16.7919],[138.5222,53.5656,19.0155],[138.5211,53.5625,2.6247],[138.5145,53.5578,0.0],[138.5145,53.5536,20.4859],[138.5117,53.5525,0.0],[138.5117,53.5508,1.4638],[138.5005,53.5431,11.91],[138.4939,53.5406,0.0],[138.4939,53.5375,4.9674],[138.4917,53.5361,15.6536],[138.4794,53.5308,6.6368],[138.4706,53.5292,0.0],[138.4656,53.5261,0.0],[138.4633,53.5267,0.0],[138.4511,53.5219,1.1472],[138.4483,53.5225,0.0],[138.4361,53.5194,0.0],[138.4289,53.5158,0.3307],[138.4144,53.5142,0.0],[138.405,53.5117,0.0],[138.4028,53.5097,1.4213],[138.3772,53.5069,1.9517],[138.3528,53.5075,0.0],[138.3478,53.5092,0.0],[138.34,53.5086,2.7103],[138.32,53.5111,1.0228],[138.2928,53.5183,0.9962],[138.2439,53.5044,0.0],[138.2439,53.5011,0.0],[138.2489,53.4961,2.881],[138.2456,53.4933,0.9017],[138.2383,53.5053,0.2259],[138.2428,53.5083,0.0],[138.2606,53.5114,0.0],[138.2606,53.5125,0.0],[138.2439,53.5108,0.0],[138.235,53.5056,0.1794],[138.2361,53.5019,2.1258],[138.2317,53.5008,8.4825],[138.2339,53.5075,5.831],[138.2411,53.5122,5.1351],[138.2544,53.5158,2.7224],[138.2655,53.5161,0.0],[138.2689,53.5186,0.4979],[138.2606,53.5228,1.4068],[138.2594,53.5247,1.5176],[138.2556,53.5247,2.9199],[138.2594,53.5264,2.0563],[138.2544,53.5317,5.0985],[138.2583,53.5389,6.629],[138.2744,53.5433,10.7258],[138.2672,53.5486,6.0237],[138.265,53.5533,2.5271],[138.2667,53.56,16.3394],[138.2633,53.5628,10.6617],[138.2694,53.5631,0.7393],[138.2739,53.5611,0.0],[138.3006,53.565,0.0],[138.3039,53.5667,4.8734],[138.3067,53.5706,2.2489],[138.3139,53.5728,7.4246],[138.3167,53.5756,3.9484],[138.3317,53.5817,0.0],[138.3445,53.5892,26.9042],[138.3521,53.5971,0.0],[138.3522,53.6008,2.1724],[138.3539,53.6028,0.2285],[138.3661,53.6056,5.3291],[138.356,53.6207,0.0],[138.3461,53.62,2.6961],[138.3389,53.6242,2.6062],[138.3417,53.6306,1.6363],[138.3561,53.6436,0.0],[138.3567,53.6472,7.8124],[138.3644,53.6481,0.0],[138.37,53.6511,0.0],[138.3878,53.6719,1.9247],[138.3961,53.6753,0.0],[138.4022,53.6819,23.7528],[138.4055,53.6833,0.0],[138.405,53.6844,6.0736],[138.4117,53.6869,0.0],[138.4122,53.6908,4.6458],[138.4378,53.705,0.0],[138.4411,53.7086,0.0],[138.44,53.7103,8.0739],[138.4478,53.7136,0.0],[138.4517,53.7194,12.9365],[138.47,53.7244,0.0],[138.475,53.7289,0.7634],[138.4761,53.7333,14.1052],[138.485,53.7383,11.3672],[138.4906,53.7478,5.3029],[138.5161,53.7558,0.0],[138.525,53.7611,0.0],[138.5322,53.77,8.5184],[138.5317,53.7717,14.1571],[138.5406,53.7764,0.0],[138.5478,53.7861,7.9186],[138.555,53.7875,2.6702],[138.5589,53.7933,6.3711],[138.5628,53.795,0.0],[138.5694,53.8017,3.7777],[138.5744,53.8097,0.0],[138.5722,53.8158,7.7347],[138.5761,53.8239,8.8003],[138.5756,53.8264,11.4474],[138.5822,53.8322,2.4177],[138.5828,53.8378,4.5051],[138.5794,53.8425,12.1514],[138.5811,53.8497,12.7497],[138.5945,53.8619,0.0],[138.5889,53.8775,0.0],[138.5858,53.8793,5.9066],[138.5833,53.8833,6.7936],[138.5833,53.8883,0.0],[138.5794,53.8906,6.1579],[138.5772,53.895,25.0916],[138.5783,53.8969,2.205],[138.5778,53.9058,11.5833],[138.5806,53.9086,0.0],[138.5811,53.9128,2.085],[138.5767,53.9214,17.8045],[138.5772,53.9317,48.0437],[138.5794,53.9375,37.3429],[138.5783,53.9417,9.3532],[138.5811,53.9458,12.2255],[138.5811,53.9514,13.2989],[138.5844,53.9533,0.8178],[138.588,53.9605,15.2947],[138.5922,53.9633,1.8961],[138.595,53.9628,3.5994],[138.5983,53.9575,1.5864],[138.5983,53.9544,0.4048],[138.6018,53.9551,3.7532],[138.6017,53.9578,0.5781],[138.5984,53.9599,2.3527],[138.5972,53.9636,0.0],[138.5967,53.9694,0.0],[138.5978,53.9708,0.0],[138.5894,53.9792,21.6402],[138.5922,53.9819,0.0],[138.5917,53.9858,43.4628],[138.5928,53.9861,0.0],[138.5878,53.9919,9.0965],[138.5828,53.9942,1.7984],[138.5694,53.9928,0.0],[138.5567,53.9889,0.0],[138.5506,53.9847,23.0918],[138.53,53.9761,2.3452],[138.5145,53.9722,2.692],[138.5117,53.9708,0.0],[138.5122,53.9672,57.4365],[138.51,53.9636,84.5773],[138.4878,53.9508,20.2668],[138.4338,53.9329,41.4859],[138.4172,53.9228,27.4101],[138.3722,53.9039,5.874],[138.3689,53.9003,2.4726],[138.3689,53.8967,6.273],[138.3641,53.8908,44.5992],[138.3628,53.8856,36.2622],[138.3589,53.8828,0.0],[138.3589,53.8789,0.0],[138.3617,53.8756,59.1854],[138.3556,53.8672,0.0],[138.3544,53.8569,41.4773],[138.3522,53.8553,8.6635],[138.3522,53.8528,61.7018],[138.3483,53.8464,9.8124],[138.34,53.8383,2.5779],[138.3394,53.8342,30.2233],[138.335,53.8292,0.0],[138.3361,53.8236,0.0],[138.3344,53.8206,0.0],[138.3344,53.8128,0.0],[138.3372,53.8033,29.1975],[138.3356,53.7967,0.0],[138.3383,53.7908,15.0555],[138.3333,53.7792,0.0],[138.3333,53.775,14.6887],[138.33,53.7717,7.7289],[138.3294,53.7664,48.5031],[138.3239,53.7564,10.3779],[138.3106,53.7458,2.8207],[138.3066,53.735,37.7564],[138.3006,53.7303,31.6569],[138.2933,53.7275,5.4784],[138.2767,53.7162,3.6788],[138.2583,53.7094,5.4845],[138.2339,53.7025,6.6225],[138.2154,53.7015,26.4649],[138.2104,53.6944,41.501],[138.2,53.6911,1.4604],[138.2,53.6883,108.0426],[138.1944,53.6853,0.0],[138.1933,53.68,18.8283],[138.1861,53.6772,0.0],[138.1839,53.6742,1.7536],[138.1726,53.6701,6.5875],[138.1617,53.6689,0.0],[138.1528,53.6644,1.3379],[138.1117,53.6556,0.0],[138.1022,53.6489,0.0],[138.1011,53.6439,6.0295],[138.0761,53.6378,16.7381],[138.0683,53.6378,6.4751],[138.0596,53.6336,91.7408],[138.0383,53.6319,29.5675],[138.0234,53.6261,7.8526],[138.01,53.6256,3.6721],[138.0017,53.6194,41.4573],[137.997,53.6137,52.2733],[137.9777,53.6093,4.744],[137.9746,53.6013,0.0],[137.9583,53.5923,0.0],[137.9556,53.5892,0.0],[137.955,53.5833,20.2723],[137.9511,53.5811,5.3406],[137.9261,53.5742,3.0282],[137.8506,53.5667,27.8987],[137.844,53.5645,19.7647],[137.775,53.5628,0.0],[137.7594,53.56,18.2053],[137.7489,53.5603,47.3186],[137.7289,53.5556,0.0],[137.7144,53.5547,24.5604],[137.7016,53.5495,5.2388],[137.69,53.5478,6.3516],[137.6522,53.5472,2.3532],[137.6189,53.5503,4.0927],[137.4589,53.5483,6.2521],[137.4289,53.545,4.9782],[137.4267,53.5433,9.0688],[137.4089,53.5408,5.5534],[137.3989,53.5383,3.5948],[137.3972,53.5353,5.9351],[137.3783,53.5317,2.8371],[137.3755,53.5294,5.4025],[137.3489,53.5328,4.251],[137.335,53.5328,4.3322],[137.3316,53.5285,1.4071],[137.3283,53.5322,0.2859],[137.3172,53.5333,2.0129],[137.3144,53.5322,2.5274],[137.2967,53.5392,2.7594],[137.2961,53.5411,2.1231],[137.2922,53.5403,3.1518],[137.2911,53.5431,2.1617],[137.2867,53.5444,2.4543],[137.2861,53.5464,2.0719],[137.28,53.5469,3.0104],[137.2706,53.5531,1.7736],[137.255,53.5586,2.1836],[137.2439,53.5606,1.5905],[137.2339,53.5589,1.2037],[137.2273,53.5599,1.6419],[137.2283,53.5611,2.0853],[137.2322,53.5603,1.2037],[137.2317,53.5619,1.9661],[137.2339,53.5619,1.7722],[137.2317,53.5636,2.1861],[137.2328,53.565,1.6638],[137.2317,53.5656,2.4448],[137.2339,53.5669,1.724],[137.2322,53.5678,2.1284],[137.2345,53.5686,1.362],[137.2333,53.5692,2.2968],[137.235,53.5708,2.0073],[137.2317,53.5717,2.6891],[137.2317,53.5744,1.6967],[137.23,53.5753,1.6967],[137.2211,53.5767,2.8851],[137.2217,53.5792,1.7005],[137.2189,53.5794,2.648],[137.2195,53.5819,2.5353],[137.2172,53.5797,2.9428],[137.215,53.5825,2.4493],[137.2178,53.5842,2.1374],[137.2161,53.585,2.2827],[137.1983,53.5861,1.2848],[137.1924,53.584,1.3106],[137.191,53.5801,2.72],[137.1834,53.5718,3.3247],[137.1743,53.5745,1.5816],[137.163,53.5719,2.9791],[137.1737,53.5755,3.5013],[137.1839,53.5734,0.6773],[137.192,53.5856,3.0837],[137.2067,53.5878,1.5389],[137.2139,53.5928,1.9374],[137.2167,53.5925,1.9374],[137.2161,53.5939,2.1404],[137.2211,53.5958,1.5849],[137.2217,53.5981,1.9861],[137.2239,53.5972,0.9598],[137.2244,53.6,1.8414],[137.2278,53.5992,1.8414],[137.2294,53.6008,2.1924],[137.2322,53.6006,1.3999],[137.2478,53.61,1.2287],[137.2472,53.6111,1.7184],[137.2578,53.6203,1.941],[137.2594,53.62,1.4864],[137.2606,53.6228,2.3033],[137.2589,53.6233,2.3033],[137.2622,53.6244,2.5176],[137.26,53.6272,2.924],[137.2667,53.6331,3.2023],[137.2717,53.635,2.3891],[137.2767,53.6344,2.2603],[137.2772,53.6364,3.2603],[137.285,53.6383,1.6856],[137.2894,53.6378,2.3311],[137.3056,53.6433,1.3519],[137.3172,53.6531,2.2104],[137.3272,53.6564,2.0806],[137.3289,53.6583,2.3024],[137.3372,53.6592,2.1393],[137.3394,53.6611,2.5606],[137.3511,53.6644,2.9436],[137.3611,53.6653,1.5783],[137.3644,53.6675,2.9802],[137.3956,53.6697,1.9125],[137.4011,53.6719,1.3424],[137.4189,53.6714,1.7424],[137.4206,53.6728,2.5668],[137.4267,53.6731,2.2222],[137.4283,53.6756,2.6238],[137.4361,53.6739,2.547],[137.4406,53.6758,2.8492],[137.4422,53.6733,1.833],[137.4489,53.6747,2.4634],[137.4522,53.6731,1.9211],[137.465,53.6747,2.4006],[137.47,53.6736,2.0898],[137.4722,53.6758,2.9017],[137.4711,53.6744,2.6056],[137.4728,53.6731,2.1563],[137.4872,53.6725,2.4635],[137.49,53.6703,1.8905],[137.4939,53.6714,2.3229],[137.4977,53.6691,0.0],[137.4989,53.6722,0.0],[137.4956,53.6767,3.3587],[137.4961,53.6783,3.4707],[137.4983,53.6781,0.0],[137.4983,53.6811,0.0],[137.4967,53.6817,3.3341],[137.4983,53.6872,0.0],[137.4983,53.6889,0.0],[137.4967,53.6886,2.5727],[137.4972,53.6911,4.1634],[137.5155,53.6997,2.9278],[137.5267,53.7122,19.0826],[137.5383,53.7156,5.4712],[137.5406,53.7208,17.5769],[137.5444,53.7244,64.5879],[137.5589,53.7292,21.8276],[137.56,53.7344,6.9458],[137.5617,53.7356,0.0],[137.5611,53.7381,44.6046],[137.5667,53.7436,9.7382],[137.5678,53.7489,0.0],[137.5667,53.7578,13.4807],[137.5639,53.76,29.377],[137.5661,53.7628,0.0],[137.5644,53.765,10.4538],[137.5711,53.7739,13.1375],[137.5761,53.7769,0.0],[137.5817,53.775,0.7432],[137.58,53.7744,0.7432],[137.59,53.7725,31.8331],[137.5994,53.7736,2.9884],[137.5956,53.7861,13.6373],[137.5967,53.7897,0.0],[137.5994,53.7908,48.7086],[137.6,53.7947,45.7178],[137.5983,53.7953,45.7178],[137.5989,53.7983,8.6112],[137.5961,53.8019,63.1977],[137.5967,53.8103,0.0],[137.5956,53.8108,9.6786],[137.5994,53.8231,9.9275],[137.6083,53.8331,0.8013],[137.6189,53.8353,0.0],[137.6383,53.8469,2.842],[137.6444,53.8472,0.0],[137.6494,53.85,6.5056],[137.6517,53.8533,0.0],[137.6506,53.8539,0.0],[137.6517,53.8547,0.0],[137.6489,53.8558,13.0082],[137.65,53.8597,0.0],[137.6567,53.8667,3.914],[137.6633,53.87,0.0],[137.6689,53.8703,0.0],[137.68,53.8647,0.0],[137.6894,53.8672,0.0],[137.6906,53.8708,6.605],[137.6994,53.8806,50.4332],[137.7089,53.8814,0.0],[137.7128,53.8844,15.4892],[137.7189,53.8825,10.7596],[137.7261,53.8853,2.6847],[137.7328,53.8842,3.3446],[137.7394,53.8925,41.797],[137.7489,53.8944,0.0],[137.7594,53.9008,9.6773],[137.7717,53.8986,0.0],[137.7839,53.9028,13.3037],[137.8039,53.9036,4.1366],[137.8094,53.9108,129.6916],[137.8161,53.9147,2.815],[137.815,53.9167,9.4667],[137.8183,53.9189,14.7475],[137.8183,53.9306,47.4562],[137.8206,53.9325,0.0],[137.82,53.9386,0.0],[137.8261,53.9444,11.099],[137.8278,53.9486,1.4229],[137.8294,53.9492,0.0],[137.8283,53.95,44.724],[137.83,53.9497,0.0],[137.8294,53.9511,8.945],[137.8328,53.9528,0.0],[137.8339,53.9561,55.3767],[137.8356,53.9561,1.6353],[137.8389,53.9606,82.6092],[137.8439,53.9622,85.2561],[137.8506,53.9619,0.0],[137.8561,53.965,2.791],[137.855,53.9672,2.0981],[137.8567,53.9689,0.0],[137.8539,53.9708,0.0],[137.8489,53.9706,0.0],[137.8356,53.9667,0.0],[137.8306,53.9633,56.9787],[137.7989,53.9556,0.0],[137.7811,53.9544,0.0],[137.7655,53.9508,0.0],[137.7611,53.9522,0.0],[137.7417,53.9519,35.7255],[137.7322,53.9567,18.0134],[137.7246,53.9546,15.777],[137.7106,53.9606,0.0],[137.6957,53.961,5.4107],[137.6883,53.9636,54.5269],[137.6761,53.9614,32.5495],[137.6661,53.9656,0.0],[137.6617,53.9658,0.0],[137.6489,53.9633,35.8365],[137.6461,53.965,4.5495],[137.6228,53.9631,1.2014],[137.6049,53.953,33.1689],[137.5972,53.9525,3.6755],[137.5811,53.9558,14.9863],[137.5461,53.9722,4.1003],[137.4918,54.0027,0.0],[137.4764,54.0097,2.8947],[137.4307,54.0384,22.6787],[137.4204,54.0378,11.1301],[137.4169,54.0336,24.4496],[137.4117,54.0314,21.2565],[137.3986,54.0361,0.0],[137.3901,54.0421,2.3819],[137.3788,54.038,2.4336],[137.3702,54.0369,2.5222],[137.3462,54.0372,2.1774],[137.3151,54.0441,2.047],[137.304,54.048,2.9548],[137.2961,54.0531,8.1398],[137.2906,54.0511,10.5476],[137.2878,54.0517,13.2092],[137.2944,54.055,2.4826],[137.2956,54.0581,3.2097],[137.2944,54.0633,2.9978],[137.3,54.0717,1.9665],[137.3018,54.0809,27.5761],[137.3046,54.0859,2.848],[137.3119,54.0932,10.3473],[137.3123,54.0966,1.8243],[137.3219,54.1029,20.2063],[137.3216,54.1078,8.5202],[137.3143,54.116,4.7514],[137.3227,54.1156,4.5257],[137.3299,54.1201,1.9377],[137.3334,54.1265,8.5774],[137.3599,54.1316,1.2638],[137.3646,54.1359,4.7063],[137.3691,54.1371,13.2532],[137.3859,54.1402,1.9532],[137.389,54.1386,1.4746],[137.3966,54.1383,1.2016],[137.4179,54.1392,0.9877],[137.4242,54.1414,1.0817],[137.4245,54.1428,1.688],[137.4295,54.1415,0.8678],[137.4411,54.1437,0.6657],[137.4457,54.1475,0.473],[137.4491,54.1429,0.8673],[137.4512,54.1435,1.0913],[137.4517,54.1418,0.6448],[137.464,54.1355,2.3232],[137.4589,54.1184,0.0],[137.461,54.1125,6.7686],[137.4541,54.1011,0.0],[137.4548,54.0928,32.7449],[137.4522,54.0904,27.4487],[137.4532,54.0882,7.7975],[137.4455,54.0857,1.2009],[137.4641,54.0882,7.5425],[137.4751,54.0935,0.0],[137.4767,54.0951,25.5563],[137.4763,54.0989,56.8585],[137.48,54.1023,0.0],[137.4775,54.1062,0.0],[137.4759,54.1143,14.5933],[137.4798,54.1168,0.6063],[137.4813,54.1234,0.0],[137.4872,54.1256,0.0],[137.4865,54.127,18.5348],[137.4901,54.1334,1.4161],[137.5044,54.1413,0.0],[137.5202,54.1423,18.8983],[137.524,54.146,13.2437],[137.5239,54.1498,85.1837],[137.5268,54.1557,4.39],[137.5349,54.1607,0.0],[137.5374,54.1639,26.1947],[137.5474,54.165,0.0],[137.55,54.1683,0.48],[137.5522,54.1757,13.6154],[137.5662,54.1822,55.0415],[137.5766,54.1895,72.3476],[137.5863,54.1934,0.0],[137.5881,54.1967,0.0],[137.5858,54.2027,14.1513],[137.6052,54.21,0.0],[137.6061,54.2138,96.5903],[137.6206,54.2207,9.3853],[137.6232,54.2258,5.8272],[137.6228,54.2299,98.222],[137.6259,54.2321,11.5369],[137.6258,54.2377,45.7197],[137.6288,54.2406,25.3501],[137.663,54.2545,21.4962],[137.6659,54.2583,1.5858],[137.6647,54.2625,3.198],[137.6795,54.2694,1.748],[137.6805,54.2723,32.9804],[137.6867,54.2778,2.9923],[137.7028,54.2853,2.1336],[137.7085,54.2864,14.903],[137.7086,54.2878,84.4744],[137.7124,54.289,1.9503],[137.7155,54.2922,41.6183],[137.7291,54.2943,30.4244],[137.7346,54.2973,0.0],[137.7385,54.3044,26.5758],[137.7381,54.3085,7.5598],[137.7406,54.3111,0.0],[137.7383,54.3128,52.5608],[137.7391,54.3146,19.3265],[137.736,54.3196,3.9458],[137.7317,54.3213,8.5546],[137.7244,54.3211,29.7237],[137.7237,54.3183,6.7293],[137.7192,54.3134,21.2225],[137.7123,54.3123,3.4251],[137.7027,54.314,1.902],[137.7009,54.3154,35.0643],[137.7007,54.3184,0.0],[137.6967,54.3195,6.8809],[137.6792,54.3137,126.9792],[137.6698,54.3159,0.0],[137.6669,54.3126,56.1749],[137.6674,54.3111,71.3606],[137.6583,54.3059,0.0],[137.66,54.3041,25.7961],[137.6424,54.2948,7.1265],[137.6331,54.2933,4.1852],[137.6239,54.295,29.5808],[137.6243,54.2976,31.9832],[137.6179,54.2995,8.1207],[137.6171,54.3024,0.0],[137.6103,54.3035,49.2227],[137.5883,54.296,9.2875],[137.5812,54.2964,3.6068],[137.5685,54.2913,15.1835],[137.5539,54.2933,39.0273],[137.5212,54.2941,13.0253],[137.506,54.2973,30.1733],[137.5061,54.3015,24.8137],[137.5015,54.305,3.3474],[137.5024,54.3069,0.0],[137.4986,54.3091,2.4624],[137.4877,54.3053,20.1247],[137.4725,54.305,62.0704],[137.458,54.309,13.9181],[137.4531,54.3136,24.9927],[137.4506,54.3131,10.2922],[137.4492,54.3089,0.0],[137.4448,54.3052,21.7192],[137.4247,54.2992,0.0],[137.4141,54.3003,51.2561],[137.4091,54.3058,0.0],[137.3954,54.3052,37.7729],[137.3926,54.3019,78.8415],[137.3886,54.3009,0.0],[137.3804,54.2952,17.7756],[137.3801,54.2933,5.9375],[137.3833,54.2902,0.0],[137.3933,54.2858,24.0701],[137.3806,54.2747,3.3964],[137.3581,54.2651,4.732],[137.3453,54.2626,5.7664],[137.3416,54.263,8.4098],[137.3337,54.2686,70.8476],[137.3244,54.2687,59.3263],[137.3223,54.2702,6.3274],[137.3207,54.2694,6.3274],[137.3199,54.2653,24.2535],[137.3143,54.2625,2.242],[137.3075,54.2605,0.9079],[137.2986,54.2622,0.0],[137.2923,54.2549,44.6765],[137.289,54.2533,7.6039],[137.2745,54.2504,21.3456],[137.2653,54.2467,23.0151],[137.2645,54.2444,0.0],[137.2694,54.2398,0.0],[137.2782,54.2425,17.0655],[137.2866,54.2406,8.2401],[137.2889,54.236,1.2167],[137.2879,54.2305,12.7764],[137.2932,54.2278,9.2051],[137.2903,54.2249,3.0965],[137.2821,54.2229,1.9136],[137.2636,54.2128,1.0193],[137.2442,54.2079,24.1878],[137.2419,54.2097,56.9025],[137.2418,54.2121,0.0],[137.2305,54.2118,37.1985],[137.2245,54.2147,7.325],[137.2234,54.22,33.6303],[137.2202,54.2208,1.9718],[137.2103,54.2212,9.5378],[137.2067,54.2151,21.2626],[137.1974,54.2137,86.1161],[137.1899,54.2104,53.917],[137.1889,54.2095,53.917],[137.19,54.2079,16.0741],[137.196,54.2071,47.4583],[137.1994,54.2039,23.4987],[137.198,54.2001,29.8187],[137.1925,54.1982,0.0],[137.1948,54.1934,0.0],[137.1933,54.1916,8.7861],[137.1846,54.187,58.073],[137.1725,54.1849,29.4915],[137.1687,54.1793,4.8507],[137.1653,54.1773,7.0061],[137.1492,54.174,0.9874],[137.1422,54.1762,16.4507],[137.1402,54.1727,18.9708],[137.1383,54.1723,2.721],[137.1326,54.174,3.8121],[137.1287,54.1726,2.777],[137.1276,54.1699,62.3201],[137.1152,54.166,8.3729],[137.1134,54.1636,2.5276],[137.1143,54.1613,5.4383],[137.1077,54.1562,19.8542],[137.103,54.1494,9.9592],[137.1076,54.1479,25.1332],[137.1103,54.1414,10.7463],[137.1018,54.1418,25.4278],[137.098,54.1442,20.331],[137.0997,54.1464,12.4748],[137.0939,54.1465,6.0757],[137.0932,54.142,33.2226],[137.0901,54.1397,3.6348],[137.0925,54.1384,21.1211],[137.0921,54.1356,29.2006],[137.0846,54.131,13.5365],[137.0828,54.1283,29.38],[137.0846,54.1244,23.6906],[137.095,54.1222,43.0885],[137.1018,54.1181,0.0],[137.1076,54.118899999999996,42.7198],[137.1154,54.1175,31.1653],[137.125,54.11,16.8686],[137.1206,54.1042,0.0],[137.121,54.1018,22.9121],[137.1184,54.1002,1.6895],[137.121,54.0975,15.7751],[137.1201,54.0937,52.7643],[137.1148,54.0883,2.9223],[137.1246,54.0867,0.0],[137.1282,54.0843,35.6219],[137.1307,54.079,25.4452],[137.1457,54.0737,6.8031],[137.1472,54.0701,0.0],[137.1531,54.0691,38.5971],[137.1561,54.0619,0.0],[137.1583,54.0603,0.0],[137.1536,54.0472,14.5209],[137.1549,54.0446,22.443],[137.1604,54.0435,21.3814],[137.1589,54.0377,2.101],[137.1606,54.0356,41.8468],[137.1773,54.0369,0.0],[137.1965,54.0346,23.9085],[137.2193,54.0437,8.1381],[137.2312,54.0457,21.0496],[137.2345,54.0476,23.8624],[137.2409,54.046,14.3364],[137.2457,54.0484,0.0],[137.2531,54.0487,0.0],[137.2671,54.0531,0.0],[137.283,54.0493,4.6053],[137.2943,54.0449,5.4291],[137.298,54.0427,5.2483],[137.3046,54.0336,8.075],[137.303,54.0264,10.7299],[137.2987,54.025,10.5378],[137.2929,54.0255,1.6972],[137.2874,54.0231,1.631],[137.273,54.0104,22.4653],[137.2677,54.0015,23.3162],[137.2683,54.0,42.5393],[137.2661,53.9992,0.0],[137.2589,53.975,48.0996],[137.2556,53.9708,1.7028],[137.2522,53.9619,0.0],[137.2434,53.9515,1.8052],[137.234,53.9365,16.9486],[137.2256,53.9297,6.4521],[137.2094,53.9117,23.3412],[137.2094,53.9103,7.3969],[137.2133,53.9092,15.4374],[137.2133,53.9072,7.2904],[137.2089,53.9046,4.2746],[137.2095,53.8964,23.7812],[137.1979,53.8802,10.2949],[137.1994,53.8642,8.66],[137.1939,53.8553,2.8],[137.1944,53.8519,0.8018],[137.1972,53.8517,10.7744],[137.1967,53.8492,3.6737],[137.1811,53.8375,1.1963],[137.1772,53.8328,13.7857],[137.1555,53.8214,10.3685],[137.1439,53.8161,11.8653],[137.1289,53.8119,5.2045],[137.1194,53.8067,7.9478],[137.115,53.8067,6.3928],[137.0839,53.8114,2.8318],[137.0739,53.8156,0.0],[137.0717,53.8203,0.0],[137.0722,53.8267,0.0],[137.0678,53.8311,3.9484],[137.0689,53.8331,12.9043],[137.0672,53.8367,54.7181],[137.0683,53.8444,3.7131],[137.0661,53.8453,46.2131],[137.0583,53.8461,5.2698],[137.0378,53.8436,66.4331],[136.995,53.8419,63.999],[136.9868,53.8437,35.2758],[136.9864,53.8475,12.24],[136.984,53.849,2.8486],[136.9749,53.8474,7.2917],[136.9628,53.8478,20.5939],[136.9482,53.8502,67.4505],[136.9431,53.8537,42.3804],[136.9398,53.8525,10.02],[136.9413,53.8457,2.5593],[136.9366,53.8431,5.2282],[136.9349,53.8393,22.2368],[136.9155,53.8363,23.7598],[136.9051,53.8374,3.2601],[136.9037,53.8345,9.3408],[136.8972,53.8343,9.5124],[136.8941,53.8314,18.9963],[136.8783,53.8323,6.1335],[136.8675,53.827,41.3322],[136.8622,53.8269,27.5214],[136.8575,53.8294,4.3444],[136.8518,53.8274,13.2687],[136.8595,53.8165,41.5211],[136.8576,53.8061,10.7201],[136.8589,53.8034,0.0],[136.8581,53.7995,3.2015],[136.8427,53.7935,21.0962],[136.8411,53.79,100.6297],[136.835,53.7844,9.0381],[136.8077,53.7785,33.7952],[136.8091,53.7733,0.8531],[136.8112,53.7733,1.4003],[136.8083,53.7683,2.3197],[136.7922,53.7607,0.0],[136.7806,53.7637,0.0],[136.7788,53.7694,3.9728],[136.7648,53.777,6.4234],[136.7617,53.7802,4.504],[136.7451,53.7854,0.0],[136.722,53.7885,0.0],[136.7133,53.7917,5.4525],[136.7058,53.7994,12.4429],[136.7083,53.8024,18.9815],[136.7139,53.8048,0.0],[136.715,53.8095,0.5661],[136.7002,53.8236,2.7638],[136.6999,53.8252,0.0],[136.7039,53.8286,0.0],[136.7031,53.8314,3.247],[136.6996,53.8361,0.0],[136.7003,53.8376,0.0],[136.6946,53.8466,21.1228],[136.6942,53.8496,1.6184],[136.6887,53.8531,0.873],[136.6928,53.856,3.1985],[136.7025,53.8584,0.0],[136.7014,53.8618,0.0],[136.7037,53.8682,9.3654],[136.6909,53.8713,12.685],[136.6877,53.877,15.655],[136.6887,53.8806,0.0],[136.6835,53.8874,6.2847],[136.6868,53.892,0.0],[136.682,53.8992,19.653],[136.6921,53.9011,13.7546],[136.6882,53.9062,3.5052],[136.691,53.9115,6.6935],[136.684,53.9116,17.2168],[136.6754,53.9164,2.2552],[136.6694,53.9175,2.1057],[136.6753,53.9199,0.0],[136.6794,53.929,0.0],[136.6787,53.9319,0.0],[136.6825,53.9352,37.3878],[136.6791,53.9405,0.0],[136.6789,53.946,0.0],[136.6762,53.9494,12.9316],[136.677,53.9531,0.0],[136.6757,53.957,15.0817],[136.681,53.9588,9.1479],[136.6808,53.9633,8.8763],[136.6905,53.9706,6.5493],[136.694,53.9804,0.0],[136.6998,53.9834,0.0],[136.6961,53.9869,26.857],[136.696,53.9895,1.0667],[136.6844,53.9944,17.8491],[136.6974,53.9922,0.0],[136.6964,53.9954,17.7682],[136.698,53.9976,0.0],[136.6954,54.0016,10.8871],[136.6945,54.0058,24.0034],[136.6956,54.0071,0.0],[136.694,54.0088,20.1093],[136.6968,54.0119,0.0],[136.6964,54.0143,24.2052],[136.7018,54.016,0.0],[136.701,54.0198,0.0],[136.7115,54.0178,0.0],[136.7107,54.0244,13.6604],[136.7155,54.0276,7.198],[136.7168,54.0318,9.0546],[136.7216,54.0349,4.5254],[136.7259,54.0352,0.0],[136.731,54.0398,0.0],[136.7368,54.0398,0.0],[136.7421,54.042,0.0],[136.7436,54.0436,0.0],[136.7429,54.0458,20.3811],[136.7577,54.0491,20.93],[136.7686,54.047,0.0],[136.7696,54.0482,0.0],[136.7666,54.0542,42.8187],[136.7665,54.0587,30.7967],[136.7741,54.0617,0.0],[136.7837,54.0631,11.3269],[136.7788,54.068,75.875],[136.7781,54.0725,6.5759],[136.7754,54.0754,35.0139],[136.7775,54.0781,0.0],[136.7713,54.0846,0.0],[136.791,54.0962,13.4465],[136.8006,54.1097,0.0],[136.7996,54.1127,13.9718],[136.7967,54.1129,41.4636],[136.7907,54.1172,0.0],[136.7854,54.1181,14.5778],[136.7779,54.1164,27.5269],[136.7735,54.1186,38.361],[136.7742,54.121,14.4679],[136.7687,54.125,11.751],[136.7767,54.1244,0.0],[136.7872,54.1272,48.7593],[136.7927,54.1249,0.0],[136.7948,54.126,15.054],[136.8015,54.1251,0.0],[136.805,54.1281,0.0],[136.8047,54.1301,0.0],[136.8109,54.1308,18.2198],[136.8164,54.1339,0.0],[136.8164,54.1363,0.0],[136.8133,54.1386,27.1862],[136.8146,54.1437,0.0],[136.8074,54.1521,4.6026],[136.8098,54.158,87.4659],[136.8138,54.1616,3.9825],[136.8112,54.1661,52.0716],[136.8131,54.1684,0.0],[136.8115,54.1703,49.1475],[136.8068,54.1748,0.0],[136.8024,54.176,0.0],[136.8034,54.1782,0.0],[136.802,54.1806,0.0],[136.7899,54.1897,15.1181],[136.7788,54.1903,23.2549],[136.7756,54.189,7.9237],[136.769,54.1912,0.0],[136.7597,54.2027,0.0],[136.7591,54.2111,0.0],[136.7565,54.2136,7.6343],[136.7484,54.2153,4.3557],[136.7527,54.2157,0.0],[136.7522,54.2179,7.0603],[136.756,54.2196,2.7502],[136.7659,54.2169,0.0],[136.7733,54.22,0.0],[136.7863,54.2201,0.0],[136.7867,54.2225,34.095],[136.7939,54.2263,0.0],[136.7947,54.2305,13.748],[136.8085,54.2354,0.0],[136.8043,54.2387,10.2927],[136.8046,54.2404,0.0],[136.7979,54.2489,16.1348],[136.7985,54.252,12.4487],[136.8036,54.2588,1.0145],[136.7928,54.2613,3.6521],[136.7873,54.2544,0.0],[136.7816,54.2537,14.2373],[136.7769,54.2559,17.1502],[136.7676,54.2623,0.0],[136.7639,54.2699,12.6479],[136.7564,54.2709,4.0334],[136.7499,54.285,0.0],[136.7474,54.2859,0.9281],[136.7575,54.2935,0.0],[136.7724,54.2954,0.0],[136.7839,54.3024,11.586],[136.7869,54.2981,0.0],[136.7961,54.2986,0.0],[136.7996,54.2947,0.0],[136.8042,54.2951,0.0],[136.805,54.3,0.0],[136.81,54.3015,30.7035],[136.8109,54.3058,45.1261],[136.8144,54.3085,0.0],[136.8158,54.3114,0.0],[136.8145,54.3161,0.0],[136.8186,54.3191,10.7244],[136.8186,54.3209,0.0],[136.8045,54.3282,15.3024],[136.8022,54.3325,0.0],[136.7997,54.3324,0.0],[136.7928,54.3275,8.8362],[136.7813,54.3309,0.0],[136.7729,54.3378,0.0],[136.7622,54.3432,57.9052],[136.7494,54.3555,0.0],[136.7472,54.3589,0.0],[136.7556,54.3733,0.0],[136.7567,54.385,0.0],[136.7609,54.3928,0.0],[136.7532,54.4038,2.4325],[136.7468,54.4085,0.0],[136.7473,54.4116,0.0],[136.7416,54.4129,5.4948],[136.7463,54.4135,0.0],[136.7496,54.4178,0.0],[136.7603,54.4192,3.3216],[136.7636,54.4213,7.957],[136.7597,54.4228,5.9776],[136.7542,54.4276,21.3069],[136.7534,54.4302,9.9638],[136.7601,54.4265,0.0],[136.7659,54.4283,2.6049],[136.7655,54.4321,26.8214],[136.7703,54.4322,23.134],[136.7689,54.4286,0.0],[136.7784,54.4268,0.0],[136.7799,54.4327,10.1862],[136.786,54.4322,2.1018],[136.7922,54.4227,22.4057],[136.7927,54.4173,16.131],[136.7895,54.4136,0.0],[136.7874,54.4045,0.0],[136.7891,54.4011,1.3869],[136.7933,54.4001,0.0],[136.798,54.4021,8.0062],[136.7996,54.4054,28.7166],[136.8179,54.4167,0.0],[136.8216,54.4209,39.0721],[136.8271,54.4232,0.0],[136.8271,54.4253,0.0],[136.8304,54.4283,0.0],[136.8286,54.4317,16.7386],[136.8246,54.4338,0.0],[136.825,54.4382,3.2388],[136.8185,54.4392,25.5314],[136.814,54.4428,62.0298],[136.8008,54.4609,2.7161],[136.8008,54.4645,9.9694],[136.8061,54.4688,19.8946],[136.8218,54.4671,4.9901],[136.8206,54.4711,3.9579],[136.8232,54.4743,5.5158],[136.8289,54.4722,0.0],[136.825,54.4781,0.0],[136.8251,54.4822,0.0],[136.8273,54.4862,0.0],[136.8351,54.4877,6.1477],[136.8494,54.4872,0.0],[136.85,54.4883,0.0],[136.8403,54.4899,23.614],[136.8361,54.4933,8.4562],[136.8299,54.4919,19.0208],[136.8123,54.4995,0.0],[136.8036,54.5088,1.8715],[136.8022,54.514,6.1556],[136.812,54.5158,27.0347],[136.8104,54.5188,13.7734],[136.8109,54.5224,0.0],[136.8084,54.5241,9.7123],[136.8101,54.5277,3.4058],[136.8241,54.5278,3.9038],[136.8275,54.5295,0.0],[136.8281,54.5362,0.0],[136.8326,54.5391,67.4307],[136.829,54.5425,0.0],[136.8329,54.5477,4.9502],[136.8372,54.5489,64.0698],[136.8489,54.5456,19.2275],[136.8532,54.5486,0.0],[136.8506,54.556399999999996,8.4493],[136.8568,54.5622,37.3528],[136.8638,54.5627,5.3846],[136.8728,54.5672,27.2463],[136.8791,54.5638,4.785],[136.8819,54.5646,7.5183],[136.8766,54.5686,0.0],[136.8778,54.5729,0.0],[136.8765,54.5751,0.0],[136.8662,54.5803,107.221],[136.8561,54.591,3.1274],[136.8327,54.5899,0.0],[136.8221,54.587,15.3263],[136.82,54.5889,33.9862],[136.824,54.591,0.0],[136.8245,54.5932,0.0],[136.8277,54.5949,0.0],[136.8268,54.5961,0.0],[136.8158,54.5946,16.7228],[136.81,54.5987,8.387],[136.8068,54.5974,8.387],[136.8022,54.5987,3.6416],[136.811,54.6016,0.0],[136.817,54.6013,0.0],[136.8219,54.6045,9.7269],[136.8224,54.6079,13.054],[136.8184,54.6075,8.9244],[136.8152,54.6096,3.6298],[136.815,54.6116,0.0],[136.8199,54.6139,29.7608],[136.8232,54.6185,0.0],[136.8127,54.62,9.3538],[136.8097,54.6226,23.8454],[136.8162,54.6261,5.311],[136.8134,54.6331,14.7373],[136.8196,54.636,57.7785],[136.8206,54.6381,8.3675],[136.8294,54.6428,0.0],[136.8294,54.6442,0.0],[136.8233,54.6444,0.0],[136.8165,54.6418,147.4955],[136.7979,54.64,72.1393],[136.773,54.6421,0.0],[136.761,54.6356,0.0],[136.7654,54.6311,8.0689],[136.7655,54.6283,15.7445],[136.7572,54.6225,5.1722],[136.7477,54.619,1.4786],[136.7495,54.618,15.0974],[136.7491,54.6137,10.6734],[136.731,54.61,6.2565],[136.7119,54.6092,0.0],[136.7089,54.6103,2.0492],[136.7006,54.6031,3.6352],[136.6792,54.6052,6.0538],[136.6513,54.617,8.0634],[136.6417,54.6241,0.0],[136.6489,54.6332,20.251],[136.6555,54.6363,2.7731],[136.6561,54.64,18.5234],[136.6534,54.6461,15.7281],[136.6567,54.6508,47.6416],[136.6625,54.6535,0.0],[136.6662,54.6633,0.0],[136.6692,54.6649,4.414],[136.6678,54.6776,0.0],[136.6692,54.6801,0.0],[136.6668,54.6832,0.0],[136.6551,54.6757,7.6776],[136.6557,54.6717,39.6711],[136.6473,54.6606,0.0],[136.6152,54.6385,55.388],[136.6125,54.633,0.0],[136.6132,54.6245,7.0693],[136.6055,54.6185,9.0908],[136.5877,54.6093,0.8802],[136.569,54.6024,1.8953],[136.5292,54.5945,1.7895],[136.5267,54.5908,4.1884],[136.5083,54.5864,3.6228],[136.4871,54.5848,7.199],[136.4625,54.5865,6.9181],[136.4136,54.5938,0.0],[136.3965,54.5892,22.1709],[136.384,54.5882,8.2125],[136.3802,54.5894,0.0],[136.3746,54.596,0.0],[136.3766,54.5994,0.0],[136.375,54.6005,0.0],[136.3484,54.5924,0.0],[136.3319,54.5901,18.1563],[136.3273,54.5943,0.0],[136.3263,54.5983,16.8427],[136.313,54.5977,8.693],[136.3056,54.5997,15.1535],[136.3034,54.6063,8.2466],[136.275,54.5949,6.1413],[136.2528,54.5931,14.9034],[136.244,54.5978,5.6618],[136.2259,54.6013,14.8224],[136.2247,54.6036,1.6468],[136.2274,54.61,25.8507],[136.2261,54.6125,10.8488],[136.2224,54.614,0.889],[136.2112,54.614,0.4846],[136.2033,54.6119,31.3724],[136.1945,54.6117,16.2437],[136.1845,54.6077,0.0],[136.1839,54.6057,2.0864],[136.1657,54.6013,16.2849],[136.1412,54.5989,0.0],[136.1341,54.6003,29.063],[136.1321,54.6028,0.0],[136.1088,54.6021,0.0],[136.1008,54.6032,2.056],[136.1004,54.6011,22.6259],[136.0945,54.598,44.2977],[136.0895,54.5925,0.0],[136.0754,54.5898,32.764],[136.0506,54.5886,42.0195],[136.0378,54.5855,0.0],[136.0161,54.5754,13.0681],[135.9772,54.5689,2.2018],[135.9439,54.5661,6.159],[135.8453,54.5621,0.9108],[135.8178,54.5625,1.9453],[135.78,54.5667,2.5449],[135.7778,54.5653,2.3302],[135.7846,54.5626,3.2631],[135.7828,54.5597,2.9101],[135.7856,54.5575,4.0106],[135.7844,54.5531,3.5],[135.7822,54.5528,3.5],[135.78,54.5533,7.0304],[135.7811,54.5556,5.4671],[135.78,54.556399999999996,5.4671],[135.7689,54.5625,1.7296],[135.7317,54.5692,1.945],[135.7122,54.5758,2.0551],[135.7044,54.5825,32.2941],[135.7098,54.5886,0.0],[135.7032,54.5925,16.6908],[135.6994,54.5972,0.0],[135.6939,54.5994,21.2198],[135.6972,54.6033,2.3507],[135.7022,54.6044,0.0],[135.7032,54.6068,14.1869],[135.7,54.6119,6.939],[135.6872,54.6197,2.7116],[135.6921,54.6271,21.6483],[135.6856,54.6331,16.9692],[135.6864,54.636,29.7047],[135.6933,54.6378,4.0692],[135.6928,54.6411,11.8869],[135.7008,54.6435,0.0],[135.7001,54.6446,2.4556],[135.6906,54.645,49.6616],[135.6651,54.6578,5.889],[135.6537,54.6585,17.8728],[135.6388,54.665,19.4829],[135.6295,54.6642,1.5566],[135.6225,54.6589,0.0],[135.6141,54.6591,0.0],[135.6079,54.656,0.0],[135.5978,54.6569,12.9477],[135.5922,54.6594,0.8895],[135.575,54.6589,4.5553],[135.5711,54.6606,12.7863],[135.5717,54.6617,4.1352],[135.5694,54.6633,10.7785],[135.5228,54.6769,11.1235],[135.5028,54.6811,3.478],[135.4922,54.681399999999996,10.9841],[135.4606,54.6872,0.0],[135.4439,54.6886,14.6335],[135.4206,54.6947,2.0311],[135.4028,54.6972,0.0],[135.308,54.7248,0.0],[135.2669,54.7348,0.0],[135.2659,54.7375,0.6489],[135.2606,54.7372,3.2688],[135.2556,54.7403,4.8401],[135.2478,54.7489,0.0],[135.2222,54.7683,1.372],[135.1994,54.7889,0.0],[135.1772,54.8131,0.9139],[135.175,54.8172,1.4289],[135.175,54.8228,0.0],[135.1717,54.8256,14.5522],[135.1733,54.8261,2.6777],[135.1722,54.8308,3.8596],[135.1744,54.8319,0.0],[135.1733,54.8364,13.2997],[135.1756,54.8406,6.5139],[135.1739,54.8478,26.8333],[135.1806,54.8578,0.8525],[135.1828,54.8644,9.7378],[135.1928,54.8683,3.5202],[135.2006,54.8653,0.0],[135.2062,54.8656,22.1484],[135.2022,54.8786,1.2182],[135.2022,54.8853,1.3277],[135.2056,54.8925,18.7937],[135.2215,54.8928,3.0027],[135.2239,54.905,0.0],[135.2306,54.9119,0.0],[135.2428,54.9143,5.7986],[135.2544,54.9139,27.0922],[135.2567,54.9156,0.0],[135.2556,54.9172,15.9049],[135.2578,54.9275,10.779],[135.2611,54.931399999999996,16.5918],[135.2689,54.9336,28.35],[135.2793,54.9306,0.0],[135.2811,54.9406,52.8041],[135.2894,54.9444,21.5701],[135.2911,54.95,12.8521],[135.2972,54.9594,32.4769],[135.3117,54.9625,17.6607],[135.3133,54.9656,32.8813],[135.3172,54.9658,0.0],[135.3233,54.9744,9.2464],[135.3289,54.9775,12.0427],[135.3372,54.9783,0.0],[135.3406,54.9844,9.6686],[135.3494,54.9878,0.0],[135.3506,54.9903,1.8279],[135.4033,55.0088,7.5932],[135.4279,55.0225,10.0187],[135.4368,55.0226,0.0],[135.4525,55.0271,0.0],[135.4546,55.0291,0.0],[135.4527,55.0335,1.382],[135.4557,55.0373,0.9608],[135.4591,55.0469,7.9079],[135.4681,55.0584,0.0],[135.477,55.0591,4.3262],[135.4898,55.0639,8.5164],[135.493,55.0668,3.3937],[135.5065,55.0702,0.0],[135.5207,55.0824,31.1583],[135.5289,55.0837,0.0],[135.5396,55.0903,0.0],[135.5502,55.0914,0.0],[135.5566,55.0948,15.2025],[135.5641,55.094,36.822],[135.5783,55.0967,0.0],[135.588,55.1009,0.0],[135.5921,55.1054,0.0],[135.5971,55.1081,10.8959],[135.603,55.1075,56.6412],[135.6082,55.1048,1.6824],[135.6169,55.1069,0.0],[135.6199,55.1096,6.2536],[135.6318,55.1138,4.6314],[135.6337,55.1158,16.9966],[135.6456,55.118,21.4994],[135.662,55.1166,0.0],[135.6662,55.1178,0.0],[135.6671,55.1205,2.1555],[135.6697,55.1211,2.1555],[135.6794,55.1199,2.3059],[135.6806,55.1176,14.9941],[135.6878,55.1145,5.3684],[135.6986,55.1138,52.7433],[135.7061,55.1181,63.3343],[135.71,55.1183,0.0152],[135.7181,55.1219,0.0],[135.7243,55.1286,11.9321],[135.7354,55.13,0.0],[135.7462,55.1377,31.7043],[135.7503,55.1383,3.8971],[135.7554,55.1356,26.0301],[135.7598,55.1362,0.0],[135.7586,55.1385,0.0],[135.7626,55.1405,60.0507],[135.7611,55.1417,60.0507],[135.7732,55.1533,0.0],[135.7859,55.1558,62.1458],[135.7964,55.1639,98.7272],[135.8048,55.1659,1.6778],[135.8122,55.1745,0.0],[135.8119,55.1781,44.1282],[135.8094,55.1786,50.6405],[135.8122,55.1803,0.0],[135.8117,55.1831,14.9578],[135.8156,55.185,8.5121],[135.8217,55.1833,2.032],[135.8239,55.1803,0.0],[135.8334,55.1765,0.0],[135.8595,55.1723,4.8663],[135.864,55.1747,2.5665],[135.8701,55.1752,0.0],[135.8696,55.1768,78.148],[135.875,55.1825,31.8169],[135.8818,55.1858,61.4534],[135.9014,55.1891,6.8501],[135.904,55.1939,99.9911],[135.9112,55.1984,0.0],[135.9114,55.2009,0.0],[135.9089,55.2045,0.0],[135.9124,55.2074,0.0],[135.9114,55.2092,19.8587],[135.9176,55.2117,0.0],[135.9342,55.2143,1.6247],[135.9404,55.2191,44.6195],[135.9568,55.2243,0.0],[135.9566,55.2276,0.0],[135.953,55.2325,39.9275],[135.9587,55.2404,22.6871],[135.9652,55.2432,24.6979],[135.9711,55.2412,10.0423],[135.9778,55.242,0.0],[135.9848,55.2472,119.7338],[135.9944,55.2509,57.0947],[136.0056,55.25,11.5901],[136.0083,55.2467,0.0],[136.0135,55.2462,0.0],[136.0145,55.2497,0.0],[136.02,55.2539,99.6252],[136.0328,55.2558,13.5938],[136.0344,55.2592,0.0],[136.0328,55.2597,21.5477],[136.0333,55.2608,32.294],[136.0437,55.2641,11.8296],[136.047,55.2678,0.0],[136.0478,55.2733,5.2538],[136.0511,55.2792,23.4756],[136.0589,55.2819,0.0],[136.0622,55.2858,8.4006],[136.07,55.2858,30.9155],[136.0767,55.2889,17.636],[136.0833,55.2867,0.0],[136.0956,55.2894,59.292],[136.1339,55.2883,0.0],[136.1378,55.2917,0.0],[136.1367,55.2992,123.7926],[136.1383,55.3006,0.0],[136.1372,55.3014,113.4536],[136.1411,55.3039,18.9519],[136.1439,55.3111,0.0],[136.1472,55.3139,174.5043],[136.1511,55.3139,7.9262],[136.1539,55.3164,4.9269],[136.1708,55.3168,0.0],[136.1672,55.3242,0.0],[136.1733,55.3297,0.0],[136.1683,55.3347,49.696],[136.17,55.3403,80.6584],[136.1744,55.3458,29.4959],[136.1806,55.3472,110.2642],[136.1922,55.3461,17.6632],[136.1972,55.3486,5.1798],[136.2144,55.3515,0.0],[136.2189,55.3581,71.242],[136.2306,55.3697,6.9401],[136.235,55.3711,0.0],[136.2356,55.375,0.0],[136.2422,55.3797,0.0],[136.2433,55.3831,12.7638],[136.2495,55.385,0.0],[136.2489,55.3881,42.5627],[136.2528,55.3931,0.0],[136.2528,55.3967,0.0],[136.2561,55.4011,0.0],[136.255,55.4033,0.0],[136.2567,55.4036,0.0],[136.2594,55.4131,0.0],[136.265,55.4169,0.0],[136.2683,55.4169,0.0],[136.2756,55.4206,91.5946],[136.2894,55.4217,0.0],[136.2922,55.4244,20.4523],[136.3022,55.4242,0.0],[136.3044,55.4281,0.0],[136.3033,55.4339,0.0],[136.3017,55.435,138.1328],[136.3028,55.4367,0.0],[136.3006,55.4567,24.8437],[136.3139,55.465,0.0],[136.3144,55.4689,0.0],[136.3172,55.4719,0.0],[136.3239,55.4747,0.0],[136.3228,55.4753,0.0],[136.3256,55.4772,0.0],[136.3267,55.4817,0.0],[136.3328,55.4883,0.0],[136.3328,55.4958,0.0],[136.3361,55.5053,7.3934],[136.3383,55.5089,67.7261],[136.3489,55.5131,0.0],[136.3544,55.5258,61.5935],[136.3617,55.5303,0.0],[136.3711,55.5314,0.0],[136.3767,55.5381,0.0],[136.3811,55.5406,62.4485],[136.39,55.5397,0.0],[136.3984,55.5368,0.0],[136.3972,55.5408,0.0],[136.4011,55.5472,75.4712],[136.4028,55.5472,0.0],[136.4194,55.5672,7.12],[136.43,55.5692,0.0],[136.4422,55.5743,0.0],[136.4165,55.5857,291.742],[136.3837,55.5829,274.0522],[136.315,55.5017,71.9873],[136.2401,55.4205,238.2051],[136.1756,55.3724,540.2957],[136.0464,55.3831,1174.7839],[135.9341,55.4062,1048.7896],[135.8316,55.3881,799.9546],[135.7885,55.4005,703.5777],[135.8466,55.4368,1081.8865],[135.8904,55.4833,992.4476],[135.8317,55.4901,843.9799],[135.7937,55.4589,1013.39],[135.7007,55.4633,882.5691],[135.5779,55.4241,883.5981],[135.5377,55.4407,725.6533],[135.5813,55.4904,963.5994],[135.5095,55.5165,937.8931],[135.509,55.5359,652.2234],[135.5789,55.5971,618.9125],[135.5441,55.6375,770.6734],[135.5434,55.6836,1220.8914],[135.5242,55.7369,937.8802],[135.499,55.7633,1319.7733],[135.4548,55.7587,1081.6562],[135.42,55.7233,1283.9803],[135.4021,55.6705,1403.6072],[135.3329,55.6347,1189.4824],[135.336,55.592,1146.894],[135.3303,55.563,1243.957],[135.2839,55.5602,991.7341],[135.2475,55.5786,906.1996],[135.1767,55.588,1042.6812],[135.2236,55.6333,1190.5955],[135.1874,55.6728,1045.2441],[135.0784,55.6776,1286.8872],[135.0216,55.677,835.1123],[134.963,55.6472,1081.1229],[134.8775,55.6474,965.1423],[134.7815,55.6212,924.0947],[134.7525,55.5998,919.3909],[134.7687,55.5426,1094.0251],[134.755,55.5067,761.4743],[134.6645,55.4904,998.2648],[134.6147,55.5203,932.7202],[134.6022,55.5647,883.8967],[134.5275,55.6195,975.6121],[134.4492,55.6636,1085.8608],[134.3959,55.6976,1023.6538],[134.4245,55.7466,1097.9877],[134.4118,55.775,1131.7599],[134.3494,55.7907,1233.3698],[134.312,55.7497,1306.5927],[134.2456,55.7518,1219.464],[134.2099,55.7832,1132.5242],[134.1551,55.7488,1222.5253],[134.0726,55.7347,1197.5079],[134.0138,55.7428,1137.5383],[133.9789,55.7379,1195.9631],[133.9339,55.7036,1072.1582],[133.87,55.7005,1304.2917],[133.8151,55.7482,1513.8276],[133.7603,55.7379,1311.5093],[133.7926,55.6836,1592.9108],[133.7532,55.6359,1438.7549],[133.6825,55.6033,1180.293],[133.5788,55.6009,989.4561],[133.5145,55.624,974.321],[133.4743,55.6449,1119.5962],[133.4261,55.6923,1313.3446],[133.3754,55.6858,1494.5233],[133.3129,55.6589,1168.7726],[133.264,55.6634,1638.5774],[133.2352,55.6796,1697.0848],[133.1692,55.6662,1302.6244],[133.1177,55.6338,1571.5605],[133.0858,55.5943,1509.3749],[133.0561,55.573,1633.3973],[133.0113,55.5678,1740.0341],[133.0074,55.6003,1464.452],[132.9722,55.5985,1494.7682],[132.9298,55.5706,1696.2987],[132.8912,55.5666,1413.2114],[132.8524,55.6013,1563.0806],[132.8012,55.5969,1584.0679],[132.7393,55.5644,1663.4061],[132.6634,55.5744,1505.1667],[132.6354,55.5421,1404.6802],[132.6747,55.5063,1245.402],[132.7417,55.4684,1110.1311],[132.8286,55.4504,1354.0377],[132.9274,55.4235,1656.8254],[132.8957,55.3914,1497.7274],[132.8234,55.3904,1706.7024],[132.724,55.3788,1338.9839],[132.6594,55.3326,1373.0945],[132.6534,55.2854,1209.7281],[132.5973,55.2419,866.4688],[132.5092,55.2309,1054.1274],[132.4016,55.2133,959.8427],[132.3914,55.1571,683.9037],[132.3992,55.1236,955.4193],[132.3501,55.0801,687.9637],[132.2348,55.0533,803.2448],[132.1468,55.0495,1047.418],[132.0864,55.0415,1080.1115],[132.0757,55.0115,1492.0332],[132.0454,54.9676,1784.7502],[131.973,54.9208,1402.4238],[131.8733,54.9048,1748.6958],[131.8125,54.8482,1488.6592],[131.7366,54.8262,1676.2448],[131.6246,54.8075,1369.9099],[131.5991,54.7665,1184.928],[131.5292,54.7467,1487.9783],[131.4204,54.7497,1065.0659],[131.3999,54.7237,1316.5039],[131.3784,54.6908,1196.4791],[131.3177,54.6755,1181.8093],[131.2408,54.6495,1264.2819],[131.2156,54.6033,965.86],[131.2391,54.5595,1050.991],[131.2098,54.5042,867.927],[131.1709,54.4539,758.1841],[131.1321,54.3881,748.3798],[131.1201,54.3423,728.907],[131.0656,54.3253,694.0487],[131.017,54.3446,717.894],[130.9476,54.3441,751.4781],[130.8835,54.3196,734.8186],[130.8507,54.3035,631.4028],[130.7936,54.3036,490.7982],[130.7393,54.2864,494.7822],[130.6662,54.2143,459.5162],[130.6086,54.2053,446.8951],[130.5611,54.177,454.9131],[130.5305,54.1234,495.9628],[130.5292,54.0645,528.1652],[130.5018,54.0122,589.7205],[130.4479,53.9797,792.0914],[130.3781,53.9293,1450.7935],[130.4791,53.8973,1181.3992],[130.5572,53.8921,1226.7352],[130.6243,53.9075,953.2921],[130.6863,53.8844,930.9294],[130.7,53.8549,965.446],[130.7661,53.85,925.3143],[130.8152,53.851,1026.9519],[130.8391,53.8257,947.2458],[130.9177,53.7843,941.4836],[130.9747,53.8136,902.0839],[131.0559,53.8246,1164.3302],[131.2132,53.7781,1102.4602],[131.2789,53.7956,1217.3973],[131.3344,53.7935,1157.4534],[131.3871,53.7767,1105.5247],[131.4304,53.7505,1233.0134],[131.4201,53.7052,909.8973],[131.4741,53.5894,916.8896],[131.5007,53.5413,755.3479],[131.4683,53.4946,817.7966],[131.5156,53.4341,757.3765],[131.5538,53.3958,656.4354],[131.5761,53.3572,742.6588],[131.5602,53.3117,630.5633],[131.5236,53.2776,819.6414],[131.4435,53.2219,874.0868],[131.5115,53.2074,858.4122],[131.719,53.2592,594.3199],[131.8147,53.2576,783.4062],[131.8624,53.2501,594.9057],[131.884,53.2208,645.9957],[131.8266,53.187,798.8936],[131.8735,53.1334,668.35],[131.9659,53.1161,1054.7341],[132.0628,53.1448,734.9861],[132.0828,53.1984,788.0433],[132.2552,53.221,894.9915],[132.323,53.237,777.8615],[132.3746,53.2372,817.9321],[132.4243,53.2133,828.5307],[132.5259,53.2205,1065.6854],[132.6296,53.23,838.6714],[132.708,53.2298,969.441],[132.8035,53.2096,754.8609],[132.8891,53.2267,821.5909],[132.942,53.2877,918.5413],[133.0246,53.3057,930.4376],[133.0771,53.2813,688.4064],[133.1492,53.3142,1008.9183],[133.1189,53.3637,789.7307],[133.1332,53.4051,1001.274],[133.2106,53.4383,977.8157],[133.3174,53.4765,1102.733],[133.388,53.4857,1028.4871],[133.4468,53.4778,1057.4929],[133.5038,53.5355,851.9253],[133.6009,53.5222,984.1877],[133.6337,53.4872,997.9211],[133.6782,53.4576,921.0024],[133.7466,53.4558,906.4175],[133.8152,53.4707,1163.329],[133.8658,53.4516,1091.2482],[133.8999,53.4244,1081.0186],[133.9867,53.4298,1639.8472],[134.0732,53.4617,1156.1298],[134.1375,53.4746,1631.6915],[134.2565,53.5239,1565.7451],[134.3335,53.5145,1739.8773],[134.4093,53.5224,1429.7673],[134.4475,53.5675,1965.714],[134.4933,53.5846,1418.709],[134.552,53.574,1519.0114],[134.5819,53.533,1322.436],[134.6488,53.5238,1504.6688],[134.6907,53.5051,1329.7239],[134.7104,53.4718,1510.4006],[134.7923,53.4509,1439.7463],[134.8587,53.4193,1261.5914],[134.901,53.394,1469.5702],[134.8746,53.3618,1418.2521],[134.8018,53.3681,1252.9608],[134.7323,53.3647,1327.9565],[134.7085,53.3381,1276.3572],[134.7338,53.3166,1455.3024],[134.7994,53.297,1154.1245],[134.8294,53.2601,1366.0891],[134.8507,53.2272,1320.2913],[134.7983,53.1599,1430.1721]]],
[[[136.2938,54.6951,0.8158],[136.2814,54.6977,0.7515],[136.2803,54.701,0.0],[136.2764,54.7014,9.3401],[136.2713,54.6967,52.4221],[136.264,54.6947,0.0],[136.2565,54.6822,0.0],[136.2601,54.6799,0.0],[136.2693,54.6812,15.4223],[136.2728,54.6761,0.0],[136.2799,54.673,6.3988],[136.2807,54.6677,3.6571],[136.2794,54.6636,14.2521],[136.2837,54.6602,0.0],[136.287,54.66,0.0],[136.2858,54.6523,18.65],[136.2926,54.649,0.0],[136.3072,54.6524,2.1871],[136.3155,54.6486,0.0],[136.3338,54.6502,0.0],[136.3504,54.6469,0.0],[136.3565,54.6418,0.0],[136.3643,54.6405,13.8194],[136.3765,54.6345,0.0],[136.3931,54.6319,0.0],[136.4105,54.633,0.0],[136.4183,54.6311,0.0],[136.4251,54.6319,0.0],[136.4357,54.6292,19.7657],[136.4412,54.6302,0.0],[136.4533,54.6257,12.7019],[136.4559,54.6261,6.1942],[136.4595,54.6297,15.5444],[136.4584,54.6336,8.1525],[136.4605,54.6368,0.0],[136.4666,54.6403,0.0],[136.461,54.6457,13.1589],[136.4627,54.647,0.0],[136.4613,54.6489,2.0422],[136.4575,54.651,0.0],[136.4545,54.6507,2.7987],[136.4528,54.6444,13.5225],[136.4481,54.6407,0.0],[136.4308,54.6404,28.8658],[136.4261,54.6364,5.6022],[136.4186,54.6356,0.0],[136.3877,54.6392,0.0],[136.3794,54.6428,15.1283],[136.3607,54.6463,11.1212],[136.3465,54.6515,62.646],[136.3324,54.6596,43.1935],[136.3306,54.6645,0.0],[136.3318,54.6663,13.4914],[136.329,54.6709,0.0],[136.3306,54.6756,1.5837],[136.3367,54.678,8.2523],[136.3459,54.6768,0.0],[136.3491,54.6781,0.0],[136.3328,54.6924,1.1011],[136.3324,54.6968,42.366],[136.3215,54.6966,30.601],[136.3151,54.6937,31.9549],[136.3103,54.6933,10.2384],[136.2938,54.6951,0.8158]]],
[[[135.2883,54.7321,0.0],[135.2889,54.7339,0.0],[135.2809,54.7322,1.5484],[135.2836,54.7313,0.0],[135.2883,54.7321,0.0]]],
[[[135.2958,54.7348,0.0],[135.2917,54.7356,0.0],[135.2916,54.7338,0.0],[135.2934,54.7325,0.0],[135.2958,54.7348,0.0]]],
[[[137.821,54.3456,0.0],[137.8173,54.3495,0.0],[137.8174,54.3529,0.0],[137.8161,54.3535,55.2222],[137.8105,54.3516,44.3525],[137.8045,54.3521,0.0],[137.7989,54.3486,0.0],[137.8011,54.3467,0.0],[137.7997,54.3442,0.0],[137.7964,54.3429,14.6614],[137.7863,54.3442,0.0],[137.7846,54.3401,0.0],[137.793,54.3376,17.7465],[137.8025,54.3396,0.0],[137.8079,54.3437,0.0],[137.8169,54.3417,0.0],[137.8235,54.3428,5.4301],[137.821,54.3456,0.0]]],
[[[137.6226,54.5542,67.7657],[137.6237,54.5553,7.3194],[137.6224,54.5569,37.6063],[137.6087,54.5549,48.2845],[137.6073,54.5492,12.5162],[137.6125,54.5466,5.9275],[137.6118,54.5456,5.9275],[137.6043,54.5475,1.4765],[137.5961,54.5449,36.4396],[137.5904,54.5449,12.6764],[137.5915,54.5416,0.0],[137.5906,54.5383,12.398],[137.5855,54.5353,34.1136],[137.5734,54.5334,9.3318],[137.5729,54.5312,12.5516],[137.5748,54.5286,38.4413],[137.5718,54.5226,13.825],[137.563,54.5172,6.1941],[137.5545,54.5084,0.0],[137.5589,54.5044,2.6712],[137.5622,54.5031,0.5867],[137.5667,54.5038,55.3702],[137.5694,54.5011,42.1754],[137.5686,54.4965,5.866],[137.5616,54.489,24.1411],[137.5613,54.4855,78.3236],[137.5633,54.4831,7.0838],[137.5687,54.4822,24.2569],[137.5716,54.4785,67.6242],[137.5683,54.466,9.4233],[137.5784,54.4654,0.0],[137.5835,54.4675,31.8314],[137.5878,54.4663,21.9138],[137.5916,54.4608,1.596],[137.5906,54.4567,3.4989],[137.5919,54.4523,3.7845],[137.5866,54.4439,45.2408],[137.5813,54.439,0.0],[137.5794,54.4356,0.0],[137.5802,54.4344,38.8781],[137.56,54.4158,0.6354],[137.5594,54.4136,1.5193],[137.5533,54.4094,1.9683],[137.5462,54.409,0.0],[137.5394,54.4039,14.606],[137.5467,54.3997,0.0],[137.546,54.3964,0.0],[137.5475,54.3953,0.0],[137.5547,54.3966,12.4319],[137.5578,54.3942,11.3929],[137.5667,54.3924,5.3431],[137.5701,54.3896,45.8176],[137.57,54.3858,14.2148],[137.5744,54.3831,0.0],[137.5833,54.3844,25.0325],[137.5954,54.3823,37.6617],[137.6121,54.3875,53.7759],[137.6174,54.3905,0.0],[137.6087,54.3972,0.0],[137.6155,54.4016,3.8862],[137.6189,54.3992,14.5689],[137.6276,54.3984,14.4515],[137.628,54.3963,5.4027],[137.6383,54.3944,3.9985],[137.6422,54.3886,0.0],[137.6533,54.38,0.0],[137.6561,54.3803,0.0],[137.6575,54.3836,29.1856],[137.656,54.3881,11.5053],[137.6506,54.3914,11.282],[137.6499,54.3951,0.0],[137.6432,54.3988,4.4043],[137.6427,54.402,0.0],[137.6359,54.4044,15.7086],[137.6353,54.4066,5.7077],[137.6367,54.4085,23.9815],[137.6306,54.4115,27.5341],[137.6304,54.4129,0.0],[137.6206,54.4164,16.2723],[137.6064,54.4292,11.3717],[137.6051,54.4321,1.5011],[137.6056,54.4343,14.7689],[137.6187,54.4451,2.4654],[137.622,54.4457,16.2811],[137.6228,54.4503,47.9024],[137.6274,54.4526,0.0],[137.628,54.4595,7.7681],[137.6319,54.4634,0.0],[137.647,54.4668,17.5625],[137.6477,54.4686,0.0],[137.6441,54.4766,0.0],[137.6465,54.483,18.9098],[137.6555,54.4836,0.0],[137.662,54.4885,0.0],[137.6512,54.4961,17.1569],[137.655,54.5003,0.0],[137.6539,54.506,0.0],[137.6493,54.5055,19.4947],[137.6456,54.5085,29.5079],[137.639,54.5094,30.3113],[137.635,54.5137,85.4422],[137.6339,54.5217,54.867],[137.6368,54.5256,21.3987],[137.6321,54.5276,3.2834],[137.6311,54.5297,14.9234],[137.6347,54.5361,38.4187],[137.6285,54.5387,33.5461],[137.6253,54.542,12.5978],[137.6262,54.5442,8.9557],[137.6192,54.5449,16.4303],[137.6162,54.5479,11.5825],[137.6169,54.551,0.0],[137.6226,54.5542,67.7657]]],
[[[137.0863,54.6144,10.8609],[137.0808,54.6129,17.9031],[137.0767,54.615,1.9804],[137.0764,54.6129,8.3842],[137.0732,54.6112,10.8796],[137.0609,54.6068,15.448],[137.0591,54.6023,47.9655],[137.0693,54.5975,8.3677],[137.0708,54.5945,0.0],[137.0775,54.5965,10.8244],[137.0811,54.5999,10.4091],[137.0819,54.6041,0.0],[137.096,54.6136,0.0],[137.0942,54.6148,0.0],[137.0906,54.6133,43.7058],[137.0863,54.6144,10.8609]]],
[[[137.1869,54.6859,47.5523],[137.1864,54.6823,11.5353],[137.1894,54.6847,3.922],[137.1967,54.6851,0.0],[137.2029,54.6885,0.0],[137.1969,54.6889,0.0],[137.1869,54.6859,47.5523]]],
[[[136.3539,54.7905,5.8062],[136.3551,54.7888,2.6625],[136.3606,54.7897,0.0],[136.3653,54.795,2.4435],[136.3561,54.7927,6.3751],[136.3539,54.7905,5.8062]]],
[[[136.3093,54.8217,0.0],[136.3155,54.8204,0.0],[136.3189,54.8216,4.2355],[136.3139,54.8246,34.5527],[136.3111,54.8245,13.6672],[136.3093,54.8217,0.0]]],
[[[136.9301,54.9087,0.0],[136.9313,54.9095,0.0],[136.9303,54.9112,0.0],[136.9281,54.9114,0.0],[136.9217,54.9053,38.0351],[136.9183,54.9053,0.0],[136.9178,54.9039,0.0],[136.9288,54.9018,-0.1685],[136.9301,54.9087,0.0]]],
[[[136.7746,54.9111,0.0],[136.777,54.9095,0.0],[136.7817,54.9115,0.0],[136.7811,54.9122,0.0],[136.7746,54.9111,0.0]]],
[[[139.7867,54.3531,50.3132],[139.7813,54.3544,25.7784],[139.781,54.3583,0.0],[139.7741,54.3549,20.2918],[139.7661,54.3552,6.828],[139.7639,54.3519,64.3816],[139.7592,54.3536,25.2679],[139.7575,54.3525,7.4284],[139.7594,54.3494,45.8261],[139.7536,54.3459,0.0],[139.7544,54.34,0.0],[139.7661,54.3361,13.7123],[139.7837,54.3409,20.4188],[139.8013,54.3426,2.8672],[139.8056,54.346,0.0],[139.8056,54.3482,11.3335],[139.8083,54.3499,0.0],[139.8073,54.3513,4.9267],[139.809,54.3529,9.2884],[139.801,54.3528,6.3562],[139.7976,54.3549,3.7224],[139.7867,54.3531,50.3132]]],
[[[137.8403,54.3676,9.7481],[137.844,54.3672,4.0911],[137.8402,54.37,18.116],[137.8356,54.3688,0.9443],[137.8374,54.368,5.3232],[137.8403,54.3676,9.7481]]],
[[[137.9265,54.486,24.1304],[137.9207,54.4899,52.2744],[137.9197,54.4933,0.0],[137.9146,54.4952,38.0166],[137.9068,54.493899999999996,0.0],[137.898,54.4897,34.9926],[137.8871,54.4903,94.9729],[137.8782,54.4929,21.2926],[137.868,54.4929,6.0804],[137.8577,54.4877,8.1025],[137.8494,54.4876,11.1698],[137.8409,54.4843,9.6658],[137.8395,54.481,45.9064],[137.8411,54.4786,81.1772],[137.8378,54.4756,12.1826],[137.8384,54.4702,9.8173],[137.8329,54.4637,9.2997],[137.8318,54.4594,0.0],[137.8286,54.4575,0.0],[137.8208,54.4477,0.0],[137.8246,54.4439,87.4776],[137.8238,54.44,0.0],[137.8288,54.4375,19.1005],[137.8263,54.433,2.1462],[137.8074,54.4215,10.4312],[137.7922,54.4155,11.0577],[137.792,54.4114,32.0479],[137.7796,54.4068,46.7017],[137.774,54.3985,1.3142],[137.7707,54.3965,8.8747],[137.76,54.3924,0.9785],[137.743,54.3909,7.7608],[137.7384,54.3881,8.9886],[137.7397,54.3857,0.0],[137.7383,54.3834,18.2701],[137.72,54.3791,7.9414],[137.7077,54.3717,18.5551],[137.7101,54.3674,49.564],[137.7096,54.3621,49.576],[137.7118,54.3573,47.0344],[137.7138,54.3558,42.1912],[137.7215,54.3557,29.4778],[137.7248,54.3574,54.6402],[137.7334,54.3574,31.1843],[137.7427,54.3656,39.7825],[137.7459,54.3667,0.0],[137.7551,54.3656,4.6042],[137.7574,54.3698,0.0],[137.7618,54.3724,45.2521],[137.7708,54.3736,0.0],[137.7841,54.3707,12.5086],[137.7976,54.3784,43.2476],[137.804,54.3794,50.649],[137.8073,54.3762,17.2625],[137.8113,54.3753,0.0],[137.8163,54.3804,0.0],[137.8291,54.3831,0.0],[137.8346,54.3876,53.5373],[137.8334,54.3897,28.4975],[137.834,54.3939,27.8291],[137.8408,54.3988,13.0977],[137.8402,54.4011,16.1262],[137.8475,54.4076,0.0],[137.85,54.414,7.7706],[137.8528,54.4162,0.0],[137.8519,54.4203,0.0],[137.8534,54.4375,0.0],[137.856,54.4408,29.1321],[137.8787,54.4463,5.4686],[137.8838,54.446,16.3171],[137.8874,54.4483,0.9614],[137.8916,54.4478,4.2097],[137.9101,54.4516,0.0],[137.9156,54.4511,8.7464],[137.9227,54.4538,67.8939],[137.9336,54.4539,23.8606],[137.9545,54.4605,0.0],[137.942,54.4734,0.0],[137.9386,54.4747,68.7195],[137.9265,54.486,24.1304]]],
[[[137.9852,54.4586,28.2768],[137.9875,54.4565,6.6952],[137.9907,54.457,0.0],[137.9936,54.4593,18.8557],[137.9932,54.4622,0.0],[137.9872,54.4606,5.099],[137.9852,54.4586,28.2768]]],
[[[139.2566,54.589,90.9181],[139.2657,54.5977,22.5494],[139.2707,54.6001,0.0],[139.2744,54.605,23.6597],[139.2783,54.6155,0.0],[139.2651,54.6065,23.9726],[139.2639,54.6036,34.9648],[139.2552,54.6009,3.6548],[139.2431,54.5936,64.0606],[139.2284,54.5915,47.6279],[139.2136,54.5921,0.0],[139.2116,54.5914,22.0658],[139.2125,54.5882,38.6761],[139.2109,54.5863,0.0],[139.2158,54.5801,0.0],[139.228,54.5796,0.0],[139.2437,54.5807,4.329],[139.2566,54.589,90.9181]]],
[[[138.225,54.7231,14.876],[138.2152,54.7239,0.0],[138.1965,54.7215,15.1935],[138.1806,54.7169,5.2588],[138.1805,54.7126,4.1926],[138.1883,54.705,0.0],[138.2028,54.6986,0.0],[138.2072,54.6994,27.6364],[138.2106,54.702,0.9044],[138.2333,54.7066,0.0],[138.2462,54.711,5.5223],[138.2453,54.7132,5.6803],[138.2467,54.7169,0.0],[138.2345,54.7217,5.1877],[138.225,54.7231,14.876]]],
[[[137.8801,54.9809,1.3679],[137.881,54.9794,1.5301],[137.8812,54.9833,0.0],[137.8767,54.9821,0.0],[137.8784,54.9812,1.3679],[137.8801,54.9809,1.3679]]],
[[[138.3735,55.0951,82.3659],[138.3626,55.0963,0.0],[138.359,55.0936,47.3216],[138.3391,55.0925,0.0],[138.3303,55.0888,0.0],[138.3251,55.0817,28.743],[138.3246,55.0776,58.8249],[138.3266,55.072,21.6635],[138.3234,55.0652,0.0],[138.3248,55.0635,126.1403],[138.3246,55.0592,35.7686],[138.3401,55.0593,22.4546],[138.3552,55.0573,85.4672],[138.3667,55.0504,0.0],[138.3856,55.049,19.9036],[138.4039,55.0436,0.0],[138.4111,55.0442,0.0],[138.4169,55.0475,16.9803],[138.4223,55.0587,0.0],[138.4245,55.0602,0.0],[138.4258,55.0741,61.8728],[138.4294,55.0784,53.8332],[138.4263,55.0835,121.9238],[138.4262,55.0868,28.3939],[138.4089,55.0939,0.6429],[138.3957,55.093,78.2714],[138.3735,55.0951,82.3659]]],
[[[137.2088,54.6923,2.0732],[137.2067,54.6901,0.0],[137.2104,54.6906,4.9404],[137.2123,54.6927,0.0],[137.2113,54.6933,8.6082],[137.2088,54.6923,2.0732]]],
[[[137.653,55.1839,0.0],[137.6459,55.1865,46.4207],[137.6383,55.1925,0.0],[137.6311,55.1959,1.7817],[137.6273,55.1934,42.4302],[137.6255,55.1897,21.1877],[137.618,55.1869,83.7943],[137.6047,55.187,58.8439],[137.5947,55.1847,27.8488],[137.5756,55.185,34.6349],[137.5667,55.1828,13.099],[137.5584,55.1829,5.3063],[137.5533,55.1794,6.9327],[137.5521,55.1754,6.776],[137.5583,55.1689,27.4928],[137.5578,55.1622,4.5669],[137.5556,55.1572,6.522],[137.5333,55.1386,30.289],[137.5172,55.1283,43.4168],[137.5164,55.1269,52.0607],[137.5178,55.1253,45.1591],[137.5155,55.1203,34.6548],[137.5053,55.1122,0.0],[137.5059,55.1106,0.0],[137.5123,55.1091,74.4522],[137.5167,55.1056,132.588],[137.5189,55.1022,5.2237],[137.5183,55.0975,13.6971],[137.5122,55.0928,15.1334],[137.5122,55.0904,82.603],[137.5083,55.0867,28.5749],[137.502,55.0824,20.988],[137.5032,55.0803,0.0],[137.5089,55.0772,16.2767],[137.5083,55.0725,8.4642],[137.4983,55.0639,2.9589],[137.4878,55.0578,22.4765],[137.4875,55.0556,27.3298],[137.4917,55.0517,70.7605],[137.4911,55.0461,8.1793],[137.4825,55.0382,27.9086],[137.4789,55.0315,100.5505],[137.4708,55.0255,0.0],[137.4566,55.0194,15.1179],[137.4495,55.0124,0.0],[137.4267,55.0034,21.2748],[137.4075,54.9981,32.7617],[137.4015,54.9941,0.0],[137.4003,54.9896,27.0729],[137.3912,54.9844,1.7282],[137.3935,54.9794,6.0745],[137.3978,54.9759,29.0518],[137.3924,54.9684,25.0239],[137.3776,54.9631,17.8802],[137.3759,54.9586,34.5108],[137.3675,54.9529,2.7932],[137.3489,54.9453,8.4549],[137.3394,54.9397,31.3635],[137.3221,54.9229,0.0],[137.3201,54.9183,39.7178],[137.3081,54.911,1.6662],[137.3037,54.9064,4.2807],[137.2976,54.8978,0.0],[137.2982,54.8933,37.416],[137.286,54.8795,3.149],[137.2871,54.8767,0.0],[137.2858,54.8713,15.3154],[137.2781,54.8655,0.0],[137.2749,54.8591,0.0],[137.2755,54.8575,21.0313],[137.2711,54.854,74.5725],[137.2668,54.8398,5.2406],[137.2645,54.8364,0.0],[137.2621,54.8094,1.3808],[137.2573,54.802,32.5129],[137.2538,54.7916,12.3975],[137.2499,54.7898,24.7947],[137.247,54.776,76.9103],[137.2427,54.7701,74.3141],[137.2366,54.7654,89.1653],[137.2354,54.7619,2.834],[137.2426,54.7608,0.0],[137.2499,54.765,0.0],[137.2619,54.7635,0.0],[137.2711,54.7661,9.1507],[137.2782,54.7662,12.2758],[137.2923,54.7715,0.0],[137.2935,54.7747,16.3648],[137.3045,54.7766,0.0],[137.3066,54.7831,0.0],[137.3047,54.7862,0.0],[137.3014,54.7879,61.3339],[137.3027,54.7905,33.6523],[137.3149,54.7949,0.0],[137.3201,54.7939,10.2916],[137.3293,54.7963,0.0],[137.339,54.8012,0.0],[137.3423,54.8063,4.352],[137.3524,54.8119,0.0],[137.3606,54.8133,0.0],[137.3746,54.8125,0.0],[137.3733,54.8179,13.2228],[137.3889,54.8299,7.3637],[137.3962,54.8432,14.8985],[137.4082,54.8484,0.0],[137.4106,54.8514,1.4461],[137.4196,54.8556,11.9273],[137.4405,54.8567,0.0],[137.4586,54.8618,0.0],[137.4724,54.8677,22.028199999999998],[137.4822,54.8681,0.0],[137.4845,54.87,8.9972],[137.4845,54.8722,12.0285],[137.4872,54.8728,5.4668],[137.4939,54.8669,7.1826],[137.4911,54.8656,0.4108],[137.4919,54.8632,7.0394],[137.4899,54.862,0.9696],[137.4909,54.8597,0.0],[137.5227,54.8315,7.2054],[137.5442,54.8052,0.0],[137.5518,54.7928,55.0304],[137.5528,54.7839,33.1443],[137.5502,54.7805,19.9521],[137.5507,54.7764,8.0739],[137.5604,54.7693,18.285],[137.5798,54.7699,1.9067],[137.5855,54.767,2.5863],[137.5894,54.7622,2.2956],[137.5989,54.7636,5.1679],[137.6033,54.7625,4.2467],[137.5945,54.7514,15.848],[137.5974,54.7394,47.3544],[137.5961,54.7381,0.0],[137.6059,54.7365,3.0471],[137.6119,54.7375,23.4544],[137.6204,54.7307,32.1953],[137.626,54.7188,2.8919],[137.6277,54.6973,26.7809],[137.6348,54.6956,23.014],[137.6403,54.6917,29.6635],[137.6439,54.6806,39.8288],[137.644,54.6754,28.1954],[137.6494,54.6712,0.0],[137.6567,54.6596,2.2495],[137.6564,54.6568,0.0],[137.6587,54.654,10.9042],[137.6578,54.6518,0.0],[137.6626,54.648,33.2902],[137.663,54.6445,5.8342],[137.6662,54.6423,23.3703],[137.6755,54.6443,21.371],[137.6887,54.6423,22.24],[137.6971,54.6329,29.8607],[137.7,54.6264,13.687],[137.7006,54.6226,15.4663],[137.697,54.619,41.6962],[137.6981,54.6171,31.0274],[137.7005,54.615,0.0],[137.7112,54.6162,6.8861],[137.7217,54.6203,0.0],[137.7257,54.625,8.7729],[137.7233,54.6277,16.0967],[137.7236,54.6315,19.0111],[137.7327,54.636,0.0],[137.7295,54.6414,83.0498],[137.7313,54.6466,29.6355],[137.7395,54.6509,74.0293],[137.7475,54.6628,13.2896],[137.7654,54.6667,0.0],[137.7678,54.669,0.0],[137.767,54.6717,0.0],[137.7683,54.6749,10.039],[137.778,54.684,19.9604],[137.7869,54.6872,72.8317],[137.7943,54.6877,20.6201],[137.802,54.6861,0.0],[137.8055,54.6895,2.1518],[137.8079,54.6973,33.9001],[137.8103,54.6999,4.1731],[137.8225,54.703,7.463],[137.836,54.7011,10.1373],[137.8442,54.7047,14.5406],[137.8485,54.7091,49.4815],[137.8525,54.7107,2.6691],[137.8594,54.7168,14.5099],[137.8582,54.7229,18.4745],[137.8602,54.7301,9.7871],[137.8691,54.7434,36.9572],[137.8867,54.7564,0.0],[137.9022,54.7615,46.7657],[137.9193,54.7625,48.3884],[137.9387,54.7577,16.4264],[137.9485,54.7522,35.3172],[137.9521,54.7528,33.8355],[137.9588,54.7661,26.243],[137.9653,54.7682,3.5921],[137.9839,54.7701,0.0],[137.9898,54.7779,5.8904],[137.9995,54.785,0.0],[138.0017,54.7883,0.0],[138.0014,54.7914,42.5075],[138.0067,54.7964,15.6823],[138.0083,54.8006,10.1498],[138.0072,54.8044,90.5376],[138.0106,54.8086,3.3438],[138.009,54.8109,44.2621],[138.0083,54.8228,19.7393],[138.0117,54.8252,0.0],[138.0094,54.8266,58.0032],[138.0083,54.8301,17.4542],[138.0017,54.8353,2.0356],[138.0028,54.8372,0.0],[138.0008,54.8388,20.0327],[138.0009,54.8422,60.4274],[138.0044,54.8456,0.0],[137.9973,54.8521,17.5676],[137.9987,54.8535,0.0],[137.9926,54.8711,2.0223],[137.9941,54.8763,74.6387],[137.9981,54.8813,0.0],[137.9969,54.8847,171.4191],[137.9973,54.9051,95.3536],[137.9957,54.9122,2.5603],[137.9979,54.9208,0.0],[138.0128,54.9253,0.0],[138.0256,54.9317,0.0],[138.025,54.9344,6.7241],[138.0272,54.9392,2.3203],[138.0372,54.945,0.0],[138.04,54.9456,4.4717],[138.0494,54.9411,1.6946],[138.059,54.9409,0.0],[138.0572,54.9483,0.9614],[138.0589,54.9592,26.2198],[138.0622,54.9614,0.0],[138.0639,54.9689,58.6937],[138.0775,54.9802,5.5943],[138.0914,54.9831,0.0],[138.1261,55.0022,25.9147],[138.1306,55.0022,42.4176],[138.1407,54.9978,0.0],[138.1792,54.9942,3.2454],[138.1897,54.9992,1.68],[138.2064,55.0185,0.0],[138.2207,55.024,4.7764],[138.2197,55.0281,0.0],[138.2173,55.03,125.57],[138.2178,55.0325,0.0],[138.2141,55.035,29.7635],[138.208,55.0334,74.3425],[138.1957,55.0367,44.391],[138.1689,55.0384,62.4001],[138.1403,55.0445,0.0],[138.1239,55.0452,74.2954],[138.1141,55.0477,25.0599],[138.1072,55.0514,0.0],[138.0963,55.0512,21.412],[138.0931,55.0493,6.8549],[138.079,55.0482,2.1927],[138.0575,55.0531,17.0316],[138.0428,55.0528,5.5111],[138.0372,55.0478,5.4507],[138.0228,55.05,10.7963],[138.015,55.0458,6.4574],[137.9968,55.0407,0.0],[137.985,55.0397,3.3034],[137.9674,55.0349,17.2037],[137.9505,55.0258,0.0],[137.9487,55.023,4.2382],[137.9443,55.0227,6.5863],[137.9361,55.0178,1.5033],[137.9344,55.0105,10.9869],[137.9305,55.0047,11.5779],[137.9183,54.9975,2.3368],[137.9083,54.9985,3.3226],[137.9027,54.9961,0.0],[137.9012,54.9944,0.0],[137.9032,54.9899,6.8231],[137.8941,54.9843,0.0],[137.8905,54.98,10.8126],[137.8789,54.9781,10.3642],[137.8721,54.9812,0.8354],[137.8778,54.9844,0.3693],[137.8782,54.989,1.0792],[137.8732,54.9844,0.6777],[137.8707,54.9846,1.2959],[137.8697,54.987,3.961],[137.879,54.99,1.0792],[137.8838,54.9989,3.391],[137.8876,55.0015,0.0],[137.8963,55.0139,12.0541],[137.9107,55.0209,2.8865],[137.9112,55.023,0.0],[137.907,55.025,0.0],[137.9225,55.0266,0.3645],[137.9268,55.0251,0.4739],[137.9285,55.0301,0.0],[137.9282,55.0367,0.4203],[137.9363,55.0398,0.0],[137.9429,55.0458,0.0],[137.9467,55.0517,0.0],[137.956,55.0574,1.1494],[137.9675,55.0711,0.0],[137.9754,55.0756,2.4729],[137.9778,55.0813,1.4653],[137.9833,55.0786,0.2877],[137.9845,55.0814,3.3192],[137.9867,55.0819,0.7985],[137.9876,55.0776,1.9811],[138.0039,55.0725,4.8335],[138.0094,55.0681,0.546],[138.0256,55.0633,1.8888],[138.0478,55.0542,4.167],[138.0511,55.0553,2.381],[137.9935,55.0823,2.0034],[137.9561,55.1039,16.6136],[137.9556,55.1089,0.0],[137.9454,55.1146,6.6579],[137.9444,55.1178,0.0],[137.94,55.1214,3.1847],[137.94,55.1264,0.0],[137.9444,55.1272,0.4741],[137.9444,55.1291,0.8419],[137.9337,55.1366,0.0],[137.9304,55.1411,2.3838],[137.9167,55.1436,39.3905],[137.8905,55.1292,4.9065],[137.8755,55.1267,33.7652],[137.8678,55.1269,64.3068],[137.8443,55.1319,70.1496],[137.8339,55.1322,0.0],[137.7872,55.1443,13.2855],[137.7805,55.1444,8.0695],[137.775,55.1419,34.8023],[137.7635,55.1418,26.0251],[137.7459,55.1455,0.0],[137.73,55.1508,0.4693],[137.7139,55.1614,0.0],[137.7028,55.1647,4.9533],[137.7011,55.1678,0.0],[137.6917,55.1733,18.7569],[137.6846,55.1761,16.2482],[137.6761,55.1769,48.9512],[137.6683,55.1811,10.5497],[137.6671,55.1834,0.1423],[137.653,55.1839,0.0]]],
[[[137.9332,55.1401,0.9863],[137.9337,55.1393,0.0],[137.9364,55.1403,0.0],[137.9347,55.1409,0.0],[137.9332,55.1401,0.9863]]],
[[[136.526,54.9613,20.3463],[136.5036,54.9612,68.8453],[136.4983,54.9575,0.0],[136.5005,54.9536,0.0],[136.5062,54.9527,18.774],[136.5127,54.9474,8.2976],[136.5162,54.9472,55.1086],[136.5191,54.944,6.6143],[136.5249,54.9479,0.0],[136.5268,54.9512,0.0],[136.5352,54.9514,0.0],[136.5425,54.9547,31.1956],[136.548,54.9542,8.1393],[136.5517,54.9556,60.4428],[136.5584,54.9514,0.9794],[136.5668,54.9504,2.0905],[136.5672,54.9532,32.5579],[136.5653,54.9561,5.8267],[136.5589,54.9592,0.0],[136.5511,54.9606,0.0],[136.5411,54.9581,34.4894],[136.5331,54.9612,0.0],[136.526,54.9613,20.3463]]],
[[[137.1778,55.1175,5.372],[137.1676,55.1185,47.4298],[137.1395,55.1119,62.6475],[137.125,55.1131,18.1062],[137.1183,55.11,35.5187],[137.0917,55.1053,6.2012],[137.075,55.105,4.8488],[137.0538,55.1084,26.5394],[137.0422,55.1067,49.6824],[137.0233,55.1081,19.8952],[137.0142,55.1061,27.6647],[136.9983,55.0933,75.4911],[136.9634,55.0763,7.8723],[136.9572,55.0717,82.3936],[136.9503,55.0696,4.431],[136.9478,55.0669,86.3181],[136.9317,55.0608,43.8819],[136.9194,55.0591,1.0653],[136.9034,55.0525,6.6768],[136.9014,55.0512,0.0],[136.9011,55.0464,0.0],[136.8988,55.0428,90.8767],[136.8939,55.0397,17.5159],[136.85,55.0253,94.3715],[136.8222,55.0217,20.4518],[136.7852,55.0128,0.0],[136.7855,55.0107,15.7532],[136.7744,55.0042,0.0],[136.7772,55.0,58.5089],[136.7656,54.9893,5.7268],[136.7501,54.9823,7.2911],[136.7441,54.9779,3.4731],[136.7143,54.9684,54.8872],[136.6821,54.95,0.0],[136.6851,54.9458,29.1487],[136.6862,54.9309,6.5972],[136.6798,54.9182,38.5686],[136.668,54.9122,2.9224],[136.6729,54.8984,8.8024],[136.6782,54.897,0.0],[136.684,54.8991,33.7165],[136.6911,54.8972,44.4544],[136.6942,54.8952,1.4847],[136.6931,54.8906,10.1921],[136.6943,54.8902,0.6978],[136.7068,54.8973,25.2438],[136.7172,54.8927,0.0],[136.7343,54.8893,23.2478],[136.7513,54.8822,33.6402],[136.7588,54.8821,18.0764],[136.7649,54.8842,0.0],[136.7739,54.891,21.109],[136.7749,54.8935,69.4877],[136.7791,54.8947,13.4823],[136.7714,54.9028,0.0],[136.7726,54.9071,0.0],[136.7618,54.9132,22.1839],[136.7603,54.9199,0.0],[136.7633,54.9231,0.0],[136.7574,54.9262,0.0],[136.7602,54.9303,0.0],[136.7683,54.9341,15.0627],[136.775,54.935,0.0],[136.7896,54.9292,17.5647],[136.8044,54.9283,8.3471],[136.81,54.9249,0.0],[136.8175,54.9262,10.6334],[136.8274,54.9249,0.0],[136.8318,54.9306,9.6944],[136.8223,54.934,18.6217],[136.8206,54.9368,8.4341],[136.825,54.9433,0.0],[136.8383,54.9466,0.0],[136.8616,54.9381,0.0],[136.8785,54.9382,0.0],[136.8808,54.9393,0.0],[136.8798,54.9431,2.4039],[136.8889,54.9524,0.5972],[136.8863,54.953,0.5972],[136.8823,54.9477,0.7945],[136.8765,54.9503,0.3989],[136.8763,54.9522,1.1534],[136.8866,54.9552,0.0],[136.8954,54.9556,30.3218],[136.9015,54.9608,32.8092],[136.9158,54.959,1.9565],[136.9305,54.9536,0.0],[136.9431,54.9444,6.1833],[136.9458,54.94,5.7593],[136.9433,54.9379,0.0],[136.9469,54.9363,4.6233],[136.9417,54.9366,0.3922],[136.9371,54.9347,34.9518],[136.9364,54.9361,0.0],[136.9323,54.9358,0.0],[136.9278,54.9336,0.0],[136.9339,54.9269,49.0534],[136.9294,54.9236,0.0],[136.9297,54.9216,5.4218],[136.942,54.9142,7.3217],[136.9688,54.9183,0.0],[136.9761,54.918,5.9196],[136.9791,54.9163,1.7308],[136.985,54.918,9.8513],[136.9883,54.9167,0.0],[136.9989,54.9175,11.8575],[137.0093,54.9126,0.0],[137.0215,54.9165,6.9082],[137.0329,54.9123,29.915],[137.0451,54.914,43.1549],[137.0495,54.9126,1.4765],[137.0537,54.9155,51.338],[137.0617,54.9151,0.0],[137.0661,54.9257,24.818],[137.0739,54.9302,0.0],[137.083,54.9326,7.0862],[137.0848,54.9363,0.0],[137.0844,54.9407,0.8185],[137.0909,54.946,3.8845],[137.0884,54.9521,26.6265],[137.0902,54.953,1.2545],[137.0786,54.9568,7.3068],[137.0635,54.9658,4.1466],[137.0552,54.9771,2.7627],[137.0556,54.9795,11.7418],[137.0621,54.9808,0.0],[137.0615,54.9846,0.0],[137.0637,54.9903,12.9943],[137.0679,54.9919,0.0],[137.0695,54.9968,0.0],[137.0689,55.0036,27.9857],[137.0733,55.0086,0.8778],[137.0789,55.0097,2.1443],[137.0872,55.0147,24.089],[137.1109,55.0173,4.4357],[137.1127,55.0201,0.0],[137.1106,55.025,11.5684],[137.1139,55.0306,15.4712],[137.1128,55.0325,14.8799],[137.1146,55.0375,104.9624],[137.1204,55.0397,11.7047],[137.1249,55.039,8.066],[137.1289,55.0428,18.2898],[137.1278,55.0486,2.3318],[137.1317,55.0525,0.0],[137.1322,55.06,0.0],[137.1395,55.065,0.0],[137.14,55.0689,7.4046],[137.148,55.0739,32.9613],[137.1583,55.0757,6.5979],[137.1639,55.0858,51.7109],[137.1689,55.0908,44.5009],[137.1928,55.1047,43.5109],[137.1961,55.1092,17.0604],[137.1911,55.1158,7.0721],[137.1778,55.1175,5.372]]]]}}