{"type":"Feature","properties":{"GID_2":"RUS.2.27_1","GID_0":"RUS","country":"Russia","GID_1":"RUS.2_1","province":"Altay","NL_NAME_1":"Алтайскийкрай","county":"Mamontovskiyrayon","VARNAME_2":"NA","NL_NAME_2":"Мамонтовскийрайон","TYPE_2":"Raion","ENGTYPE_2":"District","CC_2":"R53092","HASC_2":"RU.AL.MA","name":"Mamontovskiyrayon.county"},
"geometry":{"type": "MultiPolygon","coordinates": [[[[82.1561,52.6752,227.0394],[82.1416,52.7035,250.3096],[82.1025,52.7272,260.6938],[82.0546,52.7361,268.0747],[82.0201,52.7398,281.1356],[82.0106,52.7533,284.3308],[82.0252,52.7727,286.4633],[82.0193,52.7952,280.0781],[81.9947,52.7977,272.7272],[81.9676,52.8422,243.279],[82.0052,52.8625,248.5414],[82.0111,52.8936,236.6292],[81.9578,52.944,237.9679],[81.9017,52.9864,267.2213],[81.8697,53.0008,241.132],[81.841,53.0215,269.1207],[81.6518,53.0246,188.0544],[81.5793,53.0341,185.4971],[81.5226,53.0339,175.5047],[81.4519,53.0003,172.9347],[81.4184,53.0077,163.0239],[81.3811,53.0098,160.1361],[81.354,52.9647,159.8616],[81.3731,52.9481,168.0637],[81.3797,52.9248,173.3596],[81.4181,52.904,186.3701],[81.4313,52.8864,194.0779],[81.3885,52.874,188.3008],[81.424,52.8201,215.1296],[81.4382,52.7811,226.7037],[81.4814,52.7922,230.8566],[81.514,52.7865,231.2473],[81.5686,52.6987,206.4417],[81.5224,52.6776,201.5],[81.5186,52.6562,202.4297],[81.5321,52.6311,219.2267],[81.511,52.6068,199.1628],[81.4407,52.5777,213.7995],[81.3838,52.5339,201.4481],[81.3368,52.4927,198.5],[81.3477,52.4766,198.5],[81.2875,52.4113,232.3411],[81.3279,52.3504,263.6753],[81.3911,52.3642,278.603],[81.4726,52.3397,231.4288],[81.5998,52.3852,219.7438],[81.8747,52.5499,237.5997],[82.1018,52.6546,233.8083],[82.1561,52.6752,227.0394]]]]}}