{"type":"Feature","properties":{"GID_3":"RUS.83.23.1_1","GID_0":"RUS","country":"Russia","GID_1":"RUS.83_1","province":"Zabaykal'ye","NL_NAME_1":"Забайкальскийкрай","GID_2":"RUS.83.23_1","county":"Nerchinskiyrayon","NL_NAME_2":"Нерчинскийрайон","city":"NA","VARNAME_3":"NA","NL_NAME_3":"NA","TYPE_3":"NA","ENGTYPE_3":"NA","CC_3":"NA","HASC_3":"NA","name":"N_A.city"},
"geometry":{"type": "MultiPolygon","coordinates": [[[[117.2242,51.9195,969.2366],[117.172,51.9173,1018.3673],[117.0709,51.9428,901.5998],[116.9798,51.9618,807.5369],[116.9145,51.9958,501.2207],[116.8746,52.0438,626.2598],[116.883,52.0919,619.0133],[116.8791,52.1115,649.6714],[116.805,52.1011,669.5561],[116.7468,52.1167,665.7962],[116.6979,52.1498,710.5726],[116.67,52.1939,622.6565],[116.6206,52.1711,620.8749],[116.5635,52.156,639.7919],[116.4985,52.1744,648.1023],[116.4816,52.2073,665.0128],[116.4771,52.2668,652.7063],[116.4639,52.3322,718.0322],[116.4077,52.3652,726.7364],[116.3761,52.3927,700.2228],[116.3886,52.4495,646.279],[116.4091,52.506,682.2827],[116.3938,52.548,714.2386],[116.3602,52.6512,773.153],[116.3603,52.7126,726.3087],[116.4006,52.7529,910.3993],[116.3986,52.7702,869.7896],[116.3437,52.7934,848.2301],[116.319,52.8235,920.963],[116.2804,52.8442,1038.0127],[116.1711,52.8186,893.2962],[116.1558,52.8463,979.8699],[116.1291,52.8841,861.0814],[116.0632,52.887,1035.8746],[115.9963,52.8646,848.3204],[115.8857,52.789,706.7111],[115.8463,52.7174,775.9593],[115.8205,52.6409,742.4376],[115.7822,52.5407,909.3806],[115.8012,52.5069,867.3918],[115.7449,52.463,865.6898],[115.7776,52.4356,711.3707],[115.8573,52.411,841.108],[115.9012,52.3706,802.0186],[115.887,52.3188,748.825],[115.8597,52.2782,699.0415],[115.841,52.2469,787.8953],[115.8564,52.2002,679.9257],[115.8666,52.1571,777.423],[115.8888,52.1472,799.6945],[115.9646,52.1399,763.2656],[116.0375,52.1349,700.718],[116.1071,52.1171,562.0253],[116.1648,52.0925,636.7561],[116.163,52.0538,664.6886],[116.1422,52.0209,657.6176],[116.1067,52.0024,687.0962],[116.0601,51.997,775.6638],[116.0727,51.9742,665.6262],[116.1274,51.9623,664.155],[116.2113,51.9802,632.435],[116.264,51.9857,617.4996],[116.2946,51.9668,604.949],[116.3035,51.9427,551.1356],[116.2739,51.9091,530.0726],[116.261,51.8616,628.6083],[116.2398,51.8173,772.0168],[116.2025,51.7781,705.1825],[116.1626,51.747,743.2444],[116.1221,51.7188,701.9049],[116.1043,51.6824,863.5012],[116.1146,51.6513,887.8901],[116.1502,51.6307,842.7858],[116.1623,51.6147,804.6235],[116.1588,51.5808,927.0858],[116.201,51.5602,875.786],[116.2498,51.5987,986.2082],[116.3058,51.5988,892.2715],[116.3953,51.5805,917.1622],[116.4239,51.6086,1059.7682],[116.4927,51.5914,1121.2281],[116.5278,51.6032,945.2078],[116.5618,51.6342,1012.3081],[116.6138,51.6558,1060.8931],[116.7191,51.712,934.8127],[116.843,51.8099,1017.5442],[116.8819,51.8258,997.624],[116.9556,51.819,859.485],[117.0052,51.8313,1036.0732],[117.0291,51.8656,694.7833],[117.1173,51.8784,886.3086],[117.1598,51.8878,952.6263],[117.2242,51.9195,969.2366]]]]}}