{"type":"Feature","properties":{"GID_2":"RUS.9.4_1","GID_0":"RUS","country":"Russia","GID_1":"RUS.9_1","province":"Buryat","NL_NAME_1":"РеспубликаБурятия","county":"Dzhidinskiyrayon","VARNAME_2":"NA","NL_NAME_2":"Джидинскийрайон","TYPE_2":"Raion","ENGTYPE_2":"District","CC_2":"R60000","HASC_2":"RU.BU.DZ","name":"Dzhidinskiyrayon.county"},
"geometry":{"type": "MultiPolygon","coordinates": [[[[106.0555,50.4088,642.1396],[106.0785,50.4396,621.8218],[106.1168,50.4631,609.6198],[106.1389,50.4916,585.9449],[106.1183,50.516,696.2252],[106.1218,50.5456,725.9931],[106.148,50.5747,759.4208],[106.2037,50.6067,574.4128],[106.2305,50.6462,572.0887],[106.2022,50.6942,573.1627],[106.1584,50.7057,577.847],[106.1073,50.7108,636.8621],[106.0822,50.7364,707.4328],[106.0632,50.7501,854.9191],[106.0251,50.74,946.7567],[106.0065,50.7047,844.0789],[105.996,50.6583,848.7501],[105.9717,50.6301,593.0447],[105.9181,50.6219,612.6913],[105.9065,50.6466,780.2023],[105.8973,50.6875,838.4402],[105.8963,50.726,820.1388],[105.8615,50.7722,707.7838],[105.8174,50.8132,745.2369],[105.7589,50.8551,905.5529],[105.7394,50.8352,847.1418],[105.7559,50.8074,799.9404],[105.7731,50.7881,847.9713],[105.7519,50.7722,999.8463],[105.702,50.7704,959.6385],[105.6633,50.7985,966.0417],[105.6309,50.832,1073.2957],[105.497,50.8666,1045.687],[105.4419,50.8736,1283.8395],[105.4292,50.8973,1285.2708],[105.4049,50.9082,1212.7878],[105.3458,50.9192,1011.3091],[105.3226,50.9596,1059.6721],[105.3375,50.9845,1329.3079],[105.3504,51.0334,1608.6604],[105.3433,51.0739,1273.1488],[105.3007,51.1124,1579.7803],[105.2572,51.1652,966.3505],[105.2483,51.2066,1329.3177],[105.2206,51.2461,1749.9563],[105.1022,51.2353,1637.8346],[105.0,51.234,1488.1149],[104.9322,51.1938,1742.7668],[104.8681,51.1173,1709.1465],[104.7413,51.0809,1618.7357],[104.5434,50.9974,1328.3767],[104.4706,50.9466,1336.043],[104.4882,50.8915,1526.0748],[104.4997,50.8337,1629.1018],[104.474,50.7796,1512.3807],[104.4208,50.7239,1152.329],[104.3284,50.6967,1560.8352],[104.2419,50.6961,1614.7102],[104.1099,50.6993,1657.426],[104.0659,50.6812,1505.968],[103.9956,50.6557,1370.541],[104.0316,50.6216,1397.7441],[104.0821,50.6317,1382.1643],[104.1623,50.6185,1710.4874],[104.2369,50.5959,1369.2452],[104.301,50.567,1042.3074],[104.3507,50.4736,877.6419],[104.3891,50.4247,930.4432],[104.4067,50.3644,1383.0459],[104.408,50.3182,1502.5883],[104.4053,50.305,1385.6084],[104.5068,50.3189,1369.4958],[104.5278,50.3183,1348.1146],[104.5701,50.3135,1268.5875],[104.5885,50.3137,1317.597],[104.6177,50.3193,1333.5402],[104.6375,50.325,1453.9973],[104.6719,50.3451,1323.03],[104.6985,50.3535,1377.8014],[104.7174,50.3548,1573.0822],[104.8171,50.3549,1325.9941],[104.8361,50.3587,1385.8263],[104.9119,50.3885,1218.7091],[104.9569,50.3983,1148.9686],[104.9975,50.3991,1143.5037],[105.0982,50.3908,1007.1546],[105.1195,50.3928,1196.6356],[105.1519,50.4001,1291.8595],[105.1802,50.4105,1339.4766],[105.2123,50.4304,1225.6414],[105.2869,50.4681,1472.5634],[105.3049,50.4748,1569.6174],[105.3194,50.4783,1545.4026],[105.3573,50.4805,1501.3265],[105.3877,50.4793,1157.188],[105.458,50.4587,878.2265],[105.5377,50.453,769.2115],[105.5499,50.4508,734.9189],[105.5972,50.4348,690.6716],[105.6118,50.4324,699.3226],[105.7117,50.4291,802.0448],[105.7567,50.4311,822.6687],[105.7901,50.4349,866.193],[105.8171,50.4349,904.0798],[105.8429,50.4305,863.9155],[105.9028,50.413,688.0421],[105.9189,50.4104,687.7809],[105.9375,50.4111,684.666],[105.9838,50.409,682.0777],[106.0,50.4056,747.7294],[106.0049,50.4079,704.4802],[106.0317,50.4133,641.4867],[106.0473,50.4117,615.252],[106.0555,50.4088,642.1396]]]]}}