{"type":"Feature","properties":{"GID_3":"RUS.83.11.1_1","GID_0":"RUS","country":"Russia","GID_1":"RUS.83_1","province":"Zabaykal'ye","NL_NAME_1":"Забайкальскийкрай","GID_2":"RUS.83.11_1","county":"Dul'durginskiyrayon","NL_NAME_2":"Дульдургинскийрайон","city":"NA","VARNAME_3":"NA","NL_NAME_3":"NA","TYPE_3":"NA","ENGTYPE_3":"NA","CC_3":"NA","HASC_3":"NA","name":"N_A.city"},
"geometry":{"type": "MultiPolygon","coordinates": [[[[113.6753,51.034,886.9498],[113.6526,51.0297,853.0802],[113.5881,51.058,862.9944],[113.5194,51.0744,939.3141],[113.4326,51.0805,1126.7794],[113.4069,51.1058,1072.7346],[113.3809,51.1215,1154.8201],[113.3189,51.1052,1022.0508],[113.2482,51.1245,906.0422],[113.2221,51.0847,1226.1377],[113.1938,51.0344,1202.6975],[113.1086,51.0055,1252.2913],[113.0045,50.9904,1135.283],[112.9786,50.9772,1376.3416],[112.9621,50.9407,1273.8605],[112.9052,50.9274,1076.5543],[112.7711,50.9809,1107.9041],[112.762,51.0463,1080.3357],[112.752,51.1405,1105.2603],[112.6657,51.1354,1052.1907],[112.5637,51.1645,1065.3191],[112.4789,51.1207,1114.1459],[112.4503,51.0607,1237.0408],[112.357,50.9976,1122.9692],[112.2866,50.9394,1293.7729],[112.2423,50.8916,1258.0801],[112.2458,50.8056,1365.0507],[112.2719,50.7554,1254.2212],[112.303,50.7374,1080.4789],[112.3604,50.7423,1143.1979],[112.4226,50.7592,1196.9449],[112.4845,50.7694,1285.6945],[112.5219,50.7621,1215.2092],[112.5466,50.7313,1136.4744],[112.5927,50.7298,1140.957],[112.6277,50.743,1228.7183],[112.645,50.713,1121.6659],[112.616,50.6537,1162.5134],[112.5822,50.62,1127.5022],[112.6114,50.576,1283.6914],[112.6678,50.5413,1190.6997],[112.7114,50.5361,1145.6774],[112.7472,50.5522,940.6453],[112.7987,50.5721,913.9687],[112.8538,50.5665,1092.2329],[112.911,50.5566,1120.4011],[112.9456,50.565,1084.4485],[112.9829,50.5943,1280.176],[113.0483,50.5882,1209.05],[113.0662,50.5484,1083.4857],[113.1363,50.5427,1079.0782],[113.181,50.5584,859.3485],[113.1654,50.5072,903.3486],[113.2252,50.4843,810.3509],[113.2328,50.4582,773.021],[113.2295,50.4286,844.3902],[113.2212,50.4083,747.7499],[113.3386,50.3975,716.5182],[113.3819,50.4356,966.6609],[113.4117,50.4503,864.4513],[113.4772,50.4537,800.3329],[113.4976,50.4975,802.2202],[113.54,50.5027,859.0966],[113.6063,50.4942,901.1544],[113.6791,50.4724,843.5006],[113.7381,50.4512,697.6048],[113.7561,50.4276,690.8503],[113.7675,50.4048,691.6879],[113.8364,50.4094,691.007],[113.875,50.4238,726.9333],[113.8765,50.4535,694.597],[113.9222,50.463,682.8802],[113.9719,50.4556,815.9001],[114.0438,50.4683,681.823],[114.0735,50.4953,671.0487],[114.1467,50.4982,666.9493],[114.1914,50.4796,666.4056],[114.2275,50.4699,724.361],[114.2756,50.4529,745.4734],[114.2806,50.4783,658.6528],[114.272,50.5133,658.3785],[114.2676,50.5419,665.1959],[114.278,50.5878,703.8927],[114.254,50.6374,793.2507],[114.2384,50.6906,761.5388],[114.1874,50.7302,884.8757],[114.1153,50.7465,849.2266],[114.0379,50.7663,973.5915],[113.9852,50.7897,1055.2787],[113.9268,50.8088,1038.3502],[113.8446,50.7964,880.6252],[113.8238,50.8126,839.5466],[113.7987,50.8572,884.3823],[113.7785,50.8974,972.239],[113.742,50.9213,1084.519],[113.6704,50.9401,990.9505],[113.6565,50.9735,980.9263],[113.6753,51.034,886.9498]]]]}}