{"type":"Feature","properties":{"GID_2":"RUS.60.22_1","GID_0":"RUS","country":"Russia","GID_1":"RUS.60_1","province":"Sakha","NL_NAME_1":"РеспубликаСаха","county":"Olekminskiyrayon","VARNAME_2":"NA","NL_NAME_2":"Олекминскийрайон","TYPE_2":"Raion","ENGTYPE_2":"District","CC_2":"R65002","HASC_2":"RU.SK.OL","name":"Olekminskiyrayon.county"},
"geometry":{"type": "MultiPolygon","coordinates": [[[[122.3243,56.6727,1437.7181],[122.3782,56.7197,1068.4698],[122.4379,56.7356,934.6295],[122.5025,56.7679,1035.1628],[122.5153,56.7848,1028.392],[122.5128,56.8065,1125.3516],[122.4949,56.8495,928.4801],[122.4894,56.8921,947.437],[122.5217,56.943,954.7266],[122.5729,57.0069,1032.6761],[122.5552,57.0324,985.3828],[122.5022,57.0481,1007.6351],[122.4715,57.0712,1036.3745],[122.5027,57.1001,1010.1829],[122.4889,57.1297,1015.9319],[122.4295,57.1301,1044.9919],[122.3953,57.1499,1039.8119],[122.3986,57.1831,1038.8865],[122.4331,57.2384,1062.842],[122.5252,57.289,1088.8726],[122.5559,57.2746,987.0215],[122.6223,57.2604,1088.7849],[122.7311,57.272,1033.5166],[122.7805,57.2976,995.686],[122.8185,57.3484,1048.4828],[122.8655,57.3754,954.0219],[122.9262,57.4211,1085.4146],[122.9319,57.4635,1056.3477],[122.8834,57.4784,1074.3723],[122.8326,57.4676,1068.2893],[122.7912,57.4405,1214.4304],[122.7176,57.4474,1178.5127],[122.7117,57.4891,1140.3739],[122.7426,57.5277,1128.4342],[122.7822,57.5696,1037.9077],[122.8308,57.6272,986.2698],[122.9116,57.7059,948.1022],[122.9537,57.7715,921.3965],[123.0108,57.8411,878.4703],[123.0736,57.8893,869.0809],[123.0783,57.9213,804.8597],[123.112,57.9681,763.7005],[123.2298,58.0032,755.3633],[123.2648,57.987,757.8718],[123.3331,58.0381,672.2815],[123.3555,58.0793,698.7364],[123.3303,58.1101,749.0962],[123.2867,58.1095,775.3171],[123.2159,58.112,826.6077],[123.1271,58.1236,756.6053],[123.0304,58.1703,535.6404],[122.9742,58.1729,791.0865],[122.8477,58.1863,740.9419],[122.768,58.2315,763.4072],[122.7939,58.2615,726.4258],[122.8091,58.2876,727.2964],[122.8013,58.3429,716.0613],[122.8627,58.3761,833.4584],[122.8789,58.4145,792.8829],[122.8792,58.4587,697.709],[122.8934,58.5167,879.741],[122.9473,58.5743,678.5048],[122.9507,58.6122,908.893],[122.9039,58.6187,699.7967],[122.8819,58.5851,851.562],[122.8519,58.555,992.4609],[122.813,58.5533,988.0231],[122.7842,58.5776,1080.1282],[122.791,58.6129,1042.9801],[122.8209,58.6844,919.1266],[122.8039,58.7297,719.3678],[122.8026,58.7606,983.5724],[122.8805,58.7842,651.579],[122.918,58.7813,784.9882],[122.9792,58.8184,949.0063],[123.0412,58.8889,600.5747],[122.9958,58.9143,661.5636],[122.9957,58.9556,663.933],[122.9687,58.9882,644.2595],[122.9343,59.0048,518.5294],[122.8746,58.9867,456.2394],[122.805,59.0076,525.9734],[122.7582,59.0513,514.2236],[122.7431,59.1095,572.9358],[122.7825,59.1504,492.6063],[122.8265,59.1762,499.9204],[122.8754,59.2307,489.0161],[122.9153,59.2611,532.5334],[122.9919,59.2744,522.3821],[123.0513,59.3347,570.5577],[123.101,59.3623,619.3423],[123.1588,59.3712,672.1387],[123.203,59.3931,659.65],[123.278,59.4142,650.662],[123.3406,59.407,638.9545],[123.408,59.4237,550.5458],[123.4393,59.4622,685.2052],[123.4497,59.512,574.9449],[123.4316,59.5573,562.4122],[123.4808,59.6346,583.0502],[123.5233,59.6511,545.9856],[123.6204,59.6453,627.4105],[123.6917,59.625,625.4286],[123.7638,59.6303,581.5283],[123.8348,59.6455,601.1223],[123.8986,59.6341,609.7565],[123.9377,59.6098,527.2175],[124.0034,59.5989,615.8356],[124.0706,59.5974,608.6208],[124.1056,59.6343,595.7059],[124.162,59.698,578.8055],[124.2668,59.7944,550.2979],[124.3283,59.8217,558.1537],[124.3882,59.8406,570.2166],[124.445,59.914,579.139],[124.5502,59.9852,507.3102],[124.6291,59.9823,501.6327],[124.7408,59.9888,507.2221],[124.8028,60.0188,509.1062],[124.8873,60.0513,442.0375],[125.1768,60.0533,526.4636],[125.3046,60.1093,517.1011],[125.3714,60.1034,545.6035],[125.4114,60.1112,594.1135],[125.4275,60.1544,610.7112],[125.4853,60.1946,535.5278],[125.5426,60.229,540.9933],[125.6198,60.2277,593.3939],[125.8059,60.2402,592.3596],[125.9791,60.2655,592.5992],[126.1729,60.3406,590.8476],[126.27,60.3824,514.3093],[126.3289,60.393,470.8839],[126.3871,60.3854,519.7369],[126.4644,60.3691,507.2942],[126.5091,60.3912,551.6826],[126.4949,60.4201,475.4391],[126.5033,60.4445,507.2587],[126.5594,60.4972,495.5648],[126.6291,60.5364,435.7131],[126.707,60.5518,497.0991],[126.7454,60.5374,501.761],[126.7745,60.5045,415.3231],[126.7847,60.4512,512.8604],[126.8241,60.3919,524.715],[126.8969,60.3636,556.7946],[126.9557,60.3614,580.4167],[127.0218,60.3818,539.3595],[127.0903,60.4377,500.6038],[127.1848,60.5318,509.9737],[127.2425,60.5559,470.4973],[127.6486,60.7579,263.0233],[127.6612,60.7464,263.8597],[127.6582,60.7062,344.4432],[127.6625,60.6265,469.0835],[127.7079,60.6248,446.0705],[127.814,60.6386,463.5421],[127.8541,60.6692,480.7372],[127.926,60.7389,369.2835],[128.1647,60.7743,346.7343],[128.1604,60.7967,306.1544],[128.1142,60.8514,359.5572],[128.0954,60.9129,333.8307],[128.0929,60.9817,311.6581],[128.0002,60.9963,289.9102],[127.9199,61.0228,148.7198],[127.8027,61.0432,322.7146],[127.5834,61.0445,373.2287],[127.3978,61.0289,284.8226],[127.1697,61.0128,256.4015],[127.0977,61.0127,246.2983],[127.0738,61.0359,298.0844],[126.9886,61.0355,294.8203],[126.7549,60.9986,400.7624],[126.5036,60.9706,378.0333],[126.4122,60.9498,434.8033],[126.3481,60.9121,382.2454],[126.2848,60.9109,351.1532],[126.2465,60.9163,398.1043],[126.2297,60.9456,353.6007],[126.185,60.958,447.2925],[126.1231,60.9429,406.5854],[126.0469,60.8959,442.4046],[125.9708,60.8575,441.5149],[125.9142,60.8318,468.9316],[125.8226,60.8242,387.8379],[125.7583,60.8152,352.4495],[125.6921,60.7922,440.6565],[125.6333,60.7465,461.9671],[125.6345,60.6877,471.0056],[125.6431,60.6409,517.3087],[125.6399,60.5915,519.5209],[125.5652,60.5672,537.6876],[125.4439,60.5419,544.5095],[125.3558,60.5623,468.1109],[125.2405,60.6615,370.8058],[125.1603,60.6801,206.8392],[125.0699,60.694,381.6931],[124.9467,60.7491,262.321],[125.0115,60.8283,330.0719],[125.0328,60.8705,338.1555],[125.0037,60.9036,333.0675],[124.9526,60.9292,381.5903],[124.7768,60.9486,405.9338],[124.7153,60.9817,455.8014],[124.7224,61.0379,436.8013],[124.5919,61.1015,417.2981],[124.5317,61.1524,404.8299],[124.4788,61.2211,372.9827],[124.3978,61.2383,392.0209],[124.2858,61.2762,373.2137],[124.2282,61.3188,379.1795],[124.2083,61.3538,367.7783],[124.1652,61.3565,400.0916],[124.0932,61.3567,389.9545],[124.0257,61.3732,373.1815],[124.0353,61.3982,388.597],[124.0104,61.4112,392.7943],[123.965,61.4038,418.7936],[123.904,61.4171,379.4763],[123.8393,61.4512,387.2091],[123.8385,61.4799,348.7935],[123.859,61.5345,325.6644],[123.8497,61.5818,376.7486],[123.8364,61.626,368.5583],[123.7453,61.6444,411.2602],[123.6361,61.6753,373.4044],[123.6036,61.698,401.8308],[123.6175,61.7346,399.1596],[123.632,61.7655,408.6494],[123.5568,61.7858,401.5435],[123.4703,61.787,401.2123],[123.4173,61.7655,398.4378],[123.3709,61.7504,400.5925],[123.3024,61.7505,397.2062],[123.2471,61.7321,351.8473],[123.1939,61.7077,348.381],[123.0728,61.7003,360.377],[122.9004,61.721,383.312],[122.8236,61.7194,398.5562],[122.752,61.7036,383.4389],[122.707,61.6664,395.1446],[122.6445,61.6339,353.0179],[122.5269,61.6245,306.0478],[122.36,61.6409,321.4781],[122.1716,61.6728,385.8181],[122.0158,61.7097,355.4206],[121.9071,61.707,333.9859],[121.787,61.6992,323.6106],[121.6848,61.6962,283.1729],[121.6075,61.7081,303.9998],[121.6143,61.7448,267.7696],[121.5351,61.773,312.1775],[121.2924,61.776,315.4621],[121.1982,61.8156,330.314],[121.0879,61.8425,328.7453],[120.9632,61.8337,324.6785],[120.849,61.8525,290.5688],[120.6337,61.854,251.104],[120.4022,61.8528,242.5152],[120.2623,61.8447,206.407],[120.2154,61.8505,223.1643],[120.0997,61.8697,285.611],[119.9265,61.8922,290.6794],[119.8775,61.9075,248.4554],[119.8926,61.9475,290.1559],[119.8313,61.9729,306.8625],[119.7702,61.986,326.8149],[119.7285,62.0105,299.282],[119.6756,62.0365,289.0466],[119.5922,62.0274,275.8937],[119.5244,62.0235,287.0959],[119.4671,61.9771,296.9848],[119.4503,61.9336,332.1339],[119.4964,61.9133,316.1367],[119.5801,61.8916,307.212],[119.5909,61.8499,276.9414],[119.5479,61.7942,298.3844],[119.4857,61.7588,265.4968],[119.4203,61.7257,290.4189],[119.3883,61.6637,283.196],[119.3538,61.6245,296.555],[119.2698,61.5864,308.1366],[119.182,61.5535,296.5374],[119.1001,61.5506,316.8621],[119.019,61.5335,321.5505],[118.9494,61.4943,297.6309],[118.8675,61.482,304.0643],[118.7903,61.4801,300.6879],[118.7182,61.4561,297.4361],[118.6442,61.3978,284.2879],[118.5072,61.358,321.9012],[118.4501,61.3357,314.8269],[118.4018,61.3,331.9515],[118.4156,61.2562,362.21],[118.5209,61.2387,349.5757],[118.5644,61.2218,337.2999],[118.5234,61.1945,356.9324],[118.4564,61.1819,333.1853],[118.4091,61.1788,351.1404],[118.3556,61.1662,316.6191],[118.297,61.1011,357.2802],[118.213,61.058,343.4182],[118.126,61.0162,368.57],[118.0151,60.9839,372.1628],[117.9243,60.962,345.6389],[117.8661,60.9247,327.0444],[117.7958,60.8862,365.1779],[117.673,60.8729,364.9789],[117.6033,60.8742,330.7776],[117.5953,60.8315,348.1848],[117.4748,60.7536,343.1825],[117.4078,60.7024,347.8659],[117.3327,60.6643,311.4707],[117.3092,60.6449,318.2356],[117.2925,60.5493,295.0364],[117.2867,60.4941,307.6249],[117.2116,60.4476,325.1846],[117.1047,60.4172,375.5665],[117.0105,60.3813,310.6961],[116.9554,60.3341,152.4212],[116.9467,60.2691,374.53],[116.9303,60.169,431.0938],[116.9551,60.1553,406.1578],[117.0044,60.1149,346.5817],[117.0103,60.0389,247.6916],[117.0599,60.0124,343.7086],[117.1605,60.0306,360.3344],[117.2755,60.0385,162.8333],[117.2708,60.0122,253.1066],[117.2204,59.9664,356.4055],[117.1968,59.9256,359.8031],[117.1524,59.9024,324.1612],[117.1054,59.9073,318.6917],[117.0392,59.8634,314.3508],[117.1297,59.8196,317.4659],[117.1196,59.7567,358.3529],[117.1427,59.6915,479.1501],[117.1433,59.6319,535.1018],[117.1114,59.58,530.5557],[117.1483,59.5317,416.1009],[117.2703,59.4846,666.4178],[117.3663,59.4779,527.3367],[117.4635,59.4962,656.618],[117.5631,59.475,672.0312],[117.6309,59.5175,650.9244],[117.7097,59.5342,578.0369],[117.7462,59.4838,527.8645],[117.7617,59.4388,475.8187],[117.8151,59.415,602.569],[117.9226,59.4409,561.1158],[117.9423,59.5055,489.178],[117.9544,59.5347,507.7778],[118.0209,59.553,449.4624],[118.0306,59.5984,523.2248],[118.0701,59.623,586.4119],[118.0909,59.5884,617.9844],[118.1748,59.5903,440.8658],[118.2318,59.6069,458.6714],[118.3269,59.5502,504.7569],[118.3301,59.5086,462.1442],[118.3662,59.4794,488.3025],[118.462,59.4747,537.7416],[118.5401,59.4434,470.8734],[118.6433,59.4254,466.2454],[118.7392,59.413,434.3506],[118.7614,59.365,484.0771],[118.7877,59.3285,491.7304],[118.8268,59.2949,501.4088],[118.792,59.2567,479.4966],[118.7621,59.2365,507.2766],[118.6895,59.198,540.7419],[118.6952,59.1203,481.6512],[118.743,59.0058,451.5897],[118.81,58.9832,372.3141],[118.8004,58.9461,231.9301],[118.7475,58.9142,296.1719],[118.7615,58.8559,431.0647],[118.8167,58.8021,476.639],[118.8124,58.752,555.522],[118.8181,58.7014,526.5973],[118.7715,58.6406,703.0562],[118.7645,58.5946,614.9143],[118.8587,58.5595,531.1024],[118.8993,58.5592,617.7373],[118.9715,58.528,516.9257],[118.9711,58.5102,514.088],[119.0755,58.4875,620.5685],[119.0887,58.4357,663.6156],[119.0339,58.393,828.1204],[119.0459,58.3583,973.3787],[119.1071,58.3069,1187.8434],[119.1223,58.2755,1272.8508],[119.0888,58.2241,1171.2656],[119.1371,58.1275,1044.1989],[119.1069,58.0962,997.4681],[119.1329,58.0481,1208.0822],[119.0783,57.9838,1055.9921],[119.0813,57.9043,991.7827],[119.0438,57.7923,1149.7571],[119.0044,57.768,1021.5302],[119.0072,57.7272,972.8923],[119.1131,57.6972,1117.7034],[119.1458,57.6489,1337.1731],[119.1274,57.5679,1227.4951],[119.1834,57.5132,1258.6671],[119.2391,57.5377,1199.9812],[119.2452,57.6008,1205.635],[119.3123,57.616,1087.5173],[119.3943,57.6063,1161.5841],[119.4462,57.5795,1179.283],[119.4297,57.5367,1438.3196],[119.3971,57.4993,942.4703],[119.3915,57.4182,1103.7621],[119.4526,57.37,889.34],[119.5122,57.3297,849.1763],[119.5245,57.2674,1441.6788],[119.5911,57.2107,1334.1726],[119.6626,57.1636,1372.8618],[119.6023,57.1202,1197.3925],[119.5954,57.0562,1127.9061],[119.6371,56.9807,1328.2716],[119.7135,56.9393,1571.8405],[119.7815,56.9058,1274.0415],[120.0963,56.9213,651.191],[120.178,56.9537,618.2732],[120.2665,56.9953,767.5548],[120.3841,57.0273,525.5421],[120.4846,57.0325,570.1185],[120.5308,57.0324,821.1573],[120.6743,57.0561,558.6498],[120.7346,57.0402,499.6923],[120.8522,57.0527,410.7625],[120.9397,57.0521,392.705],[121.022,57.0342,368.264],[121.1582,57.0174,537.6554],[121.3078,57.0028,656.5859],[121.4044,57.0032,618.2283],[121.487,56.9943,1137.1527],[121.5421,56.9644,877.4438],[121.5594,56.9163,905.1553],[121.5781,56.8765,1007.7982],[121.6398,56.8578,1036.8514],[121.654,56.8245,1036.6965],[121.645,56.7713,992.8782],[121.7341,56.7659,1046.6442],[121.8789,56.7462,1132.0989],[121.9896,56.7703,837.7949],[122.0958,56.772,928.3145],[122.1776,56.7637,1029.3767],[122.2518,56.7104,1154.4573],[122.3243,56.6727,1437.7181]]]]}}