{"type":"Feature","properties":{"GID_3":"RUS.60.30.1_1","GID_0":"RUS","country":"Russia","GID_1":"RUS.60_1","province":"Sakha","NL_NAME_1":"РеспубликаСаха","GID_2":"RUS.60.30_1","county":"Ust'-Mayskiyrayon","NL_NAME_2":"Усть-Майскийрайон","city":"NA","VARNAME_3":"NA","NL_NAME_3":"NA","TYPE_3":"NA","ENGTYPE_3":"NA","CC_3":"NA","HASC_3":"NA","name":"N_A.city"},
"geometry":{"type": "MultiPolygon","coordinates": [[[[137.2188,59.4095,361.7556],[137.2481,59.4278,400.1126],[137.4,59.4934,397.5724],[137.4962,59.5396,636.7535],[137.5379,59.5731,373.2719],[137.5281,59.5965,565.2421],[137.5179,59.638,379.5521],[137.5977,59.6862,387.575],[137.6804,59.7209,353.0714],[137.8796,59.7293,352.6407],[138.0451,59.7184,731.3843],[138.1125,59.7473,716.3319],[138.153,59.7011,664.5125],[138.1322,59.6446,837.0509],[138.246,59.6468,697.0771],[138.2838,59.6797,537.809],[138.3252,59.6954,786.3312],[138.3216,59.718,436.3518],[138.2495,59.7379,386.6364],[138.2448,59.7812,514.5434],[138.2237,59.8223,979.1929],[138.3283,59.9041,749.6247],[138.3159,59.9199,944.2368],[138.2488,59.9542,970.8674],[138.2724,59.9995,864.1583],[138.271,60.0497,745.701],[138.227,60.1091,938.5012],[138.2651,60.1403,773.6672],[138.2588,60.1813,793.2361],[138.2664,60.2319,807.7016],[138.3067,60.2593,1038.967],[138.3743,60.3138,1116.812],[138.4152,60.3692,859.1499],[138.3909,60.4084,945.7131],[138.352,60.4446,1012.4404],[138.418,60.4889,1149.2491],[138.4393,60.5169,1192.7053],[138.4321,60.5539,1297.8473],[138.4972,60.5985,1163.8203],[138.5481,60.6748,900.0031],[138.4964,60.7074,1754.5745],[138.358,60.7724,1053.2997],[138.2423,60.8518,1024.2954],[138.2827,60.9203,1139.9794],[138.3893,61.0148,1137.0005],[138.3533,61.0647,1407.3119],[138.3844,61.0864,1708.5842],[138.4761,61.0754,1485.1149],[138.533,61.1065,1329.5061],[138.6113,61.1245,1546.3741],[138.7153,61.1766,1624.0078],[138.7588,61.214,1998.5649],[138.7135,61.2723,996.8607],[138.7732,61.3231,1271.8881],[138.8133,61.3086,1348.3463],[138.8235,61.286,924.4287],[138.8907,61.3106,1222.6514],[138.9906,61.3199,1268.0583],[139.0817,61.3112,1361.9597],[139.1344,61.3414,1458.994],[139.1321,61.3985,1225.453],[139.1966,61.4306,1318.6453],[139.3268,61.4098,1405.2526],[139.3936,61.4281,1247.2888],[139.4603,61.4562,1363.1118],[139.5295,61.4662,1551.9036],[139.6531,61.4766,1089.2858],[139.6824,61.5077,922.7103],[139.7947,61.5958,994.5338],[139.8834,61.616,1391.5033],[139.8981,61.6724,1260.5741],[139.9968,61.7637,1365.798],[140.0545,61.8569,1425.1857],[140.0047,61.9323,1360.1329],[140.0966,61.9539,1941.272],[140.2555,61.9415,1712.8981],[140.2852,61.9486,1515.8228],[140.2984,61.9838,1468.0107],[140.3318,62.0039,1897.4172],[140.3941,62.0337,1895.5018],[140.3347,62.0762,1443.412],[140.3506,62.1541,1514.4159],[140.3676,62.2263,1431.618],[140.3967,62.3165,1484.3979],[140.4308,62.3692,1681.4121],[140.5222,62.4021,2084.9792],[140.4928,62.5083,1942.5212],[140.4412,62.5568,1883.9122],[140.3566,62.5761,2027.8679],[140.2707,62.5718,1697.834],[140.2558,62.6242,1462.147],[140.2136,62.6695,1914.0045],[140.1711,62.6835,1397.4009],[140.0662,62.6479,1399.1788],[140.0346,62.6314,1503.9335],[139.956,62.6399,1430.1184],[139.962,62.5536,1549.473],[139.8223,62.4755,1611.2267],[139.5958,62.4473,954.4023],[139.4378,62.4352,744.7231],[139.2522,62.4451,659.5155],[139.1317,62.4614,679.252],[139.0064,62.5111,685.3387],[138.8853,62.523,1163.524],[138.712,62.506,586.1422],[138.5411,62.439,546.2372],[138.4122,62.3578,607.0568],[138.1872,62.2447,939.1935],[138.0076,62.2229,605.4509],[137.9167,62.2403,692.772],[137.8646,62.2764,432.1252],[137.7989,62.2589,742.1014],[137.7572,62.1213,597.5247],[137.8318,62.0576,954.4906],[137.7793,61.8945,1298.6631],[137.7168,61.8595,1335.6879],[137.677,61.8243,1308.6693],[137.6952,61.7767,1146.5948],[137.6682,61.7305,1185.9899],[137.4845,61.6775,1132.9454],[137.2839,61.7063,912.0129],[137.2155,61.6972,970.3268],[137.1227,61.6908,634.384],[137.0635,61.698,579.6069],[137.012,61.6915,766.4653],[136.9549,61.6382,577.0601],[136.8549,61.6315,1056.3862],[136.5851,61.6759,399.6602],[136.416,61.6752,409.9225],[136.2968,61.7264,321.8564],[136.2328,61.7834,245.4056],[136.1603,61.8071,284.1039],[135.9365,61.8079,247.9828],[135.7276,61.745,227.6302],[135.6512,61.6864,228.9149],[135.5889,61.6448,205.6161],[135.5536,61.6158,132.4944],[135.567,61.6013,203.6612],[135.5696,61.5882,385.4037],[135.559,61.5728,225.8352],[135.422,61.519,132.7463],[135.3371,61.4969,140.3973],[135.27,61.4432,221.1093],[135.0813,61.3803,257.7974],[134.9008,61.3833,262.5486],[134.7927,61.4024,224.2488],[134.6252,61.3791,237.7335],[134.5274,61.388,158.4884],[134.3971,61.3519,198.2164],[134.1472,61.3415,198.3571],[134.0181,61.342,237.3145],[133.8956,61.3252,185.7816],[133.7508,61.3101,303.2569],[133.6412,61.2829,228.2527],[133.5523,61.2525,330.3282],[133.4855,61.2399,327.8301],[133.392,61.2596,316.9785],[133.2772,61.2387,290.606],[133.1659,61.2231,318.1213],[133.1009,61.2171,267.0478],[133.1214,61.148,323.695],[133.0901,61.0585,348.5478],[133.0751,60.9589,330.4481],[133.0993,60.8849,272.7009],[133.146,60.8123,199.2837],[133.1651,60.7517,267.8771],[133.0644,60.6853,391.5038],[132.9009,60.6429,400.4869],[132.6866,60.562,316.1909],[132.6145,60.5309,390.1765],[132.592,60.5537,380.9459],[132.5535,60.5765,401.3099],[132.5081,60.5819,333.4189],[132.4361,60.5677,393.1323],[132.3754,60.5367,300.1729],[132.3226,60.4434,338.5876],[132.2625,60.3319,313.0105],[132.1583,60.1081,387.3227],[132.0886,59.9902,236.5102],[132.0108,59.9044,244.4689],[131.9476,59.9544,320.0575],[131.8701,59.9498,364.2576],[131.7916,59.9234,367.9454],[131.7778,59.8146,425.8318],[131.7716,59.6317,286.7372],[131.8162,59.5,253.5623],[131.8201,59.4328,196.8723],[131.8508,59.3748,347.6166],[131.9563,59.3178,278.9655],[131.9998,59.2363,222.7554],[132.0142,59.1601,172.9711],[132.0613,59.145,171.4521],[132.1313,59.136,172.3102],[132.1284,59.1096,164.4861],[132.2945,59.1118,281.8694],[132.2903,59.0857,265.5397],[132.2218,59.0662,253.1647],[132.2177,59.0361,356.0317],[132.2639,58.9897,382.5889],[132.2736,58.9458,393.4192],[132.2448,58.8968,433.3266],[132.2192,58.8652,541.5353],[132.2922,58.84,712.4918],[132.3906,58.8879,433.131],[132.4807,58.9218,474.3483],[132.5226,58.9309,532.9568],[132.5891,58.9133,520.9949],[132.6249,58.8861,554.296],[132.6796,58.8959,555.2594],[132.7375,58.8956,475.0553],[132.8498,58.9102,629.4603],[132.8947,58.966,497.0501],[132.8,59.0166,510.2217],[132.8404,59.0595,421.9777],[132.861,59.0995,414.8413],[132.937,59.0884,454.7628],[133.0226,59.1081,531.0627],[133.0554,59.1824,531.4504],[133.1446,59.2051,636.2239],[133.2769,59.1928,598.4072],[133.4026,59.2137,584.0494],[133.5458,59.25,624.3981],[133.6664,59.215,510.795],[133.749,59.2208,642.3597],[133.8651,59.2449,514.993],[133.9493,59.237,534.2096],[134.0106,59.2536,548.159],[134.1474,59.2268,758.1878],[134.2539,59.1887,507.1704],[134.3449,59.204,642.472],[134.377,59.1806,648.4672],[134.4505,59.1557,736.2074],[134.5586,59.1547,480.6725],[134.6769,59.2052,591.9507],[134.7343,59.2032,511.2134],[134.7807,59.1795,417.1196],[134.7953,59.1444,624.3294],[134.8566,59.1276,573.2302],[134.9168,59.1391,592.423],[134.9787,59.1294,504.4616],[135.0664,59.1027,470.2538],[135.1615,59.0914,611.2885],[135.2516,59.1167,364.987],[135.251,59.1427,355.381],[135.3503,59.1974,343.999],[135.3494,59.2621,217.2384],[135.3913,59.2964,314.001],[135.5016,59.347,350.3159],[135.5306,59.3936,236.4696],[135.5855,59.4252,244.3542],[135.6639,59.4812,224.6214],[135.7751,59.4972,231.7942],[135.9147,59.4848,239.0043],[136.0089,59.443,406.6484],[136.1154,59.4266,255.9153],[136.1275,59.3988,251.3971],[136.2059,59.3834,272.8122],[136.3194,59.3813,260.5058],[136.3766,59.3586,347.299],[136.4823,59.3514,340.9073],[136.5974,59.3507,318.6128],[136.6851,59.3194,567.9296],[136.7535,59.3013,348.7777],[136.8228,59.304,516.0094],[136.8933,59.3485,445.0023],[137.0045,59.3909,354.8132],[137.1171,59.3938,642.8545],[137.2188,59.4095,361.7556]]]]}}