{"type":"Feature","properties":{"GID_3":"RUS.35.38.1_1","GID_0":"RUS","country":"Russia","GID_1":"RUS.35_1","province":"Krasnoyarsk","NL_NAME_1":"Красноярскийкрай","GID_2":"RUS.35.38_1","county":"Motyginskiyrayon","NL_NAME_2":"Мотыгинскийрайон","city":"NA","VARNAME_3":"NA","NL_NAME_3":"NA","TYPE_3":"NA","ENGTYPE_3":"NA","CC_3":"NA","HASC_3":"NA","name":"N_A.city"},
"geometry":{"type": "MultiPolygon","coordinates": [[[[95.1873,59.6494,396.9808],[95.1317,59.5916,439.3169],[95.0403,59.5678,455.5349],[94.9561,59.5589,547.0081],[94.9164,59.5316,518.923],[94.896,59.5098,436.1596],[94.8375,59.4982,390.9691],[94.7926,59.4735,557.1844],[94.7661,59.424,469.8052],[94.7399,59.3681,434.9572],[94.6975,59.3197,503.8205],[94.5761,59.2942,338.0152],[94.4231,59.3001,352.7943],[94.2708,59.3021,374.1347],[94.237,59.3279,261.892],[94.2045,59.3583,263.1371],[94.1743,59.3551,313.9811],[94.154,59.3285,361.2006],[94.1723,59.2938,365.892],[94.2004,59.2476,442.3171],[94.1963,59.1816,437.5342],[94.1774,59.1158,400.4635],[94.1001,59.0435,493.196],[94.0225,58.9748,548.5128],[93.9231,58.9039,584.097],[93.7683,58.8604,518.9691],[93.6447,58.8329,479.4365],[93.5627,58.8047,402.82],[93.4959,58.7654,428.3317],[93.4345,58.742,412.4836],[93.3551,58.7276,337.5512],[93.289,58.7385,375.6],[93.2384,58.7247,358.9095],[93.2208,58.6871,353.0707],[93.2216,58.6423,353.8412],[93.139,58.6046,425.9703],[93.0572,58.5541,278.7942],[92.9845,58.5141,303.5403],[92.9149,58.4679,287.1853],[92.917,58.4249,257.0671],[92.9703,58.407,287.8889],[93.0294,58.4104,203.7583],[93.0823,58.3704,208.7734],[93.0747,58.3306,250.3215],[93.046,58.2849,244.2475],[93.0244,58.2461,230.3133],[93.0482,58.1852,187.7839],[93.052,58.124,221.8092],[93.050299999999993,58.0661,97.3256],[93.0309,58.0036,76.5],[93.0803,57.9909,89.3666],[93.1998,57.9777,95.7948],[93.3652,57.9853,181.1858],[93.565,57.967,224.4335],[93.7225,57.9426,218.242],[93.8475,57.9071,229.1964],[94.0157,57.9157,144.8276],[94.113,57.9069,137.3484],[94.1663,57.8483,145.4871],[94.232,57.7994,118.9137],[94.3073,57.7729,155.783],[94.4147,57.7616,208.6045],[94.5371,57.771,203.247],[94.6099,57.7707,103.3359],[94.6942,57.7498,237.2919],[94.8132,57.7405,106.7273],[94.9168,57.7478,99.8843],[95.0072,57.7663,224.2249],[95.0686,57.7506,150.9682],[95.1419,57.7417,181.4016],[95.1783,57.7441,148.0698],[95.181,57.7973,350.8041],[95.2041,57.8165,288.0136],[95.2483,57.8466,283.4128],[95.2948,57.885,239.4526],[95.3684,57.9154,314.1586],[95.3797,57.9734,323.4422],[95.4346,58.0277,333.8231],[95.4978,58.063,367.2606],[95.5455,58.1233,425.2179],[95.5769,58.1986,410.3662],[95.5578,58.239,299.8001],[95.5228,58.2797,295.1017],[95.4762,58.3236,473.5714],[95.4398,58.3835,341.0411],[95.3883,58.4409,107.1289],[95.4071,58.4709,124.2736],[95.4332,58.4984,290.2615],[95.434,58.5442,220.0901],[95.3995,58.5776,301.9587],[95.4079,58.6437,411.8284],[95.4332,58.6886,287.3425],[95.4658,58.7638,179.0407],[95.4665,58.826,378.6836],[95.4277,58.8729,191.8933],[95.4027,58.9377,373.8973],[95.4392,58.9958,240.9581],[95.4203,59.0152,372.8571],[95.4165,59.0689,394.4915],[95.3513,59.0846,323.6968],[95.2637,59.0976,389.6321],[95.2216,59.1398,284.5674],[95.1928,59.2016,298.8027],[95.2325,59.227,410.8513],[95.2851,59.2473,390.9375],[95.3534,59.2783,367.6666],[95.4289,59.3195,395.7186],[95.5241,59.365,341.0848],[95.6248,59.4354,363.3062],[95.6564,59.5003,382.1266],[95.6809,59.566,314.9703],[95.5763,59.5694,447.9021],[95.4974,59.5838,590.7191],[95.4766,59.6204,606.0675],[95.4133,59.6518,512.0646],[95.3208,59.6482,385.4443],[95.1873,59.6494,396.9808]]]]}}