{"type":"Feature","properties":{"GID_3":"RUS.35.56.1_1","GID_0":"RUS","country":"Russia","GID_1":"RUS.35_1","province":"Krasnoyarsk","NL_NAME_1":"Красноярскийкрай","GID_2":"RUS.35.56_1","county":"Uyarskiyrayon","NL_NAME_2":"Уярскийрайон","city":"NA","VARNAME_3":"NA","NL_NAME_3":"NA","TYPE_3":"NA","ENGTYPE_3":"NA","CC_3":"NA","HASC_3":"NA","name":"N_A.city"},
"geometry":{"type": "MultiPolygon","coordinates": [[[[93.6968,56.0701,549.3761],[93.7485,56.0375,499.9408],[93.7513,56.0029,464.3838],[93.7275,55.9541,441.3611],[93.7058,55.9154,377.7586],[93.7459,55.8629,320.0844],[93.7722,55.8078,361.5082],[93.8161,55.7472,343.3704],[93.8448,55.7032,419.083],[93.8761,55.6812,384.5464],[93.9264,55.6721,482.0223],[93.9605,55.6557,477.44],[93.9712,55.6299,443.2568],[94.0003,55.6014,423.0992],[94.087,55.5878,472.7845],[94.1775,55.5981,449.822],[94.2383,55.6095,433.8478],[94.3566,55.6101,436.1806],[94.4883,55.6358,371.0344],[94.5528,55.6363,385.8334],[94.5742,55.6856,373.3716],[94.6253,55.772,361.0565],[94.5949,55.8207,320.189],[94.4998,55.8535,318.2152],[94.4708,55.8831,354.2911],[94.4766,55.9372,283.8015],[94.4304,55.9569,398.7676],[94.3392,55.9578,447.2261],[94.3038,55.9816,431.0944],[94.3291,56.0175,434.6608],[94.3067,56.0447,351.1817],[94.2259,56.0561,367.7407],[94.2031,56.0768,345.3086],[94.132,56.1151,274.4018],[94.0583,56.1523,420.0467],[94.004,56.2088,325.1125],[93.8696,56.1548,364.7928],[93.8183,56.1135,447.0412],[93.7671,56.0869,541.475],[93.6968,56.0701,549.3761]]]]}}