{"type":"Feature","properties":{"GID_2":"RUS.80.7_1","GID_0":"RUS","country":"Russia","GID_1":"RUS.80_1","province":"Yamal-Nenets","NL_NAME_1":"Ямало-НенецкийАОк","county":"Priural'rayon","VARNAME_2":"Priural'skiy","NL_NAME_2":"Приуральрайон","TYPE_2":"Raion","ENGTYPE_2":"District","CC_2":"R58020","HASC_2":"RU.YN.PR","name":"Priural'rayon.county"},
"geometry":{"type": "MultiPolygon","coordinates": [[[[68.5583,66.6729,3.0444],[68.5646,66.6729,2.9448],[68.5724,66.6755,2.7376],[68.575,66.6792,1.8018],[68.5849,66.6797,3.4586],[68.5859,66.6828,3.1214],[68.6078,66.6901,2.5557],[68.6088,66.6932,4.4248],[68.6203,66.6964,2.6275],[68.6214,66.6995,3.0672],[68.6266,66.7005,3.1857],[68.6266,66.7057,3.07],[68.6125,66.7042,3.0603],[68.6005,66.6995,2.7764],[68.6036,66.6964,4.5314],[68.5943,66.6953,2.9251],[68.5932,66.6922,3.8747],[68.588,66.6911,3.3988],[68.587,66.688,2.9141],[68.5771,66.6875,3.5663],[68.5693,66.6849,3.2349],[68.5682,66.6818,2.5983],[68.563,66.6807,2.0463],[68.5604,66.6771,3.3083],[68.5437,66.675,2.6215],[68.5422,66.6766,2.4265],[68.55,66.6792,2.3403],[68.5578,66.6797,1.9766],[68.5578,66.6828,3.3148],[68.5396,66.6833,2.5096],[68.537,66.6797,2.9784],[68.5271,66.6792,2.8108],[68.5188,66.675,3.6587],[68.5062,66.675,2.6658],[68.5047,66.6745,2.9659],[68.5016,66.6672,3.2514],[68.4922,66.6641,2.767],[68.4901,66.6609,3.6212],[68.4938,66.6604,3.6733],[68.5042,66.6646,2.7681],[68.5104,66.6646,1.9784],[68.5208,66.6687,2.2473],[68.5271,66.6687,3.4415],[68.5313,66.6729,2.776],[68.5453,66.6724,3.1711],[68.5453,66.6693,2.9964],[68.5401,66.6682,2.2664],[68.5391,66.6651,5.1973],[68.5313,66.6625,6.0711],[68.5188,66.6625,4.2666],[68.5083,66.6583,3.8682],[68.4771,66.6583,2.7749],[68.4729,66.6604,3.637],[68.4693,66.6599,3.4699],[68.4724,66.6578,3.0521],[68.4729,66.6542,2.8334],[68.4724,66.6526,2.5866],[68.4672,66.6516,2.7176],[68.4672,66.6484,3.1987],[68.4766,66.6474,2.4508],[68.475,66.6438,2.1509],[68.4755,66.6401,2.2447],[68.4828,66.637,2.9557],[68.4838,66.6339,3.2532],[68.487,66.6328,5.5539],[68.487,66.6276,3.8107],[68.4792,66.6271,2.9174],[68.475,66.625,3.5609],[68.4667,66.625,2.4105],[68.4547,66.6203,2.9925],[68.4521,66.6167,2.8729],[68.4458,66.6188,2.6037],[68.4292,66.6188,2.9008],[68.4276,66.6182,2.8113],[68.4266,66.613,3.1614],[68.4125,66.6125,4.1431],[68.4036,66.6068,3.4794],[68.3984,66.6057,2.9153],[68.4,66.6042,1.8035],[68.4078,66.6036,3.1276],[68.4,66.6,2.4025],[68.3833,66.6,5.906],[68.3792,66.6021,5.5012],[68.3729,66.6021,3.0499],[68.3651,66.5995,3.1091],[68.3625,66.5958,3.1391],[68.3562,66.5979,2.7452],[68.3396,66.5979,4.0469],[68.338,66.5974,3.4387],[68.338,66.5943,4.8074],[68.3411,66.5932,2.7703],[68.3438,66.5896,4.3679],[68.3542,66.5896,2.9668],[68.3583,66.5875,3.083],[68.3662,66.587,3.3615],[68.3729,66.5833,6.6455],[68.3812,66.5833,2.8063],[68.3901,66.5891,5.0667],[68.4021,66.5938,4.231],[68.4083,66.5938,2.5994],[68.4354,66.6042,3.0676],[68.4437,66.6042,2.6324],[68.475,66.6167,3.486],[68.4849,66.6172,2.7614],[68.4953,66.6234,2.9952],[68.4922,66.6255,2.8216],[68.4922,66.6286,3.5139],[68.4974,66.6297,2.9564],[68.4984,66.6328,3.2278],[68.5099,66.6359,2.8612],[68.5099,66.6391,2.9947],[68.5068,66.6401,4.5075],[68.5068,66.6432,3.976],[68.5182,66.6443,2.5918],[68.5193,66.6474,2.6351],[68.5245,66.6484,2.4284],[68.5255,66.6536,3.5565],[68.5411,66.6547,2.9517],[68.5422,66.6599,3.4028],[68.5495,66.6651,2.7647],[68.5505,66.6703,4.0062],[68.5583,66.6729,3.0444]]],
[[[69.2641,66.6661,0.0],[69.2604,66.6667,0.0],[69.2589,66.6651,0.0],[69.2625,66.6646,0.0],[69.2641,66.6661,0.0]]],
[[[68.487,66.6682,3.089],[68.4833,66.6687,3.6376],[68.4818,66.6672,3.335],[68.4854,66.6667,3.0925],[68.487,66.6682,3.089]]],
[[[68.6391,66.7078,2.8277],[68.6354,66.7083,2.974],[68.6339,66.7068,2.9109],[68.6375,66.7063,2.912],[68.6391,66.7078,2.8277]]],
[[[69.3521,66.6125,2.1187],[69.3417,66.6125,3.4676],[69.3375,66.6146,0.0],[69.3313,66.6146,0.0],[69.3292,66.6125,0.0],[69.3297,66.6109,0.0],[69.3411,66.6057,2.4898],[69.3437,66.6021,2.0225],[69.3516,66.6026,1.9904],[69.3484,66.6047,2.2005],[69.3484,66.6078,2.0643],[69.3641,66.6088,1.9954],[69.3583,66.6125,2.0694],[69.3521,66.6125,2.1187]]],
[[[69.3828,66.6182,1.8794],[69.3792,66.6188,1.7029],[69.3776,66.6172,1.6922],[69.3812,66.6167,1.9127],[69.3828,66.6182,1.8794]]],
[[[69.411,66.629,1.7987],[69.4083,66.6292,1.3274],[69.4068,66.6276,2.0727],[69.412,66.6276,0.0],[69.411,66.629,1.7987]]],
[[[69.3672,66.7089,2.1193],[69.3646,66.7104,2.1239],[69.3568,66.7109,1.9393],[69.3542,66.7146,0.0],[69.3438,66.7104,3.2336],[69.3359,66.7099,0.0],[69.3287,66.7047,2.5131],[69.3234,66.7037,0.0],[69.3208,66.7,0.0],[69.3245,66.6974,0.0],[69.3245,66.6943,0.0],[69.3229,66.6937,0.0],[69.3125,66.6937,3.7235],[69.3083,66.6958,1.3909],[69.2943,66.6953,0.0],[69.2932,66.6922,0.0],[69.288,66.6911,0.0],[69.2833,66.6792,1.3878],[69.287,66.6766,2.8437],[69.2839,66.6745,0.0],[69.2875,66.6708,3.0547],[69.2859,66.6672,0.0],[69.2911,66.6661,2.0137],[69.2901,66.663,0.0],[69.2953,66.662,1.8995],[69.3047,66.6568,2.6006],[69.3125,66.6563,2.923],[69.3167,66.6542,2.4045],[69.3245,66.6547,2.6972],[69.3245,66.6578,2.3005],[69.3214,66.6589,2.4042],[69.3214,66.662,2.4878],[69.325,66.6625,2.4123],[69.3292,66.6604,2.3679],[69.3318,66.6641,0.0],[69.337,66.6641,0.0],[69.3422,66.6568,0.0],[69.3495,66.6536,0.0],[69.3495,66.6505,0.0],[69.3417,66.65,3.967],[69.3354,66.6521,2.8568],[69.3313,66.65,1.4052],[69.325,66.65,3.2695],[69.3208,66.6521,2.3238],[69.313,66.6495,2.8975],[69.3109,66.6443,0.0],[69.3161,66.6432,1.284],[69.3151,66.6401,0.0],[69.3245,66.6391,2.573],[69.3255,66.6359,2.0157],[69.3287,66.6349,2.2818],[69.3297,66.6297,1.9033],[69.3396,66.625,2.0722],[69.3432,66.6255,1.8345],[69.3443,66.6286,2.012],[69.3495,66.6297,2.1287],[69.3401,66.6339,2.2478],[69.3401,66.637,2.2931],[69.3438,66.6396,2.2549],[69.35,66.6396,2.4686],[69.3583,66.6354,2.0465],[69.3703,66.6349,0.0],[69.3766,66.6328,2.146],[69.3755,66.6297,0.0],[69.3812,66.6271,1.9199],[69.4057,66.6297,2.2152],[69.4026,66.6328,2.0671],[69.4104,66.6333,2.1914],[69.412,66.6349,3.1666],[69.4063,66.6375,0.0],[69.388,66.638,3.5749],[69.3891,66.6432,2.1334],[69.3833,66.6458,2.1595],[69.3771,66.6458,2.1594],[69.3755,66.6474,2.3278],[69.3833,66.65,2.4813],[69.3896,66.65,2.3468],[69.3979,66.6458,2.0998],[69.4042,66.6458,2.2826],[69.4057,66.6464,2.1982],[69.4078,66.6516,2.4432],[69.3984,66.6526,2.7739],[69.3943,66.6547,2.1166],[69.3917,66.6583,2.1086],[69.375,66.6604,3.0092],[69.3667,66.6646,2.1247],[69.3547,66.6651,2.0597],[69.3599,66.6672,2.0094],[69.3604,66.6687,2.1438],[69.3568,66.6724,3.5209],[69.3688,66.6771,2.1258],[69.3812,66.6771,2.3562],[69.387,66.6745,2.314],[69.388,66.6713,2.3189],[69.3958,66.6708,2.1319],[69.3974,66.6713,2.1307],[69.3974,66.6745,2.1132],[69.3901,66.6776,2.3367],[69.3953,66.6807,0.0],[69.3901,66.6828,2.7322],[69.3979,66.6833,1.7444],[69.4083,66.6792,2.4507],[69.4099,66.6797,2.1639],[69.412,66.6849,2.0779],[69.4068,66.687,2.2019],[69.4208,66.6917,2.2177],[69.4271,66.6917,2.3258],[69.4287,66.6901,2.3278],[69.4234,66.688,2.1334],[69.4328,66.6849,2.0436],[69.4318,66.6818,1.8717],[69.4354,66.6813,1.9605],[69.4432,66.6839,1.6808],[69.4443,66.687,2.0122],[69.4495,66.6891,2.1341],[69.4464,66.6901,2.2379],[69.4453,66.6932,1.2256],[69.4359,66.6943,2.1756],[69.4411,66.6974,0.0],[69.4339,66.7005,2.5004],[69.4328,66.7037,2.5982],[69.4208,66.7083,1.7387],[69.4104,66.7083,1.9293],[69.4063,66.7104,0.0],[69.3875,66.7042,0.0],[69.3859,66.7047,2.2647],[69.387,66.7099,0.0],[69.3854,66.7104,0.0],[69.3776,66.7099,2.6576],[69.375,66.7063,2.1931],[69.3672,66.7089,2.1193]]],
[[[69.4432,66.7078,2.1606],[69.4401,66.7078,2.3212],[69.4401,66.7068,2.191],[69.4432,66.7068,2.1281],[69.4432,66.7078,2.1606]]],
[[[69.4354,66.7396,0.0],[69.425,66.7396,2.038],[69.4187,66.7417,0.0],[69.4005,66.7349,2.5931],[69.3995,66.7318,3.7103],[69.3943,66.7297,2.0429],[69.4,66.7271,2.0652],[69.4078,66.7266,2.1733],[69.412,66.7245,2.1445],[69.413,66.7214,1.9276],[69.4224,66.7203,1.9811],[69.4213,66.7172,1.8032],[69.4307,66.7141,4.4039],[69.4297,66.7089,0.0],[69.4375,66.7083,2.8725],[69.4401,66.712,2.2389],[69.4516,66.7151,1.6356],[69.4537,66.7193,1.9952],[69.4443,66.7224,2.2058],[69.4557,66.7266,1.8234],[69.4479,66.7292,1.8252],[69.4437,66.7271,2.0626],[69.4375,66.7271,2.2437],[69.4271,66.7312,1.9679],[69.4125,66.7312,2.3263],[69.4109,66.7318,2.1739],[69.4109,66.7349,2.1646],[69.425,66.7375,2.37],[69.4276,66.7338,1.8881],[69.4396,66.7333,2.1542],[69.4437,66.7312,2.0232],[69.4542,66.7312,2.3059],[69.4583,66.7333,2.1951],[69.4646,66.7333,2.1056],[69.4688,66.7312,2.0689],[69.4828,66.7318,2.026],[69.4812,66.7333,1.9325],[69.475,66.7333,3.2844],[69.4708,66.7354,1.7448],[69.4542,66.7354,2.6229],[69.45,66.7375,0.0],[69.4396,66.7375,2.3889],[69.4354,66.7396,0.0]]],
[[[69.4063,66.7438,2.7517],[69.4026,66.7432,0.0],[69.4026,66.7422,0.0],[69.4078,66.7422,0.0],[69.4063,66.7438,2.7517]]],
[[[69.4146,66.7458,2.149],[69.4104,66.7458,2.1266],[69.4089,66.7443,2.3646],[69.4224,66.7443,2.0785],[69.4208,66.7458,2.1156],[69.4146,66.7458,2.149]]],
[[[68.5563,66.7042,2.9617],[68.5641,66.7068,2.9231],[68.5641,66.7099,2.7655],[68.5583,66.7125,2.4845],[68.5542,66.7104,3.648],[68.5443,66.7099,2.2844],[68.5495,66.7068,3.7079],[68.5443,66.7047,2.713],[68.5563,66.7042,2.9617]]],
[[[69.3271,66.7167,3.2281],[69.3229,66.7167,3.9992],[69.3214,66.7151,0.0],[69.3307,66.7151,1.0369],[69.3271,66.7167,3.2281]]],
[[[69.2396,66.725,0.0],[69.2375,66.7208,0.0],[69.2396,66.7188,0.0],[69.2432,66.7214,0.0],[69.2438,66.725,0.0],[69.2417,66.7271,0.0],[69.2396,66.725,0.0]]],
[[[69.0203,66.7766,0.0],[69.0167,66.7771,0.0],[69.0151,66.7755,0.0],[69.0188,66.775,0.0],[69.0203,66.7766,0.0]]],
[[[68.4161,66.6151,3.2727],[68.4146,66.6167,3.8201],[68.4063,66.6167,2.6468],[68.4063,66.6146,2.7487],[68.4161,66.6151,3.2727]]],
[[[68.4187,66.6229,3.6201],[68.4167,66.6208,2.7162],[68.4172,66.6172,4.2545],[68.4266,66.6193,2.5623],[68.4266,66.6224,5.0045],[68.4187,66.6229,3.6201]]],
[[[68.4396,66.6813,2.3729],[68.4292,66.6813,3.1918],[68.4187,66.6854,3.208],[68.4172,66.6849,3.208],[68.4161,66.6797,2.8983],[68.4083,66.6792,3.5162],[68.4068,66.6807,2.6053],[68.4099,66.6818,2.1715],[68.412,66.6849,2.649],[68.3979,66.6833,2.7435],[68.3938,66.6854,3.0936],[68.3896,66.6813,2.5519],[68.3917,66.6792,2.4149],[68.4021,66.6792,3.373],[68.4063,66.6771,2.6888],[68.4187,66.6771,3.3398],[68.4271,66.6729,1.996],[68.4396,66.6729,1.909],[68.4437,66.675,2.8034],[68.4604,66.6771,3.1625],[68.4646,66.6792,3.7021],[68.4771,66.6792,1.9945],[68.4849,66.6828,2.4842],[68.4667,66.6833,2.7276],[68.4625,66.6813,3.1203],[68.4396,66.6813,2.3729]]],
[[[68.3922,66.6891,1.3199],[68.3964,66.6859,2.8331],[68.4016,66.6859,2.6982],[68.3974,66.6891,3.6371],[68.3922,66.6891,1.3199]]],
[[[68.363,66.6974,2.6434],[68.3688,66.6937,2.6243],[68.375,66.6958,2.9549],[68.387,66.6964,2.7707],[68.3854,66.6979,2.8363],[68.363,66.6974,2.6434]]],
[[[68.2766,66.6964,2.9027],[68.2766,66.6974,2.905],[68.2734,66.6974,3.797],[68.2734,66.6964,3.5168],[68.2766,66.6964,2.9027]]],
[[[68.3229,66.7,2.1222],[68.3125,66.7,3.8961],[68.3083,66.7021,1.7398],[68.2797,66.7016,3.2178],[68.2854,66.6958,2.5943],[68.2979,66.7,3.0],[68.3104,66.6937,3.2818],[68.3229,66.6937,2.8371],[68.3271,66.6958,3.2908],[68.3313,66.6937,3.2556],[68.3375,66.6937,3.072],[68.3453,66.6964,3.107],[68.3438,66.6979,2.6834],[68.3375,66.6979,2.6237],[68.3333,66.6958,3.592],[68.3229,66.7,2.1222]]],
[[[68.3646,66.7,1.9443],[68.3708,66.7,1.9958],[68.3724,66.7016,1.8394],[68.3667,66.7042,2.216],[68.3526,66.7037,2.6504],[68.3604,66.7,2.6699],[68.3646,66.7,1.9443]]],
[[[69.8775,64.3019,133.2497],[69.9846,64.3033,127.164],[70.1868,64.3145,120.4373],[70.3361,64.3325,120.5033],[70.3726,64.3159,118.1193],[70.3802,64.3436,117.528],[70.4018,64.3661,106.1985],[70.3968,64.3872,116.7169],[70.3776,64.4084,117.0002],[70.3555,64.4279,113.3786],[70.3651,64.459,113.3252],[70.3795,64.4881,120.2919],[70.4206,64.5438,104.5467],[70.4993,64.6735,92.0725],[70.5445,64.724,91.5049],[70.5452,64.7633,93.3645],[70.5309,64.8329,90.25],[70.5339,64.8597,89.295],[70.6032,64.8978,79.6791],[70.6061,64.9205,78.9795],[70.5667,64.9468,83.4123],[70.5049,64.9968,80.5636],[70.4778,65.0247,82.7553],[70.5231,65.0378,85.0801],[70.5779,65.0679,90.2701],[70.6653,65.1247,87.6532],[70.7763,65.1779,85.3688],[70.8287,65.2276,82.6032],[70.815,65.2631,88.0941],[70.7587,65.2893,92.2097],[70.6548,65.3101,96.3651],[70.5419,65.3281,89.2403],[70.4094,65.3523,81.8434],[70.2375,65.4376,69.688],[70.1449,65.4667,67.8807],[70.1006,65.5005,74.038],[70.0956,65.534,76.8693],[70.033,65.556,67.0344],[69.9615,65.5457,76.9803],[69.9133,65.595,65.3173],[69.8177,65.6696,55.084],[69.6939,65.7446,47.0975],[69.6188,65.7805,46.3794],[69.5355,65.825,55.7002],[69.5587,65.8471,48.5816],[69.5693,65.8839,58.8395],[69.543,65.9348,56.2768],[69.4783,65.9863,61.2985],[69.4725,66.0015,65.4986],[69.5299,66.01,61.6132],[69.6774,66.0475,66.1896],[69.8983,66.0932,37.1656],[70.0084,66.1291,26.7642],[69.971,66.1605,54.1387],[69.8953,66.2069,33.751],[69.7692,66.2281,62.8083],[69.4716,66.2695,70.5576],[69.3061,66.2806,56.017],[69.2045,66.2809,49.1688],[69.1608,66.308,49.2814],[69.1069,66.3373,48.3751],[69.0437,66.3657,45.0338],[68.9507,66.3892,50.5501],[68.8224,66.4571,50.5483],[68.7331,66.5442,63.7152],[68.7191,66.5959,112.8218],[68.755,66.6062,110.5338],[68.8496,66.6067,64.5816],[68.9587,66.5955,8.8039],[69.0759,66.6044,3.1337],[69.1483,66.606,22.229],[69.1297,66.613,0.0],[69.1307,66.6182,0.0],[69.1255,66.6193,3.3439],[69.1307,66.6214,0.0],[69.1339,66.6266,0.0],[69.1391,66.6276,0.0],[69.1339,66.6297,4.6314],[69.1349,66.6328,0.0],[69.1297,66.6349,0.0],[69.1333,66.6375,0.0],[69.1412,66.638,0.0],[69.1396,66.6396,0.0],[69.1318,66.6401,0.0],[69.1318,66.6432,0.0],[69.137,66.6464,0.0],[69.1396,66.65,0.0],[69.1359,66.6526,0.0],[69.1349,66.6557,0.0],[69.1318,66.6568,0.0],[69.137,66.6599,0.0],[69.1318,66.662,0.0],[69.1432,66.6651,0.0],[69.1401,66.6682,6.9483],[69.1453,66.6713,0.0],[69.1464,66.6745,0.0],[69.1516,66.6755,0.0],[69.1516,66.6787,0.0],[69.1484,66.6797,0.0],[69.1474,66.6828,0.0],[69.1438,66.6854,0.0],[69.1464,66.6953,5.6665],[69.1578,66.6964,0.0],[69.1526,66.6995,0.0],[69.1578,66.7005,0.0],[69.1589,66.7037,0.0],[69.1641,66.7047,0.0],[69.1672,66.712,0.0],[69.1787,66.7151,0.0],[69.1797,66.7203,0.0],[69.1849,66.7214,0.0],[69.1813,66.725,0.0],[69.1833,66.7354,0.0],[69.1797,66.738,0.0],[69.1807,66.7432,0.0],[69.1713,66.7464,0.0],[69.1766,66.7484,0.0],[69.1729,66.7521,0.0],[69.1745,66.7599,0.0],[69.1479,66.7708,0.0],[69.1375,66.7708,0.0],[69.1333,66.7729,0.0],[69.1292,66.7708,3.1803],[69.1,66.7708,0.0],[69.0958,66.7688,10.1234],[69.0792,66.7688,0.0],[69.075,66.7667,15.2523],[69.0583,66.7688,0.0],[69.0542,66.7667,8.5771],[69.0104,66.7667,0.0],[69.0062,66.7646,28.1927],[68.9771,66.7646,23.7317],[68.9625,66.7688,5.3736],[68.8875,66.7688,0.0],[68.8833,66.7667,25.4659],[68.8667,66.7667,0.0],[68.8625,66.7646,7.6652],[68.8438,66.7625,7.5188],[68.8396,66.7604,34.4519],[68.8354,66.7625,0.0],[68.8292,66.7625,0.0],[68.8187,66.7583,34.211],[68.8021,66.7583,4.3622],[68.7979,66.7562,32.3777],[68.7896,66.7562,0.0],[68.7818,66.7536,0.0],[68.7807,66.7505,6.0758],[68.7755,66.7495,0.0],[68.7745,66.7443,0.0],[68.7693,66.7432,0.0],[68.7682,66.7401,32.97],[68.7568,66.737,0.0],[68.7557,66.7318,36.7105],[68.7354,66.7292,0.0],[68.7276,66.7266,9.125],[68.7266,66.7214,28.0943],[68.7167,66.7208,0.0],[68.7141,66.7172,21.473],[68.7047,66.7161,0.0],[68.7016,66.7109,21.2177],[68.6922,66.7078,0.0],[68.6911,66.7047,18.1682],[68.6859,66.7037,0.0],[68.6859,66.7005,0.0],[68.6896,66.6979,19.2406],[68.687,66.6943,15.2718],[68.6776,66.6932,0.0],[68.6745,66.688,17.7723],[68.6651,66.687,0.0],[68.6641,66.6839,16.9712],[68.6484,66.6787,0.0],[68.6453,66.6734,28.224],[68.6297,66.6682,0.0],[68.6266,66.6651,0.0],[68.6172,66.6641,0.0],[68.6146,66.6604,21.9689],[68.6083,66.6604,6.417],[68.5979,66.6563,0.0],[68.5854,66.6563,0.0],[68.5776,66.6536,15.3563],[68.5766,66.6505,23.1124],[68.5687,66.65,0.0],[68.5609,66.6474,0.0],[68.5599,66.6443,24.3528],[68.5547,66.6432,0.0],[68.5516,66.6339,25.9359],[68.5463,66.6328,0.0],[68.5463,66.6276,0.0],[68.5495,66.6266,30.8189],[68.5495,66.6234,23.8346],[68.5443,66.6224,0.0],[68.5432,66.6193,7.2538],[68.5359,66.6141,0.0],[68.5349,66.6109,0.0],[68.5297,66.6099,0.0],[68.5182,66.6026,39.4646],[68.5104,66.6,43.1419],[68.4938,66.6,0.0],[68.4797,66.5953,0.0],[68.4786,66.5922,10.6776],[68.4609,66.587,0.0],[68.4542,66.5833,10.3782],[68.4417,66.5833,0.0],[68.4313,66.5792,0.0],[68.425,66.5792,0.0],[68.4005,66.5703,0.0],[68.3995,66.5672,19.524],[68.388,66.5661,0.0],[68.3682,66.5526,26.6203],[68.35,66.55,0.0],[68.3458,66.5479,11.4794],[68.3417,66.5478,0.0],[68.3125,66.558,2.844],[68.3245,66.5609,2.8657],[68.3313,66.5646,4.0679],[68.3396,66.5646,1.8945],[68.3438,66.5667,4.9954],[68.3516,66.5672,0.0],[68.3526,66.5703,2.9222],[68.3641,66.5734,2.4626],[68.3651,66.5766,3.5995],[68.3703,66.5776,3.0123],[68.3703,66.5807,6.2336],[68.3667,66.5813,3.1369],[68.3625,66.5792,3.003],[68.3443,66.5797,4.4502],[68.3453,66.5828,3.2301],[68.3401,66.5839,5.4986],[68.3276,66.5901,3.2809],[68.3271,66.5979,2.5384],[68.3287,66.6016,2.0669],[68.3234,66.6036,2.7303],[68.3313,66.6062,2.9044],[68.3479,66.6062,3.1542],[68.3521,66.6042,3.1233],[68.3662,66.6047,3.0999],[68.3646,66.6062,3.479],[68.3526,66.6068,3.5335],[68.3516,66.612,3.1026],[68.3443,66.6172,4.2031],[68.3458,66.6188,2.582],[68.3521,66.6188,2.9153],[68.3562,66.6208,2.6318],[68.3745,66.6203,2.9061],[68.3745,66.6172,3.1713],[68.3667,66.6167,3.6488],[68.3651,66.6151,3.5689],[68.3724,66.6141,3.5997],[68.3734,66.6068,2.5646],[68.3812,66.6062,2.0213],[68.3833,66.6083,2.8719],[68.3797,66.612,2.8981],[68.3828,66.613,2.2251],[68.3859,66.6182,2.7674],[68.3938,66.6167,2.6143],[68.3979,66.6188,2.7787],[68.4021,66.6167,2.6741],[68.4063,66.6167,2.6468],[68.4063,66.6188,2.8332],[68.4026,66.6193,2.8181],[68.4016,66.6224,2.9856],[68.3984,66.6234,3.181],[68.4026,66.6266,2.7524],[68.4229,66.6292,2.5177],[68.4313,66.625,2.9493],[68.4375,66.625,2.7421],[68.462,66.6339,2.3272],[68.4641,66.6391,3.7893],[68.4563,66.6417,2.2754],[68.45,66.6396,3.6774],[68.4474,66.6432,2.951],[68.4443,66.6443,3.0859],[68.4458,66.6458,3.3545],[68.4537,66.6464,3.2414],[68.4495,66.6495,3.0335],[68.4271,66.65,3.1952],[68.4213,66.6526,2.195],[68.4271,66.6563,2.779],[68.4354,66.6563,2.82],[68.4396,66.6583,3.5049],[68.4474,66.6589,2.8896],[68.4474,66.662,4.4859],[68.4396,66.6646,3.4956],[68.4292,66.6583,3.7979],[68.4229,66.6604,1.7156],[68.4187,66.6563,1.8719],[68.4021,66.6563,2.1079],[68.3979,66.6542,3.9965],[68.3646,66.6542,3.6911],[68.3604,66.6563,1.8394],[68.3542,66.6563,1.8191],[68.35,66.6542,3.033],[68.3438,66.6542,3.1753],[68.3375,66.6563,2.2037],[68.3359,66.6557,2.207],[68.3349,66.6505,2.6349],[68.3333,66.65,2.9937],[68.3104,66.65,4.1083],[68.3063,66.6521,2.6691],[68.3021,66.65,2.599],[68.2833,66.65,3.2553],[68.2792,66.6458,3.094],[68.2688,66.6458,3.3017],[68.2662,66.6495,2.7108],[68.2542,66.65,2.781],[68.2526,66.6516,2.7137],[68.275,66.6521,2.3814],[68.2828,66.6547,3.2289],[68.287,66.6682,3.6134],[68.2833,66.6687,3.6586],[68.2755,66.6661,3.2054],[68.2807,66.6641,2.7045],[68.2786,66.6589,3.4697],[68.2771,66.6583,2.5189],[68.2693,66.6609,2.816],[68.2703,66.6641,3.4319],[68.2651,66.6651,3.6377],[68.2703,66.6703,3.5557],[68.262,66.6745,3.1022],[68.25,66.6771,3.0976],[68.2422,66.6807,3.1101],[68.2474,66.6818,1.5081],[68.2484,66.6849,3.2064],[68.2562,66.6854,3.2342],[68.2578,66.6849,2.6187],[68.2589,66.6776,3.3818],[68.2667,66.6771,2.7368],[68.2708,66.6792,2.7493],[68.2786,66.6766,2.9901],[68.2734,66.6745,2.5053],[68.275,66.6729,3.2112],[68.2917,66.6729,2.3291],[68.2932,66.6734,2.2568],[68.2943,66.6787,3.2219],[68.2995,66.6797,3.3713],[68.2995,66.6828,3.572],[68.2875,66.6833,1.3799],[68.2833,66.6813,3.041],[68.2708,66.6813,3.2421],[68.2693,66.6818,3.0526],[68.2693,66.6849,2.8728],[68.2745,66.6859,2.8571],[68.2745,66.6891,3.2802],[68.2625,66.6896,2.9396],[68.2583,66.6937,2.7921],[68.1729,66.6937,2.8218],[68.1687,66.6896,2.9672],[68.1672,66.6901,3.6779],[68.1661,66.6953,3.6949],[68.1625,66.6979,1.8158],[68.163,66.7016,2.7792],[68.1682,66.7037,2.7323],[68.1604,66.7042,2.6017],[68.1542,66.7021,1.975],[68.15,66.7042,2.9428],[68.1188,66.7042,2.4796],[68.1125,66.7104,2.1697],[68.113,66.712,2.2625],[68.1245,66.7151,2.0613],[68.1312,66.7188,4.0681],[68.1412,66.7193,2.0249],[68.1422,66.7224,1.9616],[68.1484,66.7245,2.1467],[68.1578,66.7255,1.8969],[68.1604,66.7292,3.6764],[68.1667,66.7271,1.8918],[68.1833,66.7271,2.1472],[68.1979,66.7312,2.0997],[68.2042,66.7312,1.9222],[68.2083,66.7333,2.3838],[68.2167,66.7333,1.9826],[68.2271,66.7375,3.6655],[68.2542,66.7354,2.1991],[68.2688,66.7417,3.3125],[68.2813,66.7417,3.5235],[68.2828,66.7401,3.012],[68.275,66.7396,2.3889],[68.2672,66.737,2.8914],[68.2672,66.7338,3.2052],[68.2729,66.7333,3.3662],[68.2745,66.7318,2.8645],[68.2651,66.7276,3.2101],[68.2875,66.725,2.172],[68.2896,66.7271,3.1477],[68.2859,66.7307,2.8067],[68.2974,66.7338,2.3063],[68.3,66.7375,2.736],[68.3063,66.7375,3.3624],[68.3104,66.7354,2.3417],[68.3167,66.7375,3.7934],[68.3208,66.7354,3.0462],[68.3375,66.7354,4.0709],[68.3401,66.7318,2.0196],[68.3495,66.7307,3.0716],[68.3474,66.7255,3.2175],[68.3458,66.725,3.1782],[68.3417,66.7271,2.4605],[68.3318,66.7266,2.8176],[68.3318,66.7234,2.0967],[68.3453,66.7203,3.0978],[68.3401,66.7151,2.0055],[68.3453,66.713,3.3275],[68.3401,66.712,1.8956],[68.3401,66.7089,2.9196],[68.3479,66.7083,2.3041],[68.3521,66.7104,2.8691],[68.3583,66.7083,2.6258],[68.3625,66.7104,3.0079],[68.375,66.7104,2.2628],[68.3766,66.712,2.3408],[68.3714,66.713,2.4031],[68.3724,66.7161,2.3195],[68.3646,66.7188,2.6369],[68.3526,66.7193,3.3333],[68.3526,66.7224,2.6084],[68.3604,66.7229,2.7442],[68.3646,66.7208,3.5273],[68.3771,66.7208,3.0403],[68.3891,66.7255,3.2064],[68.3833,66.7292,2.1693],[68.3792,66.7271,3.4333],[68.3693,66.7276,2.9982],[68.3646,66.7312,2.9038],[68.3672,66.7349,2.9974],[68.3792,66.7396,3.0773],[68.4021,66.7396,3.4524],[68.4036,66.738,3.7251],[68.3943,66.737,2.7363],[68.4063,66.725,2.699],[68.4057,66.7234,2.6489],[68.4005,66.7224,2.7221],[68.3984,66.7172,3.0928],[68.4271,66.7146,3.1868],[68.4297,66.7109,3.4265],[68.4396,66.7104,3.4652],[68.4396,66.7125,3.3344],[68.4453,66.713,2.5629],[68.4401,66.7151,3.2956],[68.4411,66.7203,2.9787],[68.4375,66.7208,2.7722],[68.4333,66.7188,2.5353],[68.4213,66.7193,3.3214],[68.4161,66.7266,2.3122],[68.413,66.7276,3.4979],[68.412,66.7307,3.1701],[68.4089,66.7318,3.2336],[68.413,66.7349,3.072],[68.4245,66.738,2.8052],[68.4255,66.7432,2.3628],[68.4307,66.7443,2.4882],[68.4271,66.7479,2.8763],[68.4292,66.75,2.7536],[68.4328,66.7495,3.1903],[68.4339,66.7464,3.3886],[68.4417,66.7458,2.9325],[68.4443,66.7495,2.5886],[68.4495,66.7505,2.5443],[68.4505,66.7536,2.5947],[68.4625,66.7542,2.8162],[68.4641,66.7536,2.5411],[68.4651,66.7484,3.1917],[68.4667,66.7479,3.3067],[68.4807,66.7484,2.3619],[68.4755,66.7505,2.9682],[68.4771,66.7521,3.1834],[68.4896,66.7521,3.491],[68.5042,66.7479,2.7485],[68.5146,66.7479,3.2603],[68.5182,66.7516,2.9718],[68.5,66.7521,1.8521],[68.4979,66.7542,3.3925],[68.4984,66.7578,3.1531],[68.5062,66.7583,3.0683],[68.5167,66.7542,3.0728],[68.5229,66.7542,3.1409],[68.5271,66.7583,3.4736],[68.5432,66.7536,3.0324],[68.5417,66.7521,3.2048],[68.5339,66.7516,3.4416],[68.5396,66.7479,2.0724],[68.5667,66.7479,3.8081],[68.5708,66.7458,2.5951],[68.5833,66.7458,3.5032],[68.5875,66.75,2.2044],[68.6016,66.7484,3.4358],[68.5974,66.7516,3.2545],[68.5896,66.7542,3.358],[68.5854,66.7521,3.5623],[68.5776,66.7526,2.8392],[68.5807,66.7557,3.9167],[68.5776,66.7578,2.4541],[68.5854,66.7583,3.489],[68.587,66.7599,2.5744],[68.5771,66.7625,2.5514],[68.5542,66.7625,2.4382],[68.55,66.7604,3.6036],[68.5437,66.7604,2.7161],[68.5375,66.7583,3.813],[68.5333,66.7604,2.511],[68.5021,66.7604,3.6641],[68.4979,66.7625,1.3776],[68.4854,66.7625,3.0311],[68.4812,66.7646,0.0],[68.475,66.7625,4.6092],[68.4708,66.7646,0.0],[68.45,66.7646,0.0],[68.4422,66.7667,0.0],[68.4603,66.7771,4.0174],[68.4646,66.7771,3.2838],[68.4688,66.775,2.8168],[68.4792,66.775,4.0155],[68.4833,66.7708,2.9122],[68.4875,66.7729,2.7322],[68.5042,66.7729,2.4684],[68.5083,66.7708,2.4308],[68.5146,66.7729,2.4147],[68.5271,66.7729,2.5862],[68.5313,66.7708,0.0],[68.5625,66.7708,0.0],[68.5687,66.7729,3.6568],[68.5771,66.7688,1.6374],[68.6,66.7688,3.635],[68.6125,66.7625,0.0],[68.6229,66.7625,3.8164],[68.6271,66.7604,0.0],[68.6667,66.7604,0.0],[68.6708,66.7625,3.6489],[68.6787,66.763,3.4367],[68.6797,66.7662,3.4625],[68.6833,66.7688,3.6334],[68.6875,66.7646,3.2512],[68.6979,66.7646,0.0],[68.7146,66.7708,3.4506],[68.7224,66.7714,0.0],[68.7245,66.7734,2.6575],[68.7245,66.7766,2.8466],[68.7151,66.7776,3.3291],[68.7109,66.7797,2.7672],[68.7125,66.7813,2.7874],[68.725,66.7813,2.2758],[68.7292,66.7833,2.9738],[68.7354,66.7833,2.8532],[68.7396,66.7792,2.66],[68.7542,66.7833,3.667],[68.7625,66.7833,0.0],[68.7771,66.7875,3.1342],[68.7833,66.7875,0.0],[68.7875,66.7896,1.3799],[68.8,66.7896,0.0],[68.8047,66.7932,3.34],[68.8141,66.7943,3.0587],[68.8167,66.7979,0.0],[68.8313,66.7937,1.346],[68.8604,66.7958,3.1247],[68.8646,66.7937,0.0],[68.8708,66.7958,2.8845],[68.8854,66.7917,0.0],[68.8917,66.7937,3.3878],[68.9042,66.7896,0.0],[68.9125,66.7917,4.0147],[68.9167,66.7896,1.7954],[68.9271,66.7896,3.9841],[68.9354,66.7854,1.9664],[68.9646,66.7875,2.8596],[68.9688,66.7896,3.6904],[68.9729,66.7875,2.4954],[68.9896,66.7875,0.0],[68.9938,66.7896,2.783],[69.0021,66.7896,2.3888],[69.0062,66.7917,2.8201],[69.0188,66.7917,0.0],[69.0432,66.7984,0.0],[69.0432,66.8016,2.5364],[69.0354,66.8021,2.2165],[69.0188,66.7958,2.6618],[69.0125,66.7958,2.4886],[69.0083,66.7937,2.7079],[69.0021,66.7937,2.3118],[69.0,66.7958,2.4551],[69.0005,66.7974,3.0838],[69.0083,66.8,2.5361],[69.0162,66.8005,2.2338],[69.0188,66.8042,2.5844],[69.0271,66.8042,2.4345],[69.0417,66.8104,2.8974],[69.0516,66.8109,0.0],[69.0463,66.813,1.5393],[69.0479,66.8146,2.5408],[69.0604,66.8146,2.7903],[69.0708,66.8187,1.5841],[69.0745,66.8182,3.6341],[69.0734,66.8151,2.3191],[69.0787,66.813,2.4918],[69.0672,66.8089,2.7705],[69.0792,66.8042,3.0153],[69.0833,66.8063,2.8468],[69.0896,66.8063,2.727],[69.1125,66.8146,4.2196],[69.1167,66.8125,0.0],[69.125,66.8125,0.0],[69.1292,66.8146,3.1477],[69.1604,66.8146,2.4462],[69.1667,66.8125,0.0],[69.1708,66.8146,3.7398],[69.175,66.8125,0.0],[69.1917,66.8125,2.8551],[69.1958,66.8104,0.0],[69.2083,66.8104,2.5426],[69.2125,66.8083,2.643],[69.2167,66.8104,2.4862],[69.225,66.8104,2.3],[69.2333,66.8146,2.3613],[69.2396,66.8146,2.4214],[69.2458,66.8125,0.0],[69.25,66.8146,2.7774],[69.2562,66.8146,2.747],[69.2604,66.8125,0.0],[69.2708,66.8125,2.7316],[69.275,66.8104,0.0],[69.2875,66.8104,0.0],[69.3021,66.8063,0.0],[69.3083,66.8083,1.2474],[69.3099,66.8078,2.0498],[69.3089,66.8047,0.0],[69.3141,66.8037,0.0],[69.3292,66.7958,0.0],[69.3354,66.7958,0.0],[69.3396,66.7937,0.0],[69.35,66.7937,0.0],[69.3542,66.7917,0.0],[69.3625,66.7937,2.6601],[69.3667,66.7917,0.0],[69.3708,66.7937,2.638],[69.3938,66.7937,1.5994],[69.3953,66.7953,2.48],[69.3833,66.7958,2.6329],[69.3792,66.8,2.2725],[69.3729,66.7979,2.901],[69.3609,66.7984,2.7381],[69.3609,66.8016,2.6251],[69.3662,66.8026,2.463],[69.3667,66.8042,2.4153],[69.363,66.8068,2.5843],[69.363,66.8099,2.4659],[69.3646,66.8104,2.2027],[69.3771,66.8063,2.077],[69.3812,66.8083,1.9444],[69.3891,66.8089,1.6403],[69.3917,66.8125,2.5394],[69.4458,66.8125,0.0],[69.4521,66.8104,0.0],[69.4563,66.8125,1.919],[69.4625,66.8125,2.4319],[69.4667,66.8104,0.0],[69.4729,66.8125,2.5079],[69.4771,66.8104,0.0],[69.4952,66.8104,0.0],[69.481,66.8381,1.708],[69.4838,66.838,1.7907],[69.5013,66.834,3.3521],[69.5592,66.831,0.0],[69.5973,66.8176,0.0],[69.6388,66.7992,0.0],[69.6296,66.7976,1.9614],[69.591,66.7988,0.0],[69.5539,66.8063,0.0],[69.5297,66.8061,0.0],[69.5318,66.8026,0.0],[69.5391,66.7995,2.333],[69.5401,66.7963,0.0],[69.5432,66.7953,0.0],[69.5443,66.7922,0.0],[69.5474,66.7911,0.0],[69.55,66.7875,0.0],[69.5569,66.7873,2.963],[69.553,66.7931,3.7494],[69.5403,66.8001,2.8939],[69.5428,66.8026,3.1342],[69.5693,66.8014,3.0216],[69.5928,66.7958,2.3457],[69.6446,66.7916,0.0],[69.6628,66.7954,0.0],[69.6702,66.7936,0.0],[69.6797,66.7867,2.0962],[69.6979,66.7875,2.9215],[69.7021,66.7854,0.0],[69.7075,66.7854,0.0],[69.7007,66.7864,1.7551],[69.6846,66.7984,1.3367],[69.6836,66.8018,1.8022],[69.6951,66.8044,1.9528],[69.7108,66.8025,2.4841],[69.7313,66.7956,2.1652],[69.745,66.7881,0.0],[69.7562,66.7875,0.0],[69.7609,66.7911,0.0],[69.7703,66.7922,1.9927],[69.7688,66.7937,0.0],[69.7609,66.7943,2.2249],[69.7688,66.7979,0.0],[69.7854,66.7958,0.0],[69.7896,66.8,2.7446],[69.8083,66.8,0.0],[69.8125,66.8021,1.5542],[69.8203,66.8026,0.0],[69.8187,66.8042,2.1884],[69.8068,66.8068,2.2621],[69.8083,66.8083,2.2562],[69.8208,66.8083,2.1992],[69.825,66.8042,2.1677],[69.8578,66.8047,1.9778],[69.8479,66.8083,0.0],[69.8401,66.8089,0.0],[69.8417,66.8104,0.0],[69.8542,66.8105,1.6704],[69.8384,66.8141,4.7115],[69.8256,66.814,1.2512],[69.7966,66.8091,2.5442],[69.7802,66.808,1.9304],[69.7264,66.8091,2.2004],[69.6915,66.8069,2.911],[69.657,66.8098,3.2342],[69.6001,66.8241,2.6907],[69.5774,66.8323,2.6282],[69.5387,66.8356,1.8178],[69.5198,66.8426,2.8222],[69.5016,66.845,2.9186],[69.4781,66.8438,0.0],[69.4654,66.8684,0.5],[69.5058,67.0442,5.9958],[69.4895,67.2468,32.5763],[69.4062,67.44,20.8682],[69.2976,67.6684,43.6863],[69.1539,67.7983,51.6486],[68.9342,67.9231,40.1655],[68.6897,68.0054,22.0885],[68.6393,68.0411,10.5192],[68.6643,68.0571,13.8841],[68.717,68.0755,13.88],[68.7084,68.1029,11.6477],[68.6712,68.1561,9.2078],[68.5875,68.2122,1.6825],[68.58,68.2539,1.1697],[68.587,68.2522,1.2443],[68.6074,68.2522,0.0],[68.5921,68.2572,0.0],[68.5724,68.2594,0.0],[68.5708,68.2583,0.0],[68.5313,68.2583,0.0],[68.525,68.2604,0.0],[68.5188,68.2521,0.0],[68.5104,68.2521,0.0],[68.5104,68.2542,0.0],[68.5062,68.2542,0.0],[68.5021,68.2562,0.0],[68.4896,68.2562,0.0],[68.4854,68.2583,0.0],[68.4792,68.2583,0.0],[68.4766,68.2547,0.0],[68.4651,68.2505,0.0],[68.4812,68.2458,0.0],[68.4938,68.2458,0.0],[68.4979,68.2479,0.0],[68.5062,68.2479,0.0],[68.5078,68.2474,0.0],[68.5068,68.2422,0.0],[68.512,68.2401,0.0],[68.4854,68.2396,0.0],[68.4688,68.2333,0.0],[68.4437,68.2333,0.0],[68.4297,68.2286,0.0],[68.4287,68.2255,0.0],[68.4234,68.2245,0.0],[68.4266,68.2214,0.0],[68.4089,68.2161,0.0],[68.4089,68.213,0.0],[68.412,68.2109,0.9608],[68.4042,68.2104,0.0],[68.4,68.2083,0.5725],[68.3917,68.2104,0.0],[68.3901,68.2099,0.0],[68.3891,68.2047,0.8203],[68.3875,68.2042,0.776],[68.3521,68.2021,0.0],[68.3505,68.2026,0.0],[68.3495,68.2099,0.0],[68.3479,68.2104,0.0],[68.3417,68.2104,0.0],[68.3375,68.2083,0.0],[68.325,68.2083,0.0],[68.3214,68.2057,0.0],[68.3203,68.2026,0.0],[68.3026,68.1964,0.0],[68.3078,68.1953,0.0],[68.3187,68.1896,0.0],[68.325,68.1917,0.0],[68.3287,68.1911,0.0],[68.3276,68.188,0.0],[68.337,68.1849,0.0],[68.337,68.1818,0.0],[68.3318,68.1807,0.0],[68.3292,68.1771,0.0],[68.3208,68.1771,0.0],[68.3167,68.175,0.0],[68.3042,68.175,0.0],[68.2979,68.1729,0.0],[68.2922,68.1755,0.0],[68.2974,68.1776,0.0],[68.2974,68.1849,0.0],[68.2901,68.188,0.0],[68.2891,68.1911,0.9531],[68.2839,68.1922,0.966],[68.2891,68.1953,0.0],[68.2813,68.1958,0.631],[68.2755,68.1984,0.9258],[68.2745,68.2016,0.4708],[68.2708,68.2042,0.5731],[68.2714,68.2057,-0.0287],[68.2766,68.2078,0.0],[68.2724,68.2099,0.0],[68.2604,68.2146,0.0],[68.2526,68.2151,0.8232],[68.2396,68.2208,0.0],[68.2333,68.2188,0.8382],[68.2292,68.2208,0.0],[68.1896,68.2229,0.0],[68.1818,68.2255,0.0],[68.1807,68.2286,0.0],[68.1713,68.2297,0.0],[68.1766,68.2328,0.0],[68.1734,68.2338,0.4904],[68.1729,68.2375,0.9828],[68.175,68.2417,0.0],[68.1713,68.2443,0.0],[68.1713,68.2474,0.4287],[68.1828,68.2505,0.3098],[68.1833,68.2521,0.4655],[68.1797,68.2547,0.8172],[68.1797,68.2599,0.3954],[68.1875,68.2625,0.386],[68.1974,68.263,0.2103],[68.1932,68.2662,0.2702],[68.188,68.2672,0.6486],[68.187,68.2703,0.0],[68.1776,68.2714,0.697],[68.1792,68.2729,0.4514],[68.1875,68.2729,0.1819],[68.1891,68.2745,-0.0681],[68.1813,68.275,0.2368],[68.1734,68.2776,1.0755],[68.1755,68.2807,0.0],[68.1833,68.2792,-0.0266],[68.1875,68.2813,0.7728],[68.2021,68.2813,0.5328],[68.2047,68.2849,0.5529],[68.2161,68.2859,0.3406],[68.2172,68.2911,0.1862],[68.2349,68.2963,0.3335],[68.237,68.3016,0.4776],[68.2276,68.3047,0.6832],[68.2276,68.3078,0.0],[68.2312,68.3083,0.0],[68.2375,68.3063,1.1871],[68.2479,68.3104,0.6846],[68.2542,68.3104,0.0],[68.2682,68.3151,0.0],[68.2641,68.3182,0.0],[68.2589,68.3193,1.0836],[68.262,68.3287,0.0],[68.2521,68.3292,0.0],[68.2464,68.3318,0.0],[68.2464,68.3349,0.6671],[68.2516,68.337,0.0],[68.2438,68.3375,1.4509],[68.2422,68.3391,0.0],[68.2474,68.3411,0.0],[68.2318,68.3422,1.2429],[68.2328,68.3453,0.0],[68.213,68.3526,1.3172],[68.212,68.3557,0.0],[68.2026,68.3568,1.2341],[68.2057,68.3682,0.0],[68.2005,68.3693,0.0],[68.1995,68.3724,0.0],[68.1922,68.3755,1.2901],[68.1911,68.3807,0.9005],[68.187,68.3828,1.2834],[68.1687,68.3896,0.0],[68.1609,68.3901,1.793],[68.162,68.3932,0.0],[68.1521,68.3938,1.9571],[68.1396,68.4,0.0],[68.1312,68.4,1.1338],[68.1167,68.4042,0.0],[68.1042,68.4042,2.0865],[68.0958,68.4083,0.0],[68.0771,68.4083,1.8096],[68.0687,68.4125,0.0],[68.0521,68.4146,0.7724],[68.0479,68.4167,0.0],[68.025,68.4187,1.3502],[68.0042,68.4271,0.0],[67.9901,68.4276,17.8041],[67.9912,68.4307,0.0],[67.9896,68.4313,0.0],[67.9771,68.4313,13.1297],[67.9625,68.4354,9.5202],[67.9542,68.4354,9.3524],[67.95,68.4375,12.1759],[67.9422,68.438,15.707],[67.9354,68.4417,0.0],[67.9229,68.4417,22.8204],[67.9146,68.4458,0.0],[67.9063,68.4458,16.8495],[67.8917,68.45,0.0],[67.8625,68.4521,4.7398],[67.8583,68.4542,0.0],[67.8354,68.4542,0.0],[67.8167,68.4479,1.5736],[67.8125,68.45,0.0],[67.8,68.45,0.0],[67.7917,68.4542,0.0],[67.7854,68.4542,0.8809],[67.7776,68.4568,1.1612],[67.7734,68.4589,2.3395],[67.7724,68.462,0.0],[67.7693,68.463,0.0],[67.7682,68.4661,0.0],[67.7589,68.4672,2.5501],[67.7578,68.4724,0.0],[67.75,68.4729,0.0],[67.7354,68.4792,0.0],[67.7292,68.4792,3.5191],[67.7214,68.4818,0.9995],[67.7224,68.4849,0.0],[67.7146,68.4875,0.0],[67.7083,68.4875,0.9104],[67.7068,68.4891,0.0],[67.7167,68.4896,0.0],[67.7208,68.4875,0.0],[67.7271,68.4875,0.0],[67.7333,68.4938,0.0],[67.75,68.4938,1.2983],[67.7542,68.4917,0.0],[67.7667,68.4917,1.2839],[67.7708,68.4896,0.0],[67.7896,68.4875,1.8592],[67.7911,68.487,0.0],[67.7901,68.4838,0.0],[67.7979,68.4812,0.0],[67.8104,68.4812,1.4965],[67.813,68.4776,0.0],[67.8208,68.4771,1.1055],[67.8292,68.4729,0.0],[67.8375,68.4729,0.7052],[67.8391,68.4745,0.0],[67.8297,68.4776,1.1406],[67.8287,68.4807,0.0],[67.8245,68.4828,1.1901],[67.8063,68.4896,0.0],[67.7896,68.4917,2.2027],[67.775,68.4958,0.0],[67.7625,68.4958,1.5185],[67.7417,68.5021,0.0],[67.7292,68.5021,1.1151],[67.725,68.5042,1.3237],[67.7188,68.5042,1.1322],[67.6964,68.513,1.3192],[67.6979,68.5208,0.07],[67.6943,68.5234,8.9348],[67.6943,68.5266,0.5163],[67.7057,68.5297,0.0],[67.7057,68.5328,0.0],[67.6964,68.5339,1.504],[67.6953,68.537,1.8144],[67.6911,68.5391,0.0],[67.6792,68.5437,2.1765],[67.6713,68.5443,2.0236],[67.6703,68.5474,0.0],[67.6625,68.5479,1.6885],[67.6401,68.5568,1.8064],[67.6412,68.562,0.0],[67.6396,68.5625,0.0],[67.6312,68.5625,2.2692],[67.6141,68.5703,2.2007],[67.6062,68.5708,0.848],[67.5958,68.575,1.3968],[67.5896,68.575,1.5527],[67.5813,68.5792,1.9649],[67.5729,68.5792,1.0251],[67.5714,68.5797,1.148],[67.5724,68.5828,0.0],[67.5708,68.5833,0.0],[67.5505,68.5839,0.9058],[67.5495,68.587,1.2018],[67.5245,68.5974,0.0],[67.5062,68.6042,0.0],[67.4984,68.6047,1.3091],[67.4776,68.613,1.3956],[67.4786,68.6162,0.0],[67.4568,68.6214,2.0177],[67.4578,68.6245,0.0],[67.4464,68.6255,3.0539],[67.4474,68.6286,0.0],[67.438,68.6318,0.0],[67.4432,68.6349,0.0],[67.4213,68.6359,12.4198],[67.4203,68.6391,0.0],[67.4109,68.6401,11.7128],[67.412,68.6453,0.0],[67.4005,68.6464,0.7574],[67.4016,68.6495,0.0],[67.3938,68.6521,0.0],[67.3875,68.6521,1.1593],[67.3833,68.6542,0.0],[67.3771,68.6521,0.8288],[67.3734,68.6526,0.0],[67.3766,68.662,0.0],[67.3714,68.6641,0.0],[67.3766,68.6661,0.0],[67.3724,68.6682,0.0],[67.3646,68.6708,0.0],[67.3417,68.6708,0.0],[67.3375,68.6729,0.0],[67.3125,68.6729,0.0],[67.3083,68.675,0.0],[67.2958,68.6708,1.9189],[67.2917,68.6729,0.0],[67.2667,68.6729,0.0],[67.2625,68.675,0.0],[67.25,68.675,7.9918],[67.2417,68.6792,0.0],[67.2333,68.6792,7.085],[67.2276,68.6818,1.0428],[67.2271,68.6854,0.0],[67.2297,68.6891,0.0],[67.2349,68.6901,0.0],[67.2349,68.6932,0.0],[67.2312,68.6937,0.0],[67.2208,68.6896,0.0],[67.2083,68.6896,6.6507],[67.2068,68.6911,7.5736],[67.212,68.6932,0.0],[67.2026,68.6943,4.7893],[67.1964,68.6964,4.7783],[67.1953,68.6995,0.0],[67.1911,68.7016,0.0],[67.1833,68.7021,0.0],[67.1713,68.7068,0.0],[67.1703,68.712,0.0],[67.1667,68.7146,1.7741],[67.1682,68.7245,0.0],[67.163,68.7255,7.8518],[67.1641,68.7286,0.0],[67.1547,68.7318,3.0855],[67.1599,68.7349,0.0],[67.1547,68.7359,0.0],[67.1521,68.7396,0.0],[67.1479,68.7375,0.0],[67.1443,68.738,4.6517],[67.1391,68.7453,0.0],[67.1339,68.7464,0.0],[67.1349,68.7495,0.0],[67.1229,68.7542,0.0],[67.1167,68.7521,0.0],[67.1042,68.7521,0.0],[67.1,68.7542,0.0],[67.0813,68.7542,3.3424],[67.063,68.7609,1.4086],[67.0651,68.7641,0.0],[67.0703,68.7651,0.0],[67.0651,68.7672,0.0],[67.0646,68.7688,1.082],[67.0672,68.7786,0.0],[67.0693,68.7807,0.0],[67.0745,68.7818,0.0],[67.075,68.7854,0.0],[67.0703,68.7891,0.0],[67.0651,68.7901,0.3736],[67.0641,68.7932,0.4858],[67.0609,68.7953,0.3365],[67.0661,68.7963,0.5262],[67.0672,68.8016,0.6429],[67.0693,68.8037,0.6612],[67.0745,68.8047,0.2775],[67.0693,68.8078,0.6432],[67.0807,68.8089,0.6679],[67.0755,68.812,0.8576],[67.0854,68.8125,0.6231],[67.0896,68.8146,0.8451],[67.1021,68.8146,0.6728],[67.1062,68.8104,0.5914],[67.1312,68.8104,0.0],[67.1354,68.8125,0.5338],[67.1438,68.8125,0.0],[67.1479,68.8146,0.667],[67.1667,68.8146,0.8033],[67.1687,68.8125,0.0],[67.1661,68.8089,0.0],[67.1521,68.8083,0.0],[67.1505,68.8078,0.0],[67.1505,68.8047,0.0],[67.1729,68.7979,0.0],[67.1917,68.8042,0.0],[67.2104,68.8042,2.7687],[67.212,68.8037,2.2293],[67.2109,68.8005,0.0],[67.2161,68.7995,1.3492],[67.2172,68.7963,0.0],[67.225,68.7958,0.0],[67.2458,68.7896,0.0],[67.2521,68.7896,2.1217],[67.2641,68.7849,2.5416],[67.2589,68.7818,0.0],[67.2667,68.7792,0.0],[67.2745,68.7786,2.1655],[67.2755,68.7755,1.671],[67.2875,68.7708,0.0],[67.3,68.7708,2.1236],[67.3042,68.7688,1.9409],[67.3104,68.7688,2.6504],[67.3146,68.7646,0.0],[67.3667,68.7646,1.2437],[67.3875,68.7562,0.0],[67.4016,68.7609,1.1302],[67.4047,68.7662,0.9437],[67.4099,68.7672,0.0],[67.4099,68.7703,0.0],[67.4068,68.7714,0.0],[67.4057,68.7745,0.0],[67.4005,68.7755,1.0615],[67.4057,68.7786,0.0],[67.3964,68.7818,1.1396],[67.3974,68.7849,0.0],[67.388,68.788,1.1075],[67.387,68.7911,0.0],[67.3792,68.7917,1.3658],[67.3714,68.7943,1.4657],[67.3703,68.7974,0.0],[67.3625,68.7979,1.3529],[67.3453,68.8057,0.0],[67.3354,68.8063,1.3131],[67.3208,68.8125,0.0],[67.3083,68.8125,1.4725],[67.2937,68.8167,0.0],[67.275,68.8167,2.3405],[67.2708,68.8187,0.0],[67.2646,68.8167,3.1879],[67.2604,68.8187,0.0],[67.2188,68.8187,0.0],[67.2125,68.8167,2.3063],[67.2083,68.8187,0.0],[67.1937,68.8187,0.8301],[67.1896,68.8167,1.9155],[67.1708,68.8167,2.0422],[67.1563,68.8208,0.0],[67.15,68.8187,2.0208],[67.1458,68.8208,0.0],[67.1375,68.8208,0.9426],[67.1333,68.8229,0.0],[67.1104,68.8229,2.321],[67.1,68.8271,0.0],[67.0708,68.8292,2.2785],[67.0625,68.8333,0.0],[67.0542,68.8313,1.8318],[67.0458,68.8354,0.0],[67.0271,68.8354,1.0895],[67.0167,68.8396,0.0],[66.9979,68.8396,2.43],[66.9938,68.8417,0.0],[66.9812,68.8417,2.2974],[66.9771,68.8438,0.0],[66.9542,68.8438,1.7003],[66.95,68.8458,0.0],[66.9417,68.8458,1.5178],[66.9349,68.8495,0.0],[66.9271,68.85,0.0],[66.9229,68.8521,0.0],[66.9042,68.8521,6.6122],[66.9,68.8542,0.0],[66.8859,68.8544,2.0218],[66.8833,68.8562,0.0],[66.8583,68.8562,1.9354],[66.8542,68.8583,0.0],[66.8354,68.8583,13.9907],[66.8313,68.8604,0.0],[66.8125,68.8604,13.3705],[66.8083,68.8625,0.0],[66.7854,68.8625,-0.0541],[66.7813,68.8646,0.0],[66.7688,68.8646,1.3653],[66.7646,68.8667,0.0],[66.7396,68.8667,0.0],[66.7312,68.8708,0.0],[66.7167,68.8708,16.1045],[66.7021,68.875,0.0],[66.6771,68.875,11.2126],[66.6625,68.8792,0.0],[66.65,68.8792,6.8915],[66.6354,68.8833,0.0],[66.6271,68.8833,5.5939],[66.6188,68.8875,0.0],[66.6062,68.8875,0.0],[66.5958,68.8917,0.0],[66.5917,68.8896,6.0881],[66.5833,68.8896,20.8672],[66.5625,68.8979,0.0],[66.5458,68.9,13.7867],[66.525,68.9063,0.0],[66.5062,68.9083,15.3328],[66.4979,68.9125,0.0],[66.4792,68.9146,0.0709],[66.4688,68.9187,0.0],[66.4521,68.9208,0.0],[66.4479,68.9229,0.0],[66.4396,68.9229,0.7487],[66.4328,68.9266,-0.1337],[66.425,68.9271,-0.1377],[66.4208,68.9292,0.2146],[66.3833,68.9292,12.7491],[66.3792,68.9313,0.0],[66.3729,68.9313,0.0],[66.3583,68.9354,0.0],[66.3438,68.9354,22.7761],[66.338,68.938,7.2774],[66.337,68.9432,0.0],[66.3292,68.9437,3.0931],[66.3214,68.9464,7.4587],[66.312,68.9537,0.0],[66.3005,68.9568,14.9139],[66.3016,68.9599,0.0],[66.2922,68.963,0.0584],[66.2922,68.9703,0.0205],[66.3037,68.9734,0.0],[66.3005,68.9766,0.2134],[66.3057,68.9776,0.0],[66.3057,68.9807,0.0],[66.2833,68.9896,0.0],[66.2583,68.9896,0.0],[66.2505,68.987,0.0],[66.2458,68.9833,-0.0625],[66.2396,68.9833,0.0],[66.2354,68.9812,0.0],[66.2208,68.9812,9.4829],[66.2193,68.9818,7.5792],[66.2203,68.9849,0.0],[66.2104,68.9854,18.361],[66.2037,68.9891,0.0],[66.1922,68.9922,2.0846],[66.1932,68.9953,0.0],[66.1818,68.9943,7.8434],[66.1833,69.0,0.0],[66.1813,69.0021,0.0],[66.1625,69.0021,5.3109],[66.1547,69.0047,10.0098],[66.1536,69.0078,0.0],[66.1354,69.0104,14.112],[66.1208,69.0167,0.7163],[66.1062,69.0167,3.2442],[66.1047,69.0172,-0.1013],[66.1057,69.0203,0.0],[66.0979,69.0229,-0.4926],[66.0833,69.0188,4.9325],[66.0818,69.0193,4.9325],[66.0828,69.0224,-0.0475],[66.0776,69.0234,0.0342],[66.0792,69.025,0.0317],[66.0891,69.0255,0.1114],[66.0875,69.0271,0.0],[66.0813,69.0271,0.0],[66.0771,69.0292,0.0],[66.0396,69.0292,0.0],[66.0333,69.0271,0.0177],[66.025,69.0313,0.0],[66.0062,69.0313,-0.0345],[66.0021,69.0333,0.0992],[65.9938,69.0333,0.0],[65.9875,69.0313,0.8155],[65.9792,69.0354,0.0],[65.9693,69.0359,-0.0636],[65.9745,69.038,0.0],[65.9745,69.0411,0.0],[65.9729,69.0417,0.0],[65.9604,69.0417,-0.1788],[65.9521,69.0458,0.0],[65.9208,69.0458,-0.3073],[65.9141,69.0495,-0.2559],[65.9026,69.0526,-0.7997],[65.9036,69.0557,0.0],[65.8896,69.0604,0.0],[65.8708,69.0604,0.0],[65.8667,69.0563,-0.3646],[65.8479,69.0563,0.0],[65.8417,69.0583,0.0],[65.825,69.0521,0.0],[65.8167,69.0521,0.0],[65.8125,69.05,0.0],[65.7937,69.05,0.0],[65.7859,69.0526,-0.8111],[65.787,69.0557,0.0],[65.7755,69.0589,0.1242],[65.7766,69.062,0.0],[65.7625,69.0667,0.0],[65.7396,69.0667,-1.5376],[65.7292,69.0708,0.0],[65.7229,69.0708,0.0],[65.7089,69.0755,-1.9317],[65.7141,69.0787,-1.9043],[65.7047,69.0828,-0.9599],[65.7161,69.0859,0.0],[65.7161,69.0891,0.0],[65.7068,69.0922,-0.628],[65.7042,69.0958,0.0],[65.6901,69.0964,0.0],[65.6917,69.0979,0.0],[65.7063,69.0979,0.0],[65.7167,69.0938,0.0],[65.7245,69.0964,-1.084],[65.7266,69.1036,-1.7723],[65.7188,69.1062,0.0],[65.7104,69.1062,0.0],[65.7063,69.1042,-1.2929],[65.6875,69.1042,0.0],[65.6813,69.1021,-0.8496],[65.6792,69.1042,-0.1117],[65.6807,69.1078,0.0],[65.6693,69.1088,0.0],[65.6682,69.112,-0.9404],[65.6651,69.1141,0.0],[65.675,69.1167,-0.9371],[65.6792,69.1146,0.0],[65.6917,69.1146,-0.9758],[65.7,69.1104,0.0],[65.725,69.1104,-1.243],[65.7292,69.1083,-0.3432],[65.7479,69.1083,0.0],[65.7542,69.1125,-0.8024],[65.7625,69.1125,0.0],[65.7667,69.1146,0.0],[65.7792,69.1146,-0.569],[65.787,69.1109,-2.0044],[65.763,69.1099,0.0],[65.763,69.1068,0.0],[65.7667,69.1042,-1.3117],[65.7662,69.1026,-0.7384],[65.7609,69.1005,-0.6786],[65.7662,69.0995,0.0],[65.7667,69.0979,0.0],[65.7641,69.0943,0.0],[65.7589,69.0922,0.0],[65.7708,69.0896,-1.763],[65.7708,69.0917,-1.6583],[65.775,69.0917,0.0],[65.7937,69.0979,0.0],[65.8099,69.0911,-0.8356],[65.8109,69.088,0.0],[65.8161,69.087,0.0],[65.8172,69.0839,-0.1901],[65.8375,69.0833,0.0],[65.8432,69.0807,-1.0866],[65.8458,69.0771,0.0],[65.8557,69.0797,0.0],[65.8505,69.0818,0.0],[65.85,69.0833,0.0],[65.8526,69.0911,-1.3136],[65.8625,69.0917,0.0],[65.8667,69.0938,-1.019],[65.8766,69.0932,0.0],[65.8755,69.0901,0.0],[65.8833,69.0875,-0.5685],[65.8932,69.088,-0.2779],[65.8995,69.0901,0.0],[65.9021,69.0938,0.0],[65.9333,69.0938,-1.2856],[65.9375,69.0917,0.0],[65.9437,69.0917,0.0],[65.9479,69.0938,-0.0667],[65.9542,69.0917,0.0],[65.9682,69.0922,0.1727],[65.9625,69.0958,0.0],[65.9437,69.0958,-0.0537],[65.9396,69.0979,1.3885],[65.9271,69.0979,0.1134],[65.9229,69.1,0.0],[65.9083,69.1,-0.1689],[65.8938,69.1042,0.0],[65.8875,69.1042,0.0],[65.8833,69.1062,0.0],[65.875,69.1062,-0.5271],[65.8667,69.1104,0.0],[65.8583,69.1104,0.0],[65.8542,69.1125,0.0],[65.8417,69.1125,0.0],[65.8375,69.1146,0.0],[65.8187,69.1146,0.5866],[65.8146,69.1167,0.0],[65.8021,69.1167,1.0263],[65.7979,69.1188,0.0],[65.7854,69.1188,0.0],[65.7813,69.1208,0.0],[65.7667,69.1208,-0.189],[65.7458,69.1271,0.0],[65.7333,69.1271,0.0],[65.7271,69.1292,0.0],[65.7208,69.1271,-0.3745],[65.7167,69.1292,0.0],[65.7104,69.1292,0.9098],[65.7063,69.1271,-1.0],[65.6979,69.1271,-1.0],[65.6937,69.1312,0.0],[65.6646,69.1333,-0.1707],[65.6604,69.1354,1.2465],[65.6479,69.1354,-0.2991],[65.6438,69.1375,0.0],[65.6354,69.1375,0.4544],[65.6312,69.1396,0.0],[65.6125,69.1396,-1.5],[65.6083,69.1417,1.4091],[65.5896,69.1438,1.52],[65.5854,69.1458,0.0],[65.5729,69.1458,-0.5512],[65.5687,69.1479,1.4362],[65.55,69.1479,0.4634],[65.5458,69.15,0.0],[65.5271,69.15,2.2697],[65.5125,69.1542,2.0442],[65.5042,69.1542,2.0996],[65.5,69.1563,0.0],[65.4875,69.1563,2.4486],[65.4729,69.1604,0.0],[65.4542,69.1604,2.1115],[65.45,69.1625,0.0],[65.4417,69.1625,1.8116],[65.4375,69.1646,0.0],[65.4187,69.1646,2.6961],[65.4146,69.1687,0.0],[65.4021,69.1687,5.3798],[65.3875,69.1729,3.9053],[65.3792,69.1729,5.0827],[65.3708,69.1771,0.0],[65.3625,69.1771,2.9727],[65.3583,69.1792,0.0],[65.3458,69.1792,6.8103],[65.3417,69.1813,0.0],[65.3229,69.1833,8.3934],[65.3021,69.1896,0.0],[65.2937,69.1896,7.1858],[65.2854,69.1937,0.0],[65.2771,69.1937,8.9647],[65.2688,69.1979,0.0],[65.2589,69.1984,4.2512],[65.2562,69.2021,0.0],[65.2438,69.2021,1.7484],[65.2229,69.2104,1.0196],[65.2151,69.2109,0.8571],[65.2141,69.2141,0.5852],[65.2063,69.2146,0.7606],[65.1896,69.2208,0.5674],[65.1833,69.2208,0.8322],[65.1625,69.2271,0.6515],[65.1542,69.2271,1.0103],[65.1526,69.2286,0.2973],[65.1578,69.2297,1.1041],[65.1589,69.2328,0.9171],[65.1641,69.2349,0.3355],[65.1563,69.2354,0.6589],[65.1318,69.2443,1.1503],[65.1328,69.2474,0.3578],[65.1109,69.2547,0.8044],[65.1099,69.2578,0.7103],[65.1057,69.2599,1.0157],[65.0958,69.2604,1.0616],[65.0917,69.2625,0.9218],[65.0792,69.2625,0.5399],[65.075,69.2646,0.9602],[65.0667,69.2625,0.0],[65.0604,69.2646,1.0552],[65.05,69.2604,0.8765],[65.0417,69.2604,0.0],[65.0375,69.2583,1.0172],[65.0125,69.2583,5.2481],[65.0083,69.2562,15.5055],[64.9417,69.2562,1.2776],[64.9213,69.2495,0.0],[64.9203,69.2464,1.4088],[64.9151,69.2453,0.0],[64.9141,69.2401,6.8827],[64.9089,69.2391,3.4602],[64.9068,69.2338,0.0],[64.912,69.2328,5.2589],[64.913,69.2276,0.0],[64.9161,69.2266,0.0],[64.9172,69.2214,0.0],[64.9432,69.212,0.0],[64.9437,69.2042,1.4638],[64.9422,69.2005,0.0],[64.9474,69.1984,2.7975],[64.9422,69.1974,0.0],[64.9411,69.1922,1.4208],[64.9359,69.1911,0.9055],[64.9333,69.1875,2.2313],[64.9047,69.1849,0.0],[64.9036,69.1818,1.0721],[64.8984,69.1807,0.0],[64.8974,69.1755,1.4206],[64.8672,69.1661,1.2606],[64.8662,69.163,0.0],[64.8521,69.1583,0.0],[64.8438,69.1583,0.0],[64.8396,69.1563,0.0],[64.825,69.1563,0.0],[64.8208,69.1583,0.0],[64.813,69.1557,0.5176],[64.812,69.1526,0.0],[64.8021,69.1521,0.0],[64.8005,69.1526,0.0],[64.7995,69.1599,0.0],[64.7979,69.1604,0.0],[64.7839,69.1557,0.0],[64.7745,69.1484,0.0],[64.7693,69.1474,0.0],[64.7682,69.1422,0.0],[64.763,69.1412,0.0],[64.7682,69.138,0.0],[64.763,69.137,0.0],[64.762,69.1339,0.0],[64.7568,69.1328,0.0],[64.7558,69.1297,0.0],[64.7577,69.1271,0.0],[64.7662,69.1266,0.0],[64.7601,69.1237,0.0],[64.7951,69.0754,1.7408],[64.7574,69.0475,18.9439],[64.6558,69.0315,20.3454],[64.5999,69.0082,18.726],[64.6264,68.9682,16.4942],[64.6839,68.9304,53.0015],[64.6464,68.9025,20.6299],[64.6799,68.8804,27.249],[64.7704,68.8655,41.7982],[64.8072,68.9015,100.2142],[64.8842,68.888,103.6362],[64.9943,68.8523,71.5349],[65.1181,68.807,24.7793],[65.2151,68.8178,46.2285],[65.3086,68.8156,63.718],[65.4439,68.7847,79.6897],[65.4425,68.7395,52.8325],[65.6174,68.704,73.1516],[65.572,68.6503,76.7472],[65.5868,68.6246,50.3984],[65.6778,68.577,68.0608],[65.7112,68.5304,103.7669],[65.6746,68.4784,100.5233],[65.593,68.4503,86.2106],[65.4862,68.4089,99.7082],[65.4847,68.3636,95.6328],[65.418,68.3177,118.9865],[65.3333,68.2846,90.5626],[65.3275,68.2425,136.153],[65.3344,68.207,140.1456],[65.3441,68.131,94.227],[65.3442,68.0695,97.5513],[65.3659,68.0082,117.8846],[65.3811,67.9744,122.2787],[65.4558,67.9524,145.6075],[65.5747,67.9065,427.6836],[65.6385,67.9151,359.8245],[65.7416,67.911,188.8544],[65.8815,67.9428,404.5762],[66.0702,67.9472,617.5539],[66.1284,67.8972,894.0551],[66.1132,67.8534,334.6679],[66.0257,67.8074,678.0926],[66.113,67.7673,633.8038],[66.2035,67.7483,317.7451],[66.2479,67.7079,656.5807],[66.2665,67.6706,369.013],[66.2038,67.646,572.4886],[66.1486,67.6473,784.3979],[66.0756,67.6616,1039.3854],[65.9818,67.6676,836.173],[65.9145,67.6542,498.0146],[65.8991,67.6265,260.1465],[65.8744,67.6133,704.9418],[65.8246,67.5951,486.6238],[65.8891,67.5793,213.51],[66.0079,67.5784,910.5116],[66.0638,67.5608,631.6874],[66.1515,67.4962,516.5047],[66.1368,67.4523,662.632],[66.0463,67.4096,583.9954],[65.9175,67.3796,457.1947],[65.8129,67.3708,339.8731],[65.7505,67.3622,473.2559],[65.7111,67.3213,441.2488],[65.6283,67.3044,607.8358],[65.5849,67.2666,703.8926],[65.4459,67.2216,636.066],[65.3598,67.1996,770.2581],[65.3187,67.1911,1029.1023],[65.223,67.1381,601.0201],[65.2162,67.1201,744.3668],[65.1848,67.0971,543.4778],[65.0542,67.0696,221.4966],[65.1205,66.9304,613.8074],[65.1189,66.9011,901.0917],[65.1732,66.8106,202.4125],[65.2044,66.7337,174.9968],[65.3069,66.6328,114.6796],[65.4177,66.5423,43.1772],[65.7789,66.4256,56.5403],[65.9791,66.3342,12.2825],[66.0707,66.2999,4.4524],[66.1682,66.2573,7.0513],[66.2239,66.1844,4.5004],[66.2474,66.1254,4.6146],[66.4043,66.0552,15.857],[66.5539,66.0222,20.4561],[66.634,65.9948,33.2588],[66.6663,65.9495,21.4484],[66.7322,65.8981,39.1113],[66.8637,65.8852,39.9596],[66.965,65.8605,33.7851],[67.0638,65.787,32.321],[67.109,65.7427,27.6947],[67.1183,65.7123,33.6881],[67.1791,65.685,35.6198],[67.313,65.6768,40.3752],[67.4028,65.6579,59.4863],[67.4694,65.6256,64.2452],[67.5703,65.6153,51.2694],[67.6455,65.6015,46.6324],[67.6795,65.5611,36.4647],[67.6655,65.5092,60.1547],[67.6421,65.4668,66.9096],[67.6217,65.4436,56.7499],[67.6142,65.4025,49.8909],[67.849,65.3148,67.7186],[67.9323,65.2739,81.0391],[67.9996,65.2379,97.0109],[68.1618,65.2462,78.5176],[68.271,65.2636,100.5745],[68.3458,65.2828,105.1404],[68.4133,65.2581,99.8997],[68.5313,65.2,88.2204],[68.5076,65.1332,74.2095],[68.4977,65.0652,57.636],[68.4955,65.003,65.8773],[68.5676,64.9519,66.6277],[68.623,64.9043,50.7284],[68.6569,64.8142,70.7387],[68.6247,64.7509,67.1189],[68.6104,64.6627,87.3985],[68.5856,64.6194,97.427],[68.5784,64.5994,93.6902],[68.5404,64.5891,104.5168],[68.4496,64.6162,107.3962],[68.3962,64.6363,120.498],[68.35,64.6405,121.5805],[68.3341,64.6298,125.7796],[68.3551,64.575,111.0531],[68.4063,64.5309,105.3059],[68.4172,64.4882,82.1271],[68.5091,64.4461,94.5186],[68.6503,64.4404,92.5875],[68.78,64.4321,104.3928],[68.9519,64.4023,102.9405],[69.1201,64.4256,96.6801],[69.2543,64.4291,97.7725],[69.3409,64.4142,97.7004],[69.4151,64.3733,98.6616],[69.4673,64.3531,103.2728],[69.5794,64.3609,105.0634],[69.7295,64.3665,106.5012],[69.83,64.3595,121.0996],[69.8775,64.3019,133.2497]],
[[66.664,66.5582,21.6272],[66.6499,66.5346,16.1464],[66.6002,66.5304,20.7823],[66.5555,66.5436,5.1436],[66.5769,66.5776,47.8504],[66.6211,66.5813,43.7977],[66.6699,66.5682,29.3596],[66.664,66.5582,21.6272]]],
[[[67.4266,68.6401,0.0],[67.4266,68.6412,0.0],[67.4234,68.6412,0.0],[67.4234,68.6401,0.0],[67.4266,68.6401,0.0]]],
[[[67.1375,68.7937,0.0],[67.1412,68.7953,0.0],[67.1292,68.8,0.0],[67.1193,68.7974,0.0],[67.1208,68.7958,0.0],[67.1375,68.7937,0.0]]],
[[[66.0292,69.0917,0.4938],[66.0188,69.0917,0.8124],[66.0146,69.0938,0.0],[65.9896,69.0938,0.0],[65.9729,69.0875,-0.6749],[65.9646,69.0875,0.0],[65.9479,69.0813,0.0],[65.9417,69.0833,-0.3111],[65.9354,69.0833,0.0],[65.9313,69.0854,-1.3578],[65.9063,69.0854,-0.6515],[65.9026,69.0828,-1.0535],[65.9021,69.0771,-0.4502],[65.9026,69.0755,0.0],[65.9104,69.075,-0.5927],[65.9146,69.0729,0.0],[65.9271,69.0729,0.0],[65.9313,69.0708,0.0],[65.9396,69.0708,-2.0],[65.9479,69.0667,-0.0828],[65.9667,69.0667,-0.0853],[65.9708,69.0646,0.0],[65.9807,69.0651,0.0],[65.9828,69.0724,0.0],[65.9609,69.0797,0.0],[65.9609,69.0828,0.0],[65.9708,69.0833,0.0],[65.9891,69.0766,-0.2616],[65.9901,69.0734,0.0],[65.9979,69.0729,-0.4861],[66.0021,69.0708,0.0],[66.0162,69.0714,0.0],[66.0146,69.0729,-0.5568],[66.0083,69.0729,-0.4609],[66.0005,69.0755,-0.7346],[66.0021,69.0771,-0.0901],[66.0104,69.0771,-0.4928],[66.0208,69.0729,-0.3416],[66.0333,69.0729,-0.1481],[66.0375,69.0708,0.0],[66.0437,69.0708,-0.1539],[66.0479,69.0729,0.0],[66.0625,69.0729,0.1056],[66.0667,69.0708,0.0],[66.0792,69.0708,0.4465],[66.0833,69.0687,0.0],[66.1021,69.0687,0.2047],[66.1062,69.0667,0.0],[66.1162,69.0672,0.0239],[66.1188,69.0708,0.0],[66.1312,69.0708,0.5155],[66.1354,69.0687,-0.0748],[66.1604,69.0687,0.4361],[66.1787,69.062,1.2438],[66.1797,69.0589,0.0],[66.1839,69.0568,0.0],[66.2161,69.0453,1.2452],[66.2151,69.0422,0.0],[66.225,69.0417,0.4444],[66.2333,69.0375,0.0866],[66.2432,69.037,0.5971],[66.2474,69.0349,0.2783],[66.2484,69.0318,0.0],[66.2562,69.0313,-0.2087],[66.2641,69.0286,0.0],[66.2682,69.0266,0.683],[66.2693,69.0234,0.0],[66.2771,69.0208,0.0],[66.2849,69.0203,0.4447],[66.2859,69.0172,0.0],[66.2937,69.0167,0.7955],[66.2979,69.0146,-0.1229],[66.3063,69.0146,0.4353],[66.3078,69.0141,0.7607],[66.3068,69.0109,0.0],[66.3083,69.0104,0.0],[66.3229,69.0104,0.5326],[66.3245,69.0099,0.4399],[66.3234,69.0068,0.0],[66.325,69.0062,0.0],[66.3604,69.0042,1.3917],[66.3682,69.0016,1.7131],[66.3693,68.9984,0.0],[66.3771,68.9979,0.0],[66.3849,68.9953,1.188],[66.3839,68.9922,0.0],[66.3938,68.9917,0.4503],[66.4005,68.988,0.0],[66.412,68.9849,0.7535],[66.4109,68.9818,0.0],[66.4161,68.9807,0.0],[66.4203,68.9786,0.0],[66.4213,68.9755,0.0],[66.4307,68.9724,1.553],[66.4318,68.9693,0.0],[66.4411,68.9661,0.9571],[66.4422,68.963,0.0],[66.45,68.9625,0.5],[66.4578,68.9599,1.5536],[66.4682,68.9557,1.0935],[66.4708,68.9521,0.6969],[66.4771,68.9521,1.1069],[66.4875,68.9479,1.0414],[66.4938,68.9479,1.1424],[66.5016,68.9453,1.267],[66.4964,68.9422,1.6167],[66.5036,68.937,1.2526],[66.5047,68.9339,0.7662],[66.5099,68.9328,-0.5],[66.5083,68.9292,0.7887],[66.5089,68.9255,0.0],[66.5271,68.9187,-0.1761],[66.5411,68.9182,0.7152],[66.5453,68.9161,0.0],[66.5463,68.913,0.0],[66.5542,68.9104,0.4348],[66.5578,68.913,0.0],[66.5578,68.9182,0.0],[66.5547,68.9193,0.0],[66.5537,68.9224,0.0],[66.5422,68.9234,1.1544],[66.5432,68.9287,0.0],[66.5339,68.9297,0.541],[66.5328,68.9349,0.0],[66.5172,68.9401,1.2005],[66.5182,68.9432,0.0],[66.4964,68.9505,0.8371],[66.4974,68.9537,0.0],[66.4547,68.9693,1.6532],[66.4495,68.9766,0.0],[66.4339,68.9818,0.8116],[66.4349,68.9849,0.0],[66.4255,68.988,0.6256],[66.4245,68.9912,0.502],[66.4193,68.9922,0.9423],[66.4182,68.9953,0.0],[66.4151,68.9964,0.6588],[66.4141,68.9995,0.0],[66.4099,69.0016,0.0],[66.4,69.0021,0.9577],[66.3917,69.0062,0.0],[66.3833,69.0062,1.7901],[66.375,69.0104,0.0],[66.3562,69.0125,0.5],[66.3536,69.0162,0.0],[66.3443,69.0172,1.5656],[66.3146,69.0292,0.0],[66.3068,69.0297,0.0],[66.3057,69.0328,0.0],[66.2979,69.0354,0.0],[66.2901,69.0359,1.2675],[66.2891,69.0391,0.0],[66.2849,69.0411,0.0],[66.2734,69.0443,0.5748],[66.2745,69.0474,0.0],[66.2526,69.0547,0.0],[66.237,69.062,0.0],[66.2292,69.0646,0.0],[66.2229,69.0646,0.5096],[66.2125,69.0687,0.0],[66.1937,69.0708,1.2876],[66.1854,69.075,0.0],[66.1438,69.0771,1.2001],[66.1229,69.0833,0.0],[66.1104,69.0833,0.9919],[66.1062,69.0875,0.0],[66.0938,69.0875,1.045],[66.0896,69.0896,0.0],[66.0813,69.0896,0.0],[66.0771,69.0917,0.0],[66.0708,69.0896,1.0111],[66.0667,69.0917,0.0],[66.0292,69.0917,0.4938]]],
[[[68.3901,66.7057,2.3454],[68.3859,66.7026,3.2121],[68.3953,66.7026,2.7446],[68.3953,66.7057,2.4128],[68.3901,66.7057,2.3454]]],
[[[68.4396,66.7104,3.4652],[68.4396,66.7083,3.3964],[68.4432,66.7089,2.4083],[68.4432,66.7099,2.3385],[68.4396,66.7104,3.4652]]],
[[[68.4542,66.7458,2.7698],[68.45,66.7458,3.355],[68.4484,66.7443,2.745],[68.4578,66.7443,3.4055],[68.4542,66.7458,2.7698]]],
[[[68.4537,68.2557,0.0],[68.45,68.2562,0.0],[68.4484,68.2547,0.0],[68.4521,68.2542,0.0],[68.4537,68.2557,0.0]]],
[[[69.3771,66.7458,1.7263],[69.3755,66.7422,0.0],[69.3771,66.7417,0.0],[69.3833,66.7417,0.0],[69.3875,66.7438,3.3992],[69.4,66.7438,2.4293],[69.4016,66.7453,2.2794],[69.3984,66.7474,2.4689],[69.4167,66.7479,2.0967],[69.4203,66.7516,2.022],[69.3854,66.7521,0.0],[69.3776,66.7495,0.0],[69.3771,66.7458,1.7263]]],
[[[69.4708,66.7958,2.1826],[69.4521,66.7979,0.0],[69.4479,66.7958,2.5828],[69.4396,66.7958,0.0],[69.4328,66.7922,0.0],[69.4213,66.7891,0.0],[69.4187,66.7854,2.1577],[69.4104,66.7854,0.0],[69.4063,66.7833,0.0],[69.3938,66.7833,0.0],[69.3792,66.7792,3.0224],[69.3729,66.7813,0.0],[69.3688,66.7792,1.8268],[69.3187,66.7792,0.0],[69.3146,66.7771,2.9829],[69.2875,66.7771,0.9985],[69.2813,66.7708,0.0],[69.2771,66.775,2.3615],[69.2667,66.775,3.1211],[69.2521,66.7792,2.3274],[69.2292,66.7792,1.8322],[69.225,66.7771,1.9651],[69.1979,66.7771,2.2594],[69.1964,66.7786,2.5039],[69.2016,66.7797,2.0509],[69.2026,66.7849,2.5633],[69.2167,66.7896,2.4429],[69.2208,66.7854,2.0804],[69.2271,66.7854,2.9165],[69.2312,66.7833,2.5724],[69.2417,66.7833,2.6803],[69.2458,66.7813,2.9527],[69.2583,66.7813,2.0354],[69.2609,66.7849,2.316],[69.2688,66.7875,2.54],[69.275,66.7875,2.7193],[69.2854,66.7833,0.0],[69.2932,66.7859,0.0],[69.288,66.788,2.224],[69.2901,66.7911,2.5332],[69.2953,66.7922,2.2761],[69.2953,66.7953,2.5536],[69.2911,66.7974,0.0],[69.2708,66.7958,3.0783],[69.2667,66.7979,0.0],[69.225,66.7979,3.4274],[69.2208,66.7958,2.7668],[69.1813,66.7937,0.0],[69.1771,66.7917,2.6528],[69.1583,66.7896,0.0],[69.1568,66.788,0.0],[69.1599,66.787,0.0],[69.1609,66.7839,0.0],[69.1703,66.7828,0.0],[69.1693,66.7797,0.0],[69.1771,66.7792,0.0],[69.1849,66.7766,2.3175],[69.1839,66.7734,0.0],[69.1891,66.7724,0.0],[69.2016,66.7662,1.7534],[69.2026,66.763,0.0],[69.2068,66.7609,2.4102],[69.2146,66.7583,2.7935],[69.2172,66.762,2.8048],[69.2224,66.762,2.7353],[69.2495,66.7495,3.072],[69.2505,66.7464,0.0],[69.2583,66.7458,3.0037],[69.2641,66.7432,4.1522],[69.2693,66.7359,0.0],[69.2766,66.7328,0.0],[69.2776,66.7297,0.0],[69.2833,66.7271,0.0],[69.2896,66.7271,2.7656],[69.2958,66.725,0.0],[69.3,66.7271,3.0404],[69.3167,66.7271,2.3328],[69.3208,66.7292,2.9315],[69.3349,66.7297,1.7222],[69.3349,66.7328,2.501],[69.3333,66.7333,2.1481],[69.3229,66.7333,2.3927],[69.3187,66.7312,2.8512],[69.3125,66.7312,2.5837],[69.3083,66.7333,2.1621],[69.3005,66.7338,2.4453],[69.3057,66.7359,2.1753],[69.3068,66.7412,1.9477],[69.3161,66.7422,1.8432],[69.3193,66.7453,1.9983],[69.3271,66.7479,1.8997],[69.3375,66.7479,2.658],[69.3432,66.7453,1.8395],[69.3443,66.7422,0.0],[69.3484,66.7401,0.0],[69.3562,66.7396,2.088],[69.3604,66.7438,1.8572],[69.3568,66.7464,2.0643],[69.3568,66.7495,2.2409],[69.3646,66.7521,1.1436],[69.3708,66.75,1.2611],[69.3854,66.7542,0.0],[69.4057,66.7547,0.0],[69.4005,66.7568,2.2718],[69.4021,66.7583,1.5014],[69.4104,66.7583,2.6523],[69.4146,66.7562,1.8868],[69.4521,66.7562,1.0935],[69.4599,66.7589,1.437],[69.4661,66.763,2.4263],[69.4646,66.7646,1.2487],[69.4505,66.7651,2.838],[69.4464,66.7672,1.88],[69.4474,66.7724,1.5279],[69.438,66.7734,2.9776],[69.4396,66.775,1.7916],[69.4458,66.775,1.6739],[69.4521,66.7771,2.1284],[69.4578,66.7745,1.522],[69.4589,66.7714,1.8542],[69.463,66.7693,1.6116],[69.4724,66.7682,1.7152],[69.4734,66.7651,1.7063],[69.4854,66.7646,1.3838],[69.4896,66.7688,1.6728],[69.5083,66.7688,1.1022],[69.5162,66.7714,0.0],[69.5172,66.7745,1.7762],[69.5349,66.7797,0.0],[69.5297,66.7818,2.358],[69.5307,66.787,0.0],[69.525,66.7896,0.0],[69.5188,66.7896,0.0],[69.5146,66.7917,0.0],[69.5021,66.7917,2.4391],[69.4938,66.7958,0.0],[69.4896,66.7937,2.3728],[69.4771,66.7937,2.0174],[69.4708,66.7958,2.1826]]],
[[[69.5687,66.7813,0.0],[69.5734,66.7827,1.7822],[69.5578,66.787,2.5921],[69.5568,66.7849,0.0],[69.5583,66.7833,0.0],[69.5646,66.7833,1.1761],[69.5687,66.7813,0.0]]],
[[[69.3812,66.8042,2.3456],[69.3776,66.8026,2.6585],[69.387,66.8026,2.3728],[69.3854,66.8042,2.5183],[69.3812,66.8042,2.3456]]],
[[[68.7349,66.7776,1.4978],[68.7349,66.7786,2.6747],[68.7318,66.7786,2.7799],[68.7318,66.7776,2.4982],[68.7349,66.7776,1.4978]]],
[[[69.025,66.7813,0.0],[69.0214,66.7807,0.0],[69.0214,66.7776,0.0],[69.0266,66.7776,0.0],[69.0266,66.7807,0.0],[69.025,66.7813,0.0]]],
[[[69.2896,66.7833,2.2813],[69.2859,66.7797,1.6401],[69.2896,66.7792,2.2919],[69.2974,66.7818,1.9233],[69.2958,66.7833,2.0136],[69.2896,66.7833,2.2813]]],
[[[68.8604,66.7854,2.7685],[68.8588,66.7849,2.0465],[68.8583,66.7813,3.5069],[68.8604,66.7792,0.0],[68.8771,66.7792,2.3352],[68.8812,66.7813,3.6656],[68.8891,66.7818,3.1872],[68.8833,66.7854,2.1879],[68.8604,66.7854,2.7685]]],
[[[69.0453,66.8068,2.483],[69.0437,66.8021,2.3049],[69.0495,66.8026,1.8942],[69.0599,66.8078,0.0],[69.0479,66.8083,2.3422],[69.0453,66.8068,2.483]]],
[[[68.4578,68.2526,0.0],[68.4578,68.2536,0.0],[68.4547,68.2536,0.0],[68.4547,68.2526,0.0],[68.4578,68.2526,0.0]]],
[[[68.5146,68.2542,0.0],[68.5162,68.2557,0.0],[68.5104,68.2562,0.0],[68.5104,68.2542,0.0],[68.5146,68.2542,0.0]]],
[[[68.2037,68.2682,0.0],[68.2005,68.2682,0.0],[68.2005,68.2672,0.0134],[68.2037,68.2672,0.0],[68.2037,68.2682,0.0]]],
[[[68.2557,68.3328,0.0],[68.2529,68.3329,0.0],[68.2526,68.3318,0.0],[68.2557,68.3318,0.0],[68.2557,68.3328,0.0]]],
[[[68.35,68.3875,0.0],[68.3474,68.3912,0.0],[68.3396,68.3938,0.0],[68.3271,68.3938,0.0],[68.3255,68.3932,0.0],[68.3229,68.3854,0.0],[68.325,68.3833,0.0],[68.3391,68.3828,0.0],[68.3417,68.3792,0.0],[68.3495,68.3818,0.0],[68.3464,68.3849,0.0],[68.3516,68.3859,0.0],[68.35,68.3875,0.0]]],
[[[65.9943,69.0682,0.0],[65.9922,69.0641,-0.3303],[65.9938,69.0625,-0.3633],[66.0021,69.0625,0.0],[66.0162,69.0672,-0.0312],[66.0146,69.0687,0.0],[65.9943,69.0682,0.0]]],
[[[65.8703,69.0672,-0.5623],[65.8688,69.0687,-0.2468],[65.8547,69.0703,0.0],[65.8604,69.0667,-0.7989],[65.8703,69.0672,-0.5623]]],
[[[65.8536,69.0724,-1.0338],[65.85,69.0729,-0.5279],[65.8484,69.0714,-1.0338],[65.8521,69.0708,-0.4248],[65.8536,69.0724,-1.0338]]],
[[[65.8833,69.0833,-0.5308],[65.8797,69.0828,-1.3845],[65.8797,69.0818,-0.8654],[65.8849,69.0818,0.0],[65.8833,69.0833,-0.5308]]],
[[[65.8729,69.0854,-1.7423],[65.8693,69.0839,-0.0794],[65.8786,69.0839,-0.8946],[65.8771,69.0854,-1.335],[65.8729,69.0854,-1.7423]]],
[[[65.8625,69.0875,0.0],[65.8583,69.0875,0.0],[65.8568,69.0859,0.0],[65.8682,69.0859,-1.2733],[65.8667,69.0875,0.0],[65.8625,69.0875,0.0]]],
[[[65.7729,69.0875,-1.6874],[65.7745,69.0891,-1.741],[65.7708,69.0896,-1.763],[65.7708,69.0875,-1.5528],[65.7729,69.0875,-1.6874]]],
[[[65.2099,69.2245,0.0],[65.2005,69.2255,0.0],[65.1979,69.2292,0.0],[65.188,69.2286,0.4018],[65.1932,69.2266,0.9344],[65.1943,69.2234,0.2612],[65.2,69.2208,0.2251],[65.2099,69.2214,0.0],[65.2099,69.2245,0.0]]],
[[[65.1875,69.2354,0.0],[65.1792,69.2354,1.2455],[65.1708,69.2396,0.0],[65.1672,69.2391,0.6826],[65.1703,69.237,0.6036],[65.1713,69.2338,0.1456],[65.1854,69.2292,0.7208],[65.1891,69.2318,0.0],[65.1891,69.2349,0.0],[65.1875,69.2354,0.0]]],
[[[65.1661,69.2432,0.0],[65.1625,69.2438,0.0],[65.1609,69.2422,0.5414],[65.1646,69.2417,0.0],[65.1661,69.2432,0.0]]],
[[[65.1557,69.2474,0.0],[65.1521,69.2479,0.0],[65.1505,69.2464,0.8174],[65.1542,69.2458,1.0518],[65.1557,69.2474,0.0]]]]}}