{"type":"Feature","properties":{"GID_2":"RUS.56.9_1","GID_0":"RUS","country":"Russia","GID_1":"RUS.56_1","province":"Primor'ye","NL_NAME_1":"Приморскийкрай","county":"Dal'nerechenskgorsovet","VARNAME_2":"Dal'nerechenski","NL_NAME_2":"Дальнереченск(горсовет)","TYPE_2":"Gorsovet","ENGTYPE_2":"District","CC_2":"R66002","HASC_2":"RU.PR.DL","name":"Dal'nerechenskgorsovet.county"},
"geometry":{"type": "MultiPolygon","coordinates": [[[[133.9899,45.9851,75.4631],[133.8503,45.9675,62.1035],[133.7675,45.881,62.5713],[133.7623,45.8284,74.6714],[133.9345,45.8078,113.4791],[133.9844,45.8421,132.431],[134.0206,45.9019,70.9648],[133.9672,45.9187,65.6237],[133.9899,45.9851,75.4631]]]]}}