{"type":"Feature","properties":{"GID_3":"RUS.2.4.1_1","GID_0":"RUS","country":"Russia","GID_1":"RUS.2_1","province":"Altay","NL_NAME_1":"Алтайскийкрай","GID_2":"RUS.2.4_1","county":"Baevskiyrayon","NL_NAME_2":"Баевскийрайон","city":"NA","VARNAME_3":"NA","NL_NAME_3":"NA","TYPE_3":"NA","ENGTYPE_3":"NA","CC_3":"NA","HASC_3":"NA","name":"N_A.city"},
"geometry":{"type": "MultiPolygon","coordinates": [[[[80.601,53.0446,182.523],[80.6827,53.0648,189.7081],[80.7495,53.0899,189.5847],[80.784,53.0874,176.2551],[80.8171,53.0687,139.5],[80.8702,53.0894,140.9559],[80.9137,53.1102,140.0],[81.013,53.1275,140.7994],[81.049,53.0838,141.8945],[81.0751,53.0373,142.2454],[81.1729,53.0476,146.0526],[81.2642,53.0775,157.5286],[81.2431,53.1013,158.3264],[81.2262,53.1389,161.1068],[81.1961,53.1969,143.4463],[81.1238,53.2307,147.7979],[81.0617,53.2823,137.9633],[81.0799,53.3034,135.9953],[81.0098,53.3545,143.5227],[80.9287,53.3697,136.3253],[80.81,53.3802,142.9291],[80.7971,53.4375,159.9548],[80.7697,53.479,165.8896],[80.6348,53.5263,204.4036],[80.5902,53.56,233.0093],[80.5996,53.5418,213.7984],[80.4518,53.529,228.3016],[80.3863,53.5126,255.0118],[80.3431,53.4936,252.8754],[80.3407,53.4676,223.9241],[80.2892,53.4461,206.6377],[80.2072,53.4617,230.7969],[80.0742,53.4547,231.7279],[79.9936,53.4401,218.5321],[80.0178,53.4246,221.2197],[80.0476,53.4168,208.5635],[80.0876,53.3804,172.1732],[80.1001,53.3476,153.1058],[80.1296,53.334,152.1792],[80.1797,53.3241,151.5141],[80.1963,53.3015,147.5131],[80.2076,53.2799,159.0577],[80.1709,53.2704,153.4722],[80.1608,53.2563,152.8273],[80.183,53.2167,149.0945],[80.2281,53.1699,153.1637],[80.2471,53.1733,146.5106],[80.2851,53.1707,144.5246],[80.322,53.1395,129.894],[80.5083,53.0801,145.7026],[80.601,53.0446,182.523]]]]}}