{"type":"Feature","properties":{"featurecla":"River","scalerank":6,"rivernum":319,"dissolve":"319River","name":"Kamchatka","name_alt":null,"note":null,"min_zoom":5.0,"strokeweig":0.2,"name_en":"Kamchatka","min_label":6.0},
"geometry":{"type": "LineString","coordinates": [[157.63232421875,54.290301824994117,1173.281],[157.64736328125002,54.165790106244117,634.9618],[157.65537109375003,54.13934967655662,724.2298],[157.66904296875003,54.110614324994117,536.5939],[157.68857421875003,54.08746979374412,539.4541],[157.71396484375003,54.07831452030662,483.3556],[157.765869140625,54.08551666874412,738.4855],[157.78017578125002,54.083856512494116,691.3547],[157.80712890625,54.076532293744116,557.2729],[157.82099609375,54.07587311405662,460.3291],[157.85117187500003,54.08832428593162,430.4652],[157.86884765625,54.112323309369117,401.326],[157.88251953125,54.14057037968162,630.4089],[157.900390625,54.165790106244117,647.2871],[157.91845703125,54.17731354374412,353.3618],[157.98232421875002,54.194110418744117,325.2612]]}}