{"type":"Feature","properties":{"featurecla":"River","scalerank":6,"rivernum":319,"dissolve":"319River","name":"Kamchatka2","name_alt":null,"note":null,"min_zoom":5.0,"strokeweig":0.25,"name_en":"Kamchatka","min_label":6.0},
"geometry":{"type": "LineString","coordinates": [[159.3595703125,55.365985418744117,87.7179],[159.3517578125,55.369159246869117,95.0687],[159.34267578125002,55.37482330936912,87.2183],[159.3349609375,55.38202545780662,146.6156],[159.33164062500003,55.38983795780662,149.9149],[159.33740234375,55.39887116093162,149.6265],[159.350830078125,55.40058014530662,145.1573],[159.36572265625,55.40021393436912,137.9943],[159.376708984375,55.40350983280662,98.394],[159.41025390625003,55.43585846561912,126.712],[159.42802734375005,55.44476959843162,128.3649],[159.4796875,55.45307037968162,73.8015],[159.52978515625,55.473993231244116,113.7692],[159.55820312500003,55.475848699994117,118.8006],[159.61328125,55.457049871869117,75.7683],[159.641796875,55.45392487186912,68.4786],[159.66806640625003,55.468377996869116,60.5753],[159.66269531250003,55.473260809369116,70.4242],[159.653076171875,55.48480866093162,68.1149],[159.647705078125,55.48944733280662,62.9536],[159.65810546875002,55.49359772343162,64.0457],[159.659423828125,55.498309637494117,70.4708],[159.6564453125,55.50446198124412,69.4844],[159.65439453125003,55.513055731244116,59.1723],[159.6552734375,55.52582428593162,55.5343],[159.65888671875,55.529803778119117,55.8444],[159.667236328125,55.53143952030662,59.496],[159.68173828125003,55.53729889530662,62.4167],[159.69873046875,55.55036041874412,60.1072],[159.72431640625,55.579461981244116,53.1965],[159.74384765625,55.591913153119116,58.1651],[159.708984375,55.61298248905662,57.4672],[159.71591796875003,55.61554596561912,56.0707],[159.72998046875,55.62396881718162,51.95],[159.73642578125003,55.62665436405662,56.7832],[159.71914062500002,55.63947174686912,51.0913],[159.708984375,55.658465887494117,49.1409],[159.709375,55.67853424686912,45.7183],[159.723388671875,55.69489166874412,45.4105],[159.70810546875003,55.701678778119117,46.1358],[159.713623046875,55.71381256718162,47.2592],[159.72724609375,55.72846100468162,45.5689],[159.73642578125003,55.74274323124412,49.1065],[159.73603515625,55.751971746869117,44.5131],[159.732666015625,55.76080963749412,47.0449],[159.723388671875,55.776874090619117,41.3736],[159.724609375,55.778680731244116,41.1601],[159.7275390625,55.78204987186912,42.1706],[159.72998046875,55.786151434369117,41.3293],[159.72958984375003,55.79047272343162,41.5684],[159.724609375,55.79450104374412,39.3265],[159.71826171875,55.795672918744117,39.1762],[159.71240234375,55.796014715619116,42.8502],[159.708984375,55.79730866093162,40.2145],[159.70595703125002,55.80451080936912,41.4737],[159.70400390625002,55.81195709843162,44.5635],[159.70087890625,55.81903717655662,37.765],[159.69541015625003,55.82526276249412,44.0215],[159.68642578125002,55.83026764530662,41.8133],[159.669189453125,55.834833074994116,40.3943],[159.66123046875003,55.83832428593162,39.5299],[159.627197265625,55.859881903119117,38.4344],[159.610107421875,55.87335846561912,38.6137],[159.59912109375,55.886737371869117,47.8193],[159.6396484375,55.88153717655662,37.37],[159.655029296875,55.88678619999412,39.6448],[159.66123046875003,55.90375397343162,36.0008],[159.6564453125,55.91681549686912,35.7904],[159.646875,55.93158600468162,35.4278],[159.64013671875,55.94611237186912,36.968],[159.64423828125,55.95868561405662,34.8756],[159.659912109375,55.96930573124412,34.5303],[159.69179687500002,55.98065827030662,33.4658],[159.708984375,55.989764715619117,34.2506],[159.71875,56.005389715619117,35.3237],[159.723388671875,56.01019928593162,31.6739],[159.74306640625002,56.02191803593162,37.1606],[159.76308593750002,56.03070709843162,32.518],[159.76708984375,56.054071356244116,31.3587],[159.838623046875,56.06940338749412,31.8245],[159.84248046875,56.08161041874412,29.5494],[159.82509765625002,56.105731512494117,27.9782],[159.8388671875,56.11945221561912,29.9196],[159.865478515625,56.132196356244116,29.8789],[159.88720703125,56.15363190311912,27.5024],[159.88876953125003,56.164325262494117,29.3393],[159.8875,56.175311590619117,27.9441],[159.8875,56.185663153119116,28.2261],[159.89404296875,56.194598699994117,26.9106],[159.90380859375,56.19245026249412,26.2408],[159.92714843750002,56.192254949994116,25.8457],[159.94667968750002,56.197772528119117,25.05],[159.945556640625,56.21259186405662,25.7066],[159.93710937500003,56.238153387494116,24.3576],[159.955322265625,56.254754949994116,29.2124],[160.0537109375,56.28961823124412,24.4329],[160.13095703125003,56.30304596561912,27.2427],[160.16806640625003,56.315301824994116,22.4589],[160.18300781250002,56.317401434369117,25.1935],[160.20380859375,56.317645574994117,21.2052],[160.22255859375002,56.320086981244117,22.3312],[160.23046875,56.328973699994116,18.9381],[160.22841796875002,56.354510809369117,22.3752],[160.23388671875,56.36347077030662,21.7438],[160.2509765625,56.37335846561912,21.0877],[160.25830078125,56.37348053593162,20.1444],[160.265625,56.369989324994116,22.0856],[160.27392578125,56.368182684369117,24.5739],[160.28515625,56.37335846561912,27.6964],[160.28603515625002,56.37775299686912,25.3785],[160.278076171875,56.38849518436912,17.5],[160.2783203125,56.393817449994117,21.118],[160.28769531250003,56.403924871869116,20.2039],[160.30244140625,56.41571686405662,25.7165],[160.31875,56.424188543744116,22.1989],[160.33251953125,56.42450592655662,21.5131],[160.34521484375,56.41913483280662,20.2638],[160.35546875,56.41754791874412,20.8206],[160.365625,56.42121002811912,20.136],[160.376953125,56.431415106244117,21.5556],[160.38935546875,56.434100653119117,20.4951],[160.435302734375,56.408075262494116,21.3053],[160.45634765625005,56.406512762494117,17.8271],[160.497802734375,56.41364166874412,15.597],[160.517822265625,56.414325262494117,14.0],[160.56708984375,56.402362371869117,14.5125],[160.69619140625002,56.388934637494117,13.946],[160.730224609375,56.38019440311912,17.1211],[160.82871093750003,56.33808014530662,27.4298],[160.86083984375,56.33234284061912,23.0517],[161.00722656250002,56.33917877811912,12.7959],[161.0400390625,56.334344793744116,19.4206],[161.05751953125002,56.32892487186912,14.4614],[161.0693359375,56.322137762494116,11.6974],[161.08251953125,56.31696198124412,14.2038],[161.28876953125,56.304461981244117,8.2482],[161.30625,56.30683014530662,9.6656],[161.37841796875,56.33759186405662,9.6361],[161.38818359375,56.34003327030662,9.536],[161.47744140625002,56.311883856244116,7.8212],[161.496826171875,56.30902741093162,16.7325],[161.548828125,56.311883856244116,15.1422],[161.56210937500003,56.30975983280662,9.3603],[161.58925781250002,56.30036041874412,9.959],[161.63427734375,56.29669830936912,9.1789],[161.6474609375,56.293475653119117,123.5943],[161.69189453125,56.275165106244117,109.9068],[161.718505859375,56.27008698124412,477.0046],[161.77841796875003,56.27094147343162,67.0848]]}}