{"type":"Feature","properties":{"featurecla":"River","scalerank":9,"rivernum":1117,"dissolve":"1117River","name":"Penzhina2","name_alt":null,"note":null,"min_zoom":7.1,"strokeweig":0.2,"name_en":"Penzhina","min_label":8.1},
"geometry":{"type": "LineString","coordinates": [[164.478515625,64.15973541874412,307.5622],[164.56591796875,64.14411041874412,292.8273],[164.7490234375,64.13983795780662,430.146],[164.77138671875002,64.14337799686912,311.0125],[164.812744140625,64.16071198124412,288.7766],[164.834716796875,64.167108465619123,285.063],[164.846435546875,64.16779205936912,281.506],[164.87089843750005,64.166034246869117,274.2558],[164.88251953125,64.167108465619123,272.1375],[164.890380859375,64.17023346561912,271.815],[164.89589843750002,64.17438385624412,274.5166],[164.9,64.178338934369123,274.3296],[164.90371093750002,64.18085358280662,271.2241],[164.97646484375002,64.20001862186912,264.3948],[165.03310546875002,64.22882721561912,270.3205],[165.08261718750003,64.234881903119117,375.5183],[165.22265625,64.23578522343162,271.2151],[165.38828125000003,64.21796295780662,354.7016],[165.46240234375,64.19513580936912,354.0912],[165.49267578125,64.18085358280662,403.4437],[165.51484375,64.163690496869123,307.7901],[165.54628906250002,64.12506744999412,277.9568],[165.568115234375,64.10883209843162,225.2912],[165.59951171875002,64.09601471561912,244.772],[165.70498046875002,64.07099030155662,240.6946],[165.775390625,64.06232330936912,350.8562],[165.80380859375003,64.05109284061912,288.3094],[165.794921875,64.02997467655662,262.2742],[165.81103515625,64.01886627811912,198.0614],[165.82968750000003,64.015741278119123,318.6436],[165.869384765625,64.016376043744117,279.9484],[165.89101562500002,64.01203034061912,322.3434],[165.937744140625,63.98529694218162,189.0023],[165.9560546875,63.980340887494123,186.7554],[166.020263671875,63.97540924686912,270.0268],[166.081787109375,63.96271393436912,299.8983],[166.19218750000005,63.96112702030662,364.6528],[166.251953125,63.943719793744123,356.6512],[166.27412109375,63.94122955936912,268.1802],[166.5390625,63.955829168744117,211.0059],[166.58076171875,63.952655340619117,463.908],[166.62294921875002,63.937518621869117,215.1685],[166.642578125,63.93439362186912,410.052],[166.662841796875,63.93903229374412,345.3367],[166.68300781250002,63.941180731244117,237.9522],[166.72021484375,63.92133209843162,441.2885],[166.93154296875002,63.93414948124412,137.1666]]}}