{"type":"Feature","properties":{"featurecla":"River","scalerank":9,"rivernum":1117,"dissolve":"1117River","name":"Penzhina","name_alt":null,"note":null,"min_zoom":7.1,"strokeweig":0.15,"name_en":"Penzhina","min_label":8.1},
"geometry":{"type": "LineString","coordinates": [[164.040283203125,64.201288153119123,448.1546],[164.07558593750002,64.211200262494117,386.3413],[164.13027343750002,64.25104401249412,356.8723],[164.17050781250003,64.25653717655662,340.4004],[164.18916015625,64.25189850468162,339.878],[164.2451171875,64.228631903119123,342.8702],[164.28564453125,64.22272369999412,430.503],[164.32763671875,64.221795965619123,435.7393],[164.36611328125002,64.214129949994117,549.0898],[164.478515625,64.15973541874412,307.5622]]}}