{"type":"Feature","properties":{"featurecla":"River","scalerank":6,"rivernum":319,"dissolve":"319River","name":"Kamchatka1","name_alt":null,"note":null,"min_zoom":5.0,"strokeweig":0.2,"name_en":"Kamchatka","min_label":6.0},
"geometry":{"type": "LineString","coordinates": [[157.98232421875002,54.194110418744117,325.2612],[158.02197265625,54.21466705936912,305.177],[158.072265625,54.25018952030662,264.1674],[158.108154296875,54.29205963749412,242.8501],[158.105224609375,54.33185455936912,252.4026],[158.157958984375,54.37042877811912,217.4194],[158.16679687500005,54.382440496869116,214.036],[158.1669921875,54.40399811405662,205.79],[158.17138671875,54.42011139530662,214.1772],[158.18447265625002,54.430194403119117,209.9305],[158.23867187500002,54.43732330936912,198.7724],[158.263916015625,54.44684479374412,191.4951],[158.286328125,54.46015045780662,188.2704],[158.304443359375,54.47528717655662,189.427],[158.32197265625,54.49628327030662,183.6679],[158.321875,54.507684637494116,182.4061],[158.29072265625,54.529901434369116,181.3369],[158.310302734375,54.54315827030662,179.256],[158.32021484375002,54.547967840619116,177.4204],[158.33115234375003,54.55036041874412,180.0182],[158.320556640625,54.577899481244117,174.5486],[158.342041015625,54.595086981244116,176.045],[158.40683593750003,54.611835028119117,173.6022],[158.74267578125,54.75641510624412,145.8869],[158.76816406250003,54.774432684369117,141.7349],[158.78212890625002,54.781854559369116,138.5949],[158.7978515625,54.78375885624412,138.8197],[158.78857421875,54.79877350468162,145.8556],[158.78359375000002,54.80365631718162,148.9287],[158.80361328125002,54.81427643436912,136.6632],[158.8076171875,54.82746002811912,136.8412],[158.80996093750002,54.84162018436912,132.1586],[158.83935546875,54.86762116093162,125.4454],[158.8564453125,54.89789459843162,132.8211],[158.873046875,54.910419012494117,128.7303],[158.90693359375,54.92645905155662,128.8679],[158.93720703125,54.94696686405662,119.6274],[158.95263671875,54.973895574994117,119.5134],[158.94189453125,55.00971100468162,120.9288],[158.95869140625,55.01496002811912,109.7433],[158.966552734375,55.02606842655662,113.9914],[158.971435546875,55.04010651249412,120.2896],[158.97910156250003,55.05438873905662,116.0348],[158.98408203125,55.058612371869117,116.0762],[159.00332031250002,55.07111237186912,109.1966],[159.01533203125,55.08576080936912,106.5153],[159.0234375,55.091180731244116,111.5545],[159.0375,55.09223053593162,102.4258],[159.0302734375,55.105585028119116,101.8854],[159.034423828125,55.113153387494116,101.5266],[159.05839843750005,55.12262604374412,98.5387],[159.06679687500002,55.124042059369117,100.4957],[159.08349609375,55.12116119999412,103.8764],[159.08896484375003,55.12262604374412,97.8784],[159.09228515625,55.12860748905662,98.4267],[159.09238281250003,55.133905340619116,103.6117],[159.09335937500003,55.138788153119116,108.6182],[159.10898437500003,55.150653387494117,104.7687],[159.12460937500003,55.16852448124412,97.0694],[159.13369140625002,55.17413971561912,119.2405],[159.14892578125,55.17548248905662,96.8513],[159.18837890625002,55.160516668744116,108.1706],[159.197509765625,55.189471746869117,102.653],[159.2998046875,55.24091217655662,93.9769],[159.29755859375,55.28400299686912,101.5754],[159.3095703125,55.284442449994117,84.385],[159.320556640625,55.28876373905662,78.9254],[159.32861328125,55.29657623905662,88.9473],[159.33271484375,55.311786199994117,84.37],[159.33798828125003,55.317157293744117,82.708],[159.339111328125,55.321307684369117,82.6164],[159.33515625,55.328631903119117,86.1073],[159.32626953125003,55.33026764530662,91.341],[159.31679687500002,55.33002350468162,82.1839],[159.311279296875,55.33185455936912,94.879],[159.30527343750003,55.33771393436912,139.0051],[159.29941406250003,55.34235260624412,128.8211],[159.299560546875,55.34772369999412,138.0181],[159.3115234375,55.35541412968162,145.8216],[159.32421875,55.35871002811912,139.226],[159.348388671875,55.360370184369117,85.5015],[159.3595703125,55.365985418744117,87.7179]]}}