{"type":"Feature","properties":{"featurecla":"River","scalerank":6,"rivernum":319,"dissolve":"319River","name":"Kamchatka3","name_alt":null,"note":null,"min_zoom":5.0,"strokeweig":0.3,"name_en":"Kamchatka","min_label":6.0},
"geometry":{"type": "LineString","coordinates": [[161.77841796875003,56.27094147343162,67.0848],[161.83544921875,56.261004949994117,197.2349],[161.947998046875,56.22333405155662,7.6847],[162.032470703125,56.23871491093162,19.6814],[162.09228515625,56.238885809369116,203.0786],[162.12998046875003,56.260858465619116,5.586],[162.14785156250002,56.265008856244116,89.7028],[162.166015625,56.26520416874412,5.3396],[162.179443359375,56.260370184369116,7.2222],[162.24384765625,56.27094147343162,6.3923],[162.28476562500003,56.25836823124412,2.6193],[162.29931640625,56.25726959843162,3.3648],[162.349609375,56.26898834843162,3.3018],[162.3681640625,56.27094147343162,3.7323],[162.3974609375,56.26996491093162,2.8021],[162.42587890625003,56.265985418744116,3.1131],[162.452880859375,56.25751373905662,2.7666],[162.47802734375,56.24298737186912,0.0]]}}