{"type":"Feature","properties":{"featurecla":"River","scalerank":9,"rivernum":1117,"dissolve":"1117River","name":"Penzhina3","name_alt":null,"note":null,"min_zoom":7.1,"strokeweig":0.25,"name_en":"Penzhina","min_label":8.1},
"geometry":{"type": "LineString","coordinates": [[166.93154296875002,63.93414948124412,137.1666],[166.95712890625003,63.941034246869123,136.1189],[167.016357421875,63.96613190311912,225.7512],[167.15664062500002,64.00592682499412,710.3541],[167.19199218750003,64.00910065311912,371.2715],[167.22705078125,64.00800202030662,400.6329],[167.25351562500003,64.002069403119123,380.0412],[167.277587890625,63.985711981244123,131.4571],[167.29824218750002,63.96552155155662,119.8748],[167.320556640625,63.94843170780662,118.9435],[167.37021484375003,63.93402741093162,125.5501],[167.490478515625,63.862323309369117,106.4541],[167.5078125,63.84418366093162,109.5911],[167.52480468750002,63.79596588749412,98.4088],[167.548046875,63.77521393436912,95.4027],[167.685546875,63.69183991093162,89.5913],[167.69003906250003,63.691522528119123,89.8037],[167.69443359375003,63.69293854374412,86.1455],[167.69970703125,63.693866278119117,85.1636],[167.70664062500003,63.69183991093162,87.1938],[167.71132812500002,63.68720123905662,85.6295],[167.719921875,63.67340729374412,85.6656],[167.7267578125,63.66803619999412,84.1687],[167.86826171875003,63.62055084843162,72.5062],[167.8916015625,63.60248444218162,80.3409],[167.88417968750002,63.59564850468162,75.7756],[167.937744140625,63.53790924686912,65.9259],[167.94580078125,63.507440496869123,62.5759],[167.92636718750003,63.472772528119123,59.8072],[167.91650390625,63.46674225468162,63.3129],[167.90771484375,63.464715887494123,61.1737],[167.90146484375003,63.46063873905662,62.2346],[167.89804687500003,63.439715887494117,59.5213],[167.893310546875,63.42572662968162,58.8516],[167.8916015625,63.41815827030662,59.3546],[167.89121093750003,63.39520905155662,51.5],[167.896484375,63.380975653119123,50.5],[167.90781250000003,63.37006256718162,53.431399999999996],[167.92636718750003,63.356708074994117,55.1267],[167.90869140625,63.353290106244117,52.5973],[167.896484375,63.342889715619123,52.5125],[167.890625,63.328973699994123,51.6238],[167.8916015625,63.31513092655662,46.0],[167.901123046875,63.301385809369123,50.5728],[167.928955078125,63.28070709843162,44.0],[167.939453125,63.267352606244117,48.3181],[167.9384765625,63.261737371869117,47.4681],[167.939453125,63.21954987186912,48.4753],[167.92910156250002,63.19977448124412,39.0],[167.912841796875,63.191278387494123,39.6306],[167.89345703125002,63.185663153119123,43.1458],[167.874267578125,63.17450592655662,41.1742],[167.873046875,63.163836981244117,41.4448],[167.877197265625,63.14899323124412,39.6407],[167.87734375000002,63.13580963749412,39.4598],[167.86367187500002,63.130145574994117,34.0],[167.84052734375,63.12482330936912,36.8283],[167.797119140625,63.10138580936912,38.0212],[167.77490234375,63.09601471561912,38.6026],[167.76025390625,63.09467194218162,37.9817],[167.75341796875,63.09125397343162,38.5439],[167.74853515625,63.086688543744117,31.0],[167.740234375,63.08173248905662,33.8525],[167.73759765625005,63.077167059369117,37.6433],[167.7365234375,63.070672918744123,35.679],[167.73212890625,63.06732819218162,36.4041],[167.69677734375,63.08161041874412,37.2024],[167.67421875000002,63.086542059369123,36.3168],[167.624755859375,63.08856842655662,36.0146],[167.6330078125,63.07391998905662,34.3882],[167.6396484375,63.05829498905662,35.3265],[167.636962890625,63.04584381718162,32.3524],[167.61728515625003,63.040790106244117,33.0538],[167.60585937500002,63.03912994999412,36.3227],[167.568115234375,63.027118231244117,35.014],[167.563720703125,63.02460358280662,31.8362],[167.5546875,63.01630280155662,34.4025],[167.54892578125003,63.01410553593162,34.3415],[167.54345703125,63.01483795780662,34.179],[167.533203125,63.01959869999412,33.8246],[167.528515625,63.020282293744117,33.462],[167.45986328125002,63.00604889530662,26.1467],[167.43906250000003,63.00665924686912,32.7068],[167.404296875,63.01801178593162,30.8423],[167.38125,63.01837799686912,30.8462],[167.37089843750005,63.00324127811912,32.2651],[167.37001953125002,62.995965887494123,31.1673],[167.3671875,62.98956940311912,31.8899],[167.36279296875,62.98395416874412,30.6104],[167.356640625,62.97931549686912,30.9137],[167.348876953125,62.97785065311912,32.2594],[167.33017578125003,62.980585028119123,31.5139],[167.32236328125003,62.97931549686912,32.01],[167.319580078125,62.976190496869123,32.222],[167.3173828125,62.97162506718162,31.8046],[167.31552734375003,62.96564362186912,30.8607],[167.244384765625,62.941424871869117,31.5186],[167.21933593750003,62.938348699994123,31.0215],[167.17626953125,62.94074127811912,27.7664],[167.164794921875,62.938348699994123,29.447],[167.154296875,62.93146393436912,29.3221],[167.150390625,62.92511627811912,30.1599],[167.14853515625003,62.918475653119117,24.1094],[167.14423828125,62.91107819218162,30.5578],[167.11044921875003,62.87689850468162,31.8008],[167.10263671875003,62.86322662968162,31.7742],[167.12216796875003,62.862420965619123,28.4962],[167.13906250000002,62.855487371869117,28.1456],[167.14462890625003,62.84467194218162,29.6612],[167.130078125,62.83222077030662,28.3055],[167.07421875,62.81549713749412,31.7235],[167.05839843750005,62.804559637494123,34.9277],[167.052001953125,62.78766510624412,35.421],[167.04755859375,62.736200262494123,37.3715],[167.037841796875,62.71588776249412,30.02],[167.00537109375,62.69904205936912,26.6688],[166.93154296875002,62.69684479374412,32.9334],[166.89785156250002,62.68451569218162,35.8087],[166.85996093750003,62.64728424686912,26.8676],[166.834228515625,62.62860748905662,39.7284],[166.82900390625002,62.618524481244123,39.8461],[166.83583984375002,62.60260651249412,32.0699],[166.81494140625,62.60065338749412,26.5668],[166.799072265625,62.59577057499412,27.2583],[166.767578125,62.58209869999412,26.145],[166.74589843750005,62.57721588749412,24.3256],[166.67822265625,62.57465241093162,23.28],[166.63681640625003,62.566180731244117,22.079],[166.618359375,62.56537506718162,23.1139],[166.572265625,62.57880280155662,20.3541],[166.470947265625,62.58832428593162,28.1581],[166.44736328125003,62.587762762494123,29.2878],[166.426025390625,62.58075592655662,29.6245],[166.40810546875002,62.56415436405662,83.7712],[166.36591796875,62.50031159061912,18.0972],[166.33984375,62.47321198124412,19.9818],[166.3251953125,62.461297918744123,26.729],[166.30947265625002,62.451776434369123,45.0297],[166.29267578125,62.44574616093162,35.0285],[166.27353515625003,62.442157293744117,23.1461],[166.23095703125,62.44061920780662,11.0]]}}