{"type":"Feature","properties":{"featurecla":"Plateau","name":"PUTORANA PLATEAU","namealt":null,"region":"Asia","subregion":null,"min_label":4.0,"max_label":8.0,"scalerank":3},
"geometry":{"type": "Polygon","coordinates": [[[107.19996178477126,67.649969793744049,286.0554],[107.2474471363337,67.702337957806577,268.0726],[107.26636803477126,67.7543399109316,345.6168],[107.0206404957087,68.924261785931549,235.1291],[106.5681258472712,69.770819403119134,524.8029],[106.47852623789626,69.860785223431577,649.1102],[106.39612877695876,69.916083074994049,615.7827],[106.31238854258376,69.9517276062441,551.8384],[102.70350182383376,70.280218817181577,342.1519],[101.7559920582087,70.175848699994134,429.0444],[101.2061873707087,69.996771551556549,251.0274],[100.99976647227126,69.965521551556577,321.5793],[100.8277694019587,69.9093692078066,313.1129],[100.7496444019587,69.8662783874941,319.0501],[100.6864119800837,69.8112246765566,594.2447],[100.5924178394587,69.680548407025327,490.0179],[100.5243026050837,69.5440127624941,632.2901],[100.48231041758376,69.4154727234316,554.4747],[100.46656334727126,69.3090274109316,394.7287],[100.62391198008376,68.739447332806549,472.5605],[101.03760826914626,67.887152410931549,263.7389],[101.0583602222712,67.7351748718691,311.65],[101.0227156910212,67.620245672650327,357.1223],[100.9951278003962,67.561773992962827,374.0439],[101.00147545664626,67.510748602337827,442.1809],[101.03333580820876,67.466437078900356,346.3029],[101.08253014414626,67.4278628601503,279.9936],[101.3308211597712,67.288641668744077,276.3346],[101.4080916675837,67.260199285931549,332.6958],[101.63013756602126,67.212164617962827,326.1268],[101.8906356128962,67.204962469525384,385.0835],[102.0158797535212,67.2273013367128,371.046],[102.21876061289626,67.3148867859316,289.4826],[102.28968346445876,67.326544500775356,284.6201],[102.34730065195876,67.315130926556549,271.2736],[102.5087996753962,67.2163760437441,357.8685],[102.5825301441462,67.186407782025327,317.4343],[103.48389733164626,67.089422918744077,431.274],[103.6021834644587,67.114264227337884,476.9228],[103.77247155039626,67.209662176556549,489.8522],[103.8411971363337,67.2326113953066,430.5337],[103.9130965503962,67.238348699994049,401.646],[104.72425377695876,67.1715762390566,446.5129],[105.0993758472712,67.237250067181577,422.7172],[105.1591903003962,67.236578680462827,409.5538],[105.22547448008376,67.2163760437441,439.3484],[105.30848229258376,67.1701724304628,434.2587],[105.4419051441462,67.122565008587884,465.608],[105.6220809253962,67.1099917664003,452.3373],[106.4630233082087,67.264960028119049,525.7773],[107.19996178477126,67.649969793744049,286.0554]]]}}