{"type":"Feature","properties":{"GID_3":"RUS.24.3.1_1","GID_0":"RUS","country":"Russia","GID_1":"RUS.24_1","province":"Kamchatka","NL_NAME_1":"Камчатскаякрай","GID_2":"RUS.24.3_1","county":"Elizovskiyrayon","NL_NAME_2":"Елизовскийрайон","city":"NA","VARNAME_3":"NA","NL_NAME_3":"NA","TYPE_3":"NA","ENGTYPE_3":"NA","CC_3":"NA","HASC_3":"NA","name":"N_A.city"},
"geometry":{"type": "MultiPolygon","coordinates": [[[[157.2749,51.2417,3.962],[157.2773,51.2422,0.0],[157.2776,51.243,0.0],[157.2749,51.2431,5.0619],[157.2749,51.2417,3.962]]],
[[[157.6911,51.5003,0.0],[157.6939,51.5003,0.0],[157.6922,51.5008,0.0959],[157.6933,51.5039,0.0],[157.6886,51.5033,10.0748],[157.6881,51.5021,10.0748],[157.6911,51.5003,0.0]]],
[[[157.7085,51.504,0.0],[157.7017,51.506,0.0],[157.6985,51.5104,24.2041],[157.6958,51.5101,0.0],[157.6924,51.5067,1.6886],[157.7021,51.505,0.0],[157.7058,51.5016,0.0],[157.7085,51.504,0.0]]],
[[[160.768,55.0553,1770.4402],[160.5619,55.0938,1625.6271],[160.4452,55.151,1285.4507],[160.3143,55.0971,1400.3347],[160.1941,55.0197,1159.5074],[160.0727,54.9274,1108.7097],[159.9559,54.856,1248.5404],[159.7744,54.7828,1007.7736],[159.6141,54.7073,1239.9473],[159.4702,54.635,663.6208],[159.3953,54.5724,688.214],[159.3655,54.5064,487.1833],[159.2561,54.4173,546.2136],[159.1247,54.357,635.595],[158.9723,54.3183,391.4102],[158.8513,54.2515,526.4861],[158.8294,54.1715,848.9733],[158.7766,54.0876,527.1941],[158.6757,54.0245,714.5178],[158.5749,53.9678,1121.7061],[158.4908,53.939,833.0599],[158.312,53.9297,856.4715],[158.2088,53.9201,1756.7842],[158.1445,53.9057,1005.0667],[158.0839,53.8734,895.4742],[157.9986,53.8728,1587.4534],[157.9684,53.8987,1380.4624],[157.986,53.95,1086.9668],[157.9785,53.99,731.3959],[157.9112,54.0288,563.221],[157.8365,54.0418,626.8552],[157.752,54.0289,582.9019],[157.6643,54.0245,594.2949],[157.5349,54.0555,1099.8687],[157.5085,54.0806,1164.6509],[157.3884,53.9871,1222.3732],[157.3496,53.9084,862.5883],[157.3036,53.7891,1116.4349],[157.3021,53.7015,1079.9657],[157.3138,53.6033,1463.7832],[157.3105,53.5036,639.8557],[157.3094,53.4027,895.0547],[157.3037,53.3007,281.004],[157.3423,53.1924,664.0202],[157.4474,53.1058,536.4646],[157.6367,53.0383,643.0139],[157.7875,53.0143,426.3954],[157.9259,52.965,452.4187],[158.0494,52.8842,424.5457],[158.0897,52.8141,245.1673],[158.0985,52.7078,449.1805],[158.0943,52.5937,1105.6963],[157.8712,52.4477,597.5765],[157.7408,52.3237,543.1454],[157.6593,52.1763,544.4738],[157.5579,52.0523,433.9386],[157.5099,51.9168,218.3465],[157.4805,51.7756,682.749],[157.4215,51.6457,614.4219],[157.3457,51.5199,197.17],[157.2417,51.3814,208.3331],[157.0921,51.2842,433.3673],[156.9592,51.208,628.9003],[156.8735,51.1393,185.9735],[156.8981,51.1042,383.5474],[156.8819,51.0544,200.9745],[156.8012,50.9742,44.7003],[156.7929,50.9529,17.9742],[156.7994,50.9572,6.2434],[156.8072,50.9575,7.4333],[156.8122,50.9664,0.0],[156.8217,50.9694,0.0],[156.8235,50.9716,1.6605],[156.8214,50.9736,34.9626],[156.8228,50.9761,2.564],[156.8264,50.9762,2.9883],[156.8344,50.9825,3.781],[156.8451,50.9836,0.0],[156.8433,50.9892,12.2793],[156.8489,50.9908,0.0],[156.8447,50.9934,1.9104],[156.8456,50.9967,1.9508],[156.855,51.0044,0.0],[156.8578,51.0092,5.4648],[156.8689,51.0147,4.1171],[156.8722,51.0197,0.0],[156.8895,51.0261,9.7977],[156.8922,51.0287,0.0],[156.9,51.0297,0.0],[156.91,51.035,17.6039],[156.915,51.0356,1.1885],[156.9202,51.0389,21.6269],[156.93,51.0406,0.0],[156.9311,51.0431,5.9284],[156.9394,51.0442,0.0],[156.9389,51.0492,32.2897],[156.94,51.0503,0.0],[156.9489,51.0519,0.0],[156.9633,51.0669,0.5053],[156.9778,51.0728,0.0],[156.9817,51.0781,31.6683],[156.9872,51.082,0.0],[157.0128,51.0933,0.0],[157.015,51.095,6.7],[157.0166,51.0989,0.0],[157.0152,51.1002,0.0],[157.0185,51.1043,15.7905],[157.0275,51.1076,3.0882],[157.033,51.1139,9.6291],[157.055,51.1161,0.0],[157.0593,51.1179,0.0],[157.06,51.1207,25.1772],[157.0653,51.1235,0.0],[157.0663,51.1268,5.3256],[157.0709,51.1295,12.886],[157.0747,51.1404,6.4162],[157.0832,51.146,0.9205],[157.0886,51.1535,1.2194],[157.0941,51.157,1.0668],[157.0955,51.157,2.5088],[157.0945,51.1543,1.3479],[157.1043,51.1567,0.0],[157.1124,51.1545,2.5966],[157.1238,51.1603,0.0],[157.1323,51.1593,0.0],[157.1616,51.1773,0.0],[157.1618,51.1835,0.0],[157.1657,51.1865,0.0],[157.1658,51.1891,20.4939],[157.1747,51.1954,0.0],[157.1812,51.1969,0.0],[157.1876,51.1947,0.0],[157.2016,51.1946,0.0],[157.2114,51.2015,6.7022],[157.2177,51.2021,4.616],[157.2344,51.209,48.8017],[157.2359,51.2127,0.0],[157.2409,51.2163,0.0],[157.2422,51.226,0.0],[157.25,51.2276,72.6401],[157.2563,51.2243,0.0],[157.2587,51.2282,0.0],[157.2572,51.2303,83.5657],[157.2588,51.2314,0.0],[157.2578,51.2333,70.5719],[157.2593,51.2358,77.4547],[157.2638,51.2405,3.2408],[157.2702,51.2437,1.1529],[157.2686,51.2454,2.8228],[157.2685,51.2493,1.1725],[157.2758,51.2497,0.0],[157.2776,51.2513,0.0],[157.2765,51.2642,0.0],[157.2834,51.2732,0.0],[157.2921,51.2758,3.0026],[157.2999,51.2743,0.0],[157.3023,51.2757,0.0],[157.3045,51.2783,24.9716],[157.3056,51.2843,22.4713],[157.3103,51.2865,0.0],[157.3157,51.2987,0.0],[157.3201,51.2991,0.0],[157.3262,51.3037,0.0],[157.3317,51.3033,0.0],[157.3329,51.3056,26.125],[157.3381,51.3078,2.2369],[157.3338,51.3142,60.1713],[157.3392,51.3201,0.0],[157.34,51.3253,6.1755],[157.3637,51.3421,10.2082],[157.3772,51.349,5.321],[157.4022,51.3571,30.1023],[157.4134,51.3519,0.0],[157.416,51.3492,0.0],[157.4267,51.3517,0.0],[157.4402,51.3478,0.0],[157.4434,51.3508,15.0772],[157.4513,51.3512,0.0],[157.4538,51.3536,0.197],[157.4595,51.353,1.8345],[157.4606,51.3552,0.0],[157.4591,51.3554,63.7624],[157.4616,51.357,0.0],[157.474,51.3593,0.0],[157.475,51.3621,0.0],[157.4696,51.3685,66.4652],[157.4663,51.3755,20.8058],[157.4688,51.3814,5.446],[157.472,51.3842,3.2272],[157.4863,51.3836,0.0],[157.4865,51.3893,0.0],[157.484,51.3913,8.493],[157.4776,51.3917,1.1006],[157.4757,51.3953,0.0],[157.4778,51.4045,0.0],[157.477,51.4079,0.0],[157.4791,51.4135,5.3515],[157.4914,51.435,1.9938],[157.4882,51.437,2.5062],[157.4936,51.4395,1.6009],[157.5007,51.4487,0.0],[157.504,51.454,2.7491],[157.502,51.4569,3.4782],[157.5044,51.4579,4.2757],[157.507,51.4541,0.0],[157.534,51.4808,0.0],[157.5656,51.5029,2.1634],[157.592,51.517,0.0],[157.6181,51.5269,0.0],[157.6081,51.5284,3.8951],[157.6165,51.5291,0.3508],[157.6488,51.5397,3.6915],[157.6499,51.5383,4.3101],[157.6367,51.5331,1.907],[157.6401,51.5327,0.0],[157.6609,51.5376,1.9471],[157.6961,51.553,0.66],[157.7176,51.5558,5.6879],[157.7303,51.5512,1.6199],[157.7386,51.5519,0.0],[157.743,51.55,9.3581],[157.7432,51.5473,7.0262],[157.7459,51.5462,5.6445],[157.7539,51.5492,0.0],[157.7571,51.5524,9.6531],[157.7706,51.5539,0.0],[157.7699,51.5585,21.4248],[157.7758,51.5597,5.1079],[157.7767,51.5613,0.0],[157.7714,51.5637,94.9306],[157.7704,51.5677,0.9784],[157.7839,51.576,17.9849],[157.7991,51.5809,0.0],[157.8033,51.5839,37.8884],[157.8133,51.5841,47.3826],[157.8155,51.582,0.0],[157.8255,51.58,0.0],[157.8278,51.5808,37.9146],[157.8278,51.5835,98.0697],[157.8319,51.5868,37.618],[157.8317,51.595,38.4326],[157.8378,51.6006,33.1996],[157.8439,51.6033,3.4694],[157.8472,51.6032,0.0],[157.8479,51.6074,18.9237],[157.8539,51.6103,0.0],[157.8539,51.6142,8.7056],[157.857,51.6199,0.0],[157.8618,51.6223,12.2062],[157.8695,51.6228,0.0],[157.8772,51.6278,12.4578],[157.8912,51.624,22.5023],[157.8978,51.6239,31.4725],[157.9062,51.6265,0.0],[157.9062,51.6286,0.0],[157.9095,51.6286,0.0],[157.9094,51.6303,22.5901],[157.9052,51.631,100.664],[157.9057,51.6334,0.0],[157.9038,51.634,25.3076],[157.905,51.6442,3.9817],[157.9161,51.6508,7.9025],[157.9194,51.6567,0.0],[157.925,51.6617,0.0],[157.9267,51.6681,0.0],[157.9333,51.6694,0.0],[157.9294,51.6714,0.0],[157.9294,51.6736,0.0],[157.9333,51.6786,0.0],[157.9383,51.6797,0.0],[157.9483,51.6853,0.0],[157.9556,51.6856,56.1613],[157.9594,51.6833,0.0],[157.9628,51.6847,0.0],[157.9583,51.6886,19.1918],[157.96,51.6942,0.0],[157.9583,51.6958,20.7745],[157.9684,51.7213,1.7619],[157.9828,51.7247,0.0],[157.9906,51.7231,0.0],[157.9968,51.7269,0.0],[157.9967,51.7347,0.0],[158.0039,51.7408,15.9785],[158.0106,51.7636,0.0],[158.0189,51.7753,3.9206],[158.0294,51.785,8.8344],[158.035,51.7894,2.4529],[158.0463,51.7943,0.0],[158.062,51.7967,0.0],[158.0678,51.7993,5.7888],[158.0713,51.8051,7.0225],[158.0767,51.8083,7.6082],[158.091,51.8073,6.0961],[158.0943,51.8085,0.0],[158.1,51.8072,37.1498],[158.1052,51.8086,2.1905],[158.1055,51.8143,0.0],[158.1022,51.8184,0.0],[158.1028,51.8233,0.0],[158.115,51.8319,0.0],[158.1221,51.8318,0.0],[158.1264,51.8369,0.0],[158.1183,51.8403,12.7037],[158.127,51.8457,0.0],[158.1255,51.8511,26.8028],[158.1317,51.8528,17.0761],[158.1339,51.858,18.0827],[158.1428,51.8628,0.0],[158.1498,51.87,0.0],[158.1535,51.8698,0.0],[158.1578,51.8722,0.0],[158.1611,51.8761,0.0],[158.1621,51.8803,0.0],[158.1656,51.8819,0.0],[158.1656,51.8842,17.1053],[158.1847,51.8996,0.0],[158.1894,51.9014,26.416],[158.1978,51.9011,0.0],[158.2085,51.9131,0.0],[158.21,51.9181,0.0],[158.2195,51.9244,0.0],[158.226,51.9324,58.6141],[158.2459,51.9461,19.2016],[158.2528,51.9461,0.0],[158.2539,51.9481,0.0],[158.26,51.9508,0.0],[158.2617,51.9539,69.2619],[158.2744,51.9619,9.2832],[158.2777,51.9747,0.0],[158.2678,51.9806,2.2734],[158.2678,51.9842,6.1962],[158.2775,51.9908,0.0],[158.2776,51.9973,0.0],[158.2753,52.0003,4.889],[158.28,52.0033,0.0],[158.2706,52.0041,0.3385],[158.268,52.0072,4.2258],[158.2686,52.0092,11.3742],[158.2733,52.0122,45.2053],[158.2881,52.011,21.4103],[158.2924,52.0129,9.5663],[158.2968,52.0239,2.4928],[158.2862,52.0264,24.9766],[158.2841,52.0283,24.4917],[158.2835,52.0324,8.6259],[158.303,52.0412,0.0],[158.304,52.0521,7.8792],[158.3003,52.0585,2.0612],[158.3023,52.0609,1.08],[158.3091,52.0652,4.3729],[158.3247,52.0663,2.5356],[158.3275,52.0697,0.0],[158.3271,52.0741,0.0],[158.325,52.0767,7.35],[158.3176,52.0831,52.7804],[158.31,52.0864,23.857],[158.3088,52.0908,9.9554],[158.2996,52.0986,0.0],[158.2979,52.1038,3.756],[158.3056,52.1194,1.8328],[158.3153,52.1281,1.4086],[158.3303,52.1371,5.0358],[158.3511,52.1426,2.5474],[158.3578,52.1419,8.6003],[158.3726,52.13,3.9315],[158.3767,52.1285,0.0],[158.3757,52.1296,29.1639],[158.3805,52.1358,14.8231],[158.3837,52.1371,0.1849],[158.387,52.1428,30.0312],[158.3874,52.1469,108.0359],[158.3964,52.1583,3.8944],[158.3965,52.1602,39.3954],[158.3997,52.1632,52.2011],[158.4084,52.1668,8.3656],[158.414,52.1722,39.0351],[158.4144,52.1742,0.0],[158.4121,52.1775,101.7671],[158.4126,52.1894,0.0],[158.409,52.1914,26.0754],[158.3898,52.1911,1.0898],[158.3849,52.1964,0.5702],[158.3834,52.2041,4.087],[158.3857,52.2134,0.0],[158.3895,52.2206,33.8647],[158.3931,52.2231,0.0],[158.3934,52.2264,9.2415],[158.3999,52.23,1.7912],[158.4085,52.2276,9.49],[158.4245,52.2281,7.525],[158.4315,52.2316,7.3273],[158.4344,52.2361,82.1711],[158.438,52.2373,16.6729],[158.4444,52.2456,42.9656],[158.4582,52.2523,28.9709],[158.4612,52.2554,2.2622],[158.4528,52.2561,17.6152],[158.4489,52.2603,21.4966],[158.4504,52.263,0.0],[158.4447,52.2633,122.7867],[158.4396,52.2661,0.0],[158.4435,52.2713,12.2916],[158.4578,52.2714,5.1448],[158.4623,52.2696,3.6485],[158.472,52.2716,0.4287],[158.4799,52.2684,0.3736],[158.5029,52.2744,27.4037],[158.5152,52.269,20.8613],[158.5279,52.2748,0.0],[158.5383,52.2865,26.8324],[158.5492,52.2901,0.0],[158.5509,52.2921,0.0],[158.5503,52.297,0.0],[158.5473,52.2996,0.0],[158.5474,52.3018,0.0],[158.55,52.3041,9.158],[158.5574,52.3058,0.0],[158.5616,52.3175,20.3357],[158.5591,52.3252,0.0],[158.5549,52.3273,0.0],[158.5533,52.3299,107.8825],[158.5445,52.3357,0.0],[158.5341,52.3366,33.1319],[158.514,52.3347,0.0],[158.4965,52.3299,10.4803],[158.49,52.3331,0.0],[158.4903,52.3344,0.0],[158.4857,52.3378,2.1476],[158.4831,52.3445,2.123],[158.4993,52.3497,0.269],[158.5106,52.3581,9.3858],[158.5427,52.3659,8.1881],[158.5457,52.3698,13.2536],[158.5441,52.3751,0.0],[158.5479,52.3809,12.4536],[158.5543,52.3827,10.4003],[158.5667,52.3794,0.0],[158.5712,52.3799,0.0],[158.5698,52.3821,18.4794],[158.5712,52.385,14.7975],[158.5688,52.3872,0.0],[158.567,52.393,0.0],[158.5621,52.3982,64.3713],[158.545,52.4051,60.4831],[158.5434,52.4082,1.0891],[158.5429,52.4112,0.4912],[158.5448,52.4143,0.0],[158.5598,52.4157,0.5054],[158.56,52.417,0.5054],[158.5517,52.4167,32.0554],[158.5407,52.4221,1.9894],[158.5246,52.4273,0.0],[158.5136,52.4352,32.6601],[158.5098,52.4348,43.9724],[158.507,52.4368,15.8861],[158.5001,52.4329,27.6647],[158.4911,52.4333,17.3697],[158.4856,52.4313,7.881],[158.4327,52.4011,1.0804],[158.4277,52.402,11.2827],[158.4222,52.4057,0.0],[158.4101,52.4048,11.9937],[158.3979,52.4076,1.6627],[158.4032,52.4114,7.1382],[158.4245,52.4145,20.9739],[158.4349,52.4184,12.2116],[158.4527,52.4281,0.0],[158.4659,52.4391,52.2683],[158.4814,52.4462,12.8121],[158.4811,52.448,36.7782],[158.4747,52.4502,20.5979],[158.4738,52.4525,9.143],[158.4619,52.4553,23.0836],[158.466,52.4615,1.2228],[158.4813,52.4613,14.7986],[158.4854,52.459,54.6523],[158.4949,52.4583,0.0],[158.5121,52.469,0.0],[158.5175,52.4734,0.0],[158.5201,52.4792,3.9146],[158.5256,52.4802,0.0],[158.5251,52.4819,8.7598],[158.5178,52.4825,126.1538],[158.5199,52.4841,0.0],[158.5131,52.4884,64.0819],[158.5112,52.4922,0.0],[158.5024,52.4905,0.0],[158.4997,52.4917,0.0],[158.4968,52.4945,0.0],[158.4955,52.4997,0.9985],[158.4964,52.5035,1.924],[158.5005,52.5061,83.3474],[158.5074,52.5063,4.8696],[158.5159,52.5103,10.5327],[158.5221,52.5225,0.0],[158.526,52.5265,0.0],[158.526,52.5316,23.7027],[158.5153,52.5409,2.5573],[158.5151,52.5471,117.063],[158.5193,52.5528,0.0],[158.5127,52.5621,0.0],[158.5002,52.5665,19.7239],[158.4923,52.5674,2.0668],[158.4771,52.5628,23.3106],[158.4731,52.5632,1.442],[158.4672,52.5662,3.1282],[158.4643,52.5714,0.0],[158.456,52.577,13.3062],[158.4504,52.578,55.4711],[158.4348,52.5857,25.4986],[158.4223,52.5942,54.6459],[158.4212,52.5974,4.2603],[158.4124,52.6006,0.0],[158.4122,52.6071,5.9362],[158.4138,52.611,6.0833],[158.4224,52.6184,2.3507],[158.4137,52.6149,3.9081],[158.4063,52.6167,1.6308],[158.4025,52.6159,3.9158],[158.4032,52.6168,3.9158],[158.4079,52.6174,2.0606],[158.414,52.6159,1.331],[158.4197,52.62,0.0],[158.426,52.6201,0.0],[158.4443,52.6143,1.0549],[158.4556,52.6127,4.0385],[158.4593,52.6143,28.206],[158.4541,52.6167,4.5353],[158.4377,52.6198,31.9296],[158.4193,52.6282,5.5163],[158.407,52.6379,1.2808],[158.3917,52.6469,0.0],[158.3902,52.6514,0.0],[158.396,52.6578,1.2446],[158.4061,52.6596,41.3496],[158.414,52.6563,3.2326],[158.4125,52.6527,1.6406],[158.4142,52.6515,0.5074],[158.4253,52.6519,0.0],[158.449,52.6391,13.1097],[158.4529,52.6353,0.0],[158.4888,52.6272,122.5602],[158.4935,52.6238,16.8737],[158.4955,52.6195,10.2224],[158.5056,52.6161,0.0],[158.5145,52.6209,65.7552],[158.5281,52.6246,11.0754],[158.5344,52.6248,59.6887],[158.5415,52.6227,37.111],[158.55,52.6268,22.434],[158.5537,52.6356,22.3265],[158.5531,52.6422,0.0],[158.5467,52.646,0.6372],[158.547,52.6472,1.6368],[158.5358,52.6486,6.7277],[158.5352,52.6516,3.0633],[158.5456,52.6516,3.0],[158.5488,52.6499,3.2134],[158.5536,52.6517,2.0892],[158.5678,52.6497,0.0],[158.571,52.6532,14.3226],[158.5716,52.6562,88.3032],[158.58,52.664,13.6309],[158.5869,52.6651,3.8838],[158.5695,52.6701,23.6816],[158.5647,52.6749,0.0],[158.5653,52.6785,6.5494],[158.5732,52.6797,6.1073],[158.5718,52.6815,45.4265],[158.5734,52.6835,2.1761],[158.5816,52.6837,38.4441],[158.5851,52.681399999999996,0.0],[158.5966,52.6824,9.8339],[158.5954,52.683,9.8339],[158.5964,52.6854,33.5233],[158.6019,52.6941,0.0],[158.5957,52.7001,18.7661],[158.5791,52.7089,0.0],[158.5692,52.7105,0.0],[158.5567,52.7165,23.0051],[158.532,52.7229,29.1983],[158.528,52.7262,10.8234],[158.5076,52.7285,7.1992],[158.4872,52.7375,0.0],[158.4836,52.7432,1.4693],[158.4834,52.747,1.6873],[158.4863,52.7569,8.4339],[158.4902,52.7624,0.0],[158.4826,52.7654,20.3853],[158.4807,52.7695,0.5465],[158.4811,52.773,3.7748],[158.4927,52.7806,3.1768],[158.5041,52.7824,1.2102],[158.5035,52.7841,0.949],[158.4884,52.7881,10.4498],[158.4929,52.7936,3.2701],[158.5005,52.7927,4.6263],[158.5001,52.7907,5.5032],[158.5096,52.7863,18.4228],[158.506,52.7803,4.2522],[158.5042,52.78,0.0],[158.5092,52.777,0.0],[158.5236,52.7752,0.0],[158.5474,52.7786,0.0],[158.5547,52.7761,3.0951],[158.5648,52.776,0.0],[158.5652,52.7784,0.0],[158.5681,52.7799,0.0],[158.5668,52.7819,0.0],[158.5683,52.7855,42.7493],[158.5713,52.7874,26.9944],[158.5699,52.7922,0.0],[158.5708,52.7988,2.8573],[158.5761,52.8107,3.0193],[158.5795,52.8143,0.0],[158.5873,52.8188,17.1646],[158.5931,52.8164,4.7345],[158.6006,52.8197,6.6664],[158.6015,52.8212,13.8739],[158.5993,52.8217,158.7505],[158.5989,52.8249,31.8888],[158.5972,52.8256,10.4927],[158.6024,52.8291,2.9187],[158.6135,52.8255,24.5023],[158.6158,52.8262,6.8427],[158.6165,52.8277,0.0],[158.6149,52.829,10.259],[158.6169,52.8339,22.5329],[158.6269,52.8352,0.0],[158.6326,52.84,0.0],[158.6462,52.8434,0.0],[158.6452,52.8456,1.8486],[158.6265,52.8483,15.939],[158.6248,52.8517,0.0],[158.6189,52.8552,55.9004],[158.6019,52.8566,37.7812],[158.6002,52.858,4.329],[158.599,52.8645,3.6271],[158.5935,52.867,3.1824],[158.5976,52.8675,3.0694],[158.6017,52.8704,0.0],[158.6152,52.8704,0.0],[158.6246,52.8735,0.0],[158.6325,52.8717,1.4308],[158.6298,52.8815,32.2951],[158.6233,52.8921,2.6825],[158.6289,52.8955,18.3997],[158.641,52.8966,6.9843],[158.6443,52.8949,0.0],[158.6465,52.8971,12.5738],[158.6394,52.9002,17.9115],[158.6336,52.9071,33.5717],[158.6324,52.9121,61.4019],[158.6351,52.9167,2.4702],[158.6341,52.9174,4.2952],[158.629,52.9169,46.5109],[158.6288,52.9184,9.7615],[158.6185,52.9187,64.4294],[158.6112,52.9214,17.6088],[158.5865,52.9185,1.8735],[158.5829,52.9201,1.0479],[158.5817,52.9186,0.8527],[158.5856,52.9164,4.0998],[158.585,52.9144,0.0],[158.5789,52.9111,13.3682],[158.5623,52.913,9.6753],[158.544,52.9119,10.0751],[158.5421,52.9147,0.0],[158.5431,52.9165,1.7804],[158.5374,52.9194,39.4911],[158.5307,52.9266,16.8958],[158.5028,52.9299,67.9502],[158.494,52.9336,16.8418],[158.489,52.9302,35.3045],[158.4844,52.931399999999996,6.8208],[158.4679,52.9293,3.0663],[158.4792,52.9215,0.0],[158.4963,52.9148,0.0],[158.5017,52.915,0.0],[158.5028,52.9167,4.1306],[158.5073,52.9177,7.2967],[158.5247,52.9155,21.2084],[158.5376,52.9113,0.0],[158.5381,52.9051,9.8782],[158.5321,52.902,16.0814],[158.5341,52.8974,16.1387],[158.5391,52.8942,4.7412],[158.5457,52.8946,2.8739],[158.5522,52.8922,37.3707],[158.5534,52.8894,1.8384],[158.5509,52.8884,9.1166],[158.5226,52.8922,0.0],[158.508,52.8882,4.9796],[158.4942,52.8909,9.9268],[158.4824,52.8965,3.4224],[158.4707,52.8958,5.8818],[158.4653,52.8982,4.5938],[158.4591,52.8952,10.3521],[158.4449,52.8957,0.0],[158.4356,52.8922,0.0],[158.4347,52.8934,1.349],[158.4387,52.9003,0.0],[158.435,52.9027,2.74],[158.4401,52.9029,0.0],[158.4411,52.9044,0.0],[158.4356,52.9055,0.7809],[158.4281,52.9102,15.0912],[158.4254,52.9129,11.0907],[158.4262,52.9161,1.5406],[158.4248,52.9187,0.0],[158.4132,52.9243,2.17],[158.413,52.9257,3.8216],[158.4171,52.927,0.0],[158.4153,52.9277,1.9001],[158.4153,52.9348,0.0],[158.4124,52.9429,1.213],[158.4146,52.9494,0.0],[158.4176,52.9538,16.7909],[158.4436,52.9531,0.0],[158.448,52.9543,4.6672],[158.4532,52.9589,28.6527],[158.4641,52.9598,0.0],[158.4706,52.9626,6.0077],[158.4701,52.9646,0.0],[158.4664,52.9671,0.0],[158.4528,52.9688,0.0],[158.4513,52.9703,11.2956],[158.4527,52.973,0.0],[158.4506,52.9757,0.0],[158.4506,52.979,0.0],[158.4448,52.9796,27.1633],[158.4417,52.9819,8.5905],[158.4301,52.9808,0.0],[158.4169,52.9771,4.7517],[158.4121,52.9785,15.6256],[158.4099,52.9826,50.7151],[158.4112,52.9855,0.1842],[158.4097,52.9863,28.5285],[158.4111,52.9881,0.2291],[158.4132,52.9879,0.2424],[158.4139,52.9917,0.6862],[158.4167,52.9931,0.0],[158.415,52.9961,0.2577],[158.4167,52.9989,0.0],[158.4137,53.0009,0.6266],[158.4176,53.0011,0.0],[158.4183,53.0025,0.0],[158.4167,53.0044,0.0],[158.4199,53.0085,0.0],[158.4194,53.0121,0.0],[158.4214,53.0141,0.4864],[158.4204,53.0165,0.4457],[158.4282,53.0185,0.3598],[158.4307,53.0166,0.2402],[158.4404,53.0156,0.5357],[158.4534,53.0206,0.7151],[158.467,53.0204,0.0],[158.4841,53.0265,0.2016],[158.4956,53.0331,0.2341],[158.5089,53.035,0.1581],[158.5122,53.0375,0.0],[158.5117,53.0403,0.0],[158.5178,53.045,0.0],[158.5172,53.0481,0.5768],[158.5101,53.0506,0.5265],[158.5183,53.0514,0.0],[158.5161,53.0547,0.5822],[158.5194,53.0588,0.0],[158.5155,53.0594,0.0],[158.5222,53.0606,0.1649],[158.5305,53.0664,0.0],[158.5265,53.0703,0.8136],[158.5134,53.0731,0.5058],[158.5093,53.0718,0.7646],[158.5079,53.0696,0.3579],[158.5093,53.0692,0.8325],[158.5069,53.0679,0.509],[158.502,53.068,0.9829],[158.5056,53.0689,0.53],[158.5068,53.0718,0.5041],[158.5117,53.0746,0.2038],[158.5248,53.073,0.0],[158.5182,53.0766,0.2985],[158.5204,53.0772,0.0],[158.5209,53.0789,0.2136],[158.5194,53.0794,0.2136],[158.5209,53.08,0.2136],[158.5222,53.0803,0.8198],[158.5226,53.0768,0.5959],[158.5356,53.0653,4.9429],[158.5328,53.0631,0.4467],[158.535,53.06,0.0],[158.5678,53.0633,1.2721],[158.5853,53.0588,29.3704],[158.5863,53.0568,0.0],[158.5852,53.056399999999996,0.0],[158.5872,53.0553,7.8976],[158.5865,53.0532,0.0],[158.5936,53.0463,3.5386],[158.5988,53.0506,19.3974],[158.6005,53.0481,0.0],[158.6019,53.051,3.6912],[158.6133,53.0497,1.2198],[158.6126,53.0481,0.0],[158.6147,53.0478,5.8985],[158.6133,53.047,0.0],[158.6147,53.0445,7.4368],[158.6125,53.0455,0.0],[158.612,53.0438,1.7985],[158.6168,53.0426,31.9343],[158.623,53.0357,14.8547],[158.6318,53.0313,0.0],[158.6339,53.028,0.0],[158.6366,53.0282,1.0633],[158.6416,53.0248,0.0],[158.6398,53.0087,0.0],[158.6428,53.0059,0.6224],[158.646,53.0068,0.6427],[158.6432,53.0141,8.1079],[158.647,53.015,3.3054],[158.6451,53.0123,1.2738],[158.6491,53.0108,12.3995],[158.6538,53.0049,0.0],[158.6517,53.0026,0.9768],[158.6538,52.9977,0.0],[158.6523,52.9956,3.8106],[158.6526,52.9898,0.6164],[158.6581,52.9873,15.7934],[158.6619,52.983,4.365],[158.6636,52.9826,4.365],[158.6661,52.9853,3.7302],[158.6673,52.9809,0.6802],[158.6733,52.98,1.2594],[158.6743,52.9789,26.5724],[158.6721,52.9764,1.4782],[158.6727,52.9744,0.0],[158.6741,52.9758,3.667],[158.6782,52.975,0.0],[158.6823,52.9774,5.2168],[158.6857,52.9768,6.5419],[158.6793,52.9735,0.6099],[158.6774,52.9701,0.0],[158.6859,52.9614,0.0],[158.6882,52.9613,1.1988],[158.6875,52.9643,1.9619],[158.6886,52.9646,1.9619],[158.6952,52.9619,0.0],[158.7044,52.9637,0.0],[158.709,52.9623,11.7914],[158.7125,52.9546,4.0485],[158.7067,52.9567,1.7594],[158.704,52.9609,0.0],[158.6987,52.9601,1.1057],[158.6974,52.9575,5.7],[158.69,52.9531,0.0],[158.6848,52.9525,0.0],[158.6823,52.953,0.4619],[158.6808,52.9567,2.738],[158.6759,52.959,0.0],[158.6665,52.9595,4.7864],[158.6628,52.9633,7.612],[158.6618,52.9673,0.0],[158.6583,52.9696,9.6676],[158.6504,52.9698,0.0],[158.6453,52.9613,5.4346],[158.6452,52.9578,5.1722],[158.6511,52.9568,42.0857],[158.6494,52.9551,16.6434],[158.6505,52.953,10.1332],[158.6494,52.951,24.5463],[158.6542,52.9478,0.0],[158.6569,52.941,0.0],[158.6631,52.9394,4.2216],[158.6657,52.9414,2.0998],[158.6644,52.9439,4.4502],[158.6685,52.9469,0.0],[158.6772,52.9476,2.5177],[158.6816,52.946,0.9522],[158.6826,52.9438,1.7652],[158.6816,52.9385,0.0],[158.6871,52.933,3.0362],[158.6875,52.9299,7.3147],[158.6914,52.928,2.4672],[158.6853,52.9225,5.5281],[158.689,52.9165,1.1437],[158.6886,52.9134,19.8113],[158.681,52.9123,0.0],[158.6802,52.911,8.1871],[158.6822,52.9106,41.1149],[158.6836,52.9073,8.2133],[158.6928,52.9036,2.4699],[158.6953,52.8998,0.0],[158.7,52.8972,0.0],[158.7011,52.8942,0.7062],[158.6957,52.8926,0.0],[158.7031,52.8871,83.9997],[158.702,52.8852,0.0],[158.7056,52.8844,0.0],[158.7141,52.8868,0.0],[158.7186,52.8905,18.377],[158.7255,52.8931,0.0],[158.7339,52.8945,25.4631],[158.7356,52.9011,1.035],[158.7422,52.9075,0.0],[158.7461,52.9089,0.0],[158.7456,52.91,0.0],[158.7572,52.9181,0.0],[158.7779,52.9288,0.0],[158.7799,52.9318,0.0],[158.7795,52.9341,0.0],[158.7843,52.9367,12.8023],[158.7872,52.9405,1.5769],[158.7931,52.9427,0.0],[158.7935,52.9452,1.176],[158.8,52.9519,0.0],[158.8288,52.9746,1.5101],[158.8643,52.9992,3.7061],[158.8911,53.0156,4.1426],[158.9394,53.0417,0.0],[159.0106,53.0756,2.9464],[159.0617,53.0974,4.5562],[159.0956,53.1097,1.0669],[159.1439,53.1247,2.1127],[159.2378,53.15,0.0],[159.2856,53.1608,3.032],[159.334,53.1691,2.7445],[159.3488,53.1697,24.8599],[159.3652,53.1566,5.0714],[159.3691,53.1559,13.9294],[159.3701,53.1539,3.4438],[159.3823,53.1547,15.4983],[159.3926,53.1511,1.8604],[159.3938,53.1521,9.6227],[159.3928,53.1557,27.0777],[159.3995,53.1635,25.2406],[159.4066,53.1675,4.9041],[159.4218,53.1727,82.5557],[159.4244,53.1806,80.9237],[159.43,53.1851,0.0],[159.429,53.1909,0.0],[159.4438,53.197,0.0],[159.4461,53.1996,16.6827],[159.4425,53.2042,11.3274],[159.4456,53.2086,0.0],[159.4578,53.2148,6.1908],[159.4656,53.2125,16.2727],[159.4675,53.2133,16.2727],[159.4679,53.2157,25.6909],[159.4733,53.2189,7.551],[159.473,53.2221,0.0],[159.4695,53.2233,120.2216],[159.4722,53.2258,1.0067],[159.4906,53.2314,0.6748],[159.5311,53.2339,1.6577],[159.5533,53.245,0.0],[159.5771,53.2519,0.0],[159.6187,53.2565,0.0],[159.6299,53.2562,0.0],[159.6371,53.2539,4.9329],[159.6419,53.2498,0.0],[159.6512,53.247,0.0],[159.6609,53.2483,0.0],[159.666,53.247,0.0],[159.6777,53.2391,0.0],[159.6766,53.2333,0.0],[159.6804,53.23,4.3418],[159.7116,53.2187,0.0],[159.7176,53.2198,0.0],[159.7209,53.2214,9.6743],[159.7333,53.2356,34.9608],[159.7439,53.2394,14.1924],[159.7511,53.2397,10.3409],[159.7611,53.245,0.4079],[159.7578,53.2469,1.2643],[159.7583,53.2486,3.7668],[159.7717,53.2594,2.8215],[159.7739,53.2642,29.1955],[159.7821,53.2679,3.9731],[159.7853,53.2713,1.5001],[159.7928,53.2713,1.2565],[159.7966,53.2689,9.831],[159.8031,53.2732,0.0],[159.8139,53.2758,13.6541],[159.8202,53.2745,2.4895],[159.8322,53.276,8.0461],[159.8417,53.274,4.289],[159.8452,53.2753,0.8031],[159.8467,53.2739,9.3057],[159.8431,53.2731,0.1668],[159.8437,53.2718,0.0],[159.8489,53.2733,2.3148],[159.8517,53.2703,14.2003],[159.8467,53.2706,0.9466],[159.8354,53.2659,3.5779],[159.8246,53.2652,12.5276],[159.8135,53.2615,1.48],[159.7844,53.2444,0.0],[159.7833,53.2411,5.1948],[159.7735,53.2354,31.1581],[159.7716,53.2356,0.3211],[159.7704,53.239,0.0],[159.7669,53.2389,0.3759],[159.7683,53.2361,1.1832],[159.7678,53.2325,6.6829],[159.7567,53.2256,9.0049],[159.7529,53.2214,17.2573],[159.7478,53.2111,24.0927],[159.7422,53.2069,45.8374],[159.7439,53.2044,58.2432],[159.7584,53.198,22.1243],[159.762,53.1924,0.0],[159.7684,53.1927,13.3554],[159.7728,53.1883,0.0],[159.784,53.1859,0.0],[159.79,53.1867,1.5419],[159.7939,53.1822,18.8703],[159.8011,53.1817,0.0],[159.8051,53.1745,0.0],[159.8181,53.1731,0.0],[159.8215,53.1741,36.3002],[159.8405,53.1681,32.9265],[159.8412,53.1639,4.5328],[159.8485,53.161,34.7881],[159.8573,53.1603,46.8687],[159.8585,53.1587,0.0],[159.8658,53.1596,7.2113],[159.8704,53.1584,0.9315],[159.875,53.1553,0.0],[159.8736,53.151,3.3072],[159.8932,53.1452,0.0],[159.9056,53.1377,19.9666],[159.9164,53.1385,1.1993],[159.9261,53.1328,0.0],[159.9333,53.1319,0.0],[159.94,53.1261,26.1654],[159.9406,53.1236,0.0],[159.9453,53.1217,0.0],[159.9561,53.1219,0.0],[159.961,53.1203,0.0],[159.9622,53.1183,23.5278],[159.9606,53.1153,0.0],[159.9622,53.1144,84.3007],[159.9617,53.1117,0.0],[159.965,53.1061,0.0],[159.9722,53.1047,0.0],[159.9899,53.1091,5.0691],[160.0061,53.1056,31.3268],[160.0161,53.0972,5.4534],[160.0239,53.095,0.0],[160.0328,53.0983,8.5585],[160.0359,53.098,5.0179],[160.0367,53.1003,45.1306],[160.0356,53.1011,34.0747],[160.0383,53.1039,7.8059],[160.0383,53.1056,0.0],[160.0361,53.1067,117.1223],[160.0372,53.1083,53.8548],[160.0361,53.1131,21.3627],[160.0476,53.1151,0.4158],[160.0428,53.1166,19.3572],[160.0433,53.1175,0.0],[160.0359,53.1221,29.7668],[160.0372,53.1281,100.2829],[160.0394,53.1297,23.7363],[160.0411,53.1347,24.6984],[160.0467,53.1383,0.0],[160.0472,53.1403,0.0],[160.0511,53.1419,4.4694],[160.0583,53.1414,2.3687],[160.0606,53.1439,5.4214],[160.0572,53.15,0.4777],[160.0456,53.1519,16.0398],[160.0466,53.1544,0.0],[160.045,53.1556,5.3212],[160.045,53.1586,2.7391],[160.0506,53.1619,2.9453],[160.0394,53.1652,133.0188],[160.0322,53.1711,0.0],[160.0344,53.1742,0.0],[160.0322,53.1756,1.9278],[160.0322,53.1786,0.0],[160.0389,53.1842,10.2457],[160.0372,53.1889,23.4575],[160.0356,53.1892,23.4575],[160.0356,53.1933,0.0],[160.0422,53.1992,14.5883],[160.0466,53.2008,0.0],[160.0411,53.2025,50.3662],[160.0428,53.2047,0.0],[160.0394,53.2081,81.3769],[160.0394,53.2142,15.8183],[160.0327,53.2193,0.0],[160.0206,53.2228,0.0],[160.0061,53.2203,1.4482],[160.0,53.2231,4.0717],[159.9966,53.2277,28.219],[159.9972,53.2308,11.9529],[160.0017,53.2339,0.0],[160.0011,53.2353,0.0],[160.0044,53.2356,29.4676],[160.0056,53.2397,20.3666],[160.0078,53.2403,0.0],[160.0078,53.2442,20.6161],[160.0122,53.2469,0.0],[160.0089,53.2536,79.4052],[160.0141,53.2579,15.8251],[160.0239,53.2614,0.0],[160.0244,53.2636,0.0],[160.0294,53.2647,4.8682],[160.03,53.2684,1.4059],[160.0242,53.2675,8.0625],[160.0217,53.2637,7.3791],[160.0164,53.2611,5.3615],[159.9804,53.2611,0.0],[159.9711,53.2575,0.0],[159.9622,53.2517,25.6592],[159.9606,53.2486,52.135],[159.9517,53.2414,34.3533],[159.9511,53.2386,0.3523],[159.9539,53.2325,53.8559],[159.9522,53.23,0.614],[159.955,53.2264,28.2589],[159.9539,53.2192,32.4324],[159.9561,53.21,2.1704],[159.9518,53.2093,0.8342],[159.9468,53.2109,19.7578],[159.9421,53.2204,1.7981],[159.9414,53.2269,0.0],[159.928,53.2399,13.3024],[159.9294,53.2478,1.1024],[159.9217,53.243899999999996,0.0],[159.9145,53.2436,3.9259],[159.9041,53.2526,3.7275],[159.903,53.2564,19.6537],[159.9105,53.2596,0.0],[159.9083,53.2622,19.1499],[159.91,53.2631,19.1499],[159.9094,53.2646,60.7524],[159.9196,53.269,3.9427],[159.9212,53.2723,51.5769],[159.9269,53.2764,0.0],[159.9274,53.2829,5.4864],[159.9383,53.2881,0.0],[159.9427,53.2951,4.3164],[159.9539,53.2972,11.6094],[159.9628,53.3014,0.0],[159.968,53.3123,81.975],[159.9731,53.3172,13.002],[159.9725,53.3192,9.7795],[159.9745,53.3207,0.0],[159.9736,53.3271,0.0],[159.9685,53.3295,0.0],[159.9656,53.335,0.0],[159.9628,53.3358,0.0],[159.9557,53.3324,1.2244],[159.9511,53.3322,0.0],[159.9522,53.3286,47.7465],[159.9506,53.3269,24.9936],[159.9425,53.3255,0.0],[159.9318,53.3203,28.5771],[159.9151,53.3253,2.8764],[159.9071,53.3306,0.0],[159.8975,53.3399,2.6858],[159.8951,53.3491,29.8021],[159.9012,53.3571,49.6352],[159.9152,53.36,0.0],[159.9162,53.3683,57.3915],[159.9193,53.3716,0.0],[159.9184,53.3738,38.7318],[159.9223,53.3808,91.0905],[159.9294,53.3794,0.0],[159.9344,53.3819,0.0],[159.9267,53.3844,12.6499],[159.9192,53.3845,0.0],[159.9129,53.389,5.5442],[159.9106,53.393,0.0],[159.9023,53.3971,0.0],[159.8972,53.3966,37.1461],[159.8879,53.3903,2.2131],[159.8782,53.3864,10.9118],[159.8687,53.387,3.9046],[159.8586,53.3916,2.0741],[159.8471,53.4004,3.2412],[159.8451,53.4036,9.6076],[159.846,53.4085,25.47],[159.8499,53.4098,0.0],[159.8518,53.4183,37.8045],[159.8424,53.4237,136.7921],[159.8379,53.4338,18.9849],[159.839,53.4542,40.9993],[159.8491,53.466,0.0],[159.8495,53.4684,0.7975],[159.8647,53.4802,3.1567],[159.8811,53.4875,0.0],[159.8728,53.4886,0.4625],[159.8699,53.4843,4.1152],[159.8616,53.4801,3.1567],[159.8442,53.4671,0.0],[159.839,53.4711,9.4386],[159.8412,53.473,1.9872],[159.8427,53.4778,0.0],[159.8405,53.4862,2.2032],[159.8332,53.4841,2.2775],[159.8311,53.4814,5.0397],[159.8265,53.4856,0.0],[159.8189,53.485,1.5074],[159.8161,53.4828,0.0],[159.8237,53.4809,1.1354],[159.8173,53.4795,0.0],[159.821,53.477,4.2932],[159.8088,53.4741,0.0],[159.8075,53.471,10.9839],[159.8029,53.4692,0.9826],[159.8006,53.4661,0.0],[159.7994,53.4631,10.389],[159.8013,53.4608,89.986],[159.8006,53.458,6.8197],[159.7928,53.4547,0.4893],[159.7894,53.4558,0.0],[159.7917,53.4592,0.0],[159.7879,53.4639,0.0],[159.7878,53.4672,5.4036],[159.7996,53.4826,0.0],[159.8033,53.4836,0.0],[159.81,53.4822,1.4984],[159.8161,53.4861,5.0371],[159.8244,53.4879,6.0081],[159.8318,53.4867,3.1951],[159.8331,53.4873,0.0],[159.8324,53.491,0.0],[159.8055,53.4999,3.6668],[159.8,53.5006,0.0],[159.7928,53.4986,8.6101],[159.7856,53.5053,2.2082],[159.7805,53.5053,4.4234],[159.7728,53.51,0.1632],[159.7772,53.5172,1.9482],[159.797,53.5174,16.6032],[159.8057,53.5198,3.6755],[159.8118,53.5262,0.0],[159.8273,53.5336,0.0],[159.8269,53.5361,0.0],[159.8306,53.5381,1.3421],[159.8333,53.535,1.5993],[159.8328,53.5306,3.2839],[159.8251,53.5244,3.525],[159.8235,53.5208,0.0],[159.824,53.5162,18.7646],[159.8292,53.509,0.0],[159.8441,53.4999,0.0],[159.8506,53.498,0.5916],[159.8678,53.5,0.3765],[159.8813,53.4896,1.3188],[159.8956,53.4868,15.8947],[159.8994,53.4826,0.0],[159.9074,53.478,5.2264],[159.9217,53.4778,0.4579],[159.9239,53.476,0.0],[159.9227,53.4729,0.0],[159.9362,53.4722,68.1254],[159.9441,53.4736,0.0],[159.947,53.4761,16.2274],[159.9451,53.4778,139.0893],[159.9504,53.4842,0.0],[159.9508,53.4912,66.0158],[159.9529,53.4942,59.0336],[159.956,53.4941,2.167],[159.9541,53.4958,7.5545],[159.9557,53.4975,38.1385],[159.9543,53.5043,0.0],[159.9498,53.511,0.0],[159.9513,53.5158,34.6686],[159.955,53.5188,0.0],[159.9485,53.5221,37.2429],[159.9558,53.5382,12.9938],[159.9479,53.5455,29.9234],[159.9454,53.5497,37.1632],[159.946,53.5528,16.4794],[159.9411,53.5557,13.9385],[159.941,53.5572,4.2994],[159.9478,53.5609,85.1726],[159.9507,53.5589,52.3683],[159.9544,53.5588,0.0],[159.9537,53.5626,0.0],[159.955,53.5633,0.0],[159.9563,53.5725,33.0576],[159.9511,53.5791,88.7171],[159.9521,53.5819,0.0],[159.9459,53.5821,1.607],[159.9436,53.5842,38.4046],[159.9463,53.5894,6.3304],[159.9404,53.5935,37.7597],[159.9344,53.5942,98.0902],[159.9306,53.5965,38.7613],[159.9272,53.5961,22.4376],[159.9233,53.5984,2.5025],[159.9226,53.5999,31.5807],[159.9247,53.6022,46.174],[159.922,53.606,113.7003],[159.923,53.6074,0.0],[159.9204,53.6141,0.0],[159.9152,53.6205,3.1021],[159.9153,53.6243,0.0],[159.9086,53.6272,0.0],[159.9035,53.6323,0.7751],[159.899,53.644,0.6862],[159.9006,53.6481,0.0],[159.8983,53.6492,0.5512],[159.8994,53.6506,0.6131],[159.8994,53.6564,0.3462],[159.8978,53.6572,0.0],[159.8985,53.6642,1.1176],[159.9055,53.6703,0.0],[159.9133,53.6689,6.6393],[159.9149,53.6702,0.0],[159.9078,53.6728,20.2697],[159.9089,53.6742,0.5269],[159.9064,53.6766,0.0],[159.9028,53.6764,4.5834],[159.9055,53.6729,6.2222],[159.9012,53.67,0.9605],[159.8895,53.6683,0.0],[159.8914,53.6629,0.0],[159.8944,53.661,1.015],[159.8951,53.6569,0.2743],[159.8867,53.6554,0.5934],[159.8841,53.658,0.0],[159.8789,53.6581,12.0443],[159.8506,53.6703,16.8564],[159.8427,53.6684,0.0926],[159.8423,53.6699,1.5043],[159.8298,53.6763,2.349],[159.8294,53.6782,3.3293],[159.8345,53.6809,1.0384],[159.8442,53.6745,0.3819],[159.8531,53.6739,0.3117],[159.8552,53.6751,0.0354],[159.8521,53.6769,0.4481],[159.8519,53.6794,0.085],[159.8438,53.6815,0.0605],[159.8375,53.6852,0.1709],[159.8365,53.6896,0.0],[159.8398,53.6912,0.1095],[159.8344,53.6942,0.0755],[159.8378,53.6952,0.2192],[159.8562,53.6781,0.5782],[159.8614,53.6751,0.5772],[159.8661,53.6749,0.8297],[159.8572,53.6838,0.0],[159.8483,53.6985,1.8372],[159.8423,53.7288,4.8507],[159.8406,53.7528,3.0318],[159.842,53.7943,3.8072],[159.849,53.8284,0.0],[159.8564,53.8509,0.0],[159.8554,53.8531,0.4963],[159.8579,53.8554,0.0],[159.8687,53.8817,2.328],[159.8682,53.8835,2.9448],[159.8747,53.8962,1.8388],[159.8765,53.902,1.2323],[159.8742,53.9028,1.4506],[159.8733,53.9079,2.426],[159.8757,53.9066,0.0],[159.8781,53.9077,0.5977],[159.8821,53.9126,0.0],[159.8893,53.93,5.3748],[159.8921,53.9329,0.0],[159.8974,53.9448,1.3062],[159.9017,53.9486,0.0],[159.9053,53.9577,1.017],[159.9115,53.9656,0.0],[159.9186,53.9811,0.0],[159.9272,53.9922,0.0],[159.9306,53.9944,0.0],[159.9328,54.0,0.0],[159.9373,54.0038,0.0],[159.9366,54.0051,2.8508],[159.9476,54.014,1.1096],[159.9484,54.0222,1.5241],[159.9571,54.0283,20.3228],[159.9599,54.032,0.0],[159.9594,54.0356,34.8792],[159.9633,54.0367,0.6042],[159.9595,54.0393,16.3462],[159.9638,54.0427,12.3316],[159.963,54.0467,22.6174],[159.9688,54.0504,1.0928],[159.9652,54.0525,5.6723],[159.9683,54.0567,0.0],[159.968,54.0596,9.0447],[159.9748,54.0633,0.0],[159.9736,54.0644,29.0616],[159.9761,54.0681,9.177],[159.9826,54.0686,0.0],[159.9801,54.0699,22.5961],[159.9816,54.0733,13.7149],[159.978,54.075,7.3726],[159.9785,54.0768,2.2314],[159.9843,54.0808,4.8682],[159.9903,54.0811,0.0],[159.9779,54.0848,10.5396],[159.9789,54.0922,16.1624],[159.986,54.1027,0.0],[159.9877,54.1078,0.0],[159.9807,54.1106,2.6564],[159.9786,54.1172,0.9285],[159.9681,54.1187,18.6243],[159.9661,54.1219,0.0],[159.968,54.124,10.1851],[159.9776,54.125,0.0],[159.9845,54.1296,0.0],[159.9854,54.1321,0.0],[159.9785,54.1391,0.3401],[159.9841,54.1394,0.322],[159.9863,54.137,0.0],[159.9916,54.1371,0.3305],[159.9971,54.14,0.0],[159.998,54.143,0.2709],[160.0033,54.1455,0.035],[160.0024,54.1473,0.0],[159.9919,54.1503,0.2508],[159.9921,54.152,0.1955],[159.989,54.1544,0.119],[159.9937,54.1548,0.1317],[159.998,54.1576,0.0],[159.9944,54.1605,0.2643],[160.0024,54.1613,0.0784],[160.0035,54.1651,0.1699],[160.0128,54.1681,3.5607],[160.0293,54.1667,0.0369],[160.0365,54.1631,0.0],[160.029,54.1559,0.1983],[160.0227,54.1554,0.2128],[160.0254,54.154,0.5646],[160.0251,54.1525,0.7017],[160.0153,54.1415,2.0573],[159.9995,54.1281,0.0],[159.9995,54.1257,2.279],[159.9888,54.1119,0.8612],[159.991,54.1109,0.8612],[160.0078,54.1283,0.0],[160.0078,54.13,0.0],[160.0222,54.1433,0.0],[160.0278,54.1508,3.6677],[160.0433,54.1619,0.0],[160.045,54.165,0.0],[160.0617,54.1786,0.0],[160.0611,54.18,16.0555],[160.0878,54.1992,13.4496],[160.1,54.2039,9.4213],[160.1039,54.2031,0.0],[160.1033,54.2047,0.4229],[160.105,54.2056,0.0],[160.1028,54.2083,0.0],[160.105,54.21,0.0],[160.1128,54.2122,6.0998],[160.1167,54.2103,0.0],[160.1211,54.2125,3.6637],[160.1206,54.2189,23.2604],[160.1289,54.2183,0.0],[160.1233,54.2214,11.7064],[160.1245,54.2236,0.0],[160.1294,54.2244,3.1383],[160.1328,54.2275,6.2948],[160.1522,54.2275,27.557],[160.1594,54.2256,4.5792],[160.1672,54.2308,30.1405],[160.1689,54.2347,4.7333],[160.1672,54.2375,32.4245],[160.1694,54.2397,14.7561],[160.1756,54.2414,1.5984],[160.18,54.2383,0.0],[160.1842,54.2384,0.0],[160.1856,54.245,8.6436],[160.1894,54.2472,11.1827],[160.1883,54.2494,13.8023],[160.1928,54.2528,2.5172],[160.2011,54.2528,8.571],[160.2056,54.2492,11.729],[160.21,54.2517,0.0],[160.2144,54.2508,6.242],[160.22,54.2542,0.0],[160.2195,54.2581,0.0],[160.2222,54.2633,0.0],[160.2294,54.2647,0.5702],[160.2361,54.2614,0.0],[160.2433,54.2656,22.7033],[160.2483,54.2647,3.3584],[160.2472,54.2703,40.168],[160.2495,54.272,0.0],[160.2515,54.2714,0.0],[160.2505,54.2736,11.8505],[160.2606,54.2781,5.3095],[160.2694,54.2769,0.0],[160.2728,54.2792,2.1906],[160.2733,54.2831,4.9376],[160.2811,54.2831,2.1129],[160.2817,54.2872,10.6415],[160.28,54.2897,0.0],[160.2922,54.2956,2.2757],[160.315,54.3025,0.0],[160.3328,54.3186,0.0],[160.3446,54.3345,0.0],[160.3617,54.3456,0.0],[160.3789,54.3594,4.5798],[160.4211,54.3847,0.9676],[160.4733,54.4117,0.0],[160.4794,54.4161,2.815],[160.5717,54.4619,1.2842],[160.6383,54.4903,0.0],[160.6906,54.5097,0.0],[160.765,54.5336,0.0],[160.81,54.55,0.0],[160.8989,54.5731,2.2739],[160.985,54.5881,6.5646],[161.01,54.5915,4.8206],[161.0435,54.5934,2.4742],[161.1295,54.5928,17.5929],[161.145,54.5906,5.0298],[161.1606,54.5909,6.2537],[161.1946,54.5851,3.9977],[161.2041,54.5789,5.309],[161.2011,54.5742,0.0],[161.2017,54.5711,0.0],[161.1994,54.5664,23.1789],[161.2002,54.5607,27.0471],[161.204,54.5574,3.9934],[161.2052,54.5535,19.8307],[161.2039,54.5467,2.7385],[161.2002,54.5444,5.6878],[161.2002,54.5373,15.5453],[161.2044,54.532,0.0],[161.2017,54.5242,0.0],[161.2228,54.5114,3.771],[161.2354,54.5103,5.4504],[161.2444,54.5022,42.7504],[161.2456,54.4994,5.5054],[161.2546,54.496,21.5724],[161.2574,54.492,0.0],[161.2713,54.4928,4.366],[161.2761,54.4914,5.5986],[161.2778,54.4894,7.5564],[161.2844,54.4879,0.0],[161.288,54.4819,1.4484],[161.2961,54.4876,24.0993],[161.3099,54.4914,3.3468],[161.3294,54.4944,5.6439],[161.345,54.4944,3.3133],[161.3462,54.4958,38.4464],[161.3562,54.4967,5.998],[161.3667,54.5013,4.3771],[161.3833,54.4985,0.0],[161.4072,54.4977,7.0362],[161.415,54.4989,15.9275],[161.4228,54.5033,0.0],[161.4339,54.5064,5.7165],[161.4812,54.5155,47.2811],[161.5083,54.5094,4.4784],[161.5189,54.5114,0.0],[161.5317,54.5072,15.7511],[161.5494,54.5086,1.1547],[161.5488,54.5099,28.1083],[161.5564,54.5137,3.8775],[161.5683,54.5128,2.8278],[161.5812,54.5167,5.0536],[161.6128,54.5185,6.3827],[161.6769,54.5108,11.7002],[161.6801,54.5066,2.5301],[161.6861,54.5064,6.055],[161.6946,54.5022,19.8345],[161.6995,54.5051,1.5383],[161.7158,54.5053,0.089],[161.7218,54.5101,0.0],[161.7307,54.5126,14.6605],[161.735,54.5189,18.6961],[161.7493,54.5268,8.0909],[161.7569,54.5345,10.8242],[161.7634,54.5341,10.6262],[161.7703,54.5402,0.0],[161.7742,54.5387,0.0],[161.771,54.5453,51.9104],[161.773,54.5473,11.1487],[161.7816,54.5526,41.551],[161.7868,54.5541,31.0904],[161.7903,54.5534,0.4378],[161.7921,54.5567,0.0],[161.7989,54.5603,2.3181],[161.8005,54.5621,12.241],[161.8001,54.5727,8.4009],[161.8026,54.5737,0.0],[161.8042,54.5772,7.8323],[161.8119,54.5804,0.0],[161.8226,54.5877,9.6546],[161.8332,54.5987,5.0212],[161.8512,54.6074,39.2281],[161.8723,54.6145,1.3051],[161.877,54.6217,50.347],[161.9025,54.6305,18.6778],[161.9067,54.6333,0.0],[161.9073,54.6355,20.9206],[161.9119,54.6374,22.3149],[161.9201,54.6363,0.0],[161.9279,54.6414,0.0],[161.9461,54.6464,5.0388],[161.9552,54.6579,6.9699],[161.9649,54.6649,3.3428],[161.9797,54.6652,0.0],[161.9805,54.6674,5.2141],[161.9791,54.6699,47.0961],[161.9889,54.6783,0.0],[161.9939,54.6869,15.2206],[161.9937,54.6909,7.0791],[161.9989,54.6959,7.2546],[162.0143,54.7012,2.7445],[162.0384,54.7025,4.4477],[162.0407,54.7047,4.3181],[162.04,54.7073,26.2647],[162.0426,54.7122,8.5699],[162.0529,54.7115,0.4969],[162.0528,54.7159,0.0],[162.0563,54.7189,9.2632],[162.0539,54.7209,28.5401],[162.0538,54.7234,12.858],[162.0719,54.7339,4.8178],[162.0947,54.7386,0.0],[162.1097,54.7441,29.7137],[162.1194,54.7494,24.3585],[162.1383,54.7522,11.6756],[162.1389,54.7553,0.0],[162.1306,54.7577,81.5903],[162.1295,54.7594,5.6409],[162.1311,54.7686,0.0],[162.1294,54.7694,0.0],[162.1294,54.7717,0.0],[162.1323,54.7742,29.1109],[162.1272,54.7803,0.0],[162.1267,54.7903,0.0],[162.105,54.8011,0.0],[162.1033,54.8061,3.5971],[162.1039,54.8119,0.0],[162.1065,54.8154,0.0],[162.1048,54.8192,2.3894],[162.1211,54.8339,16.5188],[162.135,54.8361,5.5991],[162.1511,54.8321,19.7145],[162.1572,54.8364,26.599],[162.1539,54.8397,31.127],[162.1517,54.845,0.0],[162.1517,54.8475,0.0],[162.155,54.8514,40.0981],[162.1494,54.8569,0.0],[162.1389,54.8603,2.6453],[162.1372,54.8642,0.0],[162.1311,54.8656,0.0],[162.1283,54.8686,6.7243],[162.1072,54.8742,0.0],[162.1022,54.8767,1.5267],[162.0989,54.8808,1.3447],[162.0906,54.8817,12.5976],[162.0794,54.8867,3.8499],[162.0794,54.8889,0.0],[162.0761,54.8911,9.8778],[162.0761,54.8975,0.0],[162.0728,54.9036,0.0],[162.0633,54.9064,1.138],[162.0556,54.9114,8.5888],[162.0561,54.9153,11.4152],[162.0528,54.9172,0.8161],[162.0544,54.9219,0.0],[162.0511,54.9247,23.9463],[162.0522,54.9281,28.2245],[162.0511,54.9294,15.2339],[162.0522,54.9344,27.1226],[162.0561,54.9381,0.0],[162.055,54.9425,0.0],[162.0522,54.9439,19.7956],[162.0483,54.9508,3.141],[162.0444,54.9547,0.0],[162.0317,54.9614,9.1161],[162.0244,54.9622,1.5401],[162.0189,54.9672,19.0757],[162.0178,54.9703,2.4137],[162.0044,54.9764,49.6524],[162.0022,54.9794,0.0],[162.0033,54.9825,0.0],[162.0022,54.9856,0.0],[161.9976,54.9884,9.398],[161.9963,54.9987,28.6545],[161.9884,55.004,5.5281],[161.9896,55.006,0.0],[161.9855,55.0068,17.8741],[161.9835,55.0046,2.5217],[161.9792,55.0041,8.6929],[161.9724,55.007,3.3521],[161.975,55.0107,0.0],[161.9744,55.0119,0.0],[161.961,55.0173,9.0166],[161.9611,55.023,22.9846],[161.9579,55.0301,0.0],[161.9489,55.0353,51.7615],[161.9493,55.0372,8.1936],[161.9436,55.0414,0.1933],[161.9328,55.0469,18.3193],[161.9297,55.0533,3.2366],[161.9268,55.0501,23.1678],[161.9222,55.05,48.691],[161.9103,55.054,0.9094],[161.8992,55.0603,9.5058],[161.8744,55.0646,3.6863],[161.8731,55.0658,1.7127],[161.8777,55.0651,2.3692],[161.8742,55.0668,0.4345],[161.8716,55.0669,1.7127],[161.8669,55.064,1.1697],[161.8591,55.0663,1.6654],[161.8681,55.0694,3.8853],[161.877,55.0689,1.7057],[161.8633,55.0838,1.3037],[161.8539,55.1,1.4301],[161.8412,55.1157,5.8636],[161.8357,55.1279,0.6645],[161.821,55.1281,2.2485],[161.8232,55.1305,36.2119],[161.8301,55.1306,35.06],[161.8305,55.1363,2.192],[161.828,55.1383,10.3825],[161.8212,55.1514,9.9844],[161.8131,55.1595,5.5254],[161.8075,55.1719,35.0041],[161.7115,55.145,273.313],[161.5943,55.1191,144.7766],[161.532,55.0868,577.9215],[161.5058,55.0447,514.7232],[161.4286,55.024,337.7999],[161.3805,55.0292,588.5305],[161.3391,55.0539,626.4541],[161.2393,55.1032,486.5591],[161.1675,55.1305,884.0048],[161.1014,55.1229,758.468],[160.9949,55.0909,1337.0289],[160.768,55.0553,1770.4402]]],
[[[159.5446,53.2216,39.2852],[159.5367,53.2253,0.0],[159.5356,53.2239,0.0],[159.5367,53.2231,6.7896],[159.5333,53.2219,0.0],[159.535,53.2192,6.0503],[159.5416,53.2159,5.5895],[159.5394,53.2114,0.0],[159.5467,53.2086,0.0],[159.5522,53.2122,68.6355],[159.5522,53.2139,0.0],[159.548,53.2164,0.0],[159.5511,53.2209,0.0913],[159.5446,53.2216,39.2852]]],
[[[159.9506,53.63,0.0],[159.9522,53.6328,0.0],[159.95,53.6342,0.0],[159.9444,53.6322,0.0],[159.9489,53.6297,0.0],[159.9506,53.63,0.0]]]]}}