{"type":"Feature","properties":{"GID_3":"RUS.9.1.1_1","GID_0":"RUS","country":"Russia","GID_1":"RUS.9_1","province":"Buryat","NL_NAME_1":"РеспубликаБурятия","GID_2":"RUS.9.1_1","county":"Barguzinskiyrayon","NL_NAME_2":"Баргузинскийрайон","city":"NA","VARNAME_3":"NA","NL_NAME_3":"NA","TYPE_3":"NA","ENGTYPE_3":"NA","CC_3":"NA","HASC_3":"NA","name":"N_A.city"},
"geometry":{"type": "MultiPolygon","coordinates": [[[[109.4805,54.0793,455.0],[109.463,54.0533,455.0],[109.4629,54.0267,684.1978],[109.4372,54.0188,478.2104],[109.4206,54.0046,481.3867],[109.4061,53.9829,840.8929],[109.3625,53.9544,478.7431],[109.2374,53.9136,455.0],[109.2283,53.8822,455.0],[109.1938,53.83,455.0],[109.1605,53.8015,455.0],[109.1978,53.7801,551.2604],[109.1995,53.7551,455.0],[109.185,53.7352,455.0],[109.1533,53.7268,455.0],[109.1519,53.7021,455.0],[109.1777,53.6981,563.2679],[109.1802,53.6823,456.2048],[109.1549,53.666,455.0],[109.1353,53.6511,455.0],[109.0919,53.6318,455.0],[109.0066,53.649,455.0],[108.9617,53.6499,506.4518],[108.9852,53.6718,546.606],[109.0099,53.6909,533.0381],[109.0184,53.7261,637.2737],[109.0315,53.7617,455.0],[109.0053,53.7639,570.7481],[108.9989,53.8103,618.6467],[109.0307,53.8132,538.4044],[109.0256,53.8512,852.7036],[108.9793,53.867,455.0],[108.8798,53.853,455.0],[108.8288,53.8223,455.0],[108.7749,53.7862,455.0],[108.7354,53.7361,455.0],[108.6952,53.6907,462.4713],[108.6455,53.6442,455.0],[108.5817,53.5941,455.0],[108.5234,53.5638,455.0],[108.4827,53.5201,455.0],[108.5143,53.5149,455.0],[108.5422,53.5219,455.0],[108.5929,53.5482,1043.2643],[108.6563,53.5652,1171.3794],[108.7785,53.5821,519.4123],[108.8609,53.6085,562.9048],[108.8921,53.6152,506.851],[108.9194,53.6102,459.1265],[108.936,53.5822,457.1426],[108.9502,53.5488,456.0734],[108.9585,53.4976,455.0],[108.946,53.4306,455.0],[108.9184,53.3785,455.0],[108.8845,53.3445,455.0],[108.8133,53.3191,455.0],[108.7908,53.2951,455.0],[108.7293,53.2743,455.0],[108.6992,53.2795,466.8228],[108.6511,53.306399999999996,455.0],[108.6224,53.3041,455.0],[108.5798,53.2854,455.0],[108.5164,53.2867,455.0],[108.5034,53.2537,455.0],[108.4748,53.2283,455.0],[108.4316,53.2087,455.0],[108.416,53.1722,455.0],[108.3506,53.1478,455.0],[108.4284,53.0883,554.7461],[108.5091,53.0551,632.2397],[108.6645,53.0362,572.5119],[108.7727,53.0385,801.8755],[108.8565,53.0732,807.2312],[108.9826,53.0922,917.3274],[109.0707,53.153,1137.9667],[109.2311,53.1726,1215.0046],[109.2665,53.2092,1245.7832],[109.4519,53.3277,1068.3982],[109.6034,53.3753,1303.8337],[109.6874,53.3862,1139.6611],[109.7527,53.3739,1049.5564],[109.8956,53.3019,1129.9692],[110.0316,53.3752,1610.5219],[110.1749,53.3979,1402.5208],[110.1953,53.3692,1594.5079],[110.1721,53.3123,1117.5695],[110.1158,53.2751,1217.0669],[110.216,53.2435,1435.4117],[110.4203,53.2748,1579.0439],[110.4995,53.2736,1784.3336],[110.7288,53.2973,1301.7238],[110.7658,53.3584,1418.3762],[110.8036,53.4881,1347.7792],[110.8602,53.5633,1396.2854],[111.0009,53.6536,1783.6332],[111.1241,53.6726,1762.7817],[111.2242,53.7067,1508.9902],[111.2151,53.7667,1443.6633],[111.2374,53.8097,1871.0349],[111.205,53.8342,2211.4473],[111.1819,53.8829,2219.1433],[111.2784,53.9108,1603.7461],[111.2699,53.9513,1904.2096],[111.1523,53.9549,2002.6656],[111.1121,54.0124,2208.0234],[111.0277,54.0301,1762.1342],[110.9609,54.0293,1455.4402],[110.964,54.0677,1150.0024],[110.9348,54.0936,1175.202],[110.932,54.1491,836.0322],[110.905,54.1767,1298.6841],[110.8299,54.1766,1105.7781],[110.7131,54.1465,1418.5729],[110.5188,54.0896,1091.7607],[110.4134,54.048,950.197],[110.2539,54.0214,560.0358],[110.0558,54.0295,586.7621],[109.9639,54.058,1542.2015],[109.9187,54.1053,1794.924],[109.8355,54.0842,1581.6405],[109.7133,54.072,1311.429],[109.6464,54.0705,1856.8363],[109.5843,54.0759,1773.54],[109.5309,54.0832,992.3969],[109.4805,54.0793,455.0]]]]}}