{"type":"Feature","properties":{"GID_2":"RUS.2.42_1","GID_0":"RUS","country":"Russia","GID_1":"RUS.2_1","province":"Altay","NL_NAME_1":"Алтайскийкрай","county":"Shelabolikhinskiyrayon","VARNAME_2":"NA","NL_NAME_2":"Шелаболихинскийрайон","TYPE_2":"Raion","ENGTYPE_2":"District","CC_2":"R53095","HASC_2":"RU.AL.SB","name":"Shelabolikhinskiyrayon.county"},
"geometry":{"type": "MultiPolygon","coordinates": [[[[82.9948,53.5185,131.2738],[82.9735,53.5667,162.01],[82.9181,53.6265,154.5969],[82.8414,53.6802,157.7703],[82.7875,53.7216,172.573],[82.7208,53.745,173.0211],[82.7087,53.7113,170.3036],[82.6326,53.6743,161.6526],[82.6523,53.6343,147.2516],[82.6268,53.6163,162.9188],[82.5539,53.5834,132.2085],[82.526,53.5603,134.4252],[82.5577,53.5362,134.3192],[82.4529,53.5141,123.8268],[82.3531,53.5264,119.0],[82.3069,53.5641,123.807],[82.2591,53.5809,131.0141],[82.1565,53.6124,120.4603],[82.1876,53.6624,116.0],[82.1347,53.6793,120.7578],[82.021,53.6788,119.7703],[82.059,53.6389,120.1399],[82.0285,53.5711,121.5673],[82.0091,53.5172,168.9783],[82.0004,53.4782,198.1068],[82.0274,53.4272,226.6422],[82.032,53.4073,246.5324],[82.0765,53.4042,250.0432],[82.1019,53.3566,234.3535],[82.1123,53.3274,226.1564],[82.1659,53.3078,201.1135],[82.1886,53.2965,211.988],[82.213,53.261,238.142],[82.3232,53.2628,210.8149],[82.3647,53.231,272.6292],[82.4248,53.2312,260.6844],[82.4455,53.2589,263.8192],[82.5412,53.3134,252.0047],[82.5841,53.2677,216.0928],[82.6432,53.2948,217.551],[82.6751,53.3157,240.3533],[82.7123,53.3103,225.8257],[82.8581,53.3535,220.3012],[82.8812,53.4122,235.278],[82.7492,53.493899999999996,140.9479],[82.7688,53.5212,126.4325],[82.8449,53.5115,136.8999],[82.9381,53.5098,129.5362],[82.9948,53.5185,131.2738]]]]}}