{"type":"Feature","properties":{"GID_3":"RUS.60.16.1_1","GID_0":"RUS","country":"Russia","GID_1":"RUS.60_1","province":"Sakha","NL_NAME_1":"РеспубликаСаха","GID_2":"RUS.60.16_1","county":"Momskiyrayon","NL_NAME_2":"Момскийрайон","city":"NA","VARNAME_3":"NA","NL_NAME_3":"NA","TYPE_3":"NA","ENGTYPE_3":"NA","CC_3":"NA","HASC_3":"NA","name":"N_A.city"},
"geometry":{"type": "MultiPolygon","coordinates": [[[[148.3689,64.5286,872.0504],[148.3327,64.547,948.444],[148.2663,64.5646,795.7792],[148.2225,64.5942,706.4159],[148.2609,64.6317,598.3215],[148.3311,64.6766,701.8232],[148.3977,64.7471,1005.2881],[148.4083,64.8108,623.6104],[148.4266,64.8535,926.1187],[148.4806,64.8927,651.379],[148.5513,64.9075,751.9924],[148.651,64.9189,578.9913],[148.7399,64.9561,448.1397],[148.7594,64.9973,546.9354],[148.8052,65.0447,612.119],[148.881,65.0686,849.9607],[148.981,65.0861,566.083],[148.9584,65.114,592.3166],[148.8815,65.1366,472.9267],[148.8129,65.1731,574.7601],[148.8137,65.208,749.2712],[148.7862,65.2352,797.496],[148.7323,65.2745,707.7831],[148.6229,65.3305,1142.7504],[148.4975,65.3812,891.5328],[148.4739,65.4177,843.9775],[148.4815,65.456,570.6514],[148.4828,65.4858,589.7836],[148.4202,65.5157,524.6421],[148.2566,65.5241,794.0685],[148.2031,65.5529,600.5565],[148.2729,65.5821,697.532],[148.3218,65.6068,871.7419],[148.2757,65.6354,795.4297],[148.1743,65.6524,730.8598],[148.0635,65.6582,756.47],[147.946,65.6939,811.6274],[147.8174,65.7405,734.8743],[147.6098,65.8503,988.1809],[147.4901,65.8954,920.7922],[147.4699,65.9371,1052.4154],[147.4353,65.9812,1013.5983],[147.3605,65.9986,948.4059],[147.2654,66.0122,724.631],[147.1581,66.0739,793.8604],[147.1896,66.1308,731.3696],[147.3119,66.2367,597.0187],[147.5623,66.3563,309.8083],[147.7874,66.4742,161.6124],[147.9657,66.5402,105.567],[148.2883,66.6083,69.5],[148.4973,66.6566,69.6193],[148.5686,66.7055,68.9415],[148.5319,66.7726,69.7085],[148.4739,66.8251,97.0375],[148.4756,66.8702,130.9084],[148.5336,66.9118,114.149],[148.4796,66.94,137.5263],[148.4006,66.9392,136.7696],[148.2967,66.9217,169.6935],[148.2279,66.9222,106.2861],[148.1846,66.9658,115.2376],[148.213,67.0089,150.1543],[148.3317,67.0721,451.9111],[148.3863,67.1258,442.7794],[148.4106,67.1981,646.1663],[148.3762,67.2325,543.7346],[148.257,67.2305,533.4997],[148.1162,67.2501,740.5508],[148.0107,67.2971,594.8256],[147.9595,67.344,393.7509],[147.8617,67.3715,500.0213],[147.7329,67.3568,345.3642],[147.631,67.3259,308.2421],[147.3737,67.2616,169.8483],[147.235,67.2689,121.3633],[147.1807,67.3102,108.9442],[147.2058,67.347,175.5705],[147.193,67.3713,131.4847],[147.105,67.3831,217.3566],[146.9954,67.4007,223.7877],[146.9921,67.4289,132.6624],[147.0714,67.4695,144.8807],[147.0631,67.4982,123.261],[147.0163,67.5096,125.1039],[146.9048,67.4922,70.4435],[146.8049,67.4474,70.1301],[146.8483,67.4277,67.8045],[146.8823,67.3991,72.7174],[146.8734,67.3725,73.2429],[146.9378,67.3413,72.9477],[147.0017,67.3054,79.7836],[147.0571,67.2331,101.3245],[147.0138,67.1562,90.9378],[146.9512,67.1352,94.0],[146.8704,67.1472,99.2714],[146.7863,67.1661,99.0948],[146.6816,67.1527,95.9681],[146.5532,67.1222,114.4563],[146.3761,67.1283,103.4968],[146.2729,67.167,97.4489],[146.2851,67.2041,93.6506],[146.3135,67.2279,87.4114],[146.2705,67.2392,85.861],[146.1817,67.2473,85.7529],[145.972,67.2315,85.1202],[145.7826,67.2406,80.5946],[145.635,67.2504,94.9196],[145.4756,67.2267,127.5885],[145.3648,67.1705,202.5243],[145.336,67.0937,277.1562],[145.2506,67.0031,453.4547],[145.0206,66.8674,998.6656],[144.9461,66.8396,1063.2917],[144.9164,66.7807,1232.6787],[144.8134,66.7352,1008.6016],[144.6749,66.7076,1568.9775],[144.5712,66.7107,1826.5643],[144.5207,66.7353,1555.6625],[144.3918,66.7632,1843.9117],[144.307,66.7683,1350.6652],[144.2159,66.7696,1377.9812],[144.1511,66.8018,1231.984],[144.1518,66.8324,1607.2362],[144.1366,66.853,1221.228],[144.0381,66.8963,1613.4954],[143.9207,66.9394,1508.9404],[143.7484,66.9825,1525.9685],[143.6196,67.0091,1350.9784],[143.538,67.0479,1550.0671],[143.4542,67.1042,808.1382],[143.3983,67.159,1266.651],[143.2925,67.21,1078.462],[143.0973,67.2831,731.6192],[142.9423,67.3274,333.1688],[142.8434,67.3577,357.9739],[142.778,67.4247,174.9368],[142.6603,67.4398,86.8667],[142.4654,67.4786,134.5083],[142.2252,67.4914,481.4828],[142.0382,67.4803,466.5833],[141.8091,67.4516,546.9034],[141.683,67.4693,757.3505],[141.6631,67.5014,800.7297],[141.6397,67.5166,644.1479],[141.5405,67.5324,587.2101],[141.3189,67.5786,386.0339],[141.2247,67.6347,443.8142],[141.196,67.7043,470.9703],[141.1768,67.7579,202.1091],[141.045,67.7586,145.1338],[140.8833,67.7668,201.212],[140.7901,67.7779,208.5349],[140.6761,67.8175,413.3414],[140.5693,67.8319,372.0686],[140.456,67.8205,381.8484],[140.3369,67.7896,502.7393],[140.1948,67.7745,608.2665],[140.0461,67.7456,278.5861],[139.9143,67.7069,255.1235],[139.8159,67.6739,310.9867],[139.7103,67.6198,392.6314],[139.6057,67.5763,587.2004],[139.5129,67.5408,952.3704],[139.375,67.5198,1082.6837],[139.2351,67.5113,1425.5139],[139.1079,67.5278,1758.4307],[138.9946,67.5342,1291.229],[138.8997,67.5315,1269.9913],[138.7623,67.5154,1399.6621],[138.8548,67.4731,1149.9139],[138.9342,67.4284,1217.5359],[139.0266,67.3587,608.2532],[139.027,67.3009,748.4109],[138.938,67.2557,1490.1572],[138.8694,67.2119,1791.1445],[138.8387,67.1663,1531.3727],[138.8869,67.1053,1163.7382],[139.002,67.0656,1120.5995],[139.1768,67.0453,848.8879],[139.3031,67.023,1244.3268],[139.4247,66.9482,962.5897],[139.4534,66.8862,1154.8365],[139.4693,66.8394,1520.902],[139.5607,66.8092,1846.8457],[139.6733,66.804,1349.5455],[139.7729,66.8021,1438.8966],[139.8521,66.7803,1139.573],[139.9047,66.7324,1355.5559],[139.9576,66.679,1899.782],[140.0295,66.6479,1589.2322],[140.2212,66.6045,1183.5151],[140.2747,66.566,1544.368],[140.3471,66.563,1527.5012],[140.4248,66.562,1431.6854],[140.4904,66.5487,1444.9136],[140.4926,66.5205,1063.9122],[140.429,66.4406,1250.3695],[140.3409,66.4148,1183.5581],[140.2283,66.4231,1274.5444],[140.1259,66.4143,1624.2316],[139.8154,66.3391,1694.9832],[139.6644,66.2937,1652.3412],[139.6121,66.2408,1460.3661],[139.6382,66.1835,1762.0598],[139.8066,66.133,1951.2214],[139.9775,66.0772,1738.9391],[140.0827,66.0212,1655.9503],[140.0454,65.9511,1544.6483],[140.0192,65.9285,2032.1716],[140.1084,65.8845,1956.0015],[140.2444,65.8329,1824.7107],[140.3695,65.8193,1835.7366],[140.3375,65.7785,1555.0985],[140.2668,65.7386,1332.1927],[140.1848,65.7128,1409.7288],[140.0989,65.6716,1681.855],[140.1294,65.6345,1622.1583],[140.2128,65.6004,1931.0702],[140.3287,65.5606,2054.6555],[140.4988,65.5682,1798.6912],[140.647,65.5873,1368.3916],[140.8345,65.623,1344.2273],[140.9367,65.5941,1964.8127],[140.9734,65.5614,1902.4131],[141.0012,65.5247,1628.322],[141.3919,65.4891,1627.3616],[141.5459,65.4712,2156.1492],[141.6357,65.4428,2246.447],[141.7126,65.4124,1128.3945],[141.8042,65.409,1254.0385],[141.8808,65.4212,1157.5575],[142.0323,65.3999,1300.3997],[142.3921,65.3161,1021.4951],[142.5999,65.2895,1607.7073],[142.7132,65.2991,1214.4181],[142.8261,65.2851,1366.733],[142.9788,65.2113,1143.0723],[143.0823,65.2133,569.9585],[143.2286,65.2044,688.226],[143.3716,65.1839,1314.3607],[143.4698,65.1476,1407.1129],[143.6049,65.0893,1724.4187],[143.7342,65.0691,1530.3638],[143.9067,65.052,1850.849],[144.1416,65.009,1417.4818],[144.174,64.9769,1246.9187],[144.1734,64.9359,1394.646],[144.3573,64.9028,1057.3019],[144.6058,64.8012,976.015],[144.6603,64.7581,854.2987],[144.6598,64.7157,751.6414],[144.63,64.6659,851.6258],[144.5532,64.5926,659.733],[144.6359,64.5791,758.6464],[144.761,64.5904,1056.4369],[144.8374,64.5834,992.7658],[144.9631,64.5531,1311.7839],[145.1029,64.5512,1124.2407],[145.2345,64.5172,1106.9845],[145.3261,64.4781,1053.1997],[145.4585,64.4504,1448.3038],[145.5859,64.4358,1217.9863],[145.7608,64.3988,1326.7031],[145.9208,64.3492,1266.6124],[146.0412,64.2955,1025.6572],[146.083,64.2657,1264.869],[146.124,64.2292,1257.3157],[146.1961,64.2026,1362.7961],[146.2798,64.1835,1410.1312],[146.3567,64.1539,1039.9187],[146.4153,64.174,1211.0198],[146.4931,64.1603,1319.7811],[146.5828,64.1388,1370.5786],[146.6952,64.1453,1255.4691],[146.8899,64.1598,1164.7241],[146.9801,64.14,1205.0941],[147.1127,64.0953,1349.2612],[147.2248,64.0471,1366.0032],[147.3364,64.0439,1622.6219],[147.3661,64.104,1755.7013],[147.469,64.0909,1234.7118],[147.6449,64.1411,1783.4125],[147.7049,64.1139,2033.5763],[147.6746,64.0573,1739.4279],[147.6348,64.0294,1275.2013],[147.6935,64.0062,1250.8934],[147.767,63.9918,1246.4569],[147.8033,63.971,1376.6376],[147.7668,63.9347,1235.8696],[147.8999,63.9358,1094.8835],[147.9417,63.9212,1190.5671],[148.0414,63.9361,1023.524],[148.029,63.9971,923.0534],[148.0711,64.0482,866.6601],[148.1704,64.1246,1459.5054],[148.3009,64.2037,1053.0444],[148.2523,64.2306,1269.3855],[148.1687,64.2585,1026.2709],[148.0856,64.3233,833.2314],[148.0489,64.403,827.6335],[148.1633,64.4287,768.6685],[148.3689,64.5286,872.0504]]]]}}