{"type":"Feature","properties":{"GID_3":"RUS.35.35.1_1","GID_0":"RUS","country":"Russia","GID_1":"RUS.35_1","province":"Krasnoyarsk","NL_NAME_1":"Красноярскийкрай","GID_2":"RUS.35.35_1","county":"Manskiyrayon","NL_NAME_2":"Манскийрайон","city":"NA","VARNAME_3":"NA","NL_NAME_3":"NA","TYPE_3":"NA","ENGTYPE_3":"NA","CC_3":"NA","HASC_3":"NA","name":"N_A.city"},
"geometry":{"type": "MultiPolygon","coordinates": [[[[93.1602,54.883,902.649],[93.258,54.8681,881.15],[93.3131,54.845,881.511],[93.3652,54.8036,941.0052],[93.4411,54.7909,1027.7771],[93.4775,54.8158,952.4044],[93.5117,54.8461,813.3331],[93.5416,54.8807,880.0443],[93.6312,54.8933,901.5016],[93.6983,54.9099,974.2827],[93.7577,54.9416,779.1754],[93.8051,54.978,750.6819],[93.8494,55.026,744.0233],[93.9113,55.045,884.764],[93.9598,55.0805,636.3442],[93.9802,55.1171,564.8231],[93.9742,55.1614,729.136],[94.0144,55.1983,695.2068],[94.0554,55.2187,758.1107],[94.0476,55.2475,560.6721],[94.0189,55.2833,439.9279],[93.9664,55.3242,441.7527],[93.9026,55.3516,468.4534],[93.8935,55.3839,552.7614],[93.9413,55.4139,575.9773],[93.9285,55.4488,706.1301],[93.8578,55.4595,634.7394],[93.8447,55.4952,565.6458],[94.0003,55.6014,423.0992],[93.9712,55.6299,443.2568],[93.9605,55.6557,477.44],[93.9264,55.6721,482.0223],[93.8761,55.6812,384.5464],[93.8448,55.7032,419.083],[93.8161,55.7472,343.3704],[93.7722,55.8078,361.5082],[93.7459,55.8629,320.0844],[93.7058,55.9154,377.7586],[93.7275,55.9541,441.3611],[93.7513,56.0029,464.3838],[93.7485,56.0375,499.9408],[93.6968,56.0701,549.3761],[93.621,56.0731,497.8927],[93.5518,56.0828,301.7316],[93.4811,56.1006,365.4179],[93.42,56.0796,385.7382],[93.3992,56.0236,348.7854],[93.3921,55.9848,420.687],[93.3068,55.9632,320.0019],[93.2448,55.9284,314.4385],[93.2236,55.886,245.352],[93.2515,55.8439,313.7597],[93.3546,55.7989,569.0504],[93.3528,55.7596,433.903],[93.3922,55.7373,559.5787],[93.3865,55.7087,561.9425],[93.2875,55.6671,499.593],[93.2971,55.6184,546.4347],[93.2992,55.5647,571.5444],[93.2939,55.5342,613.8441],[93.2539,55.5153,441.9665],[93.1894,55.5077,448.8327],[93.1346,55.4961,299.442],[93.1042,55.4814,532.3708],[93.1079,55.4543,459.8973],[93.1624,55.4294,396.8408],[93.2021,55.3671,479.2447],[93.1738,55.296,701.0594],[93.1102,55.2683,620.8514],[93.0625,55.2516,609.7216],[93.0257,55.2411,434.1442],[93.0205,55.1879,602.0458],[93.0251,55.1398,738.6564],[93.08,55.0566,841.0201],[93.1157,54.9868,725.2809],[93.1602,54.883,902.649]]]]}}