{"type":"Feature","properties":{"GID_3":"RUS.35.26.1_1","GID_0":"RUS","country":"Russia","GID_1":"RUS.35_1","province":"Krasnoyarsk","NL_NAME_1":"Красноярскийкрай","GID_2":"RUS.35.26_1","county":"Kanskiyrayon","NL_NAME_2":"Канскийрайон","city":"NA","VARNAME_3":"NA","NL_NAME_3":"NA","TYPE_3":"NA","ENGTYPE_3":"NA","CC_3":"NA","HASC_3":"NA","name":"N_A.city"},
"geometry":{"type": "MultiPolygon","coordinates": [[[[95.4856,56.6433,269.943],[95.4153,56.5986,265.4511],[95.348,56.5668,355.2845],[95.2856,56.548,374.3184],[95.1987,56.56,367.3874],[95.084,56.5836,356.0708],[95.034,56.5797,321.6872],[95.0041,56.5456,361.9814],[94.8724,56.5583,422.7457],[94.7544,56.6106,385.8768],[94.7109,56.6333,531.9528],[94.6402,56.6355,542.0717],[94.5901,56.6278,562.5502],[94.5703,56.6032,590.4102],[94.5977,56.557,477.1453],[94.5674,56.5156,440.4527],[94.5161,56.4621,534.0402],[94.4528,56.4278,473.1478],[94.548,56.4297,586.2675],[94.5943,56.4008,587.3365],[94.6169,56.3635,556.5386],[94.6097,56.3083,558.5524],[94.6436,56.2522,538.6836],[94.6775,56.2127,496.6796],[94.7354,56.2035,433.8811],[94.8402,56.1972,341.9486],[94.9579,56.1777,333.3525],[95.0656,56.1404,230.1799],[95.1789,56.1077,308.9283],[95.3542,56.03,333.619],[95.3871,55.9803,355.0777],[95.4114,55.9375,344.7452],[95.4268,55.858,291.9596],[95.4423,55.8322,378.9833],[95.5217,55.8089,343.8459],[95.5814,55.8248,383.4154],[95.638,55.8543,331.0794],[95.7178,55.8536,297.5005],[95.8181,55.81,243.9092],[95.8282,55.8495,232.2372],[95.8341,55.8815,229.4162],[95.8223,55.9485,296.3085],[95.8134,56.0182,310.9761],[95.8272,56.0925,216.1078],[95.8191,56.1551,207.4624],[95.8013,56.2346,292.7812],[95.7651,56.2716,225.4208],[95.7166,56.2908,287.9486],[95.6994,56.3193,221.0202],[95.6963,56.3557,265.9549],[95.7428,56.3811,257.5003],[95.7495,56.4059,303.5674],[95.6867,56.4346,325.1425],[95.6877,56.4638,311.6251],[95.7339,56.492,286.3302],[95.7074,56.5056,259.4919],[95.604,56.4954,291.9077],[95.5373,56.5057,343.8632],[95.5287,56.5373,284.2243],[95.5075,56.5958,249.5511],[95.4856,56.6433,269.943]],
[[95.7312,56.1523,215.1192],[95.7079,56.14,258.5482],[95.67,56.1408,290.5839],[95.6401,56.1512,286.7486],[95.6361,56.1849,208.3461],[95.6625,56.2046,201.9839],[95.7304,56.1933,207.4641],[95.7447,56.1708,209.2667],[95.7312,56.1523,215.1192]]]]}}