{"type":"Feature","properties":{"GID_3":"RUS.2.23.1_1","GID_0":"RUS","country":"Russia","GID_1":"RUS.2_1","province":"Altay","NL_NAME_1":"Алтайскийкрай","GID_2":"RUS.2.23_1","county":"Kulundinskiyrayon","NL_NAME_2":"Кулундинскийрайон","city":"NA","VARNAME_3":"NA","NL_NAME_3":"NA","TYPE_3":"NA","ENGTYPE_3":"NA","CC_3":"NA","HASC_3":"NA","name":"N_A.city"},
"geometry":{"type": "MultiPolygon","coordinates": [[[[78.784,52.3639,142.5315],[78.8525,52.3727,143.0061],[78.8969,52.3835,141.0299],[79.0364,52.3413,144.0762],[79.061,52.3795,143.1457],[79.085,52.3986,140.8042],[79.1569,52.3907,137.4024],[79.1966,52.4128,137.8093],[79.2449,52.4194,137.1077],[79.3145,52.4358,137.5399],[79.3445,52.4616,123.0],[79.4068,52.4889,135.5452],[79.5322,52.5158,131.3839],[79.591,52.5176,136.99],[79.6191,52.5296,137.3169],[79.6672,52.5397,134.821],[79.607,52.573,123.5207],[79.5713,52.6072,116.5035],[79.5381,52.6456,116.599],[79.4829,52.6369,115.3945],[79.4132,52.7075,110.5614],[79.3779,52.7112,118.9417],[79.3251,52.724,118.9321],[79.2516,52.7108,119.7281],[79.2029,52.7043,127.3962],[79.1759,52.7248,124.4331],[79.1546,52.7493,123.4169],[79.1198,52.7664,123.1248],[79.0811,52.7675,122.0166],[79.0491,52.7565,123.1853],[79.008,52.7332,125.491],[78.9956,52.7184,125.3017],[78.9875,52.6757,127.8857],[78.9719,52.6526,130.6113],[78.871,52.629,133.2103],[78.8235,52.6205,132.1201],[78.7352,52.6002,135.2188],[78.7158,52.5839,135.9723],[78.7084,52.5662,137.6736],[78.7138,52.5481,139.4501],[78.6349,52.5232,138.7127],[78.784,52.3639,142.5315]]]]}}