{"type":"Feature","properties":{"GID_2":"RUS.80.9_1","GID_0":"RUS","country":"Russia","GID_1":"RUS.80_1","province":"Yamal-Nenets","NL_NAME_1":"Ямало-НенецкийАОк","county":"Salekhard","VARNAME_2":"NA","NL_NAME_2":"Салехард","TYPE_2":"Gorsovet","ENGTYPE_2":"District","CC_2":"NA","HASC_2":"RU.YN.SA","name":"Salekhard.county"},
"geometry":{"type": "MultiPolygon","coordinates": [[[[66.5555,66.5436,5.1436],[66.6002,66.5304,20.7823],[66.6499,66.5346,16.1464],[66.6699,66.5682,29.3596],[66.6211,66.5813,43.7977],[66.5769,66.5776,47.8504],[66.5555,66.5436,5.1436]]]]}}