{"type":"Feature","properties":{"GID_3":"RUS.83.2.1_1","GID_0":"RUS","country":"Russia","GID_1":"RUS.83_1","province":"Zabaykal'ye","NL_NAME_1":"Забайкальскийкрай","GID_2":"RUS.83.2_1","county":"Akshinskiyrayon","NL_NAME_2":"Акшинскийрайон","city":"NA","VARNAME_3":"NA","NL_NAME_3":"NA","TYPE_3":"NA","ENGTYPE_3":"NA","CC_3":"NA","HASC_3":"NA","name":"N_A.city"},
"geometry":{"type": "MultiPolygon","coordinates": [[[[113.5903,50.0175,1036.2552],[113.6005,50.0227,1059.3123],[113.6659,50.0425,1042.6533],[113.7007,50.0561,885.6112],[113.7415,50.0762,1041.5571],[113.7793,50.0901,951.7354],[113.7956,50.0941,1041.7585],[113.8201,50.0949,998.0349],[113.8389,50.0916,920.305],[113.8565,50.0855,912.0164],[113.8688,50.0846,939.1566],[113.8953,50.1067,909.8966],[113.9464,50.1311,876.3871],[114.0012,50.1673,939.6818],[113.9953,50.1902,882.5855],[113.9564,50.2079,1034.6316],[113.9191,50.2303,938.2438],[113.8974,50.2613,882.1198],[113.9057,50.3194,802.4611],[113.8872,50.3683,831.3204],[113.8364,50.4094,691.007],[113.7675,50.4048,691.6879],[113.7561,50.4276,690.8503],[113.7381,50.4512,697.6048],[113.6791,50.4724,843.5006],[113.6063,50.4942,901.1544],[113.54,50.5027,859.0966],[113.4976,50.4975,802.2202],[113.4772,50.4537,800.3329],[113.4117,50.4503,864.4513],[113.3819,50.4356,966.6609],[113.3386,50.3975,716.5182],[113.2212,50.4083,747.7499],[113.2295,50.4286,844.3902],[113.2328,50.4582,773.021],[113.2252,50.4843,810.3509],[113.1654,50.5072,903.3486],[113.181,50.5584,859.3485],[113.1363,50.5427,1079.0782],[113.0662,50.5484,1083.4857],[113.0483,50.5882,1209.05],[112.9829,50.5943,1280.176],[112.9456,50.565,1084.4485],[112.911,50.5566,1120.4011],[112.8538,50.5665,1092.2329],[112.7987,50.5721,913.9687],[112.7472,50.5522,940.6453],[112.7114,50.5361,1145.6774],[112.6678,50.5413,1190.6997],[112.6114,50.576,1283.6914],[112.5964,50.5985,1135.9125],[112.5906,50.5113,1176.2812],[112.5444,50.4799,1051.821],[112.4702,50.4664,1260.2296],[112.4167,50.4107,1426.9006],[112.3828,50.3419,1373.0345],[112.3462,50.288,1537.3958],[112.3176,50.2359,1379.6357],[112.2909,50.1574,1329.1312],[112.2759,50.0931,1630.4714],[112.2416,50.0308,1506.0273],[112.2087,50.0093,1553.3027],[112.1608,49.9924,1492.353],[112.1624,49.9406,1576.0365],[112.2145,49.8887,1523.6631],[112.2616,49.854,1447.4098],[112.4378,49.8471,1202.6196],[112.4899,49.8478,968.554],[112.546,49.8285,1029.2257],[112.6149,49.8194,1037.9042],[112.6866,49.8372,844.5938],[112.7406,49.8619,805.4503],[112.8218,49.855,816.9255],[112.8493,49.8195,1028.4489],[112.8636,49.8089,1106.9622],[112.9238,49.8046,978.2604],[112.9761,49.7933,984.9047],[113.0612,49.817,1225.6289],[113.102,49.8529,1197.1748],[113.1361,49.8526,1204.38],[113.1586,49.8283,1153.7881],[113.1789,49.7906,1003.7647],[113.1863,49.8009,980.1282],[113.1985,49.8127,1004.4904],[113.2303,49.8349,1164.0662],[113.3292,49.8778,1029.7119],[113.3589,49.8924,1086.2043],[113.3965,49.9175,971.0126],[113.4442,49.9392,1046.2434],[113.4547,49.9418,993.5029],[113.4667,49.9497,993.6936],[113.4776,49.9662,962.1047],[113.4933,49.9749,969.3821],[113.5263,49.9751,1103.1719],[113.5365,49.9793,1031.8838],[113.5706,50.0076,1106.9719],[113.5903,50.0175,1036.2552]]]]}}