{"type":"Feature","properties":{"featurecla":"Range/mtn","name":"EASTERN SAYAN MTS.","namealt":null,"region":"Asia","subregion":null,"min_label":4.0,"max_label":8.0,"scalerank":3},
"geometry":{"type": "Polygon","coordinates": [[[95.940531237724855,52.364620542229233,1190.9434],[96.610850456646261,52.009955145306606,1477.0393],[98.3884383472712,51.716376043744077,1992.6949],[100.9854842457087,51.705450750775356,1785.8418],[101.68079674570876,51.883124090619106,2496.5593],[101.94629967539626,51.894354559369106,2657.4792],[102.2861434253962,51.855902410931577,758.3482],[102.45984948008376,51.886786199994049,772.8289],[102.51343834727126,51.877936102337827,828.5761],[102.5459090503962,51.853461004681606,846.2614],[102.5998641285212,51.792792059369106,802.3539],[102.64722740977126,51.773810125775356,829.7592],[102.72535240977126,51.774115301556606,901.9777],[102.90748131602126,51.810614324994077,727.6864],[103.1980086597712,51.758185125775356,759.2979],[103.22486412852126,51.769781805462827,676.1705],[103.23145592539626,51.802313543744077,701.2308],[103.24708092539626,51.828863836712856,904.1643],[103.2939559253962,51.843207098431577,769.8906],[103.6427108082087,51.848883367962856,901.7303],[103.66358483164626,51.860419012494106,838.0521],[103.71851647227126,52.030279852337856,836.016],[103.7186385425837,52.063055731244077,843.7318],[103.70887291758376,52.099676824994077,648.079],[103.68653405039626,52.142157293744134,711.1032],[103.61866295664626,52.224066473431606,576.3552],[103.43201744883376,52.356878973431577,588.9399],[99.8158065113337,54.036932684369049,569.6804],[99.2848006519587,54.453314520306549,638.1258],[98.9575301441462,54.633124090619106,995.6202],[96.7252303394587,55.479620672650356,482.0392],[96.463145378521261,55.526800848431577,426.8552],[95.9284774097712,55.507452703900356,277.904],[95.7017928394587,55.446783758587827,335.561],[95.3255721363337,55.265204168744077,402.5588],[95.1265975269587,55.203131414837856,333.6309],[95.015635612896261,55.193304754681606,459.1791],[94.6230574878962,55.216803289837884,467.7488],[94.255015495708761,55.294012762494106,435.1531],[93.1356307300837,55.835760809369049,468.7491],[92.904307487896261,55.884833074994106,340.8341],[92.675823787156816,55.880466031784295,426.4606],[92.5601912769587,55.825873114056577,181.282],[92.3783065113337,55.682318426556577,504.6324],[92.3186141285212,55.657294012494106,536.4902],[92.2706404957087,55.660956121869077,678.7596],[92.2133273634432,55.689464646700827,586.8221],[91.7644149097712,55.330877996869049,403.5064],[91.668833855083761,55.221991278119077,348.6841],[91.638316276958761,55.160284735150327,282.6967],[91.6218367847712,55.089789129681549,232.0],[91.621226433208761,55.007635809369106,232.0],[91.6384383472712,54.910650946087856,312.6348],[91.6699324878962,54.816351629681634,563.941],[91.712412956646261,54.735663153119106,525.1386],[91.7641707691462,54.666144110150384,680.3626],[91.8242293628962,54.605536199994077,589.7767],[92.4677840503962,54.188727117962856,420.9388],[92.8447371753962,53.838080145306634,291.5662],[93.8365584644587,53.178534246869049,967.8193],[93.998595296787329,53.131357374102578,897.8665],[95.0943709644587,52.812323309369049,1470.5088],[95.940531237724855,52.364620542229233,1190.9434]]]}}