{"type":"Feature","properties":{"featurecla":"Alkaline Lake","scalerank":3,"name":"Uvs Nuur","name_abb":"Uvs Nuur","name_alt":null,"note":null,"delta":null,"dam_name":null,"year":-99,"admin":null,"min_zoom":3.0,"min_label":4.0},
"geometry":{"type": "Polygon","coordinates": [[[92.324516027517177,50.226287334040279,761.5],[92.326576576407092,50.215101497209275,761.5],[92.331286402441208,50.204798752759672,761.5],[92.333935679585409,50.195967828945726,761.5],[92.337762413238067,50.17124124226666,761.5],[92.348359521814814,50.156228671782941,761.5],[92.405171798351262,50.124142981925587,761.5],[92.419595640580724,50.113545873348869,761.5],[92.426954743758984,50.100299487627922,761.5],[92.4290152926489,50.078810906347314,761.5],[92.4343138469373,50.071451803169026,763.525],[92.44667714027679,50.067625069516311,762.4063],[92.460512254252023,50.065270156499253,761.5],[92.470520634574484,50.062326515227937,761.5],[92.479940286642716,50.054084319668249,761.5],[92.485533205058175,50.0470195806171,761.5],[92.492597944109377,50.040249205693073,761.5],[92.504666873321753,50.034361923150442,761.5],[92.518207623169815,50.030829553624869,761.5],[92.56295097049383,50.027297184099268,761.5],[92.569132617163575,50.023176086319438,761.5],[92.571781894307776,50.013756434251235,761.5],[92.5732537149434,50.004336782183,761.5],[92.576491720341892,50.000215684403173,761.5],[92.689821909287559,49.993150945352,761.5],[92.74339618042552,49.997272043131858,761.5],[92.930906129408413,50.053201227286877,761.5],[92.965935460537082,50.079105270474457,761.5],[92.9671129170456,50.08263764000003,761.5],[92.973000199588228,50.08764183016126,761.5],[92.990662047216119,50.117372607001556,761.5],[93.053950334549427,50.17035814988526,763.4553],[93.067491084397489,50.188903089894552,762.1577],[93.073378366940119,50.20891985053953,761.5],[93.082798019008351,50.226581698167422,761.5],[93.105758420924644,50.236884442617026,761.5],[93.238516642261,50.266320855330207,761.5],[93.252057392109066,50.257489931516233,767.3127],[93.260005223541611,50.238356263252683,761.5],[93.2803163483137,50.234823893727111,761.5],[93.38098887979271,50.263965942313149,762.1765],[93.388053618843912,50.271030681364294,761.5],[93.393646537259372,50.278095420415468,761.5],[93.399239455674888,50.2813334258139,761.5],[93.403654917581889,50.285748887720871,761.5],[93.396884542657858,50.295462903916217,761.5],[93.3824607004284,50.309298017891422,761.5],[93.371569227724535,50.315479664561195,761.5],[93.360089026766389,50.320189490595283,761.5],[93.347431369299727,50.322544403612341,761.5],[93.333890619451665,50.3222500394852,761.9702],[93.322410418493519,50.318128941705368,762.3328],[93.301804929594311,50.304588191857306,765.2345],[93.289441636254764,50.301644550585991,768.5701],[93.279727620059418,50.304882555984449,782.7213],[93.265009413702842,50.319012034086768,783.1181],[93.255001033380381,50.3222500394852,780.9332],[93.24823065845635,50.325488044883656,781.3585],[93.238516642261,50.334024604570487,776.3495],[93.231157539082687,50.345210441401491,761.5],[93.230863174955573,50.356396278232495,762.9559],[93.269130511482672,50.361106104266582,761.5],[93.2785501635509,50.363755381410783,761.5],[93.29150218514468,50.381122864911532,761.5],[93.278844527678018,50.387010147454191,761.5],[93.2552953975075,50.38347777792859,761.5],[93.234395544481174,50.373763761733244,764.9991],[93.21467314796331,50.35845682712241,763.678],[93.19642257208119,50.349331539181321,761.5],[93.177288903817612,50.347859718545664,761.5],[93.155800322537,50.356396278232495,761.5],[93.137844110782,50.371114484589071,761.5],[93.090451486313782,50.428809853506863,761.5],[93.074555823448691,50.439995690337867,761.5],[92.998315514521551,50.477379934483594,761.5],[92.99242823197892,50.484444673534767,761.5],[92.990662047216119,50.497396695128543,761.5],[92.985952221182,50.505344526561117,761.5],[92.974472020223914,50.515352906883578,761.5],[92.961814362757252,50.524183830697524,761.5],[92.9529834389433,50.527716200223125,761.5],[92.955043987833221,50.535958395782814,761.5],[92.990662047216119,50.583056656123858,761.5],[93.006557710081267,50.625445090430844,761.5],[92.994783144996,50.65340968250834,761.5],[92.962108726884367,50.671954622517632,762.51],[92.929139944645613,50.68520100823855,766.1765],[92.90058662431386,50.692854475543982,779.3069],[92.872916396363451,50.684023551730036,788.2226],[92.8487785379387,50.666361704102144,771.2249],[92.83023359792935,50.648111128219966,761.5],[92.822580130623976,50.637808383770363,761.5],[92.812277386174344,50.618085987252528,761.5],[92.806390103631713,50.610138155819982,761.5],[92.795792995054967,50.601895960260293,761.5],[92.773421321392959,50.588943938666517,763.4627],[92.761941120434813,50.579229922471171,761.5],[92.750755283603837,50.573342639928512,761.5],[92.713371039458082,50.563922987860309,761.5],[92.686289539762015,50.560684982461851,761.9082],[92.641840556565114,50.548027324995189,762.3661],[92.609460502580646,50.547438596740932,765.1044],[92.543817302230252,50.553914607537848,764.4243],[92.511437248245784,50.548027324995189,761.5],[92.486710661566747,50.537724580545586,761.5],[92.4752304606086,50.52889365673164,761.5],[92.470520634574484,50.517119091646379,761.5],[92.465222080286082,50.513586722120806,761.5],[92.44078985773416,50.507405075451032,763.1732],[92.432253298047385,50.504167070052574,762.9669],[92.409881624385378,50.491803776713056,761.5],[92.381622668180739,50.485327765916168,761.5],[92.3259878481528,50.479440483373537,764.1784],[92.283010685591591,50.467665918288247,761.5],[92.244743349064493,50.445588608753383,766.5969],[92.226787137309429,50.414680375404544,766.144],[92.243860256683092,50.3770017671317,761.5],[92.31715692433886,50.330197870917772,761.5],[92.348653885941985,50.301938914713133,761.5],[92.3533637119761,50.267498311838722,761.5],[92.329814581805522,50.236590078489883,761.5],[92.324516027517177,50.226287334040279,761.5]]]}}