{"type":"Feature","properties":{"ISO3166-1-Alpha-3":"RUS","country":"Russia","fill":"#F00","id":"2605","name":"Tuva"},
"geometry":{"type": "Polygon","coordinates": [[[97.12754,53.6127,2571.7808],[97.11762,53.61735,2330.5068],[97.10098,53.63011,2566.2996],[97.06191,53.64903,2357.6335],[97.05168,53.65218,2114.7029],[97.01519,53.65817,2118.5957],[97.00445,53.66101,2433.3867],[96.99825,53.66324,2603.688],[96.99504,53.66685,2389.2549],[96.99328,53.67143,2183.8115],[96.99235,53.67662,2070.8887],[96.9907,53.68174,2355.6743],[96.98398,53.68551,2155.6448],[96.94285,53.69218,2689.7812],[96.93417,53.69522,2529.5581],[96.89779,53.72158,2366.4441],[96.892,53.72509,2365.9863],[96.88456,53.72778,2243.8567],[96.87495,53.72907,2059.8848],[96.80777,53.72504,2292.2117],[96.74276,53.71104,2301.3501],[96.72674,53.70509,1844.741],[96.71837,53.69863,2095.2656],[96.7132,53.69078,2321.1299],[96.70379,53.65523,2352.9077],[96.70049,53.6489,2009.2606],[96.69759,53.64448,2003.502],[96.68405,53.63854,1922.9325],[96.68829,53.63223,2079.9365],[96.69821,53.61952,2081.2397],[96.70038,53.61492,1962.1962],[96.69945,53.61001,2001.0665],[96.69614,53.60562,1935.5444],[96.68085,53.59368,2277.5361],[96.67661,53.58903,2141.9487],[96.6731,53.58381,2154.8962],[96.66142,53.56107,2004.6125],[96.6577,53.55601,1907.7747],[96.65284,53.5518,2163.9868],[96.6423,53.54805,2261.7578],[96.56458,53.53441,2179.6685],[96.47797,53.53591,2103.073],[96.46991,53.5342,2188.4712],[96.46308,53.52836,2012.2015],[96.45864,53.52286,1885.5601],[96.45471,53.5172,2032.5264],[96.44975,53.51301,2162.7808],[96.44365,53.51069,2175.1921],[96.43435,53.51301,2082.8501],[96.42991,53.51725,2210.3154],[96.42784,53.52304,1925.371],[96.4266,53.53477,1947.7083],[96.42371,53.53963,2189.6855],[96.41792,53.54319,2080.9963],[96.36521,53.55544,1748.5353],[96.3587,53.55766,1643.7493],[96.35467,53.56102,1804.5239],[96.35591,53.56536,1835.162],[96.35932,53.5697,1874.7927],[96.37699,53.58732,1544.3236],[96.37926,53.59166,1699.0914],[96.37792,53.59564,1653.6216],[96.37244,53.59905,1506.2885],[96.36531,53.60159,1603.2532],[96.35632,53.60283,1578.6534],[96.3464,53.60179,1707.6978],[96.33286,53.5974,1777.6287],[96.29617,53.58164,1705.0061],[96.28759,53.58066,1813.1025],[96.27715,53.58291,1918.4514],[96.27157,53.58552,2061.7803],[96.27188,53.5898,2091.5554],[96.2756,53.59383,1984.2045],[96.29555,53.60949,2137.9106],[96.29751,53.61259,1998.8579],[96.29348,53.61487,1832.1815],[96.2632,53.61712,1877.0898],[96.25204,53.61611,2118.1497],[96.2415,53.61347,1913.074],[96.23147,53.60593,1769.3199],[96.22599,53.59947,1922.2371],[96.22196,53.59321,1858.1196],[96.21917,53.58748,1709.5969],[96.21762,53.58128,1618.5693],[96.217,53.57508,1613.7317],[96.21989,53.56412,1737.271],[96.22051,53.55859,1693.6392],[96.21886,53.55301,1726.9209],[96.21576,53.54784,1641.1481],[96.18599,53.51539,1774.7172],[96.17483,53.51069,1767.1311],[96.12595,53.49699,1504.1184],[96.11427,53.49012,1624.4375],[96.10848,53.48366,1721.6733],[96.1152,53.46855,1596.8156],[96.1154,53.46356,1594.6428],[96.11241,53.45906,1594.1152],[96.10745,53.45534,1567.7546],[96.10094,53.45234,1553.2155],[96.09163,53.45054,1469.8943],[96.07964,53.45002,1241.2086],[96.04833,53.45374,1227.7906],[95.95603,53.47333,1832.6233],[95.94983,53.47674,2105.2224],[95.94126,53.48506,2049.6047],[95.93578,53.48862,2123.9895],[95.92854,53.49152,2053.4092],[95.92038,53.49376,1766.1433],[95.91035,53.49472,2067.6023],[95.89981,53.49431,1842.7749],[95.87604,53.48707,1939.6166],[95.86488,53.48578,1907.8521],[95.79429,53.49482,1297.136],[95.7884,53.49725,1362.7507],[95.7855,53.49906,1454.5974],[95.78426,53.50035,1545.0977],[95.78375,53.50123,1550.874],[95.78251,53.50353,1608.4514],[95.78064,53.50764,1481.6874],[95.77723,53.51198,1572.4987],[95.773,53.51622,1947.4497],[95.76762,53.51952,1956.8042],[95.75708,53.52045,2090.7209],[95.74313,53.51865,2200.7505],[95.70458,53.50764,1993.2531],[95.66241,53.48844,1510.4998],[95.65776,53.48407,1579.9182],[95.64856,53.46764,1731.0856],[95.64505,53.46258,1812.9944],[95.6405,53.45813,1789.6045],[95.63461,53.45452,1873.4697],[95.62179,53.44857,1719.4873],[95.52939,53.42465,1841.0383],[95.51451,53.41741,1955.2169],[95.50521,53.41126,1644.522],[95.50139,53.40775,1617.2766],[95.49828,53.40573,1571.7545],[95.48661,53.40093,1561.938],[95.43286,53.38635,1659.1052],[95.40713,53.37437,1835.6362],[95.39628,53.37219,1916.452],[95.38088,53.37188,2137.0725],[95.35173,53.37504,1770.4718],[95.3262,53.38243,2016.8047],[95.30305,53.39524,2050.5559],[95.29778,53.39943,1946.3959],[95.29385,53.40382,1884.8883],[95.29261,53.40943,1836.7434],[95.29251,53.4155,1754.0997],[95.29447,53.43519,1248.8424],[95.29292,53.44077,1212.6914],[95.28941,53.44527,1346.0914],[95.28414,53.44899,1427.8177],[95.26915,53.45441,1451.7766],[95.26037,53.45638,1572.6648],[95.24683,53.45658,1395.9377],[95.22936,53.45441,1400.5468],[95.20011,53.44661,1349.9673],[95.18678,53.44082,1305.4917],[95.17799,53.43519,1315.8713],[95.16683,53.42036,1522.621],[95.15784,53.41147,1438.8895],[95.14647,53.40439,1600.9922],[95.13975,53.40147,1764.4978],[95.08115,53.38677,1647.3542],[95.0672,53.38129,1742.7844],[95.05304,53.37747,1640.0945],[95.04105,53.37592,1831.8362],[95.01738,53.3784,1636.6975],[95.00664,53.38165,1667.3315],[95.00002,53.38483,1553.7604],[94.98752,53.40046,1811.9604],[94.98224,53.40361,1610.8625],[94.97563,53.40501,1616.2201],[94.96395,53.40093,1645.6609],[94.93512,53.38785,1552.9436],[94.92705,53.38589,1474.7281],[94.91724,53.38563,1462.0449],[94.88241,53.3938,1401.6879],[94.73988,53.38274,1431.7878],[94.71849,53.36997,1296.5154],[94.67921,53.34496,1179.412],[94.59446,53.31566,1517.0945],[94.58878,53.31199,1533.4099],[94.58568,53.307,1559.9954],[94.58692,53.29778,1359.4706],[94.59074,53.29235,1532.0161],[94.59736,53.28879,1759.7701],[94.64366,53.28884,1384.934],[94.66154,53.28553,1288.533],[94.66919,53.283,1226.2272],[94.67601,53.28006,1161.3149],[94.68076,53.27608,1127.7574],[94.685,53.27179,1088.8018],[94.69131,53.26243,1070.2125],[94.7005,53.24316,1014.3206],[94.70112,53.23763,991.6298],[94.69906,53.23169,1024.2817],[94.69007,53.2244,970.4183],[94.68169,53.22042,948.7971],[94.66547,53.21556,1054.644],[94.65772,53.21068,1089.272],[94.64924,53.20383,1061.4518],[94.63643,53.19122,1130.7816],[94.62588,53.186,1155.8306],[94.60883,53.17996,1084.1482],[94.60418,53.17577,1137.4722],[94.60418,53.16843,1259.4917],[94.60542,53.16229,1256.2992],[94.61017,53.15148,1218.9706],[94.61069,53.14503,1276.9611],[94.60821,53.13738,1315.0034],[94.58785,53.11252,1282.5303],[94.58506,53.10606,1381.4121],[94.58382,53.09702,1306.7776],[94.58382,53.08994,1334.3392],[94.58485,53.08358,1414.9563],[94.5864,53.0781,1394.1486],[94.58847,53.07286,1343.5221],[94.59167,53.06813,1325.1942],[94.60366,53.05526,1470.5919],[94.60428,53.04942,1521.7966],[94.60025,53.04198,1527.8047],[94.57948,53.01992,1319.3707],[94.57307,53.00865,1242.6632],[94.57049,53.00033,1296.4113],[94.57018,52.99888,1296.4113],[94.56956,52.9964,1244.7363],[94.56594,52.99036,1412.069],[94.55881,52.98317,1485.824],[94.53369,52.96488,1544.7224],[94.52573,52.95705,1613.7217],[94.52067,52.94465,1682.9517],[94.51984,52.93651,1386.7385],[94.52015,52.92933,1377.5496],[94.52108,52.92359,1550.5104],[94.51664,52.91649,1537.3099],[94.5123,52.91083,1707.6289],[94.47209,52.89295,1869.1599],[94.43623,52.89114,1831.3274],[94.42104,52.89646,1586.7125],[94.40719,52.90845,1523.1344],[94.4015,52.91165,1512.6169],[94.39417,52.91362,1506.8123],[94.38569,52.91372,1522.79],[94.30497,52.90395,1515.2859],[94.29009,52.89998,1555.1948],[94.20689,52.86091,1658.3866],[94.15521,52.84502,1432.087],[94.1487,52.84174,1528.2266],[94.14385,52.83758,1646.9878],[94.14126,52.83176,1802.5808],[94.14591,52.82572,1722.8198],[94.1487,52.81972,1782.2646],[94.1518,52.81533,1879.3651],[94.14126,52.79913,1775.3977],[94.14168,52.78675,1756.3398],[94.13909,52.76102,2008.0776],[94.13454,52.75347,2145.3667],[94.10292,52.72319,2092.259],[94.09723,52.71616,1995.9204],[94.0714,52.6672,2211.8662],[94.06643,52.6625,2234.1072],[94.05889,52.65813,2231.6406],[93.98892,52.63684,1904.0632],[93.98303,52.63322,1976.2515],[93.97817,52.6286,2020.0486],[93.976,52.62097,1863.371],[93.97693,52.61519,1756.8507],[93.97941,52.60976,1883.0344],[93.98685,52.60074,1978.897],[93.98964,52.59607,1790.8169],[93.99078,52.59085,1866.9187],[93.98933,52.58542,1814.7366],[93.98282,52.57912,1660.2335],[93.973,52.5723,1727.9795],[93.85187,52.5032,1929.6185],[93.84536,52.49778,1857.7761],[93.82583,52.47442,2113.0627],[93.81818,52.46868,2030.5688],[93.77395,52.44615,1754.6805],[93.76454,52.43949,1859.282],[93.75865,52.43006,1925.4843],[93.75617,52.42238,1796.4631],[93.75586,52.41551,1904.0585],[93.75865,52.4043,1749.3208],[93.7664,52.3828,2203.1084],[93.76764,52.37717,2134.8999],[93.76764,52.3714,2015.7407],[93.76557,52.3658,1920.9658],[93.76216,52.36089,1912.5315],[93.75328,52.35231,1799.0789],[93.69726,52.30776,1626.5961],[93.68734,52.29557,1471.4985],[93.68175,52.28598,1447.645],[93.68072,52.27975,1400.5359],[93.67359,52.26306,1497.5952],[93.67266,52.25753,1470.2491],[93.67266,52.25175,1459.5603],[93.67772,52.2288,1101.4131],[93.67803,52.22384,1173.9983],[93.66718,52.21562,1149.2775],[93.5906,52.18395,1209.599],[93.54512,52.17041,1287.6167],[93.45603,52.16664,1450.9781],[93.42265,52.1577,1265.9001],[93.36043,52.12943,1375.533],[93.27754,52.0761,1534.6443],[93.24323,52.04868,1458.7068],[93.2392,52.04411,1514.4773],[93.23444,52.03998,1603.6407],[93.22773,52.03595,1631.0703],[93.21894,52.03212,1635.4417],[93.20375,52.02856,1711.3704],[93.15342,52.02303,1596.8942],[93.14401,52.01884,1553.5164],[93.13357,52.01241,1513.5824],[93.11817,51.99843,1208.7946],[93.11125,51.98959,1202.5181],[93.1067,51.98189,1242.4664],[93.10422,51.97636,1304.3335],[93.09822,51.96587,1405.7617],[93.09047,51.95657,1417.9241],[93.08531,51.95202,1455.9653],[93.07456,51.94525,1311.4855],[93.02381,51.92389,1492.6848],[92.99684,51.91637,1662.2212],[92.9464,51.91688,1557.6222],[92.93865,51.91497,1560.8405],[92.93203,51.91234,1590.152],[92.90123,51.89508,1722.7905],[92.89379,51.88913,1787.8428],[92.88604,51.87624,1743.4446],[92.88594,51.85384,1844.5342],[92.85958,51.8356,1952.8844],[92.85255,51.83312,1887.4874],[92.84429,51.83244,1884.5667],[92.83116,51.83645,1892.0334],[92.80894,51.84681,1802.4163],[92.80088,51.84945,1721.11],[92.78207,51.85043,1722.4509],[92.67282,51.83983,1881.4696],[92.65887,51.83503,1785.2205],[92.64988,51.82671,1814.8151],[92.63985,51.81906,1845.2555],[92.63407,51.81575,1838.9717],[92.62766,51.81291,1893.1946],[92.62011,51.81074,1856.8424],[92.54704,51.80242,2058.5935],[92.54084,51.79942,2062.8323],[92.53154,51.79121,2129.2686],[92.52637,51.78756,2095.5029],[92.51955,51.78475,1989.3306],[92.50539,51.78144,2056.3472],[92.49816,51.78152,2059.3584],[92.48958,51.78283,2094.7354],[92.47614,51.7871,2471.425],[92.46788,51.79095,2302.7754],[92.45547,51.79839,2050.6423],[92.42953,51.80185,2070.3362],[92.20856,51.80635,1635.2676],[92.10521,51.78304,1173.9125],[91.98666,51.79361,1806.7473],[91.9632,51.79829,1555.7827],[91.94512,51.80413,1675.9407],[91.92507,51.8142,1876.7047],[91.90646,51.83353,1619.9983],[91.90409,51.84017,1678.3423],[91.90223,51.84417,1698.6138],[91.89871,51.84877,1699.573],[91.89416,51.8528,1772.6797],[91.88424,51.85575,1744.938],[91.8705,51.85771,1819.0734],[91.82481,51.85994,1840.1122],[91.80745,51.86443,1729.0214],[91.79856,51.8681,1581.9663],[91.78885,51.87081,1727.1782],[91.778,51.87156,1858.1431],[91.73324,51.8636,1849.7278],[91.72291,51.86304,1604.7977],[91.70813,51.86379,1768.7253],[91.6856,51.86738,1774.1335],[91.62741,51.86694,1769.3434],[91.61645,51.86898,1927.3064],[91.59754,51.87968,1711.547],[91.57563,51.89492,1713.5387],[91.56912,51.89789,1763.5327],[91.55775,51.89988,1800.91],[91.54307,51.90092,1895.3887],[91.28356,51.8959,1861.2213],[91.27549,51.89409,1891.2899],[91.24873,51.88335,1840.6689],[91.23891,51.88231,1819.8049],[91.18041,51.89011,1727.9988],[91.15343,51.90247,1781.6334],[91.10052,51.94272,2093.2712],[90.90745,51.92215,2242.5576],[90.87676,51.91399,2157.9268],[90.86384,51.9088,2133.5483],[90.85733,51.90696,2397.2812],[90.84927,51.90805,2100.2065],[90.83945,51.91244,2081.6399],[90.82787,51.92448,2011.8346],[90.82239,51.93254,1889.5295],[90.81919,51.93988,1874.3618],[90.81702,51.95174,2126.2173],[90.81392,51.96311,1983.3057],[90.80741,51.9698,2027.5776],[90.79666,51.9782,1855.5552],[90.77382,51.99251,1838.9222],[90.76286,52.00468,1627.1254],[90.75852,52.01352,1856.1582],[90.76007,52.0267,1587.7292],[90.76007,52.033,1667.2083],[90.75832,52.03868,1476.0229],[90.74364,52.06344,1482.0824],[90.73599,52.06938,1516.0853],[90.7239,52.07592,1469.9382],[90.68028,52.08984,1404.2273],[90.58179,52.11181,1539.127],[90.55967,52.12116,1581.177],[90.54996,52.12754,1587.5991],[90.54076,52.13589,1637.2394],[90.51936,52.16121,1819.3002],[90.49125,52.18185,1837.9862],[90.47761,52.18353,1880.4487],[90.47659,52.1834,1880.4487],[90.43585,52.17811,2263.377],[90.41601,52.17829,1999.5868],[90.39813,52.18123,2111.3813],[90.36806,52.19059,1925.7759],[90.35937,52.1918,2096.3582],[90.35007,52.19159,2030.1533],[90.3417,52.19025,2076.0764],[90.33436,52.18767,2004.5935],[90.32837,52.18415,2232.3391],[90.31814,52.17656,2299.9844],[90.30615,52.16999,2115.2261],[90.29902,52.16767,2135.6514],[90.29064,52.16612,2121.1172],[90.27121,52.1655,1977.9178],[90.26243,52.16426,2006.6406],[90.2553,52.16204,1965.4031],[90.24889,52.15899,1972.3367],[90.243,52.15506,2148.2957],[90.23029,52.14462,1803.0483],[90.22377,52.14059,1727.3918],[90.21633,52.13767,1815.2202],[90.19866,52.13501,1941.6018],[90.17789,52.13457,1795.7075],[90.1383,52.13801,2176.355],[90.12941,52.13522,1960.3446],[90.12373,52.1286,1829.2407],[90.126,52.07419,1323.1923],[90.12538,52.06607,1435.8704],[90.12404,52.05718,1645.2996],[90.11887,52.0438,1772.4935],[90.11298,52.03703,1881.4585],[90.10616,52.03228,1757.585],[90.07918,52.02153,1658.4965],[90.0734,52.01832,1706.3077],[90.05986,52.00608,1523.199],[90.0365,51.99269,1587.7888],[90.03154,51.98887,1684.3928],[90.02751,51.98437,1941.21],[90.02699,51.97626,2004.8252],[90.02968,51.9653,1808.1003],[90.05107,51.92071,1659.7428],[90.05645,51.88929,1990.9476],[90.05696,51.87218,2200.521],[90.05572,51.85247,1958.6982],[90.05645,51.84634,1837.3665],[90.058,51.84056,1833.1969],[90.06833,51.82107,2084.7119],[90.10461,51.76769,2047.4277],[90.10709,51.76123,2069.6707],[90.10678,51.75689,2194.6409],[90.10089,51.7509,2381.3809],[90.08952,51.74542,2333.3457],[90.06409,51.73844,2512.3252],[90.0487,51.73607,2161.8254],[90.03557,51.73571,2184.5659],[90.02689,51.7372,2354.8071],[90.00033,51.74589,2216.3948],[89.97986,51.75663,2339.0674],[89.97252,51.75942,2266.5981],[89.96498,51.76141,2444.502],[89.94286,51.75017,2142.2217],[89.77729,51.62522,2059.7034],[89.75114,51.59592,2133.9668],[89.73037,51.58223,2369.1328],[89.68427,51.56827,2562.8142],[89.63642,51.56176,2084.2268],[89.60138,51.55303,2095.0996],[89.59177,51.55251,2299.9932],[89.58061,51.55303,2407.8894],[89.56325,51.55623,2319.6216],[89.55167,51.5597,2249.6929],[89.54237,51.56349,2334.563],[89.49059,51.59375,2234.2429],[89.48284,51.59654,2200.052],[89.47416,51.59884,2078.5364],[89.43747,51.60496,2453.5737],[89.42093,51.60538,2403.229],[89.35561,51.59819,2327.2183],[89.33649,51.59344,2447.7095],[89.32388,51.5877,2550.8638],[89.29897,51.55851,2451.4209],[89.29308,51.55417,2634.5234],[89.28657,51.55101,2548.8267],[89.27944,51.5489,2719.1074],[89.26993,51.54822,2528.6079],[89.25908,51.54864,2309.9268],[89.24234,51.55225,2271.1912],[89.23128,51.55577,2228.4258],[89.22311,51.55985,1998.4198],[89.21856,51.56398,1968.243],[89.21557,51.56853,1973.115],[89.21402,51.57334,1985.7161],[89.21309,51.5784,2039.3087],[89.2134,51.58884,2199.4775],[89.21433,51.59422,2214.0042],[89.22125,51.61638,2264.0422],[89.23097,51.63923,2366.0427],[89.23272,51.64481,2419.1033],[89.23159,51.64977,2449.2954],[89.22621,51.65375,2499.5161],[89.21743,51.65703,2498.3071],[89.20616,51.6585,2904.4155],[89.19376,51.65814,2390.6028],[89.1672,51.64744,2314.25],[89.15242,51.6399,2633.001],[89.12627,51.63349,2313.9316],[89.06044,51.62765,2335.1069],[89.05692,51.62377,2103.3445],[89.05444,51.61881,2050.8152],[89.05217,51.61339,2143.6318],[89.04907,51.60832,2464.7078],[89.04276,51.60383,2640.1111],[89.03253,51.60008,2284.3311],[88.7357,51.55939,1974.1216],[88.825,51.51649,2627.4663],[88.83161,51.51133,2594.1494],[88.83761,51.50497,2286.4673],[88.84898,51.4874,2372.1194],[88.85456,51.4811,2735.1895],[88.86117,51.47557,2499.6748],[88.88339,51.46358,2415.4861],[88.95543,51.43836,2067.9189],[88.96194,51.43361,2029.9031],[88.96721,51.42787,1985.6879],[88.97155,51.41877,1941.3459],[88.97259,51.41206,1933.8887],[88.97186,51.40575,1946.7865],[88.96752,51.39443,2034.6865],[88.95646,51.3763,2355.5164],[88.94902,51.35914,2361.0845],[88.94592,51.34813,2211.3154],[88.9453,51.34276,2151.5151],[88.94499,51.33227,2164.6992],[88.95295,51.29211,2029.8833],[88.95274,51.28157,2007.0],[88.95119,51.27088,2145.4102],[88.94427,51.24866,2490.0798],[88.94344,51.24328,2392.9768],[88.94313,51.23811,2409.7573],[88.94375,51.233,2250.5925],[88.94582,51.22832,2249.4573],[88.9514,51.2224,2279.1165],[88.9608,51.21584,2383.4065],[88.98034,51.20563,2244.1326],[89.0009,51.19755,2342.7888],[89.01579,51.19396,2373.8826],[89.02478,51.19016,2582.1069],[89.03222,51.18432,2648.283],[89.04059,51.17383,2444.9683],[89.04431,51.1669,2421.0889],[89.04989,51.15117,2312.0122],[89.05082,51.14613,2326.6724],[89.05093,51.14101,2593.4924],[89.0502,51.13564,2467.7009],[89.04845,51.13001,2660.656],[89.04318,51.11859,2583.3828],[89.04152,51.11319,2473.6763],[89.04069,51.10838,2577.7856],[89.04121,51.09316,2614.9304],[89.04193,51.08825,2390.9097],[89.04442,51.07843,2388.1895],[89.04679,51.07378,2379.9565],[89.05237,51.06458,2522.8179],[89.05971,51.0559,2656.2075],[89.06881,51.04831,2374.3596],[89.08369,51.03859,2741.9104],[89.13661,51.01032,2477.6013],[89.16234,50.99991,2681.8325],[89.17247,50.99195,2711.6157],[89.1982,50.96741,2597.1904],[89.309,50.90134,2361.915],[89.31644,50.89302,2505.8613],[89.33277,50.87948,2723.5686],[89.38362,50.85757,2601.1709],[89.3924,50.85268,2786.0784],[89.39923,50.84413,2670.1116],[89.40202,50.83783,2542.0825],[89.40491,50.82744,2451.729],[89.40708,50.82325,2459.9631],[89.41225,50.8186,2449.7058],[89.42062,50.814,2500.1848],[89.4479,50.80346,2716.1384],[89.45772,50.79788,2809.8589],[89.46951,50.78349,2794.6458],[89.47302,50.77817,3040.6484],[89.49865,50.75179,2517.1875],[89.55994,50.69928,2775.5723],[89.57162,50.68642,2909.3154],[89.57782,50.67732,2595.3477],[89.58526,50.66874,2667.4341],[89.59374,50.66032,2777.8916],[89.64717,50.62037,3036.7905],[89.65616,50.61169,2974.7778],[89.65957,50.6072,3002.5103],[89.66174,50.60244,2889.7952],[89.66216,50.59735,2875.9456],[89.66205,50.58699,2821.3315],[89.66608,50.58255,3056.698],[89.67373,50.57898,2908.9448],[89.69864,50.57629,3125.613],[89.73192,50.57769,3161.5947],[89.75869,50.57304,2747.4915],[89.77967,50.56694,2714.4797],[89.81005,50.55438,2840.9512],[89.82835,50.54307,2640.0295],[89.85512,50.518,2868.3655],[89.85925,50.51273,2823.0598],[89.86566,50.50172,2646.8818],[89.8669,50.49821,2661.8164],[89.86855,50.49015,2496.261],[89.86917,50.48508,2416.8215],[89.86907,50.47986,2327.0986],[89.86845,50.47454,2320.8772],[89.86576,50.46333,2287.5762],[89.86359,50.45762,2288.2253],[89.85367,50.44007,2305.3035],[89.84902,50.43454,2296.2451],[89.84364,50.42992,2301.9294],[89.83455,50.42617,2321.7852],[89.82266,50.42307,2405.7329],[89.7654,50.41801,2492.0613],[89.63332,50.38519,2402.8718],[89.61988,50.38468,2352.2451],[89.61399,50.38726,2281.3518],[89.611,50.39072,2290.7424],[89.61017,50.39351,2311.3738],[89.611,50.39775,2367.4307],[89.61534,50.40845,2395.6733],[89.61585,50.41382,2322.6802],[89.61472,50.41868,2340.3506],[89.61203,50.42325,2354.7395],[89.60728,50.42741,2306.7297],[89.5401,50.46457,2240.7231],[89.52211,50.46984,2231.1079],[89.51374,50.46943,2241.0454],[89.50723,50.46596,2277.8135],[89.5032,50.45728,2369.0132],[89.50155,50.45067,2329.2878],[89.50113,50.43439,2243.7334],[89.49999,50.42705,2240.5957],[89.4971,50.41716,2244.2415],[89.49596,50.41186,2265.4885],[89.49648,50.40677,2322.6069],[89.49782,50.40225,2398.0647],[89.49989,50.39915,2411.9976],[89.50227,50.39661,2424.8105],[89.51033,50.38928,2360.7061],[89.51787,50.38059,2411.8691],[89.52025,50.37594,2475.468],[89.51725,50.36979,2601.1716],[89.50795,50.36235,2807.9634],[89.47054,50.34649,2657.96],[89.45927,50.34385,2711.2014],[89.42899,50.34,2729.9878],[89.41514,50.33595,2707.533],[89.40202,50.33052,2572.5864],[89.39561,50.32571,2552.5623],[89.39034,50.31931,2567.239],[89.38672,50.30737,2696.8604],[89.3861,50.29985,2657.0464],[89.38693,50.29349,2745.9473],[89.38796,50.28856,2885.1292],[89.386,50.28349,2904.6914],[89.38321,50.27921,2874.1226],[89.35654,50.27166,2940.6006],[89.34941,50.26422,2938.0847],[89.35065,50.25533,2831.123],[89.35261,50.24546,2611.2339],[89.35261,50.24034,2731.0703],[89.35168,50.23507,2977.5254],[89.34941,50.2298,2812.3806],[89.34517,50.22471,2694.0818],[89.3399,50.21985,2964.6494],[89.3367,50.21487,3004.8296],[89.33639,50.2096,2739.3745],[89.34507,50.20448,2680.8708],[89.39023,50.1881,2788.2168],[89.39902,50.18593,2740.7852],[89.40698,50.18572,2622.7861],[89.41349,50.18689,2601.2886],[89.41793,50.18986,2747.2393],[89.42093,50.19291,2808.1851],[89.42868,50.20303,2987.3357],[89.43406,50.20753,2901.1821],[89.44046,50.21009,2873.75],[89.44842,50.21073,2747.7822],[89.50144,50.20681,2727.6631],[89.50733,50.20438,2711.5581],[89.51322,50.19937,2883.7871],[89.51622,50.1881,3010.2183],[89.51694,50.1805,2939.8076],[89.51498,50.14252,2867.9116],[89.51539,50.13741,2771.918],[89.51715,50.13115,2924.8262],[89.52129,50.12433,2745.4417],[89.53121,50.11441,2876.7395],[89.54072,50.10945,2819.5676],[89.55002,50.10705,2737.8298],[89.57513,50.10495,2829.1353],[89.58288,50.10345,2870.3711],[89.58898,50.10025,2711.9624],[89.59115,50.09519,2696.1902],[89.58929,50.08759,2766.2229],[89.58495,50.08154,2886.5947],[89.57978,50.07601,2842.5603],[89.5741,50.07175,2764.083],[89.5526,50.05227,2812.9368],[89.54888,50.04669,2816.3569],[89.5494,50.03948,2781.6665],[89.55436,50.03142,2741.9609],[89.56862,50.01839,3241.4126],[89.57947,50.01328,3158.5144],[89.58939,50.01041,3105.3931],[89.59735,50.00656,2946.946],[89.60366,49.99886,2920.0225],[89.60728,49.98052,2963.1753],[89.60552,49.96997,3095.1418],[89.60149,49.96171,3041.0652],[89.59157,49.9508,2865.6177],[89.58753,49.94507,2801.165],[89.58495,49.93938,2704.6123],[89.58495,49.93375,2753.0037],[89.59064,49.92682,2901.8418],[89.59746,49.92036,2957.8281],[89.6327,49.90812,2739.1074],[89.63321,49.90794,2739.1074],[89.66768,49.92729,2659.1194],[89.7207,49.93974,2501.6064],[89.86643,49.94274,2443.0615],[89.92018,49.95085,2204.3286],[89.96942,49.96708,2108.187],[89.99624,49.99276,1932.8811],[89.99709,50.00366,1853.5753],[89.99872,50.02465,1987.0984],[90.00492,50.05074,2091.9541],[90.02053,50.07074,2251.1763],[90.05123,50.08418,2387.238],[90.18243,50.10247,2355.2812],[90.22295,50.11441,2330.6768],[90.34387,50.17466,2421.0491],[90.36392,50.17978,2414.6035],[90.40495,50.18262,2551.9771],[90.425,50.18691,2440.6968],[90.47523,50.21461,2367.6851],[90.51895,50.21838,2264.3174],[90.60494,50.20598,2070.575],[90.64845,50.20665,1948.4441],[90.66643,50.21037,1963.2511],[90.6839,50.21621,1736.3486],[90.69971,50.22515,1632.0131],[90.71263,50.23797,1584.3804],[90.71739,50.25202,1587.1346],[90.71759,50.28076,1979.1422],[90.72659,50.29187,2502.3203],[90.76245,50.30572,2326.6812],[90.83996,50.32081,2738.1028],[90.87707,50.33936,2773.6873],[90.94859,50.39749,2512.8972],[90.97515,50.41393,2597.104],[91.01205,50.4253,2274.4939],[91.12977,50.42617,2328.2349],[91.16335,50.43279,2181.895],[91.26009,50.46658,1698.2021],[91.29751,50.46638,1637.6354],[91.38215,50.45496,1486.7629],[91.41574,50.46137,1589.541],[91.43249,50.47806,1548.417],[91.44003,50.49857,1633.9353],[91.45037,50.51909,1904.2969],[91.47507,50.53599,1645.1368],[91.57573,50.56198,1642.4773],[91.60271,50.5796,1603.5679],[91.65314,50.64006,1652.2168],[91.6796,50.65655,1669.952],[91.74978,50.68409,1716.7469],[91.82419,50.70156,1709.3225],[91.89995,50.70724,1615.4779],[92.06273,50.68631,1277.3245],[92.15885,50.6891,1112.6166],[92.24277,50.72001,1109.6887],[92.29445,50.79127,1482.1719],[92.29703,50.80987,1520.2291],[92.29745,50.8276,1649.8843],[92.30168,50.84336,1852.175],[92.31522,50.85586,1937.939],[92.33548,50.86361,1882.0602],[92.3609,50.86837,2044.2885],[92.38457,50.86558,1968.6587],[92.39987,50.85059,1995.6628],[92.41899,50.81173,1878.0771],[92.44328,50.78631,1456.1548],[92.4749,50.77049,1502.7781],[92.51645,50.76062,1478.1582],[92.55459,50.743,1299.2227],[92.61185,50.68766,991.4883],[92.64978,50.67407,961.8709],[92.67189,50.67562,954.8813],[92.69525,50.68192,1008.6496],[92.71737,50.69215,1065.3677],[92.73525,50.70523,1118.0426],[92.74662,50.72145,1170.8354],[92.75344,50.75468,1226.5127],[92.76026,50.77075,1242.7922],[92.79612,50.78801,1379.7981],[92.85772,50.79551,1658.7959],[92.92108,50.79246,1533.9226],[92.96169,50.77788,1221.7407],[92.97399,50.74218,988.9883],[92.97337,50.69437,811.4142],[92.99187,50.65479,761.5],[93.00293,50.63484,761.5],[93.01141,50.62332,761.5],[93.02288,50.61629,761.5],[93.04262,50.60988,761.5],[93.10494,50.59882,764.0624],[93.13915,50.59944,766.1513],[93.18835,50.59981,768.7911],[93.42151,50.60937,786.858],[93.53634,50.58472,795.5621],[93.88696,50.57498,829.1137],[94.23759,50.56524,880.6672],[94.25867,50.55754,884.7859],[94.27335,50.54477,887.7513],[94.2782,50.52922,894.0167],[94.27975,50.49268,898.9666],[94.31975,50.42902,928.3365],[94.3275,50.40437,936.0523],[94.33226,50.30101,964.2018],[94.34435,50.24918,969.7168],[94.35448,50.2236,899.6493],[94.36853,50.20272,897.6627],[94.39179,50.18557,913.7604],[94.47499,50.16226,933.8544],[94.49173,50.15229,948.0925],[94.49855,50.13952,965.0439],[94.50227,50.12506,967.2845],[94.50909,50.10986,977.0474],[94.52088,50.09777,988.3582],[94.56397,50.071,1007.1049],[94.57441,50.05855,1025.8505],[94.59229,50.02982,1066.0597],[94.60346,50.01974,1073.4741],[94.62454,50.01519,1048.7723],[94.651,50.01783,1055.5403],[94.74639,50.04036,1156.8884],[94.92158,50.04589,1178.6095],[94.95372,50.04062,1156.2477],[94.98059,50.02475,1147.0],[95.00405,49.99276,1216.493],[95.02162,49.96982,1219.1307],[95.02834,49.96341,1226.1121],[95.0764,49.94553,1277.9119],[95.35473,49.9477,1290.984],[95.39979,49.93887,1285.887],[95.44516,49.91442,1203.2999],[95.4617,49.90264,1184.0709],[95.4772,49.89408,1184.0215],[95.48061,49.8922,1184.4102],[95.50066,49.88672,1185.876],[95.52061,49.88962,1348.7583],[95.53714,49.90073,1475.1295],[95.56319,49.9276,1343.6752],[95.58396,49.93669,1312.6614],[95.6805,49.946,1467.0354],[95.72142,49.9585,1601.5256],[95.75894,49.99307,1432.0068],[95.78767,50.01173,1523.2095],[95.82788,50.02015,1556.2878],[95.86705,50.01498,1631.3412],[95.89216,49.99292,1756.0664],[95.89216,49.99276,1756.0664],[95.90446,49.96481,1770.0049],[95.92265,49.9446,1602.5242],[95.94632,49.9385,1507.4609],[95.97484,49.95246,1547.0518],[95.9857,49.96496,1549.1729],[95.99831,49.97592,1625.6232],[96.01195,49.98522,1637.9531],[96.02662,49.99282,1717.1947],[96.04099,49.99793,1752.2323],[96.05598,49.99881,1715.2626],[96.07107,49.99674,1796.0946],[96.08595,49.99292,1847.1975],[96.08605,49.99287,1847.1975],[96.08626,49.99282,1847.1975],[96.08636,49.99276,1847.1975],[96.2356,49.9492,2033.7012],[96.28118,49.92626,2023.7515],[96.32335,49.89789,1903.3444],[96.34629,49.88858,2030.9866],[96.37286,49.88605,1738.3418],[96.39911,49.89174,1565.0299],[96.44882,49.91396,1794.7393],[96.47466,49.92166,2179.3398],[96.50329,49.92212,2195.3035],[96.52385,49.91577,2154.0913],[96.53925,49.90186,1833.7468],[96.553,49.87985,1794.8196],[96.56809,49.86176,1845.4412],[96.58514,49.85753,1608.1307],[96.60437,49.8629,1632.1631],[96.62597,49.87339,1671.2935],[96.68023,49.90972,1672.8114],[96.70193,49.91375,1912.3569],[96.9692,49.88667,1915.1763],[97.00589,49.86528,1813.42],[97.04227,49.82321,2071.0891],[97.05726,49.81272,1945.0919],[97.08527,49.80584,1911.9303],[97.10015,49.80218,1763.7048],[97.11989,49.79365,2214.9424],[97.12899,49.77583,2026.7555],[97.15296,49.75025,1984.8583],[97.20505,49.73407,2385.6042],[97.26231,49.72611,2271.2568],[97.30169,49.72554,2226.8381],[97.34334,49.73417,2242.769],[97.39078,49.74947,2273.689],[97.4746,49.78869,2469.0073],[97.54271,49.82275,2282.187],[97.57361,49.8475,2561.3342],[97.58126,49.87794,2734.9082],[97.57175,49.89675,2684.2866],[97.56317,49.90894,2637.1826],[97.56658,49.9168,2624.4331],[97.64224,49.93003,2634.6868],[97.7336,49.95835,2347.502],[97.75634,49.9615,2336.9915],[97.77752,49.95618,2328.7766],[97.8107,49.93117,2430.7397],[97.82992,49.92331,2422.6782],[97.84739,49.93008,2399.1184],[97.87457,49.95395,2528.344],[97.9062,49.97307,2279.4678],[98.048,50.02305,2352.8623],[98.10557,50.06387,2207.571],[98.26246,50.28381,2083.6135],[98.26928,50.29941,2038.3315],[98.27228,50.319,1974.6099],[98.2701,50.33595,2187.3403],[98.26184,50.36747,1921.5765],[98.26628,50.4007,1979.6644],[98.29822,50.46013,1843.1095],[98.30059,50.49278,2096.3662],[98.3007,50.49284,2096.3662],[98.3007,50.49294,2096.3662],[98.29346,50.51862,1964.0485],[98.27538,50.53769,1955.2393],[98.25129,50.55056,2175.0269],[98.22556,50.55764,2020.9429],[98.16334,50.56467,2049.9868],[98.13595,50.57097,2089.124],[98.06009,50.6089,2223.9978],[98.03849,50.62296,2284.0479],[98.0233,50.64203,2077.7021],[97.97452,50.72316,2072.4058],[97.94403,50.77447,1444.1764],[97.94744,50.79597,1891.9343],[97.99023,50.83561,2112.9038],[97.98464,50.84692,1910.0093],[97.95302,50.86284,1761.6327],[97.93876,50.87442,1716.3816],[97.92966,50.88661,1771.0215],[97.91943,50.89741,1781.8983],[97.87199,50.9171,1477.7501],[97.83571,50.94072,1427.502],[97.80853,50.97048,1353.7351],[97.80636,51.00113,1392.5753],[97.87013,51.08681,1289.134],[97.88563,51.12011,1293.0348],[97.89473,51.15386,1268.6471],[97.90031,51.16843,1246.6312],[97.92904,51.21504,1231.311],[97.93173,51.23041,1231.8137],[97.92811,51.25147,1254.0806],[97.91633,51.28589,1398.45],[97.91571,51.30062,1309.02],[97.92284,51.31847,1433.9921],[97.93379,51.33178,1309.0598],[97.96222,51.35545,1228.7371],[97.97452,51.3686,1244.6934],[98.02061,51.43518,1250.6484],[98.03973,51.4573,1131.1145],[98.05089,51.46642,1124.9246],[98.06671,51.46926,1221.2629],[98.11135,51.48471,1704.5583],[98.13781,51.48588,1564.3242],[98.22039,51.47521,1531.8564],[98.2299,51.49288,2103.6323],[98.23383,51.51652,2176.3948],[98.22432,51.56001,2132.0339],[98.22825,51.58342,2456.3142],[98.23869,51.60148,2598.033],[98.26339,51.6352,2358.2625],[98.27352,51.65483,2306.7539],[98.33222,51.71832,2190.8145],[98.42503,51.74622,1872.017],[98.61871,51.78066,1953.3672],[98.65137,51.79749,1890.277],[98.68269,51.81947,1837.8208],[98.71111,51.84511,1817.3372],[98.77664,51.93011,2066.7122],[98.79173,51.9775,2077.8259],[98.8002,51.99274,2232.2327],[98.83855,52.02528,2414.2952],[98.8465,52.03933,2311.3157],[98.84888,52.05631,2538.3262],[98.8496,52.09013,2399.8975],[98.8556,52.10669,2386.5237],[98.8864,52.12855,2397.8108],[98.92764,52.12958,2036.6719],[98.93765,52.12469,2217.7319],[98.93766,52.12473,2217.7319],[98.9418,52.14049,2117.8149],[98.94727,52.14609,2122.0947],[98.94758,52.15279,2080.3787],[98.94056,52.17868,2163.7578],[98.93683,52.18607,2608.4556],[98.93239,52.19185,2563.5088],[98.92681,52.19537,2411.5334],[98.91978,52.19803,2439.3335],[98.91203,52.20002,2539.9192],[98.90314,52.20048,2727.1326],[98.89498,52.1996,2696.9565],[98.88733,52.19769,2528.5081],[98.86046,52.18746,2525.0754],[98.85116,52.1855,2490.1797],[98.83999,52.18493,2529.6506],[98.82191,52.18767,2478.7588],[98.81353,52.1918,2396.1824],[98.80899,52.1964,2336.5176],[98.80868,52.201,2317.9062],[98.80899,52.20451,2281.9419],[98.81664,52.2364,2272.437],[98.81757,52.24797,2290.5068],[98.81643,52.25345,2388.3301],[98.81384,52.25924,2592.9126],[98.80702,52.26963,2360.2505],[98.79948,52.27423,2519.2251],[98.791,52.27572,2260.2754],[98.77984,52.27665,2429.4263],[98.76568,52.27934,2420.5698],[98.7415,52.28901,2468.9009],[98.7263,52.29247,2036.8003],[98.71463,52.29342,1988.0339],[98.70718,52.29149,2053.1201],[98.70057,52.28875,2124.4834],[98.68951,52.28156,2311.1755],[98.68486,52.27722,2344.3252],[98.67587,52.26746,2417.0657],[98.67277,52.26306,2517.3755],[98.66016,52.25686,2305.2036],[98.6461,52.26275,2254.0479],[98.64083,52.27154,2164.0923],[98.64063,52.28906,2249.563],[98.64362,52.30296,1980.0002],[98.64641,52.309,1962.719],[98.66099,52.32957,2084.501],[98.66998,52.34619,2390.1138],[98.67597,52.36228,2549.5142],[98.67711,52.3697,2448.512],[98.67618,52.37556,2189.5889],[98.63442,52.41277,2515.2085],[98.62915,52.42062,2623.3892],[98.62926,52.42429,2432.5835],[98.63318,52.42724,2454.6602],[98.65851,52.42987,2272.8511],[98.67339,52.43396,2386.4348],[98.71545,52.45845,2377.0808],[98.72165,52.46411,2215.752],[98.7232,52.46879,2190.3567],[98.72269,52.47313,2182.3989],[98.72072,52.47866,2210.1094],[98.71855,52.48806,2284.707],[98.71886,52.49287,2155.8638],[98.72052,52.49654,2123.0662],[98.72848,52.50491,2057.644],[98.732919999999993,52.50718,2072.0957],[98.73819,52.50811,2143.2031],[98.74749,52.5045,2358.4128],[98.76506,52.50398,2679.2576],[98.79131,52.50723,2748.249],[98.79814,52.50972,2678.5762],[98.80558,52.514,2717.9675],[98.82232,52.5308,2518.7302],[98.82511,52.53736,2494.3794],[98.82563,52.54132,2609.4197],[98.82253,52.54486,2476.0535],[98.81819,52.54829,2432.9106],[98.80072,52.5586,2249.2012],[98.79576,52.5646,2215.1216],[98.79286,52.57292,2364.2585],[98.79379,52.5895,2148.7795],[98.79658,52.5987,2201.0051],[98.80041,52.60614,2249.8008],[98.80465,52.61095,2248.8247],[98.81012,52.61472,2130.0527],[98.81643,52.61767,2044.4475],[98.83834,52.62423,2260.4355],[98.84702,52.62826,2214.5422],[98.85674,52.63405,2252.0583],[98.86986,52.64681,2375.876],[98.87792,52.65288,2459.198],[98.88505,52.65524,2399.4932],[98.88981,52.6527,2326.2305],[98.89384,52.6496,2450.4526],[98.89756,52.64604,2254.9241],[98.90407,52.64521,2054.6885],[98.91368,52.64723,2151.3447],[98.92805,52.65761,2650.6826],[98.93404,52.66562,2376.5435],[98.93714,52.6727,2439.5569],[98.93745,52.69097,2347.6187],[98.93963,52.70521,2300.7468],[98.93994,52.71838,2300.8618],[98.93901,52.72283,2076.8264],[98.93032,52.7421,2383.9829],[98.9297,52.75037,2439.5063],[98.93094,52.76148,2351.5789],[98.93745,52.7822,2225.9487],[98.9389,52.79228,2317.6213],[98.93776,52.7975,2198.0244],[98.93146,52.79936,2211.2222],[98.92278,52.79988,2271.3413],[98.91399,52.79926,2240.6045],[98.88226,52.79259,2088.3672],[98.8742,52.79182,2099.9526],[98.86645,52.79285,2126.7778],[98.86108,52.79673,2101.3374],[98.85818,52.80277,2241.9902],[98.8588,52.81249,2043.7163],[98.85818,52.81864,2152.1924],[98.85674,52.82303,2430.7104],[98.85333,52.82768,2527.3032],[98.85074,52.83553,2356.0576],[98.85271,52.84132,2005.5085],[98.85632,52.84659,2028.2483],[98.92867,52.91848,2213.6267],[98.93807,52.92486,2128.9275],[98.948,52.92829,2109.7908],[98.95792,52.92829,2136.4609],[98.96836,52.92734,2233.0342],[98.97766,52.92545,2249.2922],[98.9851,52.92276,2166.6235],[98.99533,52.91597,1943.4487],[99.00608,52.90737,1707.8438],[99.01693,52.90049,1694.002],[99.03006,52.89424,1963.7612],[99.04505,52.88879,2105.3633],[99.08174,52.88096,2141.1587],[99.15088,52.87362,2188.1167],[99.15863,52.87119,2223.3164],[99.18933,52.85468,2189.8926],[99.1977,52.85305,2153.9243],[99.20669,52.85344,2019.2153],[99.21589,52.85685,2061.5747],[99.21961,52.86142,2237.1321],[99.22033,52.86525,2388.0308],[99.21382,52.88923,2497.6797],[99.21341,52.89574,2157.5703],[99.21413,52.90308,2374.7104],[99.21744,52.91315,2232.3962],[99.22302,52.91992,2427.2168],[99.23987,52.93486,2039.7175],[99.24483,52.94028,2061.5317],[99.24979,52.95382,2416.3386],[98.98934,53.03449,1691.3948],[98.98438,53.03919,1708.1495],[98.98262,53.04462,1750.693],[98.98438,53.0502,1789.2649],[98.98758,53.05547,1866.5083],[98.99502,53.06456,2048.0164],[98.99957,53.06679,2198.1975],[99.00401,53.06834,2209.2422],[99.01073,53.06989,2270.4873],[99.02437,53.07475,2536.4287],[99.05652,53.08958,2318.4226],[99.06189,53.09304,2421.645],[99.06437,53.09741,2282.3313],[99.05569,53.10379,2362.2708],[98.96371,53.1365,1951.095],[98.95316,53.14378,1945.1104],[98.94727,53.14694,2005.8273],[98.93766,53.14937,2303.2419],[98.92526,53.1511,2409.7017],[98.90366,53.15092,2178.571],[98.89312,53.14792,2436.2742],[98.88692,53.14254,2496.8245],[98.88206,53.13025,2074.4121],[98.87885,53.12503,2064.7327],[98.86128,53.12451,2304.5813],[98.69788,53.15484,2117.1907],[98.68744,53.15515,2264.9622],[98.67897,53.15402,2386.625],[98.67184,53.15148,2290.0398],[98.66595,53.14813,2147.5811],[98.6152,53.10751,1987.9186],[98.60817,53.10472,2100.0042],[98.59908,53.10343,2299.085],[98.54626,53.1104,1886.3956],[98.39248,53.10257,1731.8616],[98.38503,53.1004,1613.0498],[98.36581,53.0917,1473.4897],[98.35837,53.09076,1486.6604],[98.34762,53.09252,1628.0396],[98.33274,53.09764,1810.9832],[98.31434,53.10053,1819.5759],[98.30318,53.10374,1791.4664],[98.29646,53.10983,1689.3654],[98.28757,53.12528,1747.2654],[98.28561,53.13009,1834.285],[98.28602,53.13546,1968.136],[98.29129,53.15366,1875.4827],[98.2916,53.1597,1773.915],[98.29067,53.16539,1819.7419],[98.28871,53.1705,1986.9392],[98.28282,53.17986,2012.6351],[98.28096,53.18482,1842.7051],[98.28106,53.18983,1897.5424],[98.28344,53.19494,1939.2583],[98.28757,53.19954,2111.3762],[98.29718,53.20755,2144.2178],[98.29997,53.21174,2069.8513],[98.29904,53.21567,2137.1614],[98.29594,53.21975,2248.0439],[98.28912,53.22326,2366.717],[98.27951,53.22569,2184.2],[98.2207,53.22502,1954.2968],[98.21223,53.22714,2034.2308],[98.20489,53.23231,2166.5786],[98.19983,53.23698,2338.0122],[98.19156,53.24156,2116.3989],[98.17957,53.24502,2354.5662],[98.08469,53.25236,2209.1807],[98.04821,53.24941,2051.96],[98.03922,53.2499,2060.9695],[98.03084,53.25262,1966.3375],[98.01245,53.26688,1841.6228],[98.00718,53.27016,1747.9302],[97.98733,53.28,1730.8774],[97.97762,53.28765,1910.9694],[97.97369,53.29204,2029.2141],[97.97049,53.2967,2023.6996],[97.96842,53.30186,2122.4614],[97.96718,53.30747,2272.9536],[97.96749,53.31354,2171.2722],[97.97297,53.34018,1987.7906],[97.97297,53.3462,2199.1663],[97.97152,53.35163,1944.0505],[97.96625,53.3555,1866.823],[97.95757,53.35773,2308.9944],[97.94217,53.35685,2463.5066],[97.91354,53.3523,2175.731],[97.90382,53.3523,1811.2493],[97.8784,53.35711,1965.8481],[97.85814,53.36346,2019.5963],[97.80957,53.36594,2204.8052],[97.73133,53.37793,2487.9431],[97.69877,53.37891,2059.3772],[97.65019,53.36884,1959.5536],[97.63076,53.36796,2121.3511],[97.61878,53.36961,2288.9358],[97.60627,53.37302,2388.0483],[97.59211,53.38134,2377.8215],[97.58684,53.38816,2212.5273],[97.5856,53.3954,2171.5974],[97.59077,53.42201,2074.0894],[97.59025,53.4279,2433.1187],[97.5887,53.43338,2572.1602],[97.58581,53.43808,2621.9194],[97.58033,53.44175,2509.0361],[97.57413,53.44503,2461.6802],[97.56203,53.44829,2258.8718],[97.48473,53.45829,2102.2441],[97.46488,53.45824,2205.9761],[97.45537,53.45906,2401.8936],[97.44783,53.46149,2717.5486],[97.43987,53.46893,2563.2646],[97.43677,53.47534,2288.772],[97.43553,53.48196,2018.2976],[97.43543,53.488,1873.7056],[97.43388,53.49756,2134.6592],[97.43264,53.49994,2207.3313],[97.40887,53.5111,2563.8706],[97.40235,53.51529,2560.0359],[97.39739,53.51973,2417.1191],[97.39409,53.52433,2506.5005],[97.39161,53.52929,2450.7275],[97.38634,53.5451,2318.6555],[97.38385,53.55022,1981.3517],[97.37724,53.55497,2331.4382],[97.35151,53.56735,1943.5969],[97.34448,53.57337,2131.4829],[97.34055,53.57947,2318.1846],[97.33766,53.59032,2471.7024],[97.33394,53.5944,2697.8652],[97.32835,53.59637,2693.9333],[97.31792,53.59383,2230.8892],[97.30324,53.59239,2041.0205],[97.28298,53.59316,2042.1573],[97.24226,53.60055,2049.1819],[97.22562,53.60639,2082.5774],[97.21477,53.61182,2256.8164],[97.21074,53.61606,2409.2185],[97.20526,53.61983,2644.2927],[97.19865,53.6229,2340.2715],[97.1879,53.62412,2407.0728],[97.17436,53.6235,2281.9036],[97.15544,53.61926,2117.4785],[97.1448,53.61541,2498.4941],[97.13519,53.61301,2502.3948],[97.12754,53.6127,2571.7808]]]}}