{"type":"Feature","properties":{"GID_1":"RUS.71_1","GID_0":"RUS","country":"Russia","province":"Tuva","VARNAME_1":"RespublikaTyva|RepublicofTuva","NL_NAME_1":"РеспубликаТыва","TYPE_1":"Respublika","ENGTYPE_1":"Republic","CC_1":"NA","HASC_1":"RU.TU","ISO_1":"NA","name":"Tuva.province"},
"geometry":{"type": "MultiPolygon","coordinates": [[[[89.9716,49.9955,1971.9261],[89.9847,50.0031,1938.6238],[90.0047,50.0115,1949.1279],[90.0267,50.0169,1914.9744],[90.0361,50.0244,2004.2466],[90.0867,50.0377,1952.4496],[90.0981,50.0381,1950.0492],[90.1314,50.0323,1837.8824],[90.1447,50.0316,1838.9221],[90.1905,50.0355,1867.8447],[90.2018,50.0339,1884.4878],[90.2377,50.0181,1862.8715],[90.2517,50.0155,1879.7017],[90.2643,50.0157,1905.9227],[90.2741,50.0181,1853.4606],[90.2834,50.0251,1832.929],[90.2875,50.0323,1857.0159],[90.2912,50.0567,2077.4873],[90.2969,50.0757,2184.166],[90.3038,50.0864,2172.3806],[90.3275,50.1145,2193.4509],[90.3573,50.1387,2246.7795],[90.3683,50.1445,2294.3848],[90.4181,50.1549,2513.6631],[90.4627,50.1605,2707.8125],[90.4883,50.1687,2741.2542],[90.5123,50.1702,2781.5806],[90.5422,50.1775,2652.4756],[90.5671,50.1791,2318.479],[90.5829,50.1783,2201.0034],[90.6162,50.1725,2093.4763],[90.6474,50.1645,1845.4741],[90.6579,50.1635,1820.7729],[90.6625,50.1636,1806.551],[90.6754,50.1683,1838.5615],[90.6811,50.1737,1760.5422],[90.6841,50.1819,1806.6396],[90.6837,50.1869,1829.8815],[90.6761,50.1977,1849.6876],[90.6763,50.2029,1872.6807],[90.6834,50.213,1774.2808],[90.6952,50.2202,1671.667],[90.7525,50.2394,1555.8251],[90.7632,50.2472,1609.1735],[90.7699,50.2557,1683.8811],[90.7747,50.2666,1768.7474],[90.775,50.2885,1986.8418],[90.7709,50.2944,2086.2319],[90.7497,50.3051,2346.1792],[90.7442,50.3223,2481.04],[90.7349,50.3252,2499.4644],[90.7258,50.3231,2430.1084],[90.7175,50.3189,2386.5645],[90.7077,50.317,2417.9285],[90.6933,50.3167,2359.7417],[90.6842,50.3216,2418.9949],[90.668,50.3368,2355.8875],[90.6658,50.3595,2235.0483],[90.6705,50.3765,2139.5059],[90.6769,50.3818,2117.4907],[90.6835,50.3917,2124.3115],[90.7006,50.423,2063.9702],[90.6983,50.4452,1972.4133],[90.7049,50.4542,2025.6517],[90.722,50.4666,1997.5111],[90.7267,50.4797,1839.7362],[90.7377,50.4879,1810.6946],[90.7628,50.4743,1885.7211],[90.7742,50.4699,1894.9305],[90.798,50.4645,1988.4573],[90.8085,50.4637,1969.4354],[90.8225,50.4643,2083.6038],[90.8491,50.4713,2232.2051],[90.8713,50.4753,2245.1533],[90.899,50.4773,2231.7385],[90.9454,50.4768,2085.7051],[91.0451,50.4682,1896.4968],[91.0881,50.4564,1837.4778],[91.1393,50.4579,1790.5845],[91.189,50.4669,1724.4424],[91.2333,50.4819,1676.5808],[91.2442,50.4841,1670.4801],[91.2571,50.4845,1666.8763],[91.3821,50.468,1492.1443],[91.4029,50.4639,1490.2148],[91.4127,50.4601,1592.2509],[91.4292,50.4577,1653.0037],[91.4375,50.4601,1687.0005],[91.4443,50.4654,1648.7126],[91.4489,50.4775,1625.1758],[91.4507,50.4961,1624.2601],[91.4489,50.5039,1714.2867],[91.4361,50.5163,1848.5363],[91.4308,50.5264,1960.0558],[91.4368,50.543,1804.4495],[91.4407,50.5467,1909.567],[91.4464,50.5496,1966.9028],[91.4623,50.5523,1830.6698],[91.4797,50.5595,1623.4709],[91.5079,50.5637,1775.1804],[91.558,50.5635,1706.5374],[91.5749,50.5608,1642.4773],[91.5937,50.5605,1503.0106],[91.6457,50.5764,1390.1632],[91.6579,50.5838,1347.9877],[91.6599,50.5915,1346.7064],[91.6579,50.5985,1348.7705],[91.6503,50.61,1359.0345],[91.6495,50.6155,1374.6669],[91.6549,50.6325,1566.4854],[91.6527,50.6528,1735.5992],[91.6558,50.6596,1783.6553],[91.6629,50.6669,1707.8973],[91.6831,50.6798,1702.8286],[91.7106,50.6936,1769.8904],[91.7421,50.7011,1992.3195],[91.7477,50.7051,1960.9512],[91.7519,50.7179,1915.8395],[91.7566,50.7204,1981.1544],[91.8236,50.7219,1886.475],[91.8287,50.7245,1894.0334],[91.8361,50.7347,1979.0123],[91.8544,50.7356,2027.923],[91.8839,50.7304,1745.8546],[91.9176,50.7146,1809.0625],[91.9375,50.7115,1694.6687],[91.9511,50.7039,1525.4944],[91.9669,50.6985,1465.5037],[92.0228,50.6835,1362.4471],[92.0956,50.684,1218.1012],[92.1439,50.681,1140.0505],[92.1737,50.682,1145.3058],[92.1958,50.6848,1175.1746],[92.2073,50.6911,1130.1106],[92.2115,50.6956,1054.428],[92.2239,50.7033,1036.9059],[92.2599,50.7102,1082.231],[92.2758,50.7162,1091.4932],[92.2879,50.7241,1100.0883],[92.3006,50.7364,1150.2615],[92.3051,50.7441,1336.0137],[92.3045,50.7585,1294.3507],[92.288,50.7956,1494.8391],[92.2869,50.8086,1530.2499],[92.3009,50.8282,1659.5065],[92.3028,50.8428,1852.175],[92.3065,50.8484,1951.2961],[92.3184,50.8581,2044.746],[92.3205,50.8623,1966.6931],[92.3214,50.8793,1963.0587],[92.3253,50.8864,2025.226],[92.3314,50.8905,2151.1975],[92.3401,50.893,2355.8792],[92.3718,50.8946,2514.1885],[92.3912,50.8896,2297.7478],[92.4007,50.8829,2252.5454],[92.4081,50.8587,2039.6522],[92.4082,50.839,2095.7158],[92.4119,50.8156,1758.1888],[92.4472,50.7903,1466.5112],[92.4711,50.7767,1477.5887],[92.4942,50.7707,1558.0283],[92.5088,50.7695,1610.4385],[92.5754,50.7714,1320.5701],[92.5918,50.7703,1248.8785],[92.6026,50.7669,1188.7062],[92.6152,50.7576,1120.7516],[92.6175,50.749,1115.2543],[92.6075,50.722,1055.9163],[92.6071,50.716,1043.561],[92.6124,50.7066,1024.4335],[92.6161,50.7052,1023.0797],[92.6588,50.7008,1032.1696],[92.748,50.7093,1200.5186],[92.7524,50.7123,1194.5048],[92.755,50.7181,1176.4318],[92.746,50.7427,1251.7947],[92.7472,50.7517,1250.2629],[92.7504,50.7555,1233.4517],[92.7725,50.769,1273.0269],[92.8024,50.7835,1444.7048],[92.8187,50.7896,1501.1772],[92.8439,50.7941,1663.8317],[92.9206,50.7931,1533.9226],[92.9951,50.7882,1561.7095],[93.0092,50.784,1563.365],[93.0215,50.7772,1475.3309],[93.033,50.763,1198.8781],[93.0294,50.7553,1117.7878],[93.0163,50.7451,1031.3298],[93.0062,50.7315,904.8961],[93.0113,50.7156,850.33],[93.0094,50.7025,820.4083],[92.9889,50.6726,766.2339],[92.9825,50.6582,761.5],[92.9831,50.6305,761.5],[92.9899,50.6159,761.5],[93.0034,50.6019,761.5],[93.0298,50.5866,761.5],[93.0399,50.5833,762.7087],[93.072,50.5857,763.4884],[93.0801,50.5837,765.6125],[93.0885,50.5745,764.7658],[93.1041,50.5669,765.6735],[93.1296,50.5627,766.9431],[93.1505,50.5615,768.0247],[93.1969,50.5697,770.6501],[93.3227,50.5775,779.6439],[93.4029,50.5855,785.2204],[93.4323,50.5925,787.6022],[93.4583,50.6007,789.6152],[93.4697,50.6019,790.2662],[93.4776,50.6005,790.9126],[93.487,50.5962,791.7947],[93.5105,50.5824,793.2402],[93.5221,50.5817,794.1039],[93.5901,50.5813,799.9446],[93.6163,50.5851,802.5403],[93.6381,50.5859,804.7995],[93.6697,50.5778,807.8081],[93.7813,50.5836,817.0323],[93.8387,50.5898,822.9708],[93.8817,50.5914,827.6235],[93.9568,50.5912,837.3346],[94.0038,50.5881,842.9694],[94.1065,50.5882,858.0428],[94.141,50.584,863.8837],[94.1777,50.5823,870.0969],[94.2237,50.5827,878.4631],[94.2763,50.5753,887.7802],[94.2881,50.5701,890.4122],[94.2954,50.5642,891.5895],[94.3035,50.5521,892.4263],[94.3087,50.5301,894.0688],[94.3073,50.5141,901.8966],[94.3119,50.4991,905.5846],[94.3214,50.4906,906.9066],[94.3364,50.4816,911.0311],[94.3487,50.4648,914.819],[94.3666,50.3556,954.2306],[94.3772,50.3213,1008.6218],[94.3989,50.2341,981.0179],[94.4071,50.2138,901.9185],[94.4117,50.2073,903.0143],[94.4241,50.198,906.6037],[94.4341,50.1939,907.9255],[94.4715,50.1845,915.4424],[94.5109,50.1695,933.2566],[94.517,50.163,939.5353],[94.5263,50.1467,930.4823],[94.5215,50.1351,974.452],[94.5314,50.1211,972.3473],[94.5361,50.1203,964.1383],[94.5433,50.1099,984.2887],[94.5528,50.1051,983.556],[94.563,50.0932,994.7322],[94.5845,50.0785,1007.2496],[94.5987,50.0641,1008.1964],[94.6063,50.0495,1027.2377],[94.6088,50.0387,1028.4332],[94.619,50.0339,1031.8346],[94.6428,50.0291,1067.322],[94.6673,50.029,1086.9653],[94.6873,50.0322,1123.6689],[94.7333,50.0476,1141.2764],[94.8399,50.0622,1173.8573],[94.8977,50.0641,1198.554],[94.9642,50.0617,1186.7856],[94.98,50.0583,1170.7266],[94.9913,50.0533,1153.9827],[94.9973,50.0485,1147.0],[95.0049,50.0393,1150.422],[95.0217,50.0057,1189.3119],[95.0309,49.9909,1220.2227],[95.0421,49.9819,1259.303],[95.0742,49.9651,1281.9352],[95.0944,49.9564,1275.4724],[95.1185,49.9501,1296.0959],[95.1296,49.9489,1320.7502],[95.2181,49.9494,1370.8284],[95.2764,49.9526,1335.6753],[95.3341,49.9515,1314.2985],[95.3973,49.9413,1282.2583],[95.4778,49.9223,1197.7443],[95.4971,49.9206,1178.0859],[95.5216,49.9236,1237.0055],[95.5765,49.9417,1367.0247],[95.6351,49.9555,1314.8818],[95.6533,49.9583,1371.6217],[95.7241,49.9619,1677.1815],[95.7377,49.9653,1649.6174],[95.7456,49.9702,1636.9741],[95.7507,49.9765,1497.5724],[95.7543,49.9857,1451.2588],[95.7549,50.004,1463.4109],[95.7593,50.0123,1515.9314],[95.7849,50.0279,1597.9495],[95.8185,50.0385,1633.2344],[95.8345,50.0411,1684.111],[95.8627,50.0413,1786.0297],[95.8839,50.0363,1952.3975],[95.8987,50.0291,1912.6201],[95.9072,50.0177,1844.6522],[95.9065,50.0093,1937.9575],[95.9085,50.0015,1913.1216],[95.9195,49.9929,1783.0718],[95.9288,49.9883,1807.3589],[95.9738,49.9797,1551.2589],[95.9941,49.9853,1612.8074],[96.0209,50.0035,1802.217],[96.0309,50.0081,1829.259],[96.0555,50.0161,1752.7692],[96.0739,50.0197,1752.1392],[96.0958,50.0195,1854.6643],[96.1219,50.0143,1735.8254],[96.1603,50.0011,1767.3062],[96.2123,49.9898,1863.567],[96.267,49.9858,2096.7563],[96.293,49.9914,2126.5947],[96.3021,49.9871,2151.3442],[96.3051,49.9811,2033.6096],[96.3069,49.9673,1928.9165],[96.3105,49.9603,1950.9547],[96.317,49.9567,1998.2488],[96.3519,49.9481,1997.9778],[96.3656,49.9389,1798.8574],[96.3906,49.9142,1693.6514],[96.4083,49.9023,1576.6801],[96.4271,49.8984,1648.1234],[96.4437,49.8983,1806.4083],[96.4537,49.9013,1912.0715],[96.4821,49.9233,2202.7478],[96.5237,49.9512,2364.1643],[96.5369,49.9574,2028.8978],[96.5471,49.9605,2362.3887],[96.5605,49.9619,2173.2986],[96.5873,49.9713,2151.897],[96.6117,49.9821,2459.1299],[96.6341,49.9819,2740.4312],[96.6586,49.9757,2310.9832],[96.6759,49.9663,2042.1038],[96.6809,49.9597,2159.0293],[96.6815,49.9483,2155.478],[96.663,49.918,1812.1859],[96.6663,49.9118,1759.4629],[96.6805,49.9044,1711.0752],[96.6977,49.9035,1973.9832],[96.7169,49.9079,2072.929],[96.7299,49.9141,2029.6765],[96.7561,49.931399999999996,2438.2178],[96.7747,49.9405,2403.1604],[96.7881,49.9444,2185.0605],[96.803,49.9461,2070.2761],[96.8394,49.9436,2310.5342],[96.9104,49.9291,2428.7505],[96.9828,49.9187,2126.0642],[97.003,49.9145,1875.3674],[97.0211,49.9038,2004.9978],[97.0563,49.8631,1712.6143],[97.0745,49.8484,1923.1501],[97.0881,49.8401,2183.4292],[97.1442,49.8262,2033.0544],[97.1528,49.8208,2186.9009],[97.1618,49.7984,2107.791],[97.17,49.7863,2382.0134],[97.1813,49.7795,2549.8801],[97.1937,49.7747,2363.7432],[97.2181,49.7688,2072.2563],[97.2425,49.7666,2320.5835],[97.2757,49.7599,2312.5564],[97.3035,49.7567,2418.5303],[97.3162,49.7574,2439.5312],[97.3547,49.7721,2476.9775],[97.3901,49.781,2516.7241],[97.43,49.7881,2453.585],[97.4491,49.7957,2453.0376],[97.4917,49.8209,2243.5552],[97.5439,49.8469,2652.332],[97.6029,49.8817,2713.0583],[97.6082,49.8871,2569.0796],[97.6114,49.8957,2636.9971],[97.6085,49.9011,2682.9956],[97.5824,49.9311,2526.7212],[97.5781,49.9421,2571.7166],[97.5835,49.9482,2512.2158],[97.6057,49.9523,2523.7891],[97.6157,49.9517,2635.1021],[97.6349,49.947,2663.856],[97.6539,49.947,2554.1152],[97.6745,49.9493,2436.0122],[97.6918,49.9533,2435.9309],[97.7057,49.9586,2568.1621],[97.7279,49.9709,2517.9104],[97.7655,49.9843,2465.7759],[97.7942,49.9879,2515.0986],[97.8073,49.9846,2293.6746],[97.8098,49.9821,2272.4194],[97.8155,49.9657,2210.1917],[97.8213,49.9567,2410.1851],[97.8277,49.9521,2344.552],[97.8363,49.9484,2376.1672],[97.8478,49.9468,2255.9062],[97.8627,49.9479,2414.7261],[97.8745,49.9518,2496.1855],[97.8838,49.9575,2395.3413],[97.8908,49.9649,2353.6592],[97.899,49.9781,2300.3423],[97.9145,49.9955,2199.0896],[97.9226,50.0,2155.1792],[97.9515,50.0073,2307.9912],[97.9653,50.0239,2281.1335],[97.9729,50.0302,2276.106],[97.9881,50.0353,2219.4365],[98.0069,50.0347,2263.7368],[98.0189,50.0365,2239.4026],[98.0433,50.0452,2190.21],[98.0578,50.0535,2120.5784],[98.1065,50.0917,2176.0781],[98.1162,50.1039,2158.4338],[98.1508,50.1778,2170.6311],[98.1718,50.2044,2201.5347],[98.1836,50.2144,2211.5679],[98.2303,50.2379,2002.3112],[98.2487,50.2499,2246.6794],[98.2544,50.2555,2215.8049],[98.2599,50.2653,2032.9014],[98.278,50.3121,1800.3411],[98.2779,50.3267,1956.1261],[98.2722,50.3541,2132.2488],[98.2591,50.3864,2280.9082],[98.2567,50.4111,1811.0948],[98.2589,50.4175,2046.1384],[98.2706,50.4346,2350.6658],[98.2892,50.4567,2049.1616],[98.3049,50.5021,2020.8308],[98.3245,50.539,2150.6536],[98.3232,50.5474,2106.1863],[98.3158,50.5557,2223.9321],[98.3069,50.5617,2191.5718],[98.2648,50.5746,2171.5078],[98.2079,50.5834,2146.3582],[98.1598,50.5871,2146.0859],[98.1455,50.5906,2106.0864],[98.1327,50.5964,2102.8674],[98.0488,50.6529,2031.465],[98.0347,50.6702,2371.0771],[98.0181,50.7012,2142.6997],[98.0081,50.7097,2060.6357],[97.9945,50.7161,2312.5217],[97.9817,50.7253,2056.1865],[97.9741,50.7333,2001.0624],[97.967,50.745,2040.0546],[97.955,50.7819,1692.6934],[97.9555,50.7877,1876.2969],[97.9625,50.8023,2206.0693],[97.9723,50.8165,2112.2129],[98.0119,50.8436,2093.3936],[98.0195,50.8515,2153.8096],[98.0196,50.867,1400.0708],[98.0129,50.8741,1400.0591],[97.9567,50.9029,1385.9912],[97.9409,50.9156,1387.5466],[97.9128,50.9234,1382.6592],[97.8867,50.9372,1383.8225],[97.8761,50.9474,1381.2239],[97.8673,50.9498,1375.45],[97.8656,50.9587,1373.4153],[97.8574,50.9644,1370.1929],[97.8621,50.9749,1382.5828],[97.8437,50.9991,1356.7545],[97.8284,51.0036,1343.7913],[97.8298,51.0064,1336.624],[97.828,51.0117,1340.6792],[97.8373,51.0269,1323.3279],[97.8463,51.0328,1318.9098],[97.8559,51.0347,1335.7014],[97.8677,51.0455,1332.1689],[97.8691,51.0511,1311.4309],[97.8661,51.0612,1314.5342],[97.8747,51.0741,1296.6766],[97.8797,51.0944,1282.2288],[97.8927,51.1055,1272.1353],[97.8968,51.1151,1267.7114],[97.8944,51.1204,1269.1573],[97.9023,51.1325,1257.2566],[97.9101,51.1637,1239.8225],[97.9078,51.1721,1234.8877],[97.9307,51.1933,1223.1262],[97.9349,51.2013,1219.1423],[97.9413,51.2079,1215.7828],[97.9463,51.2229,1208.5114],[97.9535,51.2319,1206.171],[97.9529,51.2375,1202.8889],[97.9442,51.2457,1197.1543],[97.9436,51.2493,1195.6455],[97.951,51.2601,1193.0557],[97.9573,51.2778,1188.1055],[97.9517,51.2875,1185.1317],[97.9545,51.2958,1175.663],[97.9535,51.3091,1177.4636],[97.9518,51.3152,1178.6708],[97.948,51.3172,1172.6718],[97.9449,51.3229,1166.6836],[97.9535,51.3332,1165.3271],[97.9717,51.3439,1164.8567],[97.9828,51.3603,1159.4451],[97.9833,51.3675,1199.6418],[97.9947,51.387,1152.8788],[98.0131,51.4027,1194.1908],[98.0228,51.42,1141.7415],[98.046,51.4329,1223.8512],[98.0482,51.4379,1240.3999],[98.0791,51.4519,1572.6658],[98.1001,51.4584,1532.2815],[98.1205,51.4595,1649.3285],[98.1925,51.4524,1604.2151],[98.2149,51.4542,1325.5374],[98.2259,51.4573,1318.9607],[98.2343,51.4623,1463.2687],[98.241,51.4752,1848.4609],[98.2443,51.4936,2054.0295],[98.2495,51.5053,2196.7461],[98.2603,51.5147,2059.1843],[98.2629,51.5208,2293.4495],[98.2584,51.5348,2477.5122],[98.2448,51.5518,2166.042],[98.2405,51.5666,2310.8521],[98.2432,51.5721,2304.2139],[98.2671,51.6005,2520.3999],[98.2765,51.6183,2521.4192],[98.2728,51.623,2664.8672],[98.2801,51.6281,2522.677],[98.295,51.6481,2239.5247],[98.2992,51.6572,2184.4907],[98.3028,51.6985,2136.541],[98.3085,51.7111,2207.1128],[98.3152,51.7178,2208.6421],[98.3457,51.7359,2075.249],[98.3677,51.7451,2096.6392],[98.4104,51.7542,1792.6716],[98.4951,51.7657,2074.3767],[98.5193,51.7793,1762.1367],[98.5479,51.7887,1717.9633],[98.6213,51.7961,1830.282],[98.6531,51.8051,1781.1006],[98.6599,51.8057,1835.6877],[98.6963,51.8204,1834.9762],[98.7107,51.8297,2029.7594],[98.7295,51.8497,1891.4564],[98.7431,51.8743,2001.8668],[98.7591,51.8965,2090.2122],[98.7667,51.9139,1980.6907],[98.7983,51.9629,2260.9316],[98.8189,52.0135,2557.4636],[98.8261,52.0214,2252.2251],[98.8527,52.0411,2339.1238],[98.8569,52.049,2453.8223],[98.8614,52.0633,2384.3267],[98.8667,52.1153,2302.9429],[98.8715,52.1292,2388.0986],[98.8803,52.1401,2338.8408],[98.8936,52.1495,2131.8345],[98.9205,52.1543,2589.96],[98.9416,52.1519,2086.7834],[98.9537,52.1479,2260.696],[98.9679,52.1395,2785.3936],[98.9892,52.1234,2352.4478],[98.9801,52.1536,2356.5237],[98.9897,52.1861,1951.4617],[98.9712,52.2165,1890.2657],[98.9356,52.2284,2164.5811],[98.8959,52.2042,2896.541],[98.8331,52.2076,2435.5381],[98.8001,52.2277,2135.7646],[98.8243,52.2565,2572.0793],[98.8177,52.2934,2105.1704],[98.7471,52.2958,2453.7036],[98.6479,52.2785,2484.9658],[98.6289,52.3126,1944.6259],[98.6562,52.3515,2149.916],[98.6501,52.3985,2318.0623],[98.6475,52.4354,2265.772],[98.6908,52.444,2537.7168],[98.7218,52.4957,2157.5264],[98.8152,52.5405,2323.5205],[98.831,52.6243,2215.8936],[98.8827,52.6531,2355.9922],[98.9331,52.6855,2388.7832],[98.9557,52.7353,2220.0667],[98.9644,52.806,2330.6445],[98.9325,52.8003,2211.2222],[98.8891,52.7983,2060.1191],[98.8626,52.8201,2428.8596],[98.8705,52.8633,2412.2827],[98.8948,52.8992,2322.6216],[98.9289,52.9268,2155.4336],[98.9815,52.9436,2227.8281],[99.0071,52.9437,2036.1392],[99.0477,52.91,1698.2959],[99.0967,52.8927,2100.0029],[99.1573,52.8801,2082.0918],[99.1967,52.8784,2082.7617],[99.2206,52.8967,2230.4912],[99.2092,52.937,1987.6465],[99.0885,52.9751,2172.5806],[98.9837,53.0124,1599.5538],[98.8765,53.0588,1533.1183],[98.9505,53.1119,1783.3329],[98.8644,53.1493,1968.6694],[98.7956,53.1584,1785.6121],[98.7778,53.1399,1720.5469],[98.7099,53.1271,1822.2943],[98.6579,53.162,2238.657],[98.6134,53.1632,2010.3118],[98.5888,53.1381,1924.5007],[98.5284,53.1216,1676.9666],[98.3954,53.1296,1615.0718],[98.2722,53.1,1535.7073],[98.2077,53.1053,1739.7329],[98.1917,53.2166,1859.2317],[98.0553,53.2433,2142.3582],[97.9944,53.2357,1857.8381],[97.9247,53.29,1894.3574],[97.9231,53.3603,2215.1074],[97.8743,53.3766,1810.8789],[97.7735,53.3681,2238.9858],[97.6976,53.3992,2215.1047],[97.5977,53.4015,2360.5767],[97.5128,53.3821,2069.2781],[97.4799,53.448,2360.6389],[97.4074,53.4544,2160.8618],[97.3326,53.4972,2023.9486],[97.2997,53.5583,2398.0967],[97.2084,53.6115,2291.564],[97.0481,53.6108,2271.1658],[97.0006,53.6522,2278.8083],[96.9223,53.6646,2125.5168],[96.8147,53.7534,2057.5391],[96.6714,53.7471,1921.7272],[96.6534,53.6518,1760.7021],[96.6255,53.5953,1618.1763],[96.4772,53.555,2031.0605],[96.3558,53.5372,1494.1296],[96.1741,53.5891,1812.4242],[96.1496,53.5363,1301.3088],[96.0558,53.5228,1584.527],[96.0356,53.4865,1139.019],[95.9955,53.4713,1950.3323],[95.9034,53.4979,1936.8634],[95.7978,53.5029,1290.8162],[95.6921,53.4795,1498.8],[95.6573,53.511,1464.0084],[95.5425,53.4587,1470.4397],[95.4594,53.4497,1263.9871],[95.4225,53.4153,1498.9203],[95.3175,53.3988,1666.9208],[95.2125,53.4371,1390.8489],[95.1278,53.4624,1522.2848],[95.0392,53.4054,1519.3337],[94.9772,53.3896,1557.8634],[94.9679,53.4084,1652.0609],[94.9028,53.4062,1330.4846],[94.6667,53.3872,982.3407],[94.5661,53.3345,1528.8333],[94.6479,53.2884,1347.2808],[94.6477,53.2528,1175.1335],[94.5707,53.2177,826.4131],[94.5345,53.1161,842.3412],[94.5179,53.0089,882.5779],[94.4669,52.9365,1723.4097],[94.3894,52.9223,1254.8591],[94.2494,52.9202,1064.3192],[94.1347,52.8835,1099.9417],[94.0427,52.7911,1738.1055],[93.9874,52.6813,1650.7639],[93.9066,52.6536,1373.5828],[93.8996,52.5787,1633.7446],[93.8513,52.5611,1672.1951],[93.7463,52.4877,1432.0684],[93.7432,52.3834,1945.441],[93.6365,52.3345,1332.2802],[93.5953,52.2057,1017.1472],[93.415,52.1841,1140.4788],[93.3659,52.1542,1202.9781],[93.3244,52.1451,1152.1525],[93.2493,52.1098,1282.2205],[93.1779,52.0469,1545.0664],[93.1297,52.0431,1523.5552],[93.0305,51.964,1035.8412],[92.9796,51.9624,1060.5698],[92.8986,51.9143,1563.3967],[92.8262,51.852,1778.0728],[92.7601,51.8612,1562.741],[92.6448,51.8577,1726.9144],[92.5635,51.8352,1631.8857],[92.3877,51.7964,1872.4119],[92.3262,51.8178,1798.3081],[92.2547,51.8152,1679.3818],[92.2012,51.7954,1199.5276],[92.1391,51.7898,539.7947],[92.0748,51.7692,1414.0393],[91.9503,51.7595,1367.2427],[91.8485,51.7765,1045.9813],[91.8202,51.8252,1587.1023],[91.7483,51.8574,1585.2644],[91.6087,51.835,1154.8921],[91.5544,51.8472,1595.537],[91.4619,51.8859,1925.5571],[91.3835,51.8923,2070.3154],[91.2259,51.8735,1687.0564],[91.1197,51.8672,1619.4146],[91.0607,51.9166,2142.7166],[90.9823,51.9292,2240.0562],[90.7942,51.8794,2065.3269],[90.6506,52.0597,1241.1117],[90.546,52.0926,1450.6919],[90.508,52.1409,1609.2291],[90.452,52.1634,1822.4774],[90.3655,52.1693,1958.1409],[90.293,52.1717,2214.3013],[90.2571,52.1323,1853.1306],[90.1752,52.1135,1620.3519],[90.0839,52.1427,1739.0291],[90.0485,52.1254,1785.8098],[90.0573,52.0801,1092.5228],[90.0727,52.0224,1582.0884],[89.9853,51.9687,1931.8174],[89.9578,51.8921,1626.7539],[90.0209,51.8169,1591.9025],[90.061,51.743,2359.769],[90.0198,51.7131,2291.02],[89.984,51.7199,2075.0671],[89.8809,51.6951,2248.3989],[89.8577,51.653,2236.8999],[89.7586,51.6099,1878.8416],[89.7257,51.5604,2325.2495],[89.6227,51.5197,2227.9243],[89.5508,51.5236,2058.6304],[89.4854,51.5467,1960.907],[89.442,51.5747,2211.3218],[89.3148,51.5581,2313.2749],[89.2325,51.5228,1915.1858],[89.17,51.5396,2429.7812],[89.215,51.6016,2251.3994],[89.1999,51.6287,2563.4082],[89.0231,51.6013,2327.8989],[88.9815,51.5645,2421.2756],[88.9185,51.5505,2550.0493],[88.8078,51.5518,2383.1655],[88.7881,51.5414,2417.1724],[88.81,51.538,2332.5381],[88.8477,51.5104,2529.0005],[88.8654,51.4686,2648.3169],[88.9272,51.4341,2071.3787],[88.9704,51.4172,1935.5819],[88.9939,51.3917,2104.7273],[88.977,51.3566,2399.4146],[88.9563,51.3247,2158.5256],[88.9358,51.2864,2120.7625],[88.9969,51.1886,2339.9998],[89.0451,51.1415,2738.1318],[89.0352,51.1024,2783.6838],[89.037,51.0579,2307.2556],[89.0853,51.0256,2335.6379],[89.141,51.0042,2594.5488],[89.1881,50.9811,2696.3865],[89.2007,50.9172,2254.1785],[89.2913,50.861,2360.3223],[89.3662,50.8647,2563.9062],[89.386,50.8499,2736.1455],[89.3918,50.816,2784.9905],[89.4271,50.7859,2523.0588],[89.4966,50.7526,2536.2039],[89.5417,50.7234,2523.2744],[89.5413,50.6842,2414.0376],[89.5593,50.6468,2657.6636],[89.6186,50.6236,2663.469],[89.6438,50.6101,3069.5559],[89.6554,50.586,2874.1577],[89.706,50.5563,2686.1924],[89.7737,50.531,2722.1851],[89.8428,50.502,2570.436],[89.8659,50.4593,2276.7915],[89.8508,50.4196,2416.1082],[89.7967,50.3743,2307.5493],[89.7104,50.3502,2457.9219],[89.6342,50.356,2439.2686],[89.5913,50.3734,2222.9255],[89.5409,50.4508,2288.4509],[89.4855,50.4594,2216.5659],[89.4847,50.4154,2248.7666],[89.5274,50.3578,2497.0549],[89.5115,50.3403,2446.7361],[89.4473,50.3266,2560.0229],[89.4023,50.311,2873.4783],[89.3885,50.2787,2769.3472],[89.3668,50.2616,2764.1355],[89.3271,50.2361,2941.1294],[89.3318,50.1992,2925.3889],[89.49,50.1782,2784.8955],[89.5149,50.1328,2869.6694],[89.546,50.1096,2775.3191],[89.5835,50.0954,2803.1052],[89.6078,50.0584,2573.6311],[89.5882,50.0133,3122.2192],[89.5762,49.9906,3001.9072],[89.6057,49.9672,3112.2715],[89.6053,49.9466,2968.772],[89.6076,49.9591,3059.6013],[89.6133,49.968,3160.2969],[89.6207,49.974,3214.2017],[89.6389,49.9789,2800.7881],[89.6649,49.9805,3201.8071],[89.6943,49.975,2686.0076],[89.7103,49.9752,2802.405],[89.7193,49.9775,3185.479],[89.7445,49.9948,3198.4539],[89.7531,49.9983,3266.9773],[89.7651,50.0001,3122.4153],[89.7803,49.9975,2942.8271],[89.8365,49.9981,3196.3237],[89.8428,49.9949,2943.3911],[89.8557,49.9921,2720.0398],[89.9008,49.9846,2137.1851],[89.9305,49.9855,2113.8711],[89.9533,49.9899,2027.709],[89.9716,49.9955,1971.9261]]]]}}