{"type":"Feature","properties":{"featurecla":"Range/mtn","name":"Western Sayan Mts.","namealt":null,"region":"Asia","subregion":null,"min_label":5.3,"max_label":9.0,"scalerank":4},
"geometry":{"type": "Polygon","coordinates": [[[90.938586351076964,51.863333431052581,1759.0082],[90.932505730083761,51.700323797650384,1615.9512],[90.8986922535212,51.622626043744077,1507.3036],[90.852343464877009,51.547980435356834,1766.4736],[90.8719588550837,51.485052801556606,1715.6929],[90.9043074878962,51.430182196087827,1089.6206],[90.9480086597712,51.3856265320253,1312.9861],[91.002696159771261,51.353705145306577,1019.963],[91.067637566021261,51.336737371869077,743.6545],[91.409312370708761,51.344427801556549,829.305],[92.090342644146261,51.508368231244049,871.5651],[94.644663933208761,51.626593328900384,846.1237],[95.3083602222712,51.489447332806606,862.2943],[95.487803581646261,51.500799871869106,726.9636],[95.6528426441462,51.536383367962884,1015.4901],[95.706309441021261,51.560309149212856,1268.2898],[95.746836784771261,51.591070867962827,1111.2897],[95.7791854175837,51.630682684369106,928.0126],[96.009776237896261,52.030951239056634,1513.0751],[96.022837761333761,52.070502020306606,1416.2957],[96.0285750660212,52.114203192181606,1057.3202],[96.0256453785212,52.153387762494106,953.2227],[96.015879753521261,52.193365789837884,922.6515],[95.940531237724855,52.364620542229233,1190.9434],[95.0943709644587,52.812323309369049,1470.5088],[93.998595296787329,53.131357374102578,897.8665],[91.199351433208761,52.936957098431549,949.5486],[91.166636589458761,52.855108953900356,1137.6079],[91.1110945972712,52.829352117962856,822.0468],[91.065806511333761,52.783270574994077,867.1959],[91.05808055875471,52.770046802917619,532.1746],[91.0577498707087,52.756842352337827,545.5094],[90.9697905458577,52.433227584772226,1010.194],[90.9687606128962,52.423407293744049,1287.3188],[91.0002547535212,51.999335028119077,1884.9335],[90.9914656910212,51.957586981244106,2273.9922],[90.9776717457087,51.924872137494106,2423.9824],[90.938586351076964,51.863333431052581,1759.0082]]]}}