{"type":"Feature","properties":{"GID_3":"RUS.2.1.1_1","GID_0":"RUS","country":"Russia","GID_1":"RUS.2_1","province":"Altay","NL_NAME_1":"Алтайскийкрай","GID_2":"RUS.2.1_1","county":"Aleysk","NL_NAME_2":"Але́йск)","city":"NA","VARNAME_3":"NA","NL_NAME_3":"NA","TYPE_3":"NA","ENGTYPE_3":"NA","CC_3":"NA","HASC_3":"NA","name":"N_A.city"},
"geometry":{"type": "MultiPolygon","coordinates": [[[[82.8136,52.536,209.8678],[82.8121,52.537,210.0242],[82.8097,52.5345,207.9699],[82.8121,52.5318,205.5617],[82.8136,52.536,209.8678]]]]}}