{"type":"Feature","properties":{"GID_2":"RUS.35.25_1","GID_0":"RUS","country":"Russia","GID_1":"RUS.35_1","province":"Krasnoyarsk","NL_NAME_1":"Красноярскийкрай","county":"Kansk","VARNAME_2":"NA","NL_NAME_2":"Канск","TYPE_2":"Gorod","ENGTYPE_2":"City","CC_2":"NA","HASC_2":"RU.KY.KG","name":"Kansk.county"},
"geometry":{"type": "MultiPolygon","coordinates": [[[[95.7312,56.1523,215.1192],[95.7447,56.1708,209.2667],[95.7304,56.1933,207.4641],[95.6625,56.2046,201.9839],[95.6361,56.1849,208.3461],[95.6401,56.1512,286.7486],[95.67,56.1408,290.5839],[95.7079,56.14,258.5482],[95.7312,56.1523,215.1192]]]]}}