{"type":"Feature","properties":{"GID_2":"RUS.35.51_1","GID_0":"RUS","country":"Russia","GID_1":"RUS.35_1","province":"Krasnoyarsk","NL_NAME_1":"Красноярскийкрай","county":"Taseevskiyrayon","VARNAME_2":"NA","NL_NAME_2":"Тасеевскийрайон","TYPE_2":"Raion","ENGTYPE_2":"District","CC_2":"R62093","HASC_2":"RU.KY.TA","name":"Taseevskiyrayon.county"},
"geometry":{"type": "MultiPolygon","coordinates": [[[[95.8651,57.5554,363.6104],[95.8148,57.5308,394.2733],[95.7155,57.4935,343.7692],[95.6212,57.5046,340.0899],[95.5675,57.5392,281.1119],[95.5651,57.5948,276.2261],[95.5688,57.6343,254.5174],[95.5302,57.6922,292.9857],[95.4259,57.7467,242.6026],[95.2874,57.7513,215.0825],[95.1419,57.7417,181.4016],[95.0686,57.7506,150.9682],[95.0072,57.7663,224.2249],[94.9168,57.7478,99.8843],[94.8132,57.7405,106.7273],[94.6942,57.7498,237.2919],[94.6099,57.7707,103.3359],[94.5371,57.771,203.247],[94.4147,57.7616,208.6045],[94.3073,57.7729,155.783],[94.232,57.7994,118.9137],[94.1663,57.8483,145.4871],[94.113,57.9069,137.3484],[94.002,57.8199,198.8369],[93.8998,57.7478,177.4102],[93.8134,57.6728,218.548],[93.77,57.6028,149.827],[93.7216,57.5307,182.4495],[93.6371,57.4263,150.5963],[93.5988,57.3574,177.8954],[93.6931,57.3388,191.6184],[93.7326,57.3071,201.7812],[93.796,57.2246,350.089],[93.8484,57.1424,397.6666],[93.9034,57.0704,488.7491],[94.069,56.9458,427.244],[94.1883,56.9154,397.4806],[94.2932,56.8988,439.7981],[94.4246,56.8979,302.3419],[94.4958,56.905,272.274],[94.5263,56.9219,245.4385],[94.494,56.966,265.4194],[94.4841,56.9993,239.7615],[94.5048,57.0067,238.6284],[94.5943,56.9917,214.6917],[94.6697,56.9943,227.1019],[94.7622,57.0194,231.8259],[94.9481,57.0166,195.2229],[95.0962,57.032,169.6064],[95.1652,57.0567,224.2864],[95.2407,57.0981,214.7889],[95.3569,57.1155,232.3683],[95.4341,57.0811,237.1567],[95.5168,57.0587,243.7918],[95.6018,57.0391,250.8977],[95.6832,57.0521,233.3365],[95.7219,57.0891,198.7171],[95.7803,57.0848,200.4651],[95.7816,57.0474,223.9356],[95.8043,57.0126,207.7039],[95.8554,56.9962,215.8229],[95.9568,56.9915,258.7993],[96.0393,57.0071,247.3979],[96.0957,57.0308,251.4168],[96.0797,57.055,247.2924],[96.004,57.0661,266.3663],[95.9692,57.0622,249.6135],[95.9202,57.0605,247.1255],[95.9505,57.1035,285.518],[96.0052,57.1438,280.6723],[95.9674,57.2575,241.9865],[95.9698,57.2941,226.5875],[95.981,57.3594,216.9005],[95.9296,57.4033,324.7368],[95.9123,57.4474,425.905],[95.9066,57.4966,381.8268],[95.9123,57.5333,387.8693],[95.8651,57.5554,363.6104]]]]}}