{"type":"Feature","properties":{"GID_2":"RUS.83.9_1","GID_0":"RUS","country":"Russia","GID_1":"RUS.83_1","province":"Zabaykal'ye","NL_NAME_1":"Забайкальскийкрай","county":"Chita","VARNAME_2":"NA","NL_NAME_2":"Чита","TYPE_2":"Gorsovet","ENGTYPE_2":"District","CC_2":"NA","HASC_2":"RU.CT.CG","name":"Chita.county"},
"geometry":{"type": "MultiPolygon","coordinates": [[[[113.4389,52.0652,650.6567],[113.4377,52.1013,658.2621],[113.4005,52.1117,667.3276],[113.3639,52.0987,704.6724],[113.3525,52.0642,691.4158],[113.3854,52.055,653.8669],[113.4389,52.0652,650.6567]]]]}}