{"type":"Feature","properties":{"GID_2":"RUS.9.14_1","GID_0":"RUS","country":"Russia","GID_1":"RUS.9_1","province":"Buryat","NL_NAME_1":"РеспубликаБурятия","county":"Okinskiyrayon","VARNAME_2":"NA","NL_NAME_2":"Окинскийрайон","TYPE_2":"Raion","ENGTYPE_2":"District","CC_2":"R60001","HASC_2":"RU.BU.OK","name":"Okinskiyrayon.county"},
"geometry":{"type": "MultiPolygon","coordinates": [[[[100.6408,51.7167,2708.7915],[100.667,51.7667,1937.5134],[100.7082,51.7672,1568.116],[100.7283,51.7529,1512.0356],[100.7803,51.7709,2783.8223],[100.8923,51.7713,2131.9553],[101.0057,51.7762,2157.3132],[101.1114,51.7979,2339.5967],[101.2176,51.7738,2243.2537],[101.3271,51.785,2293.2334],[101.4257,51.8112,2409.5808],[101.4678,51.803,2753.1208],[101.5881,51.8183,1925.5839],[101.658,51.8356,2435.8416],[101.7305,51.8434,2142.519],[101.8963,51.8538,2634.1245],[101.9481,51.8788,2871.7432],[102.0996,51.9247,2333.8848],[102.1752,51.9545,2404.2312],[102.3721,51.9783,1830.3267],[102.4587,51.9695,1589.7502],[102.516,51.9408,1906.7885],[102.5565,51.9061,1146.1147],[102.6027,51.8888,1209.1776],[102.6816,51.8819,1188.3296],[102.7521,51.89,1337.0789],[102.8756,51.9298,1177.6417],[102.8498,51.9375,1417.6876],[102.8346,51.9707,1364.0393],[102.8084,51.9901,1298.5955],[102.7565,52.0103,1552.0193],[102.6974,52.0755,889.2444],[102.6537,52.1084,882.5129],[102.5879,52.1252,1545.2874],[102.5651,52.1556,1641.2761],[102.5584,52.1921,1598.6014],[102.5641,52.2281,1384.2142],[102.5379,52.2437,1240.8236],[102.4695,52.24,1374.1243],[102.4221,52.2655,1271.5803],[102.3753,52.2602,1421.6233],[102.3103,52.2452,1572.3665],[102.2139,52.2569,1446.0848],[102.1706,52.2737,1548.8704],[102.1271,52.2748,1522.5647],[102.0958,52.2486,1450.7126],[102.0176,52.2338,1913.2808],[101.9474,52.2576,1729.3335],[101.9064,52.304,1619.4532],[101.8515,52.3293,1338.449],[101.6963,52.3715,911.3181],[101.6473,52.403,1732.944],[101.6137,52.4934,1133.0039],[101.4566,52.585,1639.8145],[101.3833,52.6361,1296.0117],[101.3177,52.6501,1359.7242],[101.2302,52.6912,1605.7191],[101.1332,52.7175,1380.9512],[101.0965,52.7585,1041.8741],[101.0219,52.7844,1592.6536],[100.9632,52.7981,1484.7683],[100.8885,52.822,1776.8842],[100.8268,52.8531,1543.8428],[100.7825,52.9014,1626.67],[100.7618,52.9328,1922.2251],[100.6574,52.9604,1329.9812],[100.6031,53.0022,1283.2837],[100.5134,53.0268,1250.0062],[100.4469,53.0621,1154.3993],[100.3651,53.1432,904.1453],[100.3486,53.1927,1481.1702],[100.3593,53.2411,1114.7861],[100.3597,53.2803,2024.0804],[100.3275,53.328,1757.6168],[100.2814,53.363,2025.5881],[100.28,53.3894,1648.2662],[100.269,53.4104,1653.8536],[100.2278,53.4143,1352.0046],[100.185,53.4045,1817.5378],[100.1465,53.3884,1624.9873],[100.1112,53.3557,1915.8706],[100.1019,53.3238,2050.7703],[100.0422,53.3222,1810.9749],[99.9991,53.337,1820.1842],[99.9393,53.3445,1827.417],[99.8645,53.3383,1883.2368],[99.8406,53.2956,1818.7656],[99.8574,53.2635,1650.8562],[99.8561,53.237,1747.2356],[99.8197,53.218,1815.1576],[99.7789,53.2144,1790.1807],[99.7113,53.1926,1504.0278],[99.6144,53.1461,2001.0288],[99.557,53.1361,1997.6674],[99.4836,53.1434,1963.1708],[99.4283,53.1461,2055.6394],[99.3676,53.125,1862.3691],[99.3641,53.1021,2054.2407],[99.3692,53.0711,2238.801],[99.348,53.056399999999996,2103.2336],[99.2995,53.0343,1739.3064],[99.2486,53.0177,2031.8523],[99.2417,52.9884,2558.1904],[99.2318,52.9609,2364.3059],[99.2092,52.937,1987.6465],[99.2206,52.8967,2230.4912],[99.1967,52.8784,2082.7617],[99.1573,52.8801,2082.0918],[99.0967,52.8927,2100.0029],[99.0477,52.91,1698.2959],[99.0071,52.9437,2036.1392],[98.9815,52.9436,2227.8281],[98.9289,52.9268,2155.4336],[98.8948,52.8992,2322.6216],[98.8705,52.8633,2412.2827],[98.8626,52.8201,2428.8596],[98.8891,52.7983,2060.1191],[98.9325,52.8003,2211.2222],[98.9644,52.806,2330.6445],[98.9557,52.7353,2220.0667],[98.9331,52.6855,2388.7832],[98.8827,52.6531,2355.9922],[98.831,52.6243,2215.8936],[98.8152,52.5405,2323.5205],[98.7218,52.4957,2157.5264],[98.6908,52.444,2537.7168],[98.6475,52.4354,2265.772],[98.6501,52.3985,2318.0623],[98.6562,52.3515,2149.916],[98.6289,52.3126,1944.6259],[98.6479,52.2785,2484.9658],[98.7471,52.2958,2453.7036],[98.8177,52.2934,2105.1704],[98.8243,52.2565,2572.0793],[98.8001,52.2277,2135.7646],[98.8331,52.2076,2435.5381],[98.8959,52.2042,2896.541],[98.9356,52.2284,2164.5811],[98.9712,52.2165,1890.2657],[98.9897,52.1861,1951.4617],[98.9801,52.1536,2356.5237],[98.9891,52.1236,2352.4478],[99.0383,52.0777,2291.4751],[99.0485,52.0721,2328.8291],[99.0967,52.0571,2500.4958],[99.1364,52.0497,2510.5042],[99.1841,52.0367,2512.3596],[99.2391,52.0301,2269.6187],[99.2732,52.0201,2826.8518],[99.2818,52.0138,2863.9985],[99.2871,52.0053,2544.7495],[99.2896,51.9851,2442.2949],[99.2948,51.9752,2361.6011],[99.3081,51.9661,2507.5083],[99.3212,51.9615,2742.064],[99.3617,51.9548,2788.9341],[99.4031,51.9532,2821.9922],[99.4595,51.9479,2831.1624],[99.4836,51.9427,2703.731],[99.5595,51.9199,2527.9277],[99.572,51.9179,2411.3069],[99.6144,51.9148,2485.4324],[99.6672,51.9139,2147.7598],[99.6999,51.9097,2102.3716],[99.7276,51.9015,2187.6379],[99.7706,51.8818,2070.3096],[99.7845,51.8721,2108.2112],[99.7975,51.8581,2275.0081],[99.8121,51.8467,2473.6321],[99.8331,51.8239,2547.4773],[99.8459,51.8153,2562.1875],[99.8971,51.7874,2350.207],[99.9329,51.7719,2560.5305],[99.9501,51.7683,2370.564],[99.9935,51.7533,2697.8926],[100.0483,51.7526,2338.8101],[100.1023,51.7603,2403.7554],[100.1247,51.7605,2487.6279],[100.2295,51.7519,2579.615],[100.2789,51.7451,2586.3726],[100.3127,51.7445,2411.5093],[100.3723,51.7494,2582.3354],[100.4002,51.748,2777.988],[100.4307,51.7411,2546.3823],[100.4477,51.7405,2898.3289],[100.4716,51.7472,2643.4419],[100.5156,51.7504,2888.6572],[100.5291,51.7475,3015.7437],[100.5463,51.7411,2837.0469],[100.5845,51.7221,2977.5417],[100.5942,51.7189,3375.1726],[100.6135,51.7156,3164.9126],[100.6408,51.7167,2708.7915]]]]}}