{"type":"Feature","properties":{"GID_2":"RUS.16.3_1","GID_0":"RUS","country":"Russia","GID_1":"RUS.16_1","province":"Gorno-Altay","NL_NAME_1":"РеспубликаАлтай","county":"Gorno-Altaysk","VARNAME_2":"NA","NL_NAME_2":"Горно-Алтайск","TYPE_2":"Gorod","ENGTYPE_2":"City","CC_2":"NA","HASC_2":"RU.GA.GA","name":"Gorno-Altaysk.county"},
"geometry":{"type": "MultiPolygon","coordinates": [[[[85.9737,51.9379,301.3178],[85.9757,51.9462,306.1486],[85.965,51.9529,295.7975],[85.9404,51.9483,405.259],[85.9468,51.9329,458.1721],[85.9637,51.9322,364.2396],[85.9737,51.9379,301.3178]]]]}}