{"type":"Feature","properties":{"GID_2":"RUS.71.14_1","GID_0":"RUS","country":"Russia","GID_1":"RUS.71_1","province":"Tuva","NL_NAME_1":"РеспубликаТыва","county":"Tandinskiyrayon","VARNAME_2":"NA","NL_NAME_2":"Тандинскийрайон","TYPE_2":"Raion","ENGTYPE_2":"District","CC_2":"R61001","HASC_2":"RU.TU.TA","name":"Tandinskiyrayon.county"},
"geometry":{"type": "MultiPolygon","coordinates": [[[[94.1707,51.0198,2116.533],[94.2138,51.0001,2049.687],[94.2842,50.9152,2021.7958],[94.3491,50.8701,1928.9211],[94.5357,50.852,2067.3208],[94.6815,50.8933,1958.7782],[94.7463,50.831,2073.1333],[94.8621,50.8162,2019.0647],[94.9292,50.8054,2122.2305],[94.9764,50.742,1999.5762],[95.006,50.72,1754.351],[95.0626,50.7151,1804.9089],[95.1,50.7525,1918.3743],[95.1275,50.7876,1900.3596],[95.2017,50.805,1370.8557],[95.3232,50.8048,1126.4994],[95.3922,50.8294,1159.1516],[95.3922,50.8585,1223.6467],[95.3814,50.8917,1140.1537],[95.3534,50.9551,1179.5133],[95.2818,51.0455,903.1992],[95.207,51.1085,977.4105],[95.1386,51.1781,1081.425],[95.0399,51.2388,954.2898],[94.9864,51.1906,919.5751],[94.9473,51.143,930.0958],[94.8556,51.1151,1073.3284],[94.7926,51.1344,959.9948],[94.747,51.1657,855.9902],[94.6797,51.2369,853.1772],[94.6043,51.3057,736.7921],[94.544,51.3892,799.9351],[94.5272,51.4599,900.9018],[94.4938,51.5028,948.675],[94.4101,51.5271,916.7756],[94.2668,51.5295,812.9808],[94.2068,51.5809,876.4984],[94.1409,51.6041,602.1498],[94.1061,51.6003,606.3231],[94.1163,51.5415,615.5256],[94.0522,51.5043,753.3198],[93.969,51.5348,719.8264],[93.9096,51.5796,682.3245],[93.8578,51.5703,583.4969],[93.8763,51.5582,599.4379],[94.1685,51.0403,1833.8273],[94.1707,51.0198,2116.533]]]]}}