{"type":"Feature","properties":{"GID_2":"RUS.83.4_1","GID_0":"RUS","country":"Russia","GID_1":"RUS.83_1","province":"Zabaykal'ye","NL_NAME_1":"Забайкальскийкрай","county":"Baley","VARNAME_2":"NA","NL_NAME_2":"Балей","TYPE_2":"Gorod","ENGTYPE_2":"City","CC_2":"NA","HASC_2":"RU.CT.BG","name":"Baley.county"},
"geometry":{"type": "MultiPolygon","coordinates": [[[[116.6148,51.6004,801.9905],[116.623,51.6058,895.1813],[116.6272,51.6162,984.7141],[116.6267,51.6208,927.6821],[116.6042,51.6272,943.5236],[116.596,51.6248,992.1583],[116.5811,51.6145,1026.0409],[116.5819,51.6048,1005.2019],[116.6013,51.5995,941.9202],[116.6148,51.6004,801.9905]]]]}}