{"type":"Feature","properties":{"GID_2":"RUS.2.31_1","GID_0":"RUS","country":"Russia","GID_1":"RUS.2_1","province":"Altay","NL_NAME_1":"Алтайскийкрай","county":"Novochikhinskiyrayon","VARNAME_2":"NA","NL_NAME_2":"Новочихинскийрайон","TYPE_2":"Raion","ENGTYPE_2":"District","CC_2":"R53092","HASC_2":"RU.AL.NC","name":"Novochikhinskiyrayon.county"},
"geometry":{"type": "MultiPolygon","coordinates": [[[[81.2666,51.9035,299.2533],[81.3082,51.9033,294.6402],[81.3602,51.8368,242.4035],[81.4101,51.8476,227.7042],[81.4353,51.8653,226.4625],[81.4703,51.8819,222.6438],[81.4928,51.8764,214.1791],[81.5266,51.905,215.8377],[81.5517,51.9358,216.5362],[81.5959,51.9719,218.7838],[81.5631,52.0116,239.5997],[81.6304,52.0478,245.4006],[81.7117,52.0808,243.4156],[81.7168,52.109,264.3668],[81.6994,52.1296,279.9073],[81.7064,52.1441,278.5127],[81.7434,52.1636,260.6317],[81.8155,52.1741,248.7639],[81.8291,52.2142,243.1796],[81.8039,52.2447,248.1113],[81.7397,52.3055,276.1863],[81.6734,52.3017,272.1906],[81.5998,52.3852,219.7438],[81.4726,52.3397,231.4288],[81.3911,52.3642,278.603],[81.3279,52.3504,263.6753],[81.2875,52.4113,232.3411],[81.3477,52.4766,198.5],[81.3368,52.4927,198.5],[81.278,52.5013,197.0571],[81.221,52.4554,199.5141],[81.1799,52.4152,223.0436],[81.142,52.3877,215.643],[81.0863,52.3334,214.7664],[81.1505,52.2974,235.6897],[81.1285,52.2443,264.9489],[81.0986,52.1946,286.6873],[81.0485,52.1581,300.3758],[81.0762,52.1205,246.8422],[81.1041,52.0952,221.7315],[81.0846,52.0781,233.0166],[81.1333,52.0512,220.5],[81.187,52.0295,249.7217],[81.2159,51.9986,259.4846],[81.2022,51.9602,268.427],[81.2321,51.9305,285.0804],[81.2666,51.9035,299.2533]]]]}}