{"type":"Feature","properties":{"GID_2":"RUS.9.2_1","GID_0":"RUS","country":"Russia","GID_1":"RUS.9_1","province":"Buryat","NL_NAME_1":"РеспубликаБурятия","county":"Bauntovskiy","VARNAME_2":"Bauntovskiy-Zvenkiyiskiy","NL_NAME_2":"Баунтовскийрайон","TYPE_2":"Raion","ENGTYPE_2":"District","CC_2":"R60001","HASC_2":"RU.BU.BZ","name":"Bauntovskiy.county"},
"geometry":{"type": "MultiPolygon","coordinates": [[[[110.7288,53.2973,1301.7238],[110.7742,53.2715,1529.4674],[110.7715,53.2459,1619.4407],[110.7332,53.2248,1506.9998],[110.4856,53.1635,1389.4404],[110.4477,53.1473,1506.8317],[110.4381,53.1223,1583.2443],[110.4501,53.098,1581.0236],[110.4452,53.0864,1482.4655],[110.4985,53.0655,1330.2836],[110.5809,53.0667,1651.661],[110.7076,53.0616,1494.9882],[111.0735,53.171,1297.8824],[111.1523,53.2064,1349.9362],[111.2492,53.2029,1351.4103],[111.2942,53.2358,1244.8469],[111.3493,53.2545,1116.0386],[111.4194,53.2499,1284.5771],[111.458,53.2236,1231.5215],[111.55029999999999,53.2499,1335.2035],[111.628,53.2434,1155.6108],[111.6595,53.2707,1254.0173],[111.6544,53.3055,1114.8268],[111.6837,53.3287,1334.7014],[111.7512,53.3294,1291.475],[111.778,53.3052,1263.1007],[111.8112,53.3127,1249.942],[111.8967,53.3849,1237.9739],[112.0191,53.4214,1199.7363],[112.1041,53.425,1408.8444],[112.1474,53.4351,1458.5558],[112.1964,53.48,1369.2449],[112.2928,53.5563,1244.9742],[112.425,53.5912,1173.7566],[112.5512,53.6342,1224.4906],[112.6598,53.6662,1282.9966],[112.7119,53.6955,1277.152],[112.763,53.7618,1253.002],[112.7986,53.7822,1204.2068],[112.8183,53.7896,1156.2668],[112.8534,53.7928,1203.7288],[112.8962,53.7714,1108.6414],[112.8932,53.7538,1164.541],[112.893,53.7385,1129.5927],[112.8966,53.7119,1167.7715],[112.9527,53.6728,1158.0361],[112.9869,53.6418,1123.0348],[112.9927,53.6179,1193.7859],[113.0109,53.5879,1126.8479],[113.072,53.5778,1008.8902],[113.1222,53.5857,994.6064],[113.1718,53.6457,1155.5181],[113.201,53.6858,1055.9745],[113.2412,53.7042,1011.9087],[113.2719,53.6837,1201.6476],[113.2859,53.6384,1148.0972],[113.3335,53.6084,1147.2039],[113.3794,53.5981,999.1132],[113.4183,53.6184,1070.0231],[113.4377,53.657,1214.5291],[113.4544,53.6977,1285.6897],[113.5364,53.7313,1243.1548],[113.5643,53.736,1245.104],[113.6213,53.7427,1230.1178],[113.7078,53.7713,1010.9167],[113.7859,53.7764,1255.2764],[113.8559,53.775,1065.9801],[113.8991,53.7569,979.095],[113.9377,53.7358,974.6949],[113.9834,53.7136,830.6442],[113.9865,53.7155,830.9894],[114.0766,53.7382,774.0704],[114.3215,53.7821,819.8391],[114.3512,53.8146,821.4532],[114.4488,53.8101,770.5623],[114.4967,53.815,760.2312],[114.5238,53.8403,751.1589],[114.617,53.9483,902.9124],[114.7683,53.9823,851.1871],[114.823,53.9908,838.1999],[114.8557,54.0013,765.4092],[114.9411,54.0496,801.7625],[115.1576,54.1519,731.6106],[115.2239,54.1943,722.9684],[115.3671,54.2305,912.0233],[115.4592,54.2701,768.4451],[115.5148,54.3335,712.7377],[115.5676,54.3907,697.2291],[115.7048,54.4305,695.9706],[115.8371,54.443,712.3552],[116.0644,54.4747,695.5093],[116.2817,54.5138,719.8521],[116.3981,54.4986,680.9715],[116.4961,54.5011,685.6356],[116.5397,54.5256,695.7682],[116.712,54.5376,672.6411],[116.7527,54.5701,683.4352],[116.776,54.5995,653.748],[116.8122,54.6138,674.7438],[116.8118,54.6722,629.0932],[116.8672,54.6959,704.5814],[116.8816,54.752,693.6945],[116.9324,54.799,641.4773],[116.9503,54.8743,742.019],[116.9326,54.9108,712.0072],[116.8877,54.9467,620.6373],[116.865,54.9943,742.8752],[116.8659,55.0392,648.1115],[116.825,55.0801,840.5298],[116.7447,55.1079,774.9421],[116.6758,55.1349,638.4521],[116.62,55.1618,699.1847],[116.5852,55.2072,903.7822],[116.5367,55.2499,1047.3982],[116.4972,55.2875,831.3376],[116.4126,55.3372,581.5472],[116.1838,55.3286,666.501],[116.0983,55.349,636.0988],[115.9603,55.3721,722.5142],[115.925,55.4603,697.4109],[115.9226,55.5084,626.4908],[115.9273,55.656,653.1017],[115.8721,55.7033,617.9846],[115.8832,55.7326,626.8835],[115.8555,55.7756,586.244],[115.8546,55.7824,714.0546],[115.4681,55.7824,1018.1921],[114.7971,55.817,1697.162],[114.4023,55.7874,2242.9263],[114.126,55.585,1386.9912],[113.8102,55.6443,1509.2355],[113.598,55.6393,1433.5878],[113.297,55.6443,1402.1283],[113.1041,55.6376,1150.546],[113.1144,55.5801,2117.761],[113.0897,55.5554,1756.4619],[113.0946,55.4716,1758.4741],[113.07,55.4123,1453.4146],[112.9367,55.3679,1670.3965],[112.8775,55.3235,1681.5142],[112.7542,55.3038,1540.4891],[112.6653,55.3679,1469.7715],[112.5667,55.3877,1347.6421],[112.4729,55.437,1677.6404],[112.315,55.3975,1574.0216],[112.2015,55.3433,1868.0886],[112.0929,55.2988,2122.7141],[112.0183,55.3106,1636.7257],[112.0535,55.3023,1627.3915],[111.9717,55.2774,1975.8661],[111.9769,55.2545,2072.7778],[112.0578,55.2095,1788.0436],[112.0524,55.1741,1445.7341],[111.9623,55.1517,1960.3055],[111.88,55.1126,2058.2366],[111.8104,54.9944,2251.5898],[111.6983,54.9476,1830.045],[111.7287,54.8872,1527.4026],[111.721,54.85,1677.5552],[111.7635,54.8175,1538.2916],[111.8132,54.7948,2115.1641],[111.8259,54.763,1902.1389],[111.8043,54.7249,1519.593],[111.7152,54.5881,1802.1235],[111.6571,54.5526,1621.9731],[111.5783,54.522,1564.7778],[111.5716,54.4227,1641.7664],[111.5281,54.3861,1456.0004],[111.4758,54.3619,1442.1082],[111.4552,54.316,1702.3174],[111.3192,54.2737,1560.8068],[111.2966,54.2308,1709.908],[111.3404,54.1489,1781.5741],[111.3697,54.0869,1787.4856],[111.3505,54.036,1733.5627],[111.3115,53.9871,1813.5623],[111.2699,53.9513,1904.2096],[111.2784,53.9108,1603.7461],[111.1819,53.8829,2219.1433],[111.205,53.8342,2211.4473],[111.2374,53.8097,1871.0349],[111.2151,53.7667,1443.6633],[111.2242,53.7067,1508.9902],[111.1241,53.6726,1762.7817],[111.0009,53.6536,1783.6332],[110.8602,53.5633,1396.2854],[110.8036,53.4881,1347.7792],[110.7658,53.3584,1418.3762],[110.7288,53.2973,1301.7238]]]]}}