{"type":"Feature","properties":{"GID_3":"RUS.2.52.1_1","GID_0":"RUS","country":"Russia","GID_1":"RUS.2_1","province":"Altay","NL_NAME_1":"Алтайскийкрай","GID_2":"RUS.2.52_1","county":"Tal'menskiyrayon","NL_NAME_2":"Тальменскийрайон","city":"NA","VARNAME_3":"NA","NL_NAME_3":"NA","TYPE_3":"NA","ENGTYPE_3":"NA","CC_3":"NA","HASC_3":"NA","name":"N_A.city"},
"geometry":{"type": "MultiPolygon","coordinates": [[[[83.482,53.4487,132.3911],[83.5299,53.4632,130.6412],[83.5864,53.4761,133.5818],[83.6384,53.4921,161.7282],[83.6872,53.5234,141.3409],[83.714,53.5805,188.2728],[83.7401,53.6094,184.7097],[83.7766,53.6249,179.9154],[83.8712,53.6543,184.4844],[83.8978,53.6786,182.2613],[83.8681,53.6809,192.4967],[83.8116,53.6784,186.4285],[83.7869,53.7065,212.8063],[83.7785,53.7341,206.59],[83.7697,53.7739,179.7263],[83.7915,53.8096,169.1895],[83.7528,53.8366,166.5249],[83.7458,53.8682,148.6828],[83.7727,53.8804,145.9823],[83.8334,53.8928,152.1652],[83.8719,53.9197,147.3939],[83.8911,53.9429,156.0387],[83.9427,53.9464,181.6506],[83.9796,53.9275,149.9106],[84.0042,53.8993,181.6488],[84.1262,53.9034,242.2138],[84.1506,53.9143,168.4987],[84.1402,53.931399999999996,161.9044],[84.1101,53.9421,165.9649],[84.0526,53.9489,152.2128],[83.9948,53.9873,161.4048],[83.963,54.021,228.3976],[83.9447,54.0528,241.9998],[83.954,54.069,214.8098],[83.9926,54.0772,263.5823],[83.9977,54.0919,263.7089],[83.9937,54.1128,248.0206],[83.9537,54.1006,287.4223],[83.8898,54.099,230.1583],[83.8545,54.1173,252.7977],[83.8031,54.1165,274.7702],[83.6861,54.1027,231.6151],[83.4841,54.0877,206.4158],[83.4803,54.048,195.9059],[83.4985,54.0021,191.3798],[83.4451,53.9655,199.4562],[83.4068,53.9422,193.6654],[83.3276,53.9613,191.7229],[83.305,53.9981,197.116],[83.2878,54.0339,204.9658],[83.2413,54.0438,220.3347],[83.1566,54.0416,227.6742],[83.07,54.0148,228.8268],[83.0469,53.9796,214.6312],[82.9384,53.9371,222.1362],[82.8851,53.9085,188.1956],[82.7526,53.8416,170.9754],[82.7019,53.8011,165.9742],[82.7208,53.745,173.0211],[82.7875,53.7216,172.573],[82.8414,53.6802,157.7703],[82.9181,53.6265,154.5969],[82.9735,53.5667,162.01],[82.9948,53.5185,131.2738],[83.022,53.5002,128.5978],[83.1094,53.5153,129.5427],[83.1659,53.5173,126.1481],[83.2086,53.5143,132.1163],[83.2462,53.4938,143.3738],[83.2756,53.4627,131.4973],[83.3124,53.4402,131.4438],[83.3804,53.4298,131.4644],[83.482,53.4487,132.3911]]]]}}