{"type":"Feature","properties":{"GID_3":"RUS.28.3.1_1","GID_0":"RUS","country":"Russia","GID_1":"RUS.28_1","province":"Khabarovsk","NL_NAME_1":"Хабаровскийкрай","GID_2":"RUS.28.3_1","county":"Ayano-Mayskiyrayon","NL_NAME_2":"Аяно-Майскийрайон","city":"NA","VARNAME_3":"NA","NL_NAME_3":"NA","TYPE_3":"NA","ENGTYPE_3":"NA","CC_3":"NA","HASC_3":"NA","name":"N_A.city"},
"geometry":{"type": "MultiPolygon","coordinates": [[[[138.3854,56.6982,0.0],[138.3887,56.6982,0.0],[138.391,56.6999,0.0],[138.3907,56.7019,0.0],[138.3879,56.7017,11.5361],[138.385,56.6995,4.0495],[138.3854,56.6982,0.0]]],
[[[138.9995,57.0,0.0],[138.9995,56.9997,0.0],[139.0,57.0,0.0],[138.9995,57.0003,0.0],[138.9995,57.0,0.0]]],
[[[132.6783,55.6033,1530.7354],[132.6634,55.5744,1505.1667],[132.7393,55.5644,1663.4061],[132.8012,55.5969,1584.0679],[132.8524,55.6013,1563.0806],[132.8912,55.5666,1413.2114],[132.9298,55.5706,1696.2987],[132.9722,55.5985,1494.7682],[133.0074,55.6003,1464.452],[133.0113,55.5678,1740.0341],[133.0561,55.573,1633.3973],[133.0858,55.5943,1509.3749],[133.1177,55.6338,1571.5605],[133.1692,55.6662,1302.6244],[133.2352,55.6796,1697.0848],[133.264,55.6634,1638.5774],[133.3129,55.6589,1168.7726],[133.3754,55.6858,1494.5233],[133.4261,55.6923,1313.3446],[133.4743,55.6449,1119.5962],[133.5145,55.624,974.321],[133.5788,55.6009,989.4561],[133.6825,55.6033,1180.293],[133.7532,55.6359,1438.7549],[133.7926,55.6836,1592.9108],[133.7603,55.7379,1311.5093],[133.8151,55.7482,1513.8276],[133.87,55.7005,1304.2917],[133.9339,55.7036,1072.1582],[133.9789,55.7379,1195.9631],[134.0138,55.7428,1137.5383],[134.0726,55.7347,1197.5079],[134.1551,55.7488,1222.5253],[134.2099,55.7832,1132.5242],[134.2456,55.7518,1219.464],[134.312,55.7497,1306.5927],[134.3494,55.7907,1233.3698],[134.4118,55.775,1131.7599],[134.4245,55.7466,1097.9877],[134.3959,55.6976,1023.6538],[134.4492,55.6636,1085.8608],[134.5275,55.6195,975.6121],[134.6022,55.5647,883.8967],[134.6147,55.5203,932.7202],[134.6645,55.4904,998.2648],[134.755,55.5067,761.4743],[134.7687,55.5426,1094.0251],[134.7525,55.5998,919.3909],[134.7815,55.6212,924.0947],[134.8775,55.6474,965.1423],[134.963,55.6472,1081.1229],[135.0216,55.677,835.1123],[135.0784,55.6776,1286.8872],[135.1874,55.6728,1045.2441],[135.2236,55.6333,1190.5955],[135.1767,55.588,1042.6812],[135.2475,55.5786,906.1996],[135.2839,55.5602,991.7341],[135.3303,55.563,1243.957],[135.336,55.592,1146.894],[135.3329,55.6347,1189.4824],[135.4021,55.6705,1403.6072],[135.42,55.7233,1283.9803],[135.4548,55.7587,1081.6562],[135.499,55.7633,1319.7733],[135.5242,55.7369,937.8802],[135.5434,55.6836,1220.8914],[135.5441,55.6375,770.6734],[135.5789,55.5971,618.9125],[135.509,55.5359,652.2234],[135.5095,55.5165,937.8931],[135.5813,55.4904,963.5994],[135.5377,55.4407,725.6533],[135.5779,55.4241,883.5981],[135.7007,55.4633,882.5691],[135.7937,55.4589,1013.39],[135.8317,55.4901,843.9799],[135.8904,55.4833,992.4476],[135.8466,55.4368,1081.8865],[135.7885,55.4005,703.5777],[135.8316,55.3881,799.9546],[135.9341,55.4062,1048.7896],[136.0464,55.3831,1174.7839],[136.1756,55.3724,540.2957],[136.2401,55.4205,238.2051],[136.315,55.5017,71.9873],[136.3837,55.5829,274.0522],[136.4165,55.5857,291.742],[136.4422,55.5743,0.0],[136.455,55.5811,14.6403],[136.4689,55.5789,0.0],[136.4817,55.5847,29.1101],[136.495,55.5833,0.0],[136.5044,55.5797,3.4098],[136.5139,55.5797,0.0],[136.52,55.5781,0.0],[136.5289,55.5817,0.0],[136.5406,55.5822,5.5525],[136.5422,55.5833,5.5525],[136.5411,55.5864,48.1451],[136.5439,55.5928,46.4575],[136.5506,55.5942,0.0],[136.5483,55.5961,0.0],[136.5522,55.6019,32.3928],[136.55,55.6036,23.0753],[136.5528,55.6064,28.2954],[136.5517,55.6069,28.2954],[136.5533,55.6103,14.7453],[136.555,55.6108,0.0],[136.5528,55.6128,60.9362],[136.5533,55.6153,0.0],[136.5561,55.6167,0.0],[136.5522,55.6206,29.649],[136.5544,55.6228,2.4579],[136.55,55.6228,7.9519],[136.5522,55.6253,0.5],[136.5678,55.62,0.0],[136.5783,55.6222,52.416],[136.5911,55.6197,10.8655],[136.5939,55.6139,0.0],[136.6017,55.6136,0.0],[136.6039,55.6172,72.0227],[136.6106,55.618899999999996,111.7939],[136.62,55.6183,0.0],[136.625,55.6228,24.6409],[136.6311,55.6239,0.0],[136.6383,55.6278,6.4147],[136.6417,55.6325,0.0],[136.6478,55.6342,0.0],[136.6511,55.6375,101.2775],[136.6544,55.6378,0.0],[136.6689,55.645,12.3847],[136.6811,55.6475,0.0],[136.6922,55.6547,75.4516],[136.6989,55.6567,0.0],[136.6978,55.6589,24.4303],[136.6994,55.6608,12.4725],[136.7206,55.6686,0.0],[136.7239,55.6658,70.0144],[136.7247,55.6628,14.0331],[136.7317,55.658,0.0],[136.7461,55.6558,52.1576],[136.7528,55.6525,21.5406],[136.7564,55.6488,0.0],[136.7563,55.6445,0.0],[136.7583,55.6432,0.0],[136.7596,55.6481,0.0],[136.7622,55.6497,0.0],[136.7633,55.6536,0.0],[136.7689,55.6597,13.5689],[136.78,55.6619,13.7761],[136.7889,55.6594,4.6264],[136.7978,55.6636,0.0],[136.7939,55.6706,0.0],[136.7994,55.6775,9.6729],[136.7972,55.6839,88.5198],[136.8006,55.6972,31.949],[136.8067,55.7008,0.0],[136.8078,55.7047,11.1438],[136.8106,55.7058,0.0],[136.8111,55.7078,17.9879],[136.8172,55.7083,0.0],[136.8311,55.7156,0.0],[136.8372,55.7242,44.464],[136.8439,55.7258,23.8575],[136.845,55.7283,40.9395],[136.8439,55.73,10.956],[136.8483,55.7322,11.1962],[136.8528,55.7397,12.2577],[136.8589,55.7406,8.3855],[136.8589,55.7419,8.3855],[136.8617,55.7425,2.4628],[136.8706,55.7422,36.9637],[136.8806,55.7461,31.5276],[136.8922,55.7447,0.0],[136.8944,55.7525,24.4968],[136.8928,55.7547,0.0],[136.9006,55.7661,6.0156],[136.9211,55.7792,32.1561],[136.9283,55.7794,14.949],[136.9333,55.7775,11.9665],[136.9383,55.7783,0.0],[136.9483,55.7847,16.152],[136.9756,55.7942,60.2806],[136.9861,55.7961,30.654],[136.9956,55.7953,0.0],[137.0056,55.7967,23.5489],[137.0139,55.7939,150.3219],[137.0215,55.7869,0.0],[137.0289,55.786,3.3017],[137.0406,55.7892,67.4898],[137.0541,55.7877,19.8454],[137.0528,55.7889,147.7491],[137.0561,55.7953,11.7273],[137.0556,55.8072,1.8393],[137.0606,55.8136,1.4393],[137.0611,55.8214,21.3435],[137.065,55.8278,87.8],[137.0711,55.8308,44.5478],[137.0739,55.8358,2.7054],[137.0783,55.8378,10.1924],[137.085,55.8497,2.3342],[137.0917,55.8558,68.1885],[137.0989,55.86,32.2287],[137.1172,55.8631,0.0],[137.1306,55.8686,0.0],[137.1439,55.8794,0.0],[137.15,55.8825,0.0],[137.1511,55.8864,3.5341],[137.1594,55.8928,50.6193],[137.1733,55.8944,2.4243],[137.1789,55.8942,114.4435],[137.1834,55.8917,0.0],[137.1917,55.9017,66.8271],[137.1983,55.9033,17.9599],[137.2061,55.9031,6.3691],[137.2122,55.9064,19.8921],[137.2239,55.9086,0.0],[137.225,55.9106,38.579],[137.2378,55.9169,0.0],[137.2472,55.92,0.0],[137.2495,55.9244,0.0],[137.2617,55.9356,45.0226],[137.265,55.9408,37.121],[137.27,55.9422,0.0],[137.2706,55.9447,0.0],[137.2767,55.9508,129.4174],[137.2861,55.9578,64.9191],[137.3,55.9647,19.8201],[137.3133,55.9686,8.8888],[137.3522,55.9689,35.4748],[137.3539,55.9677,13.6181],[137.3529,55.9664,7.7888],[137.3544,55.9643,0.0],[137.3513,55.9621,55.6398],[137.3522,55.9581,0.0],[137.3622,55.9569,31.6896],[137.3673,55.9503,0.0],[137.3712,55.9485,0.0],[137.3789,55.9481,13.6419],[137.3821,55.946,0.0],[137.3899,55.9448,0.0],[137.395,55.9467,0.5809],[137.3956,55.9519,12.0355],[137.3939,55.9536,109.375],[137.3939,55.9583,41.9346],[137.3983,55.9667,11.3216],[137.4017,55.97,49.7059],[137.4061,55.9708,84.9403],[137.4139,55.9692,0.0],[137.4183,55.9758,0.0],[137.4122,55.9794,0.0],[137.4128,55.9975,22.5101],[137.4139,55.9981,22.5101],[137.413,56.0031,46.947],[137.4236,56.0292,58.4342],[137.4282,56.0365,12.4656],[137.4415,56.0453,55.2347],[137.4563,56.0491,8.0051],[137.4626,56.0559,54.205],[137.4733,56.0597,37.601],[137.4899,56.0618,0.0],[137.4945,56.0663,58.8033],[137.5097,56.0732,25.675],[137.5177,56.0824,52.2568],[137.5398,56.0917,0.0],[137.5457,56.0982,0.8283],[137.5422,56.1016,87.6507],[137.54,56.1073,7.356],[137.5463,56.1135,12.5364],[137.5522,56.1161,2.3908],[137.5539,56.1194,30.1044],[137.5594,56.1192,0.8456],[137.5616,56.1167,1.0806],[137.5612,56.1131,59.4768],[137.5481,56.1056,1.7234],[137.5572,56.1082,1.3373],[137.5608,56.1061,2.6593],[137.5651,56.1059,11.9872],[137.5876,56.1165,13.8492],[137.5924,56.1167,2.1064],[137.5954,56.1143,23.1513],[137.6265,56.1212,28.4429],[137.6431,56.118899999999996,24.5388],[137.6539,56.1261,0.0],[137.6676,56.1291,81.7676],[137.677,56.1264,57.1368],[137.6796,56.1238,80.98],[137.6876,56.123,8.9318],[137.6935,56.1313,24.6393],[137.7002,56.1333,5.3614],[137.7087,56.1328,7.4507],[137.7125,56.1347,25.0144],[137.7172,56.1333,0.0],[137.7238,56.136,0.0],[137.7243,56.1377,0.0],[137.7218,56.1409,0.0],[137.7166,56.1441,131.7393],[137.7183,56.1444,20.569],[137.7171,56.1484,60.2576],[137.7185,56.1544,31.3229],[137.7227,56.1601,0.397],[137.7277,56.1619,16.4828],[137.727,56.164,48.0917],[137.7351,56.1738,13.9872],[137.7513,56.1763,6.4131],[137.7537,56.1782,2.1684],[137.7534,56.1803,30.2375],[137.7571,56.1866,0.0],[137.7636,56.1919,6.3551],[137.7703,56.2052,4.2279],[137.7794,56.2174,25.6103],[137.7974,56.2263,36.3492],[137.8168,56.2267,0.0],[137.8257,56.2293,64.6416],[137.8352,56.228,0.0],[137.8428,56.2343,0.0],[137.8397,56.2339,0.0],[137.8423,56.244,0.0],[137.8409,56.2455,41.9469],[137.84,56.2578,7.3868],[137.846,56.2607,19.5026],[137.8518,56.2691,9.5983],[137.8643,56.275,0.0],[137.8648,56.2776,28.1436],[137.869,56.2812,67.5713],[137.8673,56.2844,64.9808],[137.8717,56.2981,25.066],[137.8711,56.3022,125.687],[137.8766,56.3092,0.0],[137.8748,56.3137,13.6568],[137.8758,56.3159,10.0136],[137.8801,56.3189,45.5681],[137.887,56.3188,0.0],[137.8856,56.3201,16.3378],[137.8887,56.3247,11.1479],[137.89,56.3316,14.8841],[137.8931,56.3338,5.9472],[137.8939,56.3366,51.6797],[137.898,56.339,0.0],[137.907,56.3536,0.0],[137.9155,56.3576,1.1025],[137.9175,56.3649,2.9458],[137.9294,56.3672,56.8511],[137.9403,56.3639,11.5771],[137.9494,56.3673,79.5573],[137.9536,56.3666,0.0],[137.9526,56.3681,1.3902],[137.9539,56.3694,3.3718],[137.9668,56.3741,7.944],[137.9878,56.3722,9.6424],[137.9947,56.3764,20.999],[138.0028,56.3778,12.7017],[138.0072,56.3767,0.0],[138.0133,56.3811,53.6716],[138.0184,56.3824,123.1114],[138.0442,56.379,11.598],[138.048,56.3852,5.8936],[138.0548,56.3904,31.1075],[138.055,56.3925,131.2522],[138.0644,56.3975,29.6909],[138.0686,56.3972,11.5506],[138.0672,56.4,122.6018],[138.0639,56.4015,90.6946],[138.0625,56.411,0.0],[138.0583,56.4131,8.6383],[138.0617,56.4225,0.0],[138.0544,56.4256,12.6527],[138.0528,56.4281,6.5306],[138.0647,56.4381,3.3724],[138.0693,56.4402,0.0],[138.0867,56.4372,14.7333],[138.1061,56.4419,0.0],[138.1167,56.4376,6.5455],[138.1254,56.4388,215.4175],[138.1294,56.4364,0.0],[138.14,56.4406,24.7532],[138.1489,56.4392,6.984],[138.1633,56.4436,0.0],[138.1678,56.4458,0.0],[138.1667,56.4489,21.9861],[138.18,56.445,13.951],[138.1794,56.4389,63.983],[138.1857,56.4368,6.6919],[138.1867,56.4269,0.0],[138.1987,56.4305,83.239],[138.2004,56.4296,10.1157],[138.1992,56.4285,0.0],[138.2035,56.4294,67.2882],[138.2069,56.428,0.0],[138.2107,56.4294,176.2881],[138.2165,56.4278,81.5837],[138.2149,56.4267,0.0],[138.223,56.4273,89.9008],[138.2276,56.426,67.5851],[138.23,56.43,0.0],[138.2283,56.4316,0.0],[138.2315,56.4357,8.3111],[138.2284,56.4416,13.563],[138.2306,56.4494,17.7791],[138.236,56.4536,0.0],[138.2477,56.4549,0.0],[138.2542,56.4583,0.0],[138.2561,56.4619,2.8338],[138.2554,56.4694,0.0],[138.2453,56.4702,27.3478],[138.2364,56.4645,81.3937],[138.2317,56.4637,59.1621],[138.22,56.465,16.1072],[138.2099,56.4699,13.9413],[138.2001,56.4684,10.551],[138.191,56.472,28.0188],[138.1758,56.4719,31.4001],[138.1604,56.4782,25.6457],[138.1545,56.4836,2.7752],[138.1469,56.4859,2.4972],[138.1354,56.4933,8.9582],[138.1311,56.4994,97.2998],[138.13,56.505,0.0],[138.1233,56.5097,18.4432],[138.1211,56.5181,0.0],[138.1151,56.5198,2.834],[138.1122,56.5231,42.2151],[138.1093,56.5316,0.3382],[138.1081,56.5461,4.1316],[138.1106,56.555,0.0],[138.1089,56.5628,0.0],[138.1128,56.5781,2.2034],[138.1159,56.5809,31.3696],[138.1206,56.5813,0.0],[138.1328,56.5981,9.168],[138.1411,56.6025,36.8906],[138.1536,56.6052,0.0],[138.1687,56.606,3.9642],[138.1772,56.6097,9.5623],[138.1861,56.6067,0.0],[138.1933,56.6072,3.974],[138.1934,56.6087,3.974],[138.2006,56.61,0.0],[138.2089,56.6086,0.0],[138.2106,56.6069,0.0],[138.2167,56.6078,24.7898],[138.2189,56.6097,0.0],[138.2167,56.6156,12.8905],[138.2178,56.6183,0.0],[138.22,56.6217,0.0],[138.2278,56.6269,5.1705],[138.2444,56.6294,28.9834],[138.2517,56.6222,0.0],[138.2567,56.6208,42.8217],[138.2617,56.6169,0.0],[138.2672,56.6167,0.0],[138.2732,56.6198,0.0],[138.2724,56.6215,0.0],[138.2631,56.6244,0.0],[138.2639,56.6288,3.9454],[138.2622,56.6333,53.0329],[138.2594,56.6353,8.7445],[138.2611,56.6369,4.8462],[138.2567,56.6395,0.0],[138.2533,56.6467,29.4702],[138.2551,56.652,0.0],[138.2526,56.6553,0.0],[138.2532,56.6568,0.9844],[138.2568,56.6562,0.0],[138.26,56.6581,0.0],[138.2606,56.6597,0.0],[138.2572,56.6633,0.0],[138.26,56.6658,0.4094],[138.2633,56.6667,0.0],[138.2682,56.6646,0.0],[138.2778,56.6669,0.0],[138.2833,56.6739,0.0],[138.2787,56.6783,28.5503],[138.2756,56.6792,13.8768],[138.2763,56.682,11.3444],[138.2844,56.6928,0.0],[138.3017,56.7036,3.9831],[138.3217,56.7106,12.3262],[138.3356,56.7178,6.8867],[138.3428,56.7186,0.0],[138.3556,56.7125,0.0],[138.3617,56.7186,0.0],[138.3672,56.7181,0.0],[138.3794,56.7208,31.1092],[138.3789,56.7236,22.6217],[138.385,56.7256,11.2737],[138.3895,56.7311,0.0],[138.395,56.7331,0.0],[138.395,56.7358,0.0],[138.3983,56.7411,0.0],[138.3961,56.7467,4.1128],[138.4006,56.7497,0.0],[138.4006,56.7547,0.0],[138.4028,56.7586,0.0],[138.4128,56.765,0.0],[138.4133,56.7714,1.9191],[138.4233,56.7722,4.7579],[138.4228,56.78,0.0],[138.4206,56.785,0.0],[138.4317,56.7936,0.0],[138.4422,56.7986,0.0],[138.455,56.8075,6.0112],[138.4706,56.8144,0.0],[138.4583,56.8181,2.7186],[138.4572,56.8156,6.3739],[138.4539,56.8153,10.4124],[138.445,56.8231,3.3759],[138.4344,56.8264,3.3058],[138.4323,56.8292,2.2424],[138.44,56.8294,1.732],[138.437,56.8334,0.2332],[138.44,56.8375,0.6159],[138.4339,56.8411,0.8956],[138.4356,56.8436,1.2513],[138.4433,56.845,2.5919],[138.4467,56.8433,0.0],[138.4572,56.8478,7.2263],[138.4646,56.8453,0.0],[138.4744,56.8461,0.0],[138.4911,56.8506,3.0297],[138.5,56.8475,20.8191],[138.5111,56.8469,0.0],[138.5178,56.8494,5.8642],[138.5333,56.8508,6.4202],[138.5322,56.8592,13.0841],[138.5389,56.8631,2.1935],[138.5433,56.8628,4.8906],[138.5522,56.8575,14.6233],[138.5616,56.8602,2.5936],[138.5617,56.8464,3.7918],[138.5517,56.8422,3.0941],[138.5517,56.8372,23.4747],[138.5544,56.8353,0.0],[138.5556,56.8308,6.7098],[138.5528,56.8236,1.7787],[138.5532,56.8164,2.1565],[138.5487,56.8152,0.0],[138.5454,56.8122,0.0],[138.545,56.7964,0.0],[138.5522,56.7853,3.5226],[138.5589,56.7825,4.1469],[138.5589,56.7803,0.0],[138.5611,56.7786,0.0],[138.5661,56.7786,0.0],[138.58,56.7847,0.0],[138.5778,56.7892,4.6137],[138.58,56.7933,0.0],[138.5744,56.7978,0.0],[138.575,56.8,0.0],[138.5724,56.8024,1.7358],[138.5728,56.8097,1.3469],[138.5664,56.8161,0.0],[138.557,56.8165,3.7078],[138.5553,56.8264,1.5935],[138.5581,56.8294,4.8319],[138.5631,56.829,8.5605],[138.5672,56.8308,13.8886],[138.5664,56.8369,11.3384],[138.5715,56.8395,13.4588],[138.5653,56.8427,41.8801],[138.5666,56.8622,4.4278],[138.5711,56.8808,8.677],[138.577,56.8818,1.4276],[138.5783,56.8953,2.4802],[138.5817,56.9014,1.3525],[138.5839,56.9106,0.0],[138.5861,56.9122,0.0],[138.5867,56.9164,0.0],[138.61,56.9544,0.0],[138.6222,56.9628,1.4678],[138.6383,56.97,0.0],[138.6456,56.9703,0.0],[138.6611,56.98,4.8972],[138.6767,56.985,0.0],[138.6878,56.9864,2.889],[138.6925,56.9854,0.0],[138.6989,56.9784,0.0],[138.7088,56.9776,6.9487],[138.7208,56.9842,16.0365],[138.7312,56.9938,61.1815],[138.7511,57.0,0.0],[138.7504,57.0011,15.7072],[138.7645,57.0103,3.9915],[138.7706,57.0106,30.6797],[138.7894,57.0022,0.0],[138.7922,57.0028,0.406],[138.7937,57.0052,0.0],[138.8021,57.0057,0.0],[138.8043,57.0095,0.0],[138.8063,57.0084,0.0],[138.8084,57.0104,0.0],[138.8039,57.0117,0.0],[138.8006,57.0106,0.0],[138.7818,57.0171,0.0],[138.7825,57.021,6.5069],[138.7867,57.0242,17.0887],[138.7856,57.0261,17.6796],[138.7867,57.0275,47.3603],[138.7967,57.0306,5.4865],[138.82,57.0317,0.7777],[138.8222,57.0303,0.0],[138.8233,57.0269,0.0],[138.8278,57.0244,10.6878],[138.8278,57.0231,14.8694],[138.824,57.0228,0.0],[138.8222,57.0208,0.0],[138.8261,57.0172,4.2906],[138.8256,57.0156,1.9901],[138.8278,57.015,0.0],[138.84,57.0139,0.0],[138.8439,57.015,0.0],[138.8567,57.0125,0.0],[138.8656,57.0139,37.5357],[138.8678,57.0126,0.0],[138.8734,57.013,0.0],[138.8731,57.0146,17.1421],[138.8899,57.0245,6.3762],[138.8923,57.0282,121.515],[138.9054,57.0316,12.1642],[138.9072,57.0342,0.0],[138.9064,57.0367,42.0763],[138.9094,57.0397,0.0],[138.9079,57.0419,35.5011],[138.91,57.0433,0.0],[138.91,57.0469,0.0],[138.9139,57.05,5.0906],[138.9153,57.0542,5.3592],[138.9197,57.0591,13.4601],[138.9253,57.0599,0.0],[138.9257,57.0629,12.3845],[138.9282,57.064,18.6345],[138.9256,57.0686,0.0],[138.9229,57.0701,5.2916],[138.9267,57.075,8.6622],[138.9278,57.0828,0.0],[138.9317,57.0908,0.0],[138.9307,57.0934,13.4729],[138.9272,57.0969,58.5468],[138.9111,57.1006,0.0],[138.9089,57.1047,36.5276],[138.9116,57.1095,0.0],[138.9183,57.1122,10.778],[138.9217,57.1167,0.5698],[138.9339,57.1147,0.0],[138.9344,57.1164,0.0],[138.9323,57.12,3.167],[138.9339,57.125,0.0],[138.9272,57.1286,68.4295],[138.9256,57.1314,5.8123],[138.9317,57.1356,0.0],[138.9389,57.1439,2.5724],[138.9444,57.1453,4.0516],[138.9524,57.1431,0.0],[138.9672,57.1514,0.5761],[138.9761,57.1544,9.0337],[138.9975,57.1559,16.8242],[139.0056,57.1536,0.6066],[139.005,57.1506,0.0],[139.0072,57.1461,0.0],[139.0139,57.1411,0.3448],[139.0228,57.1375,10.5438],[139.0302,57.1375,16.6534],[139.0333,57.1561,4.7875],[139.0317,57.1592,34.261],[139.0455,57.1804,0.0],[139.0506,57.1908,4.5753],[139.0917,57.22,0.5894],[139.0983,57.2264,2.775],[139.1306,57.2464,6.0955],[139.1861,57.2722,11.1757],[139.2017,57.2697,0.0],[139.2117,57.2742,5.5574],[139.2212,57.2758,41.7662],[139.2613,57.2769,0.0],[139.285,57.2811,30.1317],[139.2961,57.28,3.561],[139.3017,57.2764,2.5058],[139.3083,57.2764,0.0],[139.3178,57.2803,0.0],[139.3328,57.2906,15.5146],[139.3556,57.3006,10.0593],[139.3606,57.3008,1.632],[139.3717,57.3056,15.0186],[139.3872,57.3092,5.1488],[139.4001,57.3081,1.0195],[139.4139,57.3003,0.0],[139.418,57.3004,0.0],[139.4483,57.3175,9.4484],[139.4567,57.3247,0.8922],[139.4683,57.3308,14.8007],[139.4778,57.3344,4.3341],[139.4883,57.3339,29.8237],[139.4961,57.3364,4.9443],[139.51,57.3483,0.7832],[139.5172,57.3525,0.4928],[139.5256,57.3606,0.6224],[139.5267,57.3647,0.0],[139.5406,57.3803,1.364],[139.5417,57.3847,8.6687],[139.5506,57.3936,0.0],[139.5489,57.3958,32.4599],[139.5511,57.3992,0.0],[139.5506,57.4014,2.4426],[139.56,57.4172,0.0],[139.56,57.4194,7.2108],[139.5678,57.4303,1.4554],[139.5856,57.4475,16.434],[139.6061,57.4614,8.3197],[139.6233,57.4661,11.7077],[139.632,57.4658,8.5679],[139.6458,57.4681,2.7154],[139.6778,57.4819,0.0],[139.7056,57.4897,3.0316],[139.7394,57.4925,3.7944],[139.77,57.4881,14.2314],[139.7819,57.4838,41.1736],[139.7908,57.4839,8.1703],[139.8044,57.4942,0.0],[139.8039,57.4958,67.2008],[139.8106,57.5075,42.5944],[139.8204,57.5109,6.6908],[139.8278,57.5231,0.0],[139.8283,57.5283,9.0286],[139.8344,57.5356,21.6611],[139.8343,57.5397,34.5179],[139.8425,57.5542,3.6346],[139.8794,57.6019,37.0006],[139.8985,57.6221,23.4441],[139.9267,57.6498,29.286],[139.9333,57.6536,0.8215],[139.9384,57.6595,4.8451],[139.9572,57.6744,5.7047],[139.9739,57.6828,8.3756],[139.9944,57.6983,0.0],[140.0,57.7,0.0],[140.0078,57.7053,8.1966],[140.0194,57.7083,1.7381],[140.0617,57.7281,0.8668],[140.0739,57.73,0.0],[140.09,57.7364,6.5206],[140.115,57.7425,6.2439],[140.1306,57.7425,6.038],[140.1605,57.7469,0.0],[140.198,57.7464,0.5072],[140.2233,57.7578,2.4523],[140.2433,57.7644,4.1893],[140.2719,57.7667,0.0],[140.2899,57.7635,0.0],[140.2989,57.7586,0.0],[140.3,57.7478,0.0],[140.3076,57.7458,0.0],[140.3156,57.7554,0.0],[140.3156,57.7589,15.1478],[140.3189,57.7622,0.0],[140.3183,57.7639,23.3688],[140.3376,57.7816,0.0],[140.35,57.79,0.8592],[140.3789,57.795,0.0],[140.3867,57.7989,22.1379],[140.3964,57.801,6.5877],[140.4081,57.8085,0.0],[140.4119,57.8139,0.7298],[140.4276,57.8263,1.3027],[140.4335,57.828,1.1992],[140.4414,57.8267,0.0],[140.4605,57.8365,2.2295],[140.4716,57.8366,0.0],[140.4903,57.8422,0.0],[140.4961,57.8496,0.0],[140.4948,57.8617,0.0],[140.4966,57.8699,11.3094],[140.4902,57.8748,0.6464],[140.493,57.8864,2.2165],[140.4964,57.8943,2.2469],[140.4992,57.8969,0.0],[140.4984,57.8993,1.7581],[140.5042,57.9067,0.0],[140.5065,57.9138,5.7567],[140.5163,57.9302,0.0],[140.5191,57.9393,10.5111],[140.5295,57.9558,0.0],[140.5376,57.9744,1.8575],[140.4846,57.9628,284.1719],[140.3945,57.9016,531.8979],[140.3022,57.8764,537.3644],[140.2732,57.889,181.8192],[140.2821,57.9198,225.7898],[140.2473,57.9432,784.051],[140.0224,57.895,557.9037],[139.9225,57.8889,515.5999],[139.7804,57.9389,952.795],[139.6217,58.0518,767.6044],[139.6131,58.1036,765.1015],[139.5946,58.1285,609.9657],[139.572,58.1449,447.805],[139.4815,58.1361,628.682],[139.4332,58.1473,685.3101],[139.4379,58.2052,570.2504],[139.3924,58.2673,884.9045],[139.2843,58.3193,870.42],[139.2277,58.3353,762.101],[139.1667,58.3107,924.6614],[139.0766,58.3283,898.3568],[139.0529,58.3729,869.1614],[138.6325,58.4624,726.1868],[138.4357,58.5171,690.7081],[138.3924,58.603,674.8791],[138.3526,58.6268,737.7979],[138.1391,58.7183,539.0541],[138.1727,58.7873,420.312],[138.1399,58.8417,544.3514],[138.0714,58.8863,791.5294],[138.0892,58.936,685.0901],[138.1477,58.9607,774.7913],[138.1895,58.9994,538.8059],[138.2555,59.0665,605.4607],[138.3402,59.1063,714.9515],[138.3726,59.1438,517.8797],[138.389,59.192,530.4509],[138.3644,59.2331,653.4565],[138.2712,59.2034,867.6492],[138.2023,59.2182,611.5328],[138.131,59.2647,780.5481],[138.0796,59.2493,732.7629],[138.0293,59.1791,834.6288],[137.9224,59.1347,812.1025],[137.8649,59.133,745.644],[137.8024,59.1541,1001.6179],[137.7228,59.1467,1005.6967],[137.7023,59.166,919.7745],[137.7387,59.2054,807.6577],[137.6902,59.2177,1137.0505],[137.6054,59.1662,968.3409],[137.541,59.1677,882.3724],[137.5063,59.1925,1012.2593],[137.4984,59.2173,630.256],[137.4624,59.2255,539.2724],[137.3824,59.1884,609.5215],[137.3181,59.1707,1012.1831],[137.2903,59.1752,903.6125],[137.2663,59.2008,643.5291],[137.22,59.1731,1046.0415],[137.1208,59.1664,909.3372],[137.1004,59.2415,953.0009],[137.1593,59.3213,684.6018],[137.2164,59.3795,402.8081],[137.2188,59.4095,361.7556],[137.1171,59.3938,642.8545],[137.0045,59.3909,354.8132],[136.8933,59.3485,445.0023],[136.8228,59.304,516.0094],[136.7535,59.3013,348.7777],[136.6851,59.3194,567.9296],[136.5974,59.3507,318.6128],[136.4823,59.3514,340.9073],[136.3766,59.3586,347.299],[136.3194,59.3813,260.5058],[136.2059,59.3834,272.8122],[136.1275,59.3988,251.3971],[136.1154,59.4266,255.9153],[136.0089,59.443,406.6484],[135.9147,59.4848,239.0043],[135.7751,59.4972,231.7942],[135.6639,59.4812,224.6214],[135.5855,59.4252,244.3542],[135.5306,59.3936,236.4696],[135.5016,59.347,350.3159],[135.3913,59.2964,314.001],[135.3494,59.2621,217.2384],[135.3503,59.1974,343.999],[135.251,59.1427,355.381],[135.2516,59.1167,364.987],[135.1615,59.0914,611.2885],[135.0664,59.1027,470.2538],[134.9787,59.1294,504.4616],[134.9168,59.1391,592.423],[134.8566,59.1276,573.2302],[134.7953,59.1444,624.3294],[134.7807,59.1795,417.1196],[134.7343,59.2032,511.2134],[134.6769,59.2052,591.9507],[134.5586,59.1547,480.6725],[134.4505,59.1557,736.2074],[134.377,59.1806,648.4672],[134.3449,59.204,642.472],[134.2539,59.1887,507.1704],[134.1474,59.2268,758.1878],[134.0106,59.2536,548.159],[133.9493,59.237,534.2096],[133.8651,59.2449,514.993],[133.749,59.2208,642.3597],[133.6664,59.215,510.795],[133.5458,59.25,624.3981],[133.4026,59.2137,584.0494],[133.2769,59.1928,598.4072],[133.1446,59.2051,636.2239],[133.0554,59.1824,531.4504],[133.0226,59.1081,531.0627],[132.937,59.0884,454.7628],[132.861,59.0995,414.8413],[132.8404,59.0595,421.9777],[132.8,59.0166,510.2217],[132.8947,58.966,497.0501],[132.8498,58.9102,629.4603],[132.7375,58.8956,475.0553],[132.6796,58.8959,555.2594],[132.6249,58.8861,554.296],[132.5749,58.8114,473.057],[132.5763,58.7614,437.2438],[132.5217,58.7131,484.9096],[132.5742,58.6425,458.0491],[132.4789,58.5818,539.8828],[132.4784,58.5424,627.9446],[132.444,58.512,711.7319],[132.1911,58.5285,654.7836],[132.1974,58.4357,649.3778],[132.2402,58.3271,746.6056],[132.2551,58.2846,548.5465],[132.1819,58.2706,675.8969],[132.1309,58.2142,819.4153],[132.1494,58.1393,1010.2628],[132.1932,58.0768,880.1547],[132.0476,58.072,879.5189],[131.969,58.1213,764.907],[131.874,58.1524,894.2405],[131.8015,58.1583,864.5466],[131.7275,58.2192,938.9857],[131.6284,58.2096,998.499],[131.5422,58.1956,988.0826],[131.5641,58.1111,1020.988],[131.6618,58.0987,939.6651],[131.6765,58.0716,991.0573],[131.6371,58.0363,1037.049],[131.714,57.9868,893.3926],[131.8092,57.9769,862.2418],[131.8709,57.9524,717.0314],[131.8199,57.903,860.0307],[131.9236,57.8601,900.4146],[132.0237,57.8028,955.6218],[132.0948,57.7663,962.1663],[132.1302,57.7271,1170.62],[132.0941,57.6899,1238.1361],[132.0364,57.6841,1363.179],[132.0172,57.6383,1215.6427],[131.9378,57.6343,1151.0254],[131.8266,57.5805,1256.7229],[131.8131,57.5403,1623.7717],[131.7211,57.4813,1134.1898],[131.657,57.4363,987.6731],[131.6501,57.4004,845.7651],[131.6526,57.3568,754.288],[131.5902,57.2908,862.9213],[131.536,57.2717,462.7117],[131.4498,57.2969,966.6642],[131.3856,57.3121,872.1003],[131.3867,57.3413,926.3179],[131.3324,57.3364,618.3583],[131.3025,57.2659,780.8927],[131.2283,57.2571,635.4283],[131.2642,57.1852,388.7503],[131.3629,57.1793,573.4311],[131.4348,57.1487,375.944],[131.5138,57.1018,632.077],[131.7285,56.9417,896.5175],[131.8316,56.8483,1055.1471],[131.8768,56.7967,987.6216],[131.8568,56.7549,848.4562],[131.7185,56.7016,724.5155],[131.731,56.6302,1075.1858],[131.7062,56.5876,583.0081],[131.7827,56.5136,1029.8868],[131.7448,56.4768,639.7229],[131.6645,56.4642,602.4565],[131.6236,56.4859,612.2406],[131.6107,56.5245,673.5942],[131.5701,56.5389,800.4631],[131.5205,56.5115,1359.4047],[131.4901,56.4705,791.9852],[131.4255,56.4627,690.8628],[131.3875,56.4958,689.5339],[131.3437,56.513,990.1166],[131.2644,56.4978,1244.9536],[131.1819,56.429,772.9372],[131.1648,56.3279,875.4235],[131.1571,56.2539,882.8728],[131.0585,56.1485,940.9512],[130.9753,56.0748,909.9273],[130.9225,56.001,957.8003],[130.9395,55.9583,1196.8379],[130.8928,55.9219,1469.3076],[130.9017,55.8619,1674.0076],[130.9637,55.8108,2051.8979],[130.9851,55.7894,1631.2986],[130.9616,55.7425,1840.8899],[130.9861,55.7012,1671.0125],[131.0171,55.69,1872.6156],[131.1075,55.6698,1515.0758],[131.1941,55.6753,1990.1816],[131.2673,55.668,2008.3593],[131.3288,55.6702,1668.2548],[131.4281,55.6905,1197.5488],[131.5166,55.6777,1477.5872],[131.6899,55.7149,1272.0415],[131.7598,55.7134,1803.2195],[131.7777,55.6751,1550.6035],[131.8529,55.6896,1265.7938],[131.9424,55.6999,1608.01],[132.0364,55.6954,1587.0295],[132.1387,55.6998,1345.9114],[132.2262,55.7271,1364.1289],[132.2903,55.7446,1505.5298],[132.348,55.7536,1205.8051],[132.4169,55.7374,1350.3672],[132.4522,55.7363,1348.0122],[132.5099,55.739,1180.827],[132.5475,55.7226,1303.7261],[132.5546,55.683,1378.4042],[132.5879,55.6397,1252.1041],[132.6783,55.6033,1530.7354]]],
[[[139.8527,57.4471,8.7732],[139.8534,57.4485,8.7732],[139.8483,57.4519,34.4209],[139.8422,57.4515,3.589],[139.8475,57.4477,2.6808],[139.8527,57.4471,8.7732]]]]}}