{"type":"Feature","properties":{"GID_3":"RUS.71.4.1_1","GID_0":"RUS","country":"Russia","GID_1":"RUS.71_1","province":"Tuva","NL_NAME_1":"РеспубликаТыва","GID_2":"RUS.71.4_1","county":"Chedi-Khol'skiyrayon","NL_NAME_2":"Чеди-Хольскийрайон","city":"NA","VARNAME_3":"NA","NL_NAME_3":"NA","TYPE_3":"NA","ENGTYPE_3":"NA","CC_3":"NA","HASC_3":"NA","name":"N_A.city"},
"geometry":{"type": "MultiPolygon","coordinates": [[[[93.8578,51.5703,583.4969],[93.7494,51.5506,623.9707],[93.7372,51.599,581.2175],[93.7398,51.6457,725.3149],[93.6809,51.6512,808.7836],[93.6681,51.6031,596.0942],[93.5785,51.579,574.4249],[93.5204,51.5504,617.3385],[93.4924,51.5189,842.1962],[93.4755,51.4797,965.7429],[93.4873,51.4526,1055.2233],[93.4467,51.4352,1017.0206],[93.3567,51.4229,932.3626],[93.3488,51.3257,1225.8113],[93.3633,51.2782,1414.1736],[93.4236,51.2206,1191.7925],[93.4667,51.1507,1031.4259],[93.448,51.0674,1088.4302],[93.41,51.0239,1551.6477],[93.3664,50.9838,2054.3333],[93.4688,50.9418,1735.1366],[93.5491,50.916,2089.5608],[93.654,50.9131,2139.7981],[93.7491,50.8413,1882.1689],[93.8041,50.8549,1956.3679],[93.8724,50.8393,1790.3892],[93.9334,50.8298,1717.1898],[94.0634,50.8748,1719.2056],[94.0984,50.902,1978.5225],[94.1151,50.9862,2103.532],[94.1663,51.0218,2053.1921],[94.1707,51.0198,2116.533],[94.1685,51.0403,1833.8273],[93.8763,51.5582,599.4379],[93.8578,51.5703,583.4969]]]]}}