{"type":"Feature","properties":{"GID_3":"RUS.56.23.1_1","GID_0":"RUS","country":"Russia","GID_1":"RUS.56_1","province":"Primor'ye","NL_NAME_1":"Приморскийкрай","GID_2":"RUS.56.23_1","county":"Partizanskgorsovet","NL_NAME_2":"Партизанск(горсовет)","city":"NA","VARNAME_3":"NA","NL_NAME_3":"NA","TYPE_3":"NA","ENGTYPE_3":"NA","CC_3":"NA","HASC_3":"NA","name":"N_A.city"},
"geometry":{"type": "MultiPolygon","coordinates": [[[[133.0368,43.4334,899.2548],[133.0323,43.3937,376.5343],[133.0191,43.3532,298.9008],[132.9782,43.3204,353.3973],[132.9333,43.3062,473.4368],[132.9127,43.2664,393.2852],[132.918,43.2303,279.6092],[132.8792,43.1509,370.4047],[132.9212,43.1355,458.942],[132.9518,43.1521,519.2937],[132.9834,43.1578,497.1539],[133.0313,43.1548,437.6964],[133.044,43.1253,395.9126],[133.073,43.117,332.7901],[133.1192,43.1242,172.0092],[133.1634,43.1002,66.8643],[133.184,43.041,100.8049],[133.3133,43.1467,526.328],[133.3198,43.2995,344.4001],[133.3319,43.3967,494.327],[133.3109,43.4626,460.5822],[133.2647,43.5194,551.2904],[133.2317,43.5007,662.7168],[133.1953,43.461,859.2074],[133.1382,43.4709,794.0146],[133.1188,43.4435,547.8359],[133.0897,43.4433,653.8594],[133.0368,43.4334,899.2548]]]]}}