{"type":"Feature","properties":{"GID_2":"RUS.9.7_1","GID_0":"RUS","country":"Russia","GID_1":"RUS.9_1","province":"Buryat","NL_NAME_1":"РеспубликаБурятия","county":"Kabanskiyrayon","VARNAME_2":"NA","NL_NAME_2":"Кабанскийрайон","TYPE_2":"Raion","ENGTYPE_2":"District","CC_2":"R60000","HASC_2":"RU.BU.KA","name":"Kabanskiyrayon.county"},
"geometry":{"type": "MultiPolygon","coordinates": [[[[105.2206,51.2461,1749.9563],[105.2845,51.254,1621.6705],[105.4947,51.2557,1148.5723],[105.5492,51.2783,1130.7732],[105.591,51.3044,1395.6813],[105.6323,51.3352,1560.1046],[105.6841,51.3418,1505.155],[105.7485,51.3589,1208.7747],[105.7855,51.3909,1137.8569],[105.8185,51.4269,1158.4003],[105.8781,51.4499,1279.9287],[105.9409,51.4585,1196.1433],[105.988,51.4472,1219.8856],[106.0321,51.4199,1202.1846],[106.0628,51.3933,1329.1307],[106.101,51.3853,1041.2748],[106.1214,51.4011,1046.009],[106.1302,51.4205,1119.4941],[106.1501,51.4904,1171.9937],[106.1871,51.5194,1204.261],[106.2402,51.5209,1268.8138],[106.2935,51.5308,1036.2307],[106.3249,51.5601,1383.6644],[106.366,51.603,1293.1625],[106.4057,51.6477,1238.8467],[106.4838,51.7023,1012.0881],[106.5267,51.7108,1179.5842],[106.5718,51.7042,1163.1533],[106.6139,51.7005,888.6879],[106.6954,51.7264,1379.6113],[106.7619,51.7531,1237.1519],[106.8298,51.7845,1374.7021],[106.8898,51.8484,1181.5725],[106.928,51.8552,1347.2488],[107.0527,51.8524,1233.7183],[107.0901,51.8885,1170.5437],[107.1097,51.9135,1124.7347],[107.0897,51.9609,1036.6252],[107.0273,51.9849,676.9262],[106.9047,52.0512,473.506],[106.8805,52.1071,562.8812],[106.8913,52.1503,559.2096],[106.9125,52.1947,675.825],[106.9137,52.2441,619.7667],[106.9046,52.3099,470.3648],[106.9205,52.3405,580.2852],[106.9524,52.3672,586.8513],[107.0189,52.3702,1017.278],[107.089,52.3655,1312.7332],[107.2076,52.3667,1330.5685],[107.3343,52.3757,1264.1626],[107.401,52.4082,1107.6831],[107.4053,52.4386,1197.8301],[107.3832,52.4911,1020.9008],[107.3936,52.5219,1326.6841],[107.4164,52.5519,1426.9548],[107.4224,52.5913,1133.4852],[107.4118,52.642,828.0621],[107.429,52.7,455.0],[107.3851,52.667,455.0],[107.3456,52.6346,455.0],[107.3001,52.6044,455.0],[107.2661,52.5919,455.0],[107.1472,52.587,455.0],[107.0692,52.558,455.0],[107.0178,52.5411,455.0],[106.9548,52.5007,455.0],[106.878,52.4594,455.0],[106.8451,52.4086,455.0],[106.8287,52.3679,455.0],[106.8077,52.3414,455.0],[106.7751,52.3277,455.0],[106.7505,52.3153,455.3095],[106.7027,52.3174,456.2759],[106.6641,52.3283,456.4398],[106.6675,52.3569,455.0],[106.6614,52.3629,455.0],[106.6142,52.3687,455.0],[106.6227,52.3923,455.0],[106.6105,52.4014,455.0],[106.5482,52.3988,455.0],[106.5134,52.4159,455.0],[106.4783,52.393,455.0],[106.432,52.3856,455.0],[106.3642,52.3591,455.0],[106.3403,52.3773,455.0],[106.312,52.3399,455.0],[106.3028,52.3033,455.0],[106.2647,52.3102,455.0],[106.251,52.298,455.0],[106.2803,52.2841,455.2433],[106.2903,52.2639,456.6527],[106.2659,52.2598,455.9833],[106.259,52.1987,456.5988],[106.2952,52.1919,456.7609],[106.2783,52.1583,455.0],[106.2628,52.1191,455.0],[106.2373,52.1103,455.0],[106.1998,52.0892,455.0],[106.1662,52.0575,455.0],[106.1526,52.0181,455.0],[106.1378,51.9899,455.0],[106.168,51.9909,455.0],[106.1635,51.9264,455.0],[106.1455,51.9238,455.0],[106.1221,51.9477,455.6572],[106.075,51.8725,455.0],[106.0349,51.827,455.0],[105.9904,51.7872,467.2068],[105.9178,51.7387,455.0],[105.8237,51.7018,471.0749],[105.6529,51.6861,455.0],[105.6233,51.6745,455.0],[105.5786,51.6506,456.2558],[105.5181,51.6209,489.1916],[105.4711,51.6009,560.5646],[105.4081,51.5911,535.4203],[105.373,51.5807,568.406],[105.1871,51.568,537.1039],[105.1162,51.5538,475.1923],[105.0193,51.5219,588.4839],[104.9338,51.4875,495.8224],[104.7522,51.4313,536.4628],[104.7074,51.4345,482.8822],[104.6131,51.4541,480.9863],[104.6094,51.4222,498.9394],[104.6145,51.3812,892.3277],[104.6154,51.3291,951.2148],[104.5486,51.285,1216.074],[104.463,51.2312,1509.8069],[104.4392,51.163,1253.3047],[104.426,51.0924,1345.4844],[104.4599,51.0376,1556.859],[104.4706,50.9466,1336.043],[104.5434,50.9974,1328.3767],[104.7413,51.0809,1618.7357],[104.8681,51.1173,1709.1465],[104.9322,51.1938,1742.7668],[105.0,51.234,1488.1149],[105.1022,51.2353,1637.8346],[105.2206,51.2461,1749.9563]]]]}}