{"type":"Feature","properties":{"GID_3":"RUS.24.1.1_1","GID_0":"RUS","country":"Russia","GID_1":"RUS.24_1","province":"Kamchatka","NL_NAME_1":"Камчатскаякрай","GID_2":"RUS.24.1_1","county":"Aleutskiyrayon","NL_NAME_2":"Алеутскийрайон","city":"NA","VARNAME_3":"NA","NL_NAME_3":"NA","TYPE_3":"NA","ENGTYPE_3":"NA","CC_3":"NA","HASC_3":"NA","name":"N_A.city"},
"geometry":{"type": "MultiPolygon","coordinates": [[[[167.4462,54.8678,8.5875],[167.4406,54.8684,7.2202],[167.4391,54.8632,0.1765],[167.444,54.859,59.1907],[167.444,54.8549,33.2961],[167.4514,54.8442,0.0],[167.4435,54.8389,0.0],[167.4429,54.837,11.0238],[167.4443,54.8348,26.5865],[167.4583,54.8264,5.5602],[167.4556,54.8242,2.841],[167.4483,54.8239,2.0641],[167.4516,54.8184,0.0],[167.4618,54.8124,7.2111],[167.4711,54.8097,11.1824],[167.4801,54.8032,23.0328],[167.4926,54.7982,20.7727],[167.4932,54.7964,1.0767],[167.4997,54.7955,35.1214],[167.4966,54.7922,0.0],[167.4992,54.7884,0.0],[167.5108,54.7807,4.4471],[167.5167,54.7783,0.0],[167.5222,54.7789,20.9332],[167.522,54.7733,19.7382],[167.5353,54.7656,44.793],[167.547,54.763,46.4953],[167.5478,54.7583,0.0],[167.5547,54.7563,0.0],[167.5606,54.7506,19.314],[167.5761,54.7514,0.0],[167.5783,54.7508,1.8187],[167.5771,54.7474,0.0],[167.5928,54.7408,12.951],[167.5945,54.7414,31.2895],[167.6066,54.7366,0.0],[167.61,54.7369,0.0],[167.6095,54.7383,20.8256],[167.6144,54.7378,0.5149],[167.615,54.7361,35.2015],[167.6124,54.7345,0.0],[167.6158,54.7304,0.0],[167.6215,54.728,8.1163],[167.6194,54.7249,52.7133],[167.6201,54.7235,3.475],[167.6289,54.7211,36.0839],[167.6383,54.7147,0.0],[167.6488,54.7164,0.0],[167.6583,54.7153,1.2612],[167.66,54.7128,1.8524],[167.6644,54.7119,14.9112],[167.6693,54.7074,3.5704],[167.6825,54.7032,12.6378],[167.6815,54.701,0.0],[167.6852,54.7008,36.6991],[167.6989,54.6887,9.6527],[167.705,54.6878,10.2522],[167.7079,54.6846,14.1927],[167.7074,54.6832,43.3259],[167.7024,54.6826,7.7822],[167.7019,54.6806,56.4244],[167.7113,54.6803,58.9429],[167.7137,54.6731,0.0],[167.7238,54.6691,102.2149],[167.7234,54.668,0.0],[167.7307,54.6634,0.0],[167.7388,54.6608,5.9264],[167.74,54.6572,0.0],[167.7437,54.657,0.0],[167.7551,54.6491,28.2303],[167.7706,54.6472,6.5532],[167.7789,54.6481,2.6574],[167.7844,54.6506,24.8815],[167.7896,54.6503,3.4081],[167.8048,54.643,1.7573],[167.8108,54.6435,3.1452],[167.8171,54.6404,0.0],[167.8377,54.6354,24.536],[167.846,54.6282,3.9055],[167.8576,54.6251,16.6642],[167.8637,54.6204,10.2772],[167.8724,54.6167,25.7143],[167.8734,54.6148,0.0],[167.8773,54.6139,5.2881],[167.8812,54.6068,0.0],[167.8891,54.6063,2.6157],[167.9161,54.5975,14.2073],[167.9179,54.5922,23.4437],[167.926,54.5902,3.8295],[167.931,54.5844,6.1373],[167.9367,54.5755,0.0],[167.9356,54.5675,3.9489],[167.9378,54.5672,47.4269],[167.9417,54.5633,0.0],[167.95,54.5631,23.2184],[167.9656,54.555,2.0453],[167.9744,54.5533,0.0],[167.9777,54.5505,22.4758],[167.9883,54.5486,8.6489],[167.9889,54.5464,0.0],[167.9967,54.5467,0.0],[168.0,54.5444,0.0],[168.005,54.5447,10.2608],[168.0227,54.539,44.1879],[168.0264,54.5362,28.5474],[168.0297,54.5308,0.9913],[168.0333,54.5304,10.0249],[168.0477,54.5206,32.8483],[168.0558,54.5178,18.4352],[168.0575,54.5133,0.0],[168.0599,54.5133,37.5476],[168.0596,54.5115,10.6757],[168.0614,54.5101,0.0],[168.0704,54.5084,7.7918],[168.0842,54.5021,130.5273],[168.0865,54.4974,0.0],[168.0904,54.4958,10.2881],[168.0986,54.4972,41.5084],[168.1015,54.4991,61.3649],[168.1019,54.5029,13.3525],[168.0956,54.5063,7.2816],[168.0946,54.51,0.0],[168.0842,54.5191,0.0],[168.0759,54.5205,10.2847],[168.0693,54.5258,0.0],[168.065,54.5254,121.4629],[168.0453,54.53,15.1322],[168.032,54.5365,6.2241],[168.0181,54.5499,2.5043],[168.0087,54.5565,29.9726],[168.0046,54.5613,0.0],[168.0009,54.5722,0.0],[167.9956,54.5789,0.0],[167.9872,54.5806,0.0],[167.9761,54.5783,11.4003],[167.9728,54.5794,0.7215],[167.9728,54.5808,0.0],[167.9678,54.5817,4.5008],[167.9628,54.5856,0.0],[167.9639,54.5911,0.0],[167.9594,54.5956,0.0926],[167.9494,54.5994,19.3863],[167.9422,54.6044,0.0],[167.9411,54.6078,0.0],[167.9361,54.6119,5.5674],[167.9356,54.6147,0.0],[167.9283,54.6203,7.2419],[167.9256,54.625,0.0],[167.9283,54.6283,0.0],[167.9278,54.6319,0.0],[167.9328,54.6336,0.0],[167.9367,54.6328,0.0],[167.9389,54.635,0.0],[167.9344,54.6364,0.0],[167.9339,54.6381,0.0],[167.935,54.6414,1.2926],[167.9394,54.6428,2.5883],[167.9406,54.645,0.0],[167.9378,54.6475,1.0838],[167.9394,54.6503,1.6988],[167.9356,54.6511,3.538],[167.9356,54.6539,0.0],[167.9294,54.6542,0.8956],[167.9239,54.6483,13.877],[167.9172,54.6469,64.4096],[167.9078,54.6478,1.6942],[167.9061,54.6453,38.5821],[167.9011,54.6433,27.0688],[167.8961,54.6453,18.4975],[167.8856,54.6439,0.0],[167.8789,54.6456,0.0],[167.8794,54.6467,0.0],[167.8761,54.6483,11.3533],[167.8767,54.6514,5.6143],[167.8717,54.6506,4.0621],[167.8656,54.6542,1.1031],[167.8683,54.6575,0.0],[167.8689,54.6611,0.1376],[167.8644,54.6658,0.0],[167.865,54.6678,0.0],[167.8572,54.6694,3.3655],[167.8544,54.6775,3.2953],[167.845,54.6833,0.6958],[167.845,54.6858,0.0],[167.8367,54.6881,132.6331],[167.8367,54.6897,9.3813],[167.8333,54.6925,2.5053],[167.835,54.695,0.0],[167.8321,54.6957,0.0],[167.8183,54.6869,14.5579],[167.8128,54.6858,23.2258],[167.8106,54.6869,15.0227],[167.8056,54.6831,39.8863],[167.7994,54.6842,0.0],[167.7922,54.6819,72.5608],[167.7856,54.6828,2.1529],[167.7767,54.6867,1.1182],[167.7761,54.6883,0.0],[167.7717,54.6903,0.0],[167.7717,54.6919,0.0],[167.7572,54.6981,0.0],[167.755,54.7006,12.0113],[167.7578,54.7033,0.0],[167.7572,54.7081,0.0],[167.7536,54.7092,10.0061],[167.7472,54.7167,0.0],[167.7478,54.7186,0.0],[167.7422,54.7231,2.5694],[167.7505,54.7258,0.0],[167.7495,54.7294,46.1906],[167.7528,54.7325,0.0],[167.7522,54.7367,14.4766],[167.7476,54.736,4.905],[167.7422,54.7325,5.8928],[167.7339,54.735,0.0],[167.7367,54.7414,0.0],[167.7333,54.7472,14.9953],[167.7361,54.7508,0.0],[167.7311,54.7514,35.3251],[167.7333,54.7553,0.0],[167.7289,54.7583,16.9591],[167.73,54.7617,0.0],[167.7233,54.7635,25.0404],[167.7167,54.7619,69.7279],[167.7036,54.7627,7.0837],[167.7003,54.7598,38.7308],[167.6844,54.755,32.4549],[167.6772,54.7567,1.1075],[167.6744,54.7594,0.0],[167.6717,54.7597,8.1317],[167.6717,54.7614,4.575],[167.6822,54.7708,35.5017],[167.6883,54.7706,0.0933],[167.6894,54.7728,0.0],[167.6778,54.7736,22.0886],[167.6761,54.7775,13.3885],[167.6783,54.7797,0.0],[167.675,54.7822,0.0],[167.6667,54.7842,0.0],[167.6694,54.7853,0.0],[167.6517,54.7856,2.1011],[167.65,54.7867,8.9655],[167.6511,54.7897,0.0],[167.6494,54.7897,0.4957],[167.6423,54.7867,62.0059],[167.6333,54.7867,7.1891],[167.6328,54.7847,29.392],[167.6289,54.7828,0.0],[167.6228,54.7858,0.0],[167.6233,54.7881,0.0],[167.6206,54.7869,35.6287],[167.6172,54.7892,0.0],[167.6123,54.7894,19.8031],[167.6095,54.7919,23.1637],[167.604,54.7921,1.2917],[167.6037,54.7938,0.0],[167.5972,54.7942,2.09],[167.5994,54.7956,0.0],[167.5961,54.7944,2.09],[167.5939,54.795,5.6649],[167.5945,54.7964,0.0],[167.5917,54.7964,0.3648],[167.59,54.795,4.683],[167.5911,54.7942,4.683],[167.5844,54.7936,19.6849],[167.5833,54.7906,10.8554],[167.5811,54.7906,0.0],[167.5794,54.7917,3.9322],[167.5817,54.7936,2.4646],[167.5794,54.7933,15.0401],[167.58,54.7947,0.0],[167.5726,54.7939,10.6549],[167.5582,54.7985,42.0702],[167.5417,54.7992,3.7333],[167.5383,54.8022,0.0],[167.5411,54.8097,3.0533],[167.5522,54.8103,0.0],[167.5589,54.8131,0.8412],[167.56,54.8164,0.0],[167.5583,54.8172,78.2317],[167.5633,54.8197,0.0],[167.5611,54.8203,0.0],[167.565,54.8233,2.5457],[167.565,54.8256,0.0],[167.56,54.8272,0.0],[167.5522,54.8267,42.9405],[167.5367,54.8336,0.0],[167.53,54.8344,38.1261],[167.5272,54.8378,0.0],[167.5217,54.8397,100.7419],[167.5222,54.8419,0.0],[167.5182,54.8436,20.863],[167.5168,54.847,14.75],[167.5111,54.8467,15.7297],[167.5,54.8497,17.0415],[167.4983,54.8525,0.0],[167.4832,54.8553,52.9801],[167.4817,54.8586,28.1888],[167.4767,54.8594,3.1581],[167.475,54.8619,1.4541],[167.4728,54.8622,0.9938],[167.4728,54.8647,0.0],[167.4681,54.8672,0.0],[167.4462,54.8678,8.5875]]],
[[[167.6756,54.7833,0.0],[167.675,54.7825,0.0],[167.6811,54.7831,0.0],[167.68,54.7842,0.0],[167.6756,54.7833,0.0]]],
[[[167.5233,54.8479,0.0],[167.5278,54.8492,0.0],[167.5231,54.8504,23.1555],[167.5184,54.848,1.4139],[167.5219,54.8484,0.3588],[167.5233,54.8479,0.0]]],
[[[167.4388,54.8714,0.0],[167.4404,54.8708,0.0],[167.441,54.8733,0.0],[167.4354,54.8764,0.0],[167.4393,54.8722,0.0],[167.4388,54.8714,0.0]]],
[[[166.38,54.8239,0.0],[166.3779,54.8254,9.0304],[166.3759,54.8222,4.317],[166.3794,54.8211,9.4275],[166.38,54.8239,0.0]]],
[[[167.4297,54.8778,0.0],[167.433,54.8765,0.0],[167.4352,54.8771,0.0],[167.4281,54.8799,0.0],[167.4297,54.8778,0.0]]],
[[[165.9876,55.3613,3.7091],[165.9789,55.3636,4.6455],[165.9633,55.3603,0.7408],[165.9572,55.3558,1.2931],[165.9578,55.3539,4.901],[165.9533,55.3492,0.6879],[165.9428,55.3461,0.4285],[165.9439,55.345,7.2989],[165.94,55.3414,0.447],[165.9422,55.3408,5.3238],[165.9433,55.3383,5.28],[165.9406,55.3369,4.2502],[165.9378,55.3319,22.9504],[165.9333,55.3289,0.0],[165.9267,55.3292,0.0],[165.9261,55.3267,10.0544],[165.9222,55.3247,15.7916],[165.8905,55.3183,7.4156],[165.8794,55.3175,0.0],[165.866,55.3113,4.9413],[165.8368,55.3082,11.2958],[165.8289,55.3097,2.0758],[165.8261,55.3089,0.0],[165.825,55.3061,22.1065],[165.8206,55.3058,0.2296],[165.8183,55.3025,6.5746],[165.8089,55.3033,5.0162],[165.8061,55.2983,16.1631],[165.7972,55.2989,0.0],[165.7924,55.2948,25.3647],[165.7847,55.295,1.3588],[165.7696,55.2892,8.9877],[165.7641,55.2902,6.6677],[165.7568,55.2852,8.4887],[165.77,55.2797,1.0333],[165.7767,55.2828,3.5226],[165.7833,55.2822,2.2772],[165.7828,55.2839,9.3833],[165.7867,55.2842,8.0376],[165.8,55.2803,3.1319],[165.8033,55.2758,3.6668],[165.8028,55.2736,0.6011],[165.8078,55.2761,3.7597],[165.8183,55.2731,1.8336],[165.8294,55.2725,15.7655],[165.84,55.2686,0.7325],[165.8635,55.2661,23.4783],[165.8905,55.26,2.6064],[165.8971,55.2534,14.6654],[165.8979,55.2487,0.0],[165.9133,55.2533,2.3489],[165.9217,55.2522,17.837],[165.9233,55.2503,3.749],[165.9223,55.2478,10.2072],[165.9239,55.2467,0.4719],[165.935,55.2461,2.9617],[165.9617,55.2336,0.0],[165.978,55.2281,0.0],[165.9786,55.2265,0.402],[165.9817,55.2281,1.8733],[165.9839,55.2261,4.3926],[165.9806,55.2253,0.0],[165.9911,55.2192,10.2181],[166.0014,55.2098,6.1958],[166.0028,55.2058,1.9135],[166.0017,55.2046,1.8969],[166.0023,55.2008,0.5552],[166.01,55.2067,0.212],[166.0217,55.2108,-0.143],[166.0135,55.2037,3.0553],[165.9944,55.1983,1.5467],[165.9906,55.1956,0.0],[165.9808,55.1945,0.635],[165.9817,55.1928,0.826],[165.989,55.1913,32.4119],[165.9949,55.1872,17.4314],[166.0066,55.1876,18.144],[166.0129,55.1862,13.5785],[166.0376,55.1724,25.0356],[166.0473,55.1651,5.642],[166.0492,55.1589,10.1726],[166.0484,55.1546,1.602],[166.0519,55.1479,0.2628],[166.0723,55.1368,3.2585],[166.0786,55.1307,1.5203],[166.0837,55.1242,32.7963],[166.0843,55.1199,21.5518],[166.082,55.1151,20.7034],[166.0813,55.1033,3.4394],[166.0796,55.1016,7.0855],[166.0804,55.1,0.6879],[166.0857,55.0988,28.9723],[166.0879,55.0961,9.8618],[166.0866,55.0885,0.0],[166.0881,55.0862,7.5099],[166.0831,55.0809,1.582],[166.0725,55.0766,1.1065],[166.0719,55.0747,2.5778],[166.0754,55.069,8.5504],[166.0762,55.0637,0.0],[166.0914,55.0579,5.2697],[166.0932,55.0555,17.4008],[166.0929,55.0489,14.0242],[166.1061,55.0369,0.965],[166.1203,55.0358,6.6707],[166.1225,55.0301,0.0],[166.1275,55.0247,4.0208],[166.1405,55.0228,10.3694],[166.1458,55.0179,1.1404],[166.1545,55.0148,19.4741],[166.1586,55.0074,7.9899],[166.1575,55.004,0.0],[166.1645,55.0005,41.94],[166.1722,54.9897,33.2655],[166.1722,54.9828,6.5745],[166.1756,54.9803,0.4538],[166.18,54.98,1.4683],[166.1817,54.9772,6.5817],[166.1767,54.9731,10.1108],[166.1789,54.9669,5.012],[166.1754,54.9611,11.739],[166.1794,54.9583,0.8774],[166.1791,54.9559,0.0],[166.1906,54.95,14.0775],[166.1941,54.9453,0.0],[166.2011,54.9408,8.9029],[166.2065,54.9395,9.2684],[166.2139,54.9414,2.6815],[166.2195,54.9378,13.4321],[166.2328,54.9358,20.4117],[166.2333,54.9333,0.836],[166.235,54.9331,24.1648],[166.233,54.9246,4.8012],[166.2382,54.9236,2.2754],[166.2396,54.9217,0.7854],[166.2379,54.9189,7.5674],[166.245,54.9153,0.5239],[166.2567,54.9167,12.8305],[166.2636,54.9139,21.4814],[166.2733,54.9161,25.4827],[166.2822,54.9161,51.9691],[166.29,54.9133,9.381],[166.2928,54.9092,3.432],[166.2874,54.9063,12.5926],[166.2872,54.8993,0.0],[166.2848,54.8971,0.0],[166.2839,54.8933,1.6612],[166.2963,54.8819,2.7626],[166.2978,54.8779,15.8663],[166.3094,54.8683,0.0],[166.3381,54.8703,0.0],[166.3417,54.868899999999996,17.6374],[166.3422,54.8667,3.0761],[166.3328,54.8622,12.3832],[166.3314,54.8568,0.0],[166.3503,54.8445,16.6937],[166.3681,54.8368,4.6403],[166.3777,54.8264,0.0],[166.385,54.8317,0.0],[166.3844,54.835,0.0],[166.3872,54.8394,1.0286],[166.385,54.8425,0.0],[166.3861,54.8489,2.2324],[166.3889,54.8475,0.0],[166.3944,54.8481,4.6135],[166.3972,54.8417,22.9349],[166.3878,54.8389,1.0286],[166.4011,54.8372,23.9272],[166.4044,54.835,0.0],[166.4053,54.83,3.8219],[166.4122,54.8239,7.1979],[166.4199,54.8247,0.0],[166.4317,54.8328,4.552],[166.4389,54.8333,1.7794],[166.4433,54.8319,0.0873],[166.4411,54.8347,0.1266],[166.4478,54.8339,-0.4383],[166.4511,54.835,0.2857],[166.4506,54.8306,14.8681],[166.4478,54.8294,-0.1041],[166.4493,54.8229,0.0],[166.475,54.8297,0.0],[166.4783,54.8331,16.4547],[166.4867,54.8361,44.1455],[166.4961,54.8339,4.5745],[166.5022,54.8294,3.4843],[166.5044,54.8306,5.9186],[166.5056,54.8289,5.9355],[166.5033,54.8289,3.4843],[166.5089,54.8231,2.1833],[166.5089,54.8181,9.5933],[166.4883,54.8078,3.7149],[166.4854,54.8026,6.1457],[166.4863,54.7885,0.0],[166.4956,54.7881,0.8977],[166.4989,54.79,0.7358],[166.5033,54.7889,7.4462],[166.5089,54.7858,3.2162],[166.5089,54.7794,0.0],[166.5144,54.7739,37.231],[166.5439,54.7617,0.0],[166.5496,54.7578,3.0812],[166.5583,54.7569,2.858],[166.5611,54.7547,3.6169],[166.565,54.7553,3.6169],[166.5622,54.7539,3.6169],[166.5678,54.7492,8.3839],[166.5686,54.7402,10.8678],[166.5671,54.7372,0.0],[166.5621,54.7353,20.1194],[166.5711,54.7268,4.7365],[166.5708,54.7255,4.7365],[166.5757,54.7229,12.9519],[166.5773,54.7197,0.0],[166.5848,54.7169,0.0],[166.5964,54.7164,23.5523],[166.6012,54.711,0.0],[166.6233,54.7031,9.9964],[166.6322,54.7019,139.4321],[166.6324,54.6999,10.0617],[166.6425,54.6938,128.702],[166.6422,54.6906,34.8058],[166.6467,54.6872,16.3981],[166.671,54.6786,0.0],[166.6717,54.6844,93.9381],[166.6789,54.6953,17.2338],[166.6739,54.7033,41.1411],[166.6733,54.7067,27.6172],[166.675,54.7089,0.0],[166.6717,54.7128,44.7463],[166.6733,54.7164,7.9466],[166.6733,54.7253,64.6286],[166.6756,54.7289,25.1579],[166.6744,54.7378,0.0],[166.6774,54.7438,0.0],[166.6768,54.7464,0.0],[166.6711,54.7508,39.9854],[166.6694,54.7547,12.9722],[166.6728,54.7628,0.0],[166.6683,54.7775,0.0],[166.6656,54.7781,94.7085],[166.6667,54.7786,0.0],[166.6622,54.7839,0.6521],[166.6616,54.79,44.3327],[166.6544,54.7978,0.0],[166.6528,54.8025,2.0241],[166.6555,54.8061,5.4175],[166.6522,54.8097,5.7353],[166.6522,54.8122,0.0],[166.6472,54.8169,7.4004],[166.6522,54.8214,0.0],[166.6533,54.8261,0.0],[166.6483,54.8347,12.912],[166.6383,54.8392,1.7526],[166.6367,54.8414,6.7018],[166.6372,54.845,0.0],[166.6458,54.8458,6.1621],[166.6511,54.8475,29.1158],[166.6517,54.8492,0.0],[166.6517,54.8519,0.0],[166.6467,54.8567,157.5857],[166.6439,54.865,46.7287],[166.6412,54.8658,0.0],[166.6331,54.8738,0.0],[166.6106,54.8831,4.4052],[166.603,54.8832,18.6917],[166.595,54.8892,0.0],[166.5872,54.8908,1.8525],[166.5867,54.8936,3.0804],[166.5894,54.8956,28.9701],[166.5906,54.8992,0.0],[166.5872,54.9022,10.527],[166.5939,54.9092,0.0],[166.595,54.9119,0.0],[166.5939,54.9131,0.0],[166.5828,54.9175,0.0],[166.5594,54.9133,27.104],[166.5472,54.915,37.7392],[166.545,54.9189,0.0],[166.5394,54.9217,80.0322],[166.5378,54.9256,0.0],[166.5339,54.9281,6.2184],[166.5189,54.9328,0.3726],[166.5106,54.9331,1.1458],[166.505,54.9364,16.1774],[166.5022,54.9403,0.0],[166.4922,54.9428,0.2501],[166.4872,54.9464,0.4035],[166.4733,54.9486,4.4654],[166.4672,54.9511,0.3382],[166.465,54.9547,0.0],[166.4611,54.9569,1.9402],[166.4544,54.9581,1.5135],[166.4544,54.9592,0.0],[166.4439,54.9631,0.0],[166.4422,54.9658,0.0],[166.4428,54.9681,0.0],[166.4406,54.9689,0.419],[166.4422,54.9694,0.0],[166.4372,54.9717,9.0335],[166.4317,54.9769,0.0],[166.4317,54.9825,0.0],[166.4211,54.9858,0.0],[166.4156,54.9897,1.9836],[166.4161,54.9967,0.4983],[166.4144,55.0,1.6211],[166.4106,55.0022,0.2648],[166.4072,55.0069,0.0],[166.3989,55.0114,0.0],[166.4011,55.0194,0.6352],[166.4006,55.0233,0.0],[166.395,55.0292,0.0],[166.3911,55.0369,1.1646],[166.39,55.0431,16.0093],[166.3833,55.0483,1.5657],[166.3772,55.0486,19.5938],[166.3678,55.0522,0.0],[166.3644,55.0603,0.0],[166.36,55.0625,0.0],[166.3567,55.0686,3.0952],[166.3506,55.0722,0.3159],[166.3489,55.0772,2.56],[166.3511,55.0822,0.0],[166.3517,55.0914,0.0],[166.3383,55.0944,1.8363],[166.32,55.1058,1.1371],[166.2972,55.1131,20.6554],[166.2961,55.115,4.5238],[166.29,55.1172,0.0],[166.2878,55.1203,1.2513],[166.2917,55.1233,0.0],[166.2911,55.1264,4.3489],[166.2839,55.1336,21.9271],[166.2833,55.1369,1.3922],[166.2778,55.1436,0.812],[166.2678,55.1489,0.2594],[166.2661,55.1539,5.1051],[166.2667,55.1586,0.0],[166.2628,55.1669,0.4628],[166.2594,55.1683,0.7506],[166.2533,55.1747,0.7042],[166.2467,55.1767,0.9231],[166.2483,55.1781,0.8269],[166.2478,55.1831,0.0],[166.245,55.1883,0.3244],[166.245,55.1942,0.0],[166.2411,55.1983,1.9395],[166.2411,55.2019,1.3679],[166.2461,55.2114,0.7427],[166.2468,55.2194,0.5092],[166.2535,55.2229,0.5285],[166.2489,55.2253,17.7736],[166.2485,55.2278,12.3481],[166.2522,55.235,54.052],[166.2572,55.2394,0.0],[166.2588,55.2482,0.0],[166.2562,55.2546,0.3731],[166.2433,55.2578,6.368],[166.2422,55.2656,4.6246],[166.2495,55.2694,18.1184],[166.2589,55.2694,0.0],[166.26,55.2744,0.3278],[166.2633,55.2778,2.6142],[166.2633,55.2806,8.129],[166.2667,55.2853,0.0],[166.2856,55.2883,1.8069],[166.2983,55.2969,0.0],[166.3006,55.3003,4.0887],[166.2917,55.3008,1.4829],[166.2861,55.3031,14.9378],[166.2844,55.3092,5.832],[166.2805,55.3117,7.6258],[166.2772,55.3172,0.0],[166.2706,55.3197,8.0723],[166.2683,55.3217,5.79],[166.2689,55.3228,0.0],[166.2594,55.3261,2.5417],[166.2572,55.3289,0.0],[166.2487,55.329,0.0],[166.2468,55.3229,34.2964],[166.2411,55.317,25.2348],[166.2356,55.3153,17.5976],[166.2328,55.3167,0.4627],[166.2228,55.3158,3.0406],[166.2114,55.3121,0.9363],[166.1972,55.3175,0.0473],[166.1872,55.3144,10.3509],[166.1817,55.315,20.3516],[166.1761,55.3203,18.0367],[166.17,55.3186,23.1525],[166.1539,55.3194,0.5415],[166.1378,55.3256,0.0],[166.135,55.3253,15.224],[166.1339,55.3217,5.0763],[166.1306,55.3208,1.5867],[166.1278,55.3231,0.0],[166.1061,55.3306,0.5809],[166.0842,55.3333,6.6576],[166.0752,55.3373,37.4457],[166.0726,55.3409,0.5329],[166.0665,55.3442,1.1117],[166.0318,55.3558,1.0228],[166.0202,55.3579,0.3509],[166.0136,55.3564,6.8021],[165.9973,55.3574,0.0],[165.9923,55.3583,1.7622],[165.9912,55.3607,0.0],[165.9876,55.3613,3.7091]]],
[[[165.9342,55.2039,8.0218],[165.9371,55.2041,8.9639],[165.9371,55.2067,8.0098],[165.9321,55.209,0.0],[165.9307,55.205,0.8601],[165.9342,55.2039,8.0218]]],
[[[165.7883,55.2117,0.0],[165.7906,55.2111,0.0],[165.7925,55.213,0.0],[165.7907,55.2168,5.2381],[165.7881,55.2157,0.0],[165.7883,55.2117,0.0]]]]}}