{"type":"Feature","properties":{"GID_3":"RUS.2.24.1_1","GID_0":"RUS","country":"Russia","GID_1":"RUS.2_1","province":"Altay","NL_NAME_1":"Алтайскийкрай","GID_2":"RUS.2.24_1","county":"Kur'inskiyrayon","NL_NAME_2":"Курьинскийрайон","city":"NA","VARNAME_3":"NA","NL_NAME_3":"NA","TYPE_3":"NA","ENGTYPE_3":"NA","CC_3":"NA","HASC_3":"NA","name":"N_A.city"},
"geometry":{"type": "MultiPolygon","coordinates": [[[[82.5006,51.7304,247.3416],[82.4564,51.7438,206.3962],[82.4158,51.7965,201.9809],[82.4186,51.8205,196.2251],[82.3913,51.7933,215.6461],[82.3246,51.7727,278.4803],[82.1663,51.7592,213.1512],[82.1423,51.742,215.0826],[82.1108,51.7376,223.5858],[82.1119,51.7122,224.0843],[82.1104,51.6827,231.9951],[82.0706,51.657,245.5815],[82.0198,51.6682,228.524],[81.9735,51.6923,243.7447],[81.953,51.668,253.2219],[81.9491,51.621,242.1495],[81.9543,51.5643,261.8997],[81.9621,51.5477,276.0247],[81.9525,51.5195,284.2656],[82.0213,51.4889,283.5134],[82.0532,51.4887,286.6352],[82.0961,51.5007,296.3463],[82.1272,51.4825,318.9137],[82.097,51.4499,326.218],[82.0881,51.4266,327.8807],[82.0894,51.4108,344.405],[82.1281,51.3598,351.0898],[82.1899,51.3665,336.5],[82.2368,51.3433,359.2584],[82.2781,51.3126,511.6356],[82.3094,51.3132,485.5897],[82.3808,51.2658,637.3063],[82.453,51.2062,688.993],[82.5572,51.1482,541.1161],[82.6391,51.1364,622.8881],[82.7324,51.1255,702.9363],[82.7757,51.1223,739.2259],[82.8327,51.1458,700.842],[82.8637,51.1774,781.1918],[82.875,51.2094,773.867],[82.9022,51.2328,747.4954],[82.9395,51.2096,874.9346],[82.9277,51.1445,652.9168],[82.9107,51.1049,857.3256],[82.8971,51.0782,959.012],[82.8933,51.0596,1279.6149],[82.9135,51.0544,1508.1813],[82.9345,51.0579,1508.6885],[82.9916,51.0946,1343.347],[82.987799999999993,51.1204,786.7278],[83.0204,51.22,955.3655],[82.9904,51.2575,645.1979],[82.9328,51.2925,699.7086],[82.8806,51.3188,562.4131],[82.8359,51.3077,405.7186],[82.7818,51.3073,559.3451],[82.7617,51.3389,565.4334],[82.7175,51.4241,606.1066],[82.6279,51.5026,422.0118],[82.4883,51.5935,309.5127],[82.4873,51.6226,253.9256],[82.5867,51.6608,260.8203],[82.5727,51.6887,224.5874],[82.5218,51.7038,217.229],[82.5006,51.7304,247.3416]]]]}}