{"type":"Feature","properties":{"featurecla":"Lake","scalerank":9,"name":"null447","name_abb":null,"name_alt":null,"note":"_untitled_299","delta":null,"dam_name":null,"year":-99,"admin":null,"min_zoom":7.0,"min_label":8.0},
"geometry":{"type": "Polygon","coordinates": [[[136.59805820462879,51.49499672197777,75.9013],[136.585106183035,51.507654379444432,75.4028],[136.54683884650785,51.525021862945209,72.0],[136.52152353157453,51.537973884539014,74.4846],[136.51063205887067,51.545921715971559,74.9688],[136.51622497728619,51.549454085497132,72.0],[136.52623335760865,51.551220270259932,75.067],[136.535947373804,51.555930096294048,77.248],[136.54065719983811,51.563289199472337,76.4036],[136.53624173793116,51.573003215667683,72.9208],[136.5174024337947,51.581834139481629,72.0],[136.49444203187846,51.580067954718828,72.0],[136.47118726583506,51.57182575915914,72.9387],[136.44233958137613,51.556518824548306,75.2468],[136.4338030216893,51.55092590613279,75.5571],[136.42703264676527,51.543861167081644,75.2864],[136.42350027723973,51.5350302432677,72.5236],[136.42438336962113,51.523255678182437,74.9305],[136.43144810867227,51.516779667385521,75.282],[136.43939594010482,51.512658569605691,74.8239],[136.44381140201182,51.508243107698718,72.0],[136.43674666296062,51.472036320061505,72.0],[136.43792411946913,51.453491380052213,76.9974],[136.46471125503814,51.440833722585552,72.0],[136.46736053218234,51.430530978135948,72.4615],[136.46588871154665,51.420228233686345,74.1301],[136.46412252678385,51.415518407652229,73.9948],[136.46529998329243,51.403743842566968,72.0],[136.46853798869085,51.396973467642937,72.0],[136.47501399948777,51.392558005735964,72.0],[136.48502237981023,51.387553815574734,72.0],[136.50945460236215,51.3807834406507,72.0],[136.53094318364276,51.383138353667761,74.8054],[136.55007685190634,51.391969277481707,74.0],[136.58628363954352,51.4199338695592,73.7868],[136.60159057415439,51.435240804170064,74.5978],[136.61012713384116,51.4523139235437,75.105],[136.60836094907842,51.473508140697163,75.0216],[136.59805820462879,51.49499672197777,75.9013]]]}}