{"type":"Feature","properties":{"featurecla":"Lake","scalerank":7,"name":"null366","name_abb":null,"name_alt":null,"note":"_untitled_145","delta":null,"dam_name":null,"year":-99,"admin":null,"min_zoom":5.7,"min_label":6.7},
"geometry":{"type": "Polygon","coordinates": [[[140.74093892987992,51.665433551587029,90.6813],[140.72592635939617,51.671026470002516,11.3766],[140.68206610445355,51.677796844926547,13.6347],[140.66528734920706,51.678385573180805,4.0],[140.60376524663656,51.668671556985458,5.994],[140.42361440083198,51.620101476008756,4.0],[140.36062047762579,51.624222573788586,4.0],[140.3226475052258,51.665433551587029,76.9066],[140.33442207031106,51.676619388418032,64.3572],[140.31793767919169,51.685155948104835,6.6964],[140.29115054362273,51.687805225249036,4.0],[140.25082265820566,51.675736296036632,4.0],[140.23080589756074,51.686333404613379,4.0],[140.21491023469559,51.704583980495528,26.2758],[140.20490185437313,51.725778197649021,29.7222],[140.20313566961033,51.732842936700166,6.4448],[140.20725676739016,51.7387302192428,6.1308],[140.22285806612814,51.741085132259855,7.9832],[140.28732380997002,51.742851317022655,42.0592],[140.33265588554826,51.754037153853659,26.724],[140.35031773317615,51.761690621159062,16.0274],[140.3679795808041,51.772876457990066,10.2634],[140.385641428432,51.788183392600928,9.4437],[140.39947654240717,51.80672833261022,9.0953],[140.40506946082269,51.82674509325517,5.7175],[140.41448911289086,51.839402750721831,7.3183],[140.43686078655287,51.837047837704773,4.0],[140.48072104149549,51.823801451983854,30.2554],[140.52428693231099,51.826156365000912,54.3732],[140.60788634441639,51.846173125645862,49.3849],[140.65204096348612,51.850882951679978,18.5473],[140.63732275712954,51.866484250417955,5.379],[140.6081807085435,51.8770813589947,3.0],[140.55225152438851,51.884440462172989,8.6578],[140.52428693231099,51.891505201224135,3.0],[140.50927436182729,51.89356575011405,19.2777],[140.49749979674203,51.888267195825705,3.0],[140.47630557958854,51.875020810104758,3.0],[140.45275644941802,51.8641293374009,3.0],[140.4274411344847,51.864718065655154,3.0],[140.4088961944754,51.875903902486158,110.7303],[140.4027145478056,51.894154478368336,4.2653],[140.4274411344847,51.935071092039635,112.5048],[140.4274411344847,51.955087852684585,28.0131],[140.41861021067075,51.973338428566734,4.9145],[140.37121758620253,52.017198683509378,83.3045],[140.35620501571879,52.021319781289208,5.2978],[140.33972062459941,52.011311400966719,4.8254],[140.33824880396378,51.995121373974484,5.4036],[140.35385010270176,51.976576433965192,5.7423],[140.37327813509245,51.959208950464415,4.7817],[140.38446397192342,51.946551292997754,5.7415],[140.38740761319474,51.925062711717146,3.0],[140.37386686334673,51.836459109450516,3.0],[140.36415284715139,51.813204343407108,3.0],[140.34884591254053,51.792304490380758,11.9611],[140.32941788014983,51.775231371007123,24.0048],[140.30851802712345,51.765222990684663,30.2517],[140.28379144044442,51.758746979887746,10.0347],[140.20431312611885,51.7534484255994,5.6191],[140.18576818610956,51.746678050675371,3.5],[140.1775259905499,51.732254208445909,7.1592],[140.1792921753127,51.706350165258328,7.0936],[140.19136110452507,51.687805225249036,8.5225],[140.1937160175421,51.676913752545147,5.8336],[140.18253018071113,51.67220392651106,4.0],[140.15574304514212,51.669260285239744,5.9056],[140.14073047465843,51.669554649366859,4.0],[140.12777845306465,51.675441931909489,7.9782],[140.1109996978181,51.680151757943605,7.1454],[140.03505375301813,51.67220392651106,4.0],[140.04682831810345,51.680740486197863,7.6948],[140.11011660543676,51.754331517980773,6.1756],[140.11335461083519,51.759041344014889,6.5965],[140.11394333908947,51.763751170049005,6.2248],[140.11011660543676,51.767283539574578,4.0],[140.10687860003827,51.767872267828835,4.0],[140.08509565463055,51.764634262430405,4.454],[140.07979710034215,51.763162441794748,8.7596],[140.07508727430809,51.76080752877769,9.9059],[139.94232905297167,51.66219554618857,4.4364],[139.93349812915773,51.652775894120367,10.4394],[139.90582790120737,51.6150972858475,4.5],[139.89523079263063,51.605677633779294,4.5],[139.889343510088,51.601850900126578,6.5113],[139.85990709737479,51.589193242659917,5.0],[139.85578599959496,51.5853665090072,5.0],[139.85578599959496,51.580656682973085,5.0],[139.85755218435776,51.578890498210313,5.7021],[139.86137891801047,51.577418677574656,9.3529],[139.88551677643528,51.57359194392194,12.2824],[139.88904914596083,51.571237030904882,12.9248],[139.94144596059027,51.590076335041317,7.2494],[140.00267369903366,51.623339481407186,7.1974],[140.0344650247639,51.645416790942079,6.8379],[140.05242123651891,51.653953350628882,9.7734],[140.072732361291,51.65807444840874,6.8697],[140.1563317733964,51.65542517126454,5.8588],[140.18547382198244,51.648949160467652,6.3385],[140.19960330008479,51.637468959509505,4.0],[140.18782873499947,51.6177465629917,4.0],[140.12012498575922,51.585955237261459,4.0],[140.09716458384293,51.569176482014967,4.0],[140.12189117052202,51.539151341047528,5.0099],[140.13631501275148,51.531203509614983,6.9546],[140.1616303276848,51.528259868343667,7.3238],[140.17222743626149,51.530320417233582,15.4965],[140.17811471880412,51.5359133356491,17.6459],[140.18606255023673,51.549454085497132,64.1804],[140.18429636547393,51.550631542005675,70.5069],[140.18341327309253,51.556518824548306,51.8568],[140.18370763721964,51.563877927726594,37.7335],[140.18606255023673,51.569176482014967,88.3985],[140.18988928388944,51.571531395032025,106.8756],[140.2025469413561,51.574769400430455,63.6165],[140.20696240326305,51.576535585193255,52.9504],[140.22668479978086,51.58860451440566,52.7469],[140.24640719629872,51.597141074092463,18.437],[140.26730704932504,51.602145264253721,14.915],[140.29173927187696,51.603911449016493,14.7879],[140.30586874997931,51.594786161075433,4.0],[140.31764331506457,51.577124313447513,34.3315],[140.33265588554826,51.566232840743652,43.198],[140.35679374397307,51.576535585193255,23.5833],[140.38416960779631,51.559756829946764,36.6237],[140.41390038463663,51.557107552802563,15.0854],[140.55872753518543,51.582422867735886,18.5405],[140.60876943679779,51.600379079490921,67.2832],[140.61789472473885,51.608915639177752,21.828],[140.611418713942,51.630698584585474,144.5997],[140.61995527362876,51.640706964907963,265.8327],[140.63290729522259,51.648066068086251,113.2768],[140.64468186030786,51.651598437611824,51.3573],[140.65910570253732,51.65130407348471,10.2053],[140.67529572952952,51.647182975704851,4.0],[140.69060266414039,51.64129569316222,4.0],[140.71738979970939,51.626871850932758,30.0345],[140.7335798267016,51.623928209661443,12.141],[140.76890352195738,51.623928209661443,32.1413],[140.74741494067678,51.658368812535855,199.84],[140.74093892987992,51.665433551587029,90.6813]]]}}