{"type":"Feature","properties":{"featurecla":"Lake","scalerank":9,"name":"null446","name_abb":null,"name_alt":null,"note":"_untitled_300","delta":null,"dam_name":null,"year":-99,"admin":null,"min_zoom":7.0,"min_label":8.0},
"geometry":{"type": "Polygon","coordinates": [[[140.11247151845379,52.218838110594561,2.0],[140.08303510574063,52.220309931230219,2.0],[140.0521268723918,52.222076115993019,2.0],[140.02681155745847,52.219426838848818,2.0],[139.97824147648174,52.207652273763557,2.0],[139.92378411296238,52.179982045813176,2.0],[139.9081828142244,52.168796208982172,2.0],[139.89464206437634,52.165558203583714,2.0],[139.87668585262134,52.169679301363573,6.3426],[139.85814091261204,52.176155312160461,3.5495],[139.84342270625547,52.179393317558919,2.9066],[139.83223686942443,52.176155312160461,4.4419],[139.8254664945004,52.169973665490687,4.4897],[139.81722429894074,52.166441295965114,3.3738],[139.80162300020277,52.172034214380631,3.9969],[139.80191736432988,52.160259649295369,2.5],[139.80456664147408,52.149662540718623,2.3425],[139.80868773925391,52.139948524523277,4.9072],[139.81545811417794,52.130823236582188,2.0],[139.7836667884477,52.128762687692273,2.0],[139.77218658748956,52.124935954039557,2.0],[139.76011765827718,52.117871214988384,2.0],[139.74952054970043,52.107862834665923,2.0],[139.73333052270817,52.084313704495372,2.0],[139.72597141952991,52.076954601317084,2.0],[139.701539196978,52.069889862265939,2.0],[139.67298587664618,52.067829313376023,2.0],[139.64737619758574,52.06164766670625,2.0],[139.63059744233925,52.042808362569815,2.0],[139.64973111060283,52.033094346374469,2.0],[139.7018335611051,52.01984796065355,32.1912],[139.71213630555474,52.011311400966719,2.0],[139.71095884904616,51.9904115479404,2.0],[139.70566029475782,51.971866607931076,2.0],[139.69329700141827,51.960386406972958,4.0363],[139.67210278426484,51.959503314591558,5.7445],[139.67210278426484,51.953321667921784,5.6624],[139.68093370807878,51.953321667921784,5.3296],[139.68682099062141,51.951849847286127,2.0],[139.6991842839609,51.946551292997754,3.481],[139.68505480585861,51.939192189819465,5.0352],[139.7009504687237,51.93301054314972,5.5107],[139.70919266428342,51.93212745076832,5.3787],[139.71920104460588,51.93301054314972,3.4913],[139.71920104460588,51.9144656031404,5.1582],[139.73686289223377,51.914759967267543,9.8057],[139.75746838113298,51.921235978064431,3.0],[139.7674767614555,51.929183809497005,10.1601],[139.76512184843841,51.934187999658235,10.7022],[139.7604120224043,51.940075282200866,4.4638],[139.75717401700587,51.948023113633411,5.3192],[139.76011765827718,51.959503314591558,5.2036],[139.76453312018418,51.965684961261331,5.3891],[139.77042040272681,51.970689151422562,3.3813],[139.77807387003219,51.973338428566734,5.3856],[139.78808225035471,51.97392715682102,5.8829],[139.77571895701516,51.985996086033396,8.3763],[139.75746838113298,52.000125564135715,33.0056],[139.74746000081052,52.01484377049232,50.2511],[139.76011765827718,52.028384520340381,35.7687],[139.79867935893145,52.025440879069038,3.9087],[139.82428903799189,52.027795792086096,6.469],[139.83576923895004,52.0389816289171,2.0],[139.83900724434847,52.044280183205473,2.0],[139.84636634752678,52.051639286383761,2.0],[139.85372545070504,52.061058938451993,2.0],[139.85696345610347,52.073127867664368,2.0],[139.85254799419653,52.084019340368258,2.0],[139.83341432593295,52.091672807673689,2.0],[139.828998864026,52.100798095614749,2.0],[139.84077342911127,52.110217747682981,80.293],[139.8672662005531,52.114633209589954,2.0],[139.89523079263063,52.114927573717068,2.0],[139.91171518375,52.111689568318639,2.0],[139.90582790120737,52.096088269580662,2.0],[139.91554191740272,52.0928502641822,2.0],[139.93173194439493,52.096971361962034,2.0],[139.94556705837016,52.10433046514035,2.0],[139.9543979821841,52.114633209589954,4.0262],[139.95675289520113,52.123169769276757,36.216],[139.96322890599805,52.128762687692273,56.9506],[139.99472586760112,52.133178149599246,80.4328],[140.02033554666156,52.142892165794592,48.479],[140.03505375301813,52.14524707881165,3.6258],[140.06419580160417,52.140242888650391,27.3387],[140.0789140079608,52.140537252777534,2.4976],[140.09363221431738,52.14848508421008,39.2223],[140.1154151597251,52.168207480727915,70.7121],[140.12189117052202,52.179687681686033,2.0],[140.12395171941193,52.196760801059696,4.2982],[140.12071371401345,52.21295082805193,4.3964],[140.11247151845379,52.218838110594561,2.0]]]}}