{"type":"Feature","properties":{"GID_2":"RUS.16.2_1","GID_0":"RUS","country":"Russia","GID_1":"RUS.16_1","province":"Gorno-Altay","NL_NAME_1":"РеспубликаАлтай","county":"Choyskiyrayon","VARNAME_2":"NA","NL_NAME_2":"Чойскийрайон","TYPE_2":"Raion","ENGTYPE_2":"District","CC_2":"R53010","HASC_2":"RU.GA.CO","name":"Choyskiyrayon.county"},
"geometry":{"type": "MultiPolygon","coordinates": [[[[86.1205,52.067,347.5294],[86.1379,52.0107,666.7363],[86.1335,51.9766,579.1128],[86.0877,51.9057,806.6313],[86.1015,51.8675,433.7266],[86.1238,51.8145,703.4951],[86.174,51.7595,681.8613],[86.237,51.7108,786.0961],[86.2511,51.667,825.4739],[86.2954,51.6447,1020.3534],[86.3595,51.5747,1496.7797],[86.4053,51.5135,1667.7151],[86.5639,51.3901,2047.0508],[86.606,51.3292,1888.7986],[86.6652,51.331,1979.4169],[86.6971,51.3164,1799.4956],[86.7288,51.2672,2138.5146],[86.7621,51.2089,1846.7268],[86.8256,51.1618,1974.5822],[86.9082,51.1813,1911.8525],[86.9721,51.1723,2178.6191],[87.0217,51.157,2198.801],[87.0414,51.1649,2192.2725],[87.0917,51.2241,2039.5056],[87.1002,51.2615,2194.4885],[87.0924,51.294,1920.6184],[87.0695,51.3676,1647.02],[86.9624,51.6327,841.8639],[86.9288,51.7541,674.8225],[86.877,51.8352,431.1013],[86.8417,51.8764,488.402],[86.8193,51.9238,714.64],[86.8559,51.9635,691.2878],[86.9053,51.9964,402.0726],[86.8794,52.099,514.1157],[86.8336,52.1083,526.1549],[86.7676,52.1096,765.5584],[86.7539,52.1404,662.1643],[86.7292,52.181,417.067],[86.7194,52.1297,445.0979],[86.6733,52.1176,604.1125],[86.6184,52.122,522.8718],[86.5661,52.1406,510.4153],[86.4817,52.1376,290.4447],[86.4338,52.1261,267.174],[86.4131,52.0984,364.4159],[86.4067,52.0605,402.3473],[86.353,52.0315,451.3123],[86.2893,52.0262,494.7912],[86.1778,52.0521,523.1885],[86.1205,52.067,347.5294]]]]}}