{"type":"Feature","properties":{"GID_3":"RUS.24.4.1_1","GID_0":"RUS","country":"Russia","GID_1":"RUS.24_1","province":"Kamchatka","NL_NAME_1":"Камчатскаякрай","GID_2":"RUS.24.4_1","county":"Karaginskiyrayon","NL_NAME_2":"Карагинскийрайон","city":"NA","VARNAME_3":"NA","NL_NAME_3":"NA","TYPE_3":"NA","ENGTYPE_3":"NA","CC_3":"NA","HASC_3":"NA","name":"N_A.city"},
"geometry":{"type": "MultiPolygon","coordinates": [[[[157.5401,57.8357,16.3729],[157.5336,57.8292,1.5518],[157.5432,57.8339,73.4026],[157.5799,57.8722,111.2782],[157.5823,57.8788,102.617],[157.5785,57.8864,42.2982],[157.5803,57.889,12.96],[157.574,57.8838,0.0],[157.5783,57.8825,22.394],[157.5774,57.8775,3.6785],[157.5786,57.876,0.0],[157.5741,57.869,0.0],[157.56,57.8547,0.0],[157.5548,57.8513,13.1163],[157.548,57.8429,22.3452],[157.5401,57.8381,21.7284],[157.5401,57.8357,16.3729]]],
[[[157.5844,57.9074,0.0],[157.5833,57.9066,0.0],[157.5884,57.9053,4.5761],[157.5884,57.9148,71.0113],[157.5868,57.9221,39.8247],[157.5845,57.9242,0.0],[157.5837,57.9209,0.0],[157.5799,57.9173,6.505],[157.5861,57.9158,16.5446],[157.5876,57.9102,51.8591],[157.5844,57.9074,0.0]]],
[[[157.575,57.9306,15.748],[157.5793,57.9289,30.8681],[157.5772,57.9309,90.3668],[157.5785,57.9328,72.0935],[157.5963,57.9346,37.5051],[157.6137,57.94,100.5952],[157.6375,57.9561,134.8769],[157.6507,57.9609,101.1428],[157.6713,57.98,40.7081],[157.6722,57.9852,22.5671],[157.6698,57.9803,40.7081],[157.6644,57.975,37.6838],[157.6567,57.9719,0.0],[157.655,57.9681,1.5855],[157.6433,57.9614,19.0604],[157.6283,57.9564,0.0],[157.6222,57.9483,31.214],[157.6122,57.9419,47.2234],[157.5933,57.935,9.7514],[157.5778,57.9342,2.4239],[157.5744,57.9331,0.0],[157.575,57.9306,15.748]]],
[[[157.8212,57.9844,1.6537],[157.8261,57.9836,33.4291],[157.8207,57.9845,1.6537],[157.8212,57.9844,1.6537]]],
[[[157.8477,57.9814,12.9643],[157.8317,57.9828,12.0033],[157.8811,57.9761,97.0629],[157.896,57.9772,21.5366],[157.9126,57.9761,48.7804],[157.9324,57.9724,30.3274],[157.9934,57.9785,61.9117],[158.0137,57.9831,0.0],[158.0389,57.9847,33.4936],[158.0731,57.9931,0.0],[158.1003,57.9956,0.0],[158.1155,58.0,0.0],[158.0,58.0,0.0],[158.0,57.9803,41.6514],[157.9766,57.9785,46.1356],[157.9499,57.9771,2.1249],[157.9022,57.9775,9.796],[157.8477,57.9814,12.9643]]],
[[[157.7618,57.9975,42.9372],[157.762,57.9972,42.9372],[157.7622,57.9969,0.0],[157.7622,57.9972,0.0],[157.7618,57.9975,42.9372]]],
[[[157.7611,57.9989,0.0],[157.7594,58.0003,41.0503],[157.7588,58.0005,0.0],[157.7617,57.9975,42.9372],[157.7611,57.9989,0.0]]],
[[[157.6661,57.9978,0.0],[157.6584,58.0018,74.8764],[157.6781,58.0128,91.011],[157.7049,58.0112,72.6355],[157.7167,58.0123,0.0],[157.69,58.013,25.4065],[157.6772,58.0172,0.0],[157.675,58.0133,43.3666],[157.6567,58.0056,0.0],[157.6528,58.0022,0.5764],[157.6661,57.9978,0.0]]],
[[[161.9895,57.9946,0.7534],[161.9917,57.9942,0.7534],[161.9953,57.9964,0.0],[161.9891,57.9983,1.404],[161.9791,57.993899999999996,0.0],[161.9785,57.9924,0.3781],[161.9834,57.9902,0.2791],[161.9866,57.9941,0.0],[161.9895,57.9946,0.7534]]],
[[[161.9924,58.0008,0.4971],[161.9942,58.0032,1.0085],[161.9926,58.0106,0.9224],[161.9883,58.0139,0.2762],[161.985,58.0134,1.235],[161.9826,58.0105,1.0319],[161.9863,58.0077,0.5216],[161.9896,58.0087,0.5874],[161.9905,58.0077,0.5874],[161.9867,58.003,0.6778],[161.9787,57.9995,0.2767],[161.9744,57.9944,0.4883],[161.981,57.9957,0.8296],[161.9856,57.9994,0.2637],[161.9924,58.0008,0.4971]]],
[[[158.1958,58.0232,1.6275],[158.1892,58.0237,0.0],[158.1839,58.0219,3.5142],[158.2021,58.0211,4.0863],[158.2188,58.0176,19.488],[158.2164,58.0205,0.0],[158.2169,58.0282,0.5681],[158.1992,58.0225,0.0],[158.1958,58.0232,1.6275]]],
[[[158.2185,58.0297,0.3964],[158.2185,58.0295,0.3964],[158.2208,58.0316,0.8808],[158.2193,58.0308,0.8808],[158.2185,58.0297,0.3964]]],
[[[157.7483,58.015,0.0],[157.7472,58.0147,0.0],[157.7509,58.015,3.1338],[157.7483,58.015,0.0]]],
[[[157.7592,58.0173,0.0],[157.7567,58.0167,0.0],[157.756,58.0154,0.8894],[157.7589,58.0156,0.0],[157.7592,58.0173,0.0]]],
[[[162.4485,57.8237,0.4909],[162.449,57.8246,0.0],[162.4526,57.8213,0.0],[162.4678,57.8193,0.0],[162.4633,57.8274,0.0],[162.4512,57.8319,18.7733],[162.4413,57.8278,0.0],[162.4466,57.8255,10.2102],[162.4472,57.8223,0.0],[162.4485,57.8237,0.4909]]],
[[[162.5661,58.7656,1.2766],[162.56,58.7625,1.7558],[162.5622,58.7619,2.0258],[162.5744,58.7678,0.7248],[162.5689,58.7669,1.5632],[162.5661,58.7656,1.2766]]],
[[[162.5867,58.7869,0.0],[162.58,58.7881,0.3592],[162.5839,58.7853,0.0],[162.5878,58.7864,0.0],[162.5867,58.7869,0.0]]],
[[[162.7256,58.8422,0.0],[162.7261,58.8403,0.0],[162.7294,58.8419,1.0397],[162.7289,58.8428,0.8592],[162.7256,58.8422,0.0]]],
[[[164.5933,59.2342,0.0],[164.5903,59.2392,3.7958],[164.5885,59.2397,9.2414],[164.5706,59.2311,23.8188],[164.5607,59.2285,47.429],[164.5466,59.2298,18.6719],[164.5266,59.2212,0.0],[164.5085,59.2105,0.0],[164.4916,59.203,9.2673],[164.4631,59.1963,7.5884],[164.4462,59.1942,0.0],[164.4423,59.1926,2.0672],[164.4383,59.1872,0.0],[164.4355,59.1861,7.4836],[164.3949,59.1762,5.9198],[164.3895,59.1678,0.0],[164.382,59.1647,9.6409],[164.3741,59.1559,33.3269],[164.3706,59.1428,9.6096],[164.3526,59.1289,9.5467],[164.3323,59.1209,0.0],[164.302,59.1114,0.3145],[164.2789,59.1058,6.0727],[164.2744,59.1061,0.0],[164.255,59.1003,3.3736],[164.1877,59.0876,0.0],[164.1295,59.0701,2.52],[164.1199,59.0654,5.3694],[164.1182,59.0632,8.6218],[164.0967,59.0561,2.5314],[164.0611,59.0492,0.0],[164.0145,59.0375,1.2696],[163.9656,59.0297,0.5354],[163.8832,59.0209,1.2562],[163.8305,59.0206,0.0],[163.7611,59.0155,0.0],[163.7256,59.0075,0.0],[163.6971,58.9928,1.0835],[163.687,58.9855,2.1878],[163.6936,58.9864,0.5212],[163.7031,58.9919,0.0],[163.7202,58.9951,0.0],[163.7211,59.0,0.7213],[163.7237,59.0022,2.4301],[163.7502,59.0081,0.0],[163.7688,59.0146,0.8482],[163.8063,59.0112,0.0],[163.7945,59.0133,1.4313],[163.7964,59.0149,1.4523],[163.8057,59.0153,0.0],[163.8103,59.0174,0.9783],[163.8188,59.0184,0.0],[163.8408,59.0178,1.2447],[163.8454,59.0155,1.2207],[163.8629,59.0161,0.2804],[163.8675,59.0194,0.879],[163.8841,59.0197,0.0],[163.9249,59.0242,1.1588],[163.9274,59.0196,0.0],[163.9352,59.0143,0.0],[163.9398,59.0129,0.0],[163.946,59.0136,0.0],[163.9495,59.011,0.0],[163.9486,59.0053,1.2805],[163.9394,59.0,0.908],[163.9411,58.9997,0.908],[163.9406,58.9986,3.3075],[163.9389,58.9981,2.9391],[163.9289,59.0027,0.4002],[163.9234,59.0026,0.0],[163.9242,58.9936,0.4407],[163.9182,58.9872,1.0456],[163.8972,58.9779,16.0335],[163.8853,58.9748,0.5109],[163.8619,58.9612,6.4105],[163.845,58.9479,25.5662],[163.8324,58.9321,6.7924],[163.8191,58.9208,2.5112],[163.8057,58.9126,2.1349],[163.7971,58.904,0.0],[163.7731,58.8853,0.0],[163.7728,58.8819,1.2713],[163.7742,58.8805,1.2713],[163.7713,58.8732,0.0],[163.7721,58.86,0.0],[163.774,58.8581,1.6764],[163.7724,58.8534,0.0],[163.774,58.851,1.7339],[163.772,58.8419,0.0],[163.7744,58.8364,1.1052],[163.7732,58.825,3.1776],[163.7685,58.8098,11.5351],[163.7627,58.8005,8.8416],[163.7474,58.779,0.0],[163.7386,58.7633,0.0],[163.7187,58.7403,14.9688],[163.6868,58.7165,22.0384],[163.6835,58.7126,17.5029],[163.6656,58.7047,7.8996],[163.662,58.7015,14.6254],[163.6595,58.6959,0.0],[163.6467,58.6805,0.0],[163.6423,58.6722,6.891],[163.6377,58.6555,4.2026],[163.6288,58.6345,20.8022],[163.6182,58.6224,2.514],[163.6097,58.6157,0.0],[163.6034,58.6062,2.3884],[163.5922,58.5949,4.499],[163.5726,58.5793,1.5768],[163.5652,58.5754,4.7461],[163.5509,58.5719,3.6186],[163.517,58.5671,0.0],[163.4556,58.5638,0.0],[163.4279,58.5593,0.0],[163.4148,58.5543,2.4918],[163.4085,58.5411,1.0435],[163.4382,58.5213,0.0],[163.4487,58.5074,0.0],[163.4494,58.5013,0.0],[163.4481,58.4967,0.6108],[163.4407,58.49,0.0],[163.4417,58.4874,5.1589],[163.4527,58.4796,1.4281],[163.4535,58.4769,0.0],[163.4638,58.4661,0.0],[163.471,58.4609,2.8869],[163.4801,58.4574,6.4172],[163.4831,58.4515,0.0],[163.4893,58.4488,4.6414],[163.493,58.4515,0.0],[163.4952,58.4563,2.6947],[163.5042,58.4613,26.1515],[163.5014,58.465,0.0],[163.5027,58.4692,0.0],[163.4994,58.4735,0.0],[163.4983,58.4787,7.2596],[163.5025,58.4884,0.0],[163.5059,58.4913,0.0],[163.5067,58.4995,19.5406],[163.5091,58.5035,15.1569],[163.5192,58.5073,20.933],[163.5444,58.5237,0.0],[163.5502,58.5318,0.0],[163.5491,58.5346,0.0],[163.5501,58.5374,0.8183],[163.5546,58.5418,0.0],[163.5625,58.5446,3.7446],[163.5746,58.5459,17.2462],[163.5773,58.5637,0.0],[163.5804,58.5685,1.7862],[163.5875,58.5741,7.6848],[163.598,58.578,0.0],[163.6033,58.5816,1.2417],[163.6169,58.585,0.0],[163.6241,58.5885,7.2093],[163.6521,58.5895,4.1038],[163.6617,58.5925,19.7482],[163.6681,58.5918,0.0],[163.672,58.595,0.0],[163.6778,58.5955,0.2354],[163.6743,58.5988,0.0],[163.6761,58.6033,0.0],[163.6797,58.6056,28.7852],[163.6948,58.6114,0.8556],[163.7163,58.6149,0.898],[163.7216,58.6198,0.0],[163.7224,58.6227,1.4304],[163.7301,58.6234,0.0],[163.7447,58.6284,0.0],[163.7575,58.634,3.1956],[163.7587,58.6358,66.8986],[163.7748,58.6419,0.0],[163.7793,58.6447,0.0],[163.7847,58.6525,99.9251],[163.7912,58.6573,49.7582],[163.7971,58.6588,112.1727],[163.8033,58.6628,33.7892],[163.809,58.6699,21.2139],[163.8288,58.6783,0.0],[163.8418,58.6881,39.9313],[163.8521,58.6916,0.0],[163.8611,58.6971,67.1558],[163.8754,58.699,18.112],[163.8802,58.6978,0.0],[163.8881,58.7005,17.8322],[163.8977,58.6984,0.0],[163.9078,58.7007,25.9429],[163.9191,58.6977,0.0],[163.9335,58.703,9.0006],[163.9449,58.7034,0.0],[163.9486,58.705,0.0],[163.9579,58.7142,7.6795],[163.9636,58.7155,18.9527],[163.9706,58.7229,10.7813],[163.9797,58.728,0.0],[163.9919,58.74,15.7891],[163.9986,58.7433,6.0725],[164.0056,58.7444,15.2644],[164.0106,58.7422,6.6001],[164.0178,58.7431,0.0],[164.0206,58.7442,0.0],[164.0211,58.7469,7.8016],[164.0289,58.7497,8.3407],[164.0471,58.7522,11.5116],[164.0567,58.7585,0.0],[164.0767,58.7631,5.5396],[164.0822,58.7664,2.7092],[164.0872,58.7667,0.0],[164.0917,58.77,0.0],[164.1033,58.7736,0.0],[164.1111,58.7783,4.358],[164.1178,58.7797,0.0],[164.1172,58.7808,0.0],[164.1239,58.7836,0.0],[164.1222,58.7847,65.7243],[164.1251,58.788,0.0],[164.1389,58.7956,17.2444],[164.1361,58.7983,42.9625],[164.1405,58.8006,25.7456],[164.1872,58.8147,2.2514],[164.2061,58.8161,7.7287],[164.2228,58.8144,4.41],[164.2328,58.81,0.0],[164.2406,58.8042,1.5211],[164.2533,58.8083,0.0],[164.2578,58.8081,0.0],[164.2622,58.805,0.0],[164.2661,58.8056,7.4435],[164.2822,58.8144,3.2615],[164.3,58.8192,2.5204],[164.31,58.8242,2.9755],[164.3161,58.8244,0.0],[164.3183,58.8275,12.626],[164.3278,58.8325,0.0],[164.3317,58.8378,8.1469],[164.3378,58.8406,10.7238],[164.3511,58.8428,4.6952],[164.3644,58.8414,0.0],[164.3922,58.85,0.0],[164.4265,58.8527,0.0],[164.4339,58.8592,12.828],[164.4428,58.8628,10.1574],[164.4611,58.8644,0.0],[164.47,58.8669,2.8023],[164.4845,58.8672,4.4129],[164.5005,58.8622,7.5203],[164.5145,58.8606,7.0128],[164.5228,58.8608,0.0],[164.53,58.8636,0.0],[164.5372,58.8622,0.0],[164.5417,58.8658,9.6373],[164.5467,58.8633,0.0],[164.5706,58.8706,19.0996],[164.5825,58.8692,7.3886],[164.5972,58.8706,15.7298],[164.61,58.8644,0.0],[164.6241,58.8655,12.3306],[164.6241,58.867,12.3306],[164.6283,58.8697,7.6162],[164.6407,58.871,3.9713],[164.645,58.8775,31.9481],[164.6608,58.8849,3.2271],[164.6717,58.8922,1.5813],[164.6706,58.8944,4.8622],[164.6733,58.8975,0.0],[164.67,58.8997,2.2937],[164.6711,58.9008,7.4967],[164.6772,58.9028,14.3045],[164.6837,58.9008,9.9611],[164.6962,58.9094,7.2776],[164.6968,58.9119,0.0],[164.6989,58.9131,0.0],[164.6967,58.9164,0.0],[164.7039,58.9228,11.1352],[164.7038,58.9271,3.4167],[164.7004,58.9328,0.0],[164.6946,58.9347,5.2968],[164.6852,58.9411,3.1004],[164.69,58.9426,5.9698],[164.6883,58.95,12.8995],[164.6923,58.9551,16.5331],[164.6891,58.957,0.0],[164.6881,58.9602,7.2093],[164.6902,58.9625,0.0],[164.6869,58.9647,0.0],[164.6852,58.9696,0.7582],[164.6911,58.9711,0.0],[164.69,58.9761,0.0],[164.6917,58.9769,0.0],[164.6911,58.9792,18.9192],[164.6956,58.9803,0.0],[164.6989,58.9833,0.0],[164.6961,58.9861,13.6043],[164.6978,58.9872,0.0],[164.6967,58.9886,0.0],[164.7022,58.9908,0.0],[164.6983,58.9936,19.5711],[164.7,58.9953,0.0],[164.7,58.9983,0.0],[164.7055,59.0054,0.0],[164.7083,59.0086,0.0],[164.7144,59.0108,8.8091],[164.7178,59.0158,0.0],[164.7206,59.0169,0.0],[164.7206,59.0211,2.5083],[164.7233,59.0247,6.2299],[164.7356,59.0306,0.0],[164.7361,59.0328,0.0],[164.7345,59.0369,0.0],[164.7294,59.0386,43.9085],[164.7296,59.0407,0.0],[164.7261,59.0431,16.5356],[164.7293,59.045,3.8906],[164.7333,59.045,0.0],[164.7325,59.0471,0.0],[164.7222,59.0483,13.3093],[164.7184,59.0508,15.2904],[164.7178,59.055,8.3548],[164.7189,59.0558,0.0],[164.7078,59.0608,4.4534],[164.7094,59.0644,0.0],[164.7054,59.0672,0.0],[164.7039,59.0717,34.3586],[164.7,59.0739,0.0],[164.7011,59.0778,0.0],[164.6717,59.0928,6.2729],[164.672,59.0943,0.0],[164.6667,59.0983,26.4424],[164.6678,59.1003,6.634],[164.6628,59.1028,7.4273],[164.6611,59.1061,8.3908],[164.6555,59.1103,21.7794],[164.6493,59.1217,0.5752],[164.642,59.128,0.6221],[164.6378,59.1397,1.5903],[164.6373,59.1452,0.0],[164.6328,59.1508,105.1712],[164.6328,59.1672,119.5023],[164.6371,59.1748,0.0],[164.6349,59.1755,0.0],[164.635,59.1772,41.8083],[164.6395,59.1786,0.0],[164.6384,59.1804,27.6863],[164.6322,59.1811,0.0],[164.6239,59.1797,39.6484],[164.6122,59.1839,0.0],[164.6044,59.1827,0.0],[164.5995,59.1842,2.3326],[164.5946,59.19,0.0],[164.5885,59.2035,16.557],[164.5881,59.2124,0.0],[164.5889,59.2194,0.0],[164.5961,59.2261,0.0],[164.5933,59.2342,0.0]]],
[[[162.8156,58.8631,0.0],[162.8106,58.8733,1.5189],[162.8083,58.8675,0.9317],[162.8058,58.8661,0.5433],[162.8083,58.864,0.589],[162.8128,58.8647,0.9879],[162.8117,58.8636,0.0],[162.8142,58.8608,0.0],[162.8156,58.8631,0.0]]],
[[[162.8356,58.88,0.0],[162.8428,58.8839,0.5686],[162.8233,58.8811,0.5013],[162.825,58.8792,0.8949],[162.8356,58.88,0.0]]],
[[[162.8206,58.8825,0.9466],[162.8167,58.8806,0.0],[162.8167,58.8794,0.6995],[162.8244,58.8842,0.0],[162.8206,58.8825,0.9466]]],
[[[162.7772,58.8572,0.0],[162.7655,58.8581,4.7271],[162.7617,58.8564,0.2576],[162.7694,58.8525,0.0],[162.7719,58.8549,2.1283],[162.7761,58.8547,0.0],[162.7772,58.8572,0.0]]],
[[[163.7161,60.7673,61.4531],[163.6829,60.7908,28.4677],[163.6462,60.8073,64.5],[163.6507,60.8324,62.2227],[163.6684,60.8626,4.4189],[163.6672,60.863,7.9235],[163.6682,60.8661,0.0],[163.6604,60.8667,4.1314],[163.6521,60.8708,3.5363],[163.6354,60.8708,0.0],[163.625,60.8667,56.3014],[163.6104,60.8667,2.8783],[163.6026,60.8641,0.0],[163.5995,60.8609,27.7578],[163.5818,60.8557,0.0],[163.575,60.85,57.3855],[163.5625,60.85,0.0],[163.5583,60.8479,0.0],[163.5354,60.8479,0.0],[163.5313,60.8458,10.8791],[163.525,60.8458,0.0],[163.5188,60.8417,61.8291],[163.5021,60.8396,0.0],[163.4958,60.8354,44.1382],[163.488,60.8349,0.0],[163.4833,60.8312,66.0179],[163.4708,60.8312,0.0],[163.4661,60.8276,4.2504],[163.4599,60.8255,0.0],[163.4521,60.8229,44.6976],[163.4443,60.8224,0.0],[163.4396,60.8187,5.6089],[163.4292,60.8187,2.7969],[163.425,60.8167,6.4336],[163.4187,60.8167,6.3342],[163.4005,60.812,23.5745],[163.3932,60.8047,49.1765],[163.388,60.8036,0.0],[163.3891,60.8005,7.6619],[163.3745,60.7859,6.8632],[163.3693,60.7849,0.0],[163.3662,60.7818,4.7766],[163.3547,60.7786,0.0],[163.3557,60.7755,0.0],[163.3537,60.7734,0.0],[163.3443,60.7724,0.9433],[163.3495,60.7693,3.5636],[163.3443,60.7682,0.0],[163.3318,60.7557,0.5],[163.3328,60.7526,3.4101],[163.3297,60.7495,0.5],[163.3307,60.7464,0.5],[163.3245,60.7401,4.0088],[163.3193,60.7391,3.2893],[163.3161,60.7359,4.2822],[163.3083,60.7333,0.5],[163.3068,60.7339,0.5],[163.3078,60.737,0.5],[163.3068,60.7391,0.5],[163.3089,60.7411,0.5],[163.3141,60.7422,0.5],[163.3161,60.7443,0.5],[163.3151,60.7474,0.5],[163.3203,60.7484,0.5],[163.3193,60.7516,0.5],[163.3224,60.7568,0.5],[163.3214,60.7599,9.6147],[163.3266,60.7651,0.0],[163.3255,60.7724,14.0749],[163.3307,60.7776,0.0],[163.3297,60.7849,30.479],[163.337,60.7922,1.7267],[163.3359,60.7953,74.2077],[163.337,60.7974,1.1992],[163.3292,60.8,0.0],[163.3083,60.8,28.4838],[163.2875,60.7938,144.9358],[163.2771,60.7938,54.5659],[163.2729,60.7917,174.8399],[163.2667,60.7917,153.5148],[163.2625,60.7938,0.0],[163.2583,60.7917,94.9821],[163.2542,60.7938,0.0],[163.2312,60.7938,26.194],[163.2208,60.7979,0.0],[163.2146,60.7979,61.917],[163.213,60.7984,4.8381],[163.2141,60.8016,0.0],[163.2104,60.8042,0.0],[163.1917,60.8042,173.9121],[163.1859,60.7995,219.5327],[163.187,60.7964,274.4484],[163.1818,60.7953,254.6281],[163.1766,60.7901,216.0732],[163.1651,60.787,0.0],[163.162,60.7839,62.5366],[163.1542,60.7833,0.0],[163.1438,60.7792,0.0],[163.1375,60.7792,0.0],[163.1229,60.775,46.802],[163.1068,60.7745,18.3171],[163.1146,60.7708,0.0],[163.1187,60.7729,0.0],[163.1229,60.7729,0.0],[163.1307,60.7703,0.0],[163.1349,60.7661,0.0],[163.1339,60.7589,0.0],[163.1349,60.7568,0.0],[163.1271,60.7562,0.0],[163.1229,60.7542,0.0],[163.1083,60.7542,0.0],[163.1042,60.7521,74.1003],[163.0729,60.75,44.4846],[163.0682,60.7536,0.0],[163.063,60.7547,12.8947],[163.0599,60.7578,0.0],[163.0542,60.7583,19.387],[163.0339,60.7651,36.9702],[163.0349,60.7682,0.0],[163.0297,60.7693,103.2448],[163.0266,60.7724,37.7536],[163.0042,60.7729,169.2461],[162.9833,60.7667,203.7074],[162.9708,60.7667,133.4421],[162.9479,60.7583,133.8402],[162.9375,60.7583,0.0],[162.9333,60.7562,81.6819],[162.9187,60.7562,104.2827],[162.9083,60.7521,27.5107],[162.8963,60.7516,172.7279],[162.8922,60.7474,128.0977],[162.8932,60.7443,0.0],[162.8922,60.7422,0.0],[162.8953,60.7391,0.0],[162.8943,60.7318,0.0],[162.8953,60.7297,20.0622],[162.8901,60.7286,0.0],[162.8849,60.7234,57.3262],[162.8797,60.7224,0.0],[162.8776,60.7203,0.0],[162.8786,60.7172,0.0],[162.8734,60.7161,0.0],[162.8745,60.713,81.5822],[162.8693,60.712,0.0],[162.862,60.7047,42.2631],[162.8568,60.7036,0.0],[162.8537,60.7005,0.0],[162.8359,60.6953,0.0],[162.8307,60.6901,19.2708],[162.8255,60.6891,0.0],[162.8203,60.6839,37.8577],[162.8151,60.6828,0.0],[162.8109,60.6786,0.0],[162.8141,60.6755,38.5939],[162.7901,60.6516,0.0],[162.7912,60.6484,49.7336],[162.7891,60.6464,94.7876],[162.7839,60.6453,0.0],[162.7703,60.6318,94.486],[162.75,60.625,68.9858],[162.7333,60.625,38.7669],[162.7292,60.6271,36.7237],[162.7193,60.6266,48.3669],[162.7172,60.6234,0.0],[162.7224,60.6214,0.0],[162.712,60.6109,17.2081],[162.7068,60.6099,0.0],[162.7036,60.6068,60.0657],[162.6958,60.6042,51.7979],[162.6896,60.6042,1.5215],[162.6854,60.6021,46.0328],[162.675,60.6021,0.0],[162.6703,60.5984,103.0659],[162.6625,60.5979,60.214],[162.6583,60.5958,48.9778],[162.6396,60.5958,0.0],[162.6354,60.5938,102.481],[162.6313,60.5958,0.0],[162.6167,60.5958,35.0114],[162.6104,60.6,0.0],[162.6,60.6,0.0],[162.5958,60.5979,108.662],[162.5917,60.6,0.0],[162.5813,60.6,37.1865],[162.5771,60.6021,0.0],[162.5693,60.6026,36.9239],[162.5661,60.6057,0.0],[162.5521,60.6104,0.0],[162.538,60.6099,26.1022],[162.5453,60.6057,262.6478],[162.5437,60.6042,320.5108],[162.5333,60.6083,237.6926],[162.5292,60.6083,165.0303],[162.525,60.6063,254.6926],[162.5125,60.6063,0.0],[162.5109,60.6047,0.0],[162.5141,60.6026,76.2534],[162.5078,60.5964,79.7283],[162.4901,60.5953,0.0],[162.488,60.5922,0.0],[162.4932,60.5901,127.4628],[162.488,60.5891,0.0],[162.4891,60.5859,171.4664],[162.4839,60.5849,0.0],[162.4787,60.5797,162.3204],[162.4708,60.5771,283.4384],[162.4646,60.5771,168.8913],[162.4479,60.5708,190.5173],[162.4422,60.5724,0.0],[162.4432,60.5693,71.8047],[162.4411,60.5672,145.8211],[162.4297,60.5641,0.0],[162.4307,60.5609,0.0],[162.4214,60.5516,14.8503],[162.4224,60.5484,90.5363],[162.3875,60.5354,78.0858],[162.325,60.5354,89.335],[162.3208,60.5375,0.0],[162.3167,60.5354,88.5286],[162.3125,60.5375,0.0],[162.2875,60.5375,0.0],[162.2833,60.5354,56.0948],[162.2792,60.5375,0.0],[162.2563,60.5292,110.2453],[162.2417,60.5292,0.0],[162.2354,60.525,127.7797],[162.2271,60.525,129.9251],[162.2229,60.5271,0.0],[162.2042,60.5271,0.0],[162.1839,60.5057,0.0],[162.1849,60.5026,83.3205],[162.1787,60.4964,0.0],[162.1734,60.4953,0.0],[162.1745,60.4922,34.5265],[162.1724,60.4901,50.1591],[162.1672,60.4891,0.0],[162.1599,60.4839,1.2956],[162.1547,60.4828,0.0],[162.1516,60.4797,41.895],[162.1313,60.4792,0.0],[162.125,60.475,42.5338],[162.1146,60.4771,0.0],[162.1104,60.475,7.031],[162.1062,60.475,0.0],[162.1021,60.4771,0.0],[162.0943,60.4745,0.0],[162.0896,60.4708,0.0],[162.0708,60.4708,0.0],[162.0693,60.4693,0.0],[162.0724,60.4682,3.7372],[162.0745,60.4651,-0.2091],[162.0599,60.4505,86.1618],[162.0547,60.4495,11.8776],[162.0495,60.4443,48.5513],[162.0443,60.4432,0.0],[162.0422,60.4411,6.611],[162.0432,60.438,73.2447],[162.0354,60.4354,37.9966],[162.0276,60.4349,0.0],[162.0266,60.4318,10.6132],[162.0188,60.4292,0.0],[162.0,60.4271,2.2281],[161.9917,60.4313,0.0],[161.9875,60.4292,55.8415],[161.9797,60.4286,3.2419],[161.9708,60.4229,100.2179],[161.9604,60.4229,57.8379],[161.9563,60.4208,89.0058],[161.95,60.4208,91.1487],[161.9464,60.4182,117.7304],[161.9474,60.4151,73.6417],[161.9443,60.412,2.6271],[161.9453,60.4047,189.4106],[161.9401,60.4036,9.0137],[161.938,60.4016,-0.0074],[161.9391,60.3984,0.0],[161.9318,60.3891,2.0722],[161.9349,60.3849,9.7058],[161.9339,60.3818,71.0322],[161.9349,60.3797,93.8417],[161.9276,60.3724,12.1384],[161.9307,60.3703,119.6032],[161.9297,60.3672,106.5497],[161.9328,60.363,229.7157],[161.9276,60.362,132.5893],[161.9255,60.3599,38.9581],[161.9266,60.3568,107.7823],[161.9255,60.3547,60.6905],[161.9328,60.3505,0.0],[161.9271,60.3438,16.212],[161.9151,60.3453,2.1279],[161.9141,60.3422,89.9127],[161.9047,60.3328,0.0],[161.9057,60.3297,-0.8062],[161.9026,60.3266,0.0],[161.9078,60.3245,0.0],[161.9068,60.3214,0.0],[161.9099,60.3193,102.2366],[161.9078,60.3172,37.3724],[161.9026,60.3161,0.0],[161.8974,60.3109,0.0],[161.8922,60.3099,0.0],[161.8932,60.3068,1.7918],[161.8901,60.3036,-1.3389],[161.8911,60.3005,43.3495],[161.888,60.2974,1.2952],[161.8896,60.2958,1.5448],[161.8943,60.2995,0.0],[161.8995,60.3005,0.0],[161.9026,60.3036,0.0],[161.912,60.3047,0.0],[161.9109,60.3078,0.0],[161.9167,60.3125,0.0],[161.9208,60.3125,0.0],[161.925,60.3104,0.0],[161.9292,60.3125,1.3846],[161.9349,60.312,2.3834],[161.9193,60.3068,0.0],[161.9245,60.3057,0.0],[161.9276,60.3026,0.0],[161.9328,60.3016,0.0],[161.9391,60.2974,0.0],[161.938,60.2943,0.0],[161.9401,60.2922,0.0],[161.9453,60.2911,0.0],[161.9443,60.2797,0.0],[161.9495,60.2786,0.0],[161.9516,60.2745,33.0398],[161.9484,60.2703,0.0],[161.9495,60.2672,0.0],[161.9464,60.263,0.0],[161.9495,60.2599,0.0],[161.9484,60.2568,0.0],[161.9516,60.2547,70.5585],[161.9464,60.2536,0.0],[161.9474,60.2505,1.1819],[161.9443,60.2474,0.0],[161.9453,60.2443,0.0],[161.9422,60.2411,0.0],[161.9432,60.2339,0.0],[161.9417,60.2313,0.0],[161.9432,60.2276,42.7674],[161.937,60.2214,84.8695],[161.9318,60.2203,0.0],[161.9297,60.2182,0.0],[161.9307,60.2151,126.1952],[161.9193,60.212,0.0],[161.9208,60.2083,45.6828],[161.9182,60.2047,129.289],[161.9104,60.2042,13.7727],[161.9026,60.2016,0.0],[161.8995,60.1984,0.0],[161.888,60.1953,24.5946],[161.8807,60.188,14.4758],[161.8755,60.187,0.0],[161.8734,60.1849,0.0],[161.8766,60.1818,193.248],[161.8687,60.1813,0.0],[161.8464,60.1724,0.0],[161.8474,60.1693,5.6786],[161.8349,60.1547,80.3019],[161.8234,60.1516,0.0],[161.8203,60.1484,15.5759],[161.8151,60.1474,0.0],[161.8099,60.1422,144.0798],[161.7943,60.137,29.2804],[161.787,60.1297,200.293],[161.7792,60.1271,163.4124],[161.7688,60.1271,0.0],[161.7641,60.1234,65.2094],[161.75,60.1188,294.4361],[161.738,60.1182,84.6533],[161.7287,60.1109,194.2079],[161.6984,60.1016,41.0716],[161.6953,60.0984,163.4839],[161.6839,60.0953,0.0],[161.6828,60.0922,0.0],[161.6792,60.0896,35.6559],[161.6687,60.0896,0.0],[161.6583,60.0854,28.7572],[161.6417,60.0833,0.0],[161.6354,60.0792,37.5648],[161.6276,60.0786,0.0],[161.6245,60.0734,150.1209],[161.6167,60.0729,0.0],[161.6089,60.0703,0.0],[161.6057,60.0672,0.0],[161.6005,60.0661,0.0],[161.5974,60.063,0.0],[161.5922,60.062,0.0],[161.5891,60.0589,0.0],[161.5813,60.0563,0.0],[161.5755,60.0578,0.0],[161.5703,60.0505,28.0986],[161.5562,60.0458,0.4809],[161.5521,60.0458,1.3111],[161.5479,60.0479,2.4366],[161.5375,60.0479,4.8324],[161.5333,60.05,0.0],[161.5208,60.05,0.0],[161.5161,60.0464,41.0804],[161.4922,60.0391,141.508],[161.4891,60.0339,264.3244],[161.4812,60.0313,118.9872],[161.4734,60.0307,0.0],[161.4787,60.0276,219.2795],[161.4734,60.0266,166.3194],[161.4651,60.0182,0.0],[161.4682,60.0151,128.5856],[161.4547,60.0016,142.082],[161.4683,60.0015,251.8507],[161.4627,60.0,185.7982],[161.4472,60.0,4.9075],[161.4364,59.9851,6.8069],[161.4326,59.9822,5.126],[161.4204,59.9784,20.778],[161.4579,59.9496,317.7821],[161.4224,59.927,447.7285],[161.3766,59.9154,195.8305],[161.3362,59.8735,527.1605],[161.3774,59.8135,312.1327],[161.4456,59.7633,400.0598],[161.5155,59.6867,516.7949],[161.592,59.6313,883.5817],[161.6873,59.5862,655.6636],[161.7596,59.5555,1393.7852],[161.823,59.4947,1336.2705],[161.9202,59.4289,689.6827],[161.996,59.3987,1041.7241],[162.0759,59.3705,482.8607],[162.1076,59.3474,472.9262],[162.1106,59.3157,247.4185],[162.0659,59.277,373.5706],[161.7427,59.3044,607.7279],[161.6121,59.3228,867.0612],[161.5377,59.2836,436.8705],[161.4748,59.2343,1047.0222],[161.5191,59.1354,458.5128],[161.5056,59.073,1012.9038],[161.4461,59.013,392.1968],[161.4243,58.9323,662.7494],[161.3875,58.8302,1035.5112],[161.2932,58.7057,1274.7925],[161.2345,58.6546,1612.7256],[160.9307,58.5159,1490.3572],[160.8866,58.4575,1025.5061],[160.8939,58.3714,810.4943],[160.8577,58.3069,1131.885],[160.7706,58.2206,801.22],[160.7017,58.1319,895.7657],[160.6052,58.0234,589.9161],[160.3888,57.8253,681.0483],[160.3188,57.7746,1129.0299],[160.2739,57.7184,833.7454],[160.2732,57.6633,508.7261],[160.2844,57.6193,601.871],[160.286,57.5955,735.3727],[160.3183,57.5568,1056.3533],[160.3723,57.5842,1125.1702],[160.4503,57.574,1099.7421],[160.5448,57.5105,799.0651],[160.6645,57.4912,392.0741],[160.8016,57.4795,675.5214],[161.0414,57.4521,317.4864],[161.1894,57.3936,428.0332],[161.3796,57.3329,186.903],[161.5451,57.2921,177.4629],[161.6928,57.2955,71.0501],[161.968,57.3572,32.9992],[162.3107,57.3653,16.6974],[162.3789,57.331,23.1119],[162.4683,57.3384,116.9086],[162.5997,57.3409,5.5],[162.6808,57.3448,4.3744],[162.7573,57.3849,62.08],[162.8705,57.4295,124.3923],[162.9067,57.4329,0.0],[162.9111,57.436,1.1501],[162.9194,57.4378,4.0081],[162.9289,57.4364,1.6654],[162.95,57.4383,0.0],[162.9533,57.4394,0.7996],[162.9528,57.4433,5.0014],[162.9556,57.4453,0.0],[162.9722,57.4519,6.4664],[162.9906,57.4514,0.0],[163.0,57.4556,39.9844],[163.0078,57.4561,0.0],[163.0289,57.4664,5.7904],[163.0356,57.4681,0.0],[163.0417,57.4675,15.8419],[163.0444,57.4694,0.0],[163.0506,57.4703,0.0],[163.0556,57.4686,0.0],[163.0694,57.4725,0.0],[163.0889,57.4828,7.1333],[163.0961,57.4833,0.0],[163.0978,57.4872,2.5861],[163.1039,57.4908,2.2356],[163.1033,57.4931,3.4582],[163.1067,57.4964,0.0],[163.1083,57.5017,1.1565],[163.1128,57.5044,0.0],[163.1117,57.5069,5.6189],[163.1128,57.5086,0.0],[163.1194,57.5117,5.2348],[163.1161,57.5164,21.7209],[163.1161,57.5186,22.8732],[163.12,57.5228,52.334],[163.1183,57.5233,52.334],[163.1183,57.5278,3.4745],[163.1239,57.5319,0.0],[163.135,57.5539,2.6625],[163.1433,57.5619,0.0],[163.145,57.5692,32.6964],[163.1702,57.5769,0.0],[163.2064,57.5789,2.0454],[163.2239,57.5883,3.4687],[163.2261,57.5939,0.0],[163.2244,57.5981,78.9637],[163.2283,57.6056,0.7854],[163.2267,57.6072,38.9276],[163.2272,57.6111,50.8078],[163.2361,57.6117,0.0],[163.2417,57.6178,25.5224],[163.2421,57.6213,1.0055],[163.2411,57.6234,41.3834],[163.2356,57.6261,17.6637],[163.2394,57.6306,2.2873],[163.2389,57.6325,1.0103],[163.2195,57.6436,10.0126],[163.2233,57.6461,0.8267],[163.2222,57.6492,0.0],[163.2283,57.6642,2.7694],[163.2348,57.6704,0.0],[163.2539,57.6781,0.7482],[163.2572,57.6811,0.0],[163.2578,57.6861,3.363],[163.265,57.6872,0.6095],[163.2694,57.6903,0.0],[163.28,57.6933,0.0],[163.2872,57.7044,0.5164],[163.3006,57.7133,0.0],[163.3033,57.7186,0.9752],[163.31,57.7203,0.0],[163.3167,57.7197,0.0],[163.3191,57.7208,1.4283],[163.3216,57.7253,3.7201],[163.3086,57.7278,4.1438],[163.289,57.7379,21.6315],[163.2829,57.7456,1.5484],[163.2828,57.7492,0.0],[163.2663,57.7597,22.141],[163.2595,57.7678,22.7397],[163.2578,57.7766,1.2368],[163.2495,57.78,21.0735],[163.2461,57.785,0.0],[163.2328,57.7939,1.4377],[163.2283,57.8008,0.5245],[163.2156,57.8103,2.5475],[163.2156,57.8167,0.6671],[163.2128,57.8186,2.3136],[163.1761,57.8172,1.2033],[163.1378,57.8197,4.1621],[163.1194,57.8144,4.2963],[163.1006,57.8156,2.0406],[163.0817,57.8197,3.9331],[163.0639,57.8181,14.7992],[163.0461,57.8208,2.3739],[163.0317,57.8267,2.5111],[162.9981,57.8365,18.3646],[162.9756,57.8458,6.3197],[162.9546,57.8561,1.9726],[162.9419,57.8665,0.0],[162.9169,57.874,0.0],[162.901,57.8835,58.5985],[162.8792,57.8869,9.7382],[162.8741,57.895,6.3938],[162.8703,57.8966,39.8245],[162.8406,57.904,0.0],[162.8228,57.8997,2.929],[162.8133,57.9014,3.3004],[162.7994,57.9117,0.0],[162.7978,57.9136,15.4642],[162.7974,57.9186,19.8159],[162.7855,57.9157,0.0],[162.7529,57.9202,32.5279],[162.7382,57.9292,0.0],[162.732,57.9298,7.0683],[162.731,57.9312,11.8553],[162.7329,57.9335,0.0],[162.7313,57.9347,6.5245],[162.7124,57.9422,0.0],[162.7097,57.948,2.8057],[162.705,57.9477,8.1564],[162.6988,57.9503,14.1043],[162.6924,57.947,8.6607],[162.6945,57.9424,10.0046],[162.6927,57.9393,4.4408],[162.6776,57.9338,0.0],[162.6585,57.9328,0.0],[162.6547,57.9306,0.0],[162.6363,57.9327,9.7229],[162.6177,57.938,16.407],[162.5914,57.9383,16.4588],[162.5707,57.9327,4.5755],[162.5581,57.9271,1.024],[162.557,57.9175,39.4409],[162.5326,57.904,2.9339],[162.5329,57.9,15.9535],[162.5274,57.8933,0.0],[162.5257,57.8863,4.834],[162.5206,57.8853,10.0767],[162.5088,57.8873,1.2242],[162.5095,57.8814,10.9875],[162.5053,57.8787,11.2011],[162.5046,57.8746,2.8509],[162.4975,57.8702,0.8356],[162.5046,57.8664,0.0],[162.5022,57.8628,3.9741],[162.5036,57.8607,1.4247],[162.5003,57.8551,10.8072],[162.4943,57.8509,0.0],[162.4934,57.8476,0.0],[162.5016,57.8432,27.8716],[162.5058,57.8363,7.2055],[162.5052,57.8324,10.1759],[162.5114,57.8267,4.0964],[162.5061,57.8169,0.4368],[162.5098,57.8139,8.4683],[162.5097,57.8083,8.8856],[162.513,57.8049,12.0803],[162.5094,57.8021,9.5057],[162.5116,57.7982,9.2022],[162.5079,57.7944,0.9795],[162.5089,57.7907,0.0],[162.516,57.7856,1.7355],[162.5193,57.7806,0.0],[162.5159,57.7747,0.0],[162.5171,57.7718,0.0],[162.5195,57.7706,0.9296],[162.5144,57.767,2.2207],[162.5135,57.7618,0.6221],[162.5165,57.7622,1.6768],[162.5179,57.7663,0.2772],[162.5278,57.7681,2.0678],[162.5261,57.7664,0.9807],[162.53,57.7656,2.6047],[162.5285,57.7575,1.1024],[162.5321,57.7531,6.968],[162.531,57.7511,2.3593],[162.5143,57.7438,5.903],[162.5064,57.7456,0.0],[162.4984,57.7436,0.0],[162.4861,57.7371,0.0],[162.4844,57.7352,0.0],[162.485,57.7308,1.0251],[162.4889,57.7281,4.5506],[162.4872,57.7258,4.5263],[162.4772,57.7208,1.3253],[162.4756,57.7175,0.0],[162.482,57.7119,2.4324],[162.4706,57.7064,0.3392],[162.4717,57.7033,1.8943],[162.4689,57.7018,12.5382],[162.4541,57.7058,0.5145],[162.4422,57.7035,11.053],[162.4394,57.7008,3.8742],[162.4406,57.6992,2.324],[162.4485,57.6956,7.2638],[162.4528,57.6903,1.3281],[162.4589,57.689,1.7496],[162.4516,57.6873,0.9988],[162.4503,57.6839,1.2434],[162.4422,57.6811,2.7596],[162.4211,57.6775,2.2623],[162.4133,57.6742,2.3754],[162.4161,57.6706,3.2982],[162.4122,57.6686,5.3633],[162.4078,57.6678,5.6741],[162.4055,57.6689,1.4262],[162.3989,57.6669,0.9636],[162.3983,57.6658,0.9636],[162.4006,57.6636,2.1599],[162.3935,57.6647,15.7339],[162.3895,57.6681,6.1113],[162.3861,57.6681,4.9844],[162.3717,57.6639,3.8558],[162.3627,57.665,6.0276],[162.3568,57.6625,0.7813],[162.3483,57.6623,0.7489],[162.339,57.6696,0.0],[162.3383,57.6744,3.8821],[162.3322,57.6781,10.9365],[162.33,57.6825,12.29],[162.3233,57.6839,2.0452],[162.3229,57.6862,0.6488],[162.3192,57.687,2.8516],[162.3203,57.689,0.7148],[162.3159,57.6975,0.6225],[162.3112,57.6987,1.4065],[162.3067,57.6972,0.0],[162.3033,57.6931,3.4701],[162.3,57.6917,3.5567],[162.3011,57.69,5.6957],[162.2994,57.6894,5.6957],[162.295,57.6931,1.3045],[162.3001,57.6947,0.0],[162.3017,57.6981,0.879],[162.3089,57.7006,4.3556],[162.3222,57.6972,4.2953],[162.3278,57.6997,2.6965],[162.3328,57.6992,4.0693],[162.3372,57.6964,5.8234],[162.3327,57.6949,2.6532],[162.335,57.6936,3.8636],[162.3344,57.6906,2.3268],[162.3367,57.6892,5.1782],[162.3333,57.6864,0.4794],[162.3426,57.6798,2.0713],[162.3443,57.6751,0.0],[162.3502,57.6751,0.0],[162.3655,57.6809,2.418],[162.3727,57.6855,2.5844],[162.3734,57.6885,4.7319],[162.3783,57.6935,4.2393],[162.3789,57.7014,4.0192],[162.3883,57.7081,1.6697],[162.3872,57.7108,7.0696],[162.3989,57.7167,1.6201],[162.4017,57.7197,5.0301],[162.4126,57.7225,2.1961],[162.418,57.7276,3.709],[162.427,57.7293,1.6959],[162.4279,57.7339,6.947],[162.4317,57.7369,0.0],[162.4499,57.7404,0.0],[162.4381,57.7485,2.293],[162.4411,57.7511,5.1156],[162.4413,57.7623,9.5198],[162.4446,57.7669,0.0],[162.4493,57.7686,0.1825],[162.4527,57.7729,0.5985],[162.435,57.7764,0.3284],[162.4339,57.7753,1.4632],[162.4383,57.7739,2.811],[162.423,57.7689,0.4299],[162.4233,57.7675,1.6085],[162.43,57.7653,4.5236],[162.4278,57.7644,5.6235],[162.4183,57.7644,4.4076],[162.4116,57.7672,0.0],[162.4033,57.7635,3.2602],[162.3976,57.764,0.5341],[162.3987,57.767,0.3255],[162.3959,57.7705,1.5824],[162.4011,57.7772,4.2874],[162.4039,57.7783,1.7989],[162.4083,57.7756,1.9685],[162.4172,57.7753,1.3675],[162.42,57.7733,0.9999],[162.4239,57.7761,2.6164],[162.4294,57.775,0.0],[162.4344,57.7777,2.5961],[162.4461,57.7772,3.5387],[162.4722,57.7708,3.4581],[162.469,57.7685,0.0],[162.4826,57.7725,0.3321],[162.4568,57.7817,2.8174],[162.3825,57.7816,2.411],[162.338,57.7865,3.4578],[162.3016,57.7929,6.2177],[162.2316,57.8098,7.1003],[162.1992,57.8204,3.0362],[162.1562,57.8395,1.4033],[162.1457,57.8396,0.0],[162.1365,57.8434,1.298],[162.1347,57.848,2.4403],[162.1258,57.8552,2.7037],[162.1031,57.8681,3.4437],[162.0838,57.8816,4.8802],[162.052,57.9135,4.9734],[162.0414,57.9298,1.382],[162.0314,57.9394,4.9722],[162.0304,57.9425,0.0],[162.0263,57.9462,4.3928],[162.0158,57.9667,3.0572],[162.0075,57.9896,0.0],[162.0035,57.9964,4.2313],[162.0028,58.0022,0.0],[161.9995,58.004,5.1392],[161.9972,58.0191,1.6272],[161.994,58.0248,2.0434],[161.9884,58.0219,0.724],[161.9869,58.0184,1.0452],[161.988,58.0165,0.0],[161.9919,58.0157,0.4958],[161.9955,58.017,1.3181],[161.9945,58.0126,0.0],[161.9995,57.9996,0.0],[162.0008,57.9992,0.0],[162.0012,57.9935,5.0735],[161.999,57.996,0.0],[161.9982,58.0023,1.0577],[161.9959,58.0028,0.8794],[161.995,58.0,1.154],[161.9974,57.9965,2.2561],[161.9975,57.9859,3.4421],[161.9944,57.986,1.5829],[161.9952,57.9913,0.0],[161.9918,57.9902,0.0],[161.9914,57.9772,0.6357],[161.9926,57.9764,0.3817],[161.9862,57.971,0.3786],[161.9884,57.9672,0.8575],[161.992,57.9655,0.6448],[161.997,57.9711,0.3226],[162.0005,57.9717,0.3914],[162.0033,57.9692,5.4206],[161.9985,57.9659,0.2099],[162.003,57.9632,4.9192],[162.0018,57.9594,4.4024],[161.9972,57.9576,0.9144],[161.9963,57.9523,0.4461],[161.9985,57.9507,1.4013],[161.9974,57.9492,0.7486],[161.9983,57.944,0.7252],[162.0039,57.9425,0.6484],[162.0061,57.9403,2.2526],[162.0005,57.9269,0.9477],[161.9991,57.927,0.9477],[161.997,57.9331,0.0],[161.9916,57.937,1.22],[161.9946,57.9388,0.5553],[162.0,57.9381,0.0],[162.0012,57.9402,0.0],[161.9872,57.9439,1.5541],[161.9913,57.9443,0.6103],[161.9886,57.9459,2.0262],[161.989,57.9479,0.0],[161.9931,57.9492,0.0],[161.9887,57.9528,0.0],[161.993,57.959,0.5487],[161.9921,57.9625,0.1994],[161.9901,57.9612,0.8111],[161.9894,57.9578,1.0161],[161.9856,57.9551,2.2302],[161.9747,57.9569,1.0003],[161.9704,57.961,0.3175],[161.9743,57.9634,0.6473],[161.9772,57.9611,0.4198],[161.9821,57.9622,0.8772],[161.9825,57.9642,0.1774],[161.9766,57.9661,0.2311],[161.9742,57.9739,0.7847],[161.976,57.9749,0.3256],[161.9785,57.9716,0.1588],[161.9803,57.9722,0.6491],[161.9797,57.9755,0.6572],[161.9813,57.9785,0.3489],[161.9802,57.9793,0.6181],[161.9714,57.9825,0.1187],[161.9589,57.9829,0.3306],[161.9478,57.9795,0.3814],[161.9451,57.9758,0.613],[161.9476,57.9745,0.0],[161.9503,57.9772,0.6545],[161.9543,57.9742,0.8326],[161.9491,57.9666,0.3268],[161.9476,57.9609,0.8167],[161.9403,57.9585,0.7114],[161.931,57.9619,0.997],[161.9254,57.9671,0.0],[161.9089,57.9691,0.0],[161.8978,57.9749,0.3789],[161.9089,57.9776,0.0],[161.9102,57.9796,0.0],[161.9092,57.9808,0.3062],[161.9128,57.985,0.6727],[161.9233,57.9906,7.1085],[161.9338,57.992,0.0],[161.9361,57.993899999999996,0.8679],[161.943,57.9931,0.1578],[161.9487,57.9949,0.1319],[161.9636,58.005,0.0],[161.9678,58.0019,0.9143],[161.9688,57.9991,0.5912],[161.9647,57.9916,0.6716],[161.9683,57.9914,0.6723],[161.9836,58.0058,0.4269],[161.9787,58.0111,0.9159],[161.9826,58.0142,0.0],[161.9843,58.0219,0.6902],[161.9905,58.0252,0.5706],[161.9906,58.0267,0.0],[161.9845,58.0322,1.3656],[161.985,58.0372,0.0],[161.9839,58.0378,1.0621],[161.9861,58.0392,0.136],[161.9856,58.0403,0.136],[161.9883,58.04,0.0],[161.9883,58.0486,0.4462],[161.9806,58.0536,0.752],[161.985,58.0589,0.3076],[161.99,58.0575,1.964],[161.9911,58.0547,2.6441],[161.9928,58.0561,0.0],[161.9917,58.0614,2.0302],[161.9928,58.0631,0.0],[161.9911,58.0667,0.8345],[161.9922,58.0689,4.0536],[161.9911,58.0694,4.0536],[161.9928,58.0747,0.0],[161.99,58.0822,0.0],[161.9911,58.0833,0.0],[161.9894,58.0867,0.0],[161.99,58.0933,0.983],[161.9939,58.1061,1.3651],[161.9939,58.1111,3.3604],[161.9995,58.1264,0.0],[161.9989,58.1303,3.615],[162.005,58.1453,3.6529],[162.0172,58.1661,18.5226],[162.0217,58.1767,0.0],[162.0267,58.1806,8.5247],[162.0389,58.1975,0.88],[162.0444,58.2081,0.0],[162.0506,58.2144,0.0],[162.0578,58.2294,1.1679],[162.0683,58.2442,0.0],[162.0783,58.2672,2.3829],[162.0844,58.2744,2.1883],[162.0894,58.2842,1.3396],[162.0883,58.29,0.0],[162.0911,58.2878,0.0],[162.0928,58.2981,0.0],[162.1017,58.3172,3.8274],[162.105,58.3194,0.0],[162.1083,58.3275,1.745],[162.1139,58.335,0.0],[162.1139,58.3392,3.9628],[162.1156,58.3397,0.0],[162.1139,58.3406,3.4173],[162.1172,58.3431,0.0],[162.1161,58.3447,2.3799],[162.1189,58.3469,1.2147],[162.12,58.3519,1.4437],[162.125,58.3572,0.5108],[162.1261,58.3611,2.3674],[162.1311,58.3656,1.3898],[162.1306,58.3681,2.509],[162.1467,58.3831,0.6719],[162.1594,58.4022,2.4376],[162.1794,58.425,2.5031],[162.2183,58.4633,0.0],[162.2256,58.4728,4.6429],[162.2311,58.4769,0.0],[162.2983,58.5506,0.0],[162.2994,58.5533,0.0],[162.315,58.5658,0.0],[162.3372,58.5908,0.0],[162.3722,58.6217,0.0],[162.3895,58.6347,3.3916],[162.4133,58.6589,2.7965],[162.4517,58.6903,0.0],[162.485,58.7131,0.568],[162.5322,58.7414,0.0],[162.5578,58.7533,0.6161],[162.6161,58.7743,2.0541],[162.6044,58.7733,5.1186],[162.5861,58.7692,0.8186],[162.5656,58.7619,5.3322],[162.5556,58.7603,4.3456],[162.5311,58.7511,1.0244],[162.4933,58.7283,2.8725],[162.4767,58.7147,5.4639],[162.4617,58.7069,2.9332],[162.4542,58.7077,1.4828],[162.4367,58.7139,1.5251999999999999],[162.4294,58.7133,3.4294],[162.423,58.7111,1.6678],[162.4235,58.7098,3.2284],[162.4067,58.7111,1.2434],[162.4033,58.7147,1.8193],[162.4172,58.7208,2.133],[162.4178,58.7236,0.0],[162.4172,58.7253,0.0],[162.3994,58.7333,4.147],[162.3972,58.7378,1.1009],[162.3939,58.74,4.1102],[162.3983,58.7461,1.1756],[162.3994,58.7514,3.1619],[162.3917,58.7519,3.9492],[162.3778,58.7487,11.7457],[162.3722,58.7503,4.6934],[162.3656,58.7547,2.7703],[162.3595,58.7547,4.5352],[162.3556,58.7517,4.7755],[162.3578,58.755,2.5834],[162.3644,58.7558,3.4718],[162.3793,58.7498,2.1162],[162.3914,58.7529,2.361],[162.3978,58.7531,3.1752],[162.4011,58.7514,2.4992],[162.3994,58.7442,1.5451],[162.3967,58.7417,3.9849],[162.3972,58.7392,4.1717],[162.4033,58.7331,1.0316],[162.4183,58.7269,0.9792],[162.42,58.725,4.1636],[162.4183,58.72,3.9115],[162.4072,58.7153,3.8188],[162.4067,58.7122,3.8726],[162.4079,58.7117,1.2434],[162.4161,58.7111,1.3765],[162.4344,58.7153,1.1466],[162.4483,58.7125,2.7798],[162.4544,58.7094,1.014],[162.4661,58.7108,0.6671],[162.4858,58.7236,0.4579],[162.489,58.7279,0.0],[162.5139,58.7431,0.7536],[162.5372,58.7553,0.8346],[162.5756,58.7697,0.5497],[162.5356,58.7642,0.4459],[162.521,58.7584,4.2195],[162.5122,58.7564,2.9227],[162.5128,58.7578,1.64],[162.5356,58.765,0.4459],[162.5672,58.7706,1.4114],[162.578,58.771,0.8312],[162.5933,58.7762,0.5961],[162.5728,58.7747,1.0114],[162.5656,58.7781,0.6068],[162.5639,58.7831,2.5407],[162.5589,58.7856,0.0],[162.5539,58.7858,2.1814],[162.5539,58.7872,3.1676],[162.5717,58.7906,0.0],[162.5733,58.7914,0.0],[162.5722,58.7931,0.0],[162.5772,58.7947,0.8759],[162.5872,58.7922,2.1158],[162.5906,58.7928,0.0],[162.5867,58.7939,2.9892],[162.5878,58.7944,0.4445],[162.5928,58.7936,2.763],[162.5933,58.7911,1.1848],[162.6011,58.7875,0.8719],[162.6039,58.7881,5.5582],[162.6072,58.7856,4.4745],[162.6144,58.7842,5.6073],[162.6139,58.7814,0.0],[162.6178,58.78,3.9922],[162.6167,58.7781,4.5964],[162.6018,58.777,3.2251],[162.5893,58.7739,1.75],[162.5768,58.7683,0.6149],[162.61,58.7764,2.4579],[162.6287,58.7774,4.1729],[162.6328,58.7764,0.0],[162.75,58.8169,0.0],[162.7556,58.8214,1.8943],[162.77,58.8267,0.0],[162.7733,58.8294,5.2427],[162.7967,58.8375,4.023],[162.8017,58.8428,0.0],[162.8072,58.8456,8.76],[162.8083,58.8503,1.9363],[162.8128,58.8533,0.0],[162.8122,58.8558,0.0],[162.8139,58.8583,0.0],[162.8039,58.8567,7.8098],[162.8017,58.8536,7.4779],[162.7883,58.8497,2.4808],[162.7878,58.8475,5.5786],[162.7928,58.8436,2.9683],[162.7933,58.84,2.8195],[162.7856,58.8383,2.2352],[162.785,58.8364,5.5036],[162.7828,58.8364,2.2425],[162.7817,58.8386,0.0],[162.7794,58.8386,1.1614],[162.7789,58.8364,4.3797],[162.7756,58.8369,3.6408],[162.7739,58.8394,0.8727],[162.7628,58.8442,0.0],[162.7583,58.8525,0.0],[162.7472,58.8569,2.1978],[162.7387,58.8583,4.456],[162.7361,58.8573,0.0],[162.7406,58.8519,2.0056],[162.7417,58.8458,0.0],[162.7478,58.8397,6.6263],[162.7472,58.8383,0.4003],[162.7522,58.8369,3.9288],[162.7528,58.8344,0.5273],[162.7617,58.8339,2.1548],[162.7645,58.8314,4.2832],[162.7567,58.8314,4.2639],[162.755,58.83,3.819],[162.7567,58.8267,5.9411],[162.7544,58.8247,3.1902],[162.755,58.8233,2.4814],[162.7483,58.8192,1.9954],[162.7383,58.8236,4.0556],[162.73,58.8192,2.5954],[162.725,58.82,4.9363],[162.7228,58.8211,0.4604],[162.725,58.8228,0.4227],[162.7228,58.8244,0.3505],[162.7222,58.8275,0.0],[162.7183,58.8311,0.7225],[162.7111,58.8292,6.8035],[162.7106,58.8256,0.6462],[162.7083,58.8239,0.9943],[162.7044,58.8239,0.2845],[162.6867,58.8292,0.0],[162.695,58.8322,0.0],[162.695,58.8333,0.0],[162.6911,58.8325,0.4254],[162.6911,58.8339,0.1492],[162.6878,58.8342,0.7289],[162.6922,58.8353,0.1492],[162.6906,58.8361,0.5067],[162.6922,58.8372,0.8645],[162.6939,58.8367,0.0],[162.6933,58.8381,0.7543],[162.6972,58.8406,0.0],[162.6978,58.8431,0.1636],[162.695,58.8464,0.3103],[162.6961,58.8483,0.6114],[162.6906,58.8489,0.464],[162.6956,58.8497,0.2477],[162.6967,58.8514,0.0],[162.6928,58.8514,0.4766],[162.6944,58.8533,0.6443],[162.6939,58.8544,0.2799],[162.6911,58.8539,0.4654],[162.6917,58.8569,0.8629],[162.6883,58.8597,0.7767],[162.6856,58.8592,1.3903],[162.685,58.8614,0.0],[162.6828,58.8619,1.1762],[162.7028,58.8639,2.5297],[162.7044,58.8611,0.42],[162.7128,58.8597,0.0],[162.7161,58.8608,0.895],[162.7161,58.8625,0.0],[162.7083,58.8642,0.372],[162.7072,58.8661,0.5947],[162.7178,58.8694,1.0635],[162.7256,58.8678,1.984],[162.7267,58.8656,0.869],[162.7244,58.8639,0.0],[162.7256,58.8619,0.0],[162.7345,58.8639,3.653],[162.7544,58.8631,0.0],[162.7594,58.8647,2.5998],[162.7589,58.8661,1.238],[162.7628,58.8681,0.2102],[162.7678,58.8692,0.0],[162.7556,58.8715,0.2712],[162.7603,58.8725,0.3698],[162.7637,58.8715,0.0],[162.7642,58.8734,0.2847],[162.7609,58.8747,0.5392],[162.7686,58.8749,1.1241],[162.7711,58.8725,0.2831],[162.7776,58.8744,0.3882],[162.7828,58.8739,0.6158],[162.7867,58.8758,0.8063],[162.7867,58.8772,1.6618],[162.7944,58.8781,0.1401],[162.7972,58.8806,2.6862],[162.7965,58.8758,0.1507],[162.7927,58.8747,0.2811],[162.8006,58.8694,0.708],[162.8036,58.8692,0.679],[162.8028,58.8683,0.2013],[162.8044,58.8672,0.0],[162.8067,58.8697,0.679],[162.8061,58.8733,5.4428],[162.815,58.8786,0.0],[162.8122,58.8806,0.0],[162.8133,58.8839,4.7992],[162.8206,58.8861,0.0],[162.8233,58.8903,1.0256],[162.8261,58.8911,1.6352],[162.8256,58.8944,0.4315],[162.8289,58.8964,0.4025],[162.8317,58.9081,6.6564],[162.8383,58.9106,0.0],[162.8372,58.9111,0.0],[162.84,58.9136,0.0],[162.8456,58.9147,0.0],[162.8467,58.9178,1.0415],[162.855,58.9217,0.0],[162.8573,58.9253,0.0],[162.8789,58.9306,2.4025],[162.8895,58.9303,0.2107],[162.9072,58.9347,0.0],[162.9211,58.9361,0.2901],[162.9172,58.9386,0.6089],[162.91,58.9372,0.2245],[162.8928,58.9378,0.8488],[162.8739,58.9328,1.7979],[162.8806,58.9358,0.3525],[162.8789,58.94,1.4657],[162.885,58.9378,0.1498],[162.8867,58.9406,2.0581],[162.8944,58.9414,0.0],[162.8933,58.9431,0.8555],[162.8944,58.9442,0.0],[162.8911,58.9467,1.2856],[162.8922,58.9486,1.0269],[162.8978,58.9486,0.9247],[162.8978,58.9461,0.3254],[162.9017,58.9447,0.3648],[162.8994,58.9428,0.0],[162.9028,58.94,0.1172],[162.9128,58.9394,0.0],[162.9165,58.9423,0.2429],[162.9094,58.9414,0.9625],[162.9067,58.9425,0.5013],[162.9117,58.9453,0.2535],[162.9061,58.9456,0.2113],[162.9033,58.9486,0.4284],[162.9039,58.9533,0.4129],[162.9017,58.955,0.75],[162.9022,58.9561,1.5733],[162.9059,58.9558,1.1121],[162.905,58.955,0.0],[162.9061,58.9542,0.0],[162.9111,58.9547,0.0],[162.9161,58.9569,0.0],[162.9161,58.9583,0.6016],[162.9117,58.9583,1.8658],[162.9083,58.9603,2.3174],[162.9072,58.9631,0.0],[162.9039,58.9633,3.5882],[162.9055,58.9644,0.0],[162.9022,58.9678,4.1669],[162.9028,58.9689,2.4222],[162.91,58.9656,2.4885],[162.9089,58.9639,0.8107],[162.9156,58.9647,0.6524],[162.9233,58.9631,0.0],[162.9211,58.9656,1.8959],[162.9222,58.97,3.5781],[162.9261,58.9697,0.0],[162.9317,58.9739,0.0],[162.93,58.9758,0.9851],[162.9339,58.9775,1.5808],[162.935,58.9739,0.0],[162.9406,58.9739,2.2052],[162.9339,58.9728,0.7232],[162.9333,58.9706,0.2812],[162.9406,58.9725,1.2153],[162.9433,58.9664,0.5982],[162.9483,58.9636,0.0],[162.9506,58.9644,0.3895],[162.9483,58.9681,1.6345],[162.9628,58.9644,3.0039],[162.9572,58.9603,0.8082],[162.9578,58.9581,1.9388],[162.9561,58.9578,1.9388],[162.955,58.9536,2.8103],[162.9511,58.9547,0.168],[162.9528,58.9517,0.406],[162.9633,58.9489,2.2227],[162.9717,58.9486,0.8569],[162.9772,58.9517,2.6964],[162.9811,58.9461,1.5443],[162.985,58.9469,2.1478],[162.9867,58.9464,3.0688],[162.9861,58.9442,4.0551],[162.992,58.9433,0.8209],[162.9908,58.9415,2.0162],[162.9622,58.9362,1.7075],[162.9378,58.9356,0.0],[162.9261,58.9325,1.0093],[162.905,58.9306,0.2487],[162.9,58.9292,0.0],[162.8989,58.9269,0.0],[162.9006,58.9256,0.52],[162.8856,58.9214,0.7841],[162.8861,58.92,1.0873],[162.8822,58.9189,0.4274],[162.8833,58.9178,1.5891],[162.8772,58.9147,2.6442],[162.8761,58.9167,0.814],[162.8778,58.9183,0.0],[162.8861,58.9225,0.734],[162.8928,58.9281,0.0],[162.8878,58.9292,0.0],[162.8889,58.9281,1.25],[162.87,58.9264,0.328],[162.8711,58.9256,0.328],[162.8678,58.9231,1.9191],[162.8644,58.9238,0.0],[162.8633,58.9233,0.0],[162.8656,58.9222,1.0848],[162.8567,58.92,0.4489],[162.8511,58.9161,0.4915],[162.8511,58.9131,2.2556],[162.8489,58.9119,3.0318],[162.8461,58.9053,2.1404],[162.8439,58.9036,0.0],[162.8456,58.9017,1.9823],[162.8445,58.9014,0.0],[162.8456,58.8992,1.6089],[162.8439,58.8986,0.1604],[162.8461,58.8961,1.5039],[162.8445,58.8947,0.0],[162.8467,58.8917,1.0774],[162.8467,58.8881,0.8346],[162.8439,58.885,0.5686],[162.8483,58.8861,0.6899],[162.8489,58.8928,0.0],[162.8556,58.9003,0.6294],[162.8711,58.91,1.4376],[162.8828,58.9153,0.0],[162.9233,58.9278,0.9418],[162.95,58.9319,0.0],[162.9717,58.9372,2.5083],[163.0061,58.9419,0.0],[163.0187,58.9471,17.3142],[163.0436,58.9614,0.7226],[163.0653,58.9801,0.0],[163.0685,58.9872,16.2407],[163.0735,58.9924,0.0],[163.0728,58.9947,0.0],[163.0638,58.9916,3.897],[163.0614,58.9931,3.4757],[163.0729,58.9963,0.0],[163.0722,59.0022,0.0],[163.0742,59.0116,0.8581],[163.0711,59.0186,0.0],[163.065,59.0228,0.0],[163.0593,59.0236,1.1133],[163.0533,59.0208,0.0],[163.0542,59.0182,0.0],[163.06,59.0171,1.2151],[163.0674,59.0122,0.7759],[163.0715,59.0115,0.8581],[163.072,59.0073,0.5668],[163.0689,59.0,0.0],[163.07,58.9986,1.4412],[163.0667,58.9972,0.0],[163.0561,58.9961,5.8787],[163.0495,58.9973,0.0],[163.018,59.0051,1.9347],[163.0123,59.0079,0.831],[162.9939,59.0203,18.3416],[162.9644,59.0481,0.0],[162.9561,59.0614,0.0],[162.9461,59.0664,1.3505],[162.9439,59.0714,0.0],[162.9272,59.0853,0.9557],[162.9233,59.0925,0.0],[162.9156,59.0975,0.0],[162.91,59.1058,0.0],[162.9061,59.1089,1.616],[162.9017,59.1192,2.2709],[162.9061,59.1214,0.0],[162.9067,59.1244,0.4129],[162.9094,59.1272,1.252],[162.9161,59.1239,1.1887],[162.9194,59.1264,1.3162],[162.9189,59.1236,0.0],[162.9261,59.1242,1.2544],[162.9289,59.1225,0.5],[162.9278,59.1214,0.5959],[162.9294,59.1203,0.0],[162.9333,59.1203,0.0],[162.9522,59.1244,1.1357],[162.9539,59.1264,0.5373],[162.9522,59.1281,0.9892],[162.9572,59.1264,0.5373],[162.9678,59.1297,1.2328],[162.9739,59.1328,0.9282],[162.9739,59.1344,0.8586],[162.9845,59.1342,0.6655],[162.9917,59.1358,0.0],[162.9922,59.1383,0.3226],[162.9939,59.1367,0.6449],[162.9989,59.1372,1.175],[162.9983,59.1386,1.175],[163.0,59.1397,1.4523],[163.0078,59.1417,0.3171],[163.0236,59.1493,0.9022],[163.0278,59.1549,0.4194],[163.0277,59.1662,1.3301],[163.0336,59.1725,1.2992],[163.0364,59.1734,0.0],[163.0366,59.1755,0.2689],[163.0439,59.1825,0.6502],[163.0464,59.1814,1.3252],[163.0448,59.1763,7.5732],[163.04,59.1731,0.0],[163.0372,59.1661,10.2871],[163.035,59.1644,5.5036],[163.0344,59.1528,8.0432],[163.0422,59.1461,6.4387],[163.0522,59.1431,0.0],[163.0522,59.1414,0.212],[163.0417,59.1417,0.9613],[163.035,59.1392,0.4041],[163.0611,59.1392,6.0143],[163.0758,59.1355,9.9562],[163.1074,59.1313,6.9065],[163.123,59.1246,3.2527],[163.1304,59.1194,3.5995],[163.1328,59.1154,1.6841],[163.1257,59.1115,1.5],[163.1143,59.1143,0.0],[163.1063,59.1128,0.0],[163.0943,59.1183,0.2469],[163.0921,59.1177,1.2641],[163.11,59.1098,0.0],[163.1239,59.1071,2.2762],[163.1385,59.1068,0.4691],[163.1628,59.1036,0.0],[163.2017,59.0947,0.2868],[163.2356,59.0833,1.1271],[163.2433,59.0792,8.2608],[163.2431,59.0732,0.6299],[163.2381,59.0636,1.981],[163.2328,59.0572,0.6123],[163.225,59.0533,0.0],[163.2244,59.0497,0.0],[163.2195,59.0464,1.281],[163.1589,59.0417,0.0],[163.1583,59.0403,0.0],[163.1717,59.0353,1.8312],[163.1717,59.0336,1.5546],[163.1694,59.0325,0.0],[163.1733,59.0306,1.5462],[163.1783,59.0306,1.4716],[163.2159,59.0355,2.5099],[163.2258,59.0416,1.6692],[163.2318,59.0502,0.0],[163.2337,59.0562,0.0],[163.2394,59.0619,1.807],[163.2517,59.084,0.0],[163.2491,59.1026,0.0],[163.2453,59.1077,3.071],[163.2402,59.1219,0.0],[163.2308,59.1389,0.0],[163.2211,59.1444,0.0],[163.2028,59.1495,0.0],[163.1422,59.1617,1.5795],[163.1228,59.1675,0.0],[163.0905,59.1818,0.0],[163.085,59.1861,0.0],[163.0856,59.1878,0.0],[163.0794,59.1947,0.0],[163.0761,59.2036,0.0],[163.0733,59.2058,0.5486],[163.0717,59.2106,0.0],[163.0717,59.2195,0.0],[163.0687,59.2259,4.8345],[163.0734,59.2345,0.0],[163.0726,59.2382,0.9158],[163.0748,59.2418,2.4044],[163.0737,59.2451,2.8462],[163.0772,59.2539,2.7409],[163.0883,59.2608,0.5945],[163.1106,59.2692,7.8247],[163.1371,59.2713,2.6354],[163.14,59.2697,0.0],[163.1467,59.2747,3.7326],[163.1647,59.2791,5.408],[163.2272,59.2844,8.1701],[163.2706,59.2839,13.3346],[163.3206,59.2881,2.4878999999999998],[163.3311,59.2872,8.9757],[163.3389,59.2839,2.0162],[163.3411,59.2808,0.3277],[163.3411,59.2731,0.3367],[163.3343,59.2666,0.4599],[163.3117,59.2578,0.0],[163.31,59.2567,0.8312],[163.3111,59.2533,0.0],[163.3078,59.25,2.0161],[163.2922,59.2451,0.4681],[163.2889,59.2411,0.0],[163.2789,59.2375,0.9611],[163.2761,59.2336,1.2878],[163.2661,59.2294,0.0],[163.2672,59.2261,1.2508],[163.2617,59.2194,0.0],[163.2645,59.216,1.5976],[163.2689,59.2153,0.0],[163.2744,59.2164,0.7679],[163.2928,59.2264,0.0],[163.3033,59.2356,0.8451],[163.3183,59.2542,2.8609],[163.3422,59.2706,0.435],[163.345,59.2767,0.0],[163.3445,59.2856,14.3236],[163.3487,59.3014,3.8126],[163.3483,59.3266,0.0],[163.3467,59.3333,1.6551],[163.3477,59.3396,0.0],[163.3452,59.3623,0.0],[163.3425,59.3679,34.5017],[163.3407,59.3798,0.0],[163.3385,59.3822,11.6377],[163.3342,59.4013,7.5272],[163.3273,59.408,7.9812],[163.3176,59.4224,0.0],[163.3111,59.4256,11.8798],[163.2936,59.4397,4.8685],[163.2789,59.4472,0.0],[163.2583,59.4625,0.8043],[163.2495,59.4667,9.4756],[163.2463,59.4728,0.0],[163.2309,59.4732,8.7604],[163.2153,59.476,4.844],[163.2094,59.4783,1.3004],[163.2044,59.4858,4.1677],[163.205,59.4953,0.0],[163.2034,59.4969,2.5738],[163.2028,59.5025,1.8234],[163.2044,59.505,0.6197],[163.2006,59.5069,0.0],[163.2072,59.5089,0.4877],[163.2133,59.5225,3.3612],[163.2406,59.5369,0.0],[163.2628,59.5419,0.0],[163.2744,59.5481,0.0],[163.2756,59.5508,0.0],[163.2461,59.5461,1.5496],[163.245,59.5456,0.5241],[163.2467,59.5444,2.6212],[163.2439,59.5417,2.1095],[163.2444,59.5397,2.5723],[163.2164,59.532,0.9759],[163.2018,59.5229,0.0],[163.1961,59.5133,0.5502],[163.1939,59.5122,0.0],[163.1883,59.5158,2.6897],[163.19,59.5208,2.6496],[163.1883,59.5253,4.6137],[163.1906,59.5331,4.4726],[163.1956,59.5428,3.1403],[163.1989,59.5461,0.0],[163.1989,59.5483,0.6165],[163.2039,59.5544,2.1898],[163.2044,59.5589,4.8119],[163.212,59.5632,0.0],[163.215,59.5669,3.2087],[163.2056,59.5653,3.7548],[163.1944,59.5592,0.2984],[163.1911,59.5608,3.4963],[163.2272,59.5794,4.3753],[163.2311,59.5789,0.9014],[163.2261,59.5756,0.0],[163.2283,59.5742,0.7372],[163.2483,59.58,0.4791],[163.2517,59.5794,0.0],[163.2528,59.5783,1.3761],[163.2511,59.5761,1.2259],[163.2456,59.5742,0.0],[163.25,59.5733,0.4136],[163.2611,59.5844,2.1535],[163.2689,59.5886,0.0],[163.2811,59.5917,0.0],[163.3067,59.5933,0.0],[163.36,59.5919,1.5994],[163.3467,59.5861,0.7727],[163.3294,59.585,0.4144],[163.3256,59.5817,1.4045],[163.3211,59.5825,0.0],[163.3072,59.5789,0.0],[163.3094,59.5775,1.3669],[163.3163,59.5776,0.0],[163.3389,59.5844,0.4611],[163.3478,59.5853,0.0],[163.3622,59.5909,0.0],[163.416,59.6204,0.0],[163.4234,59.6328,0.1898],[163.4222,59.6364,11.3588],[163.4239,59.6369,0.7026],[163.4239,59.6389,2.069],[163.4228,59.6397,6.3222],[163.4254,59.6409,0.0],[163.423,59.6559,0.0],[163.4011,59.6848,0.0],[163.3842,59.7152,0.0],[163.3819,59.7504,0.0],[163.3851,59.7676,0.0],[163.3914,59.7775,0.0],[163.4287,59.8186,0.0],[163.4268,59.8207,0.0],[163.4308,59.8216,0.0],[163.4775,59.8608,0.0],[163.5231,59.8845,0.0],[163.5213,59.8901,0.0],[163.5222,59.8906,1.8166],[163.5585,59.8867,0.0],[163.571,59.891,0.0],[163.581,59.8925,0.0],[163.6046,59.8921,0.0],[163.6674,59.8849,0.0],[163.6728,59.8808,0.0],[163.6711,59.8769,0.0],[163.6739,59.8769,0.0],[163.675,59.8794,0.0],[163.6772,59.88,0.0],[163.6922,59.8722,0.0],[163.6995,59.8636,0.0],[163.7095,59.8635,0.0],[163.7122,59.8649,0.0],[163.7112,59.8681,0.0],[163.705,59.8702,0.0],[163.7056,59.8736,4.7779],[163.7014,59.8751,7.9915],[163.7156,59.8919,0.0],[163.7325,59.9005,0.0],[163.7391,59.9059,0.0],[163.7531,59.9307,0.0],[163.7741,59.9522,0.0],[163.7934,59.9579,0.0],[163.8006,59.962,0.0],[163.8032,59.9661,0.0],[163.8166,59.9725,0.0],[163.8173,59.9782,0.0],[163.8737,60.0036,0.0],[163.9124,60.0067,0.0],[163.921,60.0107,0.0],[163.9532,60.0165,0.0],[163.9903,60.0109,0.0],[163.9925,60.0125,0.0],[164.0021,60.0125,0.0],[164.0063,60.0146,0.0],[164.0104,60.0146,0.0],[164.012,60.013,0.0],[164.0089,60.0089,0.0],[164.0271,60.0083,0.0],[164.0307,60.012,0.0],[164.0255,60.0141,11.6685],[164.0307,60.0151,0.0],[164.0339,60.0182,0.0],[164.0417,60.0208,0.0],[164.05,60.0208,0.0],[164.0516,60.0203,0.0],[164.0505,60.013,0.0],[164.0537,60.0099,0.0],[164.0505,60.0047,0.0],[164.0737,60.0015,17.5961],[164.0778,60.0,19.2445],[164.0722,60.0,0.0],[164.0761,59.9986,0.0],[164.1139,59.9908,4.2027],[164.1418,59.982,0.0],[164.138,59.9885,17.7745],[164.1278,59.999,26.9067],[164.0045,60.0748,29.3362],[163.9875,60.109,40.6297],[164.0471,60.1525,370.9252],[164.1347,60.1696,161.3114],[164.3694,60.2395,226.3726],[164.3805,60.2768,401.4665],[164.4297,60.3273,211.0185],[164.4613,60.3215,287.0229],[164.5039,60.3006,309.7421],[164.578,60.3002,389.2874],[164.6507,60.3116,251.0295],[164.7309,60.3457,341.067],[165.0458,60.4425,663.2389],[165.0996,60.4991,422.4094],[165.1155,60.5412,194.1451],[164.972,60.6534,465.3347],[164.9187,60.7178,623.4945],[164.8255,60.7144,286.3562],[164.7183,60.7246,362.8924],[164.6238,60.7483,194.6342],[164.5174,60.7627,219.1747],[164.3834,60.7314,122.0631],[164.2757,60.6958,99.7092],[164.242,60.6564,117.6452],[164.2667,60.5992,112.6834],[164.2651,60.5492,104.102],[164.2211,60.5151,67.0214],[164.1233,60.5015,77.5849],[163.9861,60.5169,95.6126],[163.8542,60.555,85.7299],[163.7376,60.5997,50.3307],[163.6778,60.6733,40.6991],[163.699,60.729,66.0298],[163.7161,60.7673,61.4531]]],
[[[162.1474,60.4901,0.0],[162.1474,60.4911,0.0],[162.1443,60.4911,0.0],[162.1458,60.4896,0.0],[162.1474,60.4901,0.0]]],
[[[162.1495,60.5464,7.466],[162.1484,60.5443,35.1007],[162.1505,60.5422,4.9321],[162.1563,60.5417,0.0],[162.162,60.5474,51.6169],[162.1583,60.55,0.0],[162.1542,60.55,0.0],[162.1495,60.5464,7.466]]],
[[[163.8822,59.0088,0.0],[163.8591,59.0147,0.272],[163.8103,59.0117,0.0],[163.8724,59.0085,0.3726],[163.9111,59.0,0.3184],[163.9188,58.9952,0.7892],[163.922,58.9954,0.0],[163.9189,59.0,0.0],[163.9132,59.0021,0.0],[163.8822,59.0088,0.0]]],
[[[163.1917,59.5261,0.0],[163.1917,59.5236,0.2837],[163.195,59.525,0.0],[163.1989,59.5314,0.0],[163.2094,59.5394,0.0],[163.2089,59.5406,0.3405],[163.2122,59.5436,0.0],[163.2122,59.5467,0.286],[163.215,59.5484,1.6434],[163.2178,59.5525,0.0],[163.2172,59.5544,0.6868],[163.2195,59.5561,0.0],[163.2178,59.5614,0.0],[163.2156,59.5619,0.5867],[163.215,59.5597,0.834],[163.2067,59.5572,0.0],[163.2061,59.5506,0.5676],[163.1967,59.5386,4.5097],[163.195,59.5303,4.4105],[163.1922,59.5286,0.0],[163.1917,59.5261,0.0]]],
[[[163.2995,60.8651,0.0],[163.2979,60.8667,0.0],[163.2859,60.8682,74.4134],[163.2818,60.8641,0.1233],[163.2828,60.8568,168.7305],[163.2776,60.8547,10.8517],[163.2891,60.8547,65.6953],[163.2922,60.8578,94.5235],[163.2974,60.8589,0.0],[163.2995,60.8609,0.0],[163.2984,60.8641,9.8865],[163.2995,60.8651,0.0]]],
[[[161.9962,58.0312,1.016],[161.9927,58.0473,0.9815],[161.9926,58.0382,0.4456],[161.988,58.037,1.0534],[161.9869,58.0335,0.9111],[161.9888,58.0313,0.0],[161.9904,58.0312,0.0],[161.9902,58.033,0.5705],[161.9938,58.0327,1.7168],[161.9958,58.0259,2.3055],[161.9981,58.0249,0.0],[161.9962,58.0312,1.016]]],
[[[158.2399,58.0397,3.0305],[158.2374,58.0386,3.7338],[158.2426,58.0406,0.6301],[158.2399,58.0397,3.0305]]],
[[[161.9889,58.0499,1.8466],[161.9926,58.0485,0.9815],[161.9933,58.0512,0.8276],[161.9891,58.0516,3.0419],[161.9889,58.0499,1.8466]]],
[[[161.9829,58.0542,0.7604],[161.9855,58.0518,0.1281],[161.988,58.0543,0.3157],[161.9868,58.0568,0.0],[161.9829,58.0542,0.7604]]],
[[[158.3219,58.0705,0.7049],[158.2943,58.0586,3.7016],[158.3148,58.0645,4.6261],[158.3542,58.0824,17.6876],[158.3666,58.0934,0.8299],[158.3485,58.0838,0.9286],[158.3219,58.0705,0.7049]]],
[[[162.0797,60.4797,0.2373],[162.0833,60.4771,19.9251],[162.0891,60.4776,0.0],[162.0932,60.4818,0.0],[162.0922,60.4849,-0.2189],[162.0932,60.487,-0.4439],[162.0859,60.487,2.5094],[162.0797,60.4797,0.2373]]],
[[[162.3734,60.5495,0.0],[162.3734,60.5484,0.0],[162.3766,60.5484,0.0],[162.3766,60.5495,0.0],[162.3734,60.5495,0.0]]],
[[[162.763,60.7995,0.0],[162.7646,60.7979,0.0],[162.775,60.7979,0.0],[162.7797,60.8016,-0.9704],[162.7849,60.8026,0.0],[162.7839,60.8057,0.0],[162.7849,60.8078,0.0],[162.7797,60.8151,112.6207],[162.7807,60.8182,87.0164],[162.7776,60.8182,39.0648],[162.7734,60.8141,0.0],[162.7745,60.8109,61.8823],[162.7713,60.8078,17.4633],[162.7724,60.8026,174.9254],[162.7688,60.8,140.8621],[162.763,60.7995,0.0]]]]}}