{"type":"Feature","properties":{"GID_2":"RUS.16.5_1","GID_0":"RUS","country":"Russia","GID_1":"RUS.16_1","province":"Gorno-Altay","NL_NAME_1":"РеспубликаАлтай","county":"Mayminskiyrayon","VARNAME_2":"NA","NL_NAME_2":"Майминскийрайон","TYPE_2":"Raion","ENGTYPE_2":"District","CC_2":"R53010","HASC_2":"RU.GA.MA","name":"Mayminskiyrayon.county"},
"geometry":{"type": "MultiPolygon","coordinates": [[[[85.6462,51.736,1008.1911],[85.6913,51.7047,934.7259],[85.7049,51.6804,711.0086],[85.7456,51.6728,540.2974],[85.8103,51.6861,876.261],[85.9047,51.6929,1231.8008],[85.9438,51.7222,1186.2632],[86.0249,51.7282,746.5881],[86.0428,51.7082,644.8126],[86.0533,51.6918,818.3402],[86.1127,51.6948,806.7708],[86.1711,51.6921,655.0773],[86.2511,51.667,825.4739],[86.237,51.7108,786.0961],[86.174,51.7595,681.8613],[86.1238,51.8145,703.4951],[86.1015,51.8675,433.7266],[86.0877,51.9057,806.6313],[86.1335,51.9766,579.1128],[86.1379,52.0107,666.7363],[86.1205,52.067,347.5294],[86.0432,52.0739,314.3644],[85.8977,52.0625,268.2852],[85.8055,52.0477,408.7713],[85.7844,52.0384,368.7087],[85.8077,52.0126,315.5028],[85.8298,51.982,263.2456],[85.8296,51.9289,265.4188],[85.8509,51.8879,285.5194],[85.7985,51.8773,277.2229],[85.7527,51.8573,299.2475],[85.7491,51.8345,321.3655],[85.752,51.7939,588.48],[85.7187,51.7653,550.7825],[85.6791,51.7413,716.2548],[85.6462,51.736,1008.1911]],
[[85.9737,51.9379,301.3178],[85.9637,51.9322,364.2396],[85.9468,51.9329,458.1721],[85.9404,51.9483,405.259],[85.965,51.9529,295.7975],[85.9757,51.9462,306.1486],[85.9737,51.9379,301.3178]]]]}}