{"type":"Feature","properties":{"GID_2":"RUS.30.4_1","GID_0":"RUS","country":"Russia","GID_1":"RUS.30_1","province":"Khanty-Mansiy","NL_NAME_1":"Ханты-МансийскийАОк","county":"Khanty-Mansiysk","VARNAME_2":"NA","NL_NAME_2":"Ханты-Мансийск","TYPE_2":"Raion","ENGTYPE_2":"District","CC_2":"NA","HASC_2":"RU.KM.KR","name":"Khanty-Mansiysk.county"},
"geometry":{"type": "MultiPolygon","coordinates": [[[[70.2476,60.5053,56.0099],[70.2503,60.5092,65.0692],[70.2457,60.5137,53.3971],[70.2357,60.5169,60.1387],[70.2148,60.5128,92.146],[70.2135,60.5093,83.5416],[70.2221,60.5025,81.8794],[70.2355,60.5025,55.7321],[70.2476,60.5053,56.0099]]]]}}