{"type":"Feature","properties":{"GID_3":"RUS.80.10.1_1","GID_0":"RUS","country":"Russia","GID_1":"RUS.80_1","province":"Yamal-Nenets","NL_NAME_1":"Ямало-НенецкийАОк","GID_2":"RUS.80.10_1","county":"Shuryshkarskiyrayon","NL_NAME_2":"Шурышкарскийрайон","city":"NA","VARNAME_3":"NA","NL_NAME_3":"NA","TYPE_3":"NA","ENGTYPE_3":"NA","CC_3":"NA","HASC_3":"NA","name":"N_A.city"},
"geometry":{"type": "MultiPolygon","coordinates": [[[[68.9519,64.4023,102.9405],[68.78,64.4321,104.3928],[68.6503,64.4404,92.5875],[68.5091,64.4461,94.5186],[68.4172,64.4882,82.1271],[68.4063,64.5309,105.3059],[68.3551,64.575,111.0531],[68.3341,64.6298,125.7796],[68.35,64.6405,121.5805],[68.3962,64.6363,120.498],[68.4496,64.6162,107.3962],[68.5404,64.5891,104.5168],[68.5784,64.5994,93.6902],[68.5856,64.6194,97.427],[68.6104,64.6627,87.3985],[68.6247,64.7509,67.1189],[68.6569,64.8142,70.7387],[68.623,64.9043,50.7284],[68.5676,64.9519,66.6277],[68.4955,65.003,65.8773],[68.4977,65.0652,57.636],[68.5076,65.1332,74.2095],[68.5313,65.2,88.2204],[68.4133,65.2581,99.8997],[68.3458,65.2828,105.1404],[68.271,65.2636,100.5745],[68.1618,65.2462,78.5176],[67.9996,65.2379,97.0109],[67.9323,65.2739,81.0391],[67.849,65.3148,67.7186],[67.6142,65.4025,49.8909],[67.6217,65.4436,56.7499],[67.6421,65.4668,66.9096],[67.6655,65.5092,60.1547],[67.6795,65.5611,36.4647],[67.6455,65.6015,46.6324],[67.5703,65.6153,51.2694],[67.4694,65.6256,64.2452],[67.4028,65.6579,59.4863],[67.313,65.6768,40.3752],[67.1791,65.685,35.6198],[67.1183,65.7123,33.6881],[67.109,65.7427,27.6947],[67.0638,65.787,32.321],[66.965,65.8605,33.7851],[66.8637,65.8852,39.9596],[66.7322,65.8981,39.1113],[66.6663,65.9495,21.4484],[66.634,65.9948,33.2588],[66.5539,66.0222,20.4561],[66.4043,66.0552,15.857],[66.2474,66.1254,4.6146],[66.2239,66.1844,4.5004],[66.1682,66.2573,7.0513],[66.0707,66.2999,4.4524],[65.9791,66.3342,12.2825],[65.7789,66.4256,56.5403],[65.4177,66.5423,43.1772],[65.3069,66.6328,114.6796],[65.2044,66.7337,174.9968],[65.1732,66.8106,202.4125],[65.1189,66.9011,901.0917],[65.035,66.8708,936.958],[64.9865,66.8605,578.306],[64.8829,66.8218,590.5291],[64.7596,66.8203,645.7392],[64.687,66.8047,449.1238],[64.6022,66.7906,495.7947],[64.586,66.7496,860.3312],[64.5637,66.7281,1107.3984],[64.5316,66.7212,946.0726],[64.4586,66.7136,1342.0179],[64.367,66.6895,603.272],[64.2866,66.6426,898.6415],[64.2059,66.6332,805.2413],[64.0869,66.6361,628.6299],[64.0247,66.6432,977.6575],[63.9541,66.6192,684.5181],[63.87,66.5754,984.8561],[63.81,66.5368,947.3109],[63.6994,66.5119,501.037],[63.6104,66.4792,701.949],[63.5541,66.4749,796.6904],[63.4651,66.4714,696.5],[63.3942,66.4553,715.1005],[63.3385,66.4215,762.2387],[63.3158,66.3826,893.7712],[63.312,66.3557,450.1337],[63.2403,66.3233,492.6125],[63.305,66.2708,597.9127],[63.3236,66.2289,803.8916],[63.2854,66.2411,668.7881],[63.2237,66.2479,783.1881],[63.157,66.2366,612.09],[63.0644,66.1856,573.4567],[63.0369,66.1328,322.05],[63.0163,66.1111,544.5939],[62.97,66.1003,505.1025],[62.9404,66.0849,475.4994],[62.9118,66.0402,653.5227],[62.8348,66.022,675.1575],[62.8801,65.9905,571.9293],[62.8965,65.9648,685.547],[62.8256,65.9353,804.4771],[62.79,65.91,931.5116],[62.7865,65.8838,670.9837],[62.7754,65.8558,425.4822],[62.7502,65.8487,419.884],[62.1837,65.7259,1028.7654],[62.0625,65.7016,1091.5206],[62.1255,65.6818,859.9639],[62.3011,65.6031,498.2043],[62.3461,65.5462,366.919],[62.4138,65.5136,258.2026],[62.4361,65.4868,217.3475],[62.4327,65.4358,131.49],[62.4578,65.4021,151.7098],[62.5504,65.3663,105.3652],[62.6916,65.3236,160.2027],[62.8132,65.3094,151.0487],[62.8746,65.2906,154.2867],[62.8723,65.2574,149.9648],[62.8545,65.1846,148.2038],[62.8176,65.0796,127.3446],[62.8183,64.9822,120.6988],[62.7423,64.906,129.9591],[62.747,64.8855,134.1681],[62.7929,64.8629,141.3439],[62.8491,64.8158,152.0835],[62.8742,64.7726,124.7551],[62.8376,64.7163,138.0706],[62.7842,64.6753,138.045],[62.697,64.6436,128.4354],[62.6005,64.6202,129.134],[62.5619,64.6088,127.7721],[62.5669,64.583,111.3068],[62.5921,64.5572,106.1434],[62.67,64.5226,89.293],[62.7815,64.4958,85.1232],[62.8859,64.4736,76.8407],[62.9863,64.4958,91.0736],[63.0223,64.5107,82.2505],[63.0676,64.5139,77.3661],[63.1881,64.4958,86.578],[63.4345,64.4415,101.8098],[63.4787,64.4067,100.1975],[63.4938,64.3838,102.9805],[63.495,64.3443,135.0053],[63.5082,64.3209,139.808],[63.5834,64.2867,151.4005],[63.6838,64.2537,128.7186],[63.7686,64.2564,102.3891],[63.8635,64.2712,122.3919],[63.9424,64.2958,139.7647],[64.0146,64.3325,130.614],[64.102,64.3548,142.1668],[64.2057,64.3598,163.361],[64.3221,64.352,164.3286],[64.4892,64.3537,165.5409],[64.5826,64.3878,151.5376],[64.6278,64.3853,143.6645],[64.6881,64.377,137.1353],[64.9066,64.4239,75.6317],[65.0011,64.4357,36.1613],[65.0648,64.4302,27.6],[65.1108,64.4288,25.9966],[65.2479,64.4434,10.94],[65.3621,64.4661,10.161],[65.4377,64.4792,11.1444],[65.5588,64.4949,11.7705],[65.6469,64.493,12.7501],[65.7868,64.5056,10.1075],[65.9736,64.5178,11.9833],[66.1791,64.5268,35.8581],[66.2571,64.5118,33.4285],[66.3546,64.4741,16.3714],[66.4027,64.4499,10.4027],[66.4759,64.4535,32.2862],[66.7334,64.5067,25.1727],[66.8251,64.5072,58.8496],[66.896,64.482,84.6797],[66.9476,64.4451,99.8351],[66.957,64.413,124.464],[66.9234,64.3802,109.1348],[66.8668,64.3182,106.8078],[66.8399,64.2558,161.6348],[66.8786,64.2025,175.3887],[66.9748,64.1588,167.98],[67.1309,64.1436,145.5812],[67.2282,64.1291,191.2156],[67.2648,64.0942,147.5852],[67.2807,64.0567,151.5337],[67.3899,64.0708,101.0686],[67.549,64.0716,141.941],[67.6686,64.0693,138.0113],[67.7374,64.0851,114.3079],[67.7645,64.0728,110.8895],[67.8074,64.0283,136.3375],[67.8691,64.0342,121.3905],[67.9283,64.0733,115.2359],[68.0341,64.1056,98.032],[68.1453,64.1256,84.9272],[68.1888,64.1446,105.197],[68.2367,64.1738,98.1252],[68.3777,64.2227,76.0038],[68.5133,64.2723,94.0137],[68.5712,64.2658,94.1932],[68.6506,64.2355,97.3428],[68.7743,64.2017,106.063],[68.9478,64.1696,74.6114],[68.9738,64.1997,92.1862],[68.9578,64.2571,96.1855],[69.0066,64.2881,85.667],[69.047,64.3183,92.3149],[68.98,64.3586,103.7459],[68.9519,64.4023,102.9405]]]]}}