{"type":"Feature","properties":{"featurecla":"Lake","scalerank":0,"name":"Lake Baikal","name_abb":"L. Baikal","name_alt":null,"note":null,"delta":null,"dam_name":null,"year":-99,"admin":null,"min_zoom":1.0,"min_label":3.0},
"geometry":{"type": "Polygon","coordinates": [[[109.87332783059878,55.718533218062987,455.0165],[109.86214199376775,55.725892321241275,455.1534],[109.85831526011503,55.7485583590304,455.4389],[109.84742378741117,55.760332924115687,455.2387],[109.83035066803757,55.766220206658318,455.2543],[109.80768463024839,55.770046940311005,455.1783],[109.81445500517242,55.776817315235036,455.0877],[109.79649879341741,55.782115869523409,455.0505],[109.61575921935855,55.7903580650831,455.4374],[109.61575921935855,55.782998961904809,455.1453],[109.6672729416066,55.783587690159067,455.0876],[109.72320212576165,55.776228586980778,455.56],[109.77677639689961,55.7623934730056,454.9573],[109.82122538009645,55.742671076487767,454.9468],[109.80385789659573,55.739727435216452,455.2385],[109.69612062606552,55.76474838602266,456.2105],[109.60310156189189,55.770635668565291,455.0],[109.55924130694927,55.766514570785432,455.0],[109.51950214978649,55.753856913318771,539.4378],[109.48623900342062,55.729130326639705,474.2886],[109.44149565609661,55.690862990112606,456.0709],[109.4173577976718,55.674378598993229,625.0103],[109.37438063511058,55.658777300255252,498.2107],[109.36878771669512,55.650240740568421,455.0],[109.36348916240672,55.634933805957587,455.0],[109.35083150494006,55.624631061507984,455.7891],[109.31138671190445,55.601965023718833,459.0393],[109.258989897275,55.591956643396372,499.9546],[109.24633223980834,55.5857749967266,499.9018],[109.22131128900213,55.568113149098707,455.0],[109.20129452835715,55.558104768776218,612.5872],[109.19746779470444,55.5422091059111,455.0],[109.19746779470444,55.509240323672373,465.8859],[109.19128614803469,55.497760122714226,461.588],[109.17568484929672,55.481864459849106,455.0],[109.1700919308812,55.468323710001044,455.0],[109.1780397623138,55.467440617619673,455.0],[109.19040305565329,55.463319519839814,455.0],[109.19746779470444,55.4621420633313,455.0],[109.19746779470444,55.455371688407268,455.0],[109.18834250676338,55.442714030940607,455.0],[109.19746779470444,55.422991634422772,455.0],[109.2118916369339,55.402091781396422,455.0],[109.21836764773082,55.386490482658445,455.0],[109.2110085445525,55.363824444869323,478.888],[109.19982270772152,55.343218955970087,455.0],[109.19422978930601,55.323496559452281,455.0],[109.20482689788275,55.303774162934445,455.0],[109.19570160994169,55.27492647847555,455.0],[109.19069741978046,55.219586022574788,455.0],[109.18422140898355,55.188383425098834,455.0],[109.16685392548277,55.1627737460384,455.0],[109.11269092609052,55.115675485697324,732.3887],[109.10121072513243,55.088888350128343,455.0],[109.10650927942078,55.063278671067877,467.3223],[109.10268254576806,55.049737921219815,467.7706],[109.08443196988588,55.043850638677185,485.8104],[109.06559266574948,55.04267318216867,519.2026],[109.0473420898673,55.038552084388812,492.931],[109.03056333462081,55.031192981210523,692.3431],[108.99229599809371,54.99999038373457,455.0],[108.9646257701433,54.983211628488078,495.812],[108.93430626504875,54.969965242767131,460.6637],[108.90339803169991,54.961134318953185,649.0894],[108.91399514027665,54.947593569105123,455.0],[108.94637519426112,54.93405281925709,455.0],[108.95785539521927,54.920217705281885,455.0],[108.93695554219295,54.909620596705139,455.839],[108.92694716187049,54.894019297967162,455.0],[108.92164860758209,54.877534906847785,455.0],[108.91340641202243,54.862522336364094,455.0],[108.89721638503016,54.851925227787348,456.0534],[108.87572780374956,54.841622483337744,455.0],[108.85659413548598,54.8301422823796,455.0],[108.84864630405343,54.814540983641621,455.0],[108.85070685294335,54.801588962047816,455.0],[108.85453358659606,54.794229858869528,455.0],[108.85718286374026,54.78775384807264,455.0],[108.85541667897746,54.776862375368779,455.0],[108.85070685294335,54.772741277588921,455.0],[108.83275064118834,54.761261076630774,455.0],[108.82745208689994,54.756551250596686,455.0],[108.82509717388291,54.7465428702742,455.0],[108.82362535324722,54.72505428899359,455.0],[108.82127044023019,54.714751544543986,455.0],[108.81744370657748,54.7082755337471,455.0],[108.69086713191086,54.564625839706821,455.0],[108.6584870779264,54.539899253027784,470.4718],[108.58666223090626,54.4983939111022,462.79],[108.56016945946442,54.468368770134788,491.8173],[108.54280197596364,54.432750710751833,455.0],[108.53603160103961,54.413028314234026,455.0],[108.53102741087838,54.383886265647988,455.0],[108.51218810674192,54.351800575790634,455.0],[108.510127557852,54.341792195468145,455.0],[108.50895010134349,54.319126157679023,455.0],[108.50541773181789,54.310295233865077,455.0],[108.49805862863963,54.305291043703818,482.5019],[108.47686441148613,54.29881503290693,579.2969],[108.4674447594179,54.2938108427457,542.3107],[108.46155747687527,54.286157375440268,512.8319],[108.4530209171885,54.268495527812377,455.0],[108.44713363464587,54.259370239871288,455.0],[108.38355098318539,54.183424295071319,455.0],[108.37560315175284,54.176359556020174,455.0],[108.36530040730321,54.173710278875973,461.0684],[108.33969072824277,54.1710610017318,509.22],[108.32614997839471,54.167822996333342,548.8289],[108.32055705997919,54.163113170299226,553.4056],[108.31731905458076,54.155459702993824,517.9381],[108.30407266885987,54.140152768382961,455.0],[108.29995157107999,54.13249930107753,455.0],[108.29995157107999,54.122196556627927,455.0],[108.30583885362262,54.10247416011012,455.0],[108.30672194600402,54.090993959151973,455.0],[108.29023755488464,54.056258992150447,455.0],[108.28994319075753,54.050077345480673,455.0],[108.2822897234521,54.0465449759551,455.0],[108.27757989741798,54.037714052141155,455.0],[108.27404752789244,54.027705671818666,455.0],[108.26933770185832,54.019463476258977,455.0],[108.2602124139172,54.012693101334946,455.0],[108.2404900173994,54.003273449266743,455.0],[108.23165909358545,53.9953256178342,455.0],[108.22665490342422,53.987083422274509,455.0],[108.21075924055913,53.940573890187693,455.0],[108.19898467547387,53.917907852398542,455.0],[108.1819115561002,53.899951640643536,455.0],[108.13864002941187,53.885233434286931,455.0],[108.07387992144288,53.837840809818744,455.0],[107.99705088426151,53.816646592665251,455.0],[107.98468759092196,53.806932576469904,455.0],[107.9729130258367,53.793980554876129,455.0],[107.67030670314534,53.654157594488566,456.0],[107.65264485551745,53.642677393530448,455.0],[107.60171986152369,53.584687660485514,455.0],[107.56551307388651,53.525226106804894,455.0],[107.55020613927564,53.516395182990948,455.0],[107.54726249800433,53.51080226457546,455.0],[107.54726249800433,53.474595476938248,455.0],[107.54902868276713,53.4684138302685,455.0],[107.55256105229267,53.4648814607429,455.0],[107.55344414467407,53.459288542327414,455.0],[107.54726249800433,53.447513977242153,455.0],[107.52842319386792,53.432207042631291,455.0],[107.48103056939971,53.420138113418915,455.0],[107.4604250805005,53.409541004842168,455.0],[107.44452941763535,53.398649532138279,455.0],[107.13309217113004,53.27766587588718,455.0],[107.10924867683241,53.25411674571663,455.0],[107.03183091139675,53.228212702529049,455.0],[107.01593524853166,53.215555045062388,455.0],[106.97384117835185,53.169928605356972,455.0],[106.95500187421538,53.158154040271711,455.0],[106.90878670625574,53.145790746932192,455.0],[106.88788685322936,53.131955632956988,455.0],[106.88082211417822,53.120475431998869,455.0],[106.87640665227127,53.109289595167866,455.4769],[106.86963627734724,53.100753035481034,455.7848],[106.84314350590535,53.094571388811289,456.6133],[106.82901402780305,53.087212285632972,455.0],[106.81723946271779,53.077498269437626,455.0],[106.81223527255656,53.066901160860908,456.6909],[106.80340434874262,53.055420959902762,455.0],[106.78309322397052,53.041585845927585,455.0],[106.74453152331625,53.022157813536893,488.3846],[106.74453152331625,53.015387438612862,462.2993],[106.77661721317361,53.018625444011292,579.4441],[106.86109971766041,53.0427633024361,455.0],[106.87051936972864,53.030694373223696,482.2538],[106.90025014656891,53.014209982104319,525.4174],[106.90908107038285,53.001257960510543,455.0],[106.90937543451003,52.989189031298139,632.1051],[106.90319378784022,52.984479205264023,573.3921],[106.89112485862785,52.981241199865593,551.2708],[106.819888739862,52.943856955719866,455.0],[106.7960452455643,52.924428923329174,455.0],[106.77867776206352,52.899407972522965,455.0],[106.76866938174106,52.871149016318327,455.0],[106.76160464268992,52.862318092504381,455.0],[106.74453152331625,52.850837891546263,455.0],[106.72981331695968,52.843478788367975,642.5442],[106.68300942074575,52.83052676677417,665.3997],[106.65121809501551,52.815219832163308,480.3063],[106.60706347594578,52.7816623216703,656.1058],[106.57321160132562,52.775186310873409,470.3339],[106.58528053053806,52.7554639143556,455.0],[106.5879298076822,52.748693539431571,455.0],[106.58675235117369,52.74104007212614,455.0],[106.58027634037677,52.730442963549393,455.0],[106.5726228730714,52.726321865769563,455.0],[106.56438067751168,52.723378224498248,455.0],[106.49873747716134,52.678634877174233,455.0],[106.48755164033031,52.6727475946316,455.0],[106.47018415682953,52.667154676216086,455.0],[106.40866205425903,52.6318309809603,455.0],[106.34095830501872,52.6179958669851,455.0],[105.98360025468088,52.494657297716941,455.0],[105.94386109751809,52.47199125992779,455.0],[105.90765430988091,52.44432103197741,455.0],[105.87704044065924,52.412824070374342,455.0],[105.83965619651349,52.361310348126295,455.0],[105.80492122951199,52.339821766845688,455.0],[105.78843683839261,52.326281016997626,455.0],[105.75752860504377,52.289191136979014,455.0],[105.74899204535694,52.282420762055011,455.0],[105.72338236629651,52.267996919825549,455.0],[105.70719233930424,52.251512528706172,455.0],[105.67216300817557,52.196760801059696,455.0],[105.63477876402987,52.165852567710857,455.0],[105.62683093259733,52.157316008024026,455.0],[105.61446763925778,52.139065432141876,455.0],[105.60740290020664,52.130823236582188,455.0],[105.5544173573229,52.095499541326376,455.0],[105.54175969985624,52.089906622910888,455.0],[105.51938802619424,52.084313704495372,455.0],[105.47817704839582,52.056937840672134,455.0],[105.45580537473381,52.048990009239589,456.2485],[105.45609973886093,52.040453449552757,455.0947],[105.44079280425012,52.034271802883012,455.8227],[105.41930422296946,52.029856340976039,457.0341],[105.40134801121445,52.028384520340381,464.0043],[105.38633544073076,52.025440879069038,573.0392],[105.35307229436484,52.011311400966719,573.3929],[105.33629353911834,52.008073395568289,812.0099],[105.30744585465948,51.9989481076272,708.6166],[105.28595727337881,51.977753890473707,455.0],[105.26858978987809,51.95302730379467,455.0],[105.25063357812303,51.93301054314972,515.6236],[105.22090280128276,51.917703608538858,474.3162],[105.18646219840832,51.909755777106312,455.0],[105.08667275931072,51.901807945673738,455.0],[104.99718606466269,51.87031098407067,455.0],[104.93713578272781,51.8641293374009,564.1621],[104.81144230044259,51.8770813589947,519.8718],[104.7502145619992,51.87031098407067,551.7238],[104.73343580675271,51.858830783112523,455.0],[104.70517685054807,51.823801451983854,455.0],[104.69193046482712,51.816147984678423,455.0],[104.67956717148758,51.812615615152851,455.0],[104.65807859020697,51.794953767524959,455.0],[104.64718711750311,51.788183392600928,455.0],[104.63305763940082,51.784651023075355,455.0],[104.62246053082407,51.784651023075355,455.0],[104.59950012890778,51.788183392600928,455.0],[104.24655754047694,51.782001745931154,455.0],[104.1114444061235,51.758158251633489,455.0],[103.99487621177934,51.752270969090858,552.0974],[103.91392607681814,51.733726029081566,455.0],[103.79058750754996,51.731665480191651,689.286],[103.72729922021665,51.719302186852104,455.0],[103.70875428020736,51.685744676359093,455.0],[103.72288375830965,51.672498290638174,455.0],[103.7752805729391,51.6568969919002,455.0],[103.79470860532979,51.648360432213394,455.0],[103.80972117581354,51.638057687763762,455.0],[103.85358143075615,51.6168634706103,455.0],[103.87389255552824,51.610681823940524,455.0],[103.92687809841192,51.606560726160694,455.0],[103.95160468509096,51.601262171872321,455.0],[103.99399311939794,51.574769400430455,455.0],[104.07876998801186,51.562994835345194,455.0],[104.13852590581962,51.538268248666128,455.0],[104.18768471505058,51.532086601996383,455.0],[104.2574490131808,51.508243107698718,455.0],[104.30896273542885,51.499706548011886,455.0],[104.4175830983404,51.495585450232056,455.0],[104.52237672759929,51.480572879748337,455.0],[104.62805344923953,51.487048890545225,455.0],[104.7084148559465,51.474979961332821,455.0],[104.78789317027207,51.473508140697163,455.0],[104.80643811028136,51.478217966731279,455.0],[104.94155124463481,51.538268248666128,455.0],[104.96333419004253,51.5426837105731,455.0],[105.01631973292621,51.545627351844416,455.0],[105.43519988583461,51.61450855759324,455.0],[105.74840331710271,51.704289616368413,455.0],[105.8016832241135,51.710176898911044,455.0],[105.84760402794609,51.727838746538936,455.0],[105.87380243526076,51.733726029081566,455.0],[105.90265011971968,51.729604931301736,455.0],[105.91854578258477,51.729899295428851,455.0],[105.93238089656,51.737552762734282,455.0],[106.01185921088552,51.820857810712539,455.0],[106.04011816709016,51.842346391993146,455.0],[106.06072365598942,51.854709685332693,455.0],[106.06984894393048,51.857064598349723,455.0],[106.07514749821883,51.861480060256724,455.0],[106.08545024266846,51.880319364393131,455.0],[106.09045443282969,51.884440462172989,455.0],[106.09104316108397,51.888561559952819,455.0],[106.11400356300021,51.906812135835,455.0],[106.16227927984983,51.93301054314972,455.0],[106.18406222525755,51.938897825692351,455.0],[106.19318751319867,51.943018923472181,455.0],[106.19701424685138,51.950083662523355,455.0],[106.1955424262157,51.961269499354358,462.6064],[106.19083260018158,51.973632792693877,456.7965],[106.18347349700332,51.983346808889223,455.0],[106.1725820242994,51.987467906669053,458.8011],[106.16640037762966,51.996887558737285,455.0],[106.1814129481134,52.017493047636492,462.1294],[106.21055499669939,52.048990009239589,457.678],[106.2214464694033,52.055760384163619,457.8093],[106.22998302909008,52.064885672104708,460.7428],[106.23351539861568,52.074894052427169,459.0677],[106.23057175734436,52.083724976241115,457.0899],[106.23263230623428,52.08755170989383,456.5414],[106.23469285512419,52.089906622910888,455.6856],[106.23616467575988,52.0928502641822,455.9451],[106.23675340401411,52.097265726089176,455.0],[106.25029415386217,52.089906622910888,466.4001],[106.26383490371023,52.099031910851977,462.7866],[106.27708128943118,52.110806475937238,472.8781],[106.28738403388076,52.1243472257853,472.9908],[106.29209385991487,52.138476703887619,455.1776],[106.28738403388076,52.157904736278311,455.0],[106.26354053958312,52.186458056610064,455.5906],[106.25559270815057,52.222370480120134,455.6995],[106.24617305608234,52.241209784256569,456.5723],[106.24411250719243,52.248274523307714,455.0],[106.24676178433663,52.261520909028661,455.0],[106.25117724624357,52.267113827444149,455.2721],[106.25765325704049,52.270351832842607,456.4284],[106.26471799609163,52.27565038713098,455.9438],[106.3227077291366,52.333640120175914,455.0],[106.33624847898466,52.343648500498375,455.0],[106.34772867994275,52.346003413515433,454.7451],[106.37451581551176,52.344531592879775,454.9017],[106.38893965774122,52.34659214176969,454.5922],[106.48637418382179,52.38250456527976,455.0],[106.5523117482993,52.386920027186733,455.0],[106.56644122640159,52.385448206551075,455.0],[106.594111454352,52.378089103372787,455.0],[106.62089858992096,52.378089103372787,455.0],[106.66210956771937,52.36248780463481,455.0],[106.73982169728214,52.321276826836367,455.8083],[106.78544813698755,52.31656700080228,455.0],[106.82813093542165,52.330990843031714,455.0],[106.85491807099066,52.358661070982095,456.9346],[106.88788685322936,52.432546466892148,459.2604],[106.91408526054408,52.464337792622359,462.8928],[106.95500187421538,52.488475651047168,455.0],[107.12985416573162,52.557062492668848,471.0742],[107.31913029947731,52.607987486662637,455.0],[107.36122436965712,52.626238062544786,455.0],[107.39507624427728,52.652436469859509,563.6373],[107.41038317888808,52.661267393673455,559.1099],[107.43422667318578,52.672158866377316,455.0],[107.53048374275784,52.70100655083624,471.6676],[107.55432723705547,52.705422012743213,515.5057],[107.72240915364767,52.7015952790905,457.8743],[107.75390611525074,52.706599469251728,455.0],[107.77274541938721,52.712192387667244,455.0],[107.78628616923527,52.712486751794358,455.0],[107.79276218003213,52.7136642083029,461.2801],[107.79894382670193,52.717196577828474,455.0],[107.80806911464299,52.724850045133905,455.0],[107.81336766893133,52.727499322278078,455.0],[107.86252647816235,52.741334436253283,546.0668],[107.88519251595147,52.751048452448629,639.0491],[107.92610912962277,52.777541223890466,455.0],[107.96849756392976,52.790198881357128,543.3595],[107.98468759092196,52.803150902950932,472.8942],[108.00558744394834,52.839652054715259,504.0731],[108.01971692205063,52.852604076309035,455.0],[108.04297168809404,52.857608266470294,455.0],[108.20722687103353,52.924134559202031,460.1089],[108.21811834373739,52.936792216668692,458.5068],[108.22577181104282,52.953570971915212,469.9855],[108.24372802279788,52.965345537000474,633.5649],[108.27993481043507,52.981829928119851,468.8932],[108.31466977743656,53.010677612578746,469.9566],[108.33321471744586,53.030105644969439,470.5284],[108.34145691300557,53.046590036088816,481.5069],[108.33763017935286,53.059836421809734,469.8665],[108.32879925553891,53.064251883716707,468.9481],[108.31731905458076,53.065723704352365,460.3789],[108.30672194600402,53.070139166259338,455.0],[108.29936284282576,53.077498269437626,470.946],[108.29465301679164,53.085151736743057,455.0],[108.28641082123193,53.104874133260893,461.2943],[108.29376992441024,53.111055779930638,455.0],[108.3046613971141,53.117531790727554,455.0],[108.33233162506451,53.121652888507384,475.218],[108.37560315175284,53.143435833915134,457.1233],[108.37913552127844,53.145790746932192,455.0],[108.39768046128773,53.150794937093423,467.0275],[108.60785644805975,53.282964430175554,572.3162],[108.65377725189228,53.300626277803445,455.0],[108.68350802873255,53.305041739710418,455.0],[108.69704877858061,53.292972810498014,455.0],[108.70911770779304,53.276194055251523,471.0946],[108.73649357161628,53.273544778107322,455.0],[108.78712420148292,53.282964430175554,455.0],[108.92930207488752,53.348018902271633,455.0],[108.97904961237276,53.364797657518153,810.2235],[108.97934397649988,53.369801847679383,671.2078],[108.99818328063634,53.393056613722791,465.9888],[109.00171565016188,53.434561955648348,462.8008],[108.99229599809371,53.478716574718106,457.1066],[108.97904961237276,53.508741715685545,456.5131],[108.9290077107604,53.57350182365451,458.0374],[108.89662765677588,53.59440167668086,456.5132],[108.85541667897746,53.598228410333547,481.8009],[108.79448330466118,53.579683470324255,455.0],[108.6773263820628,53.562904715077764,802.5871],[108.597259339483,53.521399373152207,455.0],[108.55074980739619,53.504620617905687,455.0],[108.52602322071715,53.516395182990948,455.0],[108.56487928549853,53.53258520998321,790.95],[108.58136367661785,53.544654139195586,870.2161],[108.58783968741477,53.559666709679306,609.7874],[108.5963762471016,53.571146910637452,583.8788],[108.64936178998528,53.604410057003321,603.9261],[108.68350802873255,53.640028116386247,628.1276],[108.69822623508918,53.660044877031225,671.8535],[108.71147262081007,53.692719295142837,641.2208],[108.80831841863642,53.78985945709627,646.6589],[108.90663603709839,53.854619565065235,455.0],[108.91870496631077,53.859329391099351,455.0],[108.96521449839759,53.85756320633655,561.2677],[109.00583674794177,53.8708095920575,455.0],[109.01937749778978,53.871987048566012,455.0],[109.04086607907044,53.864922309514867,455.0],[109.0517575517743,53.851970287921063,455.0],[109.06029411146113,53.835191532674543,455.0],[109.07442358956342,53.817235320919536,455.0],[109.06500393749519,53.813997315521078,480.4668],[109.06264902447816,53.811053674249763,488.1483],[109.06706448638511,53.803694571071475,455.0],[109.06706448638511,53.796335467893186,455.0],[109.04469281272316,53.795452375511786,455.0],[109.03645061716344,53.786032723443554,455.0],[109.03232951938361,53.774846886612551,458.8537],[109.02261550318826,53.769548332324206,547.4029],[109.01878876953555,53.76572159867149,455.0],[109.08089960036034,53.741583740246682,455.0],[109.07265740480062,53.730692267542821,455.0],[109.06382648098668,53.724804985000191,455.0],[109.05646737780842,53.717740245949017,455.0],[109.0499913670115,53.688892561490121,455.0],[109.04204353557896,53.679178545294775,455.0],[108.99523963936502,53.652097045598651,455.0],[108.98493689491539,53.643266121784706,455.0],[108.98935235682239,53.639145024004875,455.0],[109.04675336161307,53.625604274156814,455.0],[109.12564294768436,53.618245170978525,455.0],[109.13653442038822,53.6191282633599,455.0],[109.15066389849051,53.624426817648271,455.0],[109.15655118103314,53.625604274156814,455.0],[109.16685392548277,53.626487366538214,555.9199],[109.16832574611846,53.628842279555244,491.541],[109.16714828960988,53.633257741462216,462.4536],[109.1700919308812,53.639145024004875,513.8063],[109.18687068612775,53.655040686869967,455.0],[109.19746779470444,53.663282882429655,455.5608],[109.20806490328118,53.666520887828113,513.6122],[109.21041981629827,53.671230713862229,533.0118],[109.18422140898355,53.700667126575382,537.3187],[109.19099178390758,53.708614958007928,584.2756],[109.20777053915407,53.739228827229624,455.0],[109.21130290867967,53.749237207552113,472.2867],[109.20659308264555,53.758656859620316,506.661],[109.18834250676338,53.776613071375351,526.0986],[109.18422140898355,53.78662145169784,690.7702],[109.19393542517889,53.807226940597047,457.224],[109.23573513123159,53.844022456488517,610.5979],[109.24515478329977,53.86845467904044,455.4676],[109.26046171791063,53.889060167939647,455.0],[109.44031819958809,54.001507264503942,616.5438],[109.47181516119116,54.027705671818666,812.9419],[109.48123481325939,54.033887318488439,781.4883],[109.48947700881911,54.042423878175242,890.3391],[109.49300937834465,54.053609715006246,752.2379],[109.49477556310745,54.063029367074478,820.2842],[109.5044895793028,54.086578497245,811.3089],[109.51302613898963,54.099824882965919,720.3099],[109.51744160089657,54.113365632813981,473.9379],[109.52009087804078,54.118369822975211,455.0],[109.52391761169349,54.120136007738012,455.0],[109.53686963328727,54.12337401313647,520.0273],[109.54069636693998,54.125140197899242,535.3541],[109.55688639393225,54.143685137908534,489.3029],[109.56100749171208,54.15339915410388,457.9169],[109.56130185583919,54.166939903951942,482.7202],[109.55247093202524,54.184013023325576,474.2971],[109.52009087804078,54.222869088106961,499.4181],[109.50507830755708,54.255543506218572,488.9819],[109.48918264469194,54.271144804956549,523.8076],[109.47681935135245,54.287923560203069,528.0071],[109.47858553611519,54.310295233865077,657.5759],[109.49300937834465,54.326779624984454,455.0],[109.50655012819271,54.336199277052657,468.0474],[109.51067122597254,54.347385113883661,464.1121],[109.48270663389508,54.391245368826276,630.7808],[109.48800518818342,54.406257939309995,759.2787],[109.50154593803148,54.420387417412314,835.134],[109.51273177486246,54.440992906311521,601.6674],[109.51243741073534,54.452767471396811,488.8546],[109.50743322057411,54.463658944100672,463.4497],[109.5018403021586,54.472489867914618,468.4888],[109.49889666088728,54.478671514584391,465.2551],[109.50125157390437,54.489562987288252,472.91],[109.51037686184543,54.5086966555518,465.8354],[109.51479232375243,54.527535959688237,574.9534],[109.52450633994778,54.537544340010726,622.1085],[109.52715561709192,54.5428428942991,637.8302],[109.52627252471052,54.54961326922313,572.799],[109.52126833454929,54.559916013672733,495.7567],[109.52009087804078,54.564625839706821,483.0487],[109.52009087804078,54.586408785114571,475.649],[109.51803032915086,54.596122801309917,481.0453],[109.51273177486246,54.605542453378121,483.2675],[109.52215142693069,54.625264849895956,475.4832],[109.52715561709192,54.632918317201387,466.4622],[109.56159621996636,54.657939268007567,484.7556],[109.60369029014618,54.6758954797626,455.0],[109.63842525714773,54.699444609933124,509.0934],[109.64990545810582,54.742127408367224,487.0298],[109.64401817556319,54.760672348376517,483.9268],[109.63489288762213,54.778039831877294,467.2148],[109.6307717898423,54.795701679505186,467.9261],[109.63930834952907,54.814540983641621,455.0],[109.64931672985159,54.820428266184251,455.0],[109.67492640891203,54.826021184599767,491.0083],[109.68405169685309,54.831614103015255,543.2081],[109.69023334352289,54.8413281192106,553.0251],[109.68846715876009,54.845449216990431,480.4937],[109.68257987621746,54.84957031477029,468.1196],[109.67728132192906,54.858989966838493,485.4949],[109.67492640891203,54.861050515728436,507.6546],[109.67021658287791,54.863994156999752,618.5828],[109.6655067568438,54.868409618906725,488.8551],[109.66344620795388,54.876063086212127,455.0],[109.66580112097097,54.879006727483443,455.0],[109.67051094700508,54.881067276373386,531.5511],[109.67492640891203,54.883716553517559,688.8013],[109.67728132192906,54.889603836060189,509.4257],[109.71525429432904,54.910503689086539,631.0087],[109.72496831052439,54.931109177985775,495.0892],[109.71407683782053,54.972614519911332,472.6026],[109.71819793560041,54.9955749218276,509.9936],[109.73497669084691,55.012942405328374,486.873],[109.77294966324689,55.035902807244639,462.4082],[109.78030876642515,55.054447747253931,473.5374],[109.77177220673838,55.069165953610508,527.5266],[109.75587654387323,55.0877108936198,521.1124],[109.74704562005928,55.107138926010492,456.3581],[109.75970327752594,55.125683866019784,459.3375],[109.74851744069497,55.138047159359331,481.175],[109.73792033211822,55.145111898410477,474.7199],[109.73144432132131,55.152765365715908,488.3577],[109.73173868544842,55.167777936199627,498.6875],[109.73762596799105,55.179258137157746,455.7733],[109.7697116578484,55.211638191142242,455.0],[109.7953213369089,55.227533854007362,500.2964],[109.80444662484996,55.237836598456965,509.6768],[109.80768463024839,55.256087174339115,517.631],[109.80179734770576,55.269922288314319,501.0883],[109.79031714674767,55.279341940382523,512.6493],[109.77854258166241,55.286701043560811,667.5272],[109.77353839150112,55.293765782611985,513.9396],[109.777659489281,55.305834711824389,455.0],[109.79649879341741,55.324968380087938,567.9164],[109.80091425532441,55.342041499461573,455.0],[109.80326916834144,55.346751325495688,455.0],[109.81622118993522,55.353227336292576,455.0],[109.82122538009645,55.35852589058095,459.9704],[109.83741540708871,55.408273428066195,554.5485],[109.84065341248714,55.423874726804172,512.446],[109.84153650486854,55.438004204906491,485.0258],[109.84977870042826,55.450367498246038,455.0],[109.86832364043755,55.458904057932841,455.0],[109.90394169982045,55.468323710001044,1026.8916],[109.88157002615844,55.476565905560733,904.1371],[109.86331945027632,55.480981367467706,613.3196],[109.8533110699538,55.489223563027394,601.8725],[109.855960347098,55.509240323672373,462.5759],[109.86155326551352,55.515127606215,455.0],[109.87008982520035,55.521309252884748,455.0],[109.87656583599721,55.528668356063037,470.6384],[109.87597710774298,55.537204915749868,538.2946],[109.86832364043755,55.540442921148326,603.161],[109.8388872277244,55.5439752906739,501.4096],[109.82799575502048,55.544269654801042,455.0],[109.83829849947011,55.558987861157618,455.0],[109.85478289058949,55.57753280116691,455.0],[109.87303346647167,55.592839735777744,455.0],[109.88333621092124,55.598727018320375,455.0],[109.90129242267631,55.608735398642864,479.5005],[109.91071207474448,55.621098691982382,455.0],[109.91748244966851,55.6352281700847,480.1979],[109.92778519411814,55.650240740568421,455.0],[109.94544704174604,55.662309669780825,455.0],[109.9589877915941,55.667019495814941,455.0],[109.96104834048401,55.672612414230429,455.8801],[109.94456394936464,55.688213712968405,457.6367],[109.87332783059878,55.718533218062987,455.0165]],
[[107.76538631620889,53.317110668922822,455.0],[107.76774122922592,53.307691016854591,455.0],[107.77097923462441,53.300920641930588,455.0],[107.77333414764144,53.293855902879415,455.0],[107.77303978351432,53.282964430175554,455.0],[107.76891868573449,53.272661685725922,455.0],[107.75537793588643,53.255588566352287,455.0],[107.75243429461511,53.244991457775569,455.0],[107.73830481651277,53.237926718724395,486.4261],[107.64881812186474,53.228212702529049,864.3809],[107.62615208407561,53.220264871096504,805.8154],[107.60613532343064,53.2099621266469,757.6871],[107.58759038342134,53.197598833307353,623.9255],[107.57051726404774,53.183174991077919,592.5535],[107.55197232403845,53.171106061865515,624.7473],[107.49162767797645,53.145790746932192,664.1359],[107.42863375477026,53.102519220243835,935.364],[107.412443727778,53.087506649760115,694.0581],[107.39183823887879,53.077498269437626,543.9525],[107.10777685619672,53.0427633024361,455.0],[107.01740706916735,53.018036715757034,455.0],[106.96765953168205,53.010677612578746,649.295],[106.93616257007898,53.022157813536893,488.4987],[106.94411040151152,53.029516916715181,519.4232],[106.95235259707124,53.035404199257812,468.8588],[106.96088915675801,53.039819661164785,455.0],[106.97060317295336,53.0427633024361,470.9691],[106.97060317295336,53.050122405614388,455.0],[106.94940895579992,53.048061856724473,455.5713],[106.92939219515495,53.0427633024361,534.7798],[106.93351329293478,53.051005497995789,455.0],[106.93969493960458,53.057187144665562,455.0],[106.94764277103712,53.061602606572535,469.3082],[106.95735678723247,53.063957519589593,487.6844],[106.95735678723247,53.070139166259338,505.2348],[106.93822311896889,53.06778425324228,455.0],[106.92968655928206,53.068372981496566,475.4332],[106.92203309197669,53.070139166259338,469.3103],[106.93616257007898,53.075437720547711,492.5216],[106.95029204818132,53.082796823726,490.5284],[106.96353843390222,53.091627747539945,486.677],[106.97384117835185,53.101047399608177,455.0],[106.99091429772545,53.113410692947696,455.0],[107.01004796598903,53.117531790727554,455.0],[107.05302512855025,53.118414883108954,455.0],[107.0886431879332,53.130189448194216,455.0],[107.12573306795178,53.149323116457765,520.9748],[107.16223421971608,53.161686409797284,455.0],[107.19696918671764,53.151972393601937,455.0],[107.24082944166025,53.180231349806604,455.0],[107.25908001754243,53.186707360603492,455.0],[107.329727408054,53.197893197434496,455.0],[107.36446237505555,53.217321229825188,455.0],[107.46837291193305,53.244991457775569,455.0],[107.49162767797645,53.265302582547633,520.8638],[107.51311625925706,53.277960240014295,455.0],[107.64881812186474,53.309751565744534,526.5714],[107.67442780092523,53.3300626905166,561.8435],[107.72152606126627,53.388052423561561,455.0],[107.73830481651277,53.398943896265422,455.0],[107.78275379970967,53.410424097223569,455.0],[107.78658053336238,53.387169331180161,465.4484],[107.76538631620889,53.317110668922822,455.0]]]}}