{"type":"Feature","properties":{"featurecla":"Lake Centerline","scalerank":6,"rivernum":28,"dissolve":"28Lake Centerline","name":"Angara","name_alt":null,"note":null,"min_zoom":5.0,"strokeweig":0.3,"name_en":"Angara","min_label":6.0},
"geometry":{"type": "LineString","coordinates": [[106.497314453125,52.38312409061912,455.0],[106.48984375000003,52.400409246869117,455.0],[106.46748046875001,52.416522528119117,455.0],[106.41796875,52.42548248905662,455.0],[106.35361328125003,52.40997955936912,455.0],[106.267578125,52.385126043744116,455.0],[106.15488281250003,52.33832428593162,455.0],[106.02294921875,52.254022528119116,455.0],[105.81005859375,52.04279205936912,455.0],[105.6826171875,51.95722077030662,455.0],[105.572021484375,51.90265534061912,455.0],[105.47089843750001,51.862811590619117,455.0],[105.25234375000002,51.82086823124412,455.0],[105.03134765625003,51.800897528119116,455.0],[104.943359375,51.811883856244116,455.0],[104.89453125,51.830194403119116,455.0],[104.87832031250002,51.85639069218162,544.1762],[104.866943359375,51.87018463749412,584.9502],[104.86572265625,51.87152741093162,599.3009]]}}