{"type":"Feature","properties":{"featurecla":"River","scalerank":2,"rivernum":27,"dissolve":"27River","name":"Selenga4","name_alt":"Selenge","note":null,"min_zoom":2.1,"strokeweig":0.3,"name_en":"Selenga","min_label":3.1},
"geometry":{"type": "LineString","coordinates": [[106.58681640625002,52.15888092655662,463.1051],[106.56689453125,52.16217682499412,462.1988],[106.54541015625,52.16815827030662,461.9598],[106.52587890625,52.17829010624412,461.295],[106.51171875,52.193622137494117,460.3196],[106.50722656250002,52.21320221561912,459.4566],[106.508056640625,52.230731512494117,459.3562],[106.5029296875,52.24335358280662,459.8034],[106.480712890625,52.24823639530662,458.041],[106.47011718750002,52.258905340619116,457.9148],[106.47031250000003,52.28241608280662,457.2344],[106.47568359375003,52.30585358280662,455.0],[106.484619140625,52.324969793744117,455.0],[106.49824218750001,52.36505768436912,455.0],[106.497314453125,52.38312409061912,455.0]]}}