{"type":"Feature","properties":{"featurecla":"River","scalerank":7,"rivernum":384,"dissolve":"384River","name":"Vitim2","name_alt":null,"note":null,"min_zoom":6.0,"strokeweig":0.2,"name_en":"Vitim","min_label":7.0},
"geometry":{"type": "LineString","coordinates": [[111.5654296875,54.078631903119117,1379.9854],[111.57529296875003,54.081903387494116,1421.2483],[111.58974609375002,54.096454168744117,1406.0188],[111.59951171875002,54.099725653119116,1364.7234],[111.64423828125001,54.102069403119117,1397.1498],[111.65781250000003,54.10590241093162,1353.7257],[111.673828125,54.11615631718162,1353.4263],[111.69013671875001,54.129754949994116,1335.4885],[111.70849609375,54.141717840619116,1353.7595],[111.72988281250002,54.146844793744116,1287.2312],[111.73876953125,54.15119049686912,1285.394],[111.744384765625,54.169940496869117,1375.3066],[111.75058593750003,54.174188543744116,1395.3398],[111.81904296875001,54.18524811405662,1299.9808],[111.82832031250001,54.18854401249412,1295.3557],[111.83535156250002,54.195331121869117,1267.1946],[111.83837890625,54.20648834843162,1284.8535],[111.83544921875,54.23041412968162,1252.9193],[111.83535156250002,54.23627350468162,1301.0261],[111.8466796875,54.243182684369117,1350.9224],[111.86123046875002,54.24408600468162,1302.6938],[111.87656250000003,54.242792059369116,1243.3503],[111.890625,54.24310944218162,1242.4773],[111.90625,54.24799225468162,1242.822],[111.91640625000002,54.254510809369116,1243.363],[111.92568359375002,54.26239655155662,1261.063],[111.93896484375,54.27106354374412,1245.9816],[111.9501953125,54.27448151249412,1289.4182],[111.974853515625,54.27545807499412,1325.1152],[111.98681640625,54.277215887494116,1361.4613],[112.016357421875,54.28986237186912,1427.8204],[112.02783203125,54.291522528119117,1456.7727],[112.04160156250003,54.29010651249412,1327.4885],[112.06337890625002,54.284442449994117,1267.54],[112.07558593750002,54.284051824994116,1243.6689],[112.08505859375003,54.286249090619116,1283.1523],[112.107177734375,54.294549871869116,1308.8616],[112.341552734375,54.338006903119116,1270.0317],[112.38144531250003,54.354266668744117,1274.4639],[112.404541015625,54.36041901249412,1220.0999],[112.42343750000003,54.36115143436912,1188.1024],[112.43310546875,54.35516998905662,1175.153],[112.452392578125,54.32562897343162,1224.2788],[112.4453125,54.31159088749412,1330.8711],[112.44482421875,54.29071686405662,1297.0016],[112.4404296875,54.27179596561912,1198.6957],[112.421630859375,54.263544012494116,1185.5884],[112.407958984375,54.262567449994116,1249.9921],[112.3974609375,54.25958893436912,1272.0691],[112.388671875,54.254413153119117,1276.8325],[112.38037109375,54.246844793744117,1232.5381],[112.36904296875002,54.241961981244117,1279.3877],[112.322509765625,54.24310944218162,1427.386],[112.240234375,54.23273346561912,1302.4977],[112.22705078125,54.225702215619116,1287.5627],[112.2236328125,54.214862371869117,1228.0773],[112.21484375,54.205096746869117,1230.0242],[112.20351562500002,54.19806549686912,1197.4783],[112.17597656250001,54.19293854374412,1366.4701],[112.16933593750002,54.18671295780662,1318.2305],[112.165625,54.17792389530662,1267.129],[112.15869140625,54.16803619999412,1131.1802],[112.13759765625002,54.152606512494117,1136.259],[112.09130859375,54.129510809369116,1208.6185],[112.07216796875002,54.11652252811912,1220.2363],[111.942138671875,53.98615143436912,1202.8827],[111.93427734375001,53.97638580936912,1118.3286],[111.931396484375,53.97040436405662,1108.8862],[111.931640625,53.95197174686912,1118.7955],[111.934814453125,53.93744537968162,1251.036],[111.94033203125002,53.932733465619116,1230.0439],[111.94130859375002,53.92987702030662,1212.5652],[111.931640625,53.92096588749412,1143.3015],[111.9248046875,53.918963934369117,1199.1622],[111.903564453125,53.916522528119117,1312.5383],[111.8974609375,53.91412994999412,1321.1036],[111.89599609375,53.908319403119116,1295.4973],[111.89804687500003,53.892596746869117,1186.0524],[111.8974609375,53.886249090619117,1068.4912],[111.8701171875,53.83905670780662,1105.2828],[111.87324218750001,53.83173248905662,1158.5708],[111.87460937500003,53.82269928593162,1216.5889],[111.872802734375,53.81500885624412,1196.1375],[111.86669921875,53.81171295780662,1161.02],[111.86289062500003,53.807977606244116,1120.9587],[111.87050781250002,53.79975006718162,1107.2058],[111.88720703125,53.78717682499412,1243.5479],[111.899658203125,53.77142975468162,1173.7256],[111.90185546875,53.759051824994117,1151.0687],[111.89414062500003,53.74970123905662,1042.6776],[111.876953125,53.742792059369116,1079.957],[111.91464843750003,53.73139069218162,1198.3843],[111.9248046875,53.72296784061912,1173.855],[111.92587890625003,53.712518621869116,1058.6608],[111.921630859375,53.70111725468162,1037.1079],[111.92138671875,53.69196198124412,1032.1414],[111.935302734375,53.68817780155662,1219.6967],[111.94189453125,53.68475983280662,1126.0601],[111.94736328125003,53.67645905155662,1042.5251],[111.951171875,53.666278387494117,1032.7332],[111.95263671875,53.65717194218162,1021.5293],[111.94775390625,53.65265534061912,1021.8468],[111.91855468750003,53.632928778119116,1026.6531],[111.87314453125003,53.62116119999412,1030.8862],[111.85175781250001,53.61090729374412,1041.9216],[111.8427734375,53.595086981244116,1036.088],[111.843017578125,53.575458074994117,1018.3815],[111.84003906250001,53.57013580936912,1007.5169],[111.832275390625,53.561297918744117,1017.3535],[111.82968750000003,53.556903387494117,1010.3246],[111.828857421875,53.55182526249412,1057.2274],[111.8291015625,53.54108307499412,1012.3871],[111.82480468750003,53.53766510624412,1093.7062],[111.814697265625,53.53681061405662,1038.4152],[111.79501953125003,53.537372137494117,1031.7494],[111.74179687500003,53.530780340619117,1055.4167],[111.71923828125,53.519794012494117,1051.3104],[111.72304687500002,53.49982330936912,1002.4182],[111.728515625,53.48541901249412,1002.3798],[111.71718750000002,53.47699616093162,1002.9183],[111.67832031250003,53.462274481244116,1059.6362],[111.640380859375,53.43341705936912,1121.3608],[111.625,53.41388580936912,1081.0953],[111.62734375000002,53.38776276249412,986.8858],[111.61669921875,53.363544012494117,991.4334],[111.620361328125,53.35858795780662,987.1544],[111.628173828125,53.35346100468162,991.2377],[111.63486328125003,53.341424871869116,1053.3231],[111.64414062500003,53.317645574994117,1268.4927],[111.645263671875,53.312518621869117,1254.3085],[111.64414062500003,53.29376862186912,1021.1984],[111.64707031250003,53.28998444218162,1062.1862],[111.66074218750003,53.28644440311912,1176.8799],[111.665283203125,53.28412506718162,1202.3315],[111.67626953125,53.26520416874412,1194.7128],[111.68125,53.25836823124412,1204.9789],[111.715576171875,53.230975653119117,1011.3328],[111.735595703125,53.218524481244117,988.3918],[111.75625,53.21662018436912,980.2238],[111.78134765625003,53.229510809369117,963.1277],[111.78369140625,53.23383209843162,1028.498],[111.78798828125002,53.246698309369116,1078.3456],[111.79160156250003,53.24933502811912,1099.5935],[111.80029296875,53.24835846561912,1045.5057],[111.814697265625,53.24396393436912,1028.1786],[111.82236328125003,53.243182684369117,1044.3567],[111.92597656250001,53.25812409061912,1072.1991],[111.95068359375,53.26825592655662,954.3518],[111.95263671875,53.28412506718162,1045.0455],[111.96718750000002,53.288446356244116,1097.6243],[111.980224609375,53.287372137494117,1038.2909],[111.992919921875,53.284686590619117,962.8174],[112.00732421875,53.28412506718162,949.618],[112.01914062500003,53.288202215619116,948.4225],[112.03847656250002,53.30121491093162,982.8955],[112.06591796875,53.306024481244116,980.8856],[112.0888671875,53.31537506718162,1039.6991],[112.103515625,53.317645574994117,1053.7766],[112.11328125,53.31561920780662,1031.834],[112.139892578125,53.30609772343162,1063.1274],[112.155029296875,53.303973699994117,1053.0203],[112.24160156250002,53.30609772343162,981.7581],[112.27871093750002,53.314471746869117,950.2173],[112.292236328125,53.319208074994116,933.409],[112.303955078125,53.32587311405662,949.7686],[112.30898437500002,53.334735418744117,1018.7788],[112.30898437500002,53.34662506718162,936.2856],[112.31064453125003,53.35455963749412,951.4381],[112.31669921874999,53.360370184369117,957.7889],[112.32929687500001,53.36603424686912,950.1311],[112.310546875,53.376092840619116,918.1658],[112.29736328125,53.38983795780662,920.9493],[112.297119140625,53.40363190311912,988.4225],[112.31640625,53.413836981244117,985.2668],[112.320068359375,53.412225653119116,975.5073],[112.33056640625,53.409198309369117,968.7482],[112.343994140625,53.406756903119117,917.8712],[112.35683593750002,53.40704987186912,914.9194],[112.38613281250002,53.420184637494117,933.9044],[112.39765625000001,53.421258856244116,946.3675],[112.4125,53.41828034061912,918.3712],[112.4189453125,53.412958074994116,916.7392],[112.42333984375,53.404803778119117,972.9795],[112.431884765625,53.39337799686912,989.4365],[112.44140625,53.384295965619117,961.6215],[112.44775390625,53.38080475468162,1008.0154],[112.45449218750002,53.37848541874412,1064.7565],[112.466064453125,53.37287018436912,1092.8276],[112.47060546875002,53.37201569218162,1047.1512],[112.48164062500001,53.373651434369116,1032.9774],[112.48642578125003,53.37287018436912,1039.4148],[112.48789062500003,53.36957428593162,1075.8073],[112.4921875,53.35614655155662,1085.1572],[112.493896484375,53.352411199994116,1106.9021],[112.509033203125,53.34162018436912,1077.2843],[112.628662109375,53.280536199994117,981.145],[112.74746093750002,53.24249909061912,933.3821],[112.80244140625001,53.235711981244116,900.8833],[112.82382812500003,53.23969147343162,884.6136],[112.82724609375003,53.25202057499412,920.3004],[112.818115234375,53.26984284061912,879.2137],[112.80244140625001,53.29035065311912,891.66],[112.82998046875002,53.31439850468162,918.8544],[112.89101562500002,53.35040924686912,919.2925],[113.0751953125,53.42706940311912,961.8845],[113.15664062500002,53.43903229374412,964.5877],[113.171142578125,53.44415924686912,990.8306],[113.21669921875002,53.47321198124412,966.0707],[113.23349609375003,53.47931549686912,926.0532],[113.25234375000002,53.48029205936912,916.465],[113.275390625,53.47589752811912,974.1038],[113.30029296875,53.46393463749412,959.2013],[113.30947265625002,53.462274481244116,918.7668],[113.32265625000002,53.46515534061912,967.2056],[113.33154296875,53.47040436405662,993.3635],[113.33964843749999,53.473163153119117,961.6334],[113.35107421875,53.46845123905662,906.1813],[113.36376953125,53.474969793744116,925.2724],[113.39013671875,53.484393621869117,944.998],[113.40234375,53.49298737186912,898.1085],[113.41181640625001,53.49640534061912,877.9067],[113.42255859375001,53.49225494999412,841.7355],[113.43447265625002,53.485858465619117,915.2375],[113.44667968750002,53.48212311405662,819.9534],[113.43740234375002,53.50238678593162,1003.1343],[113.43251953125002,53.51019928593162,990.594],[113.42617187500002,53.51691315311912,979.2197],[113.434814453125,53.520770574994117,919.7656],[113.44843750000001,53.52411530155662,941.1194],[113.4609375,53.524774481244116,891.694],[113.466552734375,53.52033112186912,925.6377],[113.4697265625,53.508319403119117,946.1157],[113.47675781250001,53.49909088749412,886.3849],[113.48388671875,53.49701569218162,869.6793],[113.487060546875,53.50665924686912,918.3636],[113.49609375,53.51911041874412,961.9266],[113.51708984375,53.52875397343162,948.2698],[113.541259765625,53.53510162968162,910.0654],[113.55927734375001,53.537372137494117,891.6041],[113.617919921875,53.53644440311912,944.4136]]}}