{"type":"Feature","properties":{"featurecla":"River","scalerank":8,"rivernum":693,"dissolve":"693River","name":"Oka2","name_alt":null,"note":null,"min_zoom":7.0,"strokeweig":0.2,"name_en":"Oka","min_label":8.0},
"geometry":{"type": "LineString","coordinates": [[100.350830078125,52.15204498905662,1550.6547],[100.35117187500003,52.161395574994117,1818.5343],[100.34736328125001,52.16718170780662,1754.2407],[100.343017578125,52.17914459843162,1568.7091],[100.33994140625003,52.192010809369116,1539.1697],[100.333740234375,52.203241278119116,1565.5935],[100.326416015625,52.20795319218162,1695.9182],[100.30966796875003,52.21417877811912,1651.5455],[100.302978515625,52.220331121869116,1709.3777],[100.30029296875,52.22858307499412,1737.1919],[100.30087890625003,52.24640534061912,1558.9918],[100.299560546875,52.25165436405662,1669.1838],[100.260498046875,52.277606512494117,1549.5385],[100.254638671875,52.28546784061912,1664.2449],[100.250244140625,52.29682037968162,1906.947],[100.239990234375,52.30902741093162,1541.3694],[100.2275390625,52.318719793744116,1614.3564],[100.21738281250003,52.32269928593162,1863.7211],[100.20986328125002,52.32391998905662,1819.1952],[100.1923828125,52.328973699994116,1579.7742],[100.182861328125,52.330194403119116,1526.8351],[100.17421875000002,52.32819244999412,1485.1888],[100.15478515625,52.319208074994116,1469.7675],[100.144775390625,52.31647369999412,1463.272],[100.07021484375002,52.31647369999412,1470.5679],[100.0615234375,52.31915924686912,1687.6036],[100.04433593750002,52.32819244999412,1898.6703],[100.03232421875003,52.330194403119116,1668.8625],[99.998046875,52.32880280155662,1625.0367],[99.987695312500023,52.330194403119116,1630.7365],[99.9755859375,52.335223699994117,1478.4884],[99.96435546875,52.343524481244117,1442.7373],[99.958105468750034,52.35370514530662,1429.3722],[99.9609375,52.36432526249412,1860.0083],[99.940673828125,52.362909246869116,1544.4576],[99.93017578125,52.36408112186912,1492.7393],[99.9228515625,52.36774323124412,1476.2881],[99.919189453125,52.37457916874412,1616.2524],[99.918066406250034,52.38263580936912,1741.1533],[99.918554687500034,52.38922760624412,1865.0071],[99.91943359375,52.39166901249412,1878.1271],[99.90478515625,52.39911530155662,1505.9768],[99.886816406250034,52.40424225468162,1744.6897],[99.874755859375,52.41181061405662,1472.7478],[99.877832031250023,52.426385809369116,1768.2913],[99.87158203125,52.43634674686912,1803.5406],[99.8720703125,52.445917059369116,1517.8766],[99.871191406250034,52.45673248905662,1432.3431],[99.861328125,52.47040436405662,1637.822],[99.837597656250011,52.49555084843162,1518.6702],[99.827392578125,52.511102606244116,1376.0713],[99.8232421875,52.52570221561912,1363.757],[99.80126953125,52.536004949994116,1374.0975],[99.755957031250034,52.54547760624412,1631.6338],[99.718652343750023,52.563104559369116,1333.1873],[99.720117187500023,52.59772369999412,1332.4791],[99.69775390625,52.60455963749412,1338.1372],[99.6845703125,52.61554596561912,1568.7932],[99.683984375000023,52.62958405155662,1325.9581],[99.69970703125,52.64545319218162,1422.3134],[99.693115234375,52.661981512494116,1314.7424],[99.69091796875,52.683221746869116,1304.407],[99.693115234375,52.70453522343162,1291.3652],[99.69970703125,52.72125885624412,1270.2562],[99.707617187500034,52.72785065311912,1292.207],[99.729394531250023,52.739764715619117,1297.9989],[99.733789062500023,52.74481842655662,1339.2312],[99.736523437500011,52.75861237186912,1254.6399],[99.743896484375,52.76080963749412,1281.377],[99.753808593750023,52.760126043744116,1398.6984],[99.764892578125,52.765252996869116,1264.1702],[99.782812500000034,52.776971746869116,1250.9049],[99.805273437500034,52.783807684369116,1235.9221],[100.021484375,52.81830475468162,1192.7178],[100.0576171875,52.83649323124412,1190.9332],[100.10498046875,52.844110418744116,1177.9406],[100.12490234375002,52.85089752811912,1190.0419],[100.14072265625003,52.865350653119116,1345.2263],[100.141357421875,52.87811920780662,1437.7441],[100.13515625000002,52.89191315311912,1409.6124],[100.131103515625,52.90924713749412,1556.8291],[100.13671875,52.926776434369117,1356.3494],[100.150634765625,52.94135162968162,1210.5491],[100.16855468750003,52.952655340619117,1111.1082],[100.186279296875,52.96015045780662,1453.2666],[100.1845703125,52.98639557499412,1077.0967],[100.20468750000003,53.01264069218162,1090.1682],[100.234619140625,53.035174871869117,1130.1802],[100.26806640625,53.053729559369117,998.8871],[100.2734375,53.05744049686912,1158.9401],[100.279541015625,53.06098053593162,993.0266],[100.28867187500003,53.063836981244116,1158.1387],[100.2998046875,53.064813543744116,1003.9163],[100.32070312500002,53.06329987186912,1100.6018],[100.330322265625,53.063836981244116,967.4999],[100.345458984375,53.07160065311912,1007.0467],[100.359619140625,53.08478424686912,962.3194],[100.3623046875,53.095965887494117,1146.9521],[100.343994140625,53.09735748905662,950.4655],[100.343994140625,53.10480377811912,942.5881],[100.3623046875,53.11249420780662,920.1356],[100.3642578125,53.123407293744116,1070.9324],[100.36269531250002,53.13678619999412,901.9648],[100.37119140625003,53.15192291874412,908.1381],[100.3642578125,53.15265534061912,965.035],[100.35976562500002,53.15485260624412,956.1502],[100.35585937500002,53.15741608280662,895.0721],[100.350830078125,53.159442449994117,921.5585],[100.3642578125,53.17255280155662,898.8412],[100.39931640625002,53.18781159061912,949.3693],[100.412841796875,53.20099518436912,1089.8914],[100.39853515625003,53.20099518436912,877.8408],[100.39853515625003,53.20722077030662,973.5608],[100.40878906250003,53.216913153119116,858.474],[100.42343750000003,53.248797918744117,850.0228],[100.43671875000001,53.255633856244117,921.5941],[100.522705078125,53.255633856244117,942.0955],[100.53476562500003,53.24933502811912,825.5515],[100.539794921875,53.248163153119116,812.8485],[100.54697265625003,53.250360418744116,1051.2925],[100.54746093750003,53.25519440311912,1035.6727],[100.544921875,53.25995514530662,930.0823],[100.54306640625003,53.26178619999412,832.6717],[100.54296875,53.26813385624412,865.1615],[100.53867187500003,53.275018621869116,818.2534],[100.5390625,53.280633856244116,781.3481],[100.55341796875001,53.282977606244117,1011.1764],[100.572998046875,53.27997467655662,1088.5807],[100.616943359375,53.265985418744116,783.4691],[100.638671875,53.26178619999412,1158.2959],[100.6240234375,53.286151434369117,792.2795],[100.64003906250002,53.28839752811912,734.1423],[100.68994140625,53.27545807499412,734.7164],[100.69912109375002,53.278436590619116,855.9478],[100.72314453125,53.29340241093162,710.2538],[100.73095703125,53.299676824994116,720.724],[100.74375,53.30463287968162,719.6766],[100.7529296875,53.29816315311912,736.911],[100.76162109375002,53.282977606244117,758.1963],[100.85,53.29315827030662,757.7765],[100.87167968750003,53.282977606244117,681.2701],[100.905029296875,53.28229401249412,792.5924],[100.916259765625,53.279169012494116,690.0174],[100.9306640625,53.26923248905662,666.009],[100.93886718750002,53.272821356244116,811.0319],[100.9541015625,53.29657623905662,663.5837],[100.960205078125,53.30145905155662,660.8274],[100.98818359375002,53.31708405155662,658.6304],[101.005615234375,53.32245514530662,731.4926],[101.01806640625,53.32196686405662,731.9375],[101.0283203125,53.31622955936912,639.5061],[101.039794921875,53.30621979374412,848.6177],[101.050537109375,53.301141668744116,628.7563],[101.05810546875,53.30597565311912,638.8764],[101.06259765625003,53.31610748905662,841.1854],[101.06396484375,53.32697174686912,639.8062],[101.0693359375,53.33588287968162,785.9332],[101.08212890625003,53.33637116093162,836.7081],[101.15244140625003,53.319598699994117,624.5409],[101.176513671875,53.32086823124412,614.6255],[101.19765625000002,53.33380768436912,601.3202],[101.22675781250001,53.36640045780662,590.9402],[101.24179687500003,53.379510809369116,583.077],[101.26259765625002,53.39276764530662,589.6191]]}}