{"type":"Feature","properties":{"featurecla":"River","scalerank":2,"rivernum":27,"dissolve":"27River","name":"Selenga3","name_alt":"Selenge","note":null,"min_zoom":2.1,"strokeweig":0.3,"name_en":"Selenga","min_label":3.1},
"geometry":{"type": "LineString","coordinates": [[106.991455078125,51.31659577030662,601.6278],[106.98505859375001,51.334588934369116,521.024],[106.98818359375002,51.359491278119116,524.9457],[106.9970703125,51.38422272343162,540.7654],[107.00830078125,51.401629949994117,531.6876],[107.041015625,51.417010809369117,540.9811],[107.046142578125,51.422137762494117,535.7808],[107.05117187500002,51.433221746869116,523.5851],[107.06298828125,51.44440338749412,517.74],[107.087158203125,51.459979559369117,515.3342],[107.12734375000002,51.473749090619116,515.8018],[107.14736328125002,51.48371002811912,515.7748],[107.15595703125001,51.49750397343162,515.6772],[107.1689453125,51.50592682499412,517.1693],[107.30361328125002,51.52313873905662,513.1439],[107.32968750000003,51.53229401249412,513.1232],[107.34091796875003,51.54596588749412,512.2164],[107.343994140625,51.55121491093162,511.7438],[107.3642578125,51.57294342655662,507.301],[107.36835937500001,51.582635809369116,535.9204],[107.3662109375,51.606219793744117,507.4463],[107.36767578125,51.61701080936912,506.9353],[107.40976562500003,51.68109772343162,506.6931],[107.412353515625,51.69269440311912,515.4523],[107.4384765625,51.70014069218162,501.6185],[107.454833984375,51.71759674686912,500.829],[107.46787109375003,51.73822662968162,502.518],[107.484375,51.754754949994116,503.33],[107.52529296875002,51.77081940311912,499.5273],[107.544921875,51.782342840619116,515.5972],[107.56064453125003,51.81561920780662,498.198],[107.57275390625,51.827508856244116,496.063],[107.5732421875,51.83978912968162,511.5461],[107.547119140625,51.857196356244117,516.2307],[107.52597656250003,51.86749909061912,494.2654],[107.50839843750003,51.87897369999412,496.484],[107.496337890625,51.89398834843162,492.57619999999997],[107.49169921875,51.91522858280662,491.7202],[107.48867187500002,51.97833893436912,490.279],[107.49169921875,51.994403387494117,509.2936],[107.49794921875002,52.00433991093162,556.6942],[107.515380859375,52.02558014530662,653.3002],[107.519775390625,52.03534577030662,752.9203],[107.5185546875,52.047723699994116,762.4952],[107.50751953125001,52.068231512494116,520.5336],[107.50283203125002,52.088397528119117,488.4568],[107.493896484375,52.10224030155662,484.4099],[107.49169921875,52.10797760624412,484.6224],[107.48818359375002,52.110223699994116,489.2473],[107.47294921874999,52.13349030155662,484.9906],[107.470703125,52.13837311405662,516.6415],[107.44345703125003,52.150995184369116,481.9635],[107.41787109375002,52.14960358280662,485.16],[107.39208984375,52.14252350468162,485.9684],[107.06826171875002,52.12616608280662,478.6627],[106.94921875,52.08466217655662,474.2943],[106.932861328125,52.07318756718162,473.5649],[106.884765625,52.06268952030662,467.7482],[106.87851562500003,52.06000397343162,467.7543],[106.857177734375,52.04718659061912,471.1243],[106.84755859375002,52.04279205936912,470.2441],[106.79384765625002,52.03644440311912,469.5473],[106.74951171875,52.04779694218162,467.8089],[106.631103515625,52.110614324994117,465.0629],[106.59736328125001,52.14179108280662,462.5949],[106.5849609375,52.15924713749412,460.9251],[106.57998046875002,52.17475006718162,462.7808],[106.57314453125002,52.21283600468162,460.7695],[106.56406250000003,52.24030182499412,459.9166],[106.5673828125,52.248651434369116,459.5619],[106.57998046875002,52.26129791874412,458.4162],[106.59130859375,52.268573309369117,458.0881],[106.603515625,52.271747137494117,457.6619],[106.63466796875002,52.27558014530662,457.5696],[106.695556640625,52.29059479374412,456.4318],[106.72548828125002,52.30206940311912,456.4937],[106.751953125,52.31647369999412,455.0]]}}