{"type":"Feature","properties":{"featurecla":"River","scalerank":7,"rivernum":384,"dissolve":"384River","name":"Vitim1","name_alt":null,"note":null,"min_zoom":6.0,"strokeweig":0.2,"name_en":"Vitim","min_label":7.0},
"geometry":{"type": "LineString","coordinates": [[111.32265625000002,53.97553131718162,1714.9851],[111.35410156250003,53.99982330936912,1478.9109],[111.48691406250003,54.06696198124412,1497.9486],[111.53857421875,54.07721588749412,1506.1106],[111.5654296875,54.078631903119117,1379.9854]]}}