{"type":"Feature","properties":{"featurecla":"River","scalerank":7,"rivernum":384,"dissolve":"384River","name":"Vitim3","name_alt":null,"note":null,"min_zoom":6.0,"strokeweig":0.25,"name_en":"Vitim","min_label":7.0},
"geometry":{"type": "LineString","coordinates": [[113.617919921875,53.53644440311912,944.4136],[113.63955078125002,53.53876373905662,938.4034],[113.64951171875003,53.541278387494117,920.4525],[113.658935546875,53.544794012494116,959.2366],[113.70742187500002,53.57550690311912,846.3369],[113.727294921875,53.58515045780662,852.4074],[113.7978515625,53.60956452030662,786.2039],[113.80615234375,53.616229559369117,804.0181],[113.79580078125002,53.625751043744117,856.0828],[113.792724609375,53.629754949994116,857.9948],[113.80615234375,53.643182684369116,921.2704],[113.814453125,53.649042059369116,989.7723],[113.8271484375,53.654559637494117,991.0685],[113.840576171875,53.658710028119117,930.6426],[113.85107421875,53.660272528119116,926.8694],[113.884765625,53.65668366093162,794.1472],[113.8984375,53.660272528119116,933.7892],[113.89951171875003,53.66242096561912,915.5038],[113.900390625,53.66657135624412,895.0585],[113.90214843749999,53.67108795780662,893.1653],[113.90595703125001,53.674579168744117,917.606],[113.915625,53.678827215619116,907.2369],[113.919921875,53.680194403119117,898.9249],[113.926513671875,53.68134186405662,885.4202],[113.96533203125,53.67743561405662,829.8301],[113.982177734375,53.68146393436912,806.8828],[113.995361328125,53.70123932499412,836.826],[113.97675781250001,53.713885809369117,777.9115],[113.97275390625003,53.729999090619117,939.9142],[113.9833984375,53.743768621869116,907.691],[114.00869140625002,53.749627996869116,827.5229],[114.093994140625,53.75641510624412,785.5704],[114.11767578125,53.763934637494117,776.6089],[114.125244140625,53.770135809369116,772.3734],[114.138916015625,53.78668854374412,789.7065],[114.14560546875003,53.79059479374412,835.2299],[114.16025390625003,53.787127996869117,833.9509],[114.18798828125,53.76813385624412,771.1151],[114.19980468750003,53.76703522343162,768.1954],[114.224609375,53.77460358280662,764.5544],[114.277587890625,53.779315496869117,769.709],[114.32607421875002,53.79010651249412,806.8907],[114.345703125,53.79816315311912,788.6435],[114.359619140625,53.81195709843162,763.6871],[114.36474609375,53.83563873905662,831.6716],[114.37753906250003,53.843768621869117,774.7194],[114.406494140625,53.844110418744116,909.4722],[114.45400390625002,53.83905670780662,808.4131],[114.48095703125,53.840204168744116,790.2848],[114.50068359375001,53.844989324994117,771.7951],[114.51679687500001,53.85443756718162,770.1677],[114.56699218750003,53.89704010624412,746.6628],[114.58828125000002,53.926629949994116,852.2817],[114.59736328125001,53.93463776249412,788.0976],[114.60595703125,53.93915436405662,781.9793],[114.61328125,53.94086334843162,846.3763],[114.61953125000002,53.939471746869117,887.744],[114.624755859375,53.93463776249412,920.3972],[114.6474609375,53.94476959843162,843.0118],[114.671875,53.951044012494116,918.5887],[114.72431640625001,53.955096746869117,798.9227],[114.7333984375,53.95709869999412,747.1153],[114.74589843749999,53.96185944218162,832.7585],[114.757080078125,53.96747467655662,864.8473],[114.761962890625,53.97247955936912,922.5031],[114.767333984375,53.98151276249412,863.2437],[114.780517578125,53.98187897343162,842.2389],[114.809814453125,53.97553131718162,761.6071],[114.83310546875003,53.97614166874412,870.7034],[114.86005859375001,53.980585028119116,754.7106],[114.88515625000002,53.98859284061912,819.5521],[114.90244140625003,53.99982330936912,819.8093],[114.94404296875001,54.01776764530662,747.2697],[114.95751953125,54.019305731244117,729.6745],[114.96640625000003,54.023456121869117,728.998],[114.98164062500001,54.036981512494116,727.5875],[114.98378906250002,54.040301824994117,728.7827],[114.98544921875003,54.04767487186912,754.378],[114.98847656250001,54.051288153119117,742.2797],[114.99365234375,54.05390045780662,730.0649],[115.00478515625002,54.056756903119116,730.0249],[115.02695312500003,54.06793854374412,801.784],[115.03261718750002,54.076288153119116,731.6393],[115.02597656250003,54.08881256718162,766.8663],[115.023193359375,54.09845612186912,853.4109],[115.03125,54.106219793744117,888.2234],[115.04355468750003,54.111444403119116,947.5156],[115.06943359375003,54.11554596561912,996.8506],[115.080078125,54.12079498905662,964.5875],[115.098388671875,54.13324616093162,899.6909],[115.14404296875,54.14838287968162,732.0293],[115.16445312500002,54.161737371869116,723.1679],[115.1728515625,54.18475983280662,716.0241],[115.17919921875,54.21063873905662,810.2153],[115.1953125,54.21967194218162,770.4415],[115.21748046875001,54.22235748905662,768.6433],[115.24169921875,54.22882721561912,772.7093],[115.24912109375003,54.23456452030662,747.293],[115.26123046875,54.250116278119116,770.1637],[115.26904296875,54.256708074994116,734.2206],[115.28134765625003,54.260272528119117,775.7941],[115.310546875,54.262323309369116,856.8823],[115.32080078125,54.26727936405662,820.796],[115.34316406250002,54.284540106244116,714.9146],[115.49111328125002,54.328729559369116,716.4017],[115.50244140625,54.335565496869116,696.6685],[115.506103515625,54.345086981244116,726.4979],[115.513427734375,54.35492584843162,785.6556],[115.51767578125003,54.36542389530662,731.2632],[115.50771484375002,54.38837311405662,773.5158],[115.51425781250003,54.39728424686912,767.252],[115.526123046875,54.40363190311912,753.0798],[115.53652343750002,54.407586981244116,768.8354],[115.54833984375,54.410174871869117,801.9199],[115.57265625000002,54.41156647343162,702.5056],[115.584228515625,54.41437409061912,717.676],[115.6181640625,54.438739324994117,785.064],[115.62939453125,54.44232819218162,959.9935],[115.796630859375,54.47235748905662,765.9368],[115.82333984375003,54.48139069218162,814.2028],[115.86005859375001,54.486200262494116,747.2365],[115.9091796875,54.49982330936912,842.4368],[115.933837890625,54.503778387494116,885.3487],[115.98525390625002,54.50018952030662,722.0347],[116.01083984375003,54.50202057499412,744.8137],[116.03330078125003,54.51373932499412,738.168],[116.04541015625,54.517938543744116,806.2599],[116.091796875,54.51679108280662,916.7682],[116.10537109375002,54.51825592655662,931.9588],[116.13974609375003,54.53046295780662,787.261],[116.1904296875,54.53851959843162,794.5571],[116.45791015625002,54.51679108280662,938.6935],[116.46914062500002,54.51373932499412,845.9496],[116.47900390625,54.50690338749412,763.2346],[116.48681640625,54.50006744999412,716.4485],[116.4921875,54.496942449994116,691.0121],[116.50820312500002,54.49762604374412,648.5693],[116.5166015625,54.50043366093162,686.2914],[116.52255859375003,54.50641510624412,687.8658],[116.53085937500003,54.51679108280662,651.0708],[116.52656250000001,54.524188543744117,761.9894],[116.52587890625,54.53070709843162,836.531],[116.53085937500003,54.53790924686912,738.3792],[116.53818359375003,54.54169342655662,753.2396],[116.54375,54.54059479374412,774.0771],[116.54970703125002,54.53815338749412,773.4365],[116.55810546875,54.53790924686912,827.6771],[116.586669921875,54.542840887494116,778.0142],[116.67324218750002,54.54791901249412,694.7899],[116.70361328125,54.554071356244116,644.1589],[116.723388671875,54.56525299686912,694.7727],[116.72675781250001,54.57477448124412,673.5402],[116.72412109375,54.582049871869117,664.9155],[116.723388671875,54.59027741093162,830.0552],[116.73261718750001,54.602801824994117,694.1781],[116.74130859375003,54.609002996869116,669.4783],[116.77734375,54.62665436405662,683.1243],[116.772216796875,54.631708074994116,687.4608],[116.770263671875,54.63507721561912,683.229],[116.76806640625,54.63776276249412,678.6113],[116.76308593750002,54.64032623905662,643.2975],[116.769775390625,54.65912506718162,680.9613],[116.77011718750003,54.677020574994117,674.9993],[116.77402343750003,54.69037506718162,693.258],[116.81142578125002,54.70087311405662,666.6083],[116.84248046875001,54.72443268436912,679.3716],[116.865478515625,54.729754949994117,625.5994],[116.88369140625002,54.73761627811912,681.3127],[116.88173828125002,54.75580475468162,722.2032],[116.86611328125002,54.79120514530662,722.2699],[116.87343750000002,54.80329010624412,789.7556],[116.89013671875,54.81244537968162,654.0574],[116.92744140625001,54.825946356244117,743.9042],[116.91806640625003,54.84113190311912,673.851],[116.92343750000003,54.88556549686912,749.3901],[116.88486328125003,54.90497467655662,629.376],[116.879638671875,54.92865631718162,684.3556],[116.884521484375,54.95600006718162,670.4475],[116.89267578125003,54.97675202030662,793.2101],[116.87509765625003,54.976336981244117,723.642],[116.873046875,54.984637762494117,737.507],[116.87568359375001,54.99579498905662,775.4473],[116.872314453125,55.00409577030662,814.7928],[116.86044921875003,55.00495026249412,770.3354],[116.844482421875,55.003534246869116,709.4549],[116.83056640625,55.004901434369117,607.4882],[116.824462890625,55.01398346561912,622.5392],[116.8291015625,55.023553778119116,620.9952],[116.83798828125003,55.034051824994116,609.4623],[116.84462890625002,55.044794012494116,619.0961],[116.841552734375,55.05524323124412,650.9873],[116.81591796875,55.07391998905662,752.5435],[116.810791015625,55.07916901249412,748.6392],[116.810302734375,55.08515045780662,775.0269],[116.81298828125,55.09162018436912,731.1056],[116.81757812500001,55.099627996869117,697.0704],[116.81455078125003,55.104266668744117,676.0491],[116.80810546875,55.10883209843162,687.3602],[116.79179687499999,55.13361237186912,667.7102],[116.782470703125,55.14374420780662,673.7925],[116.77392578125,55.148065496869116,617.3839],[116.72841796875002,55.14240143436912,743.4974],[116.7158203125,55.144647528119116,739.2235],[116.66748046875,55.16852448124412,952.035],[116.63076171875002,55.17621491093162,802.0441],[116.61904296875002,55.18219635624412,805.9756],[116.61474609375,55.18817780155662,807.7678],[116.60986328125,55.19733307499412,821.6714],[116.603515625,55.205829168744117,793.4137],[116.59511718750002,55.209491278119117,824.0526],[116.57578125000003,55.21344635624412,952.2513],[116.50917968750002,55.243670965619117,760.3932],[116.47597656250002,55.25324127811912,767.7139],[116.46875,55.257928778119116,651.2788],[116.46503906250001,55.26984284061912,672.6354],[116.46728515625,55.29450104374412,689.0577],[116.46503906250001,55.302020574994117,597.1268],[116.45703125,55.31061432499412,606.5031],[116.45654296875,55.316034246869116,620.5844],[116.459375,55.321307684369117,581.9816],[116.46132812500002,55.328973699994116,795.2095],[116.458251953125,55.340448309369116,684.7368],[116.4501953125,55.34467194218162,624.9683],[116.43916015625001,55.34723541874412,628.1008],[116.42724609375,55.353534246869117,793.6198],[116.41572265625001,55.36847565311912,851.2322],[116.405517578125,55.38678619999412,724.0133],[116.393310546875,55.40228912968162,593.8999],[116.3759765625,55.40875885624412,726.1924],[116.177734375,55.390643621869117,1067.0443],[116.13144531250003,55.37445709843162,633.9662],[116.1083984375,55.38519928593162,856.1376],[116.071533203125,55.41498444218162,1084.7073],[116.048095703125,55.415545965619117,976.0627],[115.99667968750003,55.398944403119117,988.7642],[115.9716796875,55.39447662968162,792.0057],[115.963623046875,55.39789459843162,901.5652],[115.94492187500003,55.413836981244117,705.8635],[115.94130859375002,55.41840241093162,723.7499],[115.938720703125,55.42816803593162,583.0354],[115.9345703125,55.43231842655662,663.0096],[115.93369140625003,55.43732330936912,690.2541],[115.94130859375002,55.449725653119117,655.0172],[115.949462890625,55.456073309369117,586.7444],[115.958740234375,55.45990631718162,878.6161],[115.966064453125,55.465350653119117,995.308],[115.96787109375003,55.47638580936912,1001.237],[115.963134765625,55.48285553593162,1010.2263],[115.9521484375,55.49225494999412,909.5514],[115.94003906250003,55.50067780155662,866.5186],[115.91025390625003,55.51032135624412,593.6671],[115.89511718750003,55.52545807499412,568.2178],[115.88671875,55.545428778119117,543.762],[115.88593750000001,55.565790106244116,564.5051],[115.89013671875,55.576678778119117,546.8495],[115.903076171875,55.596210028119117,552.5814],[115.906494140625,55.60675690311912,553.214],[115.904296875,55.61701080936912,545.7047],[115.898193359375,55.62213776249412,547.9745],[115.892822265625,55.628290106244116,537.2032],[115.89218750000003,55.64154694218162,546.2365],[115.89658203125003,55.646844793744116,546.1088],[115.90488281250003,55.653827215619117,535.241],[115.912109375,55.66303131718162,558.2739],[115.91328125000001,55.67499420780662,664.8223],[115.90683593750003,55.68463776249412,596.9213],[115.8955078125,55.691278387494116,631.762],[115.8818359375,55.694940496869116,666.5195],[115.868896484375,55.69611237186912,625.9255],[115.84482421875003,55.70490143436912,533.1748],[115.84589843750001,55.725702215619116,526.9041],[115.865478515625,55.77118561405662,630.6964],[115.86279296875,55.79047272343162,895.5172],[115.84794921874999,55.83478424686912,660.182],[115.844482421875,55.85687897343162,534.6096],[115.85302734375,55.87775299686912,736.0812],[115.89101562500002,55.90582916874412,570.329],[115.899658203125,55.925165106244116,518.7531],[115.89697265625,55.948114324994116,763.0199],[115.88925781250003,55.96527741093162,836.2878],[115.876220703125,55.978631903119116,908.791],[115.85800781250003,55.99030182499412,1179.9663],[115.81435546875002,56.00678131718162,666.4985],[115.796875,56.01935455936912,918.6451],[115.78554687500002,56.05341217655662,794.5636],[115.76669921875003,56.06806061405662,498.4106],[115.7625,56.07599518436912,621.7809],[115.764892578125,56.08576080936912,723.7418],[115.771240234375,56.09247467655662,523.0317],[115.789794921875,56.10700104374412,1273.1016],[115.77490234375,56.118670965619117,995.7353],[115.77011718750003,56.13703034061912,571.1931],[115.777587890625,56.15412018436912,778.1717],[115.80009765624999,56.161639715619117,639.6262],[115.8095703125,56.162860418744117,537.4011],[115.82216796875002,56.16632721561912,623.6375],[115.8330078125,56.17182037968162,795.2017],[115.83759765625001,56.17902252811912,1164.8748],[115.83339843750002,56.188836981244116,1260.0791],[115.822998046875,56.193133856244117,1258.881],[115.796630859375,56.196405340619116,973.3636],[115.773681640625,56.205682684369116,933.7654],[115.75996093750001,56.21893952030662,490.6244],[115.718994140625,56.26874420780662,483.8033],[115.6943359375,56.309686590619116,483.1899],[115.68798828125,56.32672760624412,469.5072],[115.68759765625003,56.33771393436912,472.9189],[115.69287109375,56.357196356244117,477.8906],[115.693603515625,56.36774323124412,480.2755],[115.690673828125,56.378192449994117,474.1547],[115.682373046875,56.39374420780662,474.878],[115.68056640625002,56.39813873905662,480.253],[115.683837890625,56.424579168744117,471.8699],[115.6943359375,56.43927643436912,472.1816],[115.71347656250003,56.444452215619116,472.2203],[115.741943359375,56.44281647343162,477.9645],[115.76513671875,56.436297918744117,470.0469],[115.77792968750003,56.434198309369116,471.6851],[115.789794921875,56.43659088749412,463.375],[115.796875,56.444208074994116,465.9429],[115.80117187500002,56.455682684369116,471.0569],[115.800537109375,56.46613190311912,470.5371],[115.78701171875002,56.473895574994117,471.763],[115.7685546875,56.48749420780662,614.1758],[115.70429687500001,56.507928778119116,524.2817],[115.69472656250002,56.51325104374412,474.8853],[115.686279296875,56.519305731244117,478.2046],[115.68056640625002,56.525409246869117,465.8681],[115.67255859375001,56.539911199994116,462.1927],[115.67333984375,56.54730866093162,469.1334],[115.677978515625,56.552997137494117,472.0291],[115.68798828125,56.58380768436912,473.2784],[115.68789062500002,56.59540436405662,467.7833],[115.67714843750002,56.600458074994116,468.3418],[115.66123046875003,56.60236237186912,467.1257],[115.6123046875,56.61408112186912,734.3563],[115.490478515625,56.61994049686912,711.6904],[115.435546875,56.641131903119117,556.8079],[115.43408203125,56.689813543744116,1212.558],[115.449462890625,56.700458074994117,1686.7841],[115.47607421875,56.70917389530662,1146.833],[115.55078125,56.72125885624412,850.9749],[115.5712890625,56.731952215619117,554.741],[115.58730468750002,56.74725983280662,445.7571],[115.5986328125,56.76496002811912,439.786],[115.605712890625,56.786883856244117,452.5209],[115.607177734375,56.807489324994116,449.6784],[115.60488281250002,56.843768621869117,790.7611],[115.599609375,56.86798737186912,599.9097],[115.5908203125,56.88556549686912,460.2018],[115.589111328125,56.901971746869116,709.97],[115.60488281250002,56.922626043744117,1088.5114],[115.6220703125,56.933710028119116,1131.6061],[115.67080078125002,56.953387762494117,1264.8452],[115.690673828125,56.95673248905662,705.2839],[115.71083984375002,56.96356842655662,658.854],[115.7625,57.011346746869116,1153.7805],[115.80478515625003,57.03131744999412,738.428],[116.04755859375001,57.08222077030662,1038.9532],[116.09003906250001,57.098993231244116,649.2524],[116.126220703125,57.121210028119116,873.4511],[116.17031250000002,57.14142487186912,968.0983],[116.27529296875002,57.15375397343162,714.8968],[116.32480468750003,57.16962311405662,441.5829]]}}