{"type":"Feature","properties":{"GID_3":"RUS.2.41.1_1","GID_0":"RUS","country":"Russia","GID_1":"RUS.2_1","province":"Altay","NL_NAME_1":"Алтайскийкрай","GID_2":"RUS.2.41_1","county":"Rubtsovskiyrayon","NL_NAME_2":"Рубцовскийрайон","city":"NA","VARNAME_3":"NA","NL_NAME_3":"NA","TYPE_3":"NA","ENGTYPE_3":"NA","CC_3":"NA","HASC_3":"NA","name":"N_A.city"},
"geometry":{"type": "MultiPolygon","coordinates": [[[[81.1269,51.2187,231.1588],[81.1284,51.2204,231.1898],[81.1227,51.2602,230.4299],[81.1398,51.2747,228.1358],[81.1625,51.2779,227.4781],[81.1901,51.2678,229.0031],[81.2212,51.2535,243.2486],[81.2792,51.2365,281.1996],[81.3407,51.2372,340.6057],[81.4288,51.2455,337.4551],[81.6166,51.2344,387.2472],[81.6821,51.2489,361.6953],[81.7094,51.2679,389.7413],[81.727,51.2625,394.3992],[81.747,51.2746,385.1567],[81.7571,51.317,395.2343],[81.726,51.3797,352.0753],[81.7493,51.4009,307.575],[81.793,51.3981,344.6911],[81.8042,51.4096,327.4602],[81.8273,51.441,295.8611],[81.8389,51.4838,268.0313],[81.8204,51.5231,286.891],[81.7966,51.5417,289.2781],[81.7257,51.5406,238.4825],[81.6456,51.5303,228.2011],[81.6251,51.5608,239.4133],[81.6091,51.6006,244.93],[81.566,51.6176,230.8026],[81.5579,51.6474,219.2541],[81.5574,51.6805,197.8808],[81.4653,51.739,195.5],[81.414,51.7536,204.0549],[81.3904,51.7996,218.3096],[81.4101,51.8476,227.7042],[81.3602,51.8368,242.4035],[81.3082,51.9033,294.6402],[81.2666,51.9035,299.2533],[81.2655,51.8617,293.4844],[81.2546,51.8399,289.3058],[81.2493,51.8162,277.6793],[81.2886,51.7919,247.8172],[81.3138,51.7557,221.7212],[81.3173,51.7232,212.7386],[81.2975,51.6883,213.0199],[81.2646,51.6616,215.2367],[81.1999,51.6566,221.8797],[81.1469,51.631,225.8309],[81.0927,51.642,239.2807],[81.0498,51.5897,232.6446],[81.0273,51.5144,227.1477],[81.0436,51.4717,219.7264],[81.059,51.4433,220.7104],[81.0404,51.4256,220.6755],[80.9725,51.4094,221.0306],[80.971,51.3844,221.1546],[80.9827,51.339,222.9588],[80.9791,51.3156,224.2478],[80.9557,51.3046,224.2705],[80.8955,51.304,223.9698],[80.8616,51.311,228.4857],[80.8588,51.3504,223.3063],[80.819,51.3697,224.6035],[80.8308,51.4071,226.3204],[80.8254,51.4241,232.7317],[80.806,51.4357,227.9885],[80.7449,51.4425,238.9719],[80.676,51.4524,234.4987],[80.6006,51.4602,227.9427],[80.5343,51.4983,238.5753],[80.4769,51.4427,233.9247],[80.4189,51.3737,222.8342],[80.3716,51.3381,222.7515],[80.3413,51.2837,222.52],[80.4237,51.247,215.5615],[80.4823,51.2781,217.9482],[80.5327,51.2743,219.8754],[80.5906,51.3042,219.5828],[80.6484,51.2943,221.0448],[80.6574,51.3021,221.4122],[80.6715,51.3081,221.1434],[80.6824,51.3082,220.3697],[80.7197,51.301,220.7815],[80.7464,51.2935,221.9573],[80.7849,51.2869,222.7497],[80.8206,51.278,236.2461],[80.8311,51.2742,228.5189],[80.85,51.2636,221.4688],[80.9039,51.2565,223.2449],[80.8979,51.2447,223.7574],[80.9006,51.2394,223.9248],[80.9096,51.2352,223.9952],[81.0001,51.2141,227.3661],[81.0361,51.1953,230.5014],[81.0515,51.1898,232.8487],[81.0558,51.1904,231.5218],[81.0763,51.1999,233.1335],[81.1022,51.2258,232.8788],[81.1102,51.2264,231.0436],[81.1161,51.2243,230.9953],[81.115,51.2225,230.8538],[81.1244,51.2208,231.3998],[81.1269,51.2187,231.1588]],
[[81.1883,51.5367,217.6243],[81.1661,51.5327,216.5443],[81.1546,51.5366,216.0824],[81.1492,51.5432,217.287],[81.1463,51.5598,215.437],[81.159,51.5636,214.2786],[81.1805,51.5614,213.9979],[81.1881,51.5501,215.4508],[81.1883,51.5367,217.6243]]]]}}