{"type":"Feature","properties":{"GID_3":"RUS.83.3.1_1","GID_0":"RUS","country":"Russia","GID_1":"RUS.83_1","province":"Zabaykal'ye","NL_NAME_1":"Забайкальскийкрай","GID_2":"RUS.83.3_1","county":"Aleksandrovo-Zavodskiyrayon","NL_NAME_2":"Александрово-Заводскийрайон","city":"NA","VARNAME_3":"NA","NL_NAME_3":"NA","TYPE_3":"NA","ENGTYPE_3":"NA","CC_3":"NA","HASC_3":"NA","name":"N_A.city"},
"geometry":{"type": "MultiPolygon","coordinates": [[[[117.5398,50.3745,679.9589],[117.5359,50.4169,658.9304],[117.5826,50.4497,660.2025],[117.6444,50.482,686.2156],[117.6573,50.5128,788.2733],[117.7551,50.5283,738.5019],[117.7583,50.5529,822.5402],[117.739,50.5706,1008.5737],[117.7703,50.6388,797.7692],[117.7807,50.6863,851.6589],[117.8313,50.7067,953.7713],[117.8693,50.7042,775.7858],[117.8687,50.6589,765.9376],[117.9031,50.655,721.4031],[117.9367,50.6706,835.3206],[117.9668,50.6954,791.0399],[117.9729,50.7262,950.3422],[117.9846,50.7695,1007.1263],[118.0357,50.8062,798.6252],[118.1571,50.8664,1318.7367],[118.2125,50.907,1158.6049],[118.2636,50.93,1272.6255],[118.3858,50.9734,814.2559],[118.4684,50.9889,964.4985],[118.5324,51.0326,1152.9961],[118.5436,51.0759,1233.4023],[118.5573,51.1465,1122.9037],[118.5899,51.1803,928.8981],[118.647,51.225,909.6346],[118.6941,51.2571,1061.7811],[118.6479,51.2873,982.615],[118.664,51.3315,833.6945],[118.6639,51.3776,854.642],[118.5903,51.4269,900.4468],[118.527,51.4417,1071.111],[118.4519,51.4298,1102.5984],[118.3555,51.3955,1098.7859],[118.3022,51.3558,1104.5725],[118.2559,51.2947,894.5562],[118.2026,51.2769,714.3878],[118.1248,51.2556,732.7907],[118.0503,51.2586,808.848],[118.0045,51.2874,995.8323],[117.9699,51.3239,1005.951],[117.8627,51.2412,1013.9352],[117.7927,51.2136,957.3993],[117.7697,51.2577,1206.3977],[117.7189,51.2824,1014.6426],[117.6813,51.279,931.2734],[117.6433,51.2489,991.3612],[117.559,51.2483,945.3355],[117.4849,51.2423,944.9211],[117.4464,51.2255,1127.0465],[117.4273,51.1999,938.2557],[117.3132,51.18,1281.1256],[117.2102,51.1439,1197.1311],[117.1226,51.1043,1110.2988],[117.0,51.0269,1010.0812],[117.0399,50.9907,984.7396],[117.0504,50.94,1108.2754],[117.0467,50.8992,932.1257],[117.0916,50.8362,795.7191],[117.1676,50.7864,785.5626],[117.2778,50.7424,970.2636],[117.3509,50.7565,875.2997],[117.4129,50.7628,919.0621],[117.4963,50.7471,1085.1138],[117.5307,50.7135,1166.5439],[117.5168,50.6598,903.9074],[117.4845,50.6226,913.6569],[117.4522,50.6,908.2716],[117.4245,50.5485,846.6417],[117.4361,50.5031,698.2964],[117.4268,50.4572,694.2139],[117.4078,50.4119,695.0236],[117.3796,50.3807,689.4945],[117.4118,50.387,683.2363],[117.4774,50.3704,678.4939],[117.5398,50.3745,679.9589]]]]}}