{"type":"Feature","properties":{"GID_3":"RUS.12.5.1_1","GID_0":"RUS","country":"Russia","GID_1":"RUS.12_1","province":"Chukot","NL_NAME_1":"ЧукотскийАОк","GID_2":"RUS.12.5_1","county":"Chukotskiyrayon","NL_NAME_2":"Чукотскийрайон","city":"NA","VARNAME_3":"NA","NL_NAME_3":"NA","TYPE_3":"NA","ENGTYPE_3":"NA","CC_3":"NA","HASC_3":"NA","name":"N_A.city"},
"geometry":{"type": "MultiPolygon","coordinates": [[[[-172.062,65.4776,1.7013],[-172.0562,65.475,0.0],[-172.0526,65.4755,0.0],[-172.0521,65.4771,2.2702],[-172.0542,65.4792,1.7308],[-172.0604,65.4792,1.0678],[-172.062,65.4776,1.7013]]],
[[[-171.9,65.4771,0.0],[-171.9099,65.4776,1.0091],[-171.9109,65.4807,0.0],[-171.9146,65.4833,0.4348],[-171.9182,65.4828,0.5775],[-171.9187,65.4812,0.5611],[-171.9162,65.4776,0.9367],[-171.913,65.4766,1.0197],[-171.9146,65.475,1.2034],[-171.95,65.475,1.4826],[-171.9542,65.4771,0.0],[-171.9812,65.4771,0.928],[-171.9854,65.475,1.0859],[-171.9896,65.4771,1.0569],[-172.0188,65.4771,1.1207],[-172.0229,65.4792,0.0],[-172.0266,65.4786,1.1215],[-172.0208,65.475,0.5275],[-171.9917,65.475,1.1339],[-171.9875,65.4729,0.0],[-171.9729,65.4729,1.1113],[-171.9687,65.4708,0.0],[-171.9479,65.4708,0.0],[-171.9438,65.4729,1.5596],[-171.9375,65.4729,1.6335],[-171.9312,65.4708,0.0],[-171.9271,65.4729,1.6363],[-171.9229,65.4729,1.6952],[-171.9167,65.4708,0.0],[-171.9125,65.4729,1.6493],[-171.8958,65.4729,0.0],[-171.888,65.4755,1.2874],[-171.8896,65.4771,0.0],[-171.9,65.4771,0.0]]],
[[[-171.9255,65.4786,1.152],[-171.9292,65.4792,0.677],[-171.9307,65.4776,0.229],[-171.9271,65.4771,0.698],[-171.9255,65.4786,1.152]]],
[[[-171.8542,65.4812,0.8576],[-171.8578,65.4797,0.6225],[-171.8443,65.4797,1.1857],[-171.8458,65.4812,1.2044],[-171.8542,65.4812,0.8576]]],
[[[-171.6401,65.5089,11.5502],[-171.6401,65.5099,8.2329],[-171.6432,65.5099,2.1459],[-171.6432,65.5089,9.6977],[-171.6401,65.5089,11.5502]]],
[[[-172.1047,65.5526,0.3508],[-172.1047,65.5537,1.6261],[-172.1078,65.5537,4.4281],[-172.1078,65.5526,2.5935],[-172.1047,65.5526,0.3508]]],
[[[-172.0776,65.5547,0.0],[-172.0776,65.5557,0.8091],[-172.0807,65.5557,1.3506],[-172.0807,65.5547,0.0],[-172.0776,65.5547,0.0]]],
[[[-171.2937,65.7521,30.2039],[-171.2974,65.7516,42.5343],[-171.2974,65.7484,18.0531],[-171.288,65.7484,6.3004],[-171.2859,65.7536,19.5933],[-171.2875,65.7542,8.5618],[-171.2937,65.7521,30.2039]]],
[[[-172.7167,65.6729,0.0],[-172.7203,65.6713,0.0],[-172.7109,65.6713,0.0],[-172.7125,65.6729,0.0],[-172.7167,65.6729,0.0]]],
[[[-172.5703,65.6755,1.507],[-172.5646,65.6729,0.0],[-172.5604,65.6771,0.0],[-172.5625,65.6792,3.1578],[-172.5688,65.6792,1.8723],[-172.5703,65.6787,1.7541],[-172.5703,65.6755,1.507]]],
[[[-172.5022,65.5346,78.3272],[-172.468,65.5131,163.1848],[-172.4117,65.5399,17.7092],[-172.4018,65.543,7.2569],[-172.3891,65.5641,4.1283],[-172.3755,65.5693,0.0],[-172.3786,65.5724,0.5001],[-172.3687,65.5729,0.0],[-172.3672,65.5745,0.9871],[-172.3792,65.575,-1.0],[-172.3917,65.5792,11.8617],[-172.3958,65.5792,17.3592],[-172.4151,65.587,10.8796],[-172.4224,65.588,9.7506],[-172.4359,65.5953,15.8381],[-172.45,65.5979,28.2918],[-172.4583,65.6021,0.0],[-172.4708,65.6042,17.2554],[-172.475,65.6062,15.3614],[-172.4896,65.6062,20.513],[-172.4937,65.6083,13.5189],[-172.5,65.6083,34.2304],[-172.5083,65.6125,0.0],[-172.5167,65.6125,99.8904],[-172.5208,65.6146,29.3747],[-172.5313,65.6146,74.6975],[-172.5354,65.6167,22.2092],[-172.5396,65.6146,35.8184],[-172.5521,65.6146,13.024],[-172.5583,65.6104,80.9273],[-172.575,65.6104,2.066],[-172.5792,65.6083,6.212],[-172.5854,65.6104,0.857],[-172.588,65.6068,10.6904],[-172.5958,65.6062,2.5215],[-172.5984,65.6099,0.4328],[-172.6042,65.6125,0.0],[-172.6083,65.6104,2.6088],[-172.6187,65.6104,6.4272],[-172.6313,65.6146,0.0],[-172.6375,65.6146,14.7524],[-172.6547,65.6245,0.3093],[-172.6604,65.625,0.3055],[-172.6662,65.6276,1.0733],[-172.6578,65.6412,0.0],[-172.6526,65.6422,0.0],[-172.6474,65.6495,-0.106],[-172.6359,65.6526,6.992],[-172.637,65.6578,2.6331],[-172.6318,65.6599,0.0],[-172.6401,65.6641,0.7059],[-172.6521,65.6646,2.8076],[-172.6562,65.6667,1.959],[-172.6604,65.6646,6.3924],[-172.6667,65.6646,5.8224],[-172.6875,65.6708,0.0],[-172.6938,65.6708,0.0],[-172.6979,65.6687,1.2146],[-172.7167,65.6687,0.0],[-172.7208,65.6667,1.7605],[-172.7563,65.6667,0.6542],[-172.7578,65.6672,0.0],[-172.7568,65.6703,0.0],[-172.7583,65.6708,0.0],[-172.7833,65.6729,2.8396],[-172.8016,65.6776,6.4019],[-172.8036,65.6828,0.0],[-172.7979,65.6833,1.9201],[-172.7896,65.6792,1.2104],[-172.7833,65.6792,2.5801],[-172.7625,65.6729,0.0],[-172.7521,65.6729,0.0],[-172.7417,65.6771,1.1589],[-172.7354,65.675,0.0],[-172.7292,65.675,0.0],[-172.7187,65.6792,0.0],[-172.7125,65.6771,0.0],[-172.6984,65.6818,0.7739],[-172.6974,65.6849,0.0],[-172.6875,65.6854,0.0],[-172.6833,65.6875,-0.5],[-172.6792,65.6854,0.0],[-172.6729,65.6875,0.1404],[-172.6687,65.6854,0.0],[-172.6625,65.6896,0.7491],[-172.6583,65.6875,0.0],[-172.6458,65.6875,0.0],[-172.6417,65.6896,8.1389],[-172.6375,65.6875,0.0],[-172.6167,65.6875,0.0],[-172.6089,65.6901,2.4598],[-172.6057,65.6932,0.3473],[-172.6005,65.6943,0.381],[-172.5958,65.6979,0.0],[-172.5896,65.6979,0.0],[-172.5854,65.7,0.5781],[-172.575,65.7,2.6675],[-172.5708,65.6979,0.0],[-172.563,65.6974,8.5049],[-172.5568,65.6932,4.661],[-172.5578,65.688,6.4775],[-172.5547,65.6859,13.046],[-172.562,65.6818,7.139],[-172.5542,65.6813,0.0],[-172.5479,65.6854,3.8448],[-172.5313,65.6875,0.0],[-172.5255,65.6849,0.264],[-172.5266,65.6818,0.0],[-172.5193,65.6787,8.2225],[-172.5203,65.6755,9.7428],[-172.5188,65.675,5.6379],[-172.4958,65.6771,0.0],[-172.4896,65.6813,6.2421],[-172.4792,65.6813,0.1809],[-172.475,65.6833,-0.0305],[-172.4521,65.6833,0.0689],[-172.4458,65.6854,0.5208],[-172.4417,65.6833,0.0],[-172.4375,65.6833,0.0],[-172.425,65.6875,0.7247],[-172.4125,65.6833,0.0],[-172.3917,65.6833,1.6975],[-172.3875,65.6813,0.3449],[-172.3792,65.6813,0.2188],[-172.375,65.6792,0.1363],[-172.3604,65.6771,-0.0806],[-172.3526,65.6724,2.4711],[-172.3542,65.6667,0.0],[-172.3516,65.663,0.0],[-172.3396,65.6625,12.0893],[-172.3313,65.6583,5.5915],[-172.3193,65.6589,-0.2765],[-172.3172,65.6609,0.8752],[-172.3172,65.6641,0.7584],[-172.3245,65.6651,1.0779],[-172.3213,65.6724,0.0],[-172.3245,65.6745,0.0],[-172.3125,65.675,0.0],[-172.3016,65.6693,5.0289],[-172.2943,65.6682,7.1333],[-172.2891,65.6651,0.0],[-172.2818,65.6641,4.2472],[-172.2609,65.6557,0.0],[-172.262,65.6505,0.1158],[-172.2563,65.65,2.2956],[-172.2547,65.6484,1.234],[-172.2661,65.6474,0.0],[-172.2672,65.6443,9.0968],[-172.2724,65.6422,7.5146],[-172.2583,65.6396,6.6646],[-172.2526,65.637,3.153],[-172.2604,65.6333,6.043],[-172.2667,65.6333,8.0981],[-172.2807,65.638,-0.0779],[-172.2797,65.6412,0.0888],[-172.2875,65.6417,0.4286],[-172.2917,65.6375,2.7944],[-172.2901,65.6339,6.1191],[-172.2979,65.6354,5.1667],[-172.3026,65.6297,11.9393],[-172.3078,65.6286,10.7561],[-172.3078,65.6255,11.6687],[-172.3057,65.6234,8.3173],[-172.2917,65.6188,6.2526],[-172.2839,65.6182,11.5719],[-172.275,65.6125,0.7684],[-172.2588,65.6099,9.2211],[-172.2557,65.6068,7.5748],[-172.2484,65.6036,7.1286],[-172.2495,65.6005,0.0],[-172.2422,65.5995,2.0692],[-172.2354,65.5958,0.0],[-172.2234,65.5953,7.883],[-172.2161,65.5901,6.7824],[-172.2047,65.5849,11.8252],[-172.2104,65.575,7.795],[-172.2088,65.5714,-0.5],[-172.2141,65.5703,0.3436],[-172.2172,65.5651,8.3253],[-172.2224,65.5641,-0.5],[-172.2255,65.5589,5.5154],[-172.2354,65.5583,0.297],[-172.2432,65.5557,-0.1163],[-172.2443,65.5526,10.2026],[-172.2557,65.5516,-0.1632],[-172.2578,65.5484,15.7149],[-172.25,65.5458,0.0],[-172.2458,65.5479,0.0],[-172.225,65.5479,0.0],[-172.2208,65.55,10.9334],[-172.2083,65.55,0.0],[-172.2042,65.5521,11.4355],[-172.1979,65.5521,8.339],[-172.1938,65.55,0.0],[-172.1833,65.55,9.8095],[-172.1818,65.5495,9.8551],[-172.1828,65.5463,0.0],[-172.1755,65.5432,23.4336],[-172.1776,65.5401,19.994],[-172.1828,65.538,0.8683],[-172.1729,65.5354,0.0],[-172.1625,65.5354,0.0],[-172.1583,65.5333,0.0],[-172.1521,65.5333,0.0],[-172.138,65.538,0.0],[-172.1354,65.5417,25.336],[-172.1255,65.5422,0.0],[-172.1245,65.5453,0.0],[-172.1109,65.5505,0.9869],[-172.1125,65.5521,5.066],[-172.1182,65.5526,4.4376],[-172.1266,65.5578,0.95009999999999994],[-172.1187,65.5604,2.6629],[-172.1,65.5625,3.0279],[-172.0984,65.562,2.7618],[-172.0995,65.5589,0.057],[-172.0937,65.5563,0.2279],[-172.0771,65.5583,0.4843],[-172.0729,65.5563,1.3254],[-172.0688,65.5583,0.8262],[-172.0646,65.5563,0.9502],[-172.0396,65.5563,5.4516],[-172.0271,65.5521,0.0],[-172.0125,65.55,4.543],[-172.0057,65.5463,0.0],[-172.0,65.5458,0.0],[-171.9943,65.5432,3.2382],[-171.9912,65.5401,5.273],[-171.9797,65.5349,12.1748],[-171.9807,65.5318,4.8219],[-171.9563,65.5188,0.0],[-171.9375,65.5188,1.3915],[-171.9333,65.5167,0.0],[-171.9286,65.5203,0.8156],[-171.9208,65.5229,7.3934],[-171.8792,65.5229,0.0],[-171.875,65.5208,0.0],[-171.85,65.5208,2.3628],[-171.8438,65.5229,7.1677],[-171.8396,65.5208,0.0],[-171.8333,65.5208,0.0],[-171.8292,65.5229,10.092],[-171.825,65.5208,0.0],[-171.8146,65.5208,7.5677],[-171.8104,65.5188,1.1266],[-171.8,65.5208,12.6608],[-171.7958,65.5188,0.0],[-171.7708,65.5188,8.0658],[-171.7667,65.5167,0.0],[-171.7521,65.5167,1.4826],[-171.7422,65.5141,3.6673],[-171.7333,65.5083,0.4929],[-171.7297,65.5089,0.3636],[-171.7287,65.512,0.2407],[-171.7229,65.5167,0.3797],[-171.7172,65.5141,0.501],[-171.7182,65.5109,0.0342],[-171.7151,65.5089,0.2329],[-171.7172,65.5068,1.7951],[-171.7287,65.5026,0.3775],[-171.7167,65.5021,0.3738],[-171.7125,65.5,0.807],[-171.7021,65.5,0.0],[-171.6979,65.5021,19.2771],[-171.6792,65.5042,0.7448],[-171.675,65.5062,0.438],[-171.6583,65.5062,0.0],[-171.6505,65.5089,0.5492],[-171.6474,65.512,0.0],[-171.6396,65.5125,0.0],[-171.6354,65.5146,0.5512],[-171.6229,65.5146,4.9773],[-171.6187,65.5125,0.0],[-171.6,65.5125,5.3596],[-171.5958,65.5104,0.0],[-171.5896,65.5104,0.0],[-171.5854,65.5125,3.2735],[-171.5583,65.5125,1.279],[-171.5542,65.5146,4.7565],[-171.55,65.5125,1.2588],[-171.5125,65.5125,0.0],[-171.5083,65.5146,4.792],[-171.5021,65.5146,0.7798],[-171.4979,65.5125,0.0],[-171.4937,65.5146,5.2356],[-171.4875,65.5146,7.7374],[-171.4833,65.5125,0.0],[-171.4771,65.5146,8.6293],[-171.4729,65.5125,0.0],[-171.4667,65.5125,0.0],[-171.4625,65.5146,21.1861],[-171.4458,65.5146,0.0],[-171.4312,65.5188,29.8282],[-171.425,65.5167,0.0],[-171.4146,65.5208,10.8402],[-171.3667,65.5208,0.0],[-171.3625,65.5229,28.8033],[-171.3562,65.5208,0.0],[-171.3417,65.525,42.5439],[-171.3354,65.5229,0.0],[-171.3292,65.5229,0.0],[-171.325,65.5271,22.6637],[-171.3188,65.525,0.0],[-171.3146,65.5271,29.5318],[-171.3042,65.5271,25.1746],[-171.2979,65.525,0.0],[-171.2875,65.5292,16.3965],[-171.2833,65.5271,25.1999],[-171.2729,65.5271,31.7047],[-171.2688,65.525,0.0],[-171.2542,65.525,20.3153],[-171.2443,65.5224,15.7884],[-171.2354,65.5167,7.9335],[-171.225,65.5167,0.0],[-171.2167,65.5125,4.5255],[-171.1943,65.5078,20.4385],[-171.1849,65.5026,0.0],[-171.1776,65.5016,27.1379],[-171.1786,65.4984,0.0],[-171.1714,65.4974,31.0149],[-171.1724,65.4922,20.2804],[-171.1646,65.4875,0.0],[-171.1542,65.4875,31.802],[-171.15,65.4854,0.0],[-171.1438,65.4854,0.0],[-171.1396,65.4875,39.6648],[-171.1354,65.4854,0.0],[-171.1208,65.4854,0.0],[-171.1109,65.4828,6.7335],[-171.1,65.4771,0.0],[-171.0859,65.4745,95.4646],[-171.087,65.4714,0.0],[-171.0797,65.4703,39.5382],[-171.0729,65.4667,0.0],[-171.0667,65.4688,103.8834],[-171.0625,65.4667,0.0],[-171.0417,65.4667,0.0],[-171.0339,65.4693,0.0],[-171.0307,65.4724,19.5625],[-171.0193,65.4755,0.0],[-171.0161,65.4807,15.829],[-171.0109,65.4818,0.0],[-171.0057,65.487,12.6138],[-171.0005,65.488,0.0],[-171.0036,65.4912,49.603],[-170.9922,65.4922,0.0],[-170.988,65.4984,0.0],[-170.9911,65.5005,28.7522],[-170.9896,65.5042,17.1038],[-170.9917,65.5083,56.4894],[-170.988,65.5141,0.0],[-170.9911,65.5162,0.0],[-170.9891,65.5182,1.4053],[-170.9839,65.5193,0.0],[-170.9797,65.5255,23.7431],[-170.9828,65.5286,6.148],[-170.9797,65.5349,6.7185],[-170.9828,65.537,28.1272],[-170.9755,65.538,0.0],[-170.9755,65.5411,0.0],[-170.9787,65.5432,44.5148],[-170.9734,65.5484,8.4776],[-170.9734,65.5516,18.7395],[-170.9766,65.5537,35.8865],[-170.9714,65.5599,0.0],[-170.9807,65.5609,15.8529],[-170.9797,65.5641,2.7673],[-170.9932,65.5724,0.0],[-170.987,65.5807,0.0],[-170.9818,65.5818,1.1798],[-170.9797,65.5849,0.0],[-170.9854,65.5875,0.995],[-170.9917,65.5854,2.3016],[-170.9958,65.5875,1.9577],[-171.0161,65.588,1.6219],[-171.0286,65.5943,30.2384],[-171.0276,65.5974,0.0],[-171.0307,65.5984,17.5397],[-171.0297,65.6016,0.0],[-171.037,65.6026,16.5317],[-171.0354,65.6062,0.0],[-171.0375,65.6104,5.1088],[-171.0359,65.6141,0.0],[-171.0391,65.6151,13.602],[-171.038,65.6182,0.0],[-171.0453,65.6193,7.0063],[-171.0521,65.6229,10.6295],[-171.0646,65.625,29.9548],[-171.0713,65.6286,12.5843],[-171.0813,65.6312,1.5092],[-171.0917,65.6312,58.5009],[-171.1042,65.6354,57.8217],[-171.1187,65.6354,155.5007],[-171.1396,65.6438,91.9189],[-171.1479,65.6438,102.4324],[-171.1521,65.6458,62.2505],[-171.1625,65.6458,41.6294],[-171.1667,65.6479,0.0],[-171.1708,65.6458,33.7516],[-171.1771,65.6458,36.6865],[-171.1812,65.6479,62.0468],[-171.1917,65.6479,91.7919],[-171.1958,65.65,55.3992],[-171.2042,65.65,55.0819],[-171.2083,65.6521,11.0234],[-171.2146,65.6521,22.8697],[-171.2208,65.65,34.6545],[-171.225,65.6521,0.0],[-171.2287,65.6495,-0.7077],[-171.2297,65.6464,-0.4156],[-171.2349,65.6464,-0.1],[-171.2391,65.6484,18.323],[-171.2359,65.6536,0.0],[-171.2432,65.6568,31.1856],[-171.2401,65.662,0.0],[-171.2661,65.6755,133.3867],[-171.2651,65.6787,20.4425],[-171.2724,65.6797,68.0285],[-171.2807,65.6839,166.0851],[-171.2797,65.687,92.6992],[-171.2896,65.6917,44.0916],[-171.3042,65.6917,160.5832],[-171.3083,65.6896,191.7171],[-171.312,65.6901,187.3114],[-171.3109,65.6932,34.761],[-171.3182,65.6964,0.0],[-171.3203,65.6984,0.0],[-171.3203,65.7016,6.904],[-171.3062,65.7021,0.0],[-171.3047,65.7037,15.5362],[-171.3104,65.7063,123.1716],[-171.3161,65.7068,166.4008],[-171.3193,65.7099,138.3149],[-171.3307,65.7151,27.039],[-171.3276,65.7203,0.7648],[-171.3313,65.7229,2.3693],[-171.3307,65.7245,0.0],[-171.3208,65.7271,1.9361],[-171.3062,65.7271,0.0],[-171.2937,65.7229,0.0],[-171.2792,65.7208,45.1991],[-171.2708,65.7167,8.0085],[-171.2672,65.7203,27.3176],[-171.2745,65.7214,44.3278],[-171.2896,65.7292,0.0],[-171.3125,65.7312,86.3011],[-171.325,65.7354,44.6983],[-171.3313,65.7333,95.5321],[-171.3422,65.7391,2.4027],[-171.3495,65.7401,19.3511],[-171.3562,65.7438,3.7046],[-171.3646,65.7438,28.5925],[-171.3729,65.7479,64.5372],[-171.3786,65.7484,72.5938],[-171.3797,65.7516,0.0],[-171.3896,65.7521,46.0725],[-171.3995,65.7568,23.8193],[-171.3963,65.762,0.0],[-171.3995,65.763,12.3271],[-171.4026,65.7682,0.0],[-171.4057,65.7693,39.4038],[-171.4047,65.7724,0.0],[-171.4078,65.7734,34.1712],[-171.4109,65.7786,39.5128],[-171.4224,65.7839,0.1658],[-171.4276,65.7932,29.7572],[-171.4307,65.7943,48.8826],[-171.4297,65.7974,3.1435],[-171.4328,65.7984,23.8435],[-171.4286,65.8057,4.4944],[-171.4234,65.8068,0.0],[-171.4193,65.8109,9.4923],[-171.4193,65.8141,10.5412],[-171.4214,65.8161,3.8435],[-171.4292,65.8167,0.659],[-171.4333,65.8146,18.957],[-171.4458,65.8146,24.8909],[-171.45,65.8167,17.971],[-171.4542,65.8167,21.21],[-171.4599,65.8193,8.3502],[-171.4588,65.8224,3.2672],[-171.463,65.8245,1.8435],[-171.4729,65.825,1.6517],[-171.4787,65.8276,0.0],[-171.4787,65.8307,0.5153],[-171.4646,65.8313,0.0],[-171.4563,65.8375,0.0],[-171.45,65.8354,0.0],[-171.4458,65.8375,11.81],[-171.4396,65.8375,26.313],[-171.4271,65.8333,0.0],[-171.4229,65.8333,0.0],[-171.4214,65.8328,0.0],[-171.4224,65.8297,0.2108],[-171.4047,65.8266,13.9657],[-171.3932,65.8193,0.0],[-171.3859,65.8182,53.2599],[-171.3849,65.8151,0.0],[-171.3693,65.812,85.8473],[-171.3703,65.8089,0.0],[-171.3609,65.8078,17.6522],[-171.3495,65.8005,1.0842],[-171.3375,65.8,5.0785],[-171.3328,65.7963,0.0],[-171.3234,65.7953,26.1222],[-171.3245,65.7922,0.0],[-171.3172,65.7911,0.0],[-171.3104,65.7875,0.0],[-171.3062,65.7875,5.7777],[-171.3021,65.7854,0.0],[-171.2901,65.7849,18.7597],[-171.2797,65.7786,0.0],[-171.2807,65.7755,0.0],[-171.2688,65.775,2.5453],[-171.2646,65.7729,0.0],[-171.2542,65.7729,10.4681],[-171.2443,65.7703,14.7051],[-171.2328,65.763,0.0],[-171.2255,65.762,13.0001],[-171.2245,65.7589,0.0],[-171.2187,65.7583,4.1013],[-171.213,65.7557,16.5071],[-171.2099,65.7505,9.6892],[-171.2005,65.7453,10.84],[-171.2016,65.7422,6.5322],[-171.1979,65.7396,1.4415],[-171.1995,65.7359,0.0],[-171.1922,65.7349,2.0338],[-171.1776,65.7266,52.2192],[-171.1786,65.7234,3.0288],[-171.1755,65.7224,31.5429],[-171.1724,65.7172,15.5021],[-171.1651,65.7141,110.4606],[-171.1662,65.7109,18.2393],[-171.163,65.7099,33.4999],[-171.1662,65.7037,0.4892],[-171.1646,65.7021,0.0],[-171.1562,65.7021,0.6823],[-171.1417,65.6979,0.0],[-171.1333,65.6979,6.6002],[-171.125,65.6937,0.0],[-171.1104,65.6937,40.9099],[-171.1062,65.6917,0.0],[-171.0854,65.6917,50.597],[-171.0813,65.6896,22.7032],[-171.0729,65.6896,45.1989],[-171.0688,65.6875,0.0],[-171.0542,65.6875,90.5954],[-171.0526,65.687,66.7038],[-171.0536,65.6839,0.0],[-171.0521,65.6833,0.0],[-171.0417,65.6833,12.0148],[-171.0375,65.6813,0.0],[-171.0229,65.6813,31.5021],[-171.013,65.6787,0.0],[-171.0063,65.675,0.0],[-171.0021,65.675,4.1562],[-170.9979,65.6729,0.0],[-170.9875,65.6729,0.0],[-170.9667,65.6667,0.0],[-170.9521,65.6667,11.5268],[-170.9396,65.6625,0.0],[-170.9292,65.6625,34.0935],[-170.9083,65.6563,0.0],[-170.9021,65.6583,17.994],[-170.8938,65.6542,0.0],[-170.8854,65.6542,11.7703],[-170.8813,65.6521,0.0],[-170.8667,65.65,15.9875],[-170.8651,65.6495,12.4518],[-170.8661,65.6464,0.0],[-170.8464,65.6412,5.4614],[-170.8359,65.6349,16.1009],[-170.8359,65.6318,24.9001],[-170.8401,65.6276,15.0468],[-170.8479,65.6271,0.0],[-170.8516,65.6245,0.0],[-170.8417,65.6208,1.7462],[-170.7917,65.6208,22.7272],[-170.7875,65.6188,0.0],[-170.7771,65.6188,11.3382],[-170.7729,65.6167,8.6418],[-170.7688,65.6167,27.2266],[-170.7604,65.6125,0.0],[-170.7375,65.6104,29.0081],[-170.7333,65.6083,6.1514],[-170.6938,65.6062,0.0],[-170.6896,65.6083,34.8858],[-170.6729,65.6083,49.7193],[-170.663,65.6057,20.4327],[-170.6562,65.6021,0.0],[-170.6375,65.6021,7.8028],[-170.6333,65.6,0.0],[-170.6292,65.6021,25.7215],[-170.6229,65.6,0.0],[-170.6167,65.6,0.0],[-170.6021,65.6042,0.0],[-170.5833,65.6042,0.0],[-170.5755,65.6068,0.0],[-170.5745,65.6099,133.2887],[-170.5609,65.613,0.0],[-170.5578,65.6182,109.324],[-170.5443,65.6234,0.0],[-170.5339,65.638,0.0],[-170.537,65.6412,72.2178],[-170.5328,65.6474,56.1902],[-170.525,65.65,50.8444],[-170.5047,65.6505,0.0],[-170.5063,65.6563,66.4093],[-170.5047,65.6599,0.0],[-170.5099,65.663,0.0],[-170.5099,65.6661,0.0],[-170.5047,65.6672,0.0],[-170.4964,65.6724,0.0],[-170.4984,65.6766,25.8196],[-170.5099,65.6776,14.8703],[-170.5141,65.6859,9.8976],[-170.5141,65.6891,4.6699],[-170.5099,65.6932,0.0],[-170.5047,65.6943,0.0],[-170.5026,65.6974,4.6029],[-170.512,65.6984,225.1314],[-170.5104,65.7,196.7718],[-170.5047,65.7005,0.0],[-170.5042,65.7021,0.0],[-170.5078,65.7047,6.5628],[-170.5068,65.7078,0.0],[-170.5125,65.7083,125.8473],[-170.5141,65.7099,214.3811],[-170.5088,65.7109,0.0],[-170.5047,65.7151,0.0],[-170.5026,65.7203,30.2455],[-170.5057,65.7214,115.5479],[-170.5047,65.7245,38.0301],[-170.5078,65.7255,152.2019],[-170.5068,65.7286,0.0],[-170.5125,65.7312,5.785],[-170.5188,65.7292,98.6842],[-170.5203,65.7297,39.5779],[-170.5193,65.7328,0.0],[-170.5266,65.7338,0.0],[-170.5255,65.737,0.0],[-170.5286,65.738,22.0894],[-170.5307,65.7453,47.9061],[-170.5255,65.7505,0.0],[-170.5245,65.7536,9.903],[-170.513,65.7578,0.0],[-170.5188,65.7583,76.3223],[-170.5224,65.7609,76.3595],[-170.5172,65.7641,0.0],[-170.5292,65.7646,51.8811],[-170.5307,65.7662,28.4537],[-170.5182,65.7828,0.0],[-170.5068,65.7859,0.0],[-170.5036,65.7911,0.0],[-170.4984,65.7922,0.0],[-170.4953,65.7953,0.0],[-170.4854,65.7958,0.0],[-170.4828,65.7995,0.0],[-170.4755,65.8005,0.0],[-170.4714,65.8078,0.0],[-170.4745,65.8089,0.0],[-170.4729,65.8125,0.0],[-170.4776,65.8224,0.0],[-170.4849,65.8234,65.7276],[-170.4839,65.8287,0.0],[-170.4932,65.8339,105.0716],[-170.4901,65.8391,0.0],[-170.4984,65.8432,32.9499],[-170.5057,65.8443,117.5351],[-170.5047,65.8474,15.8347],[-170.5141,65.8484,45.9884],[-170.5188,65.8521,0.0],[-170.525,65.85,0.0],[-170.5312,65.85,1.4317],[-170.5349,65.8474,0.2404],[-170.5292,65.8438,12.4873],[-170.5193,65.8432,111.9793],[-170.5193,65.8401,265.9371],[-170.5208,65.8396,212.5363],[-170.5271,65.8417,82.8934],[-170.5375,65.8417,55.4354],[-170.5417,65.8396,37.6127],[-170.5542,65.8396,0.0],[-170.5583,65.8375,1.2623],[-170.5854,65.8375,0.1348],[-170.5911,65.8401,0.0],[-170.587,65.8453,0.0],[-170.5583,65.8458,0.0],[-170.5536,65.8495,3.1199],[-170.5484,65.8505,0.0],[-170.5453,65.8536,0.0],[-170.5401,65.8547,1.5941],[-170.537,65.8599,2.8208],[-170.5083,65.8688,31.9741],[-170.5005,65.8693,0.0],[-170.4911,65.8807,29.3557],[-170.4859,65.8818,0.0],[-170.4891,65.8849,70.616],[-170.4755,65.888,0.0],[-170.4745,65.8912,69.2521],[-170.4693,65.8922,72.4497],[-170.4703,65.8953,74.7618],[-170.4484,65.9005,0.0],[-170.437,65.9078,29.0849],[-170.4193,65.913,26.5079],[-170.4162,65.9161,25.853],[-170.4109,65.9172,7.3048],[-170.4057,65.9224,5.8309],[-170.4005,65.9234,1.3157],[-170.3984,65.9255,0.3938],[-170.3984,65.9287,0.117],[-170.4016,65.9297,0.0964],[-170.4036,65.9328,0.0749],[-170.3979,65.9313,0.1217],[-170.3813,65.9313,0.1781],[-170.3771,65.9333,5.8186],[-170.3708,65.9313,1.05],[-170.3667,65.9333,4.5961],[-170.3479,65.9354,0.0],[-170.3432,65.9391,31.3813],[-170.3354,65.9417,33.3557],[-170.3271,65.9417,0.0],[-170.3229,65.9458,19.3271],[-170.3167,65.9458,0.0],[-170.3104,65.9437,0.0],[-170.3062,65.9479,83.2497],[-170.2875,65.9479,0.0],[-170.2833,65.95,23.4517],[-170.2604,65.95,0.0],[-170.2588,65.9516,0.0],[-170.262,65.9537,44.2959],[-170.2568,65.9547,1.9417],[-170.2516,65.9599,143.0574],[-170.2359,65.9609,0.0],[-170.2349,65.9641,29.1552],[-170.2287,65.9703,0.0],[-170.2208,65.9708,0.0],[-170.2104,65.975,0.0],[-170.2021,65.975,0.0],[-170.1974,65.9786,0.0],[-170.188,65.9797,0.0],[-170.1911,65.9828,8.264],[-170.187,65.987,28.2915],[-170.1818,65.988,0.0],[-170.1849,65.9912,30.7259],[-170.1745,66.0036,-0.3129],[-170.1687,66.0021,0.8726],[-170.15,66.0083,0.0],[-170.1354,66.0104,0.0],[-170.125,66.0146,0.4091],[-170.1125,66.0146,0.0],[-170.0896,66.0208,0.891],[-170.0771,66.0208,0.0],[-170.0729,66.0229,14.3311],[-170.0667,66.0229,0.0],[-170.0589,66.0255,0.0],[-170.0542,66.0292,8.3071],[-170.0417,66.0292,0.0],[-170.0375,66.0313,3.1004],[-170.025,66.0313,0.0],[-170.0208,66.0333,0.0],[-170.0167,66.0333,0.0],[-170.0151,66.0339,0.0],[-170.0151,66.037,1.7145],[-170.0208,66.0375,5.8414],[-170.0224,66.0391,4.1106],[-170.0203,66.0432,3.3159],[-170.0104,66.0458,0.0],[-170.0026,66.0453,0.0],[-170.0042,66.0437,0.0],[-170.0099,66.0432,0.0],[-170.0099,66.0401,0.0],[-170.0083,66.0396,2.0303],[-169.9979,66.0396,0.0],[-169.9937,66.0417,0.9101],[-169.975,66.0417,0.0],[-169.9708,66.0437,0.0],[-169.9563,66.0437,0.0],[-169.9521,66.0417,0.0],[-169.9146,66.0417,0.0],[-169.9104,66.0437,0.0],[-169.8938,66.0437,0.0],[-169.8854,66.0396,31.1971],[-169.8797,66.0391,47.1355],[-169.8724,66.0339,0.0],[-169.863,66.0328,90.7248],[-169.8641,66.0297,8.7254],[-169.8609,66.0286,77.7988],[-169.862,66.0255,0.0],[-169.8589,66.0245,0.0],[-169.8599,66.0214,0.0],[-169.8526,66.0203,45.5513],[-169.8495,66.0151,0.0],[-169.8453,66.013,0.0],[-169.8318,66.012,73.5336],[-169.8271,66.0062,0.0],[-169.8125,66.0062,0.0],[-169.8,66.0021,0.0],[-169.7937,66.0042,29.6632],[-169.7896,66.0021,0.0],[-169.775,66.0021,37.2101],[-169.7708,66.0,0.0],[-169.7646,66.0021,73.1298],[-169.7479,66.0021,0.0],[-169.7437,66.0042,94.2696],[-169.7375,66.0021,0.0],[-169.7333,66.0042,15.066],[-169.7271,66.0021,0.0],[-169.7224,66.0057,48.8903],[-169.7172,66.0068,0.0],[-169.7203,66.0099,123.3291],[-169.7068,66.0151,0.0],[-169.7099,66.0182,48.6991],[-169.7047,66.0234,19.7468],[-169.7047,66.0266,169.3635],[-169.7068,66.0286,262.8532],[-169.7146,66.0292,251.7272],[-169.7161,66.0307,206.1747],[-169.6943,66.0318,0.0],[-169.687,66.0411,7.9787],[-169.6734,66.0463,0.0],[-169.6766,66.0495,113.5763],[-169.6714,66.0505,48.8082],[-169.6724,66.0537,111.5826],[-169.6672,66.0547,0.0],[-169.6651,66.0568,0.0],[-169.6651,66.0599,0.0],[-169.6687,66.0667,53.7971],[-169.6662,66.0703,57.0714],[-169.6609,66.0714,0.0],[-169.6641,66.0745,77.2025],[-169.6542,66.075,0.0],[-169.6526,66.0766,0.0],[-169.6557,66.0776,34.7006],[-169.6583,66.0813,225.9554],[-169.6547,66.087,0.0],[-169.662,66.088,162.0505],[-169.6651,66.0953,29.6075],[-169.6682,66.0964,177.1205],[-169.6651,66.1005,64.27],[-169.6682,66.1036,142.5107],[-169.6651,66.1078,54.9699],[-169.6766,66.113,260.1098],[-169.6755,66.1162,101.5583],[-169.6786,66.1172,138.198],[-169.6734,66.1245,0.0],[-169.6766,66.1255,96.1373],[-169.6797,66.1307,212.1819],[-169.6917,66.1312,144.5382],[-169.6974,66.1339,62.7871],[-169.6963,66.137,0.0],[-169.7063,66.1396,0.0],[-169.7182,66.1401,140.219],[-169.7172,66.1432,41.5584],[-169.7245,66.1443,274.0829],[-169.7354,66.15,194.8478],[-169.7396,66.15,218.5874],[-169.7437,66.1521,130.0621],[-169.7542,66.1521,160.2148],[-169.7583,66.1542,94.6018],[-169.7688,66.1542,131.29],[-169.7729,66.1563,81.7966],[-169.7812,66.1563,85.6284],[-169.7854,66.1583,0.0],[-169.8021,66.1583,4.1217],[-169.8068,66.1547,16.1648],[-169.8182,66.1516,0.0],[-169.8213,66.1484,3.1397],[-169.8292,66.1458,3.4893],[-169.8391,66.1453,0.0],[-169.8411,66.1422,0.0],[-169.838,66.1412,0.0],[-169.8391,66.1359,0.0],[-169.8359,66.1339,4.4589],[-169.8578,66.1328,0.0],[-169.8521,66.1271,2.3116],[-169.8526,66.1255,3.0205],[-169.8604,66.1229,1.4032],[-169.8667,66.1229,0.0],[-169.8724,66.1255,0.0],[-169.8708,66.1292,0.0],[-169.8734,66.1349,3.4711],[-169.8813,66.1354,1.9236],[-169.8854,66.1333,3.3185],[-169.887,66.1349,0.0],[-169.8771,66.1396,0.9361],[-169.85,66.1396,0.0],[-169.8464,66.1432,0.0],[-169.8646,66.1438,0.0],[-169.8687,66.1417,8.2038],[-169.8729,66.1438,3.5063],[-169.8938,66.1438,11.0494],[-169.8979,66.1458,0.0],[-169.9229,66.1458,7.9193],[-169.9354,66.15,0.4851],[-169.9583,66.15,7.8769],[-169.9625,66.1479,2.6235],[-169.9687,66.1479,5.2534],[-169.9703,66.1484,1.2714],[-169.9693,66.1516,9.0892],[-169.9708,66.1521,5.1327],[-169.9937,66.1542,10.6878],[-169.9979,66.1563,0.0],[-170.0042,66.1563,12.6455],[-170.0167,66.1604,9.0575],[-170.0292,66.1625,7.8198],[-170.0354,66.1687,2.4074],[-170.0417,66.1667,6.7628],[-170.0458,66.1687,0.0],[-170.0625,66.1687,9.849],[-170.0724,66.1713,8.7244],[-170.0813,66.1771,0.0],[-170.0875,66.175,9.2155],[-170.0938,66.1771,7.8241],[-170.1016,66.1745,3.1578],[-170.1047,66.1713,4.8345],[-170.1099,66.1703,3.4249],[-170.112,66.1672,0.0],[-170.1062,66.1646,0.0],[-170.0854,66.1646,6.2273],[-170.0813,66.1625,0.9234],[-170.0688,66.1604,0.0],[-170.0672,66.1589,0.0],[-170.0792,66.1583,1.844],[-170.0833,66.1604,0.0],[-170.1,66.1604,1.9764],[-170.1042,66.1583,0.0],[-170.1167,66.1583,6.261],[-170.1208,66.1542,5.6949],[-170.1151,66.1484,1.2202],[-170.1229,66.1458,2.7133],[-170.1328,66.1453,0.4758],[-170.1359,66.1401,2.7487],[-170.1438,66.1375,6.3606],[-170.1667,66.1375,0.0],[-170.1682,66.138,0.0],[-170.1672,66.1412,0.0],[-170.1687,66.1417,1.8853],[-170.1896,66.1417,3.8992],[-170.1958,66.1458,0.0],[-170.225,66.15,8.1104],[-170.2312,66.1542,0.0],[-170.2391,66.1547,5.4085],[-170.2495,66.162,0.0226],[-170.238,66.163,0.0],[-170.2339,66.1693,0.0],[-170.237,66.1713,0.0603],[-170.2349,66.1766,0.0],[-170.2255,66.1755,0.0],[-170.2312,66.1813,0.0],[-170.2271,66.1854,1.362],[-170.2208,66.1833,0.0],[-170.2125,66.1833,1.9136],[-170.2083,66.1813,4.3346],[-170.2021,66.1833,5.4804],[-170.187,66.1755,0.377],[-170.1797,66.1745,2.7238],[-170.1708,66.1687,0.0],[-170.1542,66.1687,0.0],[-170.15,66.1708,7.2885],[-170.1375,66.1708,0.0],[-170.1307,66.1766,0.0],[-170.1229,66.1792,7.145],[-170.1167,66.1771,0.0],[-170.1125,66.1792,0.4425],[-170.1042,66.1792,0.0],[-170.1026,66.1807,0.0],[-170.1057,66.1818,0.0],[-170.1047,66.1849,2.8629],[-170.1161,66.1901,5.333],[-170.1193,66.1953,0.0],[-170.1224,66.1964,0.0],[-170.1208,66.1979,0.0],[-170.1151,66.1984,0.0],[-170.1109,66.2057,2.6457],[-170.1182,66.2089,10.1637],[-170.1151,66.213,0.0],[-170.1151,66.2161,0.0],[-170.1208,66.2167,24.402],[-170.1266,66.2193,30.6142],[-170.1234,66.2245,0.0],[-170.1313,66.225,45.5731],[-170.1375,66.2292,6.7272],[-170.1453,66.2297,71.1744],[-170.1484,66.2328,47.118],[-170.1557,66.2359,69.9396],[-170.1547,66.2412,0.0],[-170.162,66.2422,26.3067],[-170.1609,66.2453,0.0],[-170.1682,66.2484,40.8915],[-170.1651,66.2536,0.0],[-170.1828,66.263,190.0298],[-170.1839,66.2662,65.4249],[-170.1896,66.2667,234.8176],[-170.1953,66.2693,262.4084],[-170.1984,66.2745,112.2153],[-170.2057,66.2755,318.0055],[-170.2141,66.2797,282.0099],[-170.213,66.2828,84.9856],[-170.2437,66.2854,249.4072],[-170.2495,66.288,198.4113],[-170.2464,66.2922,0.0],[-170.2479,66.2937,0.0],[-170.2729,66.2958,0.9609],[-170.2771,66.2979,3.7155],[-170.2786,66.2974,3.2213],[-170.2776,66.2943,1.1737],[-170.2854,66.2937,0.4199],[-170.2896,66.2917,6.2197],[-170.3125,66.2917,7.7756],[-170.3167,66.2937,0.0],[-170.3245,66.2911,2.8845],[-170.3313,66.2854,4.1702],[-170.3354,66.2875,0.0],[-170.3391,66.287,0.0],[-170.3417,66.2833,7.4325],[-170.3537,66.2859,0.0],[-170.3526,66.2891,0.388],[-170.3542,66.2896,2.5132],[-170.3708,66.2917,0.0],[-170.3786,66.2891,0.0],[-170.3818,66.2859,0.0],[-170.387,66.2849,0.0],[-170.387,66.2818,0.2411],[-170.3813,66.2771,2.5154],[-170.3838,66.2734,0.83],[-170.3891,66.2734,0.495],[-170.3938,66.2771,0.6007],[-170.4062,66.2771,0.0],[-170.4104,66.275,14.7395],[-170.4187,66.275,0.0],[-170.4266,66.2724,0.0],[-170.4255,66.2651,6.6834],[-170.4417,66.2604,11.2271],[-170.4542,66.2604,0.0],[-170.4588,66.2547,11.0209],[-170.4667,66.2521,11.5607],[-170.4766,66.2516,1.1069],[-170.4797,66.2484,8.9447],[-170.4849,66.2474,7.1461],[-170.487,66.2453,0.4346],[-170.487,66.2422,0.0],[-170.4839,66.2401,32.2013],[-170.4953,66.2391,3.9541],[-170.5005,66.2318,17.2138],[-170.512,66.2286,0.2529],[-170.5172,66.2234,17.5963],[-170.5328,66.2224,4.3593],[-170.5349,66.2193,-0.178],[-170.5318,66.2172,0.562],[-170.5354,66.2146,0.6513],[-170.5453,66.2193,1.1897],[-170.5422,66.2234,0.1955],[-170.5437,66.225,0.7898],[-170.55,66.2229,5.0651],[-170.562,66.2245,0.0],[-170.5688,66.2167,0.0],[-170.575,66.2167,3.4833],[-170.5833,66.2208,0.0],[-170.6099,66.2214,0.0],[-170.6089,66.2266,0.0],[-170.612,66.2276,0.0],[-170.6109,66.2307,0.0],[-170.6187,66.2292,0.0],[-170.6245,66.2328,0.0],[-170.6062,66.2333,0.0],[-170.5958,66.2292,6.4742],[-170.5943,66.2297,3.385],[-170.5943,66.2328,0.0],[-170.6,66.2333,0.0],[-170.6068,66.237,0.0],[-170.625,66.2417,-0.1122],[-170.6354,66.2417,0.7795],[-170.6411,66.2453,-0.1917],[-170.6375,66.2479,0.278],[-170.625,66.2438,-1.0234],[-170.6146,66.2438,-0.1572],[-170.6104,66.2417,-0.7195],[-170.5937,66.2417,0.0],[-170.5891,66.2453,0.0],[-170.5813,66.2458,0.3766],[-170.5724,66.2401,0.0],[-170.563,66.2391,5.9103],[-170.5542,66.2333,0.0],[-170.5417,66.2333,2.37],[-170.5339,66.2359,0.3382],[-170.5276,66.2443,0.6014],[-170.5276,66.2474,0.0],[-170.5307,66.2495,0.0],[-170.5255,66.2557,0.0],[-170.5286,66.2568,18.7037],[-170.5286,66.2599,4.1579],[-170.525,66.2625,0.0],[-170.5151,66.263,0.0],[-170.512,66.2682,13.3896],[-170.5068,66.2693,0.0],[-170.5208,66.275,0.0],[-170.5266,66.2755,0.0],[-170.5307,66.2786,1.3435],[-170.5255,66.2797,0.0],[-170.5208,66.2833,0.0],[-170.5125,66.2833,0.0],[-170.4922,66.2901,0.0],[-170.4901,66.2932,0.0],[-170.4932,66.2953,0.0],[-170.4896,66.2979,0.0],[-170.4714,66.2974,0.2274],[-170.4724,66.2943,2.1158],[-170.4693,66.2922,9.8376],[-170.4766,66.2818,6.58],[-170.4687,66.2813,25.5446],[-170.4641,66.2849,1.3757],[-170.4588,66.2859,0.0],[-170.462,66.2891,8.7354],[-170.4547,66.2901,0.0],[-170.4547,66.2932,0.0],[-170.4578,66.2953,0.0],[-170.4516,66.3016,0.0],[-170.4312,66.3083,0.0],[-170.4229,66.3083,0.0],[-170.4125,66.3125,5.4423],[-170.3938,66.3125,0.0],[-170.3922,66.3141,0.0],[-170.4042,66.3146,4.0194],[-170.4187,66.3187,1.5122],[-170.4271,66.3187,9.3813],[-170.4312,66.3208,1.4466],[-170.4479,66.3208,20.6689],[-170.4578,66.3234,8.1339],[-170.4646,66.3271,2.7488],[-170.475,66.3271,0.9562],[-170.4812,66.3313,0.0],[-170.4917,66.3313,7.6529],[-170.5042,66.3354,4.3629],[-170.5208,66.3354,2.8915],[-170.5307,66.338,5.0275],[-170.5375,66.3417,2.706],[-170.5417,66.3417,7.9014],[-170.5542,66.3458,0.0],[-170.5646,66.3458,3.5039],[-170.5713,66.3495,1.3436],[-170.5786,66.3505,4.8379],[-170.5813,66.3562,0.0],[-170.5797,66.3599,0.0],[-170.588,66.3641,146.2627],[-170.5953,66.3651,191.1443],[-170.5943,66.3682,166.5137],[-170.6026,66.3724,56.4864],[-170.6099,66.3734,128.5167],[-170.6125,66.3792,21.5566],[-170.6109,66.3828,15.0945],[-170.6182,66.3839,89.2886],[-170.6193,66.387,87.4493],[-170.6266,66.388,222.5749],[-170.6349,66.3922,247.9876],[-170.638,66.3953,202.898],[-170.6578,66.4047,89.772],[-170.6568,66.4078,160.897],[-170.6745,66.4172,106.7105],[-170.6734,66.4203,12.4535],[-170.6792,66.4229,79.4186],[-170.687,66.4234,181.4604],[-170.6958,66.4292,168.7075],[-170.7016,66.4297,222.3308],[-170.7057,66.4318,98.6649],[-170.7068,66.4349,0.0],[-170.7411,66.4422,390.7414],[-170.7505,66.4474,336.3119],[-170.7563,66.4479,349.5388],[-170.762,66.4505,148.5813],[-170.7609,66.4537,43.2611],[-170.7708,66.4563,0.0],[-170.7812,66.4563,175.4161],[-170.787,66.4589,122.9049],[-170.7859,66.462,0.0],[-170.7937,66.4625,55.0121],[-170.8146,66.4708,280.5237],[-170.8188,66.4688,349.801],[-170.8224,66.4693,368.7528],[-170.8297,66.4745,315.0082],[-170.8505,66.4849,20.229],[-170.8578,66.4859,141.8929],[-170.8661,66.4901,129.2063],[-170.8651,66.4932,0.0],[-170.8708,66.4938,155.321],[-170.8807,66.4984,254.1345],[-170.8797,66.5016,7.3205],[-170.8963,66.5099,82.2223],[-170.9062,66.5125,100.4439],[-170.9167,66.5125,199.0885],[-170.9318,66.5203,10.936],[-170.9417,66.5229,0.0],[-170.9667,66.525,272.9857],[-170.9724,66.5276,237.8373],[-170.9714,66.5307,30.7536],[-170.9917,66.5417,0.0],[-171.0063,66.5437,27.3846],[-171.0146,66.5479,1.9249],[-171.0188,66.5479,2.7188],[-171.0312,66.5521,0.0],[-171.0375,66.5521,31.7438],[-171.05,66.5563,14.0391],[-171.0604,66.5563,4.1232],[-171.0729,66.5604,9.723],[-171.0792,66.5604,17.4922],[-171.0807,66.5609,0.0],[-171.0797,66.5641,2.5947],[-171.0875,66.5646,48.1762],[-171.1057,66.5693,47.7698],[-171.1099,66.5714,41.2561],[-171.1089,66.5745,0.0],[-171.137,66.5797,75.481],[-171.1401,66.5849,0.0],[-171.1484,66.5891,71.0144],[-171.1641,66.5922,181.1795],[-171.1667,66.5958,158.3612],[-171.1786,66.5964,184.4247],[-171.1818,66.6016,55.6861],[-171.1875,66.6021,155.011],[-171.1932,66.6047,117.417],[-171.1922,66.6078,12.6504],[-171.2,66.6083,8.614],[-171.2068,66.612,11.5145],[-171.2141,66.6131,131.8773],[-171.213,66.6162,0.0],[-171.2208,66.6167,198.3038],[-171.2318,66.6224,0.0],[-171.2391,66.6234,12.1039],[-171.263,66.637,72.8078],[-171.2708,66.6375,87.5839],[-171.2755,66.6412,90.7002],[-171.2833,66.6417,138.7285],[-171.2875,66.6438,144.7402],[-171.2979,66.6438,151.9747],[-171.2995,66.6443,151.9747],[-171.2984,66.6474,22.3896],[-171.3068,66.6516,28.0544],[-171.3229,66.6542,144.3787],[-171.3297,66.6578,170.681],[-171.337,66.6589,106.3013],[-171.3359,66.662,21.5689],[-171.3417,66.6646,13.3004],[-171.3495,66.6651,143.0033],[-171.3484,66.6682,0.0],[-171.3557,66.6693,130.9851],[-171.3568,66.6724,0.0],[-171.3641,66.6755,162.3459],[-171.363,66.6787,71.9518],[-171.3703,66.6818,189.8988],[-171.3693,66.6849,6.218],[-171.3766,66.688,157.029],[-171.3714,66.6911,0.0],[-171.3745,66.6922,52.8415],[-171.3776,66.6974,0.0],[-171.3807,66.6995,104.8112],[-171.375,66.7,0.0],[-171.3734,66.7016,0.0],[-171.3807,66.7047,98.2343],[-171.3818,66.7078,48.5558],[-171.3849,66.7089,152.8641],[-171.3838,66.712,39.8872],[-171.387,66.713,86.8911],[-171.3859,66.7161,0.0],[-171.3891,66.7172,117.1644],[-171.3838,66.7193,0.0],[-171.387,66.7224,81.2717],[-171.3818,66.7234,0.0],[-171.3776,66.7276,0.0],[-171.3776,66.7307,7.9634],[-171.3807,66.7328,237.3289],[-171.375,66.7333,32.993],[-171.3646,66.7375,0.0],[-171.3458,66.7396,12.6269],[-171.338,66.7422,0.0],[-171.3338,66.7474,0.0],[-171.3411,66.7526,175.2591],[-171.3401,66.7557,58.5775],[-171.3432,66.7568,183.7635],[-171.3422,66.7599,108.6054],[-171.3521,66.7646,75.4167],[-171.3625,66.7646,188.8076],[-171.3667,66.7667,179.3924],[-171.3813,66.7667,135.4851],[-171.3854,66.7688,46.6156],[-171.4125,66.7688,36.7962],[-171.425,66.775,0.0],[-171.4354,66.775,46.9604],[-171.4453,66.7776,96.7285],[-171.4521,66.7813,0.0],[-171.4625,66.7813,53.884],[-171.4667,66.7833,52.5095],[-171.4708,66.7833,74.9234],[-171.4792,66.7875,0.0],[-171.4979,66.7854,0.163],[-171.4995,66.787,4.1797],[-171.4937,66.7875,1.4051],[-171.4922,66.7891,1.4446],[-171.5,66.7896,15.4848],[-171.5083,66.7937,43.4964],[-171.5229,66.7958,66.6842],[-171.5297,66.7995,70.8475],[-171.5479,66.8042,61.9581],[-171.5542,66.8042,112.0247],[-171.5625,66.8083,86.5666],[-171.5729,66.8083,167.471],[-171.5797,66.812,131.8554],[-171.587,66.813,98.5608],[-171.5859,66.8161,5.297],[-171.5937,66.8167,34.6576],[-171.6089,66.8245,27.1412],[-171.6161,66.8255,106.594],[-171.6193,66.8307,0.0],[-171.6286,66.8318,112.3567],[-171.6276,66.8349,31.4234],[-171.6354,66.8354,175.4647],[-171.6422,66.8391,198.1068],[-171.6495,66.8401,229.2455],[-171.6484,66.8432,19.4253],[-171.6578,66.8443,133.7012],[-171.6786,66.8547,141.3904],[-171.6776,66.8578,43.1306],[-171.6849,66.862,77.9308],[-171.6797,66.863,0.0],[-171.6776,66.8662,26.6329],[-171.6849,66.8693,38.6712],[-171.6839,66.8724,0.0],[-171.6911,66.8755,9.9736],[-171.6901,66.8786,0.0],[-171.6953,66.8786,1.3291],[-171.7,66.875,-0.0522],[-171.7016,66.8755,0.0],[-171.7036,66.8807,0.0559],[-171.6922,66.8839,0.0],[-171.6875,66.8875,9.6387],[-171.6734,66.888,0.0],[-171.6682,66.8974,0.0],[-171.6458,66.9042,34.8557],[-171.6375,66.9042,0.0],[-171.6297,66.9068,0.0],[-171.6292,66.9083,0.0],[-171.6328,66.9109,34.2928],[-171.6318,66.9141,0.0],[-171.6391,66.9172,94.3991],[-171.638,66.9203,0.0],[-171.6411,66.9213,0.0],[-171.6443,66.9287,128.8221],[-171.65,66.9313,212.7836],[-171.6557,66.9318,227.1231],[-171.6667,66.9375,100.1852],[-171.6729,66.9375,171.9894],[-171.6771,66.9396,159.6915],[-171.6875,66.9396,153.1073],[-171.7,66.9437,120.7802],[-171.7104,66.9437,125.0579],[-171.7146,66.9479,67.4782],[-171.7208,66.9458,107.4908],[-171.725,66.9479,64.7173],[-171.7396,66.9479,166.8405],[-171.7437,66.95,126.2318],[-171.7542,66.95,155.7008],[-171.7583,66.9521,24.7942],[-171.7792,66.9521,35.7857],[-171.7833,66.9542,13.1828],[-171.7917,66.9542,14.5058],[-171.7943,66.9505,4.2313],[-171.8104,66.9458,-1.0],[-171.825,66.95,0.0],[-171.8354,66.95,4.3835],[-171.8396,66.9521,0.0],[-171.85,66.9521,3.3805],[-171.8578,66.9495,0.0],[-171.8568,66.9464,-0.2283],[-171.8583,66.9458,-0.3221],[-171.8646,66.9458,0.1165],[-171.8687,66.9479,-0.0642],[-171.8854,66.9458,1.0524],[-171.8896,66.9479,4.2816],[-171.9104,66.9479,0.0685],[-171.912,66.9495,0.0525],[-171.9099,66.9516,3.5835],[-171.9021,66.9521,0.0],[-171.8979,66.9542,0.0],[-171.8917,66.9521,0.0],[-171.8646,66.9521,0.0],[-171.863,66.9537,6.1943],[-171.8687,66.9563,0.0],[-171.8792,66.9563,3.6522],[-171.8875,66.9604,0.0],[-171.8995,66.9609,3.2387],[-171.8963,66.9682,0.0],[-171.9104,66.9729,5.9932],[-171.9167,66.9729,21.9061],[-171.925,66.9771,0.0],[-171.9349,66.9745,0.0],[-171.9333,66.9729,0.0],[-171.9255,66.9724,5.157],[-171.9297,66.9651,4.7804],[-171.9438,66.9604,25.8062],[-171.9687,66.9604,43.9917],[-171.9729,66.9583,50.819],[-171.9807,66.9578,28.8034],[-171.9875,66.95,52.1943],[-172.0063,66.9479,5.7467],[-172.0125,66.95,0.0],[-172.0229,66.9458,0.0],[-172.0396,66.9458,0.7804],[-172.0437,66.9437,7.3462],[-172.0583,66.9437,0.0],[-172.0625,66.9417,9.7616],[-172.0682,66.9443,0.0],[-172.0693,66.9474,0.0],[-172.0724,66.9495,0.0],[-172.0609,66.9505,1.9069],[-172.0625,66.9521,0.0],[-172.0833,66.9521,1.6794],[-172.0875,66.9542,0.0],[-172.1042,66.9542,0.977],[-172.1083,66.9563,0.0],[-172.1396,66.9583,2.36],[-172.1411,66.9568,0.0],[-172.1292,66.9563,0.657],[-172.125,66.9542,0.0],[-172.1146,66.9542,0.0],[-172.113,66.9526,0.0],[-172.1479,66.9521,10.5231],[-172.1521,66.9542,0.0],[-172.1687,66.9542,0.0],[-172.1729,66.9521,21.0316],[-172.1771,66.9542,3.301],[-172.1938,66.9542,9.4832],[-172.1979,66.9563,0.4142],[-172.2187,66.9563,1.9707],[-172.2229,66.9583,0.9268],[-172.2563,66.9583,9.0623],[-172.2604,66.9604,0.0],[-172.2708,66.9604,15.4692],[-172.275,66.9625,0.0],[-172.3104,66.9646,11.4166],[-172.3229,66.9688,0.0],[-172.3396,66.9688,9.8239],[-172.3479,66.9729,0.0],[-172.3542,66.9708,9.0649],[-172.3583,66.9729,1.7119],[-172.3792,66.9729,7.9126],[-172.3833,66.975,0.0],[-172.3938,66.975,6.262],[-172.4083,66.9792,0.0],[-172.425,66.9792,4.513],[-172.4266,66.9807,0.0],[-172.4167,66.9833,0.5514],[-172.4125,66.9812,0.0],[-172.4062,66.9812,0.0],[-172.3901,66.987,1.047],[-172.4187,66.9896,1.3423],[-172.4229,66.9917,0.0],[-172.4333,66.9917,1.8569],[-172.4458,66.9958,0.0],[-172.4729,66.9958,1.2761],[-172.4771,66.9979,1.6341],[-172.4875,66.9979,1.0898],[-172.4917,67.0,0.0],[-172.5021,67.0,1.5781],[-172.5063,67.0021,0.0],[-172.5203,67.0016,0.0],[-172.5104,66.9958,0.0],[-172.5,66.9958,0.0],[-172.4958,66.9938,0.0],[-172.4708,66.9917,0.0],[-172.4667,66.9896,0.0],[-172.4588,66.9891,0.0],[-172.4521,66.9854,0.0],[-172.4463,66.9849,0.0],[-172.4542,66.9812,6.577],[-172.4583,66.9833,0.0],[-172.475,66.9833,7.445],[-172.4792,66.9854,3.8549],[-172.5146,66.9875,7.6579],[-172.5188,66.9896,0.0],[-172.5437,66.9917,4.3896],[-172.5479,66.9938,0.0],[-172.5542,66.9917,5.477],[-172.5813,66.9917,5.8087],[-172.5854,66.9938,0.0],[-172.6125,66.9938,5.8723],[-172.6271,66.9979,0.0],[-172.6583,66.9979,4.6743],[-172.6729,67.0021,0.0],[-172.6833,67.0021,4.6644],[-172.6901,67.0057,0.0],[-172.7,67.0083,0.0],[-172.7063,67.0083,2.8236],[-172.7104,67.0104,0.0],[-172.7208,67.0104,5.3517],[-172.725,67.0125,0.0],[-172.7458,67.0125,5.1357],[-172.7583,67.0188,0.0],[-172.7646,67.0188,1.8076],[-172.7688,67.0208,0.0],[-172.7792,67.0208,4.0659],[-172.7917,67.025,0.0],[-172.7995,67.0255,0.0],[-172.7984,67.0307,0.2451],[-172.8042,67.0333,0.0],[-172.8104,67.0333,0.0],[-172.8146,67.0313,1.8967],[-172.8333,67.0313,0.6206],[-172.8349,67.0297,0.9174],[-172.8104,67.0292,0.5522],[-172.8089,67.0276,-0.2551],[-172.8125,67.025,4.1199],[-172.8208,67.025,0.0],[-172.8313,67.0208,5.1363],[-172.8479,67.0208,5.4392],[-172.8521,67.0229,0.0],[-172.8625,67.0229,5.4521],[-172.8724,67.0276,0.0],[-172.8708,67.0292,0.0],[-172.8625,67.0292,0.0],[-172.8609,67.0307,1.3359],[-172.8729,67.0313,2.8078],[-172.8771,67.0333,0.0],[-172.9,67.0333,2.6085],[-172.9016,67.0318,0.0],[-172.8896,67.0313,0.906],[-172.8839,67.0276,1.6271],[-172.9021,67.0271,2.7363],[-172.9062,67.0292,0.0],[-172.9141,67.0297,2.3126],[-172.912,67.0328,0.0],[-172.9068,67.0339,3.3884],[-172.9083,67.0354,1.617],[-172.9375,67.0354,1.0064],[-172.9417,67.0333,0.0],[-172.9458,67.0375,2.911],[-172.9604,67.0375,5.5494],[-172.9646,67.0396,0.0],[-172.975,67.0396,1.6443],[-172.9792,67.0417,0.0],[-173.0063,67.0417,2.5857],[-173.0104,67.0437,0.0],[-173.0167,67.0437,0.9766],[-173.0229,67.0417,3.2768],[-173.0292,67.0437,0.7277],[-173.0318,67.0401,0.0],[-173.037,67.0391,0.0],[-173.0396,67.0354,0.0],[-173.0375,67.0333,0.0],[-173.0213,67.0307,0.0],[-173.0234,67.0255,27.6104],[-173.0286,67.0245,0.0],[-173.0255,67.0224,15.2282],[-173.0266,67.0193,0.0],[-173.0208,67.0167,0.0],[-173.0104,67.0167,8.8131],[-173.0021,67.0125,0.0],[-172.9958,67.0146,20.2947],[-172.9896,67.0125,0.0],[-172.9792,67.0167,0.0],[-172.9667,67.0167,0.0],[-172.9604,67.0208,1.2394],[-172.9062,67.0208,7.3392],[-172.9021,67.0188,0.0],[-172.8917,67.0188,6.5692],[-172.8875,67.0167,0.0],[-172.8813,67.0167,8.4229],[-172.8771,67.0146,0.0],[-172.8667,67.0146,8.0392],[-172.8583,67.0104,0.0],[-172.8479,67.0104,5.8628],[-172.8396,67.0062,0.0],[-172.825,67.0062,0.0],[-172.8104,67.0021,0.0],[-172.7854,67.0,3.4033],[-172.7708,66.9958,0.0],[-172.7667,66.9979,2.9087],[-172.7479,66.9979,0.0],[-172.7437,67.0,3.3787],[-172.7375,67.0,0.0],[-172.7312,66.9979,0.0],[-172.7271,67.0,2.335],[-172.7229,66.9979,0.0],[-172.6708,66.9958,3.3967],[-172.6667,66.9938,0.0],[-172.6292,66.9917,8.288],[-172.625,66.9896,0.0],[-172.6042,66.9896,9.352],[-172.6,66.9875,0.0],[-172.5688,66.9875,5.7797],[-172.5625,66.9854,0.0],[-172.5583,66.9875,3.9937],[-172.5521,66.9875,5.0711],[-172.5479,66.9854,0.0],[-172.5375,66.9854,0.0],[-172.5333,66.9833,0.0],[-172.5083,66.9812,5.3457],[-172.5,66.9771,0.0],[-172.4937,66.9771,3.696],[-172.4812,66.9729,0.0],[-172.475,66.9729,1.6691],[-172.4734,66.9724,3.0727],[-172.4745,66.9693,0.0],[-172.4625,66.9688,2.6087],[-172.4516,66.963,0.0],[-172.4422,66.962,2.0202],[-172.4307,66.9547,0.0],[-172.4229,66.9542,-0.0487],[-172.4021,66.9458,0.0],[-172.3896,66.9458,0.0],[-172.3854,66.9437,0.0],[-172.3792,66.9437,0.0],[-172.375,66.9458,-1.0],[-172.3724,66.9422,0.0],[-172.3651,66.9391,0.0],[-172.3661,66.9359,0.2602],[-172.3604,66.9354,0.0],[-172.3583,66.9333,0.0],[-172.3604,66.9313,0.0],[-172.3687,66.9313,0.0],[-172.3766,66.9287,0.8633],[-172.3797,66.9255,2.1968],[-172.3849,66.9245,0.0],[-172.3875,66.9208,1.4732],[-172.3958,66.9208,0.0],[-172.4062,66.9167,2.0737],[-172.4203,66.9161,-1.0],[-172.4162,66.913,0.0],[-172.4089,66.912,0.0],[-172.4104,66.9104,0.0],[-172.4167,66.9104,0.4509],[-172.425,66.9146,0.0775],[-172.4375,66.9146,0.0],[-172.4479,66.9104,4.345],[-172.4542,66.9104,4.4637],[-172.4771,66.9042,1.4172],[-172.5021,66.9042,0.0],[-172.5063,66.9021,2.0843],[-172.5437,66.9021,1.5568],[-172.5479,66.9042,0.8536],[-172.5641,66.9068,5.3051],[-172.563,66.9099,0.0],[-172.5646,66.9104,0.0],[-172.5724,66.9109,17.2473],[-172.5713,66.9141,0.0],[-172.5828,66.9193,12.2238],[-172.5854,66.9229,18.6402],[-172.6187,66.9229,5.5931],[-172.6203,66.9224,2.479],[-172.6203,66.9193,4.4978],[-172.613,66.9161,17.8141],[-172.6141,66.913,10.8355],[-172.6109,66.9109,5.6055],[-172.6224,66.9099,0.0],[-172.6245,66.9047,0.4559],[-172.6167,66.9042,0.5541],[-172.6068,66.8995,2.2036],[-172.6109,66.8922,5.0215],[-172.625,66.8917,-0.5],[-172.6292,66.8896,4.5412],[-172.6354,66.8917,-0.5],[-172.6417,66.8917,-0.0019],[-172.6458,66.8896,0.2314],[-172.6625,66.8896,3.3423],[-172.6708,66.8938,2.318],[-172.6771,66.8938,0.0],[-172.6833,66.8917,2.9927],[-172.6875,66.8938,0.0],[-172.6953,66.8912,1.6893],[-172.7,66.8854,3.3626],[-172.7187,66.8854,9.0904],[-172.7312,66.8896,0.0],[-172.7688,66.8896,4.8106],[-172.7812,66.8958,0.0],[-172.8125,66.8958,0.6693],[-172.8167,66.8979,0.6965],[-172.8271,66.8979,6.9468],[-172.8292,66.9,6.9201],[-172.8276,66.9036,0.0],[-172.8354,66.9042,13.6889],[-172.8396,66.9063,0.0],[-172.8437,66.9042,15.4092],[-172.8562,66.9042,13.3207],[-172.8687,66.9083,0.0],[-172.9438,66.9083,9.3562],[-172.95,66.9104,0.0],[-172.9542,66.9083,8.2695],[-172.9604,66.9083,6.9463],[-172.9646,66.9104,2.083],[-172.9792,66.9104,2.0932],[-172.9833,66.9125,0.926],[-172.9937,66.9125,5.0384],[-172.9979,66.9146,0.0],[-173.0104,66.9146,5.4536],[-173.0167,66.9187,0.3891],[-173.0229,66.9187,4.3829],[-173.0271,66.9208,0.0],[-173.0417,66.9229,12.4472],[-173.0443,66.9266,0.0],[-173.0474,66.9276,11.1077],[-173.0464,66.9307,0.0],[-173.0495,66.9318,14.4919],[-173.0484,66.9349,5.7915],[-173.0516,66.9359,16.5933],[-173.0505,66.9411,0.0],[-173.0625,66.9417,1.626],[-173.0682,66.9443,5.1712],[-173.0672,66.9495,0.0],[-173.0745,66.9547,12.1016],[-173.0714,66.9589,0.0],[-173.0714,66.962,0.0],[-173.0786,66.9651,15.4536],[-173.0771,66.9688,0.0],[-173.0807,66.9724,10.4288],[-173.0766,66.9786,4.6363],[-173.0651,66.9818,0.0],[-173.0682,66.9849,17.5921],[-173.063,66.9859,0.0],[-173.0729,66.9917,18.0688],[-173.0766,66.9891,11.7118],[-173.0776,66.9859,12.4447],[-173.0833,66.9854,0.0],[-173.1,66.9792,8.3861],[-173.1292,66.9792,0.0],[-173.1438,66.975,23.1635],[-173.1521,66.975,11.9016],[-173.1662,66.9703,5.7667],[-173.1703,66.963,0.0],[-173.1646,66.9604,0.0],[-173.1568,66.9599,43.6893],[-173.1641,66.9557,14.0053],[-173.1609,66.9537,22.465],[-173.162,66.9505,0.0],[-173.1583,66.9479,2.6666],[-173.1641,66.937,4.6208],[-173.1609,66.9339,0.0],[-173.1646,66.9271,0.0],[-173.1609,66.9234,16.329],[-173.175,66.9187,6.9464],[-173.1833,66.9187,9.3673],[-173.2,66.9125,31.2235],[-173.2083,66.9125,31.6993],[-173.2224,66.9078,-0.0476],[-173.2245,66.9057,0.0425],[-173.2214,66.9036,16.6211],[-173.2203,66.9005,16.1561],[-173.2161,66.8984,2.4134],[-173.2083,66.8979,0.0],[-173.2063,66.9,0.0],[-173.2099,66.9036,0.0],[-173.2063,66.9083,12.3253],[-173.1917,66.9083,0.0],[-173.1875,66.9104,1.8498],[-173.1812,66.9104,1.7574],[-173.1771,66.9083,0.0],[-173.1667,66.9083,2.6746],[-173.1568,66.9057,2.7318],[-173.1401,66.8974,0.0],[-173.1391,66.8943,0.0],[-173.1359,66.8932,3.3692],[-173.138,66.888,0.4305],[-173.1432,66.887,5.3614],[-173.1479,66.8833,6.402],[-173.1578,66.8828,0.0],[-173.1589,66.8797,7.2005],[-173.1641,66.8786,14.7594],[-173.1672,66.8734,19.9866],[-173.1729,66.8729,2.6499],[-173.1745,66.8714,0.0],[-173.1687,66.8688,0.0],[-173.1609,66.8682,13.2108],[-173.15,66.8625,0.0],[-173.1396,66.8625,8.2426],[-173.1354,66.8604,0.0],[-173.1187,66.8604,3.3488],[-173.1146,66.8583,0.0],[-173.1042,66.8583,0.4398],[-173.0917,66.8625,0.9176],[-173.0818,66.8599,-0.5026],[-173.0807,66.8568,0.1583],[-173.0776,66.8547,-0.5533],[-173.0891,66.8505,0.0],[-173.0859,66.8495,0.0],[-173.087,66.8464,0.0],[-173.0838,66.8453,0.0087],[-173.0849,66.8422,0.0],[-173.0818,66.8401,-0.0673],[-173.0896,66.8375,0.0941],[-173.0974,66.837,-0.0848],[-173.0943,66.8349,0.0244],[-173.0958,66.8333,-0.1104],[-173.1021,66.8354,0.0],[-173.1182,66.8307,-0.1276],[-173.1208,66.8271,0.057],[-173.1333,66.8271,0.0],[-173.1417,66.8208,-0.3429],[-173.1583,66.8208,-0.0361],[-173.1646,66.8187,0.0],[-173.1771,66.8229,-0.0922],[-173.1896,66.8229,-0.0271],[-173.1958,66.8208,-1.0],[-173.2,66.8229,-0.1838],[-173.2063,66.8229,0.4977],[-173.2104,66.8208,0.2791],[-173.2375,66.8208,0.1297],[-173.2391,66.8193,-0.085],[-173.2359,66.8172,0.0048],[-173.2396,66.8167,-0.1334],[-173.2479,66.8208,0.0],[-173.2542,66.8208,0.3018],[-173.2604,66.8187,0.207],[-173.2646,66.8208,-0.1274],[-173.2724,66.8182,-1.0],[-173.2771,66.8146,-1.0],[-173.2917,66.8187,-1.0],[-173.3021,66.8187,19.2518],[-173.3104,66.8229,4.8431],[-173.3161,66.8234,17.2681],[-173.3203,66.8255,17.753],[-173.3193,66.8307,0.0],[-173.3266,66.8339,4.9156],[-173.3213,66.8359,0.0],[-173.3182,66.8411,0.0],[-173.3042,66.8417,0.2355],[-173.3005,66.8443,2.97],[-173.3078,66.8484,13.5258],[-173.3089,66.8516,10.4112],[-173.3161,66.8526,19.0948],[-173.3151,66.8578,0.0],[-173.3188,66.8604,6.7272],[-173.3141,66.8662,0.1743],[-173.3026,66.8693,0.0],[-173.3,66.8729,3.3324],[-173.2875,66.8729,0.0],[-173.2776,66.8755,0.0],[-173.2776,66.8786,0.2009],[-173.2917,66.8833,0.0],[-173.2995,66.8839,8.4028],[-173.2984,66.8891,0.0],[-173.3057,66.8901,4.8686],[-173.3099,66.8922,10.6622],[-173.3109,66.8953,0.0],[-173.3182,66.8964,17.1709],[-173.313,66.8984,0.0],[-173.3167,66.9021,0.0],[-173.3141,66.9078,0.0],[-173.3083,66.9083,0.0],[-173.2979,66.9125,2.2189],[-173.2901,66.913,0.6013],[-173.2917,66.9146,0.0],[-173.3036,66.9151,7.451],[-173.3016,66.9203,-0.5],[-173.2964,66.9224,-0.5],[-173.3021,66.925,3.4297],[-173.3078,66.9255,4.4377],[-173.3203,66.9318,9.2678],[-173.3203,66.9349,0.0],[-173.3172,66.9391,0.0],[-173.3229,66.9417,1.97],[-173.3354,66.9375,5.5349],[-173.3521,66.9396,-0.5],[-173.3708,66.9313,0.1519],[-173.3849,66.9318,2.1757],[-173.3807,66.9391,4.23],[-173.3755,66.9401,-0.5],[-173.3734,66.9422,-0.5],[-173.3703,66.9495,4.6635],[-173.3625,66.9521,-0.5],[-173.3479,66.9521,-0.5],[-173.3437,66.9542,4.2974],[-173.3396,66.9521,-0.5],[-173.3292,66.9521,4.3547],[-173.325,66.95,0.9061],[-173.3188,66.9521,5.45],[-173.3125,66.95,0.1273],[-173.3109,66.9505,-0.0898],[-173.3089,66.9557,0.0],[-173.3203,66.9609,4.1004],[-173.3193,66.9641,-0.2949],[-173.3208,66.9646,0.3133],[-173.3245,66.9641,-0.5],[-173.3292,66.9604,3.9016],[-173.3354,66.9604,-0.5],[-173.3396,66.9583,4.906],[-173.3625,66.9583,6.682],[-173.3667,66.9604,6.0155],[-173.3771,66.9604,18.7424],[-173.3922,66.9682,-0.5],[-173.4016,66.9693,0.2639],[-173.4005,66.9724,-0.5],[-173.4036,66.9745,5.0596],[-173.3958,66.975,-0.5],[-173.3917,66.9771,-0.5],[-173.3729,66.9771,-0.5],[-173.3682,66.9807,3.1627],[-173.3604,66.9833,-0.5],[-173.3479,66.9833,-0.5],[-173.3422,66.9807,7.4619],[-173.3432,66.9755,9.8949],[-173.3349,66.9714,1.6722],[-173.3292,66.9708,-0.5],[-173.3188,66.9667,-0.2133],[-173.3161,66.9703,0.0],[-173.3109,66.9714,0.0],[-173.3078,66.9766,6.2915],[-173.3005,66.9776,0.0],[-173.2974,66.9828,0.0],[-173.2922,66.9838,0.0],[-173.2891,66.9891,5.2789],[-173.2792,66.9896,0.0],[-173.275,66.9917,3.3951],[-173.2479,66.9938,1.5113],[-173.2437,66.9917,0.0],[-173.2354,66.9917,0.0],[-173.2083,67.0,-1.0],[-173.1958,67.0,2.4625],[-173.1943,66.9984,2.6749],[-173.1995,66.9974,-1.0],[-173.2016,66.9943,-0.5],[-173.1943,66.9912,0.7303],[-173.1932,66.988,0.0],[-173.1812,66.9875,10.2111],[-173.1771,66.9854,0.0],[-173.1604,66.9854,-0.3853],[-173.1557,66.9891,3.5745],[-173.1505,66.9901,1.9081],[-173.1484,66.9943,1.9281],[-173.1516,66.9964,14.3745],[-173.1505,67.0016,0.0],[-173.1578,67.0026,16.0632],[-173.1589,67.0057,0.0],[-173.1687,67.0104,1.4414],[-173.1792,67.0104,5.8616],[-173.1833,67.0125,0.0],[-173.2146,67.0125,4.5018],[-173.2188,67.0146,0.0],[-173.2292,67.0146,0.0],[-173.2333,67.0167,0.0],[-173.2563,67.0167,3.8897],[-173.2661,67.0193,0.3884],[-173.2708,67.0229,0.7614],[-173.2682,67.0286,1.4119],[-173.2568,67.0297,0.0],[-173.2599,67.0328,2.2751],[-173.2568,67.0391,0.0],[-173.2641,67.0443,5.2944],[-173.263,67.0474,0.0],[-173.2661,67.0484,3.4578],[-173.2672,67.0516,0.0],[-173.2729,67.0542,3.7491],[-173.2849,67.0537,4.3276],[-173.2818,67.0516,4.2418],[-173.2833,67.05,4.1396],[-173.2958,67.05,1.4353],[-173.3,67.0521,0.0],[-173.3078,67.0526,3.1641],[-173.3146,67.0563,0.0],[-173.3203,67.0568,-0.0745],[-173.3062,67.0625,-0.0331],[-173.2792,67.0625,0.5812],[-173.2708,67.0583,0.0],[-173.2646,67.0604,0.0],[-173.25,67.0563,0.0],[-173.2396,67.0563,0.4391],[-173.2312,67.0521,0.069],[-173.2146,67.0521,0.4459],[-173.213,67.0505,0.0],[-173.2208,67.0479,4.9256],[-173.2271,67.05,0.0],[-173.2375,67.05,3.5362],[-173.2432,67.0443,0.0],[-173.2339,67.0432,1.7249],[-173.2354,67.0396,0.2944],[-173.2333,67.0375,0.0],[-173.2271,67.0375,0.0],[-173.2208,67.0396,3.4331],[-173.2167,67.0375,0.0],[-173.2104,67.0375,0.0],[-173.2063,67.0396,7.584],[-173.2021,67.0375,0.0],[-173.1854,67.0375,0.0],[-173.1812,67.0354,0.0],[-173.175,67.0375,3.4244],[-173.1724,67.0339,0.0],[-173.1651,67.0328,-0.1853],[-173.1557,67.0276,0.0379],[-173.1438,67.0271,-0.4875],[-173.1354,67.0229,-0.0633],[-173.1318,67.0234,-0.6016],[-173.1307,67.0266,-0.4312],[-173.1234,67.0276,0.0],[-173.125,67.0292,0.1418],[-173.1328,67.0297,-0.3434],[-173.1307,67.0328,0.0],[-173.1229,67.0333,0.0078],[-173.1187,67.0313,-0.0641],[-173.1109,67.0339,-0.0644],[-173.1141,67.037,-0.2959],[-173.1062,67.0375,-0.115],[-173.0964,67.0328,-0.1394],[-173.1016,67.0307,-0.0927],[-173.1,67.0292,-0.5386],[-173.0937,67.0292,0.0114],[-173.0896,67.0271,-0.1064],[-173.0849,67.0307,0.1075],[-173.0771,67.0313,0.0],[-173.0714,67.0286,0.0],[-173.0714,67.0255,0.0],[-173.0745,67.0214,0.0],[-173.0672,67.0182,0.0],[-173.0646,67.0146,0.0],[-173.0484,67.0193,0.0],[-173.0484,67.0224,0.0],[-173.0516,67.0234,0.0],[-173.0505,67.0266,0.0],[-173.0536,67.0276,0.0],[-173.0547,67.0307,0.0],[-173.0604,67.0313,0.0],[-173.0661,67.0339,0.0],[-173.0609,67.0359,0.0],[-173.0641,67.0391,0.5062],[-173.0526,67.0432,0.0],[-173.0599,67.0443,0.8626],[-173.0667,67.0479,0.0],[-173.0937,67.0479,2.8033],[-173.0979,67.05,0.0],[-173.1083,67.05,2.5154],[-173.1125,67.0521,0.0],[-173.1187,67.05,6.611],[-173.1229,67.0521,0.0],[-173.1354,67.0521,1.122],[-173.1396,67.0542,0.0],[-173.1542,67.0542,0.9155],[-173.1583,67.0563,0.0],[-173.1812,67.0563,1.3104],[-173.1854,67.0583,0.0],[-173.2,67.0583,1.9385],[-173.2042,67.0604,0.0],[-173.2208,67.0604,2.0098],[-173.225,67.0625,0.0],[-173.2521,67.0625,1.9414],[-173.2563,67.0646,0.0],[-173.2667,67.0646,0.8939],[-173.2708,67.0667,0.0],[-173.3188,67.0687,1.6762],[-173.3229,67.0708,0.0],[-173.3375,67.0708,1.9903],[-173.3417,67.0729,0.0],[-173.3479,67.0708,1.6852],[-173.3521,67.0729,2.3589],[-173.3687,67.0729,1.7461],[-173.3833,67.0771,0.0],[-173.3938,67.0771,0.0],[-173.3979,67.0792,0.0],[-173.425,67.0792,0.818],[-173.4292,67.0813,0.0],[-173.45,67.0813,1.1775],[-173.4646,67.0854,0.6461],[-173.475,67.0854,1.9372],[-173.4792,67.0875,0.0],[-173.4937,67.0875,2.0541],[-173.4979,67.0896,0.0],[-173.5104,67.0896,1.6257],[-173.5146,67.0917,0.0],[-173.525,67.0917,0.0],[-173.5292,67.0938,0.0],[-173.55,67.0938,1.6509],[-173.5542,67.0958,0.0],[-173.5604,67.0958,1.6954],[-173.5646,67.0979,0.0],[-173.575,67.0979,2.8244],[-173.5792,67.1,0.0],[-173.5958,67.1,6.8136],[-173.6,67.0979,3.7627],[-173.6062,67.0979,4.0256],[-173.6078,67.0995,3.5734],[-173.6026,67.1016,5.751],[-173.6151,67.1078,20.0179],[-173.6271,67.1083,44.3362],[-173.6313,67.1104,38.4989],[-173.6438,67.1104,44.1062],[-173.6474,67.1078,43.6171],[-173.65,67.1021,0.0],[-173.6463,67.0984,24.0989],[-173.6516,67.0974,0.0],[-173.6484,67.0953,4.048],[-173.6505,67.0901,27.7031],[-173.6578,67.0891,0.0],[-173.6547,67.0859,55.7183],[-173.6625,67.0833,28.5956],[-173.675,67.0833,0.0],[-173.6854,67.0792,7.4563],[-173.6979,67.0792,0.0],[-173.7021,67.0771,3.8924],[-173.7104,67.0771,0.0],[-173.7146,67.075,9.358],[-173.7333,67.075,4.8836],[-173.7375,67.0729,5.3969],[-173.7417,67.075,1.7583],[-173.7479,67.075,0.0],[-173.7521,67.0729,12.3671],[-173.7854,67.0729,6.3303],[-173.7917,67.075,0.0],[-173.7958,67.0729,9.4555],[-173.8,67.075,0.0],[-173.8125,67.075,0.0],[-173.8167,67.0729,12.5656],[-173.8292,67.0729,18.5624],[-173.8333,67.075,1.7],[-173.8708,67.075,5.873],[-173.875,67.0771,0.0],[-173.9292,67.0771,13.3734],[-173.9333,67.0792,0.0],[-174.0229,67.0792,4.0595],[-174.0271,67.0813,0.0],[-174.0708,67.0813,0.0],[-174.0771,67.0792,7.2574],[-174.0813,67.0813,0.0],[-174.1458,67.0813,1.3242],[-174.15,67.0792,0.9388],[-174.1646,67.0792,0.0],[-174.1792,67.075,4.6001],[-174.2,67.0729,1.4113],[-174.2042,67.0708,2.38],[-174.2167,67.0708,0.0],[-174.2375,67.0646,2.841],[-174.2437,67.0667,0.0],[-174.2516,67.0661,0.5384],[-174.25,67.0646,1.5865],[-174.2443,67.0641,2.1729],[-174.2458,67.0625,0.0],[-174.2771,67.0667,0.0],[-174.2812,67.0646,3.3487],[-174.3417,67.0646,0.0],[-174.3458,67.0625,4.8908],[-174.3542,67.0625,0.0],[-174.3646,67.0583,6.9441],[-174.3708,67.0604,0.0],[-174.3813,67.0563,4.069],[-174.3896,67.0563,0.0],[-174.3922,67.0526,5.167],[-174.4036,67.0495,7.7231],[-174.3938,67.0458,7.0872],[-174.3859,67.0453,8.011],[-174.3938,67.0417,11.6965],[-174.4078,67.0443,7.0959],[-174.4068,67.0474,7.7858],[-174.4083,67.0479,8.4311],[-174.4146,67.0458,7.4228],[-174.4208,67.0458,7.402],[-174.425,67.0437,8.1265],[-174.4375,67.0437,3.3341],[-174.4479,67.0396,5.3875],[-174.4563,67.0396,0.0],[-174.4891,67.0286,5.5324],[-174.4911,67.0266,6.489],[-174.4896,67.025,5.2539],[-174.4563,67.025,0.0],[-174.4521,67.0271,8.8612],[-174.4438,67.0271,0.0],[-174.4396,67.0292,7.771],[-174.4,67.0313,0.0],[-174.3958,67.0333,0.8548],[-174.3875,67.0333,0.0],[-174.3833,67.0354,0.0],[-174.3708,67.0354,0.0],[-174.3604,67.0396,4.3902],[-174.3521,67.0396,0.0],[-174.3375,67.0437,0.0],[-174.3229,67.0437,0.0],[-174.3188,67.0458,0.0],[-174.3062,67.0458,0.0],[-174.3021,67.0479,0.0],[-174.2896,67.0479,0.0],[-174.2854,67.05,1.8862],[-174.2563,67.05,0.0],[-174.2521,67.0521,1.1784],[-174.2396,67.0521,0.0],[-174.2354,67.0542,1.8402],[-174.2229,67.0542,0.0],[-174.2167,67.0563,3.6452],[-174.1963,67.0495,3.7262],[-174.1974,67.0463,0.0],[-174.1943,67.0453,5.8681],[-174.1943,67.0422,5.0305],[-174.2016,67.0411,0.6527],[-174.2026,67.038,1.3897],[-174.2141,67.0339,0.7698],[-174.2083,67.0313,0.8411],[-174.2026,67.0307,0.0],[-174.2016,67.0276,0.0],[-174.1943,67.0245,5.4142],[-174.1932,67.0214,2.9368],[-174.1901,67.0193,9.4908],[-174.1958,67.0188,0.0],[-174.1974,67.0172,0.0],[-174.1922,67.0162,5.6454],[-174.1932,67.013,0.0],[-174.1896,67.0104,12.0792],[-174.1922,67.0047,11.3203],[-174.1963,67.0005,9.6883],[-174.2016,66.9995,0.0],[-174.1984,66.9964,10.5077],[-174.2078,66.9953,0.0],[-174.213,66.988,3.1503],[-174.2245,66.9849,1.3994],[-174.2255,66.9818,1.9149],[-174.2333,66.9792,2.2251],[-174.2432,66.9786,2.2335],[-174.2453,66.9755,2.1568],[-174.2411,66.9734,0.0],[-174.2359,66.9734,0.075],[-174.2328,66.9766,1.4576],[-174.2214,66.9797,-0.5],[-174.2203,66.9828,0.8144],[-174.2167,66.9833,1.3804],[-174.2109,66.9807,3.2756],[-174.2141,66.9714,2.4319],[-174.2083,66.9688,4.5972],[-174.1979,66.9688,2.058],[-174.1943,66.9714,0.0],[-174.1979,66.975,2.9643],[-174.1953,66.9807,2.7814],[-174.1854,66.9833,5.025],[-174.1729,66.9833,0.0],[-174.1687,66.9854,3.9417],[-174.1583,66.9854,2.0374],[-174.1521,66.9833,0.0],[-174.1479,66.9854,0.0],[-174.1313,66.9854,0.3648],[-174.1271,66.9833,0.0],[-174.1193,66.9828,0.0],[-174.1099,66.9776,1.3764],[-174.1,66.975,0.0],[-174.0938,66.9771,-1.0],[-174.0708,66.9771,0.5283],[-174.0667,66.975,0.0],[-174.0604,66.975,0.0],[-174.0562,66.9771,1.6147],[-174.0479,66.9771,2.6243],[-174.0437,66.9792,0.0],[-174.0312,66.9792,0.0],[-174.0271,66.9812,0.0],[-174.0026,66.9807,2.1228],[-174.0042,66.9792,0.0],[-174.0188,66.9792,0.0],[-174.0213,66.9755,2.1805],[-174.0292,66.9729,4.3269],[-174.0375,66.9729,4.2757],[-174.0396,66.9708,4.0395],[-174.0359,66.9682,2.9878],[-174.037,66.9651,0.0],[-174.0297,66.9599,4.2946],[-174.0307,66.9547,0.0],[-174.0234,66.9516,6.0265],[-174.0245,66.9484,0.0],[-174.0172,66.9432,10.1022],[-174.0188,66.9396,0.0],[-174.0151,66.9359,8.9811],[-174.0182,66.9297,4.4693],[-174.0109,66.9266,10.572],[-174.0104,66.925,12.1423],[-174.0125,66.9208,11.4679],[-174.0088,66.9172,15.8355],[-174.0161,66.9161,10.2962],[-174.0188,66.9104,0.0],[-174.0151,66.9068,10.3969],[-174.0203,66.9057,0.0],[-174.0224,66.9036,0.0],[-174.0224,66.9005,1.6373],[-174.0151,66.8974,12.4223],[-174.0161,66.8922,7.3013],[-174.0088,66.8891,2.9413],[-174.0099,66.8859,1.3745],[-173.9984,66.8807,30.3332],[-173.9974,66.8776,9.006],[-173.9943,66.8766,6.9237],[-173.9953,66.8734,0.0],[-173.9797,66.8662,9.4769],[-173.9787,66.863,0.0],[-173.9714,66.8599,10.9456],[-173.9724,66.8568,0.0],[-173.9651,66.8516,12.5798],[-173.9661,66.8484,0.0],[-173.963,66.8474,11.317],[-173.9641,66.8422,0.0],[-173.9604,66.8396,17.587],[-173.9625,66.8354,2.5571],[-173.9588,66.8328,6.6997],[-173.9599,66.8297,0.0],[-173.9568,66.8287,9.9751],[-173.9583,66.8229,13.8449],[-173.9547,66.8203,15.282],[-173.9557,66.8172,0.0],[-173.9484,66.8141,9.2562],[-173.9495,66.8089,0.0],[-173.9422,66.8037,17.305],[-173.9495,66.7901,4.0692],[-173.9463,66.7891,0.7965],[-173.9453,66.7859,2.4095],[-173.937,66.7818,7.4994],[-173.9297,66.7807,7.0],[-173.9297,66.7776,7.4503],[-173.9349,66.7766,15.9556],[-173.9396,66.7688,3.0216],[-173.9359,66.7662,4.6132],[-173.937,66.7609,0.0],[-173.9297,66.7578,11.2618],[-173.9349,66.7495,0.0],[-173.9318,66.7464,4.9306],[-173.937,66.7453,0.0],[-173.937,66.7422,0.0],[-173.9339,66.7401,0.0],[-173.9391,66.7297,5.9913],[-173.9359,66.7286,3.1573],[-173.9349,66.7255,0.0],[-173.9276,66.7224,23.3209],[-173.9349,66.7089,0.0],[-173.9255,66.7078,53.4659],[-173.9276,66.7047,51.5135],[-173.9328,66.7037,0.0],[-173.9297,66.7016,27.1067],[-173.9286,66.6984,20.6268],[-173.9255,66.6974,29.1737],[-173.9266,66.6922,7.8561],[-173.9193,66.6891,4.5221],[-173.9203,66.6839,0.2918],[-173.9162,66.6818,1.0909],[-173.8984,66.6807,0.0],[-173.8995,66.6755,0.0],[-173.8979,66.675,0.0],[-173.8813,66.675,-0.2396],[-173.8771,66.6771,0.1199],[-173.8734,66.6766,-0.0997],[-173.8693,66.6734,-1.0],[-173.8833,66.6729,0.024],[-173.887,66.6693,0.0],[-173.8797,66.6661,0.6144],[-173.8807,66.663,0.3848],[-173.8792,66.6625,0.0],[-173.8625,66.6625,0.0],[-173.8609,66.6609,0.7059],[-173.8854,66.6604,0.4798],[-173.8911,66.663,0.3698],[-173.8901,66.6661,0.9184],[-173.8917,66.6667,-0.5],[-173.9042,66.6667,0.7762],[-173.9146,66.6625,0.0],[-173.9375,66.6625,0.9054],[-173.9401,66.6589,0.8398],[-173.9542,66.6542,5.3272],[-173.9625,66.6542,0.0],[-173.9672,66.6505,2.7271],[-173.975,66.65,0.0],[-173.9812,66.6458,5.0905],[-173.9875,66.6458,0.0],[-173.9953,66.6432,0.0],[-173.9984,66.6401,3.5701],[-174.0286,66.6307,1.9539],[-174.0333,66.6271,0.4358],[-174.0474,66.6266,0.0],[-174.0484,66.6234,-0.0481],[-174.0521,66.6208,0.2244],[-174.0708,66.6188,1.4012],[-174.0786,66.6162,0.1207],[-174.0771,66.6146,-0.5],[-174.0667,66.6146,-0.5],[-174.0542,66.6188,0.2504],[-174.0521,66.6167,0.8282],[-174.0526,66.6151,3.9155],[-174.0599,66.6141,-0.5],[-174.062,66.6088,-0.5],[-174.0583,66.6062,-0.5],[-174.0609,66.6005,13.0063],[-174.063,66.5984,20.4679],[-174.0682,66.5974,-0.5],[-174.0651,66.5943,26.6358],[-174.0703,66.5932,13.3545],[-174.0713,66.5901,31.4431],[-174.0792,66.5875,20.8809],[-174.0875,66.5875,3.8544],[-174.0953,66.5849,0.5066],[-174.0984,66.5818,7.4049],[-174.1078,66.5807,-0.5],[-174.1047,66.5787,7.5063],[-174.1062,66.5771,8.0418],[-174.1125,66.5792,1.3775],[-174.1167,66.5771,5.647],[-174.1354,66.5771,1.7748],[-174.1396,66.5729,6.5443],[-174.1521,66.5729,0.5],[-174.1583,66.5708,6.5137],[-174.1682,66.5734,0.5],[-174.163,66.5766,0.5],[-174.1724,66.5776,3.1818],[-174.1849,66.5839,1.8058],[-174.1839,66.587,-0.5],[-174.1932,66.588,9.3788],[-174.188,66.5901,-0.5],[-174.1859,66.5932,12.293],[-174.1938,66.5958,0.0],[-174.1953,66.5953,0.0],[-174.2005,66.5839,21.4362],[-174.212,66.5807,0.0],[-174.2172,66.5755,11.2919],[-174.225,66.575,3.3223],[-174.2266,66.5734,0.0],[-174.2208,66.5729,0.0],[-174.2151,66.5703,4.3893],[-174.2141,66.5672,0.0],[-174.2099,66.5651,0.0],[-174.2026,66.5641,15.5794],[-174.2078,66.562,1.6619],[-174.2083,66.5604,2.4732],[-174.2078,66.5589,0.0],[-174.2021,66.5563,10.3847],[-174.1958,66.5563,13.3495],[-174.1917,66.5583,11.1237],[-174.1854,66.5583,0.0],[-174.1792,66.5604,2.5708],[-174.175,66.5583,0.0],[-174.1646,66.5583,3.4803],[-174.1589,66.5557,7.6954],[-174.1609,66.5505,16.6555],[-174.1662,66.5495,10.7832],[-174.1682,66.5474,12.3303],[-174.1724,66.5391,18.5074],[-174.1667,66.5333,5.7765],[-174.1589,66.5359,0.0],[-174.1536,66.5453,0.0],[-174.1422,66.5484,0.0],[-174.1391,66.5516,0.6416],[-174.1338,66.5526,-0.5],[-174.1307,66.5578,-0.5],[-174.1062,66.5583,1.5143],[-174.1047,66.5568,-0.5],[-174.1078,66.5526,-0.5],[-174.1047,66.5516,2.3599],[-174.1057,66.5463,0.0],[-174.0984,66.5411,15.0502],[-174.0995,66.538,0.0],[-174.0813,66.5375,2.3894],[-174.0713,66.5349,0.1471],[-174.0688,66.5313,1.1985],[-173.9958,66.5313,1.5119],[-173.9833,66.5271,0.0],[-173.9714,66.5266,6.8973],[-173.9703,66.5234,0.0],[-173.9604,66.5188,3.4852],[-173.9187,66.5188,0.0],[-173.9146,66.5208,4.5357],[-173.9021,66.5208,9.7492],[-173.8792,66.5146,0.0],[-173.8729,66.5146,0.0],[-173.8687,66.5167,20.4371],[-173.8542,66.5125,0.0],[-173.8333,66.5125,3.8358],[-173.8318,66.5109,8.8853],[-173.837,66.5089,0.0],[-173.8313,66.5083,0.0],[-173.8255,66.5057,29.0042],[-173.8245,66.5026,23.6139],[-173.8213,66.5016,22.8409],[-173.8224,66.4964,1.9058],[-173.812,66.4901,6.9894],[-173.7833,66.4896,6.6878],[-173.7776,66.487,0.0],[-173.7812,66.4833,0.115],[-173.8016,66.4807,0.5053],[-173.8042,66.475,1.3817],[-173.8016,66.4693,0.0],[-173.7896,66.4708,2.4895],[-173.7854,66.4688,0.0],[-173.7688,66.4688,0.5522],[-173.7563,66.4646,0.0],[-173.7458,66.4646,18.2817],[-173.7417,66.4604,0.0],[-173.7172,66.4557,5.5589],[-173.7088,66.4516,3.9163],[-173.7088,66.4484,4.1935],[-173.712,66.4443,0.0],[-173.7042,66.4437,6.2127],[-173.6974,66.4401,0.0],[-173.6901,66.4391,9.2282],[-173.6911,66.4318,0.0],[-173.6859,66.4287,14.8738],[-173.6911,66.4266,0.0],[-173.6963,66.4172,13.8802],[-173.7016,66.4161,4.261],[-173.7109,66.4005,2.1695],[-173.7161,66.3995,0.7883],[-173.7125,66.3958,1.3226],[-173.7141,66.3922,1.4052],[-173.7109,66.3912,1.1867],[-173.712,66.3859,1.1593],[-173.7047,66.3828,1.4536],[-173.7068,66.3797,1.1279],[-173.712,66.3776,0.0],[-173.7047,66.3745,0.9183],[-173.7042,66.3729,0.617],[-173.7088,66.3651,2.0804],[-173.7109,66.363,1.5604],[-173.7161,66.362,0.0],[-173.7172,66.3588,1.7785],[-173.7391,66.3557,0.119],[-173.7375,66.3542,0.0],[-173.7318,66.3536,0.8606],[-173.7276,66.3505,0.8171],[-173.7458,66.3521,0.2925],[-173.7474,66.3505,0.0],[-173.7443,66.3484,1.1621],[-173.7521,66.3458,0.995],[-173.7557,66.3464,0.6291],[-173.7547,66.3495,0.0],[-173.7583,66.35,0.0],[-173.7854,66.3417,1.4453],[-173.7979,66.3417,0.0],[-173.8021,66.3396,0.9789],[-173.8104,66.3396,0.0],[-173.8208,66.3354,0.6184],[-173.8271,66.3375,0.0],[-173.8313,66.3354,2.1835],[-173.8542,66.3417,0.0],[-173.8604,66.3396,26.4621],[-173.8646,66.3417,27.1796],[-173.8708,66.3417,19.469],[-173.8745,66.3391,26.547],[-173.8755,66.3359,32.7629],[-173.8854,66.3354,12.9636],[-173.8932,66.3328,9.4983],[-173.8932,66.3297,2.8431],[-173.8807,66.3234,0.3296],[-173.8734,66.3224,1.46],[-173.8745,66.3193,0.0576],[-173.8687,66.3167,0.2197],[-173.8625,66.3187,0.3982],[-173.8354,66.3187,0.339],[-173.8271,66.3146,0.5897],[-173.8167,66.3146,1.3938],[-173.8068,66.312,0.9561],[-173.8026,66.3099,0.9343],[-173.8036,66.3068,-0.0728],[-173.7958,66.3063,1.4272],[-173.7943,66.3047,11.0411],[-173.8021,66.3021,4.5817],[-173.812,66.3016,-0.346],[-173.813,66.2984,4.172],[-173.8245,66.2953,3.0906],[-173.8276,66.2922,0.8625],[-173.8354,66.2896,0.7967],[-173.8479,66.2896,0.6871],[-173.8521,66.2875,0.6794],[-173.8646,66.2875,0.1763],[-173.8792,66.2833,0.4603],[-173.8875,66.2833,0.3625],[-173.9047,66.2755,0.2463],[-173.9141,66.2745,0.3788],[-173.9193,66.2672,-0.2018],[-173.9245,66.2662,-0.2224],[-173.9214,66.263,1.0147],[-173.9266,66.262,1.3103],[-173.9276,66.2589,3.308],[-173.9349,66.2578,3.6181],[-173.938,66.2505,3.0956],[-173.9432,66.2495,0.5144],[-173.9453,66.2474,0.0953],[-173.9422,66.2443,2.9583],[-173.9687,66.2354,3.5515],[-173.9766,66.2349,-0.7658],[-173.9787,66.2318,-0.3707],[-173.9755,66.2307,-0.1352],[-173.9766,66.2276,-0.3129],[-173.9734,66.2255,-0.0161],[-173.9849,66.2224,0.3419],[-173.987,66.2151,-0.3463],[-173.9812,66.2125,-0.6826],[-173.9729,66.2125,-0.0137],[-173.9687,66.2104,-0.4272],[-173.9526,66.2078,-0.626],[-173.9578,66.2057,-0.6938],[-173.9583,66.2042,0.3208],[-173.9505,66.1984,-0.6665],[-173.9583,66.1979,0.1756],[-173.9641,66.2005,0.2715],[-173.9651,66.2037,1.449],[-173.9682,66.2047,1.4357],[-173.9672,66.2078,-0.2872],[-173.9687,66.2083,-0.7284],[-173.9995,66.213,1.1398],[-174.0036,66.2151,3.8149],[-174.0026,66.2182,-0.5873],[-174.0042,66.2188,0.1588],[-174.0266,66.2193,1.4348],[-174.0213,66.2214,1.0685],[-174.0203,66.2245,-0.4252],[-174.0167,66.225,1.0185],[-174.0125,66.2229,0.9774],[-174.0078,66.2266,0.2522],[-174.0026,66.2276,0.2213],[-173.9995,66.2307,0.1366],[-173.9917,66.2312,-0.2804],[-173.9839,66.2338,0.1482],[-173.987,66.2359,0.0127],[-173.9859,66.2391,-0.0233],[-173.9937,66.2396,1.0929],[-173.9979,66.2375,0.7022],[-174.0104,66.2375,0.7186],[-174.0146,66.2396,1.0846],[-174.0208,66.2396,0.3531],[-174.0224,66.2391,0.4411],[-174.0224,66.2359,-0.219],[-174.0151,66.2318,1.1228],[-174.0188,66.2292,-0.6953],[-174.025,66.2292,0.0765],[-174.0307,66.2318,0.9361],[-174.0276,66.2391,0.2541],[-174.0349,66.2422,1.0715],[-174.038,66.2495,0.9675],[-174.0604,66.25,0.0116],[-174.0667,66.2458,1.5453],[-174.0724,66.2484,1.2281],[-174.0729,66.25,1.1027],[-174.0708,66.2521,0.4211],[-174.0583,66.2521,0.4752],[-174.0542,66.2542,5.8444],[-174.0458,66.2542,0.9858],[-174.0432,66.2578,1.1841],[-174.0297,66.263,-0.1508],[-174.0234,66.2745,0.6335],[-174.0307,66.2797,10.4824],[-174.0292,66.2833,0.3484],[-174.0328,66.287,7.6062],[-174.0276,66.288,-0.0133],[-174.0286,66.2932,4.8036],[-174.0193,66.3109,7.6425],[-174.0224,66.3141,12.5897],[-174.0203,66.3161,11.5813],[-174.0151,66.3172,0.1595],[-174.0141,66.3203,0.2225],[-174.0063,66.3229,1.2793],[-173.9979,66.3229,-0.0301],[-173.9714,66.3318,0.0],[-173.9703,66.3349,0.0],[-173.9651,66.3359,0.0],[-173.9583,66.3417,5.8772],[-173.9521,66.3396,0.0],[-173.9479,66.3417,3.276],[-173.9339,66.3422,2.0309],[-173.9339,66.3453,2.4876],[-173.937,66.3474,5.9762],[-173.9339,66.3536,6.9135],[-173.937,66.3557,10.7468],[-173.9318,66.3568,0.0],[-173.9354,66.3604,14.558],[-173.9318,66.3651,19.6319],[-173.9318,66.3682,2.5823],[-173.9417,66.3729,4.1823],[-173.9474,66.3734,16.1848],[-173.9484,66.3766,6.8489],[-173.9557,66.3797,4.179],[-173.9547,66.3828,0.0],[-173.9787,66.3922,19.8693],[-173.9755,66.4016,0.0],[-173.9828,66.4047,8.7244],[-173.9812,66.4083,0.0],[-173.9849,66.4109,18.8164],[-173.9833,66.4146,12.4507],[-173.987,66.4182,16.0739],[-173.9849,66.4203,9.1103],[-173.9672,66.4255,1.1593],[-173.9672,66.4287,0.0],[-173.9745,66.4297,4.8841],[-173.9734,66.4328,0.0],[-173.9766,66.4349,0.0],[-173.9714,66.4359,0.0],[-173.9693,66.4401,0.0],[-173.9724,66.4432,0.7354],[-173.9609,66.4474,1.0918],[-173.9641,66.4484,1.6676],[-173.9651,66.4516,0.0],[-173.9797,66.4599,11.0146],[-173.9958,66.4625,18.7148],[-174.0042,66.4667,2.257],[-174.0104,66.4667,6.5622],[-174.0146,66.4688,0.0],[-174.0208,66.4667,16.1628],[-174.0224,66.4672,11.9257],[-174.0213,66.4703,0.0],[-174.025,66.4708,1.0514],[-174.0292,66.4688,9.3916],[-174.0521,66.4688,0.0],[-174.0562,66.4667,6.2019],[-174.0688,66.4667,2.1975],[-174.0729,66.4646,3.4968],[-174.0854,66.4646,2.1836],[-174.0896,66.4625,6.339],[-174.0958,66.4625,7.1904],[-174.1,66.4646,0.0],[-174.1104,66.4604,12.7319],[-174.1167,66.4625,0.0],[-174.1292,66.4583,6.9634],[-174.1583,66.4563,2.1479],[-174.1625,66.4542,3.429],[-174.1667,66.4563,0.0],[-174.1771,66.4563,0.0],[-174.1812,66.4583,7.9362],[-174.1958,66.4604,25.2885],[-174.2005,66.4661,2.654],[-174.2057,66.4661,17.7631],[-174.2078,66.463,0.0],[-174.2005,66.4578,19.4302],[-174.2016,66.4547,0.0],[-174.1974,66.4526,0.0],[-174.1792,66.4521,5.8708],[-174.1729,66.4542,2.6868],[-174.163,66.4516,1.6601],[-174.1641,66.4443,10.967],[-174.1484,66.437,9.2952],[-174.1495,66.4339,0.0],[-174.1463,66.4328,6.0776],[-174.1474,66.4297,0.0],[-174.1443,66.4287,4.1723],[-174.1443,66.4255,0.0],[-174.1484,66.4172,8.0198],[-174.1521,66.4146,5.6172],[-174.1583,66.4146,1.7272],[-174.1662,66.412,0.0],[-174.163,66.4089,5.6335],[-174.1651,66.4047,5.3414],[-174.1687,66.4021,5.5185],[-174.1875,66.4,0.0],[-174.1938,66.3958,3.2513],[-174.2063,66.3958,4.7409],[-174.2208,66.3917,4.3155],[-174.2271,66.3938,0.0],[-174.2312,66.3917,4.4187],[-174.2396,66.3917,4.0605],[-174.2474,66.3891,8.2716],[-174.2505,66.3839,13.362],[-174.2557,66.3828,0.0],[-174.2588,66.3776,4.8266],[-174.2641,66.3766,6.0552],[-174.2604,66.3729,8.1038],[-174.263,66.3693,7.5541],[-174.2708,66.3667,6.8554],[-174.2807,66.3662,0.0],[-174.2833,66.3625,2.7903],[-174.2932,66.362,0.0],[-174.2901,66.3588,1.3869],[-174.3016,66.3557,0.0],[-174.3047,66.3505,1.5228],[-174.3099,66.3484,0.0],[-174.3026,66.3432,8.5404],[-174.3042,66.3396,3.517],[-174.3005,66.3359,0.0],[-174.3036,66.3318,0.0],[-174.3,66.3292,7.648],[-174.3016,66.3234,0.0],[-174.2901,66.3193,20.1498],[-174.2953,66.3182,9.7197],[-174.2922,66.3151,20.9567],[-174.2974,66.3141,16.9651],[-174.3005,66.3068,0.0],[-174.3057,66.3057,0.0],[-174.313,66.2963,0.8959],[-174.3208,66.2958,0.8316],[-174.325,66.2979,0.0],[-174.3391,66.2932,1.0303],[-174.3349,66.2901,0.7792],[-174.3276,66.2891,1.2401],[-174.3234,66.2859,0.6002],[-174.35,66.2875,0.6249],[-174.3542,66.2896,0.0],[-174.3604,66.2896,0.0],[-174.3667,66.2875,0.0],[-174.3766,66.2901,0.0],[-174.3714,66.2932,0.0],[-174.3786,66.2943,0.0],[-174.3854,66.2979,0.0],[-174.3917,66.2979,0.0],[-174.3932,66.2963,0.0],[-174.3875,66.2937,0.0],[-174.3818,66.2932,0.0],[-174.3828,66.2901,0.0],[-174.3797,66.288,0.0],[-174.3938,66.2833,0.7679],[-174.4104,66.2854,0.0],[-174.4146,66.2833,0.7732],[-174.4167,66.2854,0.7984],[-174.413,66.2911,0.0],[-174.4214,66.2953,0.0],[-174.4333,66.2958,0.0],[-174.4479,66.3,1.107],[-174.4521,66.2979,0.9571],[-174.4557,66.2984,0.0],[-174.4484,66.3141,0.7236],[-174.4516,66.3151,0.8652],[-174.4505,66.3182,0.0],[-174.462,66.3234,2.8859],[-174.4568,66.3266,0.0],[-174.4625,66.3292,9.8451],[-174.4703,66.3297,6.7167],[-174.462,66.3349,3.0316],[-174.4542,66.3375,0.0],[-174.4375,66.3375,0.57],[-174.4333,66.3396,0.7015],[-174.425,66.3396,0.7003],[-174.4208,66.3417,0.5087],[-174.4083,66.3417,0.6806],[-174.4057,66.3453,0.046],[-174.3958,66.3458,0.5689],[-174.3938,66.3479,0.0],[-174.3943,66.3495,0.0],[-174.4016,66.3505,0.7978],[-174.4026,66.3536,1.326],[-174.4083,66.3562,1.7801],[-174.4266,66.3547,2.3255],[-174.4339,66.3599,0.0],[-174.4432,66.3609,2.5159],[-174.4422,66.3641,0.0],[-174.4516,66.3651,3.5669],[-174.4505,66.3682,0.0],[-174.4547,66.3703,1.0366],[-174.4667,66.3708,1.0585],[-174.4724,66.3734,0.8377],[-174.4729,66.375,0.8364],[-174.4724,66.3766,1.0317],[-174.4672,66.3776,1.9123],[-174.4703,66.3807,4.5266],[-174.4651,66.3828,0.0],[-174.4724,66.3859,4.581],[-174.4714,66.3891,0.0],[-174.4745,66.3901,0.0],[-174.4766,66.3943,9.2374],[-174.4714,66.3964,0.0],[-174.4745,66.3995,0.0],[-174.4693,66.4005,0.0],[-174.4687,66.4021,0.0],[-174.4724,66.4047,0.0],[-174.4708,66.4083,0.0],[-174.4745,66.4109,0.0],[-174.4729,66.4146,0.0],[-174.4766,66.4182,0.8258],[-174.4651,66.4193,0.0],[-174.4651,66.4224,0.415],[-174.4682,66.4234,0.2892],[-174.4672,66.4287,0.0],[-174.4703,66.4307,2.7163],[-174.4651,66.4318,0.0],[-174.463,66.4349,0.0],[-174.4661,66.437,1.3668],[-174.4641,66.4391,0.0],[-174.4588,66.4401,0.0],[-174.462,66.4422,0.0],[-174.463,66.4453,0.7498],[-174.4661,66.4464,2.827],[-174.463,66.4537,0.0],[-174.4708,66.4542,5.4564],[-174.4724,66.4557,5.5586],[-174.4672,66.4568,2.409],[-174.462,66.4641,3.7564],[-174.4542,66.4667,9.4146],[-174.4464,66.4672,7.9467],[-174.4479,66.4688,3.3445],[-174.4536,66.4693,10.3946],[-174.4521,66.4708,0.179],[-174.4458,66.4708,0.062],[-174.4417,66.4729,0.6726],[-174.4229,66.4729,0.0],[-174.4187,66.475,0.3481],[-174.4125,66.475,0.9976],[-174.4083,66.4729,0.0],[-174.4047,66.4755,1.7311],[-174.4062,66.4771,1.2294],[-174.4125,66.4771,1.3608],[-174.4182,66.4797,0.9453],[-174.4172,66.4828,0.0],[-174.4203,66.4838,0.0],[-174.4193,66.487,0.0],[-174.4266,66.4922,0.0],[-174.4255,66.4953,0.0],[-174.4312,66.4979,0.0],[-174.4391,66.4984,5.5289],[-174.438,66.5036,0.6762],[-174.4453,66.5068,1.3877],[-174.4422,66.5141,0.5183],[-174.4453,66.5162,0.4055],[-174.4401,66.5172,1.6837],[-174.438,66.5214,0.0],[-174.4417,66.525,7.0401],[-174.4401,66.5286,10.2613],[-174.4583,66.5375,0.0],[-174.4687,66.5375,9.0491],[-174.4729,66.5396,8.1525],[-174.4833,66.5396,11.4507],[-174.4875,66.5417,6.911],[-174.5125,66.5437,17.7341],[-174.5271,66.5479,7.9184],[-174.5375,66.5479,39.8801],[-174.5484,66.5537,15.1312],[-174.5557,66.5547,19.9243],[-174.5651,66.5599,0.0],[-174.5745,66.5609,27.5899],[-174.5922,66.5703,13.2208],[-174.5995,66.5714,26.4187],[-174.6062,66.575,0.0],[-174.6167,66.575,24.8283],[-174.6313,66.5792,4.2352],[-174.6562,66.5813,20.9411],[-174.6672,66.587,0.0],[-174.6745,66.588,5.3096],[-174.6734,66.5932,0.0],[-174.6812,66.5938,8.0307],[-174.6854,66.5958,7.2923],[-174.6958,66.5958,15.8354],[-174.7,66.5979,10.0006],[-174.7208,66.5979,7.5544],[-174.7271,66.6,2.8282],[-174.7297,66.5964,1.8889],[-174.7349,66.5953,0.0],[-174.7396,66.5917,2.7627],[-174.7563,66.5917,0.0],[-174.7667,66.5875,0.0],[-174.7729,66.5896,0.0],[-174.7771,66.5875,0.0],[-174.7896,66.5875,0.3178],[-174.7937,66.5896,0.1829],[-174.8083,66.5896,0.0],[-174.8125,66.5917,0.0],[-174.8188,66.5896,0.0568],[-174.8354,66.5917,-0.092],[-174.8396,66.5896,-0.1955],[-174.8792,66.5896,0.4656],[-174.8833,66.5875,0.5842],[-174.8875,66.5896,-0.1185],[-174.8938,66.5896,0.0658],[-174.9016,66.587,0.1235],[-174.9047,66.5839,0.3682],[-174.9125,66.5813,-0.2126],[-174.9187,66.5813,0.2669],[-174.9245,66.5849,-0.2588],[-174.9208,66.5875,0.2571],[-174.9146,66.5854,0.2274],[-174.9068,66.588,0.0596],[-174.9057,66.5911,2.4626],[-174.8943,66.5922,-0.0939],[-174.8911,66.5995,0.1902],[-174.8797,66.6026,-0.0678],[-174.875,66.6062,0.4003],[-174.8651,66.6068,0.7875],[-174.8625,66.6125,0.1775],[-174.8661,66.6162,1.6379],[-174.8609,66.6182,0.0],[-174.8641,66.6193,6.1229],[-174.8651,66.6224,0.0],[-174.8708,66.6229,14.0472],[-174.8807,66.6276,2.5999],[-174.8818,66.6307,0.0],[-174.8849,66.6318,7.1354],[-174.8838,66.6349,0.0],[-174.8958,66.6354,15.8106],[-174.9068,66.6412,0.0],[-174.9146,66.6417,2.0992],[-174.9229,66.6458,0.0],[-174.9349,66.6443,2.9354],[-174.9339,66.6495,0.2022],[-174.937,66.6505,0.1699],[-174.938,66.6536,0.7883],[-174.9479,66.6583,0.0],[-174.9599,66.6589,0.805],[-174.9607,66.6614,0.6919],[-174.9645,66.6607,0.6836],[-174.9656,66.6327,2.2401],[-174.9505,66.5363,6.0785],[-174.9684,66.4909,65.6102],[-175.0329,66.4399,105.4573],[-175.058,66.4027,40.9561],[-175.0302,66.3263,114.6618],[-175.0121,66.2159,118.7436],[-175.0352,66.1747,157.3421],[-175.1734,66.1407,159.4587],[-175.3342,66.0927,167.1308],[-175.3699,66.0109,107.9585],[-175.4357,65.9651,335.2887],[-175.3485,65.9791,160.74],[-175.2865,65.9721,161.2013],[-175.2704,65.9413,251.6898],[-175.2126,65.9225,294.0688],[-175.1538,65.9091,197.6538],[-175.1719,65.8333,155.9374],[-175.2629,65.7765,212.658],[-175.2288,65.7359,190.9419],[-175.1245,65.7055,335.3062],[-175.099,65.6737,252.8707],[-175.0483,65.6727,250.8229],[-174.9469,65.6775,290.9686],[-174.923,65.6455,339.8817],[-174.9452,65.5989,289.3162],[-174.869,65.5729,203.8654],[-174.8927,65.5331,162.124],[-174.7843,65.5241,253.5197],[-174.7486,65.4873,418.2458],[-174.6852,65.4873,245.2698],[-174.6039,65.5307,308.4065],[-174.5726,65.5729,189.0327],[-174.4995,65.6113,135.0048],[-174.3672,65.6251,158.8541],[-174.2553,65.6529,265.5397],[-174.2057,65.6983,335.5664],[-174.2914,65.6969,697.778],[-174.3541,65.7059,226.3952],[-174.3895,65.7491,244.3483],[-174.3195,65.7807,241.2615],[-174.2235,65.8429,106.3453],[-174.2173,65.9057,67.1644],[-174.2304,65.9809,206.5015],[-174.1767,66.0049,141.1499],[-174.0421,66.0305,38.3142],[-173.9862,66.0683,3.6646],[-173.9423,66.0793,11.4739],[-173.9028,66.0135,7.9807],[-173.9377,65.9265,85.5794],[-173.9604,65.8555,21.2957],[-173.9253,65.8367,28.5891],[-173.8196,65.8233,24.5105],[-173.7652,65.7759,45.6433],[-173.8011,65.7217,33.7292],[-173.7213,65.6737,138.748],[-173.5939,65.7093,186.8467],[-173.5238,65.6899,115.6844],[-173.5044,65.6347,137.9516],[-173.5308,65.5669,147.1635],[-173.5507,65.4999,199.9042],[-173.5862,65.4451,138.4994],[-173.5695,65.4175,215.4513],[-173.5333,65.4223,433.8303],[-173.5095,65.4497,353.095],[-173.4715,65.4651,390.2885],[-173.4488,65.4325,264.6608],[-173.5187,65.3639,272.6904],[-173.4819,65.3009,129.8433],[-173.5663,65.2441,311.1319],[-173.5402,65.1999,322.755],[-173.5417,65.1529,227.4086],[-173.4675,65.1213,209.5358],[-173.4215,65.1313,281.4967],[-173.3746,65.1791,308.6271],[-173.3644,65.2143,398.2763],[-173.3108,65.2325,499.9261],[-173.2304,65.2429,376.9701],[-173.1523,65.2567,262.5868],[-173.0064,65.3093,251.1445],[-172.9248,65.3769,149.9598],[-172.877,65.4331,115.3011],[-172.6339,65.4899,72.2107],[-172.5022,65.5346,78.3272]]],
[[[-172.211,66.9667,0.0],[-172.2146,66.9667,0.0],[-172.2161,66.9651,0.0],[-172.2068,66.9651,1.1429],[-172.211,66.9667,0.0]]],
[[[-170.2026,66.1787,4.2126],[-170.2063,66.1792,4.6191],[-170.2078,66.1776,5.5541],[-170.2042,66.1771,4.6412],[-170.2026,66.1787,4.2126]]],
[[[-170.3526,66.3047,0.8571],[-170.3526,66.3057,0.0],[-170.3557,66.3057,16.4862],[-170.3557,66.3047,16.5553],[-170.3526,66.3047,0.8571]]],
[[[-170.3625,66.3104,9.0256],[-170.3661,66.3068,0.0],[-170.3568,66.3068,15.4032],[-170.3589,66.3099,1.2309],[-170.3625,66.3104,9.0256]]],
[[[-172.0255,66.9484,0.0],[-172.0255,66.9495,1.7924],[-172.0286,66.9495,2.0082],[-172.0286,66.9484,0.0],[-172.0255,66.9484,0.0]]],
[[[-173.9901,66.2234,0.2321],[-173.9901,66.2245,0.4029],[-173.9932,66.2245,0.1266],[-173.9932,66.2234,0.3857],[-173.9901,66.2234,0.2321]]],
[[[-173.9693,66.2422,0.5497],[-173.9693,66.2432,0.0532],[-173.9724,66.2432,0.1423],[-173.9724,66.2422,0.3921],[-173.9693,66.2422,0.5497]]],
[[[-173.9568,66.2453,0.0809],[-173.9604,66.2458,-0.0173],[-173.962,66.2443,0.1853],[-173.9583,66.2438,-0.1203],[-173.9568,66.2453,0.0809]]],
[[[-173.9625,66.2667,0.4284],[-173.9729,66.2667,0.5376],[-173.9792,66.2688,0.4451],[-173.9833,66.2667,0.655],[-173.9896,66.2667,0.4705],[-173.9943,66.263,0.1726],[-173.9995,66.262,0.5628],[-174.0026,66.2568,1.162],[-174.012,66.2578,0.4505],[-174.013,66.2547,1.2711],[-174.0182,66.2536,0.3662],[-174.0203,66.2505,0.2559],[-174.013,66.2474,1.311],[-174.0141,66.2422,1.3541],[-174.0099,66.2401,0.6726],[-173.9979,66.2396,0.8306],[-173.9943,66.2422,1.3285],[-173.9974,66.2443,0.8511],[-173.9974,66.2474,1.0674],[-173.9833,66.2458,0.3138],[-173.9797,66.2505,1.2556],[-173.9828,66.2536,0.6306],[-173.9625,66.2542,-0.3454],[-173.9547,66.2568,-0.2064],[-173.9516,66.262,0.5531],[-173.9463,66.263,0.3534],[-173.9479,66.2646,0.4535],[-173.9625,66.2667,0.4284]]],
[[[-173.9443,66.2682,0.2998],[-173.9479,66.2688,0.4453],[-173.9495,66.2672,0.4267],[-173.9458,66.2667,-0.0301],[-173.9443,66.2682,0.2998]]],
[[[-173.9588,66.2703,0.1056],[-173.9625,66.2708,0.6156],[-173.9641,66.2693,0.0507],[-173.9604,66.2688,0.0551],[-173.9588,66.2703,0.1056]]],
[[[-173.938,66.2703,0.0131],[-173.9417,66.2708,-0.2011],[-173.9432,66.2693,0.3469],[-173.9396,66.2688,0.0235],[-173.938,66.2703,0.0131]]],
[[[-173.9672,66.2734,0.2875],[-173.9672,66.2745,0.1397],[-173.9703,66.2745,-0.0569],[-173.9703,66.2734,0.0933],[-173.9672,66.2734,0.2875]]],
[[[-174.4005,66.288,0.0],[-174.4005,66.2891,0.0],[-174.4036,66.2891,0.0],[-174.4036,66.288,0.0],[-174.4005,66.288,0.0]]],
[[[-174.3734,66.2974,0.0],[-174.3771,66.2979,0.0],[-174.3786,66.2963,0.0],[-174.375,66.2958,0.0],[-174.3734,66.2974,0.0]]],
[[[-174.338,66.2984,0.0],[-174.338,66.2995,0.0],[-174.3411,66.2995,0.0],[-174.3411,66.2984,0.0],[-174.338,66.2984,0.0]]],
[[[-174.3943,66.337,0.5031],[-174.3979,66.3375,1.2872],[-174.3995,66.3359,0.815],[-174.3958,66.3354,0.4017],[-174.3943,66.337,0.5031]]],
[[[-174.35,66.3354,0.6477],[-174.3437,66.3354,0.0],[-174.3359,66.338,0.8749],[-174.3338,66.3432,1.2834],[-174.3479,66.3417,0.8524],[-174.3521,66.3396,0.8635],[-174.3661,66.3391,1.8763],[-174.3562,66.3354,0.0],[-174.35,66.3354,0.6477]]],
[[[-174.3932,66.4682,0.5785],[-174.3891,66.4651,0.0325],[-174.3838,66.4651,1.1567],[-174.388,66.4682,1.927],[-174.3932,66.4682,0.5785]]],
[[[-174.2563,66.5062,1.7955],[-174.2599,66.5026,2.3129],[-174.2505,66.5026,1.5516],[-174.2505,66.5036,2.4809],[-174.2563,66.5062,1.7955]]],
[[[-174.1568,66.5787,1.267],[-174.1604,66.5792,-0.5],[-174.162,66.5776,1.278],[-174.1583,66.5771,1.5865],[-174.1568,66.5787,1.267]]],
[[[-173.9214,66.6661,0.4999],[-173.925,66.6667,0.7977],[-173.9266,66.6651,0.1668],[-173.9229,66.6646,0.8876],[-173.9214,66.6661,0.4999]]],
[[[-173.9146,66.6771,0.6306],[-173.9162,66.6766,0.4417],[-173.9162,66.6734,0.5345],[-173.9068,66.6734,-0.2161],[-173.9109,66.6766,0.4554],[-173.9146,66.6771,0.6306]]],
[[[-173.2734,66.8193,-0.2115],[-173.2734,66.8203,0.1909],[-173.2766,66.8203,-1.0],[-173.2766,66.8193,-1.0],[-173.2734,66.8193,-0.2115]]],
[[[-173.0875,66.8562,0.1519],[-173.0917,66.8562,0.3926],[-173.0932,66.8547,0.3112],[-173.0838,66.8547,-0.2264],[-173.0875,66.8562,0.1519]]],
[[[-174.1318,66.6047,1.5317],[-174.137,66.6026,0.2939],[-174.1292,66.6021,-0.5],[-174.1214,66.6057,0.9632],[-174.1292,66.6062,1.6675],[-174.1318,66.6047,1.5317]]],
[[[-174.1151,66.6078,0.4456],[-174.1187,66.6083,1.6049],[-174.1203,66.6068,0.9883],[-174.1167,66.6062,0.3763],[-174.1151,66.6078,0.4456]]],
[[[-174.6,67.0417,1.9974],[-174.6042,67.0417,2.3218],[-174.6057,67.0401,1.9204],[-174.5922,67.0401,1.5207],[-174.5937,67.0417,-0.0698],[-174.6,67.0417,1.9974]]],
[[[-174.5255,67.0422,0.0],[-174.5167,67.0458,1.1321],[-174.5088,67.0463,0.4418],[-174.5047,67.0537,1.0582],[-174.5188,67.0542,1.2489],[-174.5229,67.0521,2.2633],[-174.5417,67.0521,2.5796],[-174.5437,67.05,2.8474],[-174.5401,67.0474,0.2822],[-174.5417,67.0458,0.7336],[-174.5688,67.0458,2.3007],[-174.5729,67.0479,2.4387],[-174.5813,67.0479,1.6391],[-174.5828,67.0463,1.2157],[-174.5797,67.0443,1.0635],[-174.5849,67.0432,1.4357],[-174.5859,67.0401,0.8503],[-174.5911,67.038,0.8055],[-174.5792,67.0375,1.3758],[-174.575,67.0354,0.0],[-174.5688,67.0354,0.0],[-174.5625,67.0375,0.0],[-174.5583,67.0354,0.0],[-174.5542,67.0375,0.0],[-174.5458,67.0375,0.0],[-174.5417,67.0396,1.3935],[-174.5333,67.0396,0.0],[-174.5255,67.0422,0.0]]],
[[[-173.0984,66.8568,0.4595],[-173.0984,66.8578,-0.496],[-173.1016,66.8578,0.396],[-173.1016,66.8568,0.0],[-173.0984,66.8568,0.4595]]],
[[[-173.088,67.0172,0.0],[-173.088,67.0182,0.0],[-173.0911,67.0182,0.0],[-173.0911,67.0172,0.0],[-173.088,67.0172,0.0]]],
[[[-173.0995,67.0245,0.0],[-173.1016,67.0203,0.0],[-173.1,67.0188,0.0],[-173.0922,67.0193,0.0],[-173.0896,67.0229,0.0],[-173.0917,67.025,0.0],[-173.0995,67.0245,0.0]]],
[[[-173.113,67.0286,0.0],[-173.1167,67.0292,-0.0079],[-173.1182,67.0276,0.0],[-173.1146,67.0271,0.0],[-173.113,67.0286,0.0]]],
[[[-174.3708,67.0708,0.0],[-174.3672,67.0724,0.0],[-174.3703,67.0734,1.1829],[-174.3729,67.0771,1.7409],[-174.3792,67.0771,1.1528],[-174.3833,67.075,2.6098],[-174.3875,67.0771,1.1055],[-174.4479,67.0771,0.0],[-174.4542,67.075,4.3556],[-174.4583,67.0771,0.0],[-174.4625,67.075,4.8681],[-174.5021,67.075,0.0],[-174.5063,67.0729,4.3623],[-174.525,67.0729,3.7399],[-174.5292,67.0708,4.1556],[-174.5354,67.0729,0.0],[-174.5521,67.0729,0.0],[-174.5562,67.0708,1.9863],[-174.5688,67.0708,1.0856],[-174.575,67.0687,2.3252],[-174.5792,67.0708,0.0],[-174.5896,67.0667,2.5068],[-174.6057,67.0661,0.0],[-174.6089,67.0609,2.2307],[-174.6141,67.0599,1.8609],[-174.6151,67.0568,1.4337],[-174.6203,67.0557,0.0],[-174.6234,67.0505,0.0],[-174.6286,67.0484,0.0],[-174.6255,67.0474,0.0],[-174.6266,67.0443,0.0],[-174.6208,67.0417,0.0],[-174.6125,67.0417,0.2095],[-174.6083,67.0437,-1.2928],[-174.5958,67.0437,0.8554],[-174.588,67.0463,2.311],[-174.5896,67.0479,1.9504],[-174.5974,67.0484,2.5567],[-174.5953,67.0516,2.4864],[-174.5813,67.0563,2.6619],[-174.5688,67.0563,0.8771],[-174.5646,67.0542,2.724],[-174.5604,67.0563,3.062],[-174.5521,67.0563,1.1117],[-174.5479,67.0583,2.2238],[-174.5297,67.0589,2.7276],[-174.5354,67.0625,3.0548],[-174.5516,67.063,1.7685],[-174.5516,67.0661,3.5456],[-174.55,67.0667,3.6196],[-174.5208,67.0646,2.2462],[-174.5167,67.0687,2.3538],[-174.5042,67.0687,0.8693],[-174.5,67.0667,2.9598],[-174.4953,67.0703,3.2428],[-174.4875,67.0708,2.622],[-174.4833,67.0729,4.2637],[-174.4646,67.0729,1.7849],[-174.4563,67.0687,1.0511],[-174.4505,67.0682,2.0594],[-174.4521,67.0667,1.948],[-174.4583,67.0667,1.4918],[-174.4625,67.0687,2.9669],[-174.4745,67.0682,3.7583],[-174.4729,67.0667,0.788],[-174.4672,67.0661,1.6944],[-174.4724,67.0641,2.7857],[-174.4708,67.0625,1.4051],[-174.4542,67.0625,0.0],[-174.4438,67.0667,1.1785],[-174.4276,67.0672,0.4295],[-174.4292,67.0687,1.0254],[-174.437,67.0693,1.6804],[-174.4354,67.0708,0.7717],[-174.4229,67.0708,1.521],[-174.4214,67.0703,1.3083],[-174.4224,67.0672,0.3087],[-174.4146,67.0667,0.2134],[-174.4104,67.0687,0.2049],[-174.3813,67.0687,0.2247],[-174.3771,67.0708,0.6076],[-174.3708,67.0708,0.0]]],
[[[-174.4797,67.0609,2.2262],[-174.4776,67.0641,1.6855],[-174.4854,67.0667,3.3346],[-174.4917,67.0667,3.1117],[-174.4984,67.0568,2.2686],[-174.5036,67.0547,1.5898],[-174.4958,67.0521,1.0308],[-174.4932,67.0557,1.3048],[-174.4797,67.0609,2.2262]]],
[[[-174.5047,67.0651,0.7908],[-174.5047,67.0661,2.6307],[-174.5078,67.0661,3.2181],[-174.5078,67.0651,1.7323],[-174.5047,67.0651,0.7908]]],
[[[-174.3583,67.0771,2.4642],[-174.3625,67.0771,2.1685],[-174.3641,67.0755,2.3282],[-174.3338,67.0755,1.0112],[-174.3354,67.0771,2.8395],[-174.3583,67.0771,2.4642]]],
[[[-171.8526,66.9526,4.7119],[-171.8526,66.9537,0.0],[-171.8557,66.9537,4.7884],[-171.8557,66.9526,5.8838],[-171.8526,66.9526,4.7119]]],
[[[-172.1562,66.9604,1.8053],[-172.1604,66.9604,0.6599],[-172.162,66.9589,0.0],[-172.1505,66.9589,1.2352],[-172.1521,66.9604,1.7222],[-172.1562,66.9604,1.8053]]],
[[[-172.1854,66.9625,0.8768],[-172.1896,66.9625,0.4516],[-172.1911,66.9609,0.0],[-172.1776,66.9609,0.0],[-172.1792,66.9625,0.9132],[-172.1854,66.9625,0.8768]]],
[[[-172.1958,66.9646,0.0],[-172.2,66.9646,0.0],[-172.2016,66.963,0.0],[-172.1922,66.963,1.0411],[-172.1958,66.9646,0.0]]],
[[[-172.225,66.9688,0.0],[-172.2333,66.9688,0.0],[-172.2375,66.9708,0.0],[-172.2516,66.9703,1.4287],[-172.25,66.9688,0.0],[-172.2396,66.9688,2.1037],[-172.2354,66.9667,0.0],[-172.2214,66.9672,0.0],[-172.225,66.9688,0.0]]],
[[[-172.2713,66.9724,1.4886],[-172.275,66.9729,0.8996],[-172.2766,66.9714,0.0],[-172.2729,66.9708,0.0],[-172.2713,66.9724,1.4886]]],
[[[-172.2625,66.9729,0.0],[-172.2661,66.9724,1.6344],[-172.2661,66.9714,1.2334],[-172.2609,66.9714,1.6723],[-172.2625,66.9729,0.0]]],
[[[-172.3227,66.9792,0.8682],[-172.3266,66.9776,0.0],[-172.3151,66.9776,0.4742],[-172.3167,66.9792,0.0],[-172.3227,66.9792,0.8682]]],
[[[-172.3318,66.9807,0.0],[-172.3348,66.9808,0.0],[-172.3349,66.9797,1.0739],[-172.3318,66.9797,1.1385],[-172.3318,66.9807,0.0]]],
[[[-172.3667,66.9854,0.0],[-172.3849,66.987,0.0],[-172.3792,66.9833,0.0],[-172.3714,66.9828,0.2148],[-172.3724,66.9797,0.0],[-172.3646,66.9792,0.0],[-172.3604,66.9771,0.0],[-172.3526,66.9776,0.0],[-172.3516,66.9807,0.0],[-172.3464,66.9818,0.7953],[-172.3479,66.9833,0.0],[-172.3625,66.9833,1.1026],[-172.3667,66.9854,0.0]]],
[[[-172.5646,67.0062,0.5969],[-172.5729,67.0062,0.551],[-172.5771,67.0104,0.0],[-172.6057,67.0099,0.0],[-172.6042,67.0083,0.0],[-172.5964,67.0078,-0.1191],[-172.5932,67.0026,-0.1734],[-172.5833,66.9979,0.0953],[-172.5667,66.9979,-0.0728],[-172.5625,66.9958,-0.0507],[-172.5562,66.9979,0.0049],[-172.5521,66.9958,-0.1231],[-172.5417,66.9958,0.0571],[-172.5354,67.0,-0.0721],[-172.5255,67.0005,0.2193],[-172.5313,67.0042,0.0],[-172.5542,67.0042,0.4689],[-172.5583,67.0062,1.3035],[-172.5646,67.0062,0.5969]]],
[[[-173.0167,67.0021,0.0],[-173.0088,67.0047,0.0],[-173.0088,67.0078,0.0],[-173.012,67.0089,0.0],[-173.0109,67.012,0.0],[-173.0146,67.0125,0.0],[-173.0188,67.0104,0.0],[-173.0354,67.0104,0.0],[-173.0391,67.0078,0.0],[-173.0375,67.0062,0.0],[-173.0297,67.0057,0.0],[-173.0307,67.0026,0.0],[-173.0292,67.0021,0.0],[-173.0167,67.0021,0.0]]],
[[[-172.7292,67.025,1.1434],[-172.7396,67.025,0.7157],[-172.7437,67.0271,0.0],[-172.7557,67.0266,0.0188],[-172.7542,67.025,0.0],[-172.7484,67.0245,0.0],[-172.7458,67.0208,0.0],[-172.7354,67.0208,0.0],[-172.7292,67.0229,0.0],[-172.7146,67.0188,0.0217],[-172.7042,67.0188,-0.2104],[-172.6974,67.0151,-0.348],[-172.6875,67.0125,0.0],[-172.6708,67.0125,0.0],[-172.6646,67.0146,0.0],[-172.6562,67.0104,0.0],[-172.65,67.0125,0.0],[-172.6417,67.0083,0.0],[-172.6214,67.0109,0.0],[-172.6229,67.0125,0.0],[-172.6333,67.0125,0.0],[-172.6375,67.0146,0.9561],[-172.6542,67.0146,0.5219],[-172.6583,67.0167,0.8782],[-172.6687,67.0167,-0.3478],[-172.6729,67.0188,0.7365],[-172.6833,67.0188,1.0104],[-172.6875,67.0208,1.3006],[-172.7125,67.0229,0.6669],[-172.7167,67.025,0.0],[-172.7229,67.0229,0.1718],[-172.7292,67.025,1.1434]]],
[[[-172.7609,67.0286,0.5508],[-172.7646,67.0292,0.878],[-172.7661,67.0276,0.1017],[-172.7625,67.0271,0.1321],[-172.7609,67.0286,0.5508]]],
[[[-172.8464,67.0297,0.6868],[-172.8464,67.0307,2.7481],[-172.8495,67.0307,2.9802],[-172.8495,67.0297,0.7071],[-172.8464,67.0297,0.6868]]],
[[[-172.7713,67.0297,0.6438],[-172.7713,67.0307,1.4468],[-172.7745,67.0307,1.3683],[-172.7745,67.0297,0.4797],[-172.7713,67.0297,0.6438]]]]}}