{"type":"Feature","properties":{"GID_3":"RUS.2.19.1_1","GID_0":"RUS","country":"Russia","GID_1":"RUS.2_1","province":"Altay","NL_NAME_1":"Алтайскийкрай","GID_2":"RUS.2.19_1","county":"Kosikhinskiyrayon","NL_NAME_2":"Косикинскийрайон","city":"NA","VARNAME_3":"NA","NL_NAME_3":"NA","TYPE_3":"NA","ENGTYPE_3":"NA","CC_3":"NA","HASC_3":"NA","name":"N_A.city"},
"geometry":{"type": "MultiPolygon","coordinates": [[[[85.0263,53.2004,297.1131],[85.0382,53.2307,295.2641],[85.0427,53.2722,295.08],[85.0625,53.2989,265.986],[85.1054,53.3306,245.8211],[85.1355,53.355,238.0706],[85.1441,53.3904,230.7638],[85.1078,53.4273,268.9678],[85.0492,53.4399,284.2079],[84.9133,53.4801,285.0083],[84.8772,53.4873,263.2478],[84.8443,53.5108,278.3751],[84.8507,53.5635,269.9755],[84.8404,53.5733,259.0883],[84.800299999999993,53.5744,229.7084],[84.7399,53.5542,270.9122],[84.5585,53.5071,258.1506],[84.4978,53.5081,208.945],[84.4005,53.5132,240.6152],[84.4188,53.4953,220.0082],[84.4137,53.4528,218.2304],[84.3734,53.423,202.9786],[84.3407,53.3589,170.0537],[84.3035,53.31,207.1842],[84.2783,53.2553,220.1655],[84.2517,53.1809,214.7518],[84.2464,53.1317,219.0462],[84.2649,53.086,224.1626],[84.5314,53.1467,266.3826],[84.5889,53.1444,253.2272],[84.6417,53.1462,293.2595],[84.694,53.133,276.8957],[84.7583,53.1214,306.0484],[84.8215,53.1244,303.1775],[84.8802,53.1473,270.8044],[84.9206,53.1686,324.7851],[84.9697,53.1798,322.9866],[85.0263,53.2004,297.1131]]]]}}