{"type":"Feature","properties":{"featurecla":"Lake","scalerank":3,"name":"Lake Khanka","name_abb":"L. Khanka","name_alt":"Xingkai Hu,  Ozero Khanka","note":null,"delta":null,"dam_name":null,"year":-99,"admin":"admin-0 more","min_zoom":3.0,"min_label":4.0},
"geometry":{"type": "Polygon","coordinates": [[[132.82048336114809,45.148211776891856,68.0],[132.79870041574031,45.189717118817413,68.0],[132.78103856811242,45.20796769469959,68.0],[132.75425143254347,45.23210555312437,68.0],[132.72216574268612,45.250356129006548,68.0],[132.57204003784892,45.307757133797224,68.0],[132.5093404787699,45.315116236975513,68.0],[132.42014814824898,45.337193546510377,68.0],[132.19584268337468,45.333955541111948,70.3015],[132.15109933605066,45.324830253170859,70.5667],[132.10900526587085,45.308934590305739,75.4245],[132.03070440805379,45.26477997123601,68.0],[132.0139256528073,45.251827949642205,68.0],[131.99273143565381,45.230928096615855,68.0],[131.98301741945846,45.211500064225163,100.8081],[132.00009053883213,45.20296350453836,68.0],[132.00156235946775,45.171760907062378,68.0],[132.00332854423056,45.161752526739917,68.0],[132.00892146264607,45.152627238798829,68.0],[132.01539747344293,45.147034320383341,121.4664],[132.02275657662125,45.142030130222082,68.0],[132.03070440805379,45.134376662916679,68.0],[132.04130151663054,45.112888081636044,106.8697],[132.03011567979956,45.10170224480504,69.0128],[132.01245383217162,45.090516407974064,68.0],[132.00332854423056,45.069322190820571,68.0],[132.01245383217162,45.045478696522906,68.0],[132.03453114170651,45.03576468032756,68.0],[132.06161264140263,45.03164358254773,70.9131],[132.08604486395456,45.024578843496556,70.4752],[132.11430382015919,44.991315697130688,68.0],[132.11459818428631,44.949221626950845,71.4547],[132.10929962999796,44.905655736135373,72.0341],[132.12019110270182,44.867682763735388,68.0],[132.10400107570956,44.859734932302814,68.0],[132.03747478297782,44.8167577697416,102.4832],[132.03924096774062,44.795857916715249,68.7525],[132.04424515790186,44.7758411560703,91.0857],[132.06543937505535,44.729920352237741,68.0],[132.10753344523516,44.693713564600557,68.0],[132.23204947101186,44.663688423633118,69.8782],[132.28444628564131,44.634252010919965,68.0],[132.22498473196072,44.643671662988169,68.0],[132.21644817227389,44.638078744572681,69.6078],[132.2185087211638,44.629247820758735,69.7915],[132.22410163957932,44.625126722978877,69.3647],[132.23175510688475,44.622183081707561,69.6956],[132.23999730244441,44.617178891546331,69.413],[132.24735640562272,44.6095254242409,69.1185],[132.24735640562272,44.606581782969585,68.0],[132.24470712847852,44.602755049316869,68.0],[132.24352967197,44.593335397248666,68.0],[132.24088039482581,44.592157940740123,69.034],[132.23528747641029,44.59039175597735,70.0357],[132.23234383513898,44.585093201688977,70.1562],[132.23617056879169,44.573318636603716,70.3583],[132.24264657958861,44.567136989933942,70.029],[132.26001406308939,44.560660979137054,70.2653],[132.28238573675139,44.548297685797507,69.8321],[132.32065307327849,44.542410403254877,68.0],[132.35362185551725,44.527986561025443,69.8506],[132.37069497489085,44.532107658805273,68.0],[132.38541318124749,44.542410403254877,68.0],[132.39424410506143,44.552418783577366,68.0],[132.40160320823969,44.566253897552542,68.0],[132.41043413205364,44.591569212485865,70.3372],[132.41838196348618,44.603932505825412,68.0],[132.42986216444433,44.610702880749443,68.0],[132.47578296827686,44.620416896944761,68.2788],[132.49138426701484,44.62630417948742,70.7108],[132.60442009183345,44.683410820150954,68.0],[132.6312072274024,44.710492319847077,68.0],[132.64092124359775,44.751703297645491,68.0],[132.63856633058072,44.762300406222238,68.0],[132.62914667851248,44.7852608081385,68.0],[132.62708612962257,44.795563552588106,68.0],[132.6294410426396,44.806455025291996,68.0],[132.63856633058072,44.8270605141912,68.0],[132.64092124359775,44.836774530386549,68.0],[132.64857471090318,44.854730742141584,68.0],[132.66741401503958,44.8697433126253,68.0],[132.70921372109228,44.895058627558626,69.7282],[132.74247686745815,44.924495040271779,70.1104],[132.81901154051241,45.024578843496556,68.5448],[132.83814520877598,45.066967277803514,68.0],[132.83608465988607,45.1075895273477,68.0],[132.82048336114809,45.148211776891856,68.0]]]}}