{"type":"Feature","properties":{"ISO3166-1-Alpha-3":"RUS","country":"Russia","fill":"#F0F","id":"2611","name":"Primor'ye"},
"geometry":{"type": "MultiPolygon","coordinates": [[[[132.44899,42.8454,0.0],[132.45362,42.86091,46.8],[132.44728,42.87678,0.0],[132.43922,42.89204,0.0],[132.4275,42.8959,87.2084],[132.41847,42.87987,52.7753],[132.41326,42.86445,0.0],[132.40463,42.85912,0.6383],[132.39967,42.85212,94.8208],[132.40008,42.8417,85.435],[132.40154,42.83198,22.7852],[132.40642,42.82876,0.0],[132.41749,42.83002,0.0],[132.42986,42.82648,0.0],[132.43946,42.81753,0.0],[132.44728,42.80732,51.1745],[132.45338,42.80097,0.0],[132.45826,42.79829,30.5737],[132.46713,42.79682,16.7742],[132.4756,42.80024,0.0],[132.47771,42.8039,0.9522],[132.46746,42.81094,0.0],[132.44988,42.82811,0.0],[132.44899,42.8454,0.0]]],
[[[131.87574,43.05101,135.4576],[131.85499,43.06135,0.0],[131.82651,43.06517,20.2982],[131.85939,43.04462,0.0],[131.85939,43.03726,0.0],[131.8401,43.04169,61.2566],[131.81967,43.04926,0.0],[131.79884,43.05264,29.9758],[131.77752,43.04462,0.0],[131.78386,43.04011,0.0],[131.78736,43.03437,0.0],[131.79119,43.0174,30.1532],[131.78435,43.0174,29.3868],[131.77345,43.02119,0.0],[131.76938,43.01537,0.0],[131.77459,43.00532,0.0],[131.79119,42.99628,0.0],[131.75701,42.99006,13.512],[131.79054,42.97455,0.0],[131.83725,42.96113,65.1266],[131.88331,42.96076,0.0],[131.91505,42.98428,69.5367],[131.92091,42.99628,24.8391],[131.924,43.00585,30.1591],[131.92254,43.00894,0.0],[131.9201,43.01952,0.0],[131.92091,43.02416,0.0],[131.89226,43.03583,10.4859],[131.87574,43.05101,135.4576]]],
[[[138.35572,48.43182,1305.5433],[138.34466,48.43467,1051.9144],[138.32358,48.44397,1124.3113],[138.31428,48.445,1084.4042],[138.30559,48.44459,1160.3557],[138.24741,48.42921,1333.4626],[138.24028,48.42438,1147.1521],[138.2348,48.41875,1141.4324],[138.23097,48.41289,1174.967],[138.22426,48.40681,1098.3474],[138.21516,48.40108,1212.3975],[138.18757,48.38852,1253.5817],[138.18064,48.38402,1258.824],[138.17899,48.37917,1430.2534],[138.18023,48.37457,1458.4722],[138.18643,48.36041,1163.6044],[138.19242,48.35157,1201.2598],[138.19149,48.34506,1154.4067],[138.18581,48.33689,1142.478],[138.16514,48.32294,989.2876],[138.14529,48.31579,858.106],[138.07853,48.29969,1183.4854],[138.04235,48.29431,1224.6694],[138.01383,48.29881,1120.3584],[138.00256,48.29907,1112.2135],[137.99492,48.29705,919.947],[137.94882,48.27142,1039.9956],[137.94386,48.26767,1180.6577],[137.94066,48.26274,1131.7196],[137.9358,48.25158,1135.6082],[137.9329,48.24656,1222.8293],[137.92061,48.23768,1428.6235],[137.88557,48.22067,1675.1273],[137.8433,48.2091,1488.4696],[137.83172,48.20871,1547.0525],[137.79906,48.21623,1353.5273],[137.78563,48.2168,1070.4609],[137.76919,48.21592,904.6524],[137.72496,48.20812,910.096],[137.71545,48.20949,1092.4932],[137.69747,48.22471,1360.3824],[137.67979,48.22956,1209.8633],[137.62781,48.22465,1068.0776],[137.57871,48.22845,1286.8855],[137.5598,48.22424,1200.5105],[137.54833,48.21804,1055.0687],[137.51215,48.20357,1170.4658],[137.50223,48.20186,1075.0035],[137.4489,48.20158,1339.0039],[137.43588,48.19871,1078.7629],[137.42761,48.1936,892.7378],[137.41965,48.18303,890.4183],[137.41469,48.17871,803.067],[137.40167,48.1706,875.7794],[137.37459,48.15737,1345.8904],[137.36539,48.15153,1404.615],[137.35888,48.14528,1357.8479],[137.34441,48.12202,1419.9791],[137.31868,48.09727,1206.7639],[137.31547,48.09029,1040.8354],[137.31465,48.08422,986.3297],[137.31733,48.07412,856.816],[137.31775,48.0689,886.7994],[137.31888,48.06373,1045.707],[137.32044,48.05888,981.7655],[137.32292,48.05433,971.715],[137.32674,48.05014,950.8801],[137.37252,48.03335,1046.0481],[137.39165,48.02368,897.0552],[137.40188,48.01624,939.1787],[137.4088,48.00797,1203.3136],[137.41066,48.00407,1127.2902],[137.41159,48.00136,1013.6008],[137.41211,47.99986,1004.835],[137.41211,47.98808,963.6047],[137.41345,47.9826,970.8583],[137.41686,47.97795,831.8958],[137.42275,47.97506,938.7436],[137.42937,47.97335,834.6887],[137.47877,47.97134,1080.1426],[137.48704,47.97025,1029.7389],[137.49996,47.96707,982.9722],[137.51153,47.96245,980.7603],[137.53665,47.94963,1100.3303],[137.55908,47.93542,1106.6619],[137.56755,47.92757,918.7192],[137.57251,47.92385,922.995],[137.5784,47.92043,936.6078],[137.58543,47.91739,1006.3102],[137.59659,47.91041,959.7737],[137.60124,47.90498,955.4449],[137.60517,47.89827,1074.8982],[137.60765,47.8863,1128.73],[137.60652,47.87878,1212.4459],[137.603,47.87263,1206.1915],[137.59804,47.86876,1072.0729],[137.59236,47.86561,991.4387],[137.57923,47.86137,935.5736],[137.56383,47.86031,935.9937],[137.54667,47.86147,950.1879],[137.53872,47.86116,903.1538],[137.51743,47.85705,869.9607],[137.51112,47.85481,976.6165],[137.50533,47.8516,1026.9952],[137.50037,47.84742,987.3541],[137.49231,47.83687,874.5504],[137.48756,47.83248,963.4532],[137.48208,47.82917,880.7621],[137.47567,47.82654,997.5439],[137.46875,47.82525,918.5782],[137.46048,47.82246,976.2746],[137.45169,47.81843,950.0679],[137.44053,47.8084,1060.6458],[137.43629,47.80127,983.929],[137.43412,47.79414,1089.9766],[137.43629,47.78843,1021.354],[137.44032,47.78204,1024.9446],[137.44684,47.77848,1164.783],[137.45459,47.77693,933.7434],[137.54357,47.77522,987.4877],[137.55908,47.77636,1066.9716],[137.60052,47.78422,900.2615],[137.60652,47.78354,858.9979],[137.60962,47.78241,848.8542],[137.61613,47.77652,827.8273],[137.62729,47.76977,752.7034],[137.66687,47.75218,881.6506],[137.68269,47.7421,839.6016],[137.6892,47.739,729.4282],[137.69716,47.73667,925.9474],[137.71318,47.73368,845.8558],[137.71948,47.73145,846.9969],[137.73405,47.72071,807.078],[137.78687,47.69652,1100.2094],[137.79317,47.69621,1084.453],[137.79875,47.69838,982.6809],[137.80929,47.705329999999996,829.5175],[137.81508,47.70717,790.672],[137.82097,47.70688,851.8074],[137.84505,47.70195,851.867],[137.8526,47.70158,834.4882],[137.85818,47.70329,719.0224],[137.86335,47.70593,731.5104],[137.88381,47.72081,962.472],[137.88991,47.72334,1025.7031],[137.89642,47.72435,968.3818],[137.90366,47.72334,1054.0481],[137.91099,47.72112,1096.7627],[137.94634,47.71404,1029.6548],[137.9543,47.71127,918.7564],[137.96112,47.70768,830.2658],[137.99326,47.67983,859.8781],[137.99802,47.67714,832.1479],[138.00225,47.67575,810.4332],[138.00918,47.67451,785.9758],[138.01683,47.67407,760.6908],[138.04525,47.67735,831.3569],[138.05021,47.6759,847.986],[138.05093,47.67234,848.7465],[138.04835,47.66833,863.9208],[137.98386,47.6151,771.0067],[137.9791,47.61007,887.7466],[137.97507,47.6049,905.9535],[137.97228,47.59766,794.9602],[137.97363,47.59252,868.1411],[137.97662,47.58816,920.774],[137.98158,47.58552,929.4872],[137.98665,47.5848,933.8348],[137.99244,47.58552,851.5897],[138.00701,47.58911,849.5065],[138.01404,47.58924,821.1807],[138.03946,47.58573,900.9811],[138.04711,47.58614,879.2847],[138.05362,47.58725,855.6204],[138.05982,47.5865,857.2281],[138.06644,47.58278,953.2455],[138.07346,47.57712,829.4211],[138.08246,47.56733,971.9583],[138.0837,47.55891,847.9153],[138.08411,47.53849,1109.0254],[138.08928,47.52878,862.4666],[138.08907,47.52126,1004.502],[138.0868,47.51661,1186.9089],[138.08132,47.51343,1349.6515],[138.06179,47.50723,1107.8586],[138.05641,47.50459,1087.9221],[138.04959,47.5001,798.6362],[138.04928,47.50005,798.6362],[138.03977,47.49359,860.9971],[138.02995,47.4855,1252.0868],[138.02117,47.47597,1307.0669],[138.00577,47.45457,894.2278],[138.00174,47.4509,826.1721],[137.99853,47.44909,845.3967],[137.99357,47.44801,861.2794],[137.98727,47.44915,907.5918],[137.9822,47.45194,1007.7017],[137.97724,47.45555,1306.6165],[137.97166,47.45824,1322.939],[137.96525,47.45904,1510.0732],[137.95957,47.45695,1312.2489],[137.94944,47.44904,1510.6255],[137.94376,47.44542,1421.9956],[137.93735,47.44289,1289.2086],[137.92412,47.43902,1164.4126],[137.91843,47.43592,1339.8779],[137.91358,47.43165,1544.5325],[137.90944,47.42672,1526.181],[137.90583,47.42119,1367.9626],[137.89828,47.40455,1164.0569],[137.89435,47.39974,1044.7402],[137.8897,47.39538,1109.3748],[137.86924,47.38005,1184.9796],[137.86335,47.37716,1110.3464],[137.85694,47.37494,1046.6707],[137.85012,47.37339,1065.9532],[137.83761,47.36869,1030.3999],[137.82221,47.35716,1264.7046],[137.81612,47.35427,1267.9829],[137.8095,47.35251,1307.0411],[137.78036,47.34863,1196.0985],[137.77415,47.34631,1096.9836],[137.76868,47.34274,1042.2119],[137.75472,47.32926,914.1104],[137.74987,47.32698,996.7762],[137.74449,47.32874,1032.8914],[137.74087,47.33577,1045.5835],[137.73767,47.34073,1072.5045],[137.7325,47.34336,1096.8079],[137.7263,47.3429,994.6683],[137.7201,47.34104,848.9262],[137.67266,47.31877,804.9338],[137.65995,47.31411,902.2843],[137.64589,47.3107,1068.626],[137.60962,47.30543,1528.6331],[137.60311,47.30342,1280.1248],[137.59773,47.30032,1190.8474],[137.59411,47.2951,1125.9603],[137.58895,47.28337,1233.6199],[137.58554,47.27779,1044.0349],[137.56786,47.25784,1225.4906],[137.55784,47.24993,1195.7015],[137.53489,47.23805,1259.5216],[137.49293,47.22745,1190.6283],[137.48632,47.22332,1313.563],[137.47805,47.21665,1310.627],[137.47319,47.21056,1259.127],[137.46668,47.20363,1277.8368],[137.45975,47.20032,1136.5542],[137.45242,47.19836,1104.1906],[137.38141,47.19402,1174.8418],[137.37004,47.19578,1151.1825],[137.36198,47.19867,940.9547],[137.34989,47.20528,1049.7375],[137.32819,47.21386,1133.5791],[137.32292,47.21743,1100.3691],[137.31899,47.22161,1089.9844],[137.31589,47.22601,1119.7842],[137.31382,47.23076,1185.7175],[137.31258,47.23583,1222.0632],[137.30917,47.24117,1143.134],[137.3039,47.24652,1024.8729],[137.29046,47.25241,982.7587],[137.28405,47.25737,984.4586],[137.27971,47.26239,990.8905],[137.27692,47.26823,986.6938],[137.27258,47.27407,989.0734],[137.26225,47.28115,1033.7469],[137.25491,47.28171,1045.502],[137.24881,47.27934,1005.3927],[137.21874,47.25469,995.3769],[137.21222,47.25107,1009.6506],[137.20344,47.24849,943.0599],[137.19589,47.24916,1093.6639],[137.19052,47.252,1036.9818],[137.1868,47.25593,1124.2117],[137.18401,47.26047,1196.7418],[137.17905,47.26507,1168.9688],[137.17254,47.26947,1284.5781],[137.13946,47.2797,1363.7529],[137.1252,47.28704,1284.4127],[137.11404,47.29127,1285.5394],[137.09368,47.2966,1131.5531],[137.07611,47.29673,1256.6323],[137.06546,47.29487,1418.5435],[137.05895,47.29099,1556.1407],[137.05409,47.28662,1544.9128],[137.01265,47.23614,1341.2725],[137.00945,47.2303,1427.9968],[137.00666,47.2242,1455.8975],[136.99797,47.19278,1191.2014],[136.99549,47.18756,1155.2144],[136.99084,47.18167,1049.9485],[136.98371,47.17686,1035.007],[136.95787,47.16368,1203.5718],[136.95291,47.16012,1195.5496],[136.94981,47.15591,1215.3899],[136.94981,47.1518,1229.9884],[136.95932,47.13927,1295.1144],[136.96087,47.13433,1243.8848],[136.96004,47.1286,1256.8529],[136.95756,47.12245,1233.6431],[136.94351,47.09881,1229.3203],[136.94082,47.09307,1227.915],[136.93896,47.08214,1167.8153],[136.9371,47.07661,1152.6276],[136.93421,47.0718,1086.9723],[136.93203,47.06669,1184.5315],[136.93245,47.06178,1104.936],[136.93431,47.0571,1079.4224],[136.94113,47.04865,1108.5425],[136.94516,47.04467,960.7102],[136.95529,47.03728,958.7709],[136.97493,47.02798,1410.9432],[136.97947,47.02437,1462.261],[136.98092,47.02008,1426.4333],[136.97834,47.01568,1471.7537],[136.9742,47.0117,1367.3527],[136.95384,46.99987,1136.0714],[136.94723,46.99388,1193.3597],[136.93462,46.98468,1281.8311],[136.91012,46.96995,1114.0398],[136.90516,46.96597,1241.8286],[136.88883,46.94768,1310.2227],[136.87736,46.93838,1287.3396],[136.86858,46.93621,1016.1794],[136.86134,46.93742,1168.3555],[136.85514,46.94091,1292.447],[136.8477,46.94349,1208.23],[136.8353,46.94375,1180.8041],[136.82848,46.94065,1021.8423],[136.82403,46.93548,1117.609],[136.81483,46.91672,1045.7363],[136.80677,46.90647,1302.1548],[136.75509,46.87497,1104.6575],[136.74393,46.86582,1210.199],[136.73814,46.85781,1410.0479],[136.73711,46.85208,1074.6074],[136.73349,46.84525,902.4382],[136.72791,46.84148,1054.3368],[136.67996,46.82505,1410.6888],[136.6072,46.78733,1211.8464],[136.59014,46.7805,1565.9963],[136.57722,46.77746,1184.8434],[136.56978,46.77849,1097.6929],[136.56317,46.78092,1245.808],[136.54405,46.79559,1158.311],[136.53836,46.79818,967.4323],[136.53185,46.7989,831.0457],[136.52524,46.79818,792.1616],[136.5057,46.79404,1036.7083],[136.50002,46.79425,916.2034],[136.49485,46.79523,832.8104],[136.48855,46.79753,783.6545],[136.47222,46.80805,919.3619],[136.46323,46.81027,1115.4877],[136.45113,46.81017,739.6582],[136.43129,46.80614,681.2903],[136.42147,46.80112,882.8998],[136.41486,46.79549,794.9573],[136.40535,46.78417,912.7016],[136.39791,46.77818,1020.4934],[136.38395,46.76924,746.03],[136.37248,46.76534,820.3109],[136.35688,46.76273,1054.6626],[136.26365,46.765,647.988],[136.2467,46.76914,675.053],[136.23234,46.77482,888.9565],[136.17942,46.78696,625.0018],[136.16361,46.79208,699.4037],[136.15038,46.79833,691.7781],[136.1448,46.80179,577.4601],[136.14015,46.80552,500.3314],[136.13033,46.81761,488.0379],[136.12216,46.82523,583.0713],[136.11203,46.83249,461.6514],[136.0862,46.84549,362.0352],[136.06863,46.85104,374.5902],[136.06201,46.84991,450.9499],[136.05695,46.84608,441.9239],[136.04847,46.83668,425.0334],[136.02904,46.82058,409.0282],[136.01829,46.81363,422.6696],[135.99597,46.80272,473.9519],[135.9693,46.79285,393.3616],[135.95411,46.78996,444.4053],[135.9415,46.78975,440.0399],[135.93365,46.79203,427.3259],[135.92,46.79797,378.0878],[135.90367,46.80288,393.9892],[135.85014,46.81089,519.5347],[135.84249,46.81311,459.2451],[135.83629,46.81595,567.9164],[135.82719,46.82226,445.365],[135.81892,46.8296,507.5538],[135.8152,46.83373,555.8444],[135.80993,46.84277,575.7612],[135.80425,46.86822,697.7417],[135.80218,46.873,556.2383],[135.79825,46.87709,513.0302],[135.78761,46.88406,432.0125],[135.77366,46.88985,393.7072],[135.75691,46.89461,396.8913],[135.72198,46.90055,578.8585],[135.71588,46.90344,609.7335],[135.71309,46.90742,750.5814],[135.71454,46.91218,812.5934],[135.71991,46.91662,740.9978],[135.72859,46.92122,578.1918],[135.74368,46.92608,587.4323],[135.75195,46.93016,561.7037],[135.75547,46.93509,594.7269],[135.75536,46.94011,664.4048],[135.75206,46.94478,655.1627],[135.74585,46.94856,589.7981],[135.68405,46.95471,410.0354],[135.67351,46.95225,380.7706],[135.64457,46.94137,333.7872],[135.62359,46.93677,318.7161],[135.61666,46.9368,337.2794],[135.61057,46.93812,417.9654],[135.60653,46.94142,358.425],[135.60385,46.94582,387.5633],[135.60075,46.95016,350.7695],[135.59703,46.95434,325.9874],[135.59134,46.95806,311.5193],[135.58431,46.96106,311.0069],[135.57356,46.96287,296.2632],[135.56354,46.96204,287.2569],[135.52602,46.95349,286.402],[135.51868,46.94969,286.6671],[135.51372,46.94584,282.2308],[135.50515,46.94148,297.0975],[135.49357,46.93714,304.0468],[135.45791,46.92856,380.0301],[135.44882,46.92385,392.0115],[135.44355,46.91889,428.3649],[135.436,46.91326,311.2325],[135.42804,46.9114,305.7297],[135.41957,46.91088,359.4998],[135.36727,46.91641,444.5045],[135.35983,46.91889,521.0604],[135.3559,46.92292,518.8699],[135.35404,46.92773,506.0199],[135.35342,46.933,434.3538],[135.35394,46.93874,404.0463],[135.35704,46.94437,402.9901],[135.36304,46.94964,425.4041],[135.37533,46.95334,339.574],[135.38216,46.95708,391.5405],[135.38536,46.96155,412.8813],[135.38629,46.97228,364.8071],[135.38784,46.97822,348.6418],[135.39053,46.98411,279.934],[135.39435,46.98928,292.3501],[135.40396,46.99992,336.3247],[135.40417,47.00013,336.3247],[135.4082,47.00375,335.3361],[135.41833,47.00969,302.5545],[135.42422,47.01243,320.8015],[135.42918,47.01568,332.2617],[135.433,47.0192,350.9336],[135.43363,47.02323,328.5433],[135.43228,47.02762,359.0109],[135.4267,47.03643,417.7158],[135.42329,47.04059,382.0334],[135.41564,47.04416,369.5374],[135.4052,47.04721,354.7058],[135.3834,47.04845,285.5433],[135.37265,47.05093,244.0258],[135.36645,47.05475,237.3046],[135.36169,47.06943,366.8543],[135.35859,47.07387,350.4673],[135.35487,47.07806,286.6547],[135.34981,47.08157,329.1858],[135.34329,47.08465,285.2178],[135.31756,47.0916,297.6253],[135.31043,47.09439,254.9433],[135.30474,47.09775,227.6704],[135.30071,47.10178,283.4177],[135.29772,47.10617,319.9492],[135.29668,47.11128,310.025],[135.29741,47.11656,342.5664],[135.3002,47.12183,413.3215],[135.30753,47.13185,345.084],[135.30981,47.13619,390.4337],[135.30908,47.14436,418.0955],[135.24883,47.15981,459.0405],[135.22878,47.15609,350.6171],[135.21937,47.15097,323.1018],[135.21224,47.15118,265.8025],[135.20511,47.15296,248.0494],[135.14982,47.17877,310.3858],[135.10858,47.19169,510.2356],[135.08998,47.19443,367.632],[135.07819,47.19265,400.5027],[135.07323,47.18689,469.2473],[135.06693,47.18128,379.9357],[135.03902,47.171,322.8393],[135.03334,47.16808,383.1213],[135.02869,47.1642,377.7932],[135.02559,47.15878,339.4308],[135.02104,47.14066,417.459],[135.01856,47.13444,388.0895],[135.01515,47.12808,295.7596],[135.0105,47.12276,364.8882],[135.00368,47.11795,451.0137],[134.99872,47.11671,534.9578],[134.99221,47.11718,436.5321],[134.986,47.11955,336.5458],[134.98022,47.12265,320.7657],[134.97526,47.12632,317.1262],[134.96719,47.13446,352.2304],[134.96192,47.13847,374.7847],[134.95541,47.14208,334.058],[134.94559,47.14518,287.3196],[134.93774,47.14503,314.0592],[134.93071,47.14348,361.5293],[134.91293,47.13759,414.9178],[134.8966,47.13449,522.4585],[134.88616,47.13464,414.3928],[134.87779,47.13671,426.0641],[134.8657,47.14361,470.0144],[134.86188,47.14684,543.2357],[134.85113,47.15407,413.0631],[134.82043,47.13464,526.7312],[134.80121,47.12774,413.139],[134.78436,47.1234,450.2395],[134.77382,47.1225,428.9244],[134.75232,47.12493,605.098],[134.72669,47.12245,550.5844],[134.70499,47.11681,765.7643],[134.67439,47.1056,500.0598],[134.66148,47.09837,580.7548],[134.65341,47.0918,551.1031],[134.64721,47.08043,517.9748],[134.64318,47.06798,423.7781],[134.64029,47.06188,311.2128],[134.6345,47.05604,303.5621],[134.62665,47.05454,271.5147],[134.60691,47.05491,315.798],[134.59977,47.05243,369.0574],[134.59399,47.04845,339.4827],[134.57662,47.03015,430.0945],[134.5728,47.02509,421.6584],[134.5697,47.0194,457.7681],[134.56143,47.00003,382.8901],[134.5574,46.98261,384.6637],[134.5543,46.97525,388.7081],[134.54872,46.96726,390.9373],[134.53725,46.95677,261.1323],[134.52794,46.95287,214.9889],[134.51875,46.95176,249.2054],[134.51099,46.95264,274.92],[134.4958,46.95667,276.8094],[134.48598,46.95768,273.9199],[134.47327,46.95719,345.3844],[134.45167,46.95202,357.415],[134.44454,46.94737,410.0356],[134.44288,46.94246,300.6255],[134.44485,46.93773,273.215],[134.44588,46.93248,287.1096],[134.44588,46.9269,304.7154],[134.44268,46.90923,355.5303],[134.44009,46.90349,446.5439],[134.42862,46.88763,460.6078],[134.41684,46.87435,293.3932],[134.41167,46.86644,428.3724],[134.41074,46.86009,590.8593],[134.42407,46.83208,282.7555],[134.42986,46.82314,308.8366],[134.44423,46.80645,383.2744],[134.45715,46.79425,261.5208],[134.46056,46.79006,292.6965],[134.46459,46.78598,328.0863],[134.46728,46.78128,366.7036],[134.46821,46.77611,338.6779],[134.46428,46.76903,174.5485],[134.45642,46.75761,143.8251],[134.45343,46.75193,261.7249],[134.45219,46.74655,256.5924],[134.45198,46.74113,170.0409],[134.4527,46.73591,147.6008],[134.45157,46.72865,236.9695],[134.44805,46.71849,191.787],[134.42769,46.68707,178.4884],[134.41932,46.68015,151.5458],[134.41198,46.67751,125.2853],[134.3695,46.67224,59.1509],[134.34387,46.67147,111.9398],[134.33746,46.66994,117.8838],[134.31948,46.6632,202.0195],[134.31204,46.66123,167.92],[134.30553,46.66098,194.2328],[134.27804,46.6663,219.0974],[134.26346,46.6662,348.3991],[134.25592,46.66532,332.7249],[134.24817,46.66372,379.3393],[134.23018,46.65627,403.3189],[134.21365,46.64764,354.6628],[134.20672,46.64524,339.7959],[134.19928,46.64439,358.0483],[134.1012,46.65423,626.8741],[134.09014,46.65395,714.3322],[134.07588,46.65002,404.2711],[134.05386,46.64098,149.8517],[134.03361,46.62837,84.5989],[134.02255,46.62591,63.7547],[134.0149,46.62646,63.523],[134.00922,46.62982,68.1342],[134.00457,46.63188,49.798],[133.9995,46.63697,49.6665],[133.9985,46.6377,50.851],[133.98803,46.62517,47.9919],[133.96736,46.61119,51.1602],[133.92033,46.59034,77.51],[133.90245,46.57364,49.5412],[133.89883,46.56326,46.8391],[133.89635,46.53819,74.8348],[133.89191,46.52897,60.5339],[133.84933,46.48029,50.6603],[133.84581,46.47065,52.5855],[133.84778,46.45698,50.4854],[133.85439,46.44466,46.0],[133.86152,46.44104,50.7976],[133.87041,46.44047,50.5536],[133.88188,46.43711,50.1098],[133.90028,46.42657,52.0542],[133.92147,46.41014,49.5922],[133.93387,46.39076,50.1071],[133.92602,46.37131,49.6604],[133.88085,46.35366,52.1309],[133.86338,46.33929,48.0],[133.87444,46.31978,49.9243],[133.88519,46.32658,48.4968],[133.89635,46.3272,50.2925],[133.907,46.32247,52.0129],[133.91599,46.31299,52.4023],[133.89377,46.30188,53.2029],[133.89408,46.29134,52.8122],[133.90193,46.27805,51.6108],[133.90245,46.25899,53.1983],[133.89005,46.25082,48.8565],[133.86959,46.24452,52.5639],[133.85532,46.23656,52.6518],[133.8609,46.22359,53.3186],[133.85284,46.21754,48.0],[133.83662,46.20044,52.4957],[133.8301,46.19687,55.5099],[133.82122,46.20013,55.4391],[133.81295,46.21418,54.1919],[133.80623,46.21739,53.9936],[133.79352,46.21429,50.5],[133.78649,46.20669,52.0322],[133.78174,46.19672,54.7611],[133.77512,46.18669,52.2793],[133.76603,46.17796,51.0],[133.74101,46.15904,54.1183],[133.72003,46.15021,53.9414],[133.69874,46.14902,55.938],[133.68737,46.14184,55.4625],[133.69637,46.11502,51.5],[133.71931,46.07931,55.4808],[133.72003,46.06375,54.1648],[133.69482,46.02277,55.2792],[133.65813,45.93451,54.1696],[133.64986,45.92784,95.8563],[133.62774,45.93777,57.4356],[133.61761,45.93627,56.5256],[133.61007,45.92981,57.1363],[133.60697,45.91947,82.8859],[133.60614,45.90511,57.1163],[133.60304,45.89865,55.1695],[133.5865,45.88841,54.5],[133.58443,45.88413,56.8025],[133.58609,45.87984,55.0299],[133.58588,45.87632,56.1535],[133.57968,45.87477,56.4818],[133.57007,45.87643,57.7383],[133.56407,45.88056,57.7128],[133.55911,45.88521,57.0617],[133.55229,45.88841,55.0],[133.53162,45.88816,57.9421],[133.51436,45.87927,61.9852],[133.50268,45.86201,57.449],[133.49834,45.8372,57.8896],[133.494,45.83333,58.277],[133.48491,45.82842,56.5],[133.47726,45.8201,58.1872],[133.47726,45.80584,57.6908],[133.48377,45.79659,61.3434],[133.50341,45.78765,58.6358],[133.51136,45.77855,62.5772],[133.48491,45.76847,60.3373],[133.47085,45.72889,59.659],[133.44305,45.70967,63.9791],[133.45163,45.69918,60.2723],[133.47664,45.69359,60.5418],[133.4878,45.68667,63.5135],[133.49152,45.67339,71.8607],[133.48284,45.6629,58.5],[133.45669,45.64879,64.4247],[133.46217,45.64404,60.0884],[133.47178,45.63246,62.0906],[133.47726,45.62771,64.974],[133.45845,45.62264,62.8791],[133.44201,45.62063,60.0],[133.42765,45.61525,59.87],[133.41514,45.60042,63.0131],[133.42517,45.58042,64.0264],[133.41349,45.57334,61.7494],[133.37484,45.57309,63.7517],[133.36254,45.56792,63.9914],[133.33029,45.54926,65.9887],[133.29887,45.54208,63.9901],[133.27169,45.52844,63.1893],[133.24089,45.52327,64.7106],[133.20213,45.51128,64.2756],[133.18921,45.50415,63.702],[133.17981,45.49381,64.1779],[133.14022,45.43542,65.7229],[133.1332,45.41961,64.6592],[133.12875,45.40276,65.5056],[133.1272,45.38509,66.2774],[133.10188,45.28721,64.928],[133.10674,45.26463,66.1943],[133.09754,45.24354,65.8718],[133.10653,45.21471,66.7967],[133.12069,45.18344,66.8642],[133.1272,45.15538,67.1178],[133.12524,45.14133,67.3065],[133.12152,45.13125,67.2678],[133.11542,45.12303,67.4131],[133.09878,45.10779,67.8813],[133.07335,45.09063,67.9387],[133.04969,45.08175,68.3665],[133.02385,45.05834,68.857],[132.99264,45.04847,68.9426],[132.96618,45.02888,69.493],[132.95336,45.02438,69.0365],[132.92122,45.0279,69.4064],[132.83978,45.05916,68.0],[132.40471,45.1465,68.0],[131.96965,45.23383,110.6422],[131.96882,45.23398,110.6422],[131.94991,45.23972,106.2853],[131.93151,45.24871,76.4788],[131.91456,45.26013,100.4623],[131.9004,45.2729,124.942],[131.88841,45.29114,116.8353],[131.88046,45.3099,128.4229],[131.87074,45.32633,155.2765],[131.85307,45.3376,162.0916],[131.81803,45.33279,137.4349],[131.78527,45.30473,148.6842],[131.72315,45.21533,157.0094],[131.71127,45.20866,160.0547],[131.66693,45.20959,176.3372],[131.6445,45.20644,171.0689],[131.62776,45.19848,175.6925],[131.61515,45.18494,190.4687],[131.60523,45.16463,316.3584],[131.60492,45.14743,197.8874],[131.62238,45.12366,401.6973],[131.6198,45.10366,308.8935],[131.60905,45.0897,385.2023],[131.47149,44.99663,458.4471],[131.4657,44.99322,427.201],[131.45216,44.98372,328.7425],[131.44296,44.97131,307.5957],[131.43377,44.96129,371.5418],[131.4195,44.95896,401.0589],[131.35036,44.96801,505.5479],[131.32948,44.96764,546.934],[131.31315,44.96366,552.777],[131.29992,44.95648,520.8981],[131.259,44.92816,529.6776],[131.24463,44.92217,587.6049],[131.17652,44.90341,503.327],[131.15802,44.9017,528.3881],[131.14045,44.90682,475.7648],[131.1236,44.91561,602.6653],[131.11006,44.91953,634.7007],[131.0958,44.91912,599.0374],[131.05157,44.90904,579.868],[131.04537,44.90543,583.801],[131.04113,44.89778,635.0158],[131.04206,44.88248,680.4305],[131.03885,44.87457,694.1193],[131.0248,44.86243,662.6637],[131.00826,44.85628,610.9709],[130.99028,44.85416,696.5785],[130.97157,44.85406,738.9011],[130.93343,44.84171,632.45],[130.93013,44.82497,733.2151],[130.97157,44.77561,811.2014],[131.00754,44.75732,839.0263],[131.02139,44.74688,877.9286],[131.06583,44.68203,670.2874],[131.16515,44.36812,595.3585],[131.26447,44.05421,92.523],[131.26148,44.0461,88.5],[131.25155,44.04155,94.1801],[131.23533,44.03111,96.079],[131.21776,44.01607,147.5332],[131.21311,44.00688,176.6224],[131.2129,43.99323,163.3696],[131.2067,43.97478,112.3499],[131.20794,43.95949,124.8062],[131.21838,43.92587,209.9694],[131.21734,43.90848,200.2965],[131.19285,43.86024,288.8015],[131.1728,43.79911,463.1483],[131.17032,43.7811,519.7676],[131.17786,43.7255,539.2466],[131.17497,43.70147,608.4785],[131.17507,43.69377,606.0311],[131.17745,43.68447,602.0247],[131.18541,43.66633,555.0269],[131.18799,43.65666,627.0367],[131.18727,43.64798,555.2682],[131.18148,43.62984,613.936],[131.18024,43.62302,611.5056],[131.18241,43.61403,559.0197],[131.19078,43.59589,636.3267],[131.19202,43.58863,627.1517],[131.18572,43.57445,633.76],[131.16567,43.54902,668.4354],[131.16071,43.53277,565.4766],[131.16691,43.52107,507.1822],[131.25285,43.46917,677.489],[131.26168,43.46383,667.546],[131.27429,43.4512,675.3898],[131.27781,43.43849,690.1523],[131.28184,43.39314,579.6876],[131.28091,43.38022,681.7216],[131.26964,43.36474,663.1544],[131.25776,43.35573,662.8696],[131.24794,43.3442,599.5658],[131.24246,43.32141,553.3207],[131.24205,43.28377,580.0308],[131.2377,43.26584,326.4299],[131.22551,43.25193,287.7636],[131.19306,43.2308,248.2595],[131.17859,43.21739,254.8909],[131.16908,43.20171,331.092],[131.16722,43.18155,491.7501],[131.17497,43.1684,572.7264],[131.18489,43.15633,525.9756],[131.18985,43.13915,869.424],[131.18396,43.12081,779.1797],[131.16939,43.10781,789.6327],[131.13435,43.08933,455.0428],[131.1266,43.08238,319.258],[131.12402,43.07536,409.2442],[131.12298,43.06773,413.7469],[131.11988,43.059,371.3004],[131.11244,43.05187,444.6988],[131.09404,43.04683,326.5844],[131.08547,43.0421,316.8657],[131.07833,43.03182,332.5831],[131.07523,43.0196,323.4232],[131.0743,42.9934,246.8707],[131.08278,42.96523,249.8098],[131.09932,42.93544,306.9529],[131.10304,42.91043,296.1353],[131.07399,42.89658,195.1211],[131.03947,42.898,236.7955],[131.02387,42.89627,319.6614],[131.00878,42.88689,351.9314],[131.00196,42.8733,414.8622],[130.99958,42.85875,569.4693],[130.99245,42.84873,303.9944],[130.85623,42.84976,308.42],[130.81654,42.86405,168.0925],[130.79432,42.86906,307.825],[130.76952,42.86581,253.5579],[130.7568,42.85328,452.6864],[130.74802,42.83749,726.7872],[130.73489,42.82449,466.8081],[130.73097,42.82589,535.2806],[130.64911,42.82894,318.5342],[130.58648,42.81726,601.877],[130.49098,42.78083,125.0101],[130.40716,42.73538,291.5255],[130.37967,42.69667,409.5527],[130.40375,42.67755,111.0282],[130.43806,42.6753,239.4778],[130.47434,42.67905,249.932],[130.5039,42.67781,124.6281],[130.52674,42.66577,37.1252],[130.55113,42.64562,27.9524],[130.57191,42.62182,8.3588],[130.58431,42.5989,10.0],[130.58451,42.5689,123.2396],[130.56756,42.55275,339.5408],[130.53077,42.53048,50.6436],[130.54266,42.51053,6.6576],[130.54452,42.5063,7.764],[130.54607,42.49529,8.0472],[130.54989,42.49038,7.1555],[130.55475,42.48761,4.484],[130.55878,42.48271,21.343],[130.57563,42.44573,9.7159],[130.58741,42.43201,2.5],[130.60591,42.42062,15.8527],[130.62854,42.4148,6.8824],[130.6458,42.40088,3.2751],[130.65665,42.38325,3.0074],[130.66058,42.3592,3.8549],[130.66027,42.33393,2.2277],[130.66275,42.32057,4.2421],[130.67288,42.31114,0.5],[130.69996,42.29511,0.0],[130.7036,42.29524,0.0],[130.73481,42.3376,0.0],[130.74319,42.35369,0.6478],[130.75275,42.38078,1.773],[130.76303,42.40038,0.0],[130.78077,42.45344,0.0],[130.78663,42.46186,0.0],[130.80421,42.46235,0.0],[130.82325,42.46503,0.0],[130.83872,42.47236,83.5229],[130.84498,42.48631,53.2903],[130.84376,42.49396,10.9062],[130.83839,42.50629,10.5362],[130.83815,42.51024,6.3881],[130.84303,42.51976,0.0],[130.84645,42.5207,0.0],[130.8506,42.52001,0.0],[130.85849,42.52456,44.9524],[130.85971,42.52106,39.3404],[130.86459,42.51728,87.7539],[130.87021,42.51797,0.0],[130.87289,42.52766,0.0],[130.86964,42.53547,0.0],[130.85499,42.53925,2.5638],[130.85182,42.5478,0.0],[130.84213,42.55854,47.6979],[130.78354,42.57917,0.0],[130.77955,42.58466,0.0],[130.77809,42.59113,0.0],[130.77418,42.59683,0.0],[130.76303,42.5996,1.6936],[130.75465,42.59724,2.0013],[130.7295,42.57917,1.8126],[130.73691,42.60725,0.8544],[130.73292,42.61555,1.2532],[130.68344,42.64354,0.0],[130.66079,42.64318,0.0],[130.65667,42.66408,1.6165],[130.69353,42.68545,0.2002],[130.72076,42.70002,0.0],[130.73467,42.69169,0.0],[130.74535,42.6811,0.0],[130.7693,42.68159,0.0],[130.78187,42.69028,0.0],[130.80179,42.69685,0.0],[130.82546,42.69932,2.5018],[130.83701,42.69159,0.0],[130.83204,42.67406,0.0],[130.79595,42.66285,44.8328],[130.78698,42.65376,0.0],[130.80344,42.65115,20.8554],[130.84783,42.66132,0.0],[130.88152,42.65899,0.0],[130.89944,42.65463,1.3295],[130.93178,42.65751,0.1802],[130.94971,42.65312,3.8977],[130.94459,42.63117,0.0],[130.93214,42.61835,0.0],[130.91151,42.61683,0.0],[130.88948,42.63861,0.0],[130.86288,42.64082,35.4796],[130.83859,42.64299,8.622],[130.81548,42.63417,55.4084],[130.83251,42.62577,41.5299],[130.87257,42.60395,36.9387],[130.88966,42.5996,13.0838],[130.91432,42.60151,58.6359],[130.93116,42.60692,0.0],[130.95248,42.6278,0.5042],[130.99488,42.64069,0.0],[131.03443,42.64521,47.0069],[131.07358,42.63886,1.3468],[131.08703,42.64038,0.0],[131.09289,42.65489,0.0],[131.1057,42.66835,0.0],[131.12035,42.66719,0.0],[131.12741,42.64681,0.0],[131.1269,42.61726,88.162],[131.14357,42.6127,6.5437],[131.15849,42.60131,35.8161],[131.18065,42.60521,0.0],[131.1792,42.59438,42.5413],[131.17115,42.58527,49.61],[131.167,42.58539,7.4288],[131.167,42.57563,79.1109],[131.17099,42.57294,53.9287],[131.17964,42.564,3.0933],[131.18535,42.55955,0.0],[131.19456,42.55897,0.0],[131.20375,42.55724,65.9629],[131.21328,42.55139,0.0],[131.21955,42.55471,0.0],[131.22156,42.5663,7.9182],[131.22438,42.57062,0.0],[131.21275,42.58394,2.1235],[131.21805,42.58613,0.0],[131.23405,42.58726,0.0],[131.23409,42.58885,0.0],[131.22797,42.59168,16.1967],[131.22874,42.59713,2.8357],[131.2243,42.60493,23.6509],[131.20801,42.60852,8.548],[131.20118,42.61402,0.0],[131.20348,42.61906,0.0],[131.20978,42.62261,18.1312],[131.20902,42.63629,0.0],[131.21656,42.64419,0.0],[131.22421,42.66059,0.0],[131.23268,42.66791,0.0],[131.24708,42.6673,0.0],[131.25416,42.6682,0.0],[131.25709,42.67133,0.0],[131.25807,42.67524,0.0],[131.2623,42.6811,0.0],[131.26328,42.685,0.0],[131.26108,42.68806,0.0],[131.2518,42.69082,19.2908],[131.2496,42.69457,0.0],[131.23645,42.70664,3.2748],[131.2469,42.73253,6.3489],[131.25707,42.75156,50.0727],[131.27313,42.77733,0.0],[131.30013,42.79328,0.6583],[131.35202,42.77433,0.0],[131.36362,42.78217,61.2765],[131.35963,42.79426,0.0],[131.36036,42.80663,0.0],[131.36573,42.81875,0.0],[131.37892,42.83112,0.0],[131.40903,42.83934,0.0],[131.43637,42.85578,0.0],[131.45615,42.86384,0.0],[131.47169,42.87324,0.0],[131.47193,42.88394,0.0],[131.45899,42.88443,0.0],[131.4004,42.87336,4.472],[131.41074,42.90095,0.0],[131.40634,42.91006,56.5049],[131.38624,42.91429,0.0],[131.38795,42.93012,0.0],[131.39389,42.94501,0.0],[131.40553,42.95063,0.7244],[131.42994,42.93504,22.1542],[131.43824,42.93415,27.1517],[131.45509,42.93476,21.4275],[131.47731,42.94196,0.0],[131.49195,42.94489,136.9036],[131.4961,42.94229,10.1874],[131.49936,42.9571,8.357],[131.49488,42.97061,0.0],[131.49195,42.98432,0.0],[131.49952,42.99999,0.0],[131.51767,43.00934,0.0],[131.53297,43.00226,0.0],[131.54786,42.99311,0.918],[131.56495,42.99628,0.0],[131.56764,43.00755,38.8511],[131.56373,43.02383,0.0],[131.563,43.03832,0.0],[131.58676,43.04995,2.4297],[131.66489,43.12519,0.0],[131.68336,43.1485,0.0],[131.69467,43.17499,1.8914],[131.68409,43.16523,3.1997],[131.66676,43.15689,48.088],[131.65146,43.15599,0.0],[131.64698,43.16885,0.7273],[131.65113,43.16962,0.0],[131.67416,43.18183,17.0475],[131.67783,43.18732,0.0],[131.67954,43.19367,0.0],[131.68385,43.19929,1.0087],[131.69467,43.20234,1.3903],[131.70663,43.19684,3.5028],[131.71754,43.18448,14.2747],[131.73072,43.17414,33.042],[131.74985,43.17499,39.5042],[131.76393,43.18586,163.8562],[131.75831,43.19538,55.1903],[131.74171,43.20148,0.0],[131.72267,43.20234,0.0],[131.72267,43.20978,0.7166],[131.7505,43.22529,0.5527],[131.75685,43.2425,66.6474],[131.75636,43.26374,17.1433],[131.76425,43.29169,0.0],[131.77418,43.30207,0.0],[131.79933,43.31586,0.0],[131.80454,43.32209,0.0],[131.80763,43.33096,0.0],[131.81568,43.33674,-0.0638],[131.82667,43.33796,0.0],[131.83863,43.33271,0.0],[131.82814,43.3264,0.0],[131.82602,43.31794,38.5465],[131.83204,43.30988,39.5269],[131.84604,43.30537,0.0],[131.85694,43.30732,17.8714],[131.88478,43.31778,0.0],[131.89527,43.31863,0.0],[131.9568,43.30585,0.0],[131.97812,43.29206,0.0],[131.96835,43.27058,0.0],[131.99204,43.2731,0.0],[131.99985,43.28408,26.6277],[132.00351,43.29951,0.0],[132.01401,43.31562,0.0],[132.03102,43.32514,0.0],[132.04444,43.32437,0.0],[132.05201,43.31476,0.0],[132.05152,43.29792,0.0],[132.04493,43.28644,0.0],[132.0066,43.26032,12.2275],[132.00196,43.25218,0.0],[132.0005,43.24453,0.0],[131.99684,43.23871,0.0],[131.97804,43.23554,0.0],[131.95859,43.22993,0.0],[131.92368,43.20783,0.0],[131.91171,43.19758,0.0],[131.90016,43.18183,0.0],[131.87941,43.1374,0.0],[131.84986,43.10049,0.0],[131.84718,43.08991,0.0],[131.85914,43.08564,31.0011],[131.87094,43.09032,0.0],[131.92066,43.12043,155.5177],[131.91725,43.10786,0.0],[131.90797,43.10106,52.3039],[131.89625,43.09536,9.7099],[131.88649,43.08564,0.0],[131.90724,43.07441,0.0],[131.92994,43.06957,48.1193],[131.95224,43.07197,0.0],[131.97202,43.08251,0.0],[131.9913,43.09585,35.9326],[132.02963,43.11652,0.0],[132.0442,43.12726,0.0],[132.07545,43.16303,37.3519],[132.09596,43.18098,34.0988],[132.11647,43.18867,0.0],[132.13681,43.19164,0.0],[132.22665,43.2298,2.0283],[132.23593,43.23652,0.0],[132.24252,43.24551,88.1998],[132.254,43.26651,51.382],[132.26051,43.27058,34.4722],[132.28199,43.27851,8.9936],[132.28956,43.31257,0.0],[132.30543,43.31904,0.3066],[132.31495,43.31566,0.2429],[132.3458,43.29792,0.0],[132.35621,43.28596,35.307],[132.35483,43.28254,7.5883],[132.34921,43.2792,0.0],[132.3458,43.26716,30.374],[132.34067,43.26154,50.2987],[132.31674,43.2519,0.0],[132.30844,43.24702,0.0],[132.30771,43.23819,0.0],[132.31715,43.23135,22.4364],[132.35898,43.21552,36.2091],[132.37607,43.20474,0.0],[132.38168,43.19123,0.0],[132.36695,43.17499,14.8008],[132.35654,43.17097,0.0],[132.34816,43.17145,18.2106],[132.33937,43.17365,0.0],[132.32911,43.17499,0.0],[132.32765,43.1706,3.7992],[132.32748,43.14899,0.0],[132.32594,43.14086,0.0],[132.33277,43.13833,0.0],[132.33961,43.13402,22.2622],[132.33375,43.13019,2.8155],[132.3248,43.12295,0.0],[132.31837,43.12043,0.0],[132.32569,43.10627,3.9059],[132.32057,43.09418,0.0],[132.30747,43.08662,0.0],[132.29111,43.08564,0.0],[132.29982,43.07551,0.0],[132.30494,43.06403,15.0378],[132.30323,43.05317,0.0],[132.29111,43.04462,0.0],[132.30128,43.02391,0.0],[132.29957,42.99714,42.1772],[132.29111,42.94912,0.0],[132.29566,42.91755,4.2994],[132.29453,42.90278,0.0],[132.28769,42.89045,0.0],[132.28932,42.88272,0.0],[132.31153,42.84545,0.0],[132.31837,42.84545,22.6642],[132.32569,42.85147,0.0],[132.3484,42.85493,35.8316],[132.36012,42.85969,48.1168],[132.35524,42.86546,47.5265],[132.35353,42.87027,2.0688],[132.35524,42.87507,64.5771],[132.36012,42.8808,30.3263],[132.35532,42.88752,93.5327],[132.35019,42.89663,49.6095],[132.3458,42.9007,4.5398],[132.35426,42.91083,43.3231],[132.3663,42.91568,70.7217],[132.39413,42.92178,43.2391],[132.3956,42.92577,43.2514],[132.39527,42.93277,37.6263],[132.39706,42.93936,0.0],[132.40439,42.94229,0.0],[132.41334,42.94111,17.1813],[132.42831,42.93598,109.5781],[132.48609,42.92862,100.2493],[132.5027,42.9243,36.7258],[132.50587,42.91364,22.1069],[132.50343,42.90009,0.0],[132.50343,42.88703,0.0],[132.51051,42.87141,0.0],[132.51783,42.86595,0.0],[132.54444,42.85969,77.1794],[132.56471,42.84626,0.0],[132.57789,42.8404,0.0],[132.58912,42.84235,51.3166],[132.60011,42.85163,10.6801],[132.60816,42.85684,5.1337],[132.61891,42.8592,1.5309],[132.63722,42.85969,3.2962],[132.6832,42.8557,7.5991],[132.69532,42.85969,34.5643],[132.69117,42.86274,37.7002],[132.68629,42.86884,1.8923],[132.68165,42.87336,26.8399],[132.70371,42.87873,12.2351],[132.73976,42.90717,0.0],[132.76344,42.90815,0.0],[132.77442,42.8959,0.0],[132.77369,42.87507,0.0],[132.76637,42.85179,0.0],[132.75733,42.83242,0.0],[132.7754,42.82811,1.2786],[132.79111,42.8205,10.4632],[132.79843,42.80842,0.0],[132.79151,42.79084,0.0],[132.80519,42.76581,48.4879],[132.81593,42.75642,0.0],[132.83302,42.74982,76.5002],[132.85231,42.74649,38.7692],[132.865,42.74811,89.7974],[132.87534,42.75593,0.0],[132.88771,42.7635,31.8361],[132.90016,42.79393,33.4451],[132.89796,42.79829,7.4507],[132.88746,42.80146,0.0],[132.89039,42.8085,0.0],[132.90048,42.81558,0.0],[132.91163,42.81875,0.0],[132.96323,42.82608,0.0],[132.98976,42.82697,161.8834],[133.01051,42.81875,123.1835],[133.0066,42.8155,86.9278],[132.99635,42.80443,0.0],[133.04322,42.77961,41.0059],[133.06739,42.76284,31.2515],[133.07887,42.74982,7.6949],[133.07667,42.7381,0.0],[133.06617,42.73737,2.1885],[133.05185,42.7412,64.5981],[133.03842,42.74299,12.0037],[133.02687,42.73965,0.0],[133.00864,42.72785,0.0],[132.99635,42.72256,0.0],[133.01344,42.71035,79.0621],[133.02442,42.69937,152.8185],[133.03769,42.69139,46.5774],[133.06202,42.68842,67.1434],[133.15773,42.68842,0.0],[133.17774,42.69379,0.0],[133.1937,42.70677,61.9941],[133.22291,42.73623,6.7276],[133.2374,42.74396,0.0],[133.29859,42.7635,0.0],[133.31837,42.76581,0.0],[133.37745,42.7635,0.0],[133.42018,42.77143,0.0],[133.44435,42.77912,0.0],[133.46803,42.7932,2.8381],[133.48805,42.79995,0.0],[133.49781,42.80443,0.0],[133.50514,42.81143,0.0],[133.50766,42.81696,67.3589],[133.51197,42.82172,0.0],[133.52442,42.82624,0.0],[133.5455,42.81973,0.0],[133.55177,42.81875,5.9403],[133.57228,42.82624,0.0],[133.57919,42.83076,79.9187],[133.58497,42.83564,59.3857],[133.58945,42.84247,94.0826],[133.59335,42.85285,0.0],[133.60499,42.84626,0.0],[133.61411,42.84638,0.0],[133.63364,42.85285,69.3432],[133.64291,42.85383,0.0],[133.67164,42.85285,0.0],[133.67774,42.84882,0.0],[133.70631,42.82246,0.0],[133.7173,42.81664,84.4191],[133.72397,42.82518,41.6646],[133.72999,42.84545,166.9077],[133.79428,42.8767,17.5914],[133.81845,42.88394,0.0],[133.83961,42.89761,42.0238],[133.85035,42.9007,70.7496],[133.86451,42.90119,0.0],[133.87135,42.89932,0.0],[133.89625,42.88491,0.0],[133.91066,42.87983,72.9099],[133.92677,42.88272,50.8991],[134.04957,42.97329,0.0],[134.06983,42.98505,327.0795],[134.10849,42.99567,441.1984],[134.12037,43.00898,88.3811],[134.12965,43.0246,46.459],[134.14088,43.03726,53.7783],[134.14796,43.04019,48.1064],[134.16538,43.04434,39.309],[134.17189,43.04804,15.1087],[134.17604,43.05488,0.0],[134.17831,43.0666,25.7467],[134.18238,43.07197,2.9123],[134.1937,43.07978,106.686],[134.20786,43.08633,129.4557],[134.22389,43.09081,86.0476],[134.24073,43.09247,55.0675],[134.25522,43.09553,7.1252],[134.30592,43.11359,0.0],[134.31455,43.12348,37.4998],[134.32138,43.12739,117.2005],[134.3379,43.12043,66.966],[134.34791,43.12157,1.5776],[134.35743,43.12556,0.0],[134.37582,43.1385,78.9391],[134.40943,43.15217,187.9277],[134.43043,43.1579,99.9555],[134.47731,43.18183,79.1844],[134.53037,43.22036,61.6831],[134.56007,43.23481,0.0],[134.58717,43.22899,0.0],[134.59726,43.23603,0.0],[134.61313,43.25113,113.4742],[134.62119,43.25698,45.273],[134.63364,43.26154,0.0],[134.65602,43.26724,1.7634],[134.66529,43.27432,108.6088],[134.68019,43.28876,0.0],[134.70289,43.30419,88.4287],[134.72804,43.31257,2.651],[134.75099,43.30537,0.0],[134.77027,43.31525,140.9857],[134.8357,43.37971,4.8877],[134.87355,43.40497,57.139],[134.89552,43.41523,11.8473],[134.93832,43.42699,0.0],[134.95639,43.43635,10.1748],[134.96388,43.45246,42.648],[134.9747,43.45954,0.0],[135.05616,43.4881,105.1229],[135.11533,43.50068,0.0],[135.12843,43.50056,7.3102],[135.13063,43.50373,41.6233],[135.13526,43.5056,51.5022],[135.1399,43.50837,56.1829],[135.1421,43.51423,73.6021],[135.14088,43.52017,61.2288],[135.13868,43.5231,62.2652],[135.13624,43.52497,52.0536],[135.13526,43.5279,40.0643],[135.13795,43.5395,16.3151],[135.14487,43.54613,50.9077],[135.1539,43.55126,88.8131],[135.16245,43.55858,240.4182],[135.16725,43.56656,115.4045],[135.17213,43.58356,22.8624],[135.17612,43.59333,25.6443],[135.19654,43.62409,74.5154],[135.20078,43.62783,133.7644],[135.21022,43.63044,12.336],[135.21957,43.63496,118.5796],[135.22389,43.6446,0.0],[135.22486,43.66836,62.9196],[135.22682,43.6822,0.0],[135.23072,43.68211,0.0],[135.22096,43.69302,130.8218],[135.20883,43.69546,91.366],[135.19606,43.69648,139.4924],[135.1836,43.70319,156.6265],[135.18222,43.71064,35.4737],[135.21022,43.71369,0.4861],[135.21762,43.71996,1.321],[135.22324,43.73261,1.7612],[135.23561,43.73408,61.9225],[135.24936,43.72944,54.7654],[135.25807,43.7237,28.7565],[135.25807,43.71625,21.3901],[135.25636,43.70454,86.6056],[135.25978,43.69375,0.0],[135.2754,43.68895,65.029],[135.28541,43.69188,50.4111],[135.30917,43.70677,133.3563],[135.31642,43.71284,74.9817],[135.32325,43.71654,145.7887],[135.33115,43.71646,106.4742],[135.33961,43.7154,0.0],[135.35499,43.71947,156.8756],[135.35922,43.72232,172.6266],[135.36793,43.72993,134.2312],[135.37509,43.73835,11.8094],[135.38136,43.74746,199.4694],[135.39015,43.75483,191.8495],[135.41774,43.75898,125.483],[135.42579,43.76317,111.6024],[135.42954,43.77131,107.6185],[135.42929,43.77831,181.4888],[135.4725,43.8181,119.0707],[135.47438,43.82551,25.8009],[135.48788,43.83271,0.0],[135.51881,43.88076,0.0],[135.51881,43.88752,133.9866],[135.49,43.87865,0.0],[135.4808,43.878,0.0],[135.48463,43.88752,0.0],[135.48463,43.89444,0.0],[135.47934,43.89399,0.0],[135.46363,43.89444,61.5226],[135.47267,43.91112,0.0],[135.4664,43.92548,4.1383],[135.45875,43.93818,5.0346],[135.46363,43.94965,0.0],[135.47828,43.95197,0.0],[135.49317,43.94392,0.0],[135.50538,43.93171,0.0],[135.51197,43.9217,0.0],[135.51881,43.95649,0.0],[135.52516,43.95783,0.0],[135.52988,43.95978,0.0],[135.53297,43.96263,0.0],[135.53419,43.96784,0.0],[135.53297,43.98721,0.0],[135.54127,44.00397,0.0],[135.56088,44.01439,0.0],[135.60133,44.02538,1.0792],[135.62403,44.03848,5.1795],[135.62843,44.05219,52.4695],[135.62851,44.06855,66.7832],[135.63852,44.0893,0.0],[135.65309,44.10602,0.0],[135.65968,44.11644,0.0],[135.65927,44.12401,0.0],[135.65211,44.1341,86.6716],[135.64942,44.1457,55.5559],[135.65089,44.15762,0.0],[135.65585,44.16869,0.0],[135.66993,44.17959,0.0],[135.68849,44.18716,0.0],[135.70484,44.19839,0.0],[135.71176,44.22028,0.0],[135.72096,44.23656,0.0],[135.74228,44.24494,0.0],[135.76694,44.25043,0.0],[135.78622,44.25812,0.0],[135.81943,44.29059,0.0],[135.83456,44.31122,0.0],[135.84083,44.32949,0.0],[135.8357,44.35171,0.0],[135.8379,44.3627,0.0],[135.86215,44.37189,0.0],[135.87208,44.38227,0.0],[135.88087,44.39374,0.0],[135.88868,44.40152,0.0],[135.90821,44.40961,0.0],[135.95094,44.42011,0.0],[135.98487,44.43561,87.7078],[135.98935,44.44058,34.2791],[135.99317,44.45197,28.2681],[135.99855,44.45612,44.5818],[136.00904,44.45694,13.8692],[136.03403,44.45083,78.5752],[136.0464,44.4499,0.0],[136.12257,44.47553,0.0],[136.16529,44.49653,0.0],[136.18409,44.51508,0.0],[136.18605,44.52114,0.0],[136.19516,44.53897,0.0],[136.20053,44.56053,0.0],[136.20883,44.5642,0.0],[136.219,44.56538,0.0],[136.22812,44.56973,0.0],[136.23316,44.58609,0.0],[136.22731,44.63105,0.0],[136.23536,44.65168,0.0],[136.26075,44.68358,0.0],[136.27451,44.69294,0.0],[136.30543,44.69782,0.0],[136.31772,44.70181,0.0],[136.32887,44.70734,0.0],[136.33375,44.71369,0.0],[136.32984,44.71865,65.8006],[136.32114,44.725,38.642],[136.31202,44.73322,86.8801],[136.30698,44.74409,0.0],[136.31764,44.746,0.0],[136.327,44.74885,0.0],[136.33497,44.75275,34.3875],[136.34108,44.75776,130.7448],[136.34693,44.7685,74.4048],[136.34995,44.77985,30.1409],[136.35458,44.7888,6.4833],[136.36476,44.79255,0.0],[136.38868,44.78681,0.0],[136.40846,44.77668,0.0],[136.42612,44.77265,0.0],[136.44361,44.7851,111.1815],[136.44728,44.81806,0.0],[136.45029,44.82665,0.0],[136.45802,44.83226,0.0],[136.46762,44.83662,0.0],[136.47804,44.8393,3.8488],[136.48829,44.84028,0.0],[136.4983,44.84577,0.0],[136.51026,44.8697,0.0],[136.51588,44.87507,0.0],[136.55348,44.89496,0.0],[136.55665,44.90204,0.0],[136.55812,44.91844,0.0],[136.56031,44.9291,0.0],[136.55812,44.92813,55.2061],[136.55519,44.93195,6.7153],[136.55307,44.93789,0.0],[136.55348,44.94335,0.0],[136.5582,44.94831,0.0],[136.56479,44.94965,0.0],[136.57163,44.95026,0.0],[136.57765,44.95295,0.0],[136.6565,45.03339,0.0],[136.66334,45.03897,0.4517],[136.66944,45.04023,22.7521],[136.68434,45.03791,0.0],[136.69052,45.03897,0.0],[136.69142,45.04116,0.0],[136.69801,45.05256,0.0],[136.70094,45.05634,0.0],[136.71852,45.06737,2.09],[136.76075,45.08788,0.0],[136.78004,45.10786,0.0],[136.78858,45.12812,0.0],[136.8003,45.17528,0.0],[136.8108,45.19318,0.0],[136.82553,45.20409,0.0],[136.92636,45.25438,0.0],[137.08277,45.35521,0.0],[137.10328,45.36376,0.0],[137.12574,45.36734,0.0],[137.14454,45.37466,0.0],[137.21949,45.461,0.0],[137.23666,45.4726,2.6058],[137.25636,45.47712,0.0],[137.26621,45.48591,0.0],[137.33595,45.57062,0.0],[137.39674,45.62393,0.0],[137.49497,45.6789,2.6365],[137.52442,45.68936,0.0],[137.63868,45.77904,111.5604],[137.67148,45.79462,0.0],[137.6858,45.81533,127.7062],[137.70468,45.85448,0.0],[137.75294,45.89655,0.0],[137.76661,45.92951,0.0],[137.78207,45.94599,0.0],[137.86826,46.00849,0.0],[137.88437,46.03425,0.0],[137.92416,46.06098,0.0],[137.93824,46.07364,0.0],[137.94117,46.08251,0.0],[137.94117,46.10029,0.0],[137.94443,46.10781,0.9651],[137.95289,46.11441,35.2479],[137.96559,46.12104,46.9605],[137.97885,46.12617,17.8194],[137.98902,46.12824,0.0],[138.00961,46.13646,0.0],[138.03403,46.15595,0.0],[138.10035,46.22797,0.0],[138.10719,46.24486,11.696],[138.11305,46.2895,0.0],[138.2024,46.45433,0.0],[138.23243,46.48456,0.0],[138.31284,46.52314,0.0],[138.34457,46.54873,0.0],[138.35646,46.59439,4.5379],[138.34913,46.63715,0.0],[138.34913,46.66425,133.4116],[138.35963,46.67634,0.0],[138.3663,46.68781,0.0],[138.39698,46.75886,0.0],[138.40976,46.78095,0.0],[138.48439,46.85798,36.4602],[138.49,46.86188,0.0],[138.50156,46.86616,0.0],[138.50351,46.87621,0.0],[138.50001,46.89545,0.0],[138.51328,46.94082,0.0],[138.53476,46.98664,0.0],[138.56275,47.02993,0.4064],[138.59482,47.06733,1.9495],[138.61671,47.08381,1.8772],[138.66098,47.1048,0.0],[138.89072,47.30516,0.0],[138.89731,47.30907,16.749],[138.90561,47.31208,26.5644],[138.91757,47.3144,0.0],[138.95899,47.31342,20.5333],[138.96949,47.31753,115.1127],[138.97486,47.32368,138.1335],[138.98048,47.33246,116.6984],[138.98471,47.34223,38.0255],[138.98658,47.35163,40.2572],[138.99049,47.36323,101.7857],[138.99985,47.37128,200.5609],[139.0206,47.38325,0.0],[139.02638,47.38943,0.0],[139.02483,47.38992,0.0],[138.98287,47.38822,379.4988],[138.96984,47.39473,137.7412],[138.96292,47.40848,89.9636],[138.95269,47.41716,115.3957],[138.89274,47.45219,435.7401],[138.87197,47.46119,752.5764],[138.85616,47.4663,915.2306],[138.84789,47.46661,870.025],[138.84034,47.46604,991.2361],[138.78619,47.45261,854.532],[138.77389,47.44744,743.1378],[138.76221,47.44114,782.255],[138.75466,47.43829,828.0787],[138.74505,47.437,722.1343],[138.73058,47.43705,927.2291],[138.71735,47.4416,892.3408],[138.62868,47.45142,1036.9016],[138.61793,47.45524,917.3735],[138.61565,47.45995,867.8187],[138.61472,47.46542,756.3049],[138.61255,47.47082,678.7312],[138.60759,47.47597,679.8327],[138.60098,47.47715,753.1523],[138.57483,47.47302,395.4223],[138.55726,47.47312,681.861],[138.55157,47.47661,786.8494],[138.55095,47.4816,828.2142],[138.55467,47.48651,759.156],[138.56491,47.49271,736.9199],[138.62247,47.51002,700.7881],[138.62475,47.51384,710.0325],[138.62216,47.51917,579.0728],[138.60439,47.53033,661.5728],[138.59602,47.53684,717.6933],[138.5923,47.54291,738.9644],[138.59478,47.5478,740.4999],[138.64015,47.59221,886.873],[138.64273,47.59831,941.1205],[138.64273,47.60567,898.5701],[138.63457,47.61787,791.3879],[138.62682,47.62417,708.7297],[138.61824,47.62864,730.0179],[138.60976,47.63058,768.5506],[138.59261,47.63203,777.2372],[138.56005,47.63074,463.3523],[138.54961,47.63125,542.0622],[138.53307,47.63484,561.3101],[138.52264,47.64035,650.563],[138.51168,47.65012,646.7464],[138.51054,47.65745,588.1033],[138.51261,47.66345,533.8574],[138.51664,47.66851,635.3054],[138.54796,47.7005,720.5007],[138.55292,47.70469,715.6145],[138.55912,47.70719,698.8311],[138.58051,47.71094,702.9222],[138.58692,47.71337,694.0452],[138.60346,47.7236,772.891],[138.60987,47.72587,850.3956],[138.65255,47.73331,915.8324],[138.66764,47.73414,861.3081],[138.69182,47.73094,792.2625],[138.69844,47.73166,723.4866],[138.70371,47.73347,740.7551],[138.70712,47.73517,739.8008],[138.75218,47.76789,903.6547],[138.75694,47.77047,910.7841],[138.76076,47.77166,916.9528],[138.76644,47.77264,926.0082],[138.80913,47.76794,930.2826],[138.81626,47.76977,912.7169],[138.8206,47.77435,663.1815],[138.82102,47.78236,637.05],[138.81688,47.78892,505.0637],[138.80851,47.79708,592.0101],[138.8051,47.80297,648.4861],[138.80458,47.80871,731.9626],[138.80799,47.81357,909.5789],[138.81233,47.81822,993.8904],[138.82215,47.82672,834.7595],[138.82618,47.8314,1038.2456],[138.82897,47.83855,1031.502],[138.82846,47.84705,966.5868],[138.82556,47.8609,1020.8586],[138.81978,47.86674,1023.4993],[138.81264,47.86948,993.13],[138.80479,47.86979,976.4892],[138.79652,47.87103,1015.2534],[138.7896,47.873,872.118],[138.78412,47.87615,980.1892],[138.77978,47.87966,1004.7341],[138.71756,47.94529,903.8247],[138.7065,47.95351,1142.98],[138.69616,47.95909,997.9019],[138.6819,47.96503,1018.2424],[138.67115,47.97227,1082.0052],[138.65875,47.98441,1193.2769],[138.65358,47.98808,1222.8674],[138.61762,47.99991,1036.6685],[138.61731,48.00012,1036.6685],[138.617,48.00027,1036.6685],[138.59436,48.00772,1258.0731],[138.58237,48.01573,1269.0503],[138.57948,48.02188,1240.8047],[138.57948,48.0273,1320.8986],[138.58144,48.03066,1336.9221],[138.6108,48.06541,1165.6365],[138.62196,48.08203,1122.5273],[138.62464,48.08931,874.8815],[138.62568,48.09727,1067.8724],[138.62402,48.10926,1298.8645],[138.62371,48.11629,1357.2028],[138.62651,48.12109,1270.5999],[138.63219,48.12259,1352.3387],[138.63984,48.12213,1395.1042],[138.66299,48.11706,1305.1489],[138.66991,48.11484,1327.1006],[138.67694,48.1137,1360.0873],[138.68263,48.11448,1198.0315],[138.69151,48.12213,1360.7605],[138.6971,48.12528,1441.5621],[138.71084,48.12936,1370.9758],[138.71694,48.13233,1401.9402],[138.72242,48.13613,1510.6545],[138.72025,48.14078,1527.7598],[138.7096,48.15463,1230.1655],[138.70764,48.16119,1149.9504],[138.70795,48.16827,1057.6943],[138.70919,48.17494,1171.0573],[138.70991,48.18326,1216.0016],[138.70784,48.18879,1201.7379],[138.7033,48.19329,1252.1639],[138.6971,48.19644,1208.2295],[138.68883,48.19845,1200.3909],[138.68077,48.19887,1261.5872],[138.67332,48.19778,1312.9423],[138.66764,48.19473,1297.6085],[138.66227,48.19091,1295.3755],[138.65761,48.18641,1286.8706],[138.65224,48.18274,1230.4902],[138.64604,48.18026,1230.6532],[138.63891,48.17897,1426.8612],[138.58423,48.17546,1231.1965],[138.57576,48.17636,1024.5769],[138.56677,48.17822,1178.9076],[138.5585,48.18078,1388.1875],[138.55044,48.1845,1161.7869],[138.543,48.1892,917.6232],[138.5338,48.1967,982.2197],[138.52997,48.20269,880.2518],[138.52925,48.20889,1048.2673],[138.53101,48.21473,1192.0482],[138.534,48.22083,1308.2258],[138.53752,48.22636,1322.0349],[138.54021,48.23235,1233.1371],[138.54155,48.23814,1263.6617],[138.54176,48.24522,1182.2496],[138.54031,48.25318,1127.0598],[138.53741,48.26287,1149.1428],[138.53214,48.2677,1146.3042],[138.5247,48.27018,1121.981],[138.50889,48.27106,961.19],[138.50145,48.27225,1014.2248],[138.49649,48.27442,913.9123],[138.48884,48.2792,1060.6256],[138.48419,48.28584,1077.1644],[138.48109,48.29152,1081.6929],[138.47964,48.29705,1085.4536],[138.47985,48.30258,1104.2262],[138.48212,48.31426,1070.689],[138.4877,48.33211,1056.3667],[138.49018,48.33762,1213.8812],[138.49328,48.34196,1230.0031],[138.50114,48.34578,1374.5555],[138.50579,48.34904,1400.3102],[138.50796,48.35483,1336.8303],[138.50775,48.36397,1174.8895],[138.49742,48.37209,1406.3427],[138.48956,48.37581,1328.4771],[138.48832,48.38095,1302.9849],[138.48853,48.38733,1283.182],[138.48956,48.3941,1140.7197],[138.48884,48.40175,1099.2772],[138.48512,48.40663,1071.4097],[138.4784,48.40955,1206.7883],[138.47086,48.41022,1277.619],[138.44863,48.40816,1168.1245],[138.4415,48.40909,1103.9857],[138.43603,48.41195,1092.3488],[138.43127,48.41555,1166.4705],[138.4229,48.42361,1107.2682],[138.41763,48.42774,1035.0476],[138.41298,48.43074,1038.1902],[138.40099,48.43524,1099.5188],[138.36451,48.43046,1216.1882],[138.35572,48.43182,1305.5433]]]]}}