{"type":"Feature","properties":{"GID_3":"RUS.29.4.1_1","GID_0":"RUS","country":"Russia","GID_1":"RUS.29_1","province":"Khakass","NL_NAME_1":"РеспубликаХакасия","GID_2":"RUS.29.4_1","county":"Beyskiyrayon","NL_NAME_2":"Бейскийрайон","city":"NA","VARNAME_3":"NA","NL_NAME_3":"NA","TYPE_3":"NA","ENGTYPE_3":"NA","CC_3":"NA","HASC_3":"NA","name":"N_A.city"},
"geometry":{"type": "MultiPolygon","coordinates": [[[[90.8595,53.2758,311.5247],[90.8384,53.2492,315.1815],[90.727,53.1714,353.8274],[90.6476,53.1276,462.4889],[90.5333,53.0806,355.8732],[90.4984,53.0084,380.9798],[90.4138,52.9832,429.9568],[90.3057,52.9475,385.0009],[90.2412,52.9056,391.7995],[90.2108,52.8309,642.4024],[90.2169,52.7578,648.5811],[90.2611,52.7619,849.3563],[90.4963,52.8011,800.6293],[90.5796,52.8013,1006.7078],[90.6278,52.7328,781.1519],[90.6141,52.6782,841.6185],[90.5715,52.5803,710.556],[90.6583,52.5642,674.4493],[90.7873,52.6089,865.7618],[90.8273,52.5995,899.3062],[90.8272,52.57,1192.9601],[90.844,52.5503,1584.8313],[90.8992,52.5773,1310.2089],[90.9955,52.6013,888.05],[91.038,52.6603,1615.3114],[91.1359,52.699,1216.3931],[91.2419,52.7475,1375.0387],[91.3265,52.7988,540.6129],[91.3963,52.868,705.9506],[91.408,52.9471,855.9966],[91.3779,53.0237,662.7993],[91.3511,53.0775,376.2573],[91.3848,53.0921,331.1692],[91.2995,53.1467,320.5037],[91.253,53.1695,315.6204],[91.2554,53.2221,305.4846],[91.1998,53.2808,297.8802],[91.1173,53.2556,439.8743],[91.1081,53.2116,496.1862],[91.0304,53.1747,397.1154],[90.8639,53.2348,433.2441],[90.8595,53.2758,311.5247]]]]}}