{"type":"Feature","properties":{"GID_3":"RUS.83.32.1_1","GID_0":"RUS","country":"Russia","GID_1":"RUS.83_1","province":"Zabaykal'ye","NL_NAME_1":"Забайкальскийкрай","GID_2":"RUS.83.32_1","county":"Tungiro-Olekminskiyrayon","NL_NAME_2":"Тунгиро-Олекминскийрайон","city":"NA","VARNAME_3":"NA","NL_NAME_3":"NA","TYPE_3":"NA","ENGTYPE_3":"NA","CC_3":"NA","HASC_3":"NA","name":"N_A.city"},
"geometry":{"type": "MultiPolygon","coordinates": [[[[121.9596,54.423,1165.0842],[121.9703,54.4245,1104.4399],[122.0792,54.451,1133.5688],[122.093,54.4896,979.2077],[122.0652,54.5019,854.2648],[121.9835,54.5249,878.5604],[121.9853,54.5486,898.5972],[121.9297,54.5769,1004.4042],[121.9113,54.6228,768.7031],[121.863,54.6698,754.041],[121.8842,54.7089,704.9844],[121.8962,54.7479,833.1128],[121.8643,54.7916,795.4503],[121.8074,54.7883,830.4497],[121.7452,54.7773,863.9858],[121.6814,54.7388,912.6047],[121.672,54.7838,859.3774],[121.6774,54.8337,899.725],[121.7102,54.8734,650.3166],[121.7643,54.912,648.9741],[121.8083,54.9361,660.3741],[121.8992,54.9675,737.4299],[121.9527,55.0224,821.5862],[121.9551,55.0699,797.0613],[121.9536,55.1452,769.5437],[121.9844,55.1747,829.8613],[122.0421,55.1953,872.7202],[121.9144,55.2123,762.481],[121.9226,55.2663,714.3815],[121.9629,55.3325,568.3],[121.9868,55.3913,608.9433],[121.9654,55.4683,561.4581],[121.9061,55.5419,743.0783],[121.8273,55.5923,829.9904],[121.7504,55.6125,1135.3445],[121.6813,55.6092,852.8676],[121.6574,55.5649,757.9475],[121.6286,55.5177,957.3886],[121.5516,55.4853,937.0389],[121.5045,55.5008,834.8715],[121.3717,55.5083,932.7542],[121.311,55.5567,734.8381],[121.3432,55.6081,626.0781],[121.3007,55.6779,516.6633],[121.2722,55.745,669.4705],[121.2967,55.7816,814.919],[121.3024,55.8282,948.3848],[121.2476,55.8676,825.2158],[121.2427,55.8981,808.3741],[121.2498,55.9825,1256.3787],[121.2047,56.0192,1259.8152],[121.1342,56.0346,1043.3037],[121.0256,56.0074,1040.9811],[120.9567,56.0291,1099.1199],[120.8316,56.0254,1566.6802],[120.7691,55.9813,1304.9174],[120.6892,55.98,1154.7881],[120.6124,55.9316,1138.7737],[120.5214,55.9322,1049.439],[120.4423,55.8974,921.561],[120.3556,55.8904,1150.2842],[120.3419,55.9089,1048.932],[120.2871,55.931399999999996,1008.405],[120.2184,55.9289,1073.9319],[120.1521,55.8984,738.5652],[120.1085,55.8906,726.2957],[120.054,55.8853,961.0714],[119.9887,55.8886,772.1362],[119.899,55.9035,865.1029],[119.7936,55.8433,968.761],[119.7049,55.805,1033.6871],[119.5759,55.7552,888.5305],[119.4441,55.7407,1385.4237],[119.3538,55.7212,1606.3358],[119.3237,55.6892,1357.5717],[119.3514,55.6376,1139.3009],[119.3666,55.5983,1340.287],[119.3232,55.5495,1257.8527],[119.2754,55.4892,1096.2883],[119.2376,55.4547,1073.1503],[119.1954,55.452,1101.0967],[119.1541,55.4681,1064.2804],[119.1392,55.4846,1372.3843],[119.0935,55.4881,1286.3186],[119.0416,55.4426,1369.8398],[118.9669,55.411,1141.7037],[118.8643,55.3583,1055.5463],[118.7682,55.3338,1132.4536],[118.6796,55.3429,1061.9194],[118.6355,55.3413,1004.6467],[118.6012,55.3363,1015.6078],[118.5975,55.302,1349.4167],[118.6304,55.2799,1035.0499],[118.6481,55.2554,941.9945],[118.6313,55.2307,986.3214],[118.4894,55.232,1250.8225],[118.324,55.1849,1004.4105],[118.3019,55.1666,1066.2665],[118.1812,55.1068,1093.7814],[118.1498,55.0551,1185.51],[118.1152,55.0076,1122.8035],[118.0416,54.9679,1071.4861],[117.9998,54.9253,1285.0537],[117.9637,54.8629,942.4504],[117.9413,54.7947,1053.1975],[117.9615,54.721,1161.1183],[117.997,54.6524,1342.9893],[117.99,54.5751,1180.5544],[117.9629,54.5312,1252.2834],[117.915,54.4885,1180.7056],[117.8359,54.4874,1357.0544],[117.7899,54.5086,1028.161],[117.7482,54.514,1034.3873],[117.7212,54.4879,1153.8176],[117.7191,54.4552,947.7081],[117.7533,54.4227,1161.5105],[117.8091,54.3906,947.0146],[117.8325,54.3644,1116.1794],[117.8263,54.3286,1274.2896],[117.7937,54.3156,1253.2041],[117.7072,54.3298,1208.032],[117.6633,54.3157,959.8082],[117.6921,54.2547,1043.0139],[117.7162,54.1963,1459.02],[117.6292,54.071,1491.3933],[117.574,54.0172,1232.9941],[117.4473,53.944,1322.7571],[117.332,53.8964,1259.0516],[117.1999,53.8635,1179.4612],[117.1426,53.8362,1110.4124],[117.1398,53.8112,1145.1816],[117.1393,53.7406,1384.0582],[117.2032,53.714,1400.6521],[117.2775,53.7038,1388.0361],[117.3554,53.7202,1622.0201],[117.3916,53.7185,1321.7732],[117.4771,53.6979,1300.1527],[117.5279,53.726,1375.6858],[117.5704,53.727,1564.0679],[117.6501,53.7468,1385.0066],[117.7204,53.8229,1178.5322],[117.7712,53.832,1261.6086],[117.8496,53.8623,1302.613],[117.912,53.8922,1286.7202],[118.0218,53.9232,1098.7108],[118.0717,53.9258,1296.4294],[118.148,53.9232,894.5112],[118.2156,53.9115,1119.6501],[118.2788,53.926,1014.7186],[118.3198,53.964,1019.6523],[118.3781,54.0219,994.2598],[118.4822,54.0459,1106.1023],[118.6015,54.0466,1114.52],[118.65,54.1003,1175.2419],[118.7661,54.1136,1205.5551],[118.7999,54.0796,1118.0203],[118.858,54.0151,792.7106],[118.9026,53.9431,1092.7156],[118.971,53.8871,1155.2596],[119.012,53.9144,1336.0087],[119.0533,53.9617,1184.194],[119.0826,54.0043,1139.0488],[119.1431,53.9847,1028.2466],[119.1468,53.9232,1070.2657],[119.2162,53.9191,977.7277],[119.2762,53.9479,971.5242],[119.3253,53.9843,1127.1003],[119.3999,53.983,1061.2393],[119.4509,54.0124,1230.8927],[119.4971,54.0493,896.0933],[119.5941,54.0507,1079.8378],[119.6412,54.0111,1102.9773],[119.7452,54.0416,997.7083],[119.7975,54.1336,1094.0503],[119.8499,54.1436,924.2186],[119.9758,54.13,932.4164],[120.0251,54.0639,1059.0759],[120.1065,54.0847,1036.9358],[120.1515,54.1264,996.0593],[120.2027,54.1583,1039.1345],[120.27,54.1309,1127.2958],[120.3138,54.145,1273.4823],[120.3592,54.1903,829.9395],[120.4212,54.2078,1089.7053],[120.4548,54.2649,847.7339],[120.4993,54.2921,957.4542],[120.5478,54.2621,952.8433],[120.5332,54.2323,972.9257],[120.5965,54.2484,849.5569],[120.6388,54.2847,1082.1354],[120.7045,54.2926,932.3024],[120.7643,54.2815,1080.6393],[120.8239,54.3059,1104.1857],[120.8419,54.3725,943.5007],[120.8493,54.4162,1194.2069],[120.9059,54.4142,1239.6533],[120.9817,54.4556,1082.8552],[121.0417,54.4644,951.3156],[121.0958,54.5031,1040.729],[121.1583,54.5018,1023.4874],[121.1722,54.4819,854.6479],[121.1729,54.4347,1299.8121],[121.2079,54.4233,1170.1924],[121.2657,54.441,949.0291],[121.3066,54.4389,910.4044],[121.3839,54.4001,1123.6406],[121.4763,54.3717,1257.8031],[121.4623,54.2581,803.3792],[121.5517,54.2705,1024.4725],[121.557,54.2858,1036.5935],[121.5867,54.3291,1387.8224],[121.6685,54.3357,1342.4099],[121.6583,54.3733,1377.0399],[121.7012,54.4187,1188.6313],[121.7918,54.4529,1199.1704],[121.8271,54.4008,1163.5165],[121.895,54.3999,1311.1951],[121.9239,54.4182,1384.9485],[121.9596,54.423,1165.0842]]]]}}