{"type":"Feature","properties":{"GID_3":"RUS.80.6.1_1","GID_0":"RUS","country":"Russia","GID_1":"RUS.80_1","province":"Yamal-Nenets","NL_NAME_1":"Ямало-НенецкийАОк","GID_2":"RUS.80.6_1","county":"Noyabr'sk","NL_NAME_2":"Ноябрьск","city":"NA","VARNAME_3":"NA","NL_NAME_3":"NA","TYPE_3":"NA","ENGTYPE_3":"NA","CC_3":"NA","HASC_3":"NA","name":"N_A.city"},
"geometry":{"type": "MultiPolygon","coordinates": [[[[75.3555,63.1722,107.5434],[75.3295,63.1524,147.2527],[75.3421,63.1276,138.8614],[75.4134,63.1245,138.623],[75.4422,63.141,126.059],[75.4308,63.1544,120.3618],[75.3987,63.1719,99.0],[75.3555,63.1722,107.5434]]]]}}