{"type":"Feature","properties":{"GID_3":"RUS.83.27.1_1","GID_0":"RUS","country":"Russia","GID_1":"RUS.83_1","province":"Zabaykal'ye","NL_NAME_1":"Забайкальскийкрай","GID_2":"RUS.83.27_1","county":"Petrovsk-Zabaykal'skiyrayon","NL_NAME_2":"Петровск-Забайкальскийрайон","city":"NA","VARNAME_3":"NA","NL_NAME_3":"NA","TYPE_3":"NA","ENGTYPE_3":"NA","CC_3":"NA","HASC_3":"NA","name":"N_A.city"},
"geometry":{"type": "MultiPolygon","coordinates": [[[[108.6017,50.4633,1231.0262],[108.632,50.4979,1342.0857],[108.7055,50.5364,1279.689],[108.7851,50.5368,1207.6079],[108.8797,50.5272,1196.4678],[108.9691,50.5507,1165.7808],[109.0536,50.5418,1316.4282],[109.1207,50.5497,1353.8065],[109.1861,50.578,1247.2328],[109.2366,50.6277,1240.2983],[109.2941,50.6555,1105.8552],[109.3893,50.6397,1229.095],[109.4765,50.661,1117.1029],[109.5401,50.6843,1416.1714],[109.5938,50.695,1209.5145],[109.6968,50.6705,1163.6389],[109.7724,50.681,1115.3622],[109.8594,50.6856,1317.8748],[109.9404,50.685,1288.1165],[109.9841,50.7262,1399.5771],[109.9899,50.7498,1486.8942],[110.0005,50.7806,1372.5166],[109.998,50.8125,1355.899],[109.968,50.8384,1070.3512],[109.952,50.8697,1143.4739],[109.9535,50.9108,1048.2771],[109.9649,50.9405,1149.8391],[109.9862,50.9798,1079.8052],[110.007,51.0239,1215.897],[109.9988,51.0678,1413.1309],[109.9883,51.1032,1330.8127],[109.9463,51.1166,1446.4744],[109.8936,51.1252,1386.0483],[109.8317,51.1241,1410.0289],[109.7818,51.1056,1419.0593],[109.7334,51.0812,1345.9501],[109.6722,51.0416,1391.9487],[109.616,51.0083,1313.4753],[109.548,50.9855,1326.6868],[109.4642,50.9841,1303.4307],[109.409,51.0004,1279.2917],[109.4037,51.0325,1149.5032],[109.3994,51.074,1282.2128],[109.3752,51.102,962.3894],[109.3259,51.1224,951.9183],[109.2948,51.1537,819.5575],[109.2829,51.193,728.0083],[109.3094,51.207,754.1041],[109.3378,51.2142,828.2166],[109.4249,51.2106,780.0764],[109.4604,51.2228,736.3731],[109.5102,51.2462,799.5551],[109.5549,51.2624,740.5794],[109.6478,51.28,779.6172],[109.6602,51.3075,749.0276],[109.6541,51.3576,989.3972],[109.6257,51.4078,1106.8042],[109.6034,51.4223,1167.1359],[109.5109,51.4055,1145.1808],[109.436,51.3954,931.3371],[109.2466,51.3499,1173.2531],[109.1983,51.3763,1189.7479],[109.1118,51.3917,1029.4929],[109.0687,51.408,1042.5452],[109.0565,51.4452,990.5465],[108.9519,51.4269,1128.0896],[108.829,51.432,1051.2109],[108.7125,51.4335,954.2839],[108.657,51.4554,1100.9575],[108.5952,51.4835,1215.3652],[108.5988,51.4318,1082.9247],[108.5845,51.3949,1184.3215],[108.5379,51.376,1052.1533],[108.5153,51.3874,1237.7061],[108.4853,51.3918,1270.4612],[108.4579,51.3474,903.7924],[108.4563,51.2788,946.6665],[108.4332,51.2407,821.617],[108.3889,51.2205,832.0936],[108.3722,51.1817,914.1414],[108.4412,51.1482,1029.0596],[108.4987,51.1377,952.9476],[108.537,51.1134,838.7587],[108.5492,51.0941,1005.9921],[108.4886,51.0514,889.4312],[108.4418,51.0323,878.2327],[108.3895,51.0204,1091.2369],[108.3238,51.0182,1194.7151],[108.2951,51.0081,1031.0016],[108.2835,50.9324,1037.8774],[108.2582,50.8432,673.2033],[108.2469,50.7489,745.862],[108.1997,50.7317,700.2713],[108.1513,50.7222,759.6251],[108.1145,50.705,743.3357],[108.0985,50.6851,798.5638],[108.0903,50.6588,771.6844],[108.1929,50.5926,921.0876],[108.2723,50.5917,953.6075],[108.298,50.578,1021.127],[108.3204,50.554,977.6144],[108.3783,50.5491,927.7641],[108.4314,50.5407,1142.4048],[108.4538,50.5301,956.8516],[108.4715,50.4929,1085.3243],[108.512,50.4682,1153.7627],[108.6017,50.4633,1231.0262]]]]}}