{"type":"Feature","properties":{"GID_3":"RUS.60.23.1_1","GID_0":"RUS","country":"Russia","GID_1":"RUS.60_1","province":"Sakha","NL_NAME_1":"РеспубликаСаха","GID_2":"RUS.60.23_1","county":"Olenekskiyrayon","NL_NAME_2":"Оленекскийрайон","city":"NA","VARNAME_3":"NA","NL_NAME_3":"NA","TYPE_3":"NA","ENGTYPE_3":"NA","CC_3":"NA","HASC_3":"NA","name":"N_A.city"},
"geometry":{"type": "MultiPolygon","coordinates": [[[[106.3093,66.4952,560.0619],[106.5753,66.5029,601.6037],[106.6155,66.4704,620.5695],[106.9258,66.5256,615.4232],[107.0171,66.5285,664.1882],[107.1493,66.507,629.1942],[107.2538,66.5294,451.702],[107.3887,66.5423,672.068],[107.5624,66.5342,658.3212],[107.611,66.4966,706.2781],[107.7031,66.5347,597.0624],[107.857,66.5017,695.9072],[107.9743,66.5413,416.3022],[108.1534,66.6386,506.088],[108.222,66.7105,662.7491],[108.3443,66.7471,445.1134],[108.4982,66.739,591.6836],[108.5844,66.7487,724.8173],[108.6722,66.7747,601.6876],[108.8032,66.7547,606.701],[108.8371,66.7091,587.0045],[108.8029,66.6759,645.9562],[108.7295,66.6575,569.2191],[108.5992,66.64,689.4514],[108.5243,66.6096,622.8866],[108.5721,66.5845,616.6445],[108.672,66.5843,562.2681],[108.793,66.5931,680.0731],[108.9408,66.6142,696.9917],[109.1006,66.6291,640.0943],[109.2834,66.6143,842.8846],[109.342,66.5745,485.3678],[109.309,66.5194,547.5858],[109.129,66.4911,598.7755],[109.1927,66.4476,597.171],[109.3451,66.4213,607.123],[109.3363,66.376,633.3768],[109.261,66.3149,740.5948],[109.107,66.2322,615.9825],[109.1418,66.1847,686.7828],[109.3082,66.1723,804.5845],[109.3924,66.145,758.634],[109.4451,66.1577,686.5902],[109.4779,66.2127,510.6551],[109.5655,66.2483,492.744],[109.8034,66.3058,338.258],[110.0036,66.3386,391.7932],[110.1304,66.4267,268.9909],[110.1888,66.4353,357.071],[110.2612,66.4054,331.6388],[110.4229,66.4381,329.698],[110.6388,66.495,393.4497],[111.2224,66.6022,503.8554],[111.6326,66.6907,357.4037],[111.8712,66.7079,381.5619],[112.1938,66.693,468.9891],[112.4035,66.6505,460.6786],[112.552,66.5871,431.7588],[112.675,66.5717,424.6399],[112.7379,66.5171,411.4571],[113.0146,66.4344,436.8489],[113.2255,66.3867,354.292],[113.3233,66.3245,315.215],[113.3428,66.2702,397.3496],[113.3293,66.1945,513.7086],[113.3391,66.1011,424.0284],[113.3952,66.0088,525.8719],[113.5369,65.9142,652.4843],[113.5073,65.8768,648.1041],[113.4036,65.8602,605.0704],[113.3122,65.8675,674.9292],[113.2119,65.9115,613.3184],[113.1458,65.9157,575.5215],[113.0215,65.8793,602.6702],[112.2786,65.5841,499.1968],[112.248,65.5395,526.9374],[112.3356,65.499,617.2098],[112.4891,65.4912,547.0861],[112.6682,65.4556,519.9996],[112.7095,65.4036,534.1138],[112.7905,65.3642,591.6397],[112.7942,65.3428,580.7946],[112.7563,65.3088,561.6362],[112.6354,65.2768,500.0895],[112.5709,65.2311,480.5928],[112.5865,65.1563,476.9088],[112.6464,65.1058,476.5138],[112.7512,65.0967,555.4048],[112.8485,65.1121,538.8072],[112.9781,65.0863,633.1761],[113.062,64.9922,522.7654],[113.1542,64.9194,428.3039],[113.2283,64.8554,395.4893],[113.3657,64.8156,430.6657],[113.5262,64.8022,380.6088],[113.6773,64.806,407.6662],[113.9913,64.7615,362.1626],[114.0498,64.7286,280.1861],[114.0732,64.6693,348.7474],[114.0825,64.5864,252.3579],[114.1341,64.531,265.1649],[114.2015,64.5163,297.3561],[114.2618,64.5223,317.0979],[114.2902,64.5437,281.9685],[114.3499,64.5641,344.6244],[114.4492,64.5883,338.4584],[114.5031,64.6139,344.6369],[114.5866,64.6107,252.254],[114.6936,64.6285,343.4343],[114.8323,64.6321,366.8365],[114.8713,64.6904,255.4923],[114.8072,64.7363,171.1635],[114.814,64.7875,373.1135],[114.8891,64.8396,342.5783],[115.0048,64.8639,422.5171],[115.1645,64.8838,352.4344],[115.3484,64.8911,343.6784],[115.408,64.9215,344.7601],[115.3945,64.9618,229.0724],[115.4203,65.0187,357.2983],[115.4852,65.0272,347.5334],[115.5549,65.0139,316.9445],[115.6659,65.0475,336.0455],[115.7859,65.0235,331.4196],[115.9698,65.0442,259.7841],[116.0421,65.0797,340.2305],[116.175,65.0364,262.0233],[116.2961,65.0379,286.0045],[116.373,65.0421,219.6723],[116.3912,65.0029,268.6275],[116.4727,64.9721,250.8718],[116.5825,64.9895,211.255],[116.6363,65.022,232.693],[116.6965,65.0456,181.1222],[116.7943,65.0567,214.5993],[116.819,65.0989,206.6264],[116.8395,65.1219,165.7956],[116.9378,65.1226,242.9348],[116.9917,65.1421,245.1246],[116.9955,65.1753,171.2139],[117.0531,65.1935,250.0229],[117.1216,65.1955,246.426],[117.2334,65.218,248.0083],[117.3515,65.2725,255.6227],[117.4369,65.341,266.6473],[117.4555,65.4073,292.6915],[117.4115,65.4534,200.6774],[117.4225,65.5207,285.9658],[117.5678,65.5799,271.8658],[117.6428,65.6449,313.7501],[117.7028,65.6571,287.2904],[117.7394,65.6822,296.3219],[117.785,65.7383,271.7645],[117.8432,65.7544,279.7322],[117.9473,65.7598,274.3403],[118.0968,65.7751,262.0194],[118.0914,65.8058,253.0674],[118.1446,65.879,269.4775],[118.2308,65.9297,273.6582],[118.3089,65.984,270.3795],[118.3503,66.0558,270.0633],[118.3472,66.1061,283.0048],[118.3092,66.1773,272.165],[118.2026,66.2166,277.9407],[118.0645,66.2742,284.1355],[118.0906,66.3581,224.8485],[118.2071,66.4434,282.41],[118.3178,66.4651,236.2075],[118.4473,66.4554,193.149],[118.5438,66.4616,261.8066],[118.6455,66.4899,198.3483],[118.7882,66.4841,202.4564],[118.8445,66.6338,275.2327],[118.8172,66.7419,281.773],[118.7726,66.8339,279.0046],[118.6697,66.938,298.0257],[118.5522,66.9453,315.1205],[118.4501,66.9761,312.5599],[118.3725,67.0231,314.7586],[118.2868,67.0615,322.0623],[118.1403,67.0828,325.2101],[117.962,67.0856,327.5791],[117.7879,67.069,330.8127],[117.6218,67.0824,329.1268],[117.5797,67.1093,334.7241],[117.5182,67.1184,336.8922],[117.4321,67.1553,306.6509],[117.4177,67.2027,314.8135],[117.4653,67.2458,210.4965],[117.6178,67.2932,241.4677],[117.7691,67.3096,259.9306],[117.9045,67.3445,182.2816],[117.9518,67.3753,181.7811],[117.8961,67.4318,306.8463],[117.7812,67.4839,267.9457],[117.7017,67.5361,319.0338],[117.582,67.5895,312.5468],[117.5577,67.6266,255.3618],[117.6857,67.684,323.2631],[117.7415,67.6943,295.4032],[117.7978,67.6727,274.9766],[117.9087,67.6904,315.6509],[118.0178,67.7234,317.1137],[118.1336,67.7293,337.9292],[118.2959,67.7124,315.171],[118.3865,67.7349,319.0018],[118.569,67.7552,325.5631],[118.7009,67.7901,295.8879],[118.6919,67.8446,267.3844],[118.7426,67.8439,267.6242],[118.7698,67.8937,198.3811],[118.7329,67.9239,204.5749],[118.6837,67.9695,272.0297],[118.7508,68.0488,260.38],[119.1098,68.0623,307.3018],[119.243,68.0527,315.7732],[119.3773,68.038,291.9402],[119.4387,68.0106,221.0903],[119.5427,68.002,155.364],[119.6517,68.0201,240.7697],[119.7166,68.0667,281.4521],[119.6923,68.1382,286.8759],[119.6876,68.1803,250.505],[119.6137,68.2214,253.2231],[119.6216,68.2667,241.6389],[119.6965,68.2707,268.9741],[119.8318,68.2596,321.6011],[119.9302,68.2675,319.3566],[119.9773,68.2981,291.2498],[119.9943,68.3624,296.3726],[120.037,68.4095,290.125],[120.096,68.4181,275.5711],[120.2191,68.4156,292.0765],[120.3355,68.4233,287.8151],[120.4401,68.4749,284.4619],[120.4723,68.5251,211.7704],[120.4705,68.5774,193.375],[120.3672,68.624,220.9807],[120.2621,68.6897,176.0136],[120.2144,68.7762,215.5372],[120.109,68.8304,177.2978],[119.9061,68.9223,238.1747],[119.6232,68.9846,277.1038],[119.4638,69.0108,285.5913],[119.4269,69.0815,299.6392],[119.4486,69.1207,292.6898],[119.5748,69.2367,296.3287],[119.6784,69.2626,305.2157],[119.7595,69.2776,306.0607],[119.8372,69.3034,302.5823],[119.9025,69.3655,297.6666],[119.9704,69.4225,301.004],[120.0474,69.4787,280.4064],[120.1082,69.5649,299.3741],[120.1196,69.6186,224.6474],[120.2265,69.7038,277.1075],[120.1761,69.7556,281.327],[120.2225,69.8767,329.7437],[120.1674,70.001,236.036],[120.0558,70.0364,350.1917],[119.9402,70.0862,227.8083],[119.9738,70.1814,306.2234],[120.1046,70.2296,204.7093],[120.2647,70.2814,290.8964],[120.3857,70.3439,182.8201],[120.4296,70.4078,134.1206],[120.4303,70.4573,85.7987],[120.621,70.4535,142.5573],[120.9093,70.443,108.7247],[121.1183,70.4559,176.8726],[121.3557,70.4885,215.4592],[121.5434,70.5359,30.8895],[121.5898,70.5901,125.5938],[121.616,70.6697,136.6682],[121.7258,70.697,201.0459],[121.7298,70.7388,231.7162],[121.6498,70.7418,194.3461],[121.6177,70.7703,180.9546],[121.6409,70.8109,213.0551],[121.7598,70.8786,212.3003],[121.938,70.9234,217.7177],[122.1141,70.9202,200.6967],[122.1645,70.956,229.117],[122.1235,71.0319,227.8948],[122.1546,71.1963,229.3426],[122.2131,71.2246,269.6282],[122.3,71.2352,246.8808],[122.3565,71.2579,299.7203],[122.3576,71.2936,250.2008],[122.3122,71.3489,229.7292],[122.2138,71.383,166.9862],[122.017,71.4075,124.2644],[121.9635,71.4356,90.2475],[121.9721,71.4965,98.3532],[121.821,71.5437,74.5355],[121.6492,71.5747,35.2511],[121.624,71.6257,26.0572],[121.6537,71.6699,25.5271],[121.5362,71.7287,61.9876],[121.3861,71.7677,64.6215],[121.2216,71.7808,59.5474],[121.1557,71.8176,69.6384],[121.0324,71.8486,96.1033],[120.8589,71.8739,103.791],[120.8024,71.9211,114.933],[120.8689,71.9705,127.9484],[120.921,72.0513,75.7122],[120.8029,72.189,62.799],[120.59,72.2382,83.445],[120.4382,72.2269,56.0342],[120.3346,72.2466,56.1296],[120.3523,72.2789,40.3352],[120.3103,72.2983,41.2638],[120.2456,72.3058,64.6036],[120.063,72.3055,38.9679],[119.7681,72.2851,13.6889],[119.5637,72.2318,20.2935],[119.3991,72.1613,40.4253],[119.1561,72.1144,39.9797],[118.8999,72.0876,63.0107],[118.6767,72.0702,68.8322],[118.4795,72.0406,57.3945],[118.336,72.0245,80.1681],[118.1525,72.0423,74.9455],[118.0944,72.1248,39.3034],[118.0327,72.1807,42.1001],[117.9149,72.2146,39.0306],[117.7906,72.2394,36.816],[117.6887,72.2335,41.747],[117.6203,72.2172,38.6313],[117.5611,72.1667,49.3537],[117.2116,72.1514,52.3553],[117.1559,72.1111,70.687],[117.0042,72.1023,68.3789],[116.8942,72.1149,74.2653],[116.8092,72.0941,76.0511],[116.6891,72.0702,49.2663],[116.5797,72.0959,91.2822],[116.4754,72.1097,86.7306],[116.3169,72.1019,73.9013],[116.233,72.0893,65.0819],[116.2284,72.0147,81.0005],[116.0584,71.9688,73.3504],[115.8683,71.9395,75.5418],[115.789,71.8991,96.8923],[115.7188,71.8513,103.6091],[115.6594,71.8037,68.5684],[115.4613,71.7645,58.832],[115.314,71.7205,85.8023],[115.2942,71.6748,52.7638],[115.1746,71.611,28.9882],[115.0195,71.592,20.2024],[114.9518,71.5817,21.2554],[114.8575,71.5085,27.0336],[114.67,71.4748,85.4933],[114.7004,71.4182,102.339],[114.6776,71.3833,111.8156],[114.3449,71.3931,244.4881],[114.2563,71.4216,256.0407],[114.1693,71.4621,235.3311],[113.9946,71.4588,199.7896],[113.8896,71.419,100.2537],[113.7088,71.4102,189.9631],[113.6264,71.4351,121.9649],[113.5729,71.49,184.4743],[113.4699,71.5367,253.8926],[113.4349,71.595,233.9204],[113.5262,71.6258,175.2623],[113.5155,71.6732,150.0162],[113.4003,71.7245,112.3839],[113.3219,71.7631,106.4088],[113.3381,71.8024,180.846],[113.3871,71.8443,182.9122],[113.3346,71.8963,182.6887],[113.2762,72.0219,183.3796],[113.2936,72.1167,48.7529],[113.2621,72.1506,75.9962],[113.1736,72.1616,52.9628],[113.0716,72.1593,50.1173],[112.8893,72.1353,60.6537],[112.6942,72.127,54.3709],[112.5583,72.1367,97.0995],[112.3598,72.1535,70.8767],[112.1535,72.1388,131.4885],[112.0149,72.1213,216.5802],[112.0507,72.0546,166.4202],[112.0581,71.9277,169.8532],[112.0277,71.7927,63.354],[112.0776,71.6739,36.7213],[112.1208,71.5286,44.408],[112.0925,71.4313,86.5243],[112.1256,71.3977,110.1878],[112.2337,71.385,116.3849],[112.3356,71.3652,100.3581],[112.3972,71.3354,124.8468],[112.5111,71.2886,169.3854],[112.6678,71.2821,191.4366],[112.7564,71.2618,181.3004],[112.7549,71.2125,158.7485],[112.6115,71.2016,152.6333],[112.5822,71.1475,169.9666],[112.6204,71.1154,143.9837],[112.5717,71.0727,132.6678],[112.4269,71.0674,155.4391],[112.3753,71.0184,161.1494],[112.3193,71.0087,146.9532],[112.24,71.0514,173.3167],[112.1752,71.0524,151.9812],[112.0013,70.9724,184.8826],[111.8586,70.9647,240.3791],[111.5809,70.9329,264.0255],[111.4812,70.8726,302.0207],[111.2757,70.8644,369.2297],[111.1253,70.8261,335.1462],[110.9818,70.7921,294.0983],[110.7623,70.7766,403.806],[110.6124,70.7528,462.4799],[110.4909,70.7036,475.1908],[110.3338,70.6938,502.2066],[110.2112,70.6602,540.4725],[110.1575,70.625,540.2719],[110.1949,70.5882,511.8172],[110.1236,70.5695,553.1367],[110.1171,70.5101,564.4346],[110.2251,70.4809,539.2681],[110.2982,70.4635,560.9872],[110.3455,70.4207,576.5139],[110.1822,70.4039,569.3317],[109.9492,70.4013,531.1798],[109.7533,70.3839,537.1378],[109.6712,70.384,564.3768],[109.626,70.3586,564.7596],[109.6652,70.3118,546.4331],[109.6126,70.2555,636.1682],[109.4213,70.2293,733.226],[109.4051,70.1723,669.9521],[109.4758,70.1443,748.8502],[109.452,70.0895,688.1917],[109.4477,70.0641,784.6789],[109.5241,70.0468,863.4428],[109.5833,70.0395,815.8878],[109.5765,70.0133,806.4389],[109.5007,69.9847,862.2639],[109.4758,69.9465,648.685],[109.4738,69.8907,563.8143],[109.3986,69.8173,727.2794],[109.3551,69.7836,813.9789],[109.1719,69.7616,855.0259],[108.9749,69.773,822.2821],[108.9255,69.798,879.4478],[108.9346,69.8479,804.4088],[108.8518,69.8551,756.0394],[108.6831,69.8421,748.8957],[108.6064,69.8425,780.316],[108.4572,69.8468,799.3659],[108.3366,69.8434,663.5609],[108.2022,69.8121,553.0757],[108.1129,69.7782,549.7531],[108.0266,69.7021,606.679],[107.9673,69.687,573.439],[107.7846,69.693,688.3105],[107.657,69.6684,712.6957],[107.5052,69.6593,585.9396],[107.3986,69.6229,552.9011],[107.3319,69.608,554.9141],[107.1787,69.5795,508.847],[107.0457,69.5484,537.8724],[106.9312,69.5367,568.1359],[106.6868,69.5363,662.4546],[106.5109,69.5755,756.2918],[106.3667,69.535,751.6653],[106.2873,69.4765,702.7447],[106.1925,69.4576,678.9353],[106.1558,69.3913,673.016],[106.5408,69.1507,451.9738],[106.9039,68.877,219.1053],[106.9601,68.6484,220.7934],[106.9331,68.1791,348.59],[106.8847,67.8931,373.2683],[106.8133,67.6379,353.4187],[106.8113,67.4827,382.699],[106.7973,67.3757,325.8822],[106.7516,67.2911,317.4298],[106.6538,67.2524,525.6533],[106.5614,67.2705,507.3744],[106.4726,67.2765,455.8398],[106.3535,67.244,367.0856],[106.2923,67.2076,470.8682],[106.2122,67.1984,395.3372],[106.0799,67.1956,465.6422],[106.0539,67.1148,643.9048],[106.0116,67.0648,649.0087],[105.927,67.0447,588.9656],[105.7269,67.0448,518.025],[105.6555,67.0388,474.8403],[105.5472,67.046,521.6592],[105.5235,67.0146,605.4464],[105.7095,66.9425,532.899],[105.8173,66.9656,523.6171],[105.9303,66.9564,472.4388],[105.9507,66.9061,694.5754],[106.0478,66.9092,601.3891],[106.1456,66.9196,474.3503],[106.1423,66.8673,465.4916],[106.0652,66.8167,574.9577],[106.1079,66.7987,590.4021],[106.2109,66.8098,623.6185],[106.2307,66.7594,442.84],[106.3121,66.7197,419.8051],[106.271,66.6467,719.7567],[106.3203,66.5916,471.6745],[106.3284,66.5196,582.5919],[106.3093,66.4952,560.0619]]]]}}