{"type":"Feature","properties":{"GID_2":"RUS.2.55_1","GID_0":"RUS","country":"Russia","GID_1":"RUS.2_1","province":"Altay","NL_NAME_1":"Алтайскийкрай","county":"Tret'yakovskiyrayon","VARNAME_2":"NA","NL_NAME_2":"Третьяковскийрайон","TYPE_2":"Raion","ENGTYPE_2":"District","CC_2":"R53094","HASC_2":"RU.AL.TR","name":"Tret'yakovskiyrayon.county"},
"geometry":{"type": "MultiPolygon","coordinates": [[[[82.8036,50.9407,977.7417],[82.7901,50.9651,765.3637],[82.7376,50.9658,740.8764],[82.6823,50.9727,790.621],[82.6591,51.0113,841.7987],[82.608,51.0386,790.7781],[82.539,51.0223,620.5311],[82.5584,50.9859,637.3185],[82.5326,50.9701,554.459],[82.4711,50.9806,538.5783],[82.3985,50.9824,471.8188],[82.3129,50.9801,418.3042],[82.2514,50.9477,357.4462],[82.2153,50.9548,436.4217],[82.1808,51.017,344.8753],[82.1224,51.092,450.3572],[82.0808,51.1397,341.7778],[81.9999,51.136,298.3865],[81.8976,51.1589,402.7274],[81.9279,51.1102,286.5],[81.9153,51.0436,337.7134],[81.9138,51.0017,326.76],[81.9168,50.9663,321.1836],[81.9351,50.9268,375.5367],[81.96,50.9085,383.3016],[81.9734,50.8635,372.4241],[81.9626,50.8512,374.3062],[81.8572,50.8307,455.8166],[81.8506,50.8177,489.2131],[81.8621,50.8212,514.6082],[81.8739,50.8206,492.0737],[81.8924,50.8156,510.9739],[81.9873,50.8099,396.4024],[82.0075,50.8042,427.7225],[82.0413,50.785,520.5444],[82.0624,50.7701,672.5524],[82.0888,50.7591,580.9092],[82.12,50.751,567.9641],[82.1411,50.7489,475.2561],[82.1673,50.7482,468.3174],[82.1964,50.7525,533.459],[82.2164,50.7595,612.1245],[82.2281,50.7679,612.9301],[82.2333,50.7764,639.525],[82.2468,50.7834,576.5917],[82.2617,50.786,661.8521],[82.308,50.7829,626.3888],[82.3372,50.7882,628.6938],[82.3553,50.7882,605.6573],[82.397,50.7806,575.3104],[82.4384,50.7808,839.3524],[82.4969,50.7668,643.6855],[82.5141,50.7652,665.3834],[82.5297,50.7659,699.8307],[82.5483,50.7692,714.5715],[82.6495,50.8106,698.5913],[82.6728,50.8234,752.6641],[82.6927,50.8383,744.841],[82.7021,50.8527,899.9434],[82.7011,50.8781,821.4862],[82.7033,50.9011,853.9277],[82.7134,50.9395,828.4348],[82.7188,50.9444,810.4347],[82.7307,50.9474,768.9159],[82.752,50.9488,739.0902],[82.7588,50.9516,779.3373],[82.8036,50.9407,977.7417]]]]}}