{"type":"Feature","properties":{"GID_3":"RUS.83.33.1_1","GID_0":"RUS","country":"Russia","GID_1":"RUS.83_1","province":"Zabaykal'ye","NL_NAME_1":"Забайкальскийкрай","GID_2":"RUS.83.33_1","county":"Tungokochenskiyrayon","NL_NAME_2":"Тунгокоченскийрайон","city":"NA","VARNAME_3":"NA","NL_NAME_3":"NA","TYPE_3":"NA","ENGTYPE_3":"NA","CC_3":"NA","HASC_3":"NA","name":"N_A.city"},
"geometry":{"type": "MultiPolygon","coordinates": [[[[113.9834,53.7136,830.6442],[113.8868,53.6388,832.9484],[113.8445,53.6153,872.408],[113.8555,53.572,988.2695],[113.86,53.5229,1030.7749],[113.8364,53.497,1094.5571],[113.8473,53.45,1149.8406],[113.846,53.411,1142.046],[113.9069,53.3714,1096.1736],[113.9433,53.3545,1202.2561],[113.944,53.276,1140.4484],[114.0114,53.2626,1033.1898],[114.0468,53.2308,1110.1215],[114.1023,53.202,1106.3003],[114.1763,53.2072,1228.756],[114.1957,53.1457,1131.946],[114.1307,53.1066,1123.47],[114.1681,53.0811,1190.7837],[114.2624,53.0778,1202.1953],[114.3026,53.0844,1092.0258],[114.4,53.0775,1256.0792],[114.4717,53.0684,1327.3186],[114.5042,53.0791,1400.1309],[114.5043,53.0239,1179.459],[114.4862,52.9579,1282.5316],[114.4746,52.9079,1265.9897],[114.4873,52.8368,1321.6387],[114.5523,52.8106,1229.4409],[114.5822,52.7681,1222.3389],[114.5785,52.7217,1214.7476],[114.5723,52.6831,1029.7739],[114.59,52.6432,1148.3135],[114.6087,52.6304,1185.8794],[114.6284,52.6043,1268.7939],[114.7482,52.5714,1128.8606],[114.8705,52.5428,938.9798],[114.9911,52.4982,728.9149],[115.0309,52.4966,744.5272],[115.0721,52.5032,710.4161],[115.1079,52.504,663.9487],[115.1197,52.4741,747.715],[115.1251,52.4272,796.4997],[115.1535,52.4166,864.2481],[115.1768,52.4295,1022.4245],[115.1568,52.3888,906.7885],[115.134,52.3373,925.4315],[115.0982,52.2884,882.1246],[115.1655,52.2904,956.575],[115.2239,52.271,1075.1846],[115.2924,52.2445,873.7946],[115.3672,52.2236,883.6356],[115.4043,52.1919,868.3915],[115.4444,52.173,762.7231],[115.5157,52.1591,930.6163],[115.5551,52.1772,739.5773],[115.5898,52.2063,735.9972],[115.6653,52.2154,784.1365],[115.7223,52.2157,770.5295],[115.8564,52.2002,679.9257],[115.841,52.2469,787.8953],[115.8597,52.2782,699.0415],[115.887,52.3188,748.825],[115.9012,52.3706,802.0186],[115.8573,52.411,841.108],[115.7776,52.4356,711.3707],[115.7449,52.463,865.6898],[115.8012,52.5069,867.3918],[115.7822,52.5407,909.3806],[115.8205,52.6409,742.4376],[115.8463,52.7174,775.9593],[115.8857,52.789,706.7111],[115.9963,52.8646,848.3204],[116.0632,52.887,1035.8746],[116.1291,52.8841,861.0814],[116.1521,52.8977,965.8082],[116.1422,52.9388,872.8592],[116.1374,52.9875,962.214],[116.1891,53.0102,1123.7867],[116.2501,53.007,1053.6041],[116.3264,53.0571,1027.4006],[116.3768,53.0733,1120.6284],[116.4193,53.0464,1007.7604],[116.4351,53.1185,906.5416],[116.4646,53.1472,1133.6819],[116.5465,53.1662,1239.0664],[116.5611,53.1443,1102.606],[116.5906,53.1239,924.918],[116.6474,53.0985,965.4773],[116.7285,53.1185,1070.6626],[116.784,53.1414,973.304],[116.8345,53.1848,1136.0878],[116.8771,53.1991,1001.7908],[117.0442,53.2485,1070.5806],[117.0969,53.3047,896.9044],[117.05029999999999,53.3438,849.4236],[116.9966,53.384,825.9721],[116.961,53.4459,990.4843],[117.0048,53.4987,1097.9995],[117.0886,53.5154,802.1273],[117.1953,53.5106,1023.9852],[117.233,53.4841,904.3335],[117.2742,53.4514,921.498],[117.3181,53.4277,915.1375],[117.3827,53.397,922.0066],[117.4548,53.3944,877.4891],[117.5417,53.4178,958.2324],[117.6317,53.4549,901.0839],[117.7726,53.4933,915.1404],[117.8438,53.5341,932.4713],[117.9125,53.6037,1096.3022],[117.9585,53.6788,1019.7568],[117.9995,53.7565,1116.6377],[118.027,53.8297,1083.7258],[118.0218,53.9232,1098.7108],[117.912,53.8922,1286.7202],[117.8496,53.8623,1302.613],[117.7712,53.832,1261.6086],[117.7204,53.8229,1178.5322],[117.6501,53.7468,1385.0066],[117.5704,53.727,1564.0679],[117.5279,53.726,1375.6858],[117.4771,53.6979,1300.1527],[117.3916,53.7185,1321.7732],[117.3554,53.7202,1622.0201],[117.2775,53.7038,1388.0361],[117.2032,53.714,1400.6521],[117.1393,53.7406,1384.0582],[117.1398,53.8112,1145.1816],[117.1426,53.8362,1110.4124],[117.1999,53.8635,1179.4612],[117.332,53.8964,1259.0516],[117.4473,53.944,1322.7571],[117.574,54.0172,1232.9941],[117.6292,54.071,1491.3933],[117.7162,54.1963,1459.02],[117.6921,54.2547,1043.0139],[117.6633,54.3157,959.8082],[117.7072,54.3298,1208.032],[117.7937,54.3156,1253.2041],[117.8263,54.3286,1274.2896],[117.8325,54.3644,1116.1794],[117.8091,54.3906,947.0146],[117.7533,54.4227,1161.5105],[117.7191,54.4552,947.7081],[117.7212,54.4879,1153.8176],[117.7482,54.514,1034.3873],[117.7899,54.5086,1028.161],[117.8359,54.4874,1357.0544],[117.915,54.4885,1180.7056],[117.9629,54.5312,1252.2834],[117.99,54.5751,1180.5544],[117.997,54.6524,1342.9893],[117.9615,54.721,1161.1183],[117.9413,54.7947,1053.1975],[117.9637,54.8629,942.4504],[117.9998,54.9253,1285.0537],[118.0416,54.9679,1071.4861],[118.1152,55.0076,1122.8035],[118.1498,55.0551,1185.51],[118.1812,55.1068,1093.7814],[118.3019,55.1666,1066.2665],[118.324,55.1849,1004.4105],[118.1514,55.1877,1049.5133],[118.0512,55.2133,1025.1086],[118.019,55.236,989.6926],[118.0048,55.2909,881.5909],[117.9573,55.3178,850.0611],[117.9032,55.3419,820.0062],[117.8744,55.3735,833.2059],[117.886,55.4328,1152.038],[117.831,55.4626,942.1194],[117.7576,55.4679,1067.1212],[117.6535,55.4897,1386.4817],[117.5904,55.5056,1302.6267],[117.541,55.5081,1411.8623],[117.4852,55.504,1096.3149],[117.4,55.5154,1342.8958],[117.33,55.5208,1563.6917],[117.2688,55.5192,1510.807],[117.2049,55.5105,1606.8591],[117.1568,55.493899999999996,1377.553],[117.1329,55.4561,1142.8442],[117.099,55.4224,989.3357],[117.0507,55.4593,1108.2893],[117.0498,55.51,998.1991],[117.0766,55.5616,1313.282],[117.0897,55.6094,1177.5922],[117.0529,55.6427,827.7218],[117.0302,55.6777,696.7543],[117.069,55.7116,715.3189],[117.0976,55.7713,912.864],[117.0951,55.8213,917.7267],[117.1095,55.8821,1255.1323],[117.0925,55.9313,1569.5421],[117.0392,55.9631,1614.9779],[116.9775,55.9885,1762.6426],[116.9013,55.9925,1492.0442],[116.8378,55.9872,1863.0425],[116.8245,55.946,1495.955],[116.8294,55.9004,1538.3745],[116.7777,55.857,1521.5999],[116.7009,55.8096,1405.6589],[116.5578,55.787,1690.741],[116.2117,55.8018,794.4087],[116.1583,55.7959,761.0039],[116.1026,55.7874,1102.2538],[116.055,55.7666,681.265],[116.0369,55.7354,924.2352],[116.0246,55.7034,713.7318],[116.0088,55.6774,778.3037],[115.9781,55.6694,799.0209],[115.9178,55.7044,691.8191],[115.8908,55.7081,710.8062],[115.8721,55.7033,617.9846],[115.9273,55.656,653.1017],[115.9226,55.5084,626.4908],[115.925,55.4603,697.4109],[115.9603,55.3721,722.5142],[116.0983,55.349,636.0988],[116.1838,55.3286,666.501],[116.4126,55.3372,581.5472],[116.4972,55.2875,831.3376],[116.5367,55.2499,1047.3982],[116.5852,55.2072,903.7822],[116.62,55.1618,699.1847],[116.6758,55.1349,638.4521],[116.7447,55.1079,774.9421],[116.825,55.0801,840.5298],[116.8659,55.0392,648.1115],[116.865,54.9943,742.8752],[116.8877,54.9467,620.6373],[116.9326,54.9108,712.0072],[116.9503,54.8743,742.019],[116.9324,54.799,641.4773],[116.8816,54.752,693.6945],[116.8672,54.6959,704.5814],[116.8118,54.6722,629.0932],[116.8122,54.6138,674.7438],[116.776,54.5995,653.748],[116.7527,54.5701,683.4352],[116.712,54.5376,672.6411],[116.5397,54.5256,695.7682],[116.4961,54.5011,685.6356],[116.3981,54.4986,680.9715],[116.2817,54.5138,719.8521],[116.0644,54.4747,695.5093],[115.8371,54.443,712.3552],[115.7048,54.4305,695.9706],[115.5676,54.3907,697.2291],[115.5148,54.3335,712.7377],[115.4592,54.2701,768.4451],[115.3671,54.2305,912.0233],[115.2239,54.1943,722.9684],[115.1576,54.1519,731.6106],[114.9411,54.0496,801.7625],[114.8557,54.0013,765.4092],[114.823,53.9908,838.1999],[114.7683,53.9823,851.1871],[114.617,53.9483,902.9124],[114.5238,53.8403,751.1589],[114.4967,53.815,760.2312],[114.4488,53.8101,770.5623],[114.3512,53.8146,821.4532],[114.3215,53.7821,819.8391],[114.0766,53.7382,774.0704],[113.9865,53.7155,830.9894],[113.9834,53.7136,830.6442]]]]}}