{"type":"Feature","properties":{"GID_2":"RUS.83.25_1","GID_0":"RUS","country":"Russia","GID_1":"RUS.83_1","province":"Zabaykal'ye","NL_NAME_1":"Забайкальскийкрай","county":"Olovyanninskiyrayon","VARNAME_2":"NA","NL_NAME_2":"Оловяннинскийрайон","TYPE_2":"Raion","ENGTYPE_2":"District","CC_2":"R64091","HASC_2":"RU.CT.OL","name":"Olovyanninskiyrayon.county"},
"geometry":{"type": "MultiPolygon","coordinates": [[[[115.8889,51.2935,604.0125],[115.8096,51.3029,605.7162],[115.8192,51.2623,613.9972],[115.7925,51.2011,651.9293],[115.7571,51.1537,655.7339],[115.7061,51.1027,699.9805],[115.6266,51.0711,579.8152],[115.5513,51.0467,612.6636],[115.5158,51.0087,687.7267],[115.4364,51.0039,622.0329],[115.2869,51.0541,692.7643],[115.2449,51.0217,686.4879],[115.2175,50.945,698.5571],[115.1771,50.9085,689.0074],[115.1947,50.8521,704.4303],[115.2695,50.8491,697.9709],[115.3581,50.8479,753.4238],[115.4166,50.8192,721.9744],[115.473,50.8111,737.1857],[115.5769,50.8114,647.8461],[115.6564,50.7824,680.5961],[115.6729,50.6981,578.7067],[115.6439,50.631,673.2762],[115.6019,50.6105,586.4548],[115.6395,50.573,650.1976],[115.6685,50.5572,589.7358],[115.7192,50.5188,614.0562],[115.7142,50.4789,648.1729],[115.7709,50.455,603.5067],[115.7512,50.3999,650.3859],[115.893,50.4203,733.6255],[115.947,50.4489,713.4671],[115.9706,50.4908,707.199],[116.115,50.4853,839.3568],[116.167,50.52,852.5137],[116.2132,50.5545,950.7725],[116.2972,50.5676,745.3956],[116.3343,50.6083,698.7382],[116.3849,50.6314,715.7187],[116.4275,50.6634,885.752],[116.4484,50.7045,821.6317],[116.4833,50.7348,909.0347],[116.5834,50.7655,879.2415],[116.6621,50.8013,1120.5942],[116.7156,50.8699,1030.3126],[116.7922,50.9493,1179.1709],[116.8015,50.9968,1249.3699],[116.7966,51.0389,1153.8325],[116.7747,51.0874,1091.7208],[116.7302,51.1434,911.5998],[116.7222,51.1897,1005.2262],[116.7629,51.2111,1084.9655],[116.8072,51.2454,1010.0751],[116.7757,51.2743,1358.0508],[116.7092,51.2885,1069.9833],[116.6896,51.3288,1016.7031],[116.6437,51.3408,910.2563],[116.5853,51.3058,867.6144],[116.5416,51.3173,868.4004],[116.5033,51.3232,919.9442],[116.418,51.3066,986.2479],[116.4042,51.3212,980.3574],[116.4007,51.3533,939.1248],[116.3501,51.3467,900.5782],[116.3348,51.3241,671.4772],[116.3024,51.3109,759.3415],[116.2528,51.3184,634.6727],[116.2027,51.3068,767.1244],[116.2205,51.2611,791.8773],[116.1735,51.2308,758.5206],[116.1239,51.2307,825.7766],[116.0805,51.197,831.0669],[116.0354,51.1826,748.5695],[116.0076,51.2069,713.5763],[116.0405,51.2709,848.7844],[116.014,51.3017,661.6914],[115.8889,51.2935,604.0125]]]]}}