{"type":"Feature","properties":{"GID_3":"RUS.9.5.1_1","GID_0":"RUS","country":"Russia","GID_1":"RUS.9_1","province":"Buryat","NL_NAME_1":"РеспубликаБурятия","GID_2":"RUS.9.5_1","county":"Gusinoozersk","NL_NAME_2":"Гусиноозерск","city":"NA","VARNAME_3":"NA","NL_NAME_3":"NA","TYPE_3":"NA","ENGTYPE_3":"NA","CC_3":"NA","HASC_3":"NA","name":"N_A.city"},
"geometry":{"type": "MultiPolygon","coordinates": [[[[106.5902,51.2831,727.1222],[106.5916,51.2917,736.2988],[106.5773,51.3041,638.6046],[106.552,51.2977,614.0513],[106.5598,51.2806,704.4006],[106.5741,51.2761,773.4565],[106.5902,51.2831,727.1222]]]]}}