{"type":"Feature","properties":{"GID_2":"RUS.80.2_1","GID_0":"RUS","country":"Russia","GID_1":"RUS.80_1","province":"Yamal-Nenets","NL_NAME_1":"Ямало-НенецкийАОк","county":"Muravlenko","VARNAME_2":"NA","NL_NAME_2":"Мценск","TYPE_2":"Gorod","ENGTYPE_2":"City","CC_2":"NA","HASC_2":"RU.YN.MU","name":"Muravlenko.county"},
"geometry":{"type": "MultiPolygon","coordinates": [[[[73.5216,63.8266,101.7969],[73.4682,63.8289,97.6244],[73.4299,63.803,97.7652],[73.4268,63.787,97.6819],[73.4618,63.7776,98.5],[73.5106,63.7822,102.6153],[73.5458,63.7999,101.567],[73.5216,63.8266,101.7969]]]]}}