{"type":"Feature","properties":{"GID_2":"RUS.9.24_1","GID_0":"RUS","country":"Russia","GID_1":"RUS.9_1","province":"Buryat","NL_NAME_1":"РеспубликаБурятия","county":"Zaigraevskiyrayon","VARNAME_2":"NA","NL_NAME_2":"Заиграевскийрайон","TYPE_2":"Raion","ENGTYPE_2":"District","CC_2":"R60000","HASC_2":"RU.BU.ZI","name":"Zaigraevskiyrayon.county"},
"geometry":{"type": "MultiPolygon","coordinates": [[[[107.7596,51.8375,527.063],[107.7915,51.8011,672.6719],[107.8268,51.7862,721.2242],[107.89,51.7813,739.9391],[107.9182,51.7546,655.8939],[107.9212,51.7033,724.5315],[107.9051,51.6751,749.7807],[107.938,51.6186,913.7096],[107.9119,51.5627,865.8014],[107.8803,51.5234,961.2684],[107.9041,51.4721,928.5526],[107.9681,51.4681,978.3674],[108.0815,51.4458,1000.6653],[108.1729,51.468,1007.3814],[108.2662,51.4842,877.5234],[108.3237,51.4909,824.5566],[108.3821,51.4737,1049.9268],[108.4405,51.4375,1062.4265],[108.4853,51.3918,1270.4612],[108.5153,51.3874,1237.7061],[108.5379,51.376,1052.1533],[108.5845,51.3949,1184.3215],[108.5988,51.4318,1082.9247],[108.5952,51.4835,1215.3652],[108.657,51.4554,1100.9575],[108.7125,51.4335,954.2839],[108.829,51.432,1051.2109],[108.9519,51.4269,1128.0896],[109.0243,51.4396,1058.6552],[109.0648,51.5054,1040.66],[109.1843,51.5232,1019.0425],[109.2955,51.5682,1050.7649],[109.3494,51.6259,980.7279],[109.3847,51.6966,1064.7312],[109.358,51.7341,947.5288],[109.3187,51.7707,806.7611],[109.4215,51.8623,1066.8542],[109.3065,51.8257,922.1022],[109.2479,51.8301,937.3887],[109.2071,51.8149,915.142],[109.1736,51.7867,1034.4114],[109.1046,51.7664,818.6094],[109.0701,51.778,873.412],[109.0051,51.7535,1018.0131],[108.7963,51.7991,921.3154],[108.6681,51.8583,1253.3417],[108.6767,51.9178,731.1226],[108.6313,51.949,789.9225],[108.6204,51.9866,571.8069],[108.6462,52.0022,669.7151],[108.6867,52.0223,601.7435],[108.7043,52.0546,678.9799],[108.6989,52.1094,669.5738],[108.7278,52.1248,686.6952],[108.7961,52.1218,769.9275],[108.8181,52.1462,913.7366],[108.7973,52.1928,966.3295],[108.7235,52.2122,798.0231],[108.6445,52.2356,636.0457],[108.6086,52.2852,808.8886],[108.5546,52.3344,1338.1078],[108.4352,52.3693,1436.1854],[108.4067,52.3213,1300.7236],[108.3628,52.3052,1097.5103],[108.272,52.2463,847.0923],[108.2457,52.1727,1476.1144],[108.1922,52.1555,1356.5441],[108.1404,52.1577,1193.9414],[108.0627,52.1432,1451.7789],[107.975,52.0685,1063.9167],[107.8767,52.0413,1291.4277],[107.7859,52.021,1061.6448],[107.7,51.9795,1242.3792],[107.684,51.9355,980.5043],[107.6329,51.9118,925.6651],[107.5505,51.9086,628.9287],[107.5761,51.8851,702.0142],[107.6666,51.8775,641.4262],[107.7182,51.867,587.4683],[107.7596,51.8375,527.063]]]]}}