{"type":"Feature","properties":{"GID_2":"RUS.35.20_1","GID_0":"RUS","country":"Russia","GID_1":"RUS.35_1","province":"Krasnoyarsk","NL_NAME_1":"Красноярскийкрай","county":"Idrinskiyrayon","VARNAME_2":"NA","NL_NAME_2":"Идринскийрайон","TYPE_2":"Raion","ENGTYPE_2":"District","CC_2":"R62091","HASC_2":"RU.KY.ID","name":"Idrinskiyrayon.county"},
"geometry":{"type": "MultiPolygon","coordinates": [[[[91.7327,54.8354,473.5847],[91.7135,54.8166,462.8424],[91.7203,54.7714,584.4603],[91.7191,54.7421,557.8242],[91.6998,54.6895,469.8941],[91.7258,54.6457,576.1952],[91.7682,54.6188,639.287],[91.808,54.5688,677.2411],[91.8248,54.5317,865.3152],[91.7965,54.4829,346.1062],[91.7751,54.4173,322.6545],[91.7842,54.3641,232.0],[91.8169,54.3172,293.4217],[91.8542,54.277,355.1833],[91.8469,54.239,456.7077],[91.8705,54.1841,428.54],[91.9082,54.1769,492.9274],[91.9763,54.1719,492.1868],[92.0891,54.1794,446.1118],[92.1987,54.1928,366.4936],[92.2527,54.2114,456.6364],[92.3659,54.2596,477.9602],[92.4432,54.2861,519.4498],[92.5922,54.3165,426.5365],[92.6556,54.3482,423.868],[92.7061,54.3544,503.186],[92.8225,54.3613,610.4568],[92.9192,54.3732,630.2131],[93.0238,54.39,614.1694],[93.0958,54.4886,963.2757],[93.1039,54.5594,697.5581],[93.0892,54.6286,780.025],[93.0544,54.6939,730.1389],[93.0066,54.7118,680.321],[92.9463,54.7115,792.7413],[92.9123,54.692,892.5873],[92.864,54.6724,1040.7599],[92.8197,54.6878,938.5953],[92.7771,54.726,936.4367],[92.7765,54.7843,755.4382],[92.7994,54.8187,643.1967],[92.8265,54.8415,689.2134],[92.8486,54.8839,693.9591],[92.8237,54.9279,791.3937],[92.759,54.9556,677.1078],[92.6891,54.961,670.9746],[92.614,54.9413,719.6849],[92.5041,54.932,677.2603],[92.4191,54.9426,582.786],[92.2737,55.01,703.166],[92.2235,54.9928,456.2493],[92.2134,54.9738,559.2932],[92.1519,54.9412,350.7553],[92.1322,54.9205,484.3795],[92.1691,54.883,394.991],[92.1764,54.8571,467.4764],[92.074,54.846,538.639],[92.0069,54.8467,646.0312],[91.915,54.86,696.7065],[91.7934,54.8355,451.9217],[91.7327,54.8354,473.5847]]]]}}