{"type":"Feature","properties":{"GID_3":"RUS.29.5.1_1","GID_0":"RUS","country":"Russia","GID_1":"RUS.29_1","province":"Khakass","NL_NAME_1":"РеспубликаХакасия","GID_2":"RUS.29.5_1","county":"Bogradskiyrayon","NL_NAME_2":"Боградскийрайон","city":"NA","VARNAME_3":"NA","NL_NAME_3":"NA","TYPE_3":"NA","ENGTYPE_3":"NA","CC_3":"NA","HASC_3":"NA","name":"N_A.city"},
"geometry":{"type": "MultiPolygon","coordinates": [[[[90.9664,54.5747,361.9867],[90.855,54.6268,314.0432],[90.8707,54.6638,232.0],[90.9153,54.7911,232.0],[90.8405,54.8389,246.0369],[90.7149,54.8312,325.452],[90.7235,54.8713,309.9975],[90.6849,54.9047,341.0114],[90.534,54.8855,526.1237],[90.4583,54.8708,464.4474],[90.4729,54.7676,422.8976],[90.4715,54.7125,472.7448],[90.4834,54.6778,493.2963],[90.5304,54.6461,424.8827],[90.5447,54.6143,408.3998],[90.5155,54.5871,362.252],[90.4762,54.5855,410.8025],[90.4076,54.5924,436.1472],[90.3749,54.5648,490.3196],[90.4019,54.525,413.4962],[90.4182,54.5053,388.793],[90.4224,54.4112,477.5682],[90.4707,54.3889,593.5291],[90.5149,54.3551,554.5097],[90.4921,54.3082,594.8958],[90.4608,54.3009,658.5817],[90.4125,54.2518,737.3101],[90.3497,54.2279,817.2974],[90.2837,54.2092,821.8448],[90.2347,54.2323,803.7669],[90.1447,54.2269,877.3033],[90.0983,54.2081,827.3688],[90.0389,54.2008,1018.275],[89.9915,54.2286,933.1369],[89.9476,54.2265,904.367],[89.9018,54.1938,936.8856],[89.9661,54.173,1145.4734],[90.02,54.1486,891.3135],[90.0779,54.0988,1009.8539],[90.1532,54.0515,915.7914],[90.2471,54.0132,746.0804],[90.3078,54.0315,743.3614],[90.2897,54.0583,762.658],[90.2814,54.1007,903.6625],[90.3266,54.1267,957.2513],[90.4215,54.1361,771.1457],[90.4617,54.1075,826.1815],[90.4703,54.0761,824.1104],[90.5929,54.1162,857.9202],[90.6626,54.114,709.1998],[90.7132,54.1367,846.5214],[90.761,54.1142,763.5877],[90.7431,54.0879,811.1938],[90.7735,54.0602,858.6482],[90.8697,54.0638,793.5345],[90.9223,54.005,719.1082],[90.9601,53.9166,450.0554],[91.0286,53.8966,406.7654],[91.0801,53.9092,381.7126],[91.1693,53.9275,373.0084],[91.2417,53.917,326.8811],[91.4651,53.9661,237.0],[91.4639,54.0566,486.5464],[91.4125,54.1166,294.1459],[91.3117,54.223,330.2391],[91.2517,54.2749,335.2922],[91.2095,54.3383,302.1057],[91.1868,54.4389,239.931],[91.159,54.4879,369.6252],[91.0948,54.5239,526.6599],[90.9664,54.5747,361.9867]]]]}}