{"type":"Feature","properties":{"GID_2":"RUS.9.8_1","GID_0":"RUS","country":"Russia","GID_1":"RUS.9_1","province":"Buryat","NL_NAME_1":"РеспубликаБурятия","county":"Khorinskiyrayon","VARNAME_2":"NA","NL_NAME_2":"Хоринскийрайон","TYPE_2":"Raion","ENGTYPE_2":"District","CC_2":"R60002","HASC_2":"RU.BU.KH","name":"Khorinskiyrayon.county"},
"geometry":{"type": "MultiPolygon","coordinates": [[[[110.4452,53.0864,1482.4655],[110.379,53.0697,1419.1603],[110.278,53.0582,1288.0276],[110.1943,53.0393,1093.5737],[110.1076,53.0327,1093.0708],[110.0011,53.0196,1055.3357],[109.9364,52.9904,999.1824],[109.9452,52.984,1071.4846],[109.9173,52.97,1115.7145],[109.8768,52.9811,1507.8909],[109.8002,52.9771,1505.3298],[109.7238,52.9313,1333.8428],[109.6459,52.9087,1163.1544],[109.585,52.9234,1141.5684],[109.5208,52.894,1352.3429],[109.4581,52.9246,1141.3103],[109.4066,52.9227,973.1721],[109.2934,52.9039,1497.0308],[109.212,52.8537,1293.1713],[109.1119,52.8002,1207.3164],[109.008,52.7795,1192.0466],[108.891,52.7699,1474.8652],[108.8598,52.7327,1682.7637],[108.8211,52.6776,1308.5304],[108.7635,52.6508,1469.7108],[108.7599,52.601,1641.7755],[108.6834,52.5535,1142.8607],[108.6357,52.4822,1426.2905],[108.5757,52.4509,1422.7583],[108.4725,52.4072,1354.0516],[108.4352,52.3693,1436.1854],[108.5546,52.3344,1338.1078],[108.6086,52.2852,808.8886],[108.6445,52.2356,636.0457],[108.7235,52.2122,798.0231],[108.7973,52.1928,966.3295],[108.8181,52.1462,913.7366],[108.7961,52.1218,769.9275],[108.7278,52.1248,686.6952],[108.6989,52.1094,669.5738],[108.7043,52.0546,678.9799],[108.6867,52.0223,601.7435],[108.6462,52.0022,669.7151],[108.6204,51.9866,571.8069],[108.6313,51.949,789.9225],[108.6767,51.9178,731.1226],[108.6681,51.8583,1253.3417],[108.7963,51.7991,921.3154],[109.0051,51.7535,1018.0131],[109.0701,51.778,873.412],[109.1046,51.7664,818.6094],[109.1736,51.7867,1034.4114],[109.2071,51.8149,915.142],[109.2479,51.8301,937.3887],[109.3065,51.8257,922.1022],[109.4215,51.8623,1066.8542],[109.4447,51.8829,1120.7859],[109.5127,51.9529,1026.0198],[109.5864,52.0157,979.5397],[109.655,52.0562,984.0872],[109.7121,52.0856,749.1831],[109.7974,52.0832,667.342],[109.864,52.0562,758.3427],[109.9006,52.0113,838.6976],[109.9632,51.9563,853.7327],[110.0049,51.9494,908.9932],[110.0815,51.9542,765.5064],[110.184,51.9337,767.5936],[110.2066,51.9221,796.0381],[110.296,51.9301,800.5424],[110.3541,51.9686,1125.2743],[110.3178,52.008,992.3062],[110.2872,52.0722,868.4277],[110.3152,52.1558,963.1855],[110.3816,52.2458,962.545],[110.4394,52.2512,912.6077],[110.4784,52.2951,774.1828],[110.5399,52.2982,770.8542],[110.5544,52.3192,761.5388],[110.5124,52.4039,812.9004],[110.5105,52.4928,1067.3848],[110.5339,52.5772,1154.4197],[110.5918,52.5993,1104.6445],[110.6383,52.6012,1160.0474],[110.6656,52.6217,1299.1556],[110.6582,52.6849,1057.5706],[110.6766,52.7239,1097.2083],[110.7467,52.7383,1077.9828],[110.7452,52.7598,1211.2972],[110.6555,52.8246,1107.4058],[110.6646,52.8859,1253.7173],[110.6968,52.917,1129.6077],[110.7348,52.9698,1300.6334],[110.7421,53.0192,1248.6615],[110.7076,53.0616,1494.9882],[110.5809,53.0667,1651.661],[110.4985,53.0655,1330.2836],[110.4452,53.0864,1482.4655]]]]}}