{"type":"Feature","properties":{"GID_3":"RUS.2.22.1_1","GID_0":"RUS","country":"Russia","GID_1":"RUS.2_1","province":"Altay","NL_NAME_1":"Алтайскийкрай","GID_2":"RUS.2.22_1","county":"Krutikhinskiyrayon","NL_NAME_2":"Крутихинскийрайон","city":"NA","VARNAME_3":"NA","NL_NAME_3":"NA","TYPE_3":"NA","ENGTYPE_3":"NA","CC_3":"NA","HASC_3":"NA","name":"N_A.city"},
"geometry":{"type": "MultiPolygon","coordinates": [[[[81.4732,54.0519,142.3014],[81.4477,54.0872,110.0],[81.4234,54.0869,110.5],[81.3521,54.0798,111.5],[81.2802,54.0838,173.8002],[81.2422,54.1142,171.3006],[81.2093,54.1247,189.9602],[81.1111,54.1158,206.0315],[81.0961,54.1359,190.3205],[81.0932,54.174,226.0954],[81.0782,54.1941,223.1036],[81.0281,54.2253,238.7292],[80.9485,54.2694,217.6865],[80.9232,54.3188,196.6234],[80.913,54.3614,180.8219],[80.8569,54.3652,172.8063],[80.8018,54.3445,173.1174],[80.7813,54.3174,179.7229],[80.8174,54.2792,199.0858],[80.8191,54.2502,205.7055],[80.7488,54.2467,196.6971],[80.6554,54.2278,195.8269],[80.6289,54.2063,199.6725],[80.5778,54.2069,193.8987],[80.5079,54.1684,193.83],[80.5288,54.1219,208.5788],[80.4625,54.1019,211.914],[80.4819,54.0741,220.4179],[80.5095,54.043,227.4936],[80.5022,53.9973,212.6651],[80.5463,53.9814,192.4491],[80.5681,53.9455,193.1817],[80.5951,53.8774,179.7041],[80.664,53.7213,228.4541],[80.7225,53.7522,229.398],[80.8217,53.7732,224.6356],[80.9118,53.7802,176.0054],[81.0446,53.7312,182.0713],[81.1326,53.765,177.6783],[81.2503,53.8076,133.7392],[81.3182,53.8632,114.9339],[81.3117,53.9252,135.3995],[81.3289,53.9856,132.0454],[81.4019,54.025,141.5936],[81.4732,54.0519,142.3014]]]]}}