{"type":"Feature","properties":{"GID_2":"RUS.60.21_1","GID_0":"RUS","country":"Russia","GID_1":"RUS.60_1","province":"Sakha","NL_NAME_1":"РеспубликаСаха","county":"Nyurbinskiyrayon","VARNAME_2":"Leninskiy","NL_NAME_2":"Нюрбинскийрайон","TYPE_2":"Raion","ENGTYPE_2":"District","CC_2":"R65002","HASC_2":"RU.SK.NR","name":"Nyurbinskiyrayon.county"},
"geometry":{"type": "MultiPolygon","coordinates": [[[[114.2965,64.1363,318.7936],[114.3981,64.1067,328.2961],[114.5742,64.1262,376.5521],[114.6794,64.118,300.1129],[114.7485,64.0764,318.7888],[114.8764,64.0835,337.0455],[115.041,64.0342,284.9737],[115.1764,63.9684,269.2413],[115.1964,63.9498,339.1458],[115.1898,63.8674,216.4819],[115.3249,63.7755,196.2432],[115.493,63.6357,169.802],[115.6587,63.5135,182.1286],[115.8472,63.3927,240.1002],[116.1201,63.2731,163.9232],[116.2977,63.2035,205.9467],[116.522,63.1632,198.007],[116.8243,63.1303,176.9526],[117.0987,63.1055,229.3458],[117.4025,63.0861,165.8172],[117.675,63.0571,131.6192],[117.9848,63.0008,176.4967],[118.213,62.9431,187.7618],[118.2775,62.8979,165.5424],[118.3264,62.8518,191.0003],[118.3855,62.8352,234.3283],[118.6022,62.8191,268.0657],[118.8853,62.7932,271.5287],[118.9765,62.7889,274.1416],[119.0898,62.7762,286.7085],[119.1845,62.759,274.4349],[119.2815,62.7482,300.5445],[119.3776,62.7477,297.5495],[119.4767,62.7493,315.2278],[119.5716,62.7583,285.2716],[119.5894,62.813,249.2172],[119.5867,62.8666,261.7167],[119.5587,62.9171,243.2975],[119.487,62.9696,235.5522],[119.4534,63.0377,256.2796],[119.4565,63.1046,203.8405],[119.5098,63.1977,160.9082],[119.649,63.2843,132.9069],[119.7244,63.352,199.2716],[119.7676,63.4101,174.3312],[119.7721,63.463,121.5879],[119.755,63.5177,182.1636],[119.669,63.5657,110.3183],[119.6356,63.6244,114.3845],[119.6101,63.716,113.0235],[119.6124,63.788,122.2079],[119.6078,63.8843,174.4257],[119.5196,63.9765,127.4112],[119.4062,64.0727,125.147],[119.2657,64.1431,137.3851],[119.1606,64.2343,177.1059],[119.1177,64.3317,136.5384],[119.0804,64.4378,135.4757],[119.1032,64.8282,146.5173],[119.0694,64.9407,148.0356],[119.0155,65.034,181.7905],[118.9721,65.1221,157.3818],[118.8892,65.2264,179.2719],[118.8192,65.2903,201.7518],[118.7087,65.3571,168.8904],[118.5719,65.4269,215.7955],[118.6323,65.5141,204.896],[118.6267,65.5666,191.7047],[118.5079,65.6954,208.9075],[118.4551,65.7156,211.5295],[118.4265,65.7519,239.182],[118.4144,65.7816,236.8429],[118.3553,65.8091,222.8188],[118.2887,65.8128,215.9724],[118.2076,65.7947,252.9279],[118.0968,65.7751,262.0194],[117.9473,65.7598,274.3403],[117.8432,65.7544,279.7322],[117.785,65.7383,271.7645],[117.7394,65.6822,296.3219],[117.7028,65.6571,287.2904],[117.6428,65.6449,313.7501],[117.5678,65.5799,271.8658],[117.4225,65.5207,285.9658],[117.4115,65.4534,200.6774],[117.4555,65.4073,292.6915],[117.4369,65.341,266.6473],[117.3515,65.2725,255.6227],[117.2334,65.218,248.0083],[117.1216,65.1955,246.426],[117.0531,65.1935,250.0229],[116.9955,65.1753,171.2139],[116.9917,65.1421,245.1246],[116.9378,65.1226,242.9348],[116.8395,65.1219,165.7956],[116.819,65.0989,206.6264],[116.7943,65.0567,214.5993],[116.6965,65.0456,181.1222],[116.6363,65.022,232.693],[116.5825,64.9895,211.255],[116.4727,64.9721,250.8718],[116.3912,65.0029,268.6275],[116.373,65.0421,219.6723],[116.2961,65.0379,286.0045],[116.175,65.0364,262.0233],[116.0421,65.0797,340.2305],[115.9698,65.0442,259.7841],[115.7859,65.0235,331.4196],[115.6659,65.0475,336.0455],[115.5549,65.0139,316.9445],[115.4852,65.0272,347.5334],[115.4203,65.0187,357.2983],[115.3945,64.9618,229.0724],[115.408,64.9215,344.7601],[115.3484,64.8911,343.6784],[115.1645,64.8838,352.4344],[115.0048,64.8639,422.5171],[114.8891,64.8396,342.5783],[114.814,64.7875,373.1135],[114.8072,64.7363,171.1635],[114.8713,64.6904,255.4923],[114.8323,64.6321,366.8365],[114.6936,64.6285,343.4343],[114.5866,64.6107,252.254],[114.5031,64.6139,344.6369],[114.4492,64.5883,338.4584],[114.3499,64.5641,344.6244],[114.2902,64.5437,281.9685],[114.2618,64.5223,317.0979],[114.2015,64.5163,297.3561],[114.2686,64.4991,230.945],[114.3198,64.4635,270.0565],[114.2935,64.3348,313.5158],[114.3012,64.2677,343.3152],[114.3129,64.2002,311.7167],[114.2965,64.1363,318.7936]]]]}}