{"type":"Feature","properties":{"GID_2":"RUS.2.10_1","GID_0":"RUS","country":"Russia","GID_1":"RUS.2_1","province":"Altay","NL_NAME_1":"Алтайскийкрай","county":"Burlinskiyrayon","VARNAME_2":"NA","NL_NAME_2":"Бурлинскийрайон","TYPE_2":"Raion","ENGTYPE_2":"District","CC_2":"R53090","HASC_2":"RU.AL.BU","name":"Burlinskiyrayon.county"},
"geometry":{"type": "MultiPolygon","coordinates": [[[[78.2006,53.0019,124.6051],[78.2001,53.0037,124.8402],[78.2505,53.0186,124.4298],[78.2712,52.9882,121.0009],[78.2999,52.9605,119.9953],[78.3304,52.9493,116.5559],[78.3632,52.9645,115.7587],[78.3726,52.9817,116.0861],[78.3516,53.0129,110.3416],[78.3702,53.0224,108.9887],[78.4094,53.0378,98.0],[78.4066,53.0708,103.1438],[78.373,53.1014,97.4919],[78.345,53.1025,100.8986],[78.300299999999993,53.1663,104.2222],[78.3884,53.1896,95.3112],[78.4315,53.1733,92.3229],[78.4655,53.1475,86.0],[78.5941,53.1785,123.3301],[78.5896,53.2034,126.2963],[78.6089,53.2206,132.437],[78.673,53.2494,127.8796],[78.6743,53.2868,131.4812],[78.7174,53.3019,129.7576],[78.7164,53.3208,126.5084],[78.8036,53.3463,124.3733],[78.8293,53.3751,121.2921],[78.9128,53.3845,122.7453],[78.9959,53.409,129.3976],[78.9452,53.4707,120.5754],[78.8729,53.5017,120.6615],[78.8243,53.5133,117.0252],[78.7673,53.5224,117.9929],[78.7533,53.5788,119.6875],[78.7367,53.6051,120.4089],[78.7094,53.6246,127.9026],[78.6933,53.6559,128.9252],[78.6401,53.6323,127.5516],[78.6142,53.5977,124.0852],[78.629,53.5605,121.7694],[78.5905,53.5282,121.3034],[78.4451,53.5161,117.367],[78.3654,53.4937,108.6856],[78.2906,53.4828,110.2495],[78.2075,53.5056,112.9092],[78.1784,53.5362,113.4768],[78.1962,53.5923,112.2796],[78.1726,53.6106,114.946],[78.1289,53.5961,114.1325],[78.0996,53.5626,110.1881],[78.0529,53.5534,110.732],[78.022,53.5673,115.316],[77.9558,53.5579,109.5946],[77.9587,53.4867,108.2287],[77.9788,53.4744,106.4819],[78.0587,53.4655,110.8957],[78.063,53.4501,108.5421],[78.0423,53.4383,106.776],[77.9602,53.4343,106.9529],[77.9425,53.4202,108.3051],[77.9791,53.3883,100.883],[77.9573,53.3619,101.3421],[77.9158,53.3718,106.8724],[77.8717,53.3065,106.8612],[77.9115,53.2785,102.1323],[77.9334,53.2594,107.5081],[77.9774,53.2143,102.3985],[78.0285,53.1666,113.6917],[78.0923,53.0987,128.1287],[78.1231,53.0731,128.9255],[78.1683,53.0285,125.1334],[78.2006,53.0019,124.6051]]]]}}