{"type":"Feature","properties":{"GID_3":"RUS.61.22.1_1","GID_0":"RUS","country":"Russia","GID_1":"RUS.61_1","province":"Sakhalin","NL_NAME_1":"Сахалинскаяобласть","GID_2":"RUS.61.22_1","county":"Uglegorskiyrayon","NL_NAME_2":"Углегорскийрайон","city":"NA","VARNAME_3":"NA","NL_NAME_3":"NA","TYPE_3":"NA","ENGTYPE_3":"NA","CC_3":"NA","HASC_3":"NA","name":"N_A.city"},
"geometry":{"type": "MultiPolygon","coordinates": [[[[142.5632,49.0101,683.2119],[142.5549,49.0604,488.8941],[142.5316,49.0996,556.5049],[142.5128,49.1475,543.382],[142.5764,49.2281,777.0941],[142.5896,49.2597,620.9738],[142.5663,49.2956,885.9043],[142.5305,49.3422,534.1182],[142.4934,49.4036,478.254],[142.5386,49.4687,799.8218],[142.5104,49.4893,890.6973],[142.52,49.5392,909.3073],[142.4936,49.5711,877.0707],[142.4497,49.6063,687.0261],[142.43,49.6512,334.2165],[142.3886,49.7027,330.5023],[142.3441,49.7402,465.117],[142.2965,49.7629,491.8028],[142.1639,49.7791,3.9888],[142.1622,49.7749,0.0],[142.1563,49.771,14.0985],[142.1593,49.7651,1.8899],[142.1593,49.7563,1.1875],[142.1582,49.7523,21.531],[142.155,49.7513,10.4443],[142.1575,49.7482,6.5958],[142.1545,49.7446,3.13],[142.1539,49.7261,0.3739],[142.1587,49.7193,25.9094],[142.159,49.7156,0.0],[142.157,49.7107,0.9914],[142.157,49.6975,3.9439],[142.1527,49.6947,22.6588],[142.1521,49.6927,29.0258],[142.1582,49.686,24.1386],[142.1589,49.6789,10.1267],[142.157,49.6752,0.0],[142.1574,49.6582,0.0],[142.1547,49.6501,25.9243],[142.155,49.6454,0.1976],[142.1564,49.6444,0.6671],[142.1473,49.6308,0.0],[142.1451,49.6212,4.7932],[142.1448,49.6055,12.2951],[142.1477,49.583,0.0],[142.1459,49.5701,35.0176],[142.147,49.5657,10.0774],[142.1425,49.5498,1.5948],[142.1438,49.5168,73.7979],[142.134,49.4959,0.0],[142.133,49.4867,0.0],[142.1295,49.4794,13.1318],[142.1288,49.4517,0.4242],[142.1217,49.4437,4.5985],[142.1085,49.4364,0.0],[142.1019,49.4296,0.0],[142.0987,49.4224,0.0],[142.0972,49.4061,1.0568],[142.09,49.3976,0.0],[142.0778,49.3568,12.5227],[142.0708,49.3529,0.0],[142.0731,49.3436,0.0],[142.069,49.3394,0.0],[142.0737,49.3375,0.0],[142.0777,49.3326,0.0],[142.0738,49.3233,47.8539],[142.0744,49.3161,31.9527],[142.0706,49.3006,0.0],[142.07,49.2817,0.0],[142.0712,49.277,0.0],[142.0748,49.2734,1.3673],[142.0719,49.2572,6.0908],[142.0772,49.2446,0.0],[142.0894,49.233,0.0],[142.0945,49.2234,2.7965],[142.0863,49.2124,7.1465],[142.0834,49.207,1.6942],[142.0834,49.2037,7.4139],[142.0677,49.194,2.2508],[142.0665,49.1903,7.5897],[142.0669,49.1817,6.2536],[142.0686,49.1804,1.1695],[142.0675,49.1758,1.3664],[142.0608,49.1643,2.207],[142.0536,49.1612,1.0144],[142.0589,49.16,1.0],[142.0739,49.161,8.0177],[142.078,49.1542,5.719],[142.0841,49.1556,2.6302],[142.0793,49.1443,1.8708],[142.0819,49.1381,1.0],[142.0856,49.135,3.8781],[142.0762,49.1346,4.391],[142.0706,49.1361,8.1599],[142.0648,49.149,5.2901],[142.0661,49.1514,1.0],[142.0634,49.1521,1.0],[142.0493,49.1529,4.1652],[142.0457,49.1555,0.3588],[142.036,49.1514,3.7609],[142.0307,49.1466,40.4055],[142.0306,49.1345,38.3016],[142.0284,49.1313,0.0],[142.0301,49.1247,0.0],[142.0295,49.1209,0.0],[142.0341,49.1086,2.6997],[142.0336,49.1047,1.2837],[142.0411,49.0892,4.2666],[142.0358,49.0808,0.6448],[142.0322,49.0795,0.3892],[142.0327,49.0744,8.0338],[142.0294,49.072,0.3454],[142.0291,49.0686,0.0],[142.0308,49.0649,16.1263],[142.0292,49.056399999999996,0.6223],[142.0305,49.055,0.0],[142.0278,49.0433,1.1418],[142.0142,49.0306,3.1465],[142.0146,49.0242,7.0518],[142.0125,49.0142,41.409],[142.0067,49.0011,2.4007],[142.0074,48.9918,2.0168],[142.0052,48.9877,2.1221],[142.0059,48.9663,27.8496],[142.0026,48.957,0.0],[142.0043,48.9458,45.3634],[142.0,48.9394,54.1523],[141.9881,48.9356,4.6717],[141.9883,48.9294,5.6105],[141.9858,48.9272,2.1289],[141.9794,48.9286,13.1549],[141.974,48.9251,28.0281],[141.966,48.9232,19.0342],[141.9594,48.9239,0.0],[141.9578,48.9217,0.3985],[141.9608,48.9172,37.098],[141.9589,48.9153,15.2764],[141.9592,48.9125,18.983],[141.9611,48.9108,28.6367],[141.9611,48.9083,2.6435],[141.9647,48.9064,0.8462],[141.9644,48.9017,0.7247],[141.9722,48.8936,0.0],[141.9703,48.8872,0.7268],[141.9711,48.8847,6.5491],[141.9797,48.8783,8.4581],[141.9772,48.8728,6.6763],[141.9658,48.8622,2.0109],[141.9444,48.8483,2.9117],[141.9281,48.8414,6.7585],[141.9181,48.8431,2.7818],[141.9125,48.8392,0.5716],[141.9097,48.8347,6.219],[141.9023,48.8326,0.9465],[141.9016,48.8297,19.1429],[141.8956,48.8242,2.3783],[141.8836,48.8189,0.6842],[141.8781,48.8128,0.0],[141.8711,48.8008,0.3488],[141.865,48.7953,9.5709],[141.8572,48.7925,0.6959],[141.8561,48.7881,18.8333],[141.8494,48.7817,0.0],[141.8486,48.7791,8.3675],[141.8506,48.777,3.8689],[141.8478,48.7736,3.5259],[141.8486,48.7717,2.294],[141.8469,48.7664,0.0],[141.8497,48.7647,40.5579],[141.8492,48.7614,0.0],[141.8528,48.7569,0.0],[141.8544,48.7511,30.9646],[141.8517,48.7433,2.3769],[141.8606,48.7358,12.1038],[141.8628,48.7211,0.0],[141.865,48.7167,2.8736],[141.8625,48.7122,0.0],[141.8669,48.7053,6.9491],[141.8669,48.7003,0.0],[141.8711,48.6947,0.0],[141.8725,48.6897,22.9002],[141.8722,48.6847,7.6788],[141.8681,48.681399999999996,0.0],[141.8678,48.6786,0.0],[141.8775,48.6706,0.5007],[141.8839,48.6611,0.0],[141.8883,48.6472,0.0],[141.9067,48.6283,1.0404],[141.9261,48.5967,3.6414],[141.9639,48.5478,1.2316],[141.9779,48.5331,3.2412],[141.9955,48.571,57.1317],[142.0072,48.5839,50.2778],[142.0246,48.6127,274.9175],[142.0201,48.669,420.6622],[142.049,48.6749,309.2263],[142.089,48.6684,477.821],[142.1346,48.6645,399.9965],[142.1639,48.679,295.0457],[142.1959,48.7041,197.9997],[142.2201,48.7015,174.5845],[142.2651,48.6838,148.2302],[142.3056,48.6541,118.9234],[142.3582,48.6435,204.5928],[142.434,48.6407,485.7581],[142.5104,48.6125,248.0344],[142.4701,48.7419,613.8477],[142.4602,48.8062,781.3275],[142.4742,48.8714,846.3779],[142.507,48.9204,808.2781],[142.5459,48.9697,616.3657],[142.5632,49.0101,683.2119]],
[[142.1161,49.0101,13.9457],[142.1057,49.008,30.3202],[142.0969,49.0122,70.9783],[142.1018,49.0241,86.9855],[142.1102,49.028,40.2605],[142.1206,49.024,8.9145],[142.1232,49.0165,7.6801],[142.1161,49.0101,13.9457]]]]}}