{"type":"Feature","properties":{"GID_3":"RUS.28.12.1_1","GID_0":"RUS","country":"Russia","GID_1":"RUS.28_1","province":"Khabarovsk","NL_NAME_1":"Хабаровскийкрай","GID_2":"RUS.28.12_1","county":"Nanayskiyrayon","NL_NAME_2":"Нанайскийрайон","city":"NA","VARNAME_3":"NA","NL_NAME_3":"NA","TYPE_3":"NA","ENGTYPE_3":"NA","CC_3":"NA","HASC_3":"NA","name":"N_A.city"},
"geometry":{"type": "MultiPolygon","coordinates": [[[[135.1221,49.0025,124.9176],[135.1257,48.9219,48.2349],[135.1774,48.8427,39.1513],[135.2077,48.786,32.3841],[135.2734,48.8201,34.7675],[135.3801,48.8026,29.9797],[135.4348,48.7778,30.7575],[135.4706,48.7953,30.9938],[135.5709,48.8521,31.7498],[135.6941,48.8569,33.3063],[135.7634,48.8779,36.7021],[135.839,48.8975,30.2857],[135.9266,48.9547,29.4918],[135.9913,48.9887,28.2464],[136.0669,48.9895,28.1845],[136.1571,48.9556,28.4938],[136.1865,48.8915,32.3784],[136.1515,48.8111,28.2358],[136.0916,48.7578,29.4462],[136.0441,48.7182,30.2548],[136.0506,48.6682,48.7085],[136.0614,48.6153,41.5484],[136.0617,48.5582,39.1702],[136.1712,48.4885,61.9607],[136.2229,48.4319,69.6678],[136.2722,48.4073,147.5429],[136.3552,48.3974,158.8199],[136.3826,48.3657,301.8389],[136.3867,48.2798,159.1732],[136.4772,48.2625,272.3344],[136.5331,48.2204,385.9889],[136.6076,48.2438,488.5656],[136.6712,48.2319,513.8675],[136.7387,48.2475,792.6034],[136.7178,48.3216,394.624],[136.7307,48.3603,522.7574],[136.797,48.3972,513.5247],[136.7981,48.4394,646.2437],[136.7583,48.4586,584.7787],[136.7738,48.5448,395.3677],[136.8093,48.5919,603.0507],[136.8832,48.6328,373.662],[136.9545,48.6997,443.4744],[136.9899,48.7549,554.8291],[137.0422,48.8457,547.7605],[137.1668,48.9374,715.7111],[137.2918,48.8877,527.8757],[137.3583,48.9041,671.9965],[137.4456,48.8819,882.6727],[137.5747,48.8911,894.4641],[137.6565,48.821,852.9108],[137.6443,48.7626,1240.3295],[137.6051,48.7269,781.7059],[137.6795,48.7293,712.9113],[137.79,48.7863,1048.3322],[137.8956,48.7838,875.821],[137.9284,48.7222,910.1482],[137.8959,48.6962,898.9187],[137.8222,48.6324,917.5203],[137.8019,48.5825,908.5992],[137.8059,48.5506,955.7517],[137.7683,48.5372,1083.3687],[137.6594,48.5286,1018.4022],[137.5757,48.4561,951.7066],[137.5815,48.4172,888.9495],[137.5335,48.384,1389.0087],[137.472,48.3292,872.7185],[137.4709,48.2669,1072.7444],[137.5476,48.2048,1075.7839],[137.5641,48.2159,1067.1023],[137.5847,48.2261,1162.332],[137.6317,48.2295,1164.6793],[137.6779,48.2238,1089.556],[137.7172,48.2146,1201.324],[137.7401,48.1966,1270.3252],[137.7648,48.2008,851.5507],[137.8065,48.2272,1604.5271],[137.8668,48.2237,1619.5903],[137.9126,48.244,1212.5479],[137.9187,48.2874,1004.7018],[137.9537,48.3008,921.4772],[138.0014,48.3108,1116.1882],[138.0632,48.3075,1262.7103],[138.1111,48.3299,1172.8823],[138.1644,48.3249,1032.0361],[138.1903,48.3379,1010.1967],[138.1643,48.3647,1211.6375],[138.1606,48.3851,1430.8594],[138.1971,48.4175,1441.6483],[138.238,48.4356,1319.1945],[138.2877,48.4529,1335.4783],[138.3351,48.4535,1177.9457],[138.328,48.4911,1115.2296],[138.2562,48.5281,1122.6287],[138.2168,48.5679,976.4675],[138.1519,48.5913,1239.9751],[138.1319,48.6426,1142.3126],[138.1706,48.6961,946.3613],[138.2449,48.7407,814.934],[138.4177,48.8489,754.4299],[138.4796,48.8831,959.1241],[138.5209,48.9387,793.2132],[138.5322,48.9998,791.7196],[138.5226,49.0448,835.4182],[138.5099,49.0826,877.6725],[138.4704,49.1382,649.439],[138.53,49.1495,899.1295],[138.5717,49.1939,807.1979],[138.6322,49.2221,908.2183],[138.6727,49.2886,977.7097],[138.7194,49.2849,858.6151],[138.7974,49.3645,793.1549],[138.7871,49.444,819.1516],[138.8159,49.5167,1314.7152],[138.7663,49.5202,1179.0979],[138.6683,49.4762,912.1622],[138.5993,49.4252,933.0725],[138.4733,49.4043,1058.0703],[138.3465,49.4106,1223.7324],[138.2792,49.4483,1135.0802],[138.205,49.4397,1086.1219],[138.1148,49.467,950.2185],[138.127,49.5089,916.3947],[138.0805,49.5566,568.0807],[138.2027,49.6364,814.0974],[138.1194,49.6544,497.9469],[138.0784,49.7113,961.6523],[138.0091,49.7128,1001.9064],[137.9519,49.68,477.311],[137.9022,49.7005,664.4039],[137.8509,49.6997,579.9784],[137.7943,49.6645,354.9502],[137.7233,49.6571,460.0461],[137.7138,49.6923,416.6915],[137.6674,49.7124,451.0362],[137.5969,49.6567,550.6931],[137.5993,49.6015,379.6007],[137.5642,49.5586,360.3945],[137.4709,49.6965,293.8728],[137.4451,49.7632,227.4548],[137.4597,49.8209,174.6169],[137.4784,49.878,116.564],[137.4767,49.9183,70.6446],[137.4136,49.8958,105.3232],[137.3479,49.9191,74.1016],[137.2359,49.9433,44.0082],[137.1267,49.9547,36.6108],[137.0383,49.9473,115.3096],[136.952,49.9358,140.6164],[136.8815,49.9231,155.5076],[136.8175,49.9516,23.8378],[136.7658,49.9719,17.0],[136.7173,49.9795,18.8292],[136.6605,49.9479,20.2987],[136.6321,49.9133,168.7248],[136.5587,49.9099,17.0],[136.5439,49.867,30.14],[136.4576,49.8167,22.9998],[136.3714,49.7572,27.2559],[136.2794,49.6823,21.3707],[136.1911,49.5915,23.1973],[136.1186,49.5668,23.3792],[136.0498,49.5241,30.177],[135.9833,49.4496,20.8538],[135.9264,49.4013,22.297],[135.8508,49.3869,23.0869],[135.7855,49.3912,22.5418],[135.7473,49.381,22.8895],[135.6912,49.3405,23.4763],[135.6574,49.2935,26.4886],[135.5494,49.2684,25.8187],[135.4756,49.2592,26.1823],[135.437,49.246,27.164],[135.3902,49.1708,30.6535],[135.3798,49.1243,30.5698],[135.3444,49.0851,34.0533],[135.1221,49.0025,124.9176]]]]}}