{"type":"Feature","properties":{"ISO3166-1-Alpha-3":"RUS","country":"Russia","id":"2321","name":"Ayon Island"},
"geometry":{"type": "MultiPolygon","coordinates": [[[[184.20183,71.41205,1.0],[184.18922,71.41169,1.0],[184.24012,71.38972,1.0],[184.26189,71.38369,1.0],[184.30458,71.3808,1.0],[184.32142,71.37564,1.0],[184.33363,71.36664,1.0],[184.34974,71.357,1.0],[184.37135,71.35175,1.0],[184.39125,71.35395,1.0],[184.40992,71.3581,1.0],[184.42522,71.36416,1.0],[184.42567,71.37352,1.0],[184.42071,71.37832,1.0],[184.41432,71.37987,1.0],[184.40105,71.38109,1.0],[184.3827,71.38105,1.0],[184.20183,71.41205,1.0]]]]}}