{"type":"Feature","properties":{"GID_3":"RUS.80.1.1_1","GID_0":"RUS","country":"Russia","GID_1":"RUS.80_1","province":"Yamal-Nenets","NL_NAME_1":"Ямало-НенецкийАОк","GID_2":"RUS.80.1_1","county":"Krasnosel'kupskiyrayon","NL_NAME_2":"Красноселькупскийрайон","city":"NA","VARNAME_3":"NA","NL_NAME_3":"NA","TYPE_3":"NA","ENGTYPE_3":"NA","CC_3":"NA","HASC_3":"NA","name":"N_A.city"},
"geometry":{"type": "MultiPolygon","coordinates": [[[[84.5145,62.1781,147.6826],[84.5364,62.2272,151.3868],[84.5863,62.2653,177.3516],[84.6786,62.3164,160.5322],[84.8335,62.3985,138.6361],[84.9179,62.4466,146.5244],[84.9527,62.4876,95.8501],[84.9697,62.5397,126.1767],[84.9604,62.5787,109.9775],[85.0001,62.6062,140.8119],[85.0378,62.6418,158.668],[85.0431,62.6684,121.3488],[85.15,62.7103,146.5454],[85.215,62.7543,166.1238],[85.2783,62.7766,207.285],[85.352,62.8613,131.0959],[85.4306,62.8869,95.8739],[85.5087,62.9227,91.0073],[85.5307,62.9667,82.8351],[85.535,63.0052,103.1815],[85.5913,63.0257,81.7988],[85.6163,63.0755,114.9484],[85.6035,63.1021,124.9818],[85.539,63.144,102.5922],[85.5344,63.1704,95.8691],[85.5873,63.2035,89.0017],[85.5646,63.2486,81.0833],[85.6113,63.3609,87.3173],[85.5513,63.3773,70.9005],[85.4558,63.3697,100.5824],[85.41,63.3939,73.5488],[85.3745,63.4637,71.7498],[85.3457,63.4831,73.974],[85.2913,63.5056,68.4616],[85.2208,63.5068,60.0],[85.1506,63.5323,70.5603],[85.122,63.5787,71.0375],[85.2257,63.6123,75.0756],[85.2808,63.642,73.6959],[85.3146,63.6676,73.9441],[85.3192,63.7164,76.8789],[85.3194,63.7572,81.7268],[85.3263,63.8015,82.1253],[85.3565,63.8379,85.61],[85.4186,63.8579,92.816],[85.5027,63.8745,106.9461],[85.6865,63.9627,112.5365],[85.9614,64.0516,139.9195],[85.9681,64.1031,141.8286],[85.9625,64.135,140.8094],[85.9488,64.1662,122.5289],[85.9842,64.1908,142.3252],[85.9777,64.2244,147.5686],[85.9656,64.2658,159.9396],[85.9296,64.3107,125.5255],[85.8903,64.3653,139.2718],[85.915,64.4028,113.4566],[85.8185,64.492,88.9458],[85.8392,64.5272,116.7472],[85.9214,64.5718,120.5633],[85.9046,64.6082,132.7204],[85.8717,64.6339,120.2071],[85.8664,64.6982,121.3254],[85.8554,64.7564,132.2883],[85.8134,64.7858,127.9942],[85.7184,64.79,168.3467],[85.6901,64.8143,170.6537],[85.6403,64.8282,144.9931],[85.5627,64.8367,134.8437],[85.4591,64.8159,107.0828],[85.3528,64.7725,125.5753],[85.2551,64.7798,115.8168],[85.2091,64.7959,115.3784],[85.1607,64.8274,106.1598],[85.0175,64.8488,101.728],[85.0461,64.8618,113.0668],[85.1006,64.8912,93.5122],[85.0761,64.9231,102.0977],[84.9855,64.9227,85.1396],[84.8404,64.904,120.4546],[84.7147,64.8944,109.5355],[84.5674,64.9029,90.7406],[84.4226,64.907,63.7576],[84.3824,64.9327,80.0789],[84.4156,64.9556,82.3478],[84.4495,64.9943,68.0751],[84.437,65.0265,64.9425],[84.4039,65.0595,48.0508],[84.3462,65.0815,43.8521],[84.3387,65.105,82.4205],[84.3674,65.1329,116.2031],[84.4144,65.1749,120.6185],[84.5512,65.2163,124.0846],[84.6534,65.2691,119.5548],[84.6348,65.3091,95.8873],[84.5708,65.3902,96.5334],[84.5744,65.4221,133.8463],[84.5838,65.4472,124.1815],[84.5479,65.4855,97.2848],[84.513,65.5053,96.0029],[84.4135,65.5346,113.7839],[84.2064,65.5558,106.6344],[84.179,65.567,111.5382],[84.2032,65.5834,113.4878],[84.2774,65.5899,95.9327],[84.3581,65.6109,75.5423],[84.353,65.63,60.9322],[84.3113,65.6575,98.5562],[84.1312,65.6963,53.1725],[83.9601,65.7573,56.997],[83.868,65.7572,88.8649],[83.7565,65.7374,80.1817],[83.634,65.7528,54.0379],[83.5731,65.7866,67.7324],[83.5399,65.8951,42.4318],[83.5,65.9246,39.5417],[83.4049,65.967,35.7965],[83.3717,66.014,37.0732],[83.4112,66.0461,37.3866],[83.4646,66.0535,34.0276],[83.4632,66.0805,37.054],[83.4669,66.1033,37.1183],[83.5102,66.1227,42.0857],[83.6047,66.1426,37.8777],[83.5538,66.1776,39.6803],[83.3754,66.3302,38.5141],[83.2167,66.3951,41.8518],[83.1174,66.455,33.3802],[83.1082,66.4999,62.6456],[83.1642,66.5432,45.1799],[83.2178,66.5721,53.817],[83.3142,66.6027,44.7907],[83.3521,66.6515,29.6023],[83.2938,66.6886,42.7237],[83.2536,66.7378,47.9956],[83.2396,66.7841,56.8096],[83.1428,66.8136,61.9808],[83.0797,66.8248,59.2425],[83.0618,66.882,65.0497],[82.8919,66.9441,69.9666],[82.7878,66.9766,46.9061],[82.6175,66.9678,52.2942],[82.3747,66.9494,41.4306],[82.2309,66.9611,27.9135],[82.1734,66.9304,31.8252],[82.166,66.9004,37.4673],[82.1368,66.8539,38.0362],[82.0379,66.844,35.202],[81.8906,66.8842,7.069],[81.786,66.8687,8.8388],[81.6979,66.8343,7.4811],[81.6927,66.7433,4.2948],[81.7764,66.6914,7.1339],[81.7895,66.6308,9.7265],[81.7678,66.5558,15.4598],[81.6914,66.484,16.5865],[81.561,66.4248,30.9046],[81.422,66.4228,24.3195],[81.2547,66.4108,23.0144],[80.9685,66.4109,25.533],[80.5363,66.4202,43.1727],[80.3241,66.4405,54.6719],[80.2239,66.4461,53.0407],[80.1644,66.4425,40.4463],[80.0176,66.4099,54.193],[79.9137,66.375,64.2536],[79.8809,66.3623,62.0073],[79.864,66.3411,68.4131],[79.8219,66.3374,67.1841],[79.7318,66.2853,64.7812],[79.6364,66.2169,59.1233],[79.5888,66.1043,64.7219],[79.554,66.0827,69.6318],[79.3675,66.0782,73.7997],[79.3184,66.0479,73.3901],[79.3718,65.9969,59.9183],[79.4714,65.9616,57.9976],[79.6301,65.9378,73.8],[79.7672,65.8902,76.6085],[80.0516,65.7346,65.3734],[80.1021,65.7117,72.4854],[80.1441,65.6906,65.826],[80.1624,65.6731,64.3358],[80.1245,65.6285,65.2169],[80.0882,65.6002,54.6443],[80.0591,65.5746,61.18],[80.0628,65.5307,57.4551],[80.1179,65.4924,54.3715],[80.161,65.4545,50.0045],[80.1734,65.4353,44.6246],[80.0856,65.3568,47.552],[80.0533,65.3176,54.5692],[80.0657,65.2804,52.6294],[80.0699,65.2479,50.2026],[80.0662,65.2257,55.9228],[80.0196,65.2054,51.6644],[79.9489,65.2046,50.1939],[79.9264,65.231,49.3362],[79.854,65.2233,56.5285],[79.7955,65.1919,54.7116],[79.7013,65.168,50.7089],[79.609,65.1537,50.9589],[79.5161,65.146,55.1717],[79.4488,65.1292,62.0281],[79.5227,65.0966,52.718],[79.6489,65.0701,48.7024],[79.7612,65.0492,45.2016],[79.7916,65.0277,41.5229],[79.7922,64.9644,35.1945],[79.805,64.915,28.0884],[79.8627,64.8811,31.3725],[79.9268,64.8717,33.5671],[79.8959,64.8165,36.2968],[79.8181,64.7787,38.3957],[79.6814,64.7025,52.0867],[79.6367,64.6367,61.1818],[79.5978,64.5576,66.7252],[79.5881,64.4757,58.2303],[79.5315,64.3788,44.077],[79.3651,64.2713,47.1069],[79.349,64.2368,55.2263],[79.3638,64.1819,56.2216],[79.4079,64.1292,54.9942],[79.4664,64.0747,54.5468],[79.7298,64.0022,56.34],[79.8211,63.9798,61.3278],[79.8612,63.9578,61.1777],[79.8576,63.8871,62.2697],[79.8332,63.8267,75.3507],[79.8036,63.7979,91.0474],[79.7991,63.7527,89.0457],[79.7396,63.6959,71.8357],[79.6689,63.6308,70.4216],[79.5317,63.5647,72.7386],[79.4141,63.5261,81.0389],[79.3491,63.4843,81.161],[79.3482,63.4318,88.2023],[79.4092,63.3625,98.6985],[79.4562,63.3121,96.5412],[79.4885,63.273,97.7333],[79.4876,63.2472,94.8588],[79.4751,63.2196,92.032],[79.4972,63.1886,92.8757],[79.6223,63.1542,94.067],[79.7639,63.1507,91.737],[79.8835,63.1725,115.3287],[79.9166,63.2418,106.4855],[79.9121,63.282,99.0389],[79.9571,63.3159,103.7167],[80.0775,63.3375,82.6011],[80.1554,63.3398,89.0784],[80.1684,63.315,121.7281],[80.1434,63.2641,109.4245],[80.1517,63.2273,131.1977],[80.1856,63.1997,168.2166],[80.2564,63.1744,159.3753],[80.3188,63.1831,184.1205],[80.4694,63.2446,110.1199],[80.6409,63.2726,165.7906],[80.7597,63.2773,161.2946],[80.871,63.261,158.3336],[80.9285,63.229,169.5079],[80.9621,63.1909,169.7809],[80.9889,63.1339,197.0434],[81.0113,63.1028,181.9371],[81.0669,63.0469,177.8572],[81.1793,62.991,156.3462],[81.3376,62.9183,176.6128],[81.3056,62.8924,180.3456],[81.3023,62.8646,189.2271],[81.3499,62.8359,191.4024],[81.4398,62.8034,169.9248],[81.5152,62.7869,163.8698],[81.6179,62.8069,167.7196],[81.672,62.7639,163.0585],[81.757,62.7108,154.6639],[81.852,62.6854,137.4987],[81.9314,62.6956,138.1208],[81.9474,62.7343,135.8904],[81.9846,62.7796,126.2145],[82.0406,62.8149,153.4835],[82.1283,62.8223,176.3089],[82.1922,62.8031,180.3541],[82.317,62.7623,159.0715],[82.4004,62.7519,158.0338],[82.583,62.7642,199.5276],[82.7917,62.7568,155.6581],[82.7954,62.7291,158.8845],[82.7977,62.6458,163.4334],[82.8394,62.6312,157.7616],[83.076,62.6053,157.3725],[83.0963,62.5843,147.7005],[83.1027,62.5326,151.0407],[83.1461,62.5143,173.7544],[83.2242,62.489,172.5381],[83.3938,62.4547,159.0424],[83.4542,62.4571,160.7825],[83.6078,62.5303,182.9015],[83.6257,62.5202,183.0486],[83.622,62.4777,167.3218],[83.6623,62.4796,176.1881],[83.7132,62.507,178.1749],[83.8022,62.5406,186.4174],[83.8676,62.5341,176.5757],[83.9241,62.5172,167.9015],[83.9827,62.4846,173.7485],[84.0307,62.4367,156.1848],[84.1102,62.3756,152.547],[84.2203,62.3806,162.4461],[84.3079,62.3344,175.4409],[84.3258,62.2682,150.8848],[84.4067,62.2417,149.8034],[84.4557,62.1977,164.3533],[84.5145,62.1781,147.6826]]]]}}