{"type":"Feature","properties":{"GID_2":"RUS.9.9_1","GID_0":"RUS","country":"Russia","GID_1":"RUS.9_1","province":"Buryat","NL_NAME_1":"РеспубликаБурятия","county":"Kizhinginskiyrayon","VARNAME_2":"NA","NL_NAME_2":"Кижингинскийрайон","TYPE_2":"Raion","ENGTYPE_2":"District","CC_2":"R60001","HASC_2":"RU.CT.KH","name":"Kizhinginskiyrayon.county"},
"geometry":{"type": "MultiPolygon","coordinates": [[[[109.4215,51.8623,1066.8542],[109.3187,51.7707,806.7611],[109.358,51.7341,947.5288],[109.3847,51.6966,1064.7312],[109.3494,51.6259,980.7279],[109.2955,51.5682,1050.7649],[109.1843,51.5232,1019.0425],[109.0648,51.5054,1040.66],[109.0243,51.4396,1058.6552],[109.0565,51.4452,990.5465],[109.0687,51.408,1042.5452],[109.1118,51.3917,1029.4929],[109.1983,51.3763,1189.7479],[109.2466,51.3499,1173.2531],[109.436,51.3954,931.3371],[109.5109,51.4055,1145.1808],[109.6316,51.4274,1189.1355],[109.6741,51.4558,1120.2633],[109.7374,51.5068,1282.3708],[109.803,51.5423,1301.9626],[109.8978,51.5835,1112.0638],[109.9657,51.5939,1095.7455],[110.065,51.5927,1082.2422],[110.2295,51.5839,1104.17],[110.3523,51.5867,1209.9163],[110.377,51.5452,1035.0845],[110.4133,51.5149,1211.9221],[110.5353,51.4928,1201.9209],[110.6572,51.4973,1164.4653],[110.7121,51.5134,1441.6494],[110.727,51.5404,1222.9377],[110.7615,51.5567,1221.0488],[110.8109,51.5695,1093.3867],[110.8281,51.5981,1045.6296],[110.8217,51.6358,1216.1118],[110.8414,51.6631,1240.1705],[110.9094,51.691,1390.8081],[110.9713,51.7204,1310.1985],[110.9951,51.7462,1114.2451],[111.0071,51.7771,1214.1345],[111.0418,51.7999,1190.9103],[111.1097,51.8219,1386.3885],[111.222,51.8362,1222.8315],[111.2777,51.867,1356.9456],[111.4332,51.8858,1191.9973],[111.4607,51.893,1359.8158],[111.5431,51.9256,1376.3318],[111.6214,51.9404,1132.4473],[111.6699,51.9756,1424.4127],[111.744,52.0465,1476.2981],[111.8395,52.112,1110.5226],[111.7543,52.0896,1079.1549],[111.6836,52.0919,1291.3389],[111.6563,52.1157,1121.6421],[111.618,52.0955,1145.3258],[111.5446,52.1027,1118.2642],[111.5361,52.1253,1041.6958],[111.4947,52.1336,1034.3342],[111.4482,52.0992,1042.8564],[111.3084,52.107,1127.9895],[111.2627,52.1383,1167.3677],[111.1954,52.1399,1085.6096],[111.0933,52.0897,958.5764],[111.0298,52.1002,1013.875],[111.0107,52.1548,1087.552],[110.9611,52.162,989.6031],[110.8953,52.1229,905.0444],[110.7968,52.073,937.7874],[110.6574,52.0206,802.8093],[110.59,52.0115,866.7846],[110.4673,52.0212,947.3922],[110.405,52.0021,943.2164],[110.296,51.9301,800.5424],[110.2066,51.9221,796.0381],[110.184,51.9337,767.5936],[110.0815,51.9542,765.5064],[110.0049,51.9494,908.9932],[109.9632,51.9563,853.7327],[109.9006,52.0113,838.6976],[109.864,52.0562,758.3427],[109.7974,52.0832,667.342],[109.7121,52.0856,749.1831],[109.655,52.0562,984.0872],[109.5864,52.0157,979.5397],[109.5127,51.9529,1026.0198],[109.4447,51.8829,1120.7859],[109.4215,51.8623,1066.8542]]]]}}