{"type":"Feature","properties":{"GID_2":"RUS.29.10_1","GID_0":"RUS","country":"Russia","GID_1":"RUS.29_1","province":"Khakass","NL_NAME_1":"РеспубликаХакасия","county":"Ust'-Abakanskiyrayon","VARNAME_2":"NA","NL_NAME_2":"Усть-Абаканскийрайон","TYPE_2":"Raion","ENGTYPE_2":"District","CC_2":"R62010","HASC_2":"RU.KK.UA","name":"Ust'-Abakanskiyrayon.county"},
"geometry":{"type": "MultiPolygon","coordinates": [[[[89.2239,53.7723,1159.9396],[89.2594,53.7654,1421.4441],[89.365,53.7739,1306.4329],[89.4174,53.7238,1637.7484],[89.3846,53.6921,1361.525],[89.2948,53.6786,1629.6802],[89.2657,53.65,1417.869],[89.1864,53.6283,1236.317],[89.1454,53.5984,1117.918],[89.209,53.5789,1412.8884],[89.3008,53.5843,1071.2919],[89.3756,53.5641,649.2933],[89.4663,53.5353,918.5306],[89.5477,53.5441,672.4459],[89.6475,53.5584,970.2471],[89.7902,53.5665,1212.4771],[89.8466,53.5424,1049.6631],[89.8819,53.4998,924.6014],[89.929,53.496,1165.5215],[89.9533,53.4366,1236.6399],[90.0278,53.4242,1017.1459],[90.138,53.4446,987.5248],[90.2141,53.4902,968.6918],[90.3011,53.501,688.0145],[90.3684,53.5603,621.833],[90.4659,53.5838,569.2538],[90.5088,53.55,590.238],[90.5962,53.5522,583.6075],[90.5847,53.5016,787.7524],[90.5298,53.4829,474.1672],[90.4318,53.4622,817.7122],[90.3538,53.4239,900.9199],[90.4131,53.41,782.6497],[90.5048,53.4182,582.0101],[90.6228,53.4315,561.0237],[90.708,53.4316,626.2842],[90.7919,53.3912,411.5177],[90.8317,53.3331,481.64],[90.8595,53.2758,311.5247],[90.9115,53.3262,303.9862],[90.9788,53.3384,299.3685],[91.0748,53.3796,292.1957],[91.0924,53.427,286.2595],[91.1788,53.4764,283.5276],[91.2627,53.5108,439.8289],[91.3269,53.5253,359.6483],[91.3764,53.5632,324.4203],[91.3954,53.5932,263.0442],[91.4544,53.6062,298.6431],[91.4135,53.668,253.094],[91.3333,53.7577,252.533],[91.3266,53.8167,249.0344],[91.3622,53.8553,275.7001],[91.4216,53.893,290.2941],[91.4651,53.9661,237.0],[91.2417,53.917,326.8811],[91.1693,53.9275,373.0084],[91.0801,53.9092,381.7126],[91.0286,53.8966,406.7654],[90.9601,53.9166,450.0554],[90.9223,54.005,719.1082],[90.8697,54.0638,793.5345],[90.7735,54.0602,858.6482],[90.7431,54.0879,811.1938],[90.761,54.1142,763.5877],[90.7132,54.1367,846.5214],[90.6626,54.114,709.1998],[90.5929,54.1162,857.9202],[90.4703,54.0761,824.1104],[90.4617,54.1075,826.1815],[90.4215,54.1361,771.1457],[90.3266,54.1267,957.2513],[90.2814,54.1007,903.6625],[90.2897,54.0583,762.658],[90.3078,54.0315,743.3614],[90.2471,54.0132,746.0804],[90.1532,54.0515,915.7914],[90.0779,54.0988,1009.8539],[90.02,54.1486,891.3135],[89.9661,54.173,1145.4734],[89.9018,54.1938,936.8856],[89.838,54.1631,870.468],[89.72,54.1437,793.4777],[89.6376,54.1405,966.5754],[89.5634,54.1077,879.0129],[89.5071,54.0941,1054.5022],[89.4663,54.1104,932.0079],[89.3598,54.0863,873.2206],[89.316,54.0416,1026.8242],[89.2949,53.9741,960.9225],[89.2618,53.9276,927.0219],[89.2183,53.9049,1084.769],[89.1568,53.9024,1113.95],[89.167,53.8704,1484.3234],[89.2008,53.8388,1429.6064],[89.222,53.8078,1961.6838],[89.2239,53.7723,1159.9396]]]]}}