{"type":"Feature","properties":{"featurecla":"Lake","scalerank":9,"name":"Ozero Kuchukskoye","name_abb":"O. Kuchukskoye","name_alt":"Lake Kuchukskoye","note":null,"delta":null,"dam_name":null,"year":-99,"admin":null,"min_zoom":7.0,"min_label":8.0},
"geometry":{"type": "Polygon","coordinates": [[[79.756933983757676,52.627121154926186,97.5],[79.772535282495653,52.61740713873084,97.5],[79.789608401869316,52.616229682222325,97.8267],[79.810802619022752,52.620056415875013,104.469],[79.83081937966773,52.627121154926186,103.4637],[79.844360129515792,52.635657714612989,106.0459],[79.87085290095763,52.656263203512225,115.9426],[79.87909509651729,52.668626496851743,118.4768],[79.882333101915776,52.690115078132351,115.0968],[79.880566917152976,52.698946001946325,114.8794],[79.876151455245974,52.708365654014528,109.8344],[79.870264172703344,52.717785306082732,102.5211],[79.864965618415,52.724261316879648,101.5673],[79.862021977143684,52.731326055930793,102.579],[79.863493797779313,52.748104811177313,108.6896],[79.861727613016569,52.7545808219742,116.6191],[79.847598134914222,52.76606102293232,116.1516],[79.828170102523529,52.774597582619151,110.1191],[79.808447706005722,52.780190501034639,101.0916],[79.792846407267746,52.7825454140517,97.7026],[79.721610288501893,52.771065213093578,101.3111],[79.71042445167086,52.765177930550948,97.5],[79.707186446272431,52.753992093719944,97.5],[79.693056968170083,52.729559871167993,97.5],[79.689818962771653,52.717490941955617,97.5],[79.692468239915854,52.703950192107555,97.5],[79.698944250712714,52.689526349878093,97.5],[79.71454554945069,52.664211034944771,97.5],[79.731324304697239,52.654497018749424,97.5],[79.756933983757676,52.627121154926186,97.5]]]}}