{"type":"Feature","properties":{"featurecla":"Lake","scalerank":9,"name":"Ozero Gorkoye","name_abb":"O. Gorkoye","name_alt":"Lake Gorkoye","note":null,"delta":null,"dam_name":null,"year":-99,"admin":null,"min_zoom":7.0,"min_label":8.0},
"geometry":{"type": "Polygon","coordinates": [[[81.512816002098077,52.570308878389767,207.4009],[81.523413110674824,52.57649052505954,225.205],[81.526651116073253,52.580905986966513,230.6715],[81.523118746547709,52.5873819977634,210.7866],[81.513404730352363,52.595918557450233,213.9782],[81.513404730352363,52.599156562848663,211.7811],[81.519586377022108,52.603866388882778,205.006],[81.519586377022108,52.61151985618821,199.6168],[81.505751263046932,52.604455117137036,198.5],[81.464245921121346,52.5770792533138,198.5],[81.437753149679509,52.566187780609937,198.5],[81.426567312848476,52.559417405685906,198.5],[81.416558932526016,52.549409025363417,198.5],[81.434220780153908,52.5491146612363,200.9223],[81.45041080714617,52.553530123143275,207.1891],[81.465129013502747,52.561183590448678,200.123],[81.478669763350808,52.570308878389767,198.5],[81.461302279850031,52.551469574253332,198.5],[81.272614874358624,52.480822183741736,198.9588],[81.248477015933815,52.464337792622359,198.5],[81.234347537831525,52.445498488485953,198.5],[81.210504043533831,52.405759331323168,199.3589],[81.19137037527031,52.389569304330934,198.5],[81.14456647905638,52.36337089701621,203.8834],[81.126021539047088,52.348063962405348,198.5],[81.120722984758686,52.345414685261176,198.5],[81.115424430470341,52.3418823157356,199.0376],[81.111597696817626,52.336878125574344,198.5],[81.10865405554631,52.330107750650342,199.7788],[81.129259544445517,52.330402114777456,200.8614],[81.14544957143778,52.336878125574344,204.7566],[81.159579049540071,52.347475234151091,203.1239],[81.173414163515247,52.361310348126295,200.1183],[81.231698260687324,52.395456586873564,199.5162],[81.236996814975726,52.405464967196025,198.5],[81.249654472442387,52.42018317355263,198.5],[81.264372678798964,52.433429559273549,198.5],[81.276441608011339,52.439316841816179,198.5],[81.282917618808256,52.44108302657898,198.5],[81.336786254073331,52.4655152491309,198.5],[81.369460672184971,52.488475651047168,198.5],[81.500158344631416,52.558828677431649,209.7226],[81.512816002098077,52.570308878389767,207.4009]]]}}