{"type":"Feature","properties":{"featurecla":"Lake","scalerank":5,"name":"Ozero Kulundinskoye","name_abb":"O. Kulundinskoye","name_alt":"Lake Kulundinskoye","note":null,"delta":null,"dam_name":null,"year":-99,"admin":null,"min_zoom":4.7,"min_label":6.0},
"geometry":{"type": "Polygon","coordinates": [[[79.78813658123363,53.009500156070231,101.3832],[79.778422565038284,53.015387438612862,103.565],[79.767236728207308,53.025101454808208,101.6847],[79.766059271698737,53.028928188460924,100.8569],[79.769591641224338,53.032754922113611,101.148],[79.772535282495653,53.0427633024361,101.631],[79.774301467258454,53.062191334826792,101.8047],[79.772829646622768,53.074848992293454,102.2197],[79.761643809791792,53.081619367217485,98.0],[79.734562310095669,53.0836799161074,102.8744],[79.713956821196462,53.092216475794231,101.1863],[79.686286593246052,53.129895084067073,102.0279],[79.66597546847396,53.138431643753904,103.3601],[79.618877208132915,53.145790746932192,100.3269],[79.596799898598022,53.146968203440707,99.5763],[79.573839496681785,53.138431643753904,98.0],[79.627708131946861,53.133427453592645,98.0],[79.651257262117383,53.125773986287243,98.0],[79.66273746307553,53.104874133260893,98.0],[79.542048170951546,53.131072540575616,98.0],[79.487590807432184,53.1237134373973,98.0],[79.40045902580124,53.060425150063992,98.1273],[79.395749199767124,53.053360411012846,98.0],[79.389273188970208,53.014504346231462,98.0],[79.377204259757832,52.987128482408224,98.0],[79.379853536901976,52.967406085890389,98.0],[79.389273188970208,52.947978053499696,98.0],[79.40134211818264,52.930610569998947,98.0],[79.436665813438424,52.894109418234621,98.0],[79.48906262806787,52.864378641394296,98.0],[79.545874904604261,52.842595695986574,98.0],[79.594444985580992,52.83052676677417,98.0],[79.734562310095669,52.823462027723,100.8494],[79.75222415772356,52.834353500426886,102.4715],[79.764587451063107,52.857019538216008,102.2905],[79.763115630427421,52.878508119496644,101.6935],[79.738389043748384,52.884984130293532,98.0],[79.743393233909615,52.864378641394296,98.0],[79.730146848188667,52.854370261071836,105.158],[79.712485000560775,52.860846271868724,100.5306],[79.70365407674683,52.888810863946247,98.0],[79.716606098340662,52.923840195074916,107.8456],[79.7201384678662,52.944151319846981,102.402],[79.71042445167086,52.9600469827121,101.5051],[79.74545378279953,52.97505955319582,98.0],[79.780777478055313,52.971527183670247,98.0],[79.808742070132837,52.972410276051619,102.6807],[79.820222271090984,53.001257960510543,102.1286],[79.798439325683262,53.005673422417516,101.0941],[79.78813658123363,53.009500156070231,101.3832]]]}}