{"type":"Feature","properties":{"featurecla":"Lake","scalerank":9,"name":"Ozero Bol'shoye Topol'noye","name_abb":"O. Bol'shoye Topol'noye","name_alt":"Lake Bol'shoye Topol'noye","note":null,"delta":null,"dam_name":null,"year":-99,"admin":null,"min_zoom":7.0,"min_label":8.0},
"geometry":{"type": "Polygon","coordinates": [[[78.061396611479267,53.351845635924349,102.5016],[78.0487389540126,53.364797657518153,108.552],[78.039613666071489,53.368035662916583,101.6866],[78.013120894629651,53.3821651410189,100.7668],[77.997813960018789,53.38540314641736,101.3297],[77.9792690200095,53.3839313257817,101.0146],[77.96690572667,53.379810228001872,101.2844],[77.957780438728889,53.373334217204956,101.174],[77.948949514914943,53.364797657518153,100.9234],[77.928344026015736,53.33771615782203,101.3146],[77.928638390142851,53.31858248955848,101.3408],[77.9392354987196,53.29856572891353,101.0374],[77.948949514914943,53.268540587946092,100.8591],[77.948949514914943,53.275310962870122,101.1249],[77.975147922229667,53.259120935877888,100.7905],[78.007527976214135,53.253822381589515,100.702],[78.03902493781726,53.2585322076236,104.4585],[78.0628684321149,53.272072957471664,111.4434],[78.0681669864033,53.291206625735242,109.8158],[78.067578258149013,53.322409223211196,109.5073],[78.061396611479267,53.351845635924349,102.5016]]]}}