{"type":"Feature","properties":{"featurecla":"Lake","scalerank":6,"name":"Ozero Krasnoye","name_abb":"O. Krasnoye","name_alt":"Lake Krasnoye","note":null,"delta":null,"dam_name":null,"year":-99,"admin":null,"min_zoom":5.0,"min_label":6.5},
"geometry":{"type": "Polygon","coordinates": [[[174.74735471676604,64.658960487306047,4.4336],[174.71821266818,64.651307020000615,0.0],[174.65463001671952,64.651307020000615,3.5834],[174.58045025668235,64.650718291746358,0.0],[174.54188855602814,64.654545025399074,0.0],[174.51127468680642,64.665730862230077,3.0381],[174.53070271919711,64.650423927619215,0.0],[174.56779259921569,64.6371775418983,1.9233],[174.60782612050559,64.6277578898301,1.9447],[174.63785126147303,64.624225520304492,1.1445],[174.65816238624512,64.615394596490546,3.3359],[174.64462163639706,64.595672199972739,3.1666],[174.61636268019242,64.574772346946389,0.9899],[174.59310791414902,64.562114689479728,1.534],[174.55631239825755,64.5571104993185,0.0],[174.52304925189168,64.565058330751043,0.0],[174.49066919790721,64.576538531709161,12.5118],[174.45593423090565,64.582720178378935,3.3602],[174.3864642969026,64.562114689479728,0.0],[174.34908005275685,64.557699227572755,1.8111],[174.31876054766229,64.57565543932779,3.4737],[174.35231805815533,64.588018732667308,3.5418],[174.37292354705454,64.607152400930858,0.0],[174.42031617152276,64.666025226357192,2.4946],[174.41913871501418,64.673089965408366,3.3411],[174.41089651945452,64.6780941555696,1.8072],[174.39352903595375,64.686336351129285,2.5259],[174.38234319912277,64.693695454307573,3.191],[174.37763337308866,64.697816552087431,1.8099],[174.36026588958788,64.725486780037812,3.0841],[174.35231805815533,64.732551519088958,1.8628],[174.34760823212122,64.724309323529269,1.8884],[174.34996314513825,64.714595307333923,0.0],[174.36144334609639,64.697227823833146,2.1521],[174.3658588080034,64.686336351129285,1.7936],[174.3667419003848,64.675150514298281,2.1587],[174.36350389498631,64.664553405721534,1.6773],[174.35643915593516,64.654839389526188,2.9176],[174.32229291718789,64.621281879033177,0.723],[174.300215607653,64.604208759659542,1.4357],[174.28108193938948,64.596849656481254,16.826],[174.21632183142049,64.582720178378935,95.2198],[174.11417747930579,64.5459246624875,19.8548],[174.08974525675387,64.532383912639432,30.297],[174.07914814817713,64.515016429138655,13.4517],[174.0929832621523,64.49706021738362,0.0],[174.15980391901121,64.47527727197587,0.0],[174.19983744030111,64.45437741894952,0.0],[174.25076243429487,64.438481756084428,0.0],[174.28461430891502,64.418170631312336,0.0],[174.34908005275685,64.4010975119387,0.0],[174.42590908993822,64.4028636967015,0.0],[174.57279678937692,64.4317113811604,0.0],[174.62401614749785,64.447607044025517,0.0],[174.66846513069476,64.468506897051839,0.0],[174.70761555960325,64.4949996684937,0.0],[174.774141852335,64.555049950428554,25.112],[174.77885167836911,64.565941423132443,8.3365],[174.78061786313191,64.574183618692132,10.715],[174.79092060758148,64.599204569498312,19.3199],[174.80034025964972,64.615688960617689,32.6583],[174.80799372695515,64.640709911423869,39.5396],[174.81299791711638,64.651307020000615,40.0039],[174.84655542760942,64.692517997799058,50.0517],[174.77149257519079,64.678682883823853,26.568],[174.74735471676604,64.658960487306047,4.4336]]]}}