{"type":"Feature","properties":{"featurecla":"Lake","scalerank":9,"name":"Ozero Elgygytgyn","name_abb":"O. Elgygytgyn","name_alt":"Lake Elgygytgyn","note":null,"delta":null,"dam_name":null,"year":-99,"admin":null,"min_zoom":7.0,"min_label":8.0},
"geometry":{"type": "Polygon","coordinates": [[[172.21023030501817,67.518413618263082,545.5779],[172.20169374533134,67.5195910747716,517.5165],[172.19433464215302,67.522829080170055,506.2893],[172.158422218643,67.549616215739036,550.3123],[172.11485632782751,67.565217514477013,583.8973],[172.06864115986781,67.569632976383986,644.0922],[171.94000403631128,67.548733123357636,543.6728],[171.92028163979347,67.53578110176386,539.3874],[171.91822109090356,67.526067085568513,530.9832],[171.921459096302,67.513998156356109,510.7487],[171.93470548202293,67.488682841422786,504.2215],[171.92734637884462,67.488682841422786,508.6123],[171.94088712869268,67.481029374117355,505.6936],[171.97768264458415,67.4515929614042,490.5744],[172.02713581794228,67.447177499497229,490.3688],[172.16430950118564,67.465133711252236,490.1818],[172.1778502510337,67.471904086176266,490.2325],[172.19109663675459,67.484856107770071,490.2584],[172.20139938120423,67.5010461347623,490.0027],[172.21317394628949,67.515175612864624,536.0606],[172.21023030501817,67.518413618263082,545.5779]]]}}