{"type":"Feature","properties":{"GID_3":"RUS.2.18.1_1","GID_0":"RUS","country":"Russia","GID_1":"RUS.2_1","province":"Altay","NL_NAME_1":"Алтайскийкрай","GID_2":"RUS.2.18_1","county":"Klyuchevskiyrayon","NL_NAME_2":"Ключевскийрайон","city":"NA","VARNAME_3":"NA","NL_NAME_3":"NA","TYPE_3":"NA","ENGTYPE_3":"NA","CC_3":"NA","HASC_3":"NA","name":"N_A.city"},
"geometry":{"type": "MultiPolygon","coordinates": [[[[79.1629,51.9324,162.7781],[79.26,51.9569,150.3608],[79.3648,51.9986,144.8882],[79.3952,51.994,142.2274],[79.4479,51.968,145.6209],[79.4862,51.9516,147.7566],[79.5096,51.9629,150.2807],[79.5533,51.9799,146.7563],[79.5501,51.9946,142.7873],[79.4924,52.0474,144.158],[79.4935,52.0743,142.8734],[79.5157,52.0968,142.4756],[79.5414,52.0779,143.4772],[79.582,52.0658,142.7243],[79.6333,52.0833,140.3493],[79.5989,52.11,144.1116],[79.6071,52.1326,141.0595],[79.6336,52.1472,140.6159],[79.7119,52.1728,141.5842],[79.7869,52.1929,144.7537],[79.8855,52.1592,174.3343],[79.8966,52.1232,200.6692],[79.951,52.1022,245.8039],[79.9945,52.0961,269.5496],[80.0481,52.0796,275.4586],[80.0513,52.1183,276.6411],[80.0496,52.1484,259.3441],[80.0388,52.1692,235.3592],[80.0003,52.2191,188.8933],[79.9717,52.2413,170.0971],[79.8757,52.2431,148.984],[79.8346,52.2915,143.0067],[79.8552,52.3087,144.8249],[79.8505,52.3354,142.9787],[79.8099,52.3858,141.2464],[79.7536,52.377,139.4994],[79.6851,52.3764,136.4755],[79.7343,52.4076,139.3117],[79.7394,52.4305,140.5904],[79.697,52.4749,140.659],[79.6805,52.506,138.7065],[79.6672,52.5397,134.821],[79.6191,52.5296,137.3169],[79.591,52.5176,136.99],[79.5322,52.5158,131.3839],[79.4068,52.4889,135.5452],[79.3445,52.4616,123.0],[79.3145,52.4358,137.5399],[79.2449,52.4194,137.1077],[79.1966,52.4128,137.8093],[79.1569,52.3907,137.4024],[79.085,52.3986,140.8042],[79.061,52.3795,143.1457],[79.0364,52.3413,144.0762],[78.8969,52.3835,141.0299],[78.8525,52.3727,143.0061],[78.784,52.3639,142.5315],[78.8736,52.2661,147.5651],[78.8878,52.2448,150.1159],[78.9134,52.2141,155.1242],[78.9328,52.1813,149.9905],[78.9769,52.1366,159.5616],[79.0216,52.0969,161.601],[79.0343,52.0757,162.1489],[79.074,52.0417,158.3147],[79.0916,52.0164,164.7196],[79.1421,51.9582,168.1595],[79.1509,51.9614,164.9931],[79.1611,51.9496,163.7988],[79.153,51.9457,162.8961],[79.1629,51.9324,162.7781]]]]}}