{"type":"Feature","properties":{"GID_2":"RUS.56.14_1","GID_0":"RUS","country":"Russia","GID_1":"RUS.56_1","province":"Primor'ye","NL_NAME_1":"Приморскийкрай","county":"Khorol'skiyrayon","VARNAME_2":"NA","NL_NAME_2":"Хорольскийрайон","TYPE_2":"Raion","ENGTYPE_2":"District","CC_2":"R66002","HASC_2":"RU.PR.KO","name":"Khorol'skiyrayon.county"},
"geometry":{"type": "MultiPolygon","coordinates": [[[[132.2935,44.6292,68.0],[132.2616,44.6059,68.0],[132.207,44.6187,70.1071],[132.0081,44.552,78.8884],[131.9474,44.5719,83.259],[131.8988,44.5615,85.7586],[131.8526,44.4927,89.9009],[131.8069,44.4456,120.5339],[131.8035,44.3821,173.9699],[131.8155,44.3203,156.8078],[131.8468,44.2743,130.9643],[131.8625,44.2466,111.9928],[131.9493,44.26,182.6004],[131.9745,44.2843,187.4907],[131.9607,44.3552,156.8139],[132.0179,44.3521,249.4202],[132.0424,44.2991,151.3099],[132.0165,44.25,185.4104],[132.0182,44.2158,175.4024],[132.0593,44.2248,182.3696],[132.109,44.2515,129.918],[132.1406,44.2325,110.9199],[132.1563,44.1868,147.3291],[132.1266,44.1181,98.4019],[132.1667,44.0948,98.3219],[132.2578,44.0892,79.8019],[132.3538,44.0678,138.8148],[132.4287,44.1342,170.6921],[132.3875,44.1991,75.6863],[132.4063,44.2738,81.0865],[132.438,44.35,71.506],[132.421,44.4139,70.072],[132.3837,44.4352,73.1459],[132.4363,44.495,69.2758],[132.5039,44.4802,77.1564],[132.5316,44.5189,70.0505],[132.582,44.5324,69.7309],[132.581,44.5753,69.7183],[132.5606,44.555,69.7691],[132.3162,44.6152,68.0],[132.2935,44.6292,68.0]]]]}}