{"type":"Feature","properties":{"GID_3":"RUS.60.18.1_1","GID_0":"RUS","country":"Russia","GID_1":"RUS.60_1","province":"Sakha","NL_NAME_1":"РеспубликаСаха","GID_2":"RUS.60.18_1","county":"Neryungrigorsovet","NL_NAME_2":"Нерюнгри(горсовет)","city":"NA","VARNAME_3":"NA","NL_NAME_3":"NA","TYPE_3":"NA","ENGTYPE_3":"NA","CC_3":"NA","HASC_3":"NA","name":"N_A.city"},
"geometry":{"type": "MultiPolygon","coordinates": [[[[126.4012,55.5916,959.8375],[126.467,55.5972,1058.7139],[126.5339,55.6213,1006.5139],[126.5887,55.6531,1012.9326],[126.6142,55.666,982.7783],[126.6556,55.6693,1055.0555],[126.691,55.655,1146.8048],[126.6893,55.6385,1147.8538],[126.7676,55.6201,1084.3882],[126.8874,55.6127,1020.3826],[126.9562,55.6601,1089.4044],[126.9565,55.6819,1016.7444],[127.0743,55.7048,957.4417],[127.2009,55.6984,841.8505],[127.3286,55.7007,1023.014],[127.3402,55.669,1012.6149],[127.4168,55.5995,1057.0248],[127.5084,55.6152,1075.863],[127.5979,55.6234,920.6969],[127.6465,55.6876,1187.5802],[127.6852,55.7131,898.696],[127.7671,55.7201,995.1179],[127.8178,55.7076,996.6799],[127.8513,55.6794,895.5858],[127.8634,55.6633,998.4872],[127.9283,55.6664,1063.3281],[127.9676,55.6898,816.6207],[128.0427,55.6771,1041.6293],[128.0809,55.6757,939.557],[128.1416,55.7037,944.8961],[128.2412,55.6899,1484.9771],[128.3324,55.662,1247.9573],[128.4129,55.6216,1030.8245],[128.4681,55.6106,1058.1238],[128.4884,55.5803,1023.6079],[128.5361,55.5591,1139.7965],[128.613,55.5515,954.4998],[128.6719,55.5567,896.7589],[128.7082,55.5282,971.9712],[128.7921,55.5067,991.8678],[128.8889,55.5231,985.2683],[128.9864,55.5009,956.2379],[129.0645,55.5251,958.0889],[129.1428,55.5807,972.7598],[129.1158,55.6332,1126.5835],[129.0677,55.6548,1296.787],[129.0354,55.6793,1163.6791],[129.1553,55.7151,1254.0128],[129.2404,55.7092,1304.6509],[129.2997,55.7424,1215.9436],[129.392,55.7304,1145.7556],[129.4638,55.7613,1093.932],[129.5687,55.749,1032.65],[129.6323,55.7698,1273.0343],[129.7614,55.754,1288.6552],[129.8193,55.7416,1351.0918],[129.8769,55.766,1453.1052],[129.9422,55.7597,1563.8531],[130.0098,55.7101,1595.1086],[130.1071,55.7339,1426.7494],[130.2254,55.7121,1434.4995],[130.3056,55.7548,1594.7971],[130.3688,55.7468,1930.5913],[130.4567,55.7485,1978.175],[130.621,55.7588,2055.5667],[130.7241,55.7734,1326.1196],[130.8407,55.7494,1321.9036],[130.9302,55.7215,1626.8123],[130.9861,55.7012,1671.0125],[130.9616,55.7425,1840.8899],[130.9851,55.7894,1631.2986],[130.9637,55.8108,2051.8979],[130.9017,55.8619,1674.0076],[130.8928,55.9219,1469.3076],[130.9395,55.9583,1196.8379],[130.9225,56.001,957.8003],[130.9753,56.0748,909.9273],[131.0585,56.1485,940.9512],[131.1571,56.2539,882.8728],[131.1648,56.3279,875.4235],[131.1819,56.429,772.9372],[131.2644,56.4978,1244.9536],[131.3437,56.513,990.1166],[131.3875,56.4958,689.5339],[131.4255,56.4627,690.8628],[131.4901,56.4705,791.9852],[131.5205,56.5115,1359.4047],[131.5701,56.5389,800.4631],[131.6107,56.5245,673.5942],[131.6236,56.4859,612.2406],[131.6645,56.4642,602.4565],[131.7448,56.4768,639.7229],[131.7827,56.5136,1029.8868],[131.7062,56.5876,583.0081],[131.731,56.6302,1075.1858],[131.7185,56.7016,724.5155],[131.8568,56.7549,848.4562],[131.8768,56.7967,987.6216],[131.8316,56.8483,1055.1471],[131.7285,56.9417,896.5175],[131.5138,57.1018,632.077],[131.4348,57.1487,375.944],[131.3588,57.1227,707.6808],[131.2745,57.1085,860.4785],[131.0828,57.0311,832.2383],[130.9657,57.0042,986.3749],[130.8625,56.9734,1095.2395],[130.7471,56.9347,1004.842],[130.5971,56.8693,1106.1288],[130.5197,56.8663,994.6075],[130.435,56.8905,1103.6315],[130.3362,56.9478,885.0472],[130.2892,56.9499,1176.0126],[130.2654,56.9266,1209.3013],[130.272,56.8833,782.2556],[130.2347,56.8645,891.7415],[130.1898,56.8812,880.1097],[130.1507,56.9279,829.0515],[130.1415,56.9617,1097.2083],[130.1058,56.9831,1207.093],[129.9422,57.0332,1420.9048],[129.8059,57.0497,1426.089],[129.692,57.0563,1397.8799],[129.5381,57.0618,1323.0837],[129.3643,57.057,1322.652],[129.187,57.0297,1382.6104],[129.0582,57.0053,1416.4736],[128.9836,57.0066,1243.3507],[128.8715,57.0302,1249.3041],[128.7374,57.061,1234.0536],[128.5854,57.088,1115.949],[128.5074,57.0949,1176.2871],[128.4717,57.0845,1181.562],[128.4435,57.0532,1423.2166],[128.4382,57.0194,1601.1943],[128.3933,56.9801,1521.8225],[128.3405,56.9658,1594.2076],[128.2399,56.9641,1438.0836],[128.1876,56.9866,1176.1938],[128.1393,57.0132,1439.9349],[128.0532,57.0348,1393.7177],[127.9452,57.0384,1613.5769],[127.8961,57.076,1524.2412],[127.8237,57.0921,1198.4567],[127.7695,57.0909,1294.0104],[127.7145,57.0679,1472.1487],[127.6775,57.0337,1617.6864],[127.6103,57.0235,1586.6917],[127.5181,57.063,1177.5529],[127.396,57.1531,848.9247],[127.2307,57.2299,897.1417],[127.2034,57.2868,627.3219],[127.1858,57.3376,1017.0251],[127.1483,57.3799,874.0386],[127.0544,57.4021,1046.8145],[126.9195,57.4217,1061.2964],[126.8402,57.4206,1184.3047],[126.6016,57.448,1058.7793],[126.3226,57.5221,1074.384],[126.0721,57.5518,1246.5328],[125.9605,57.6073,1249.0381],[125.8847,57.6234,1252.6903],[125.8313,57.6555,1209.1025],[125.774,57.7139,1155.7609],[125.6677,57.7677,1177.6884],[125.6067,57.7736,1211.3857],[125.5458,57.7648,1268.4845],[125.4956,57.7222,1164.6855],[125.3272,57.5591,1124.5513],[125.2706,57.5297,1162.323],[125.2082,57.5299,1286.4534],[125.1317,57.5438,1441.9646],[125.0974,57.5577,1311.6091],[125.0731,57.5803,1190.9214],[125.0091,57.5964,1152.5977],[124.9414,57.5976,1133.433],[124.8709,57.5796,1140.4882],[124.758,57.5997,1108.6472],[124.6453,57.6273,1173.9294],[124.5864,57.6752,1008.811],[124.5514,57.7242,1074.2164],[124.5231,57.7581,1148.2197],[124.451,57.789,882.0379],[124.3797,57.809,857.4169],[124.3639,57.8442,809.0802],[124.3789,57.8705,710.5649],[124.4286,57.9094,774.7256],[124.4427,57.9631,778.1349],[124.4366,58.0149,633.5738],[124.4413,58.0655,742.1899],[124.4761,58.0966,709.7054],[124.5428,58.1215,652.8586],[124.6003,58.1521,747.5488],[124.6125,58.1974,662.2692],[124.6457,58.2512,762.7252],[124.6939,58.302,732.1917],[124.7561,58.3716,715.8738],[124.8308,58.4376,671.7369],[124.8946,58.4825,744.3011],[124.9004,58.5417,860.5385],[124.8272,58.5327,708.0944],[124.7343,58.5538,542.8474],[124.6919,58.5582,521.3862],[124.6202,58.543,593.4355],[124.4952,58.5477,447.7705],[124.4133,58.547,385.4255],[124.3556,58.5281,568.7003],[124.3638,58.4993,501.6573],[124.4168,58.4891,582.7861],[124.4378,58.4637,625.9578],[124.2549,58.3689,611.8983],[124.1934,58.3535,456.8353],[124.1128,58.3651,602.516],[124.0227,58.3542,381.7105],[123.9208,58.3222,681.9725],[123.7775,58.2728,497.8525],[123.6084,58.263,604.1147],[123.4753,58.2676,555.583],[123.374,58.2864,518.7894],[123.2458,58.2928,489.0203],[123.1497,58.2728,528.4028],[123.0809,58.2536,685.6654],[123.0384,58.218,675.9132],[122.9742,58.1729,791.0865],[123.0304,58.1703,535.6404],[123.1271,58.1236,756.6053],[123.2159,58.112,826.6077],[123.2867,58.1095,775.3171],[123.3303,58.1101,749.0962],[123.3555,58.0793,698.7364],[123.3331,58.0381,672.2815],[123.2648,57.987,757.8718],[123.2298,58.0032,755.3633],[123.112,57.9681,763.7005],[123.0783,57.9213,804.8597],[123.0736,57.8893,869.0809],[123.0108,57.8411,878.4703],[122.9537,57.7715,921.3965],[122.9116,57.7059,948.1022],[122.8308,57.6272,986.2698],[122.7822,57.5696,1037.9077],[122.7426,57.5277,1128.4342],[122.7117,57.4891,1140.3739],[122.7176,57.4474,1178.5127],[122.7912,57.4405,1214.4304],[122.8326,57.4676,1068.2893],[122.8834,57.4784,1074.3723],[122.9319,57.4635,1056.3477],[122.9262,57.4211,1085.4146],[122.8655,57.3754,954.0219],[122.8185,57.3484,1048.4828],[122.7805,57.2976,995.686],[122.7311,57.272,1033.5166],[122.6223,57.2604,1088.7849],[122.5559,57.2746,987.0215],[122.5252,57.289,1088.8726],[122.4331,57.2384,1062.842],[122.3986,57.1831,1038.8865],[122.3953,57.1499,1039.8119],[122.4295,57.1301,1044.9919],[122.4889,57.1297,1015.9319],[122.5027,57.1001,1010.1829],[122.4715,57.0712,1036.3745],[122.5022,57.0481,1007.6351],[122.5552,57.0324,985.3828],[122.5729,57.0069,1032.6761],[122.5217,56.943,954.7266],[122.4894,56.8921,947.437],[122.4949,56.8495,928.4801],[122.5128,56.8065,1125.3516],[122.5153,56.7848,1028.392],[122.5025,56.7679,1035.1628],[122.4379,56.7356,934.6295],[122.3782,56.7197,1068.4698],[122.3243,56.6727,1437.7181],[122.4062,56.6526,1084.3523],[122.4704,56.6298,1255.502],[122.506,56.6019,1432.2419],[122.5802,56.5608,1513.8677],[122.6288,56.5225,1369.1938],[122.6767,56.5056,1459.7665],[122.7703,56.5023,1414.1122],[122.8498,56.5296,1191.915],[122.8661,56.5749,1136.429],[122.9063,56.6049,1285.7595],[122.9525,56.596,1074.9524],[123.0286,56.5367,1014.0155],[123.1011,56.4896,1222.1626],[123.2899,56.441,1284.0366],[123.456,56.4149,1433.5676],[123.7434,56.4305,1548.1224],[123.8654,56.4234,1307.0005],[123.9946,56.3776,1216.9524],[124.0772,56.3139,1131.55],[124.1242,56.2652,1331.9362],[124.142,56.2283,1452.3418],[124.1929,56.2168,1419.0623],[124.2175,56.1766,1523.5984],[124.2721,56.1232,1260.5127],[124.4254,56.0667,1382.5979],[124.4474,56.021,1164.5859],[124.4602,55.9762,1409.282],[124.4712,55.9504,1269.4088],[124.5444,55.9212,1090.0614],[124.6159,55.9305,1093.3198],[124.6689,55.9329,1180.4304],[124.7263,55.9265,1043.8409],[124.7324,55.8968,1066.0513],[124.841,55.8882,1060.9183],[124.8741,55.8565,996.5287],[124.9885,55.8485,838.826],[125.0595,55.8517,996.7335],[125.1319,55.8881,1270.0325],[125.2235,55.8828,1014.7885],[125.3271,55.8818,1273.7009],[125.3945,55.8778,1219.5422],[125.4908,55.8407,1039.6119],[125.5587,55.797,1177.3419],[125.6091,55.7681,1299.0516],[125.7022,55.7847,882.816],[125.7726,55.7946,983.1315],[125.8871,55.7797,1001.7772],[125.9888,55.7537,1095.762],[126.0586,55.7279,1123.7667],[126.0725,55.695,1112.8644],[126.0576,55.6569,935.8145],[126.0768,55.6228,1175.9965],[126.165,55.6105,978.5411],[126.2213,55.6174,952.7275],[126.2787,55.6219,1060.3055],[126.3543,55.6064,968.6763],[126.4012,55.5916,959.8375]]]]}}