{"type":"Feature","properties":{"GID_2":"RUS.35.10_1","GID_0":"RUS","country":"Russia","GID_1":"RUS.35_1","province":"Krasnoyarsk","NL_NAME_1":"Красноярскийкрай","county":"Bol'shemurtinskiyrayon","VARNAME_2":"NA","NL_NAME_2":"Большемуртинскийрайон","TYPE_2":"Raion","ENGTYPE_2":"District","CC_2":"R62090","HASC_2":"RU.KY.BM","name":"Bol'shemurtinskiyrayon.county"},
"geometry":{"type": "MultiPolygon","coordinates": [[[[91.6936,56.9185,241.3728],[91.8539,56.8767,234.2921],[92.0307,56.8561,273.2334],[92.0909,56.8235,258.5832],[92.3312,56.7629,317.9766],[92.419,56.7678,375.9493],[92.4972,56.7409,323.373],[92.5694,56.6953,404.6889],[92.6068,56.6931,395.128],[92.648,56.6866,346.5276],[92.6613,56.6582,307.0093],[92.7404,56.6404,342.2904],[92.8319,56.67,274.04],[92.9844,56.6677,208.5959],[93.0675,56.6619,207.3746],[93.1472,56.696,223.9188],[93.1916,56.6749,244.1293],[93.248,56.6737,250.6811],[93.3036,56.7073,185.686],[93.3091,56.7607,204.8305],[93.3454,56.782,259.3785],[93.398,56.7943,150.207],[93.5294,56.8138,138.0989],[93.6456,56.8378,164.0922],[93.8924,56.9446,396.1804],[94.017,56.985,497.913],[93.9034,57.0704,488.7491],[93.8484,57.1424,397.6666],[93.796,57.2246,350.089],[93.7326,57.3071,201.7812],[93.6336,57.2761,262.1441],[93.587,57.2598,211.413],[93.5041,57.2258,254.0953],[93.4276,57.2434,119.9112],[93.3944,57.29,227.6375],[93.3321,57.313,229.815],[93.3684,57.3508,233.4272],[93.3548,57.3931,240.1308],[93.2769,57.3913,250.1791],[93.1954,57.3975,228.1516],[93.1225,57.3941,253.8096],[93.0627,57.3731,238.4348],[93.0288,57.3216,237.7083],[93.001,57.2934,243.3966],[92.9068,57.2867,234.5887],[92.8553,57.3046,210.38],[92.8292,57.3002,207.7336],[92.7991,57.28,232.1483],[92.7296,57.2811,246.1143],[92.693,57.3073,252.2852],[92.6207,57.3174,252.8549],[92.5425,57.2958,278.1729],[92.4904,57.2906,273.3175],[92.4463,57.3043,263.7379],[92.3668,57.289,272.738],[92.2791,57.2832,307.7993],[92.2786,57.2647,273.4551],[92.2616,57.2361,255.3153],[92.1732,57.2136,215.1959],[92.0431,57.169,216.8662],[91.9632,57.1258,241.3755],[91.8396,57.0924,265.455],[91.7651,57.0651,258.9906],[91.6981,57.0125,211.6569],[91.6772,56.9559,225.5144],[91.6936,56.9185,241.3728]]]]}}