{"type":"Feature","properties":{"GID_3":"RUS.2.58.1_1","GID_0":"RUS","country":"Russia","GID_1":"RUS.2_1","province":"Altay","NL_NAME_1":"Алтайскийкрай","GID_2":"RUS.2.58_1","county":"Tyumentsevskiyrayon","NL_NAME_2":"Тюменцевскийрайон","city":"NA","VARNAME_3":"NA","NL_NAME_3":"NA","TYPE_3":"NA","ENGTYPE_3":"NA","CC_3":"NA","HASC_3":"NA","name":"N_A.city"},
"geometry":{"type": "MultiPolygon","coordinates": [[[[81.2642,53.0775,157.5286],[81.2786,53.0611,161.6302],[81.296,53.0255,153.3417],[81.3215,52.9959,174.0531],[81.354,52.9647,159.8616],[81.3811,53.0098,160.1361],[81.4184,53.0077,163.0239],[81.4519,53.0003,172.9347],[81.5226,53.0339,175.5047],[81.5793,53.0341,185.4971],[81.6518,53.0246,188.0544],[81.841,53.0215,269.1207],[81.8216,53.0493,236.4476],[81.8175,53.1013,226.8326],[81.8348,53.1484,207.2115],[81.8754,53.173,191.9974],[81.9285,53.2015,203.1381],[81.9307,53.2338,207.4396],[81.9356,53.2506,217.6574],[81.9799,53.271,210.5059],[82.0224,53.2751,215.8834],[82.0841,53.2993,221.8951],[82.1123,53.3274,226.1564],[82.1019,53.3566,234.3535],[82.0765,53.4042,250.0432],[82.032,53.4073,246.5324],[82.0274,53.4272,226.6422],[82.0004,53.4782,198.1068],[82.0091,53.5172,168.9783],[82.0285,53.5711,121.5673],[82.059,53.6389,120.1399],[82.021,53.6788,119.7703],[81.8848,53.668,119.69],[81.8327,53.6529,118.9757],[81.8028,53.6481,118.5663],[81.7775,53.6778,117.809],[81.7514,53.6114,123.809],[81.7314,53.5696,122.5545],[81.7406,53.5269,123.4794],[81.6807,53.5151,127.6096],[81.6426,53.4947,196.634],[81.6534,53.4456,226.2204],[81.6623,53.417,205.3194],[81.6154,53.4017,189.7837],[81.5614,53.4012,192.0575],[81.514,53.4365,195.5709],[81.4446,53.471,147.0354],[81.3976,53.4819,134.6261],[81.3537,53.4802,145.9759],[81.2776,53.456,140.4179],[81.1972,53.4244,144.0733],[81.0098,53.3545,143.5227],[81.0799,53.3034,135.9953],[81.0617,53.2823,137.9633],[81.1238,53.2307,147.7979],[81.1961,53.1969,143.4463],[81.2262,53.1389,161.1068],[81.2431,53.1013,158.3264],[81.2642,53.0775,157.5286]]]]}}