{"type":"Feature","properties":{"GID_2":"RUS.83.13_1","GID_0":"RUS","country":"Russia","GID_1":"RUS.83_1","province":"Zabaykal'ye","NL_NAME_1":"Забайкальскийкрай","county":"Kalarskiyrayon","VARNAME_2":"NA","NL_NAME_2":"Каларскийрайон","TYPE_2":"Raion","ENGTYPE_2":"District","CC_2":"R64090","HASC_2":"RU.CT.KA","name":"Kalarskiyrayon.county"},
"geometry":{"type": "MultiPolygon","coordinates": [[[[119.7815,56.9058,1274.0415],[119.7135,56.9393,1571.8405],[119.6371,56.9807,1328.2716],[119.5954,57.0562,1127.9061],[119.6023,57.1202,1197.3925],[119.6626,57.1636,1372.8618],[119.5911,57.2107,1334.1726],[119.5245,57.2674,1441.6788],[119.5122,57.3297,849.1763],[119.4526,57.37,889.34],[119.3915,57.4182,1103.7621],[119.3971,57.4993,942.4703],[119.4297,57.5367,1438.3196],[119.4462,57.5795,1179.283],[119.3943,57.6063,1161.5841],[119.3123,57.616,1087.5173],[119.2452,57.6008,1205.635],[119.2391,57.5377,1199.9812],[119.1834,57.5132,1258.6671],[119.1274,57.5679,1227.4951],[119.1458,57.6489,1337.1731],[119.1131,57.6972,1117.7034],[119.0072,57.7272,972.8923],[119.0044,57.768,1021.5302],[119.0438,57.7923,1149.7571],[119.0813,57.9043,991.7827],[119.0783,57.9838,1055.9921],[119.1329,58.0481,1208.0822],[119.1069,58.0962,997.4681],[119.1371,58.1275,1044.1989],[119.0888,58.2241,1171.2656],[118.9722,58.214,1128.941],[118.8204,58.209,930.6439],[118.6365,58.1774,1142.4148],[118.4449,58.2264,528.5787],[118.3512,58.2791,337.6538],[118.297,58.3374,342.2609],[118.1877,58.3789,325.1682],[118.0841,58.3933,304.2919],[118.0032,58.3736,455.8469],[117.8502,58.4124,939.7939],[117.7855,58.424,774.8444],[117.7005,58.4215,896.6607],[117.6218,58.3648,736.8829],[117.5388,58.3544,805.4785],[117.4632,58.33,1252.2749],[117.427,58.2881,1293.7711],[117.5303,58.2481,1167.8472],[117.5739,58.1441,1659.5129],[117.5115,58.131,1565.3168],[117.4371,58.1737,1797.9232],[117.3847,58.1303,1307.8912],[117.4074,58.0712,1646.4114],[117.3722,58.0479,1862.4506],[117.3811,58.0111,1571.2059],[117.3525,57.9851,1226.9246],[117.3446,57.9375,1484.4662],[117.3787,57.9302,1454.0387],[117.3735,57.8982,1314.6173],[117.3238,57.8908,1457.1135],[117.2936,57.8482,1520.7849],[117.1976,57.8489,1205.4906],[117.1207,57.8525,1532.026],[117.0722,57.8225,1549.3326],[117.1329,57.8005,1497.3008],[117.169,57.735,1426.2065],[117.1136,57.6788,1392.0159],[117.1673,57.6325,1401.7389],[117.2856,57.6268,1281.7385],[117.2602,57.563,1159.9464],[117.2037,57.5304,1236.324],[117.2384,57.4846,1686.8215],[117.3222,57.4536,1232.9376],[117.31,57.3851,1332.6669],[117.3217,57.3471,1192.4967],[117.4032,57.3509,1809.1659],[117.4208,57.3139,1498.2812],[117.3652,57.2682,1318.598],[117.4284,57.2389,945.2689],[117.5433,57.2829,2028.562],[117.5587,57.3257,1919.0432],[117.6223,57.33,1962.4769],[117.72,57.3098,1784.4894],[117.7931,57.2827,1790.3345],[117.7259,57.264,1936.4248],[117.6844,57.1912,1215.4482],[117.5773,57.1659,2057.6157],[117.6205,57.1177,1886.5503],[117.6638,57.0798,1781.7749],[117.6352,57.007,1787.5435],[117.6088,56.9629,2226.8801],[117.5559,56.9479,2334.957],[117.5806,56.8976,2048.4583],[117.5366,56.8495,2145.7185],[117.4716,56.8735,2176.833],[117.403,56.8541,2280.9529],[117.3242,56.894,1953.5458],[117.3188,56.9378,1749.1555],[117.2621,56.9653,1614.139],[117.207,56.9176,1804.7059],[117.1482,56.9042,1835.3881],[117.1223,56.8712,1916.1354],[117.096,56.8299,2170.3774],[117.055,56.8159,1865.2219],[116.9991,56.8375,1716.5066],[116.9607,56.8334,2041.6396],[116.9767,56.7939,2114.0461],[116.9271,56.7996,2171.1404],[116.871,56.8016,1779.8862],[116.812,56.7675,1859.0724],[116.7652,56.7598,1616.2186],[116.716,56.7841,1767.0187],[116.5418,56.7829,1660.0834],[116.465,56.7921,1883.7299],[116.4385,56.8217,1620.7656],[116.3407,56.8363,1986.8246],[116.3068,56.8696,1752.0275],[116.2489,56.8753,1382.193],[116.205,56.8539,1751.0184],[116.138,56.8327,1353.1472],[116.0743,56.8455,1248.9819],[116.0249,56.8909,1906.8375],[115.9621,56.8933,1568.1821],[115.8029,56.9581,1016.3368],[115.7539,56.9502,895.0875],[115.7271,56.9213,1124.8356],[115.6543,56.8976,825.672],[115.596,56.869,474.7821],[115.5938,56.8235,452.3629],[115.6234,56.7735,693.6987],[115.6255,56.7263,1277.9895],[115.5961,56.6964,995.1086],[115.5643,56.6849,831.0426],[115.525,56.6657,647.4092],[115.4685,56.6583,992.2353],[115.462,56.6349,1105.458],[115.5242,56.5998,493.8718],[115.6902,56.5677,461.5598],[115.715,56.5411,469.2169],[115.7099,56.5101,542.7703],[115.7372,56.4785,501.6737],[115.7869,56.4598,470.0533],[115.7993,56.4255,463.5],[115.7536,56.4236,475.4011],[115.7145,56.4125,471.3016],[115.7139,56.3505,476.0068],[115.7923,56.2426,483.7227],[115.8356,56.1985,981.7019],[115.8571,56.162,1236.1281],[115.8639,56.1275,892.1626],[115.8129,56.0803,1068.8732],[115.7995,56.0503,1065.8214],[115.7992,56.0103,887.0383],[115.8416,55.9522,830.317],[115.8833,55.9055,587.7169],[115.8476,55.8356,652.3878],[115.8555,55.7756,586.244],[115.8832,55.7326,626.8835],[115.8721,55.7033,617.9846],[115.8908,55.7081,710.8062],[115.9178,55.7044,691.8191],[115.9781,55.6694,799.0209],[116.0088,55.6774,778.3037],[116.0246,55.7034,713.7318],[116.0369,55.7354,924.2352],[116.055,55.7666,681.265],[116.1026,55.7874,1102.2538],[116.1583,55.7959,761.0039],[116.2117,55.8018,794.4087],[116.5578,55.787,1690.741],[116.7009,55.8096,1405.6589],[116.7777,55.857,1521.5999],[116.8294,55.9004,1538.3745],[116.8245,55.946,1495.955],[116.8378,55.9872,1863.0425],[116.9013,55.9925,1492.0442],[116.9775,55.9885,1762.6426],[117.0392,55.9631,1614.9779],[117.0925,55.9313,1569.5421],[117.1095,55.8821,1255.1323],[117.0951,55.8213,917.7267],[117.0976,55.7713,912.864],[117.069,55.7116,715.3189],[117.0302,55.6777,696.7543],[117.0529,55.6427,827.7218],[117.0897,55.6094,1177.5922],[117.0766,55.5616,1313.282],[117.0498,55.51,998.1991],[117.0507,55.4593,1108.2893],[117.099,55.4224,989.3357],[117.1329,55.4561,1142.8442],[117.1568,55.493899999999996,1377.553],[117.2049,55.5105,1606.8591],[117.2688,55.5192,1510.807],[117.33,55.5208,1563.6917],[117.4,55.5154,1342.8958],[117.4852,55.504,1096.3149],[117.541,55.5081,1411.8623],[117.5904,55.5056,1302.6267],[117.6535,55.4897,1386.4817],[117.7576,55.4679,1067.1212],[117.831,55.4626,942.1194],[117.886,55.4328,1152.038],[117.8744,55.3735,833.2059],[117.9032,55.3419,820.0062],[117.9573,55.3178,850.0611],[118.0048,55.2909,881.5909],[118.019,55.236,989.6926],[118.0512,55.2133,1025.1086],[118.1514,55.1877,1049.5133],[118.324,55.1849,1004.4105],[118.4894,55.232,1250.8225],[118.6313,55.2307,986.3214],[118.6481,55.2554,941.9945],[118.6304,55.2799,1035.0499],[118.5975,55.302,1349.4167],[118.6012,55.3363,1015.6078],[118.6355,55.3413,1004.6467],[118.6796,55.3429,1061.9194],[118.7682,55.3338,1132.4536],[118.8643,55.3583,1055.5463],[118.9669,55.411,1141.7037],[119.0416,55.4426,1369.8398],[119.0935,55.4881,1286.3186],[119.1392,55.4846,1372.3843],[119.1541,55.4681,1064.2804],[119.1954,55.452,1101.0967],[119.2376,55.4547,1073.1503],[119.2754,55.4892,1096.2883],[119.3232,55.5495,1257.8527],[119.3666,55.5983,1340.287],[119.3514,55.6376,1139.3009],[119.3237,55.6892,1357.5717],[119.3538,55.7212,1606.3358],[119.4441,55.7407,1385.4237],[119.5759,55.7552,888.5305],[119.7049,55.805,1033.6871],[119.7936,55.8433,968.761],[119.899,55.9035,865.1029],[119.9887,55.8886,772.1362],[120.054,55.8853,961.0714],[120.1085,55.8906,726.2957],[120.0733,55.9107,842.6582],[120.0618,55.9533,799.3638],[120.0714,56.0122,920.9656],[120.0393,56.0772,1184.8684],[120.058,56.1564,1537.9424],[120.1362,56.1869,1550.005],[120.1796,56.2222,1549.0563],[120.46,56.2469,1643.8972],[120.49,56.276,1660.8682],[120.4477,56.3022,1543.8914],[120.3544,56.316,1325.1804],[120.3557,56.3688,1697.4044],[120.2561,56.3903,1554.9531],[120.2809,56.4571,1717.2786],[120.2427,56.4701,1688.7709],[120.122,56.4627,1615.0543],[120.097,56.481,1656.561],[120.0291,56.478,1583.8818],[119.9451,56.4956,1832.7957],[119.9286,56.5399,1492.0697],[119.7727,56.6058,1458.262],[119.7813,56.6507,1554.5892],[119.8389,56.6726,1990.6208],[119.8211,56.6981,1989.616],[119.6344,56.7536,1895.8872],[119.6233,56.7856,1824.5789],[119.6623,56.8087,1990.7694],[119.7915,56.8758,1420.9636],[119.7815,56.9058,1274.0415]]]]}}