{"type":"Feature","properties":{"GID_2":"RUS.2.59_1","GID_0":"RUS","country":"Russia","GID_1":"RUS.2_1","province":"Altay","NL_NAME_1":"Алтайскийкрай","county":"Uglovskiyrayon","VARNAME_2":"NA","NL_NAME_2":"Угловскийрайон","TYPE_2":"Raion","ENGTYPE_2":"District","CC_2":"R53095","HASC_2":"RU.AL.UG","name":"Uglovskiyrayon.county"},
"geometry":{"type": "MultiPolygon","coordinates": [[[[79.9493,50.8998,251.6583],[79.9559,50.9137,254.8094],[79.9685,50.891,259.0339],[80.0208,50.8297,249.8229],[80.0363,50.8156,258.9557],[80.0683,50.7682,278.0332],[80.0787,50.7571,277.1556],[80.0817,50.7623,277.1833],[80.072,50.7846,271.9599],[80.0647,50.8203,264.8956],[80.0652,50.847,263.8539],[80.0696,50.8495,260.6646],[80.0851,50.8496,263.5485],[80.092,50.8317,270.209],[80.1377,50.8293,285.3248],[80.1713,50.8295,301.2923],[80.1926,50.832,308.6624],[80.1905,50.8878,281.8741],[80.1941,50.9022,274.3852],[80.2,50.906,276.886],[80.2387,50.9089,283.5737],[80.246,50.9125,281.9703],[80.251,50.927,275.9337],[80.2738,50.9287,274.4272],[80.3223,50.9282,279.0506],[80.3246,50.9348,279.3246],[80.3387,50.937,281.4457],[80.3767,50.9361,284.4242],[80.3819,50.9406,281.4107],[80.3914,50.9449,280.0028],[80.411,50.9614,274.3451],[80.4297,50.9742,272.9514],[80.4688,50.9745,268.4748],[80.4654,50.9937,270.0048],[80.4673,51.0106,264.5752],[80.4787,51.0313,265.1164],[80.4782,51.0809,269.4407],[80.4744,51.1012,250.6685],[80.4426,51.1201,226.5355],[80.4359,51.1268,227.0976],[80.4409,51.2058,227.5311],[80.4446,51.2092,229.5633],[80.4727,51.2103,232.2713],[80.6225,51.207,221.2073],[80.6292,51.2128,219.789],[80.6309,51.2224,218.2561],[80.6281,51.2483,226.4208],[80.6312,51.266,217.6338],[80.6484,51.2943,221.0448],[80.5906,51.3042,219.5828],[80.5327,51.2743,219.8754],[80.4823,51.2781,217.9482],[80.4237,51.247,215.5615],[80.3413,51.2837,222.52],[80.3716,51.3381,222.7515],[80.4189,51.3737,222.8342],[80.4769,51.4427,233.9247],[80.5343,51.4983,238.5753],[80.6099,51.5542,235.4498],[80.6827,51.6191,228.7364],[80.6769,51.6551,229.8363],[80.6475,51.662,228.9431],[80.6008,51.6971,220.8941],[80.6231,51.7259,225.317],[80.5537,51.7511,200.5251],[80.5383,51.7301,198.7032],[80.4808,51.7346,188.8218],[80.4657,51.7613,194.7933],[80.4304,51.7795,183.7886],[80.374,51.7755,182.4634],[80.2985,51.749,200.8145],[80.3038,51.7176,190.4661],[80.2516,51.7058,196.9014],[80.2151,51.6722,193.5083],[80.2322,51.6507,176.4529],[80.2072,51.6336,185.934],[80.1574,51.6203,188.3222],[80.0817,51.6097,173.7659],[80.0919,51.584,186.3404],[80.0257,51.555,190.2352],[79.9394,51.5384,185.4128],[79.8889,51.5267,186.8189],[79.7646,51.4892,183.3878],[79.6895,51.4544,180.7523],[79.5502,51.4311,173.9894],[79.5529,51.4267,174.7192],[79.5702,51.411,176.6158],[79.5905,51.3745,190.7537],[79.6358,51.3171,197.5683],[79.6386,51.3093,200.8516],[79.649,51.2999,204.3019],[79.6829,51.2582,238.4406],[79.739,51.184,295.725],[79.7589,51.154,303.4744],[79.7951,51.1143,250.6402],[79.8042,51.0939,238.452],[79.8502,51.0319,236.7193],[79.869,51.01,233.4403],[79.9184,50.9427,255.8065],[79.9297,50.9343,253.4366],[79.9493,50.8998,251.6583]]]]}}