{"type":"Feature","properties":{"GID_3":"RUS.29.9.1_1","GID_0":"RUS","country":"Russia","GID_1":"RUS.29_1","province":"Khakass","NL_NAME_1":"РеспубликаХакасия","GID_2":"RUS.29.9_1","county":"Tashtypskiyrayon","NL_NAME_2":"Таштыпскийрайон","city":"NA","VARNAME_3":"NA","NL_NAME_3":"NA","TYPE_3":"NA","ENGTYPE_3":"NA","CC_3":"NA","HASC_3":"NA","name":"N_A.city"},
"geometry":{"type": "MultiPolygon","coordinates": [[[[87.904,51.5649,1728.1155],[87.9024,51.536,1991.4182],[87.9357,51.4914,2001.5159],[87.9963,51.4787,1860.4255],[88.0681,51.4681,2001.8096],[88.1222,51.4322,2135.4614],[88.1713,51.393,1811.8674],[88.2597,51.3758,2365.9602],[88.333,51.354,2297.6475],[88.3304,51.3277,2281.8311],[88.4061,51.2922,2028.6613],[88.5152,51.3039,2220.3435],[88.5961,51.3366,2548.1172],[88.624,51.3683,2200.7034],[88.6711,51.4058,2573.4949],[88.6907,51.508,2013.9929],[88.7416,51.5486,2359.2905],[88.7881,51.5414,2417.1724],[88.8078,51.5518,2383.1655],[88.9185,51.5505,2550.0493],[88.9815,51.5645,2421.2756],[89.0231,51.6013,2327.8989],[89.1999,51.6287,2563.4082],[89.215,51.6016,2251.3994],[89.17,51.5396,2429.7812],[89.2325,51.5228,1915.1858],[89.3148,51.5581,2313.2749],[89.442,51.5747,2211.3218],[89.4854,51.5467,1960.907],[89.5508,51.5236,2058.6304],[89.6227,51.5197,2227.9243],[89.7257,51.5604,2325.2495],[89.7586,51.6099,1878.8416],[89.8577,51.653,2236.8999],[89.8809,51.6951,2248.3989],[89.984,51.7199,2075.0671],[90.0198,51.7131,2291.02],[90.061,51.743,2359.769],[90.0209,51.8169,1591.9025],[89.9578,51.8921,1626.7539],[89.9853,51.9687,1931.8174],[90.0727,52.0224,1582.0884],[90.0573,52.0801,1092.5228],[90.0485,52.1254,1785.8098],[90.0839,52.1427,1739.0291],[90.1752,52.1135,1620.3519],[90.2571,52.1323,1853.1306],[90.293,52.1717,2214.3013],[90.3655,52.1693,1958.1409],[90.452,52.1634,1822.4774],[90.488,52.2028,1996.2069],[90.5281,52.2572,1494.6849],[90.6062,52.3326,1308.4424],[90.6266,52.3806,1050.1417],[90.7003,52.4582,1444.5631],[90.7984,52.5278,1502.2806],[90.844,52.5503,1584.8313],[90.8272,52.57,1192.9601],[90.8273,52.5995,899.3062],[90.7873,52.6089,865.7618],[90.6583,52.5642,674.4493],[90.5715,52.5803,710.556],[90.6141,52.6782,841.6185],[90.6278,52.7328,781.1519],[90.5796,52.8013,1006.7078],[90.4963,52.8011,800.6293],[90.2611,52.7619,849.3563],[90.1697,52.7533,843.3928],[90.1029,52.7525,971.0812],[90.0646,52.8042,486.4077],[89.9795,52.8707,536.169],[89.8117,52.861,810.5557],[89.7396,52.8632,865.9489],[89.6844,52.8477,655.3853],[89.538,52.7999,518.4973],[89.4164,52.8209,599.7266],[89.3538,52.8627,640.3386],[89.3803,52.9226,709.1702],[89.3371,52.9903,781.5746],[89.267,53.0405,914.5681],[89.1547,53.0365,1233.0487],[89.0912,53.0513,1185.2079],[89.0612,53.0797,1010.7402],[89.0198,53.0896,1334.2966],[88.9835,53.0819,1123.8123],[88.9386,53.0601,1066.6653],[88.9109,53.0325,1114.3324],[88.9154,52.9897,1097.8339],[88.9509,52.9519,1141.4951],[89.0154,52.9583,1248.5881],[89.0626,52.9169,745.9857],[89.0924,52.872,844.9523],[89.1927,52.8441,810.1735],[89.2146,52.814,797.8226],[89.2214,52.7898,1140.4694],[89.1546,52.7815,830.6222],[89.1286,52.7495,860.2277],[89.1176,52.7282,866.6667],[89.0749,52.7166,960.1997],[89.0342,52.6979,1074.3015],[89.0166,52.6575,781.106],[89.0444,52.6243,790.5524],[89.0902,52.6086,883.7806],[89.1271,52.5864,980.5922],[89.0733,52.5765,887.8917],[89.0489,52.5548,920.6434],[88.998,52.5138,961.1364],[88.9203,52.4599,994.7562],[88.8543,52.4459,814.9647],[88.7735,52.4091,1050.7391],[88.7183,52.3897,884.8522],[88.6842,52.3659,1022.4075],[88.6793,52.3358,1138.7916],[88.6904,52.2982,815.1292],[88.7001,52.2752,1055.4264],[88.6465,52.2457,1097.241],[88.5144,52.195,1270.39],[88.4541,52.1785,1198.3403],[88.4223,52.1835,1211.2544],[88.3955,52.1418,1259.0995],[88.3095,52.1105,1429.8303],[88.2749,52.0698,1077.7865],[88.1559,52.0681,1176.8403],[88.0539,52.0357,1470.4652],[88.0478,51.9823,1268.5834],[88.0151,51.9463,1181.7148],[87.9789,51.8783,1302.213],[87.9161,51.8093,1346.3571],[87.9566,51.7665,1874.1978],[88.0097,51.7502,1745.6476],[88.0985,51.7692,1549.1478],[88.1131,51.7217,1853.8059],[88.0586,51.6795,1971.5237],[88.0204,51.6429,1997.5964],[88.0046,51.6068,1911.4329],[87.9058,51.5876,1991.3181],[87.904,51.5649,1728.1155]]]]}}