{"type":"Feature","properties":{"GID_3":"RUS.2.56.1_1","GID_0":"RUS","country":"Russia","GID_1":"RUS.2_1","province":"Altay","NL_NAME_1":"Алтайскийкрай","GID_2":"RUS.2.56_1","county":"Troitskiyrayon","NL_NAME_2":"Троицкийрайон","city":"NA","VARNAME_3":"NA","NL_NAME_3":"NA","TYPE_3":"NA","ENGTYPE_3":"NA","CC_3":"NA","HASC_3":"NA","name":"N_A.city"},
"geometry":{"type": "MultiPolygon","coordinates": [[[[84.5943,52.5343,224.7964],[84.5915,52.5571,217.1608],[84.57,52.5801,235.6011],[84.5574,52.6119,245.4043],[84.5165,52.6564,233.5016],[84.4936,52.7025,225.023],[84.5418,52.7102,232.8283],[84.5871,52.7138,225.3548],[84.6304,52.7105,224.8218],[84.6857,52.7201,218.9576],[84.6878,52.7465,222.794],[84.6809,52.7799,218.2223],[84.6904,52.8035,226.8764],[84.7068,52.8253,233.7124],[84.7561,52.8507,245.371],[84.8112,52.8695,257.1279],[84.8829,52.8858,279.1997],[84.9611,52.9058,319.4088],[85.0347,52.9093,325.1853],[85.1273,52.9245,332.0935],[85.1485,52.9385,355.1386],[85.1738,52.9623,349.9238],[85.1872,52.9929,340.2019],[85.2156,53.0087,363.0473],[85.2682,53.0185,353.5406],[85.3118,53.015,340.0928],[85.3685,53.0141,316.7701],[85.4296,53.0055,345.1884],[85.4662,53.0288,324.1326],[85.4816,53.0799,290.5333],[85.4342,53.0978,319.5226],[85.3965,53.0938,318.7326],[85.3829,53.13,294.5511],[85.3786,53.1498,267.0764],[85.3828,53.1763,274.7269],[85.3966,53.1939,270.5511],[85.3938,53.2222,288.4148],[85.2884,53.2056,289.0428],[85.2578,53.1951,309.2303],[85.0827,53.1681,301.5359],[85.0263,53.2004,297.1131],[84.9697,53.1798,322.9866],[84.9206,53.1686,324.7851],[84.8802,53.1473,270.8044],[84.8215,53.1244,303.1775],[84.7583,53.1214,306.0484],[84.694,53.133,276.8957],[84.6417,53.1462,293.2595],[84.5889,53.1444,253.2272],[84.5314,53.1467,266.3826],[84.2649,53.086,224.1626],[84.174,53.0545,192.5008],[84.1046,53.0361,179.6704],[84.0803,53.0224,173.3876],[84.0882,52.9993,178.0862],[84.0273,52.9756,163.6323],[83.9987,52.9538,159.7865],[83.9992,52.9334,157.9553],[84.0133,52.8991,168.8989],[84.002,52.8732,172.9136],[84.0365,52.7813,170.2236],[84.0835,52.7732,174.0811],[84.1204,52.7515,170.8249],[84.1266,52.717,187.0886],[84.1113,52.6859,183.3959],[84.0362,52.6526,169.0653],[83.9668,52.6135,167.0071],[84.0216,52.5516,171.5502],[84.1089,52.5046,179.7616],[84.1499,52.4686,180.3169],[84.1701,52.4455,172.4786],[84.2231,52.4522,173.0056],[84.2629,52.4646,177.6352],[84.2818,52.5101,184.5663],[84.3651,52.5184,208.268],[84.5276,52.5621,238.5741],[84.5611,52.5556,219.4136],[84.5943,52.5343,224.7964]]]]}}