{"type":"Feature","properties":{"GID_2":"RUS.28.18_1","GID_0":"RUS","country":"Russia","GID_1":"RUS.28_1","province":"Khabarovsk","NL_NAME_1":"Хабаровскийкрай","county":"Sovetsko-Gavanskiyrayon","VARNAME_2":"NA","NL_NAME_2":"Советско-Гаванскийрайон","TYPE_2":"Raion","ENGTYPE_2":"District","CC_2":"R67091","HASC_2":"RU.KH.SR","name":"Sovetsko-Gavanskiyrayon.county"},
"geometry":{"type": "MultiPolygon","coordinates": [[[[136.6442,45.0464,1.004],[136.6408,45.0458,0.9251],[136.6389,45.0419,0.1792],[136.645,45.0358,1.2039],[136.6586,45.0394,0.4184],[136.6619,45.0422,6.3369],[136.6583,45.0442,0.0],[136.6542,45.0431,2.53],[136.6469,45.0442,2.8841],[136.6442,45.0464,1.004]]],
[[[138.3346,48.4563,1185.3947],[138.3351,48.4535,1177.9457],[138.3951,48.4392,1250.1625],[138.444,48.4212,1182.3704],[138.4776,48.3816,1291.0344],[138.4856,48.3457,1310.3484],[138.4679,48.3114,1107.6372],[138.4849,48.2831,1041.5957],[138.5366,48.2669,1161.6147],[138.5597,48.2485,1100.704],[138.5519,48.1994,1135.2561],[138.5898,48.1786,1207.948],[138.6569,48.1734,988.9987],[138.7072,48.186,1176.7026],[138.7119,48.1335,1451.4436],[138.6326,48.1136,1307.8323],[138.6049,48.0721,1169.6892],[138.5806,48.0396,1315.1162],[138.5993,48.0166,1097.0361],[138.6497,48.006,1207.5077],[138.6858,47.9869,950.22],[138.7204,47.959,880.2163],[138.7499,47.8803,953.9542],[138.7843,47.8735,845.1796],[138.787,47.8458,981.2264],[138.7676,47.8046,951.1491],[138.7241,47.7837,863.2574],[138.6813,47.7688,728.3776],[138.5785,47.7381,713.7505],[138.5432,47.7091,700.9629],[138.5271,47.6747,672.346],[138.5567,47.651,722.9138],[138.6018,47.6192,756.552],[138.5963,47.5801,893.1066],[138.5837,47.5473,645.6019],[138.5241,47.4938,462.4695],[138.6034,47.4893,694.0514],[138.6462,47.4778,715.257],[138.6926,47.4569,771.0648],[138.7399,47.4581,979.849],[138.7816,47.4779,506.5975],[138.8238,47.4909,333.9654],[138.8632,47.4871,472.5806],[138.8966,47.4741,599.7355],[138.9268,47.4572,252.4976],[138.9538,47.4311,138.4769],[139.0524,47.4074,19.4395],[139.0508,47.4271,33.3569],[139.0542,47.4408,27.493],[139.0591,47.4518,1.6839],[139.0597,47.4607,0.0],[139.0503,47.4731,0.0],[139.0594,47.4781,0.0],[139.0619,47.4893,0.0],[139.0694,47.5002,4.5226],[139.0722,47.5103,0.0],[139.0815,47.5151,8.0967],[139.0957,47.5262,0.0],[139.1048,47.5363,0.0],[139.1011,47.5419,0.0],[139.1095,47.5519,0.0],[139.1089,47.5549,0.0],[139.1116,47.5589,0.0],[139.108,47.5621,4.2558],[139.1087,47.5642,0.0],[139.1153,47.5695,0.0],[139.1168,47.5757,62.384],[139.1228,47.583,34.9773],[139.1344,47.5925,26.0585],[139.1387,47.5987,0.0],[139.1423,47.6006,10.3048],[139.1452,47.6071,30.3478],[139.1565,47.6171,4.0423],[139.158,47.6196,0.0],[139.1536,47.6218,8.7045],[139.1541,47.6243,0.0],[139.1652,47.628,3.18],[139.1659,47.6312,8.7536],[139.1631,47.6344,0.0],[139.1644,47.6386,0.0],[139.1763,47.6412,0.0],[139.1786,47.6439,0.0],[139.1785,47.6483,2.0163],[139.1847,47.6519,0.0],[139.1889,47.6508,0.3899],[139.1933,47.6523,28.3175],[139.1996,47.6591,0.0],[139.2019,47.6652,0.0],[139.2011,47.6725,23.9221],[139.2025,47.6761,15.0992],[139.2011,47.6828,5.7109],[139.1975,47.6881,0.0],[139.1986,47.6919,0.0],[139.2025,47.695,0.0],[139.2138,47.72,2.2123],[139.2161,47.7217,0.0],[139.2177,47.7291,0.0],[139.231,47.7423,35.782],[139.2452,47.7532,0.0],[139.2464,47.7637,1.2096],[139.2506,47.7687,0.0],[139.2564,47.7827,14.6079],[139.2623,47.7879,0.0],[139.2615,47.7943,0.0],[139.2648,47.8024,50.8645],[139.2777,47.816,0.4171],[139.2942,47.8256,14.4496],[139.3049,47.8289,0.8347],[139.3057,47.8342,6.1704],[139.3135,47.8404,0.0],[139.3168,47.8466,0.0],[139.3409,47.8669,1.8287],[139.3527,47.8702,0.0],[139.3553,47.8761,19.565],[139.3668,47.8844,0.0],[139.3747,47.8947,0.0],[139.3778,47.8957,38.3547],[139.3833,47.9018,0.0],[139.3858,47.9072,24.705],[139.3927,47.9129,0.0],[139.3946,47.9166,22.3979],[139.4043,47.9241,8.7009],[139.4114,47.9277,3.3317],[139.419,47.9292,6.9567],[139.4279,47.9347,0.3709],[139.4358,47.9366,1.3687],[139.444,47.9361,0.0],[139.4728,47.9491,39.1787],[139.4887,47.9544,9.2192],[139.4944,47.9547,2.6311],[139.4999,47.9579,5.2902],[139.5066,47.9581,1.1648],[139.5204,47.9661,5.7551],[139.5296,47.967,0.0],[139.5386,47.9703,0.0],[139.5394,47.9719,0.0],[139.5353,47.9717,1.6527],[139.5328,47.9736,0.1463],[139.5325,47.9806,0.0],[139.5403,47.992,0.0],[139.5556,48.0,0.0],[139.5559,48.0023,6.7258],[139.5605,48.0066,1.1659],[139.5725,48.016,5.0836],[139.5851,48.0233,0.0],[139.5893,48.0294,2.7302],[139.6046,48.0379,0.0],[139.6131,48.0477,0.5759],[139.6199,48.0526,4.7059],[139.6288,48.0583,0.7741],[139.6345,48.0599,0.5697],[139.64,48.0594,7.2861],[139.6444,48.0617,0.0],[139.6527,48.0782,20.7869],[139.6672,48.0946,3.9274],[139.6715,48.1037,0.0],[139.6921,48.1166,0.0],[139.6873,48.122,10.524],[139.6886,48.1256,7.796],[139.6927,48.1288,3.5332],[139.6979,48.1295,0.0],[139.699,48.1322,19.1005],[139.7047,48.1331,5.6942],[139.7074,48.1355,0.0],[139.71,48.1424,0.0],[139.7073,48.1459,1.5063],[139.7087,48.1503,1.3822],[139.7149,48.1546,0.0],[139.7148,48.1568,0.0],[139.7178,48.1577,0.0],[139.7208,48.1624,16.0705],[139.7606,48.1817,0.0],[139.7709,48.1907,20.7069],[139.7806,48.1939,23.1666],[139.8094,48.2119,0.0],[139.813,48.2126,0.0],[139.8165,48.2183,0.0],[139.8261,48.2261,10.8149],[139.8352,48.2308,14.1007],[139.8399,48.2315,2.1636],[139.8429,48.2374,8.0095],[139.8533,48.239,6.8105],[139.8667,48.2454,0.0],[139.8666,48.2499,0.0],[139.8703,48.2564,1.8132],[139.8749,48.2597,0.0],[139.8748,48.2631,0.0],[139.8793,48.2667,2.3492],[139.8798,48.2697,12.5999],[139.9058,48.2806,1.3397],[139.909,48.2832,0.3404],[139.9164,48.2957,10.4241],[139.9222,48.3002,0.0],[139.9557,48.3138,4.6855],[139.9892,48.3218,0.0],[139.9987,48.3258,0.0],[140.0332,48.33,0.0],[140.0385,48.3343,46.1874],[140.0404,48.3396,0.0],[140.0391,48.3468,0.0],[140.0466,48.3505,8.596],[140.0485,48.3634,0.0],[140.0546,48.3696,4.9269],[140.0547,48.3723,19.3151],[140.06,48.3811,2.2127],[140.0688,48.3888,14.5113],[140.0808,48.3956,15.5247],[140.083,48.3978,0.0],[140.0845,48.4037,0.0],[140.097,48.4105,6.2124],[140.0982,48.4129,36.7353],[140.107,48.4189,7.7605],[140.1467,48.4323,0.3197],[140.1648,48.4405,0.8421],[140.1733,48.4462,0.0],[140.1757,48.4543,0.9297],[140.17,48.4675,1.789],[140.1698,48.474,61.5742],[140.1799,48.4891,0.0],[140.1778,48.4946,67.9011],[140.1784,48.503,85.6691],[140.1806,48.5064,0.0],[140.1803,48.5097,2.7586],[140.1841,48.5111,1.2308],[140.1801,48.5147,0.0],[140.1826,48.5193,22.0393],[140.1798,48.5222,0.0],[140.1729,48.5236,48.1266],[140.1705,48.5256,0.0],[140.1698,48.5302,34.4957],[140.175,48.5361,0.0],[140.1642,48.5411,36.4437],[140.1593,48.5515,2.5821],[140.1522,48.5514,0.0],[140.1597,48.5547,2.5737],[140.1634,48.5609,0.891],[140.1741,48.5696,0.4661],[140.1888,48.5694,6.3089],[140.1899,48.5728,0.0],[140.1855,48.5773,1.6678],[140.1848,48.5802,0.0],[140.1886,48.5846,12.5524],[140.188,48.5915,1.9359],[140.1939,48.5946,0.0],[140.191,48.599,0.0],[140.1787,48.5995,0.0],[140.1703,48.6047,7.7907],[140.1721,48.6082,0.4738],[140.18,48.6081,0.0],[140.1836,48.6123,0.0],[140.1838,48.6152,4.8588],[140.1787,48.6216,0.0],[140.184,48.6251,1.1942],[140.1817,48.6272,0.0],[140.1818,48.6309,0.0],[140.1864,48.6322,26.8423],[140.1873,48.6346,0.0],[140.1803,48.6486,0.0],[140.177,48.6642,5.0934],[140.175,48.6671,0.0],[140.1754,48.6742,13.5503],[140.1804,48.6792,2.0425],[140.1809,48.6822,0.0],[140.1788,48.6834,0.0],[140.1801,48.6851,0.0],[140.1788,48.6926,0.0],[140.1811,48.701,0.0],[140.1801,48.7047,0.0],[140.1839,48.7095,4.9245],[140.1821,48.7142,13.0786],[140.1915,48.7319,0.0],[140.198,48.7352,0.0],[140.1995,48.7391,0.0],[140.1995,48.7407,0.0],[140.1938,48.7455,0.0],[140.185,48.747,3.3438],[140.1816,48.7499,0.0],[140.1897,48.7492,0.3796],[140.1911,48.7503,0.0],[140.1943,48.7555,36.0596],[140.1936,48.7606,46.6787],[140.1985,48.7636,0.0],[140.2017,48.7706,16.7099],[140.2073,48.7739,53.0565],[140.2076,48.7794,0.0],[140.2114,48.7829,46.5836],[140.2142,48.7897,0.0],[140.2227,48.7979,20.69],[140.224,48.801,0.0],[140.2349,48.8098,0.0],[140.237,48.8167,0.0],[140.2309,48.8317,35.6781],[140.235,48.8424,4.034],[140.2533,48.8561,7.0318],[140.2971,48.8742,1.6449],[140.3061,48.8793,36.7065],[140.3194,48.8883,9.7206],[140.323,48.8962,0.0],[140.3455,48.907,0.0],[140.3476,48.911,0.0],[140.3615,48.9197,1.6915],[140.3636,48.9275,56.3416],[140.3621,48.9353,0.0],[140.366,48.9394,0.0],[140.3642,48.9431,0.0],[140.3641,48.95,0.0],[140.3667,48.958,1.3145],[140.3713,48.9636,14.2916],[140.3701,48.9674,12.7828],[140.3767,48.971,13.7541],[140.379,48.9702,0.0],[140.3865,48.9727,2.1285],[140.3906,48.976,0.0],[140.387,48.9796,0.0],[140.3765,48.9832,0.0],[140.3757,48.9849,5.3439],[140.3792,48.9876,8.3362],[140.3759,48.9902,15.7219],[140.3672,48.992,19.9154],[140.3607,48.9916,9.8893],[140.3573,48.9895,5.0393],[140.3526,48.9907,6.7401],[140.3528,48.9952,8.5065],[140.3556,48.9986,0.0],[140.3568,49.0043,0.0],[140.3547,49.0042,0.0],[140.3541,49.0011,0.8367],[140.3518,48.9996,8.5427],[140.3467,48.9983,19.5647],[140.3434,48.9994,2.9685],[140.3467,49.0028,0.0],[140.3432,49.0064,2.2465],[140.3388,49.0028,5.7226],[140.3361,49.0032,5.6593],[140.3338,49.0074,1.9471],[140.3376,49.01,0.0],[140.3412,49.009,0.0],[140.3446,49.0119,0.0],[140.3505,49.0108,2.0601],[140.3486,49.015,1.3667],[140.3508,49.0213,10.8723],[140.3489,49.0251,10.7196],[140.3454,49.0248,11.2791],[140.3399,49.0209,0.0],[140.3325,49.0236,5.3147],[140.3283,49.0173,0.0],[140.3212,49.0163,12.4963],[140.315,49.0125,4.3341],[140.3132,49.0078,1.177],[140.3144,49.0056,0.0],[140.3171,49.0057,1.949],[140.3157,49.0039,0.0],[140.3063,49.005,1.0065],[140.3061,49.0008,0.0],[140.3085,48.9991,3.9963],[140.3066,48.996,3.2617],[140.3043,48.9966,0.0],[140.3056,48.9983,0.0],[140.3044,48.9994,0.0],[140.3,48.9985,1.8603],[140.2969,48.9943,10.5506],[140.2837,48.9947,24.711],[140.2831,48.9831,0.0],[140.2863,48.9793,4.7158],[140.282,48.9801,3.6659],[140.2803,48.9833,0.0],[140.278,48.9833,0.0],[140.2738,48.9799,10.0732],[140.274,48.9744,10.6154],[140.2719,48.9713,4.4167],[140.2753,48.9679,0.5072],[140.2714,48.9661,0.0],[140.2794,48.9602,0.0],[140.2787,48.9586,0.0],[140.2721,48.9628,0.0],[140.2649,48.9611,0.0],[140.2519,48.9567,2.0257],[140.2516,48.9549,1.1272],[140.2544,48.9529,1.5709],[140.254,48.951,0.6368],[140.2584,48.9488,0.0],[140.2496,48.9505,0.0],[140.2475,48.9544,12.418],[140.2475,48.9592,14.8904],[140.2548,48.9636,0.0],[140.2605,48.963,0.0],[140.2629,48.9655,12.8889],[140.2624,48.9726,2.1894],[140.2578,48.9732,11.6211],[140.2504,48.9702,19.2129],[140.2349,48.969,0.0],[140.2283,48.9663,9.0004],[140.2196,48.9683,9.0585],[140.2163,48.9656,23.2108],[140.2153,48.9615,6.4462],[140.2065,48.9537,5.3992],[140.2008,48.9509,1.6561],[140.2129,48.9619,2.938],[140.2142,48.9661,0.0],[140.2131,48.9681,0.943],[140.2144,48.9697,0.1671],[140.2267,48.9748,0.0],[140.2232,48.9755,-0.7476],[140.2258,48.9774,-0.0735],[140.2212,48.9787,0.0138],[140.2214,48.9803,0.0],[140.2293,48.9783,0.0],[140.2406,48.9858,6.239],[140.2561,48.9878,13.1116],[140.2581,48.9892,26.2107],[140.2577,48.9962,28.1922],[140.2533,49.0,0.0],[140.2721,49.0051,0.0],[140.2763,49.0092,6.8873],[140.2822,49.0114,3.1174],[140.2865,49.0168,0.0],[140.2788,49.0186,24.4817],[140.2675,49.0148,15.1285],[140.2588,49.0182,0.0],[140.2524,49.0123,0.0],[140.2457,49.0117,9.1695],[140.2336,49.0147,4.4532],[140.2226,49.0078,0.0],[140.2114,49.0078,0.0],[140.2081,49.0062,0.4834],[140.2054,49.0082,0.0],[140.2034,49.0175,1.7542],[140.2153,49.0092,12.3747],[140.2331,49.0183,0.0],[140.2402,49.0188,11.6335],[140.2466,49.017,0.0],[140.256,49.0253,0.0],[140.2602,49.0255,5.8582],[140.2681,49.0213,3.0299],[140.2789,49.0268,0.0],[140.2741,49.0281,48.6504],[140.2675,49.0267,58.7645],[140.2128,49.0515,106.8046],[140.1056,49.0226,225.7531],[140.0086,49.0078,247.6656],[139.9404,49.04,332.3357],[139.8824,49.0513,474.6558],[139.7541,49.0483,528.4202],[139.6008,49.0382,565.954],[139.5,49.0225,800.4321],[139.4563,48.9874,873.5091],[139.484,48.9185,943.7354],[139.4562,48.8791,1034.7065],[139.4189,48.834,1166.3853],[139.3504,48.8279,967.3843],[139.2957,48.871,883.3424],[139.225,48.8829,967.8954],[139.1308,48.8408,1105.7794],[139.0432,48.8069,873.4153],[138.9638,48.8093,745.175],[138.8488,48.8445,753.8765],[138.6401,48.9274,715.2159],[138.5854,48.9278,755.8979],[138.5083,48.9222,841.1763],[138.4796,48.8831,959.1241],[138.4177,48.8489,754.4299],[138.2449,48.7407,814.934],[138.1706,48.6961,946.3613],[138.1319,48.6426,1142.3126],[138.1519,48.5913,1239.9751],[138.2168,48.5679,976.4675],[138.2562,48.5281,1122.6287],[138.328,48.4911,1115.2296],[138.3346,48.4563,1185.3947]],
[[140.3498,48.9596,76.6387],[140.3503,48.9537,123.9872],[140.3279,48.9333,179.1982],[140.3165,48.935,83.6884],[140.2928,48.9491,31.6234],[140.2948,48.9613,35.8781],[140.311,48.9731,54.0761],[140.3359,48.9741,82.9915],[140.3493,48.9655,59.1862],[140.3498,48.9596,76.6387]]]]}}