{"type":"Feature","properties":{"GID_2":"RUS.28.11_1","GID_0":"RUS","country":"Russia","GID_1":"RUS.28_1","province":"Khabarovsk","NL_NAME_1":"Хабаровскийкрай","county":"Konsomolsk-na-amure","VARNAME_2":"Komsomol'skiy","NL_NAME_2":"Комсомольск-на-Амуре","TYPE_2":"Raion","ENGTYPE_2":"District","CC_2":"NA","HASC_2":"RU.KH.KO","name":"Konsomolsk-na-amure.county"},
"geometry":{"type": "MultiPolygon","coordinates": [[[[137.0645,50.5612,23.0764],[137.0852,50.5827,24.9199],[137.0558,50.6237,36.034],[137.0281,50.6294,169.5355],[136.9733,50.6153,66.3941],[136.9899,50.565,38.4609],[137.0165,50.5555,37.1729],[137.0645,50.5612,23.0764]]]]}}