{"type":"Feature","properties":{"GID_2":"RUS.35.49_1","GID_0":"RUS","country":"Russia","GID_1":"RUS.35_1","province":"Krasnoyarsk","NL_NAME_1":"Красноярскийкрай","county":"Sosnovoborsk","VARNAME_2":"NA","NL_NAME_2":"Сосновоборск","TYPE_2":"Gorod","ENGTYPE_2":"City","CC_2":"NA","HASC_2":"RU.KY.SB","name":"Sosnovoborsk.county"},
"geometry":{"type": "MultiPolygon","coordinates": [[[[93.3815,56.1415,178.7093],[93.3948,56.1697,150.8852],[93.3433,56.1943,130.2076],[93.3229,56.191,137.2798],[93.3061,56.154,131.0147],[93.3427,56.1394,147.8234],[93.3815,56.1415,178.7093]]]]}}