{"type":"Feature","properties":{"GID_3":"RUS.28.13.1_1","GID_0":"RUS","country":"Russia","GID_1":"RUS.28_1","province":"Khabarovsk","NL_NAME_1":"Хабаровскийкрай","GID_2":"RUS.28.13_1","county":"Nikolaevskiy","NL_NAME_2":"Николаевск","city":"NA","VARNAME_3":"NA","NL_NAME_3":"NA","TYPE_3":"NA","ENGTYPE_3":"NA","CC_3":"NA","HASC_3":"NA","name":"N_A.city"},
"geometry":{"type": "MultiPolygon","coordinates": [[[[140.7131,53.2033,165.6418],[140.6942,53.1914,124.3758],[140.7065,53.1679,13.1496],[140.7354,53.1613,144.1792],[140.7562,53.1641,212.488],[140.7711,53.1832,169.1251],[140.7525,53.1988,226.6545],[140.721,53.2083,208.5405],[140.7131,53.2033,165.6418]]]]}}