{"type":"Feature","properties":{"GID_2":"RUS.28.9_1","GID_0":"RUS","country":"Russia","GID_1":"RUS.28_1","province":"Khabarovsk","NL_NAME_1":"Хабаровскийкрай","county":"Khabarovskiyrayon","VARNAME_2":"NA","NL_NAME_2":"Хабаровскийрайон","TYPE_2":"Raion","ENGTYPE_2":"District","CC_2":"R67091","HASC_2":"RU.KH.KR","name":"Khabarovskiyrayon.county"},
"geometry":{"type": "MultiPolygon","coordinates": [[[[134.668,48.1889,37.16],[134.6745,48.1988,92.6877],[134.7082,48.1455,37.0579],[134.804,48.1076,43.1844],[134.907,48.0988,51.3968],[135.0021,48.1579,88.0957],[135.115,48.1741,88.7301],[135.5064,48.2566,64.6038],[135.6817,48.271,51.2851],[135.8129,48.2451,51.515],[135.8869,48.263,53.9207],[135.9225,48.3852,47.1153],[135.9377,48.4706,40.6076],[135.9738,48.5571,35.8207],[135.9594,48.6258,33.4659],[136.0051,48.6868,78.3634],[136.0916,48.7578,29.4462],[136.1515,48.8111,28.2358],[136.1865,48.8915,32.3784],[136.1571,48.9556,28.4938],[136.0669,48.9895,28.1845],[135.9913,48.9887,28.2464],[135.9266,48.9547,29.4918],[135.839,48.8975,30.2857],[135.7634,48.8779,36.7021],[135.6941,48.8569,33.3063],[135.5709,48.8521,31.7498],[135.4706,48.7953,30.9938],[135.4348,48.7778,30.7575],[135.3801,48.8026,29.9797],[135.2734,48.8201,34.7675],[135.2077,48.786,32.3841],[135.1774,48.8427,39.1513],[135.1257,48.9219,48.2349],[135.1221,49.0025,124.9176],[135.0471,49.0586,349.4822],[134.9029,49.0694,183.7583],[134.8407,49.1729,120.1953],[134.9252,49.1602,147.3461],[134.9275,49.1963,91.519],[134.9697,49.2249,94.4238],[134.8865,49.2413,69.3278],[134.8418,49.2537,69.1685],[134.8302,49.3863,102.8756],[134.8623,49.4608,106.6668],[134.868,49.5192,116.9327],[134.7691,49.54,145.7772],[134.4817,49.6578,206.8348],[134.4792,49.6955,363.2437],[134.6221,49.8364,411.3152],[134.6751,49.9463,322.3059],[134.7571,49.933,626.9474],[134.8478,49.9655,778.8492],[134.9788,50.0213,952.8293],[135.1912,50.1066,639.3353],[135.2056,50.165,534.9229],[135.3275,50.1694,639.6003],[135.4905,50.1809,452.3524],[135.6926,50.2011,468.4261],[135.8243,50.2423,999.7764],[135.9219,50.3202,751.0709],[135.9515,50.3886,771.4165],[135.9704,50.4281,721.7351],[136.0555,50.4403,819.079],[136.1203,50.5184,707.2546],[136.0779,50.5096,735.1685],[136.0093,50.4993,724.4774],[135.921,50.4965,695.9875],[135.8371,50.5105,934.2985],[135.7834,50.4914,1096.7151],[135.7301,50.5083,959.6831],[135.6857,50.498,840.7237],[135.6229,50.4533,994.0402],[135.4937,50.4405,708.1873],[135.4116,50.4586,821.0747],[135.3281,50.4214,954.3678],[135.2288,50.4178,882.7681],[135.1653,50.3927,955.8671],[135.0911,50.3489,779.4159],[135.0442,50.3548,1014.395],[134.9724,50.4047,1764.7004],[134.9341,50.4607,1395.8992],[134.699,50.4656,1552.1537],[134.6508,50.487,1561.8435],[134.6274,50.5088,1144.7615],[134.5081,50.4951,1607.849],[134.4718,50.466,1785.8043],[134.4489,50.4137,1616.2251],[134.3429,50.3491,1523.3319],[134.3011,50.2872,1762.6139],[134.2584,50.3238,1769.3359],[134.1676,50.3007,1650.7404],[134.1181,50.313,1491.4836],[134.0602,50.2864,1333.2274],[133.9764,50.3169,1512.0598],[133.9224,50.2745,1222.4904],[133.9791,50.2312,1113.6012],[133.8344,50.1951,1009.53],[133.8173,50.1674,802.4413],[133.7217,50.1762,1050.3207],[133.6568,50.1406,581.8215],[133.558,50.1107,771.041],[133.4905,50.1278,586.5615],[133.4578,50.191,596.7787],[133.3772,50.1576,669.1678],[133.3307,50.1074,727.2224],[133.2786,50.0235,489.6342],[133.2053,49.9947,529.5036],[133.1041,50.0149,699.1597],[133.1456,49.953,573.7021],[133.1488,49.9265,585.3189],[133.1185,49.886,554.7025],[133.0207,49.8979,1034.7515],[132.9644,49.8256,521.5086],[132.8501,49.7343,787.6495],[132.75,49.7377,792.8853],[132.7421,49.6733,658.2274],[132.7247,49.6203,767.0839],[132.8126,49.5987,784.7234],[132.8076,49.5395,575.748],[132.8468,49.4987,501.0623],[132.7836,49.4693,673.7067],[132.7583,49.4281,490.5966],[132.7525,49.361,754.6807],[132.739,49.3229,541.5938],[132.7868,49.2415,716.1689],[132.8909,49.2406,657.008],[132.9474,49.2253,895.7067],[133.0222,49.2302,917.4055],[133.0836,49.1958,667.5281],[133.1435,49.1863,321.3712],[133.1992,49.0814,149.0073],[133.2194,48.9968,102.2174],[133.2386,48.9044,83.4353],[133.4016,48.7902,71.3059],[133.7321,48.6916,50.6889],[134.0515,48.6508,45.6646],[134.1636,48.6451,41.9852],[134.2237,48.6705,43.322],[134.2568,48.6944,43.1505],[134.2804,48.7248,39.7657],[134.3148,48.7472,40.7519],[134.3807,48.7437,41.1837],[134.4272,48.7164,37.0],[134.4417,48.6896,38.4949],[134.5033,48.6824,38.1542],[134.5104,48.6366,36.9652],[134.5604,48.6049,37.549],[134.597,48.6356,35.5],[134.649,48.6267,36.509],[134.6898,48.5931,33.5],[134.7692,48.6223,35.8642],[134.8434,48.6081,34.8889],[134.8906,48.5936,34.115],[134.9063,48.5713,34.1232],[134.8992,48.5296,41.2778],[134.8578,48.473,39.1305],[134.7578,48.4309,36.8925],[134.6825,48.4362,42.2472],[134.6006,48.4665,42.4349],[134.5172,48.4788,42.5919],[134.4441,48.4646,40.8529],[134.351,48.4124,39.7473],[134.3065,48.3776,36.0],[134.2932,48.3738,36.0],[134.3443,48.3736,36.0],[134.3893,48.3857,35.5],[134.4043,48.385,35.5],[134.4277,48.3776,35.5],[134.4532,48.363,35.5],[134.4714,48.3552,35.5],[134.5111,48.347,35.2588],[134.529,48.3487,35.0],[134.537,48.3527,35.0],[134.5546,48.3654,35.0],[134.5697,48.3663,39.1859],[134.5754,48.3632,38.1223],[134.5813,48.3478,35.0],[134.5896,48.3321,35.0],[134.5996,48.3258,36.4694],[134.6301,48.2997,34.5],[134.6567,48.2903,34.6687],[134.7041,48.2798,33.5],[134.7118,48.2758,34.5131],[134.6843,48.2535,33.3849],[134.6753,48.2427,33.0],[134.6686,48.2289,33.5],[134.668,48.1889,37.16]],
[[135.0857,48.3742,50.6344],[135.044,48.3719,40.5272],[135.0098,48.3784,34.1607],[134.9807,48.4169,34.9821],[135.0402,48.4613,31.0],[135.0984,48.4523,41.1941],[135.1233,48.412,61.4848],[135.0857,48.3742,50.6344]]]]}}