{"type":"Feature","properties":{"GID_3":"RUS.80.8.1_1","GID_0":"RUS","country":"Russia","GID_1":"RUS.80_1","province":"Yamal-Nenets","NL_NAME_1":"Ямало-НенецкийАОк","GID_2":"RUS.80.8_1","county":"Purovskiyrayon","NL_NAME_2":"Пуровскийрайон","city":"NA","VARNAME_3":"NA","NL_NAME_3":"NA","TYPE_3":"NA","ENGTYPE_3":"NA","CC_3":"NA","HASC_3":"NA","name":"N_A.city"},
"geometry":{"type": "MultiPolygon","coordinates": [[[[80.9113,63.1288,186.5191],[80.9525,63.1376,184.0169],[80.9889,63.1339,197.0434],[80.9621,63.1909,169.7809],[80.9285,63.229,169.5079],[80.871,63.261,158.3336],[80.7597,63.2773,161.2946],[80.6409,63.2726,165.7906],[80.4694,63.2446,110.1199],[80.3188,63.1831,184.1205],[80.2564,63.1744,159.3753],[80.1856,63.1997,168.2166],[80.1517,63.2273,131.1977],[80.1434,63.2641,109.4245],[80.1684,63.315,121.7281],[80.1554,63.3398,89.0784],[80.0775,63.3375,82.6011],[79.9571,63.3159,103.7167],[79.9121,63.282,99.0389],[79.9166,63.2418,106.4855],[79.8835,63.1725,115.3287],[79.7639,63.1507,91.737],[79.6223,63.1542,94.067],[79.4972,63.1886,92.8757],[79.4751,63.2196,92.032],[79.4876,63.2472,94.8588],[79.4885,63.273,97.7333],[79.4562,63.3121,96.5412],[79.4092,63.3625,98.6985],[79.3482,63.4318,88.2023],[79.3491,63.4843,81.161],[79.4141,63.5261,81.0389],[79.5317,63.5647,72.7386],[79.6689,63.6308,70.4216],[79.7396,63.6959,71.8357],[79.7991,63.7527,89.0457],[79.8036,63.7979,91.0474],[79.8332,63.8267,75.3507],[79.8576,63.8871,62.2697],[79.8612,63.9578,61.1777],[79.8211,63.9798,61.3278],[79.7298,64.0022,56.34],[79.4664,64.0747,54.5468],[79.4079,64.1292,54.9942],[79.3638,64.1819,56.2216],[79.349,64.2368,55.2263],[79.3651,64.2713,47.1069],[79.5315,64.3788,44.077],[79.5881,64.4757,58.2303],[79.5978,64.5576,66.7252],[79.6367,64.6367,61.1818],[79.6814,64.7025,52.0867],[79.8181,64.7787,38.3957],[79.8959,64.8165,36.2968],[79.9268,64.8717,33.5671],[79.8627,64.8811,31.3725],[79.805,64.915,28.0884],[79.7922,64.9644,35.1945],[79.7916,65.0277,41.5229],[79.7612,65.0492,45.2016],[79.6489,65.0701,48.7024],[79.5227,65.0966,52.718],[79.4488,65.1292,62.0281],[79.5161,65.146,55.1717],[79.609,65.1537,50.9589],[79.7013,65.168,50.7089],[79.7955,65.1919,54.7116],[79.854,65.2233,56.5285],[79.9264,65.231,49.3362],[79.9489,65.2046,50.1939],[80.0196,65.2054,51.6644],[80.0662,65.2257,55.9228],[80.0699,65.2479,50.2026],[80.0657,65.2804,52.6294],[80.0533,65.3176,54.5692],[80.0856,65.3568,47.552],[80.1734,65.4353,44.6246],[80.161,65.4545,50.0045],[80.1179,65.4924,54.3715],[80.0628,65.5307,57.4551],[80.0591,65.5746,61.18],[80.0882,65.6002,54.6443],[80.1245,65.6285,65.2169],[80.1624,65.6731,64.3358],[80.1441,65.6906,65.826],[80.1021,65.7117,72.4854],[80.0516,65.7346,65.3734],[79.7672,65.8902,76.6085],[79.6301,65.9378,73.8],[79.4714,65.9616,57.9976],[79.3718,65.9969,59.9183],[79.3184,66.0479,73.3901],[79.3675,66.0782,73.7997],[79.554,66.0827,69.6318],[79.5888,66.1043,64.7219],[79.6364,66.2169,59.1233],[79.7318,66.2853,64.7812],[79.8219,66.3374,67.1841],[79.7412,66.3302,69.2495],[79.5983,66.3232,53.0305],[79.4129,66.3068,59.7687],[79.3511,66.3149,64.2312],[79.385,66.3526,64.6494],[79.427,66.3924,56.2546],[79.4234,66.4319,46.3164],[79.3861,66.4775,56.3496],[79.4152,66.5185,57.3605],[79.389,66.5828,56.789],[79.3824,66.6439,35.3278],[79.3474,66.6775,60.7935],[79.2893,66.6919,59.8688],[79.2461,66.7206,50.7408],[79.2037,66.7657,46.0654],[79.1028,66.8224,65.2178],[79.0266,66.843,62.8268],[78.7185,66.8399,58.871],[78.6428,66.8653,53.1793],[78.5204,66.9305,42.6735],[78.3952,67.0097,45.0023],[78.3479,67.0754,60.3283],[78.2648,67.1421,43.4081],[78.1321,67.2589,41.6631],[78.0661,67.3194,51.1799],[78.0528,67.3484,39.9049],[78.0658,67.3704,38.0936],[78.1726,67.3827,27.3599],[78.3618,67.4125,17.3539],[78.4485,67.4421,18.2278],[78.4244,67.4726,8.0369],[78.419,67.4931,15.5416],[78.4167,67.526,4.2671],[78.4593,67.5243,4.2088],[78.471,67.5278,5.8779],[78.5118,67.5318,1.9817],[78.5151,67.5347,1.3363],[78.5124,67.5382,0.0],[78.4916,67.5392,1.5217],[78.4652,67.5433,0.0],[78.4609,67.538,0.0],[78.4958,67.5375,0.0],[78.4974,67.5359,0.0],[78.4708,67.5354,0.0],[78.4667,67.5333,0.5854],[78.4479,67.5333,0.0],[78.4437,67.5313,2.0851],[78.4396,67.5333,0.0],[78.4271,67.5333,0.0],[78.4229,67.5313,0.0],[78.4,67.5313,0.0],[78.3958,67.5333,0.0],[78.3875,67.5333,0.0],[78.3833,67.5313,0.0],[78.3375,67.5313,0.0],[78.3333,67.5292,0.0],[78.3271,67.5292,0.0],[78.3208,67.5313,0.0],[78.3167,67.5292,2.532],[78.3104,67.5292,2.8378],[78.3089,67.5297,1.3719],[78.3099,67.5328,0.0],[78.3083,67.5333,0.0],[78.2917,67.5333,1.2176],[78.2901,67.5339,0.0],[78.2911,67.537,0.0],[78.2896,67.5375,0.0],[78.2771,67.5375,0.0],[78.2646,67.5417,0.0],[78.2568,67.5422,3.0288],[78.2578,67.5453,0.0],[78.2505,67.5484,1.62],[78.2536,67.5537,0.6035],[78.2505,67.5547,1.2015],[78.2495,67.5578,1.2641],[78.2453,67.5599,0.6693],[78.2167,67.5604,0.0],[78.2125,67.5583,1.3747],[78.1813,67.5563,0.0],[78.1687,67.5521,0.0],[78.1479,67.55,0.0],[78.1375,67.5458,4.3027],[78.1188,67.5458,0.0],[78.1083,67.5417,4.2455],[78.0896,67.5417,0.0],[78.0854,67.5396,0.0],[78.0521,67.5375,0.0],[78.0375,67.5333,0.8522],[78.0292,67.5333,0.0],[78.0167,67.5292,0.5513],[78.0125,67.5313,0.7765],[78.0047,67.5318,0.8872],[78.0057,67.5349,0.0],[77.9979,67.5354,0.0],[77.9938,67.5375,0.0],[77.9891,67.5339,0.988],[77.9812,67.5313,0.0],[77.9729,67.5333,0.0],[77.9625,67.5292,0.0],[77.9563,67.5292,0.885],[77.9479,67.5333,0.0],[77.9401,67.5339,1.4507],[77.9359,67.5359,1.2099],[77.937,67.5391,0.0],[77.9339,67.5401,1.0799],[77.9354,67.5417,1.3368],[77.9411,67.5422,0.0],[77.938,67.5453,0.0],[77.9458,67.5458,0.0],[77.9474,67.5474,0.0],[77.9229,67.5479,0.0],[77.9187,67.5458,0.0],[77.9167,67.5479,1.2858],[77.9182,67.5516,0.0],[77.9151,67.5526,1.2807],[77.9161,67.5557,0.0],[77.9042,67.5563,0.0],[77.9016,67.5599,0.0],[77.8896,67.5604,1.4392],[77.8854,67.5625,0.0],[77.8688,67.5625,0.0],[77.8651,67.5589,1.8237],[77.8682,67.5578,1.5459],[77.8672,67.5526,0.0],[77.8734,67.5484,0.0],[77.8771,67.5479,0.0],[77.8812,67.55,0.0],[77.8953,67.5495,2.4654],[77.8875,67.5458,0.0],[77.8818,67.5453,0.0],[77.8833,67.5437,0.0],[77.8974,67.5432,0.0],[77.8891,67.5318,1.1071],[77.8667,67.5229,1.484],[77.8568,67.5224,0.0],[77.8536,67.5193,0.0],[77.8422,67.5162,0.0],[77.8391,67.513,0.0],[77.8255,67.5099,0.0],[77.8203,67.5026,0.0],[77.8151,67.5016,0.0],[77.813,67.4995,0.0],[77.8224,67.4964,0.8289],[77.8172,67.4953,0.0],[77.8141,67.4922,0.0],[77.8078,67.4901,1.0912],[77.7943,67.487,0.0],[77.7901,67.4807,0.0],[77.7932,67.4786,1.5948],[77.7911,67.4734,0.6293],[77.7875,67.4729,0.0],[77.7818,67.4755,0.0],[77.7849,67.4807,0.0],[77.775,67.4812,0.0],[77.7609,67.4766,0.0],[77.7557,67.4714,1.4837],[77.738,67.4661,0.0],[77.7328,67.4609,1.6812],[77.7276,67.4599,0.0],[77.7307,67.4568,2.5712],[77.7276,67.4505,0.0],[77.7333,67.4479,1.1262],[77.7396,67.4479,0.0],[77.7412,67.4464,0.0],[77.7354,67.4458,0.0],[77.725,67.4417,2.1949],[77.7188,67.4437,0.8939],[77.7109,67.4432,0.0],[77.7141,67.4411,0.0],[77.712,67.4359,1.4129],[77.7099,67.4339,1.5073],[77.7047,67.4328,0.0],[77.6995,67.4255,0.0],[77.6818,67.4245,0.0],[77.6818,67.4213,0.0],[77.6849,67.4193,0.0],[77.6792,67.4187,0.0],[77.6687,67.4146,1.21],[77.6604,67.4146,0.0],[77.6526,67.412,0.0],[77.6495,67.4089,0.0],[77.6443,67.4078,0.0],[77.6432,67.4047,2.0143],[77.6359,67.4036,0.0],[77.6312,67.3958,0.0],[77.6349,67.3932,2.028],[77.6339,67.3901,0.0],[77.6412,67.3859,0.0],[77.6359,67.3839,0.0],[77.6432,67.3807,0.0],[77.6458,67.3771,0.0],[77.6443,67.3734,0.0],[77.6516,67.3693,0.0],[77.6495,67.3651,0.0],[77.6438,67.3646,0.0],[77.6208,67.3562,0.0],[77.6146,67.3562,0.0],[77.613,67.3578,0.0],[77.6182,67.3588,0.0],[77.6193,67.362,0.0],[77.6328,67.3651,0.0],[77.637,67.3724,0.0],[77.6339,67.3734,0.0],[77.6349,67.3766,0.0],[77.6318,67.3776,0.0],[77.6307,67.3807,0.0],[77.6172,67.3818,2.275],[77.6224,67.3849,0.0],[77.6151,67.3859,0.0],[77.6162,67.3891,0.0],[77.6088,67.3922,2.815],[77.6141,67.3953,0.0],[77.6062,67.3958,2.5991],[77.6047,67.3974,2.5385],[77.612,67.3984,0.0],[77.6151,67.4036,0.0],[77.6292,67.4083,0.0],[77.6474,67.4109,0.0],[77.6505,67.4161,0.0],[77.6641,67.4213,0.0],[77.6713,67.4328,0.0],[77.6787,67.4339,0.0],[77.6818,67.4411,3.1244],[77.6891,67.4422,0.0],[77.6901,67.4453,2.7275],[77.6974,67.4464,0.0],[77.6984,67.4495,0.0],[77.7057,67.4505,0.0],[77.7026,67.4526,0.0],[77.7016,67.4557,0.0],[77.6984,67.4568,1.5701],[77.7,67.4583,1.6778],[77.7057,67.4589,0.0],[77.7026,67.4609,0.0],[77.7016,67.4641,0.0],[77.6958,67.4667,1.2364],[77.6901,67.4672,0.0],[77.6911,67.4724,0.0],[77.6854,67.4729,1.3177],[77.6797,67.4755,0.0],[77.687,67.4797,0.0],[77.6917,67.4875,0.0],[77.688,67.4901,0.0],[77.6911,67.4953,0.0],[77.6839,67.4984,2.2437],[77.6828,67.5016,0.0],[77.6797,67.5026,0.0],[77.687,67.513,0.0],[77.6839,67.5162,2.6773],[77.6891,67.5172,0.0],[77.6859,67.5193,0.0],[77.687,67.5245,0.0],[77.6839,67.5266,1.0188],[77.6875,67.5271,0.0],[77.6958,67.5229,2.198],[77.7021,67.5229,0.0],[77.7099,67.5255,0.0],[77.7193,67.537,1.0281],[77.7307,67.5401,0.0],[77.7338,67.5432,0.0],[77.7391,67.5443,0.0],[77.7359,67.5474,1.3464],[77.7432,67.5484,0.0],[77.7438,67.55,0.0],[77.7417,67.5521,0.0],[77.725,67.5521,0.0],[77.7208,67.55,0.0],[77.7083,67.55,1.4234],[77.6979,67.5542,0.0],[77.6932,67.5484,1.3732],[77.688,67.5484,0.0],[77.6891,67.5516,0.0],[77.6859,67.5537,1.588],[77.6911,67.5547,0.0],[77.6953,67.5589,0.0],[77.6922,67.562,2.9744],[77.6974,67.563,0.0],[77.6995,67.5651,0.0],[77.7016,67.5703,0.0],[77.6984,67.5724,3.2379],[77.7016,67.5787,0.0],[77.6943,67.5797,1.4414],[77.6953,67.5849,0.0],[77.6818,67.5859,2.94],[77.6807,67.5891,0.0],[77.6734,67.5922,2.3673],[77.6745,67.5953,0.0],[77.6672,67.5984,2.3423],[77.6682,67.6016,0.0],[77.6609,67.6047,1.1362],[77.662,67.6078,0.783],[77.6479,67.6146,0.0],[77.6339,67.6141,0.6975],[77.6292,67.6074,0.0],[77.6378,67.6022,1.1754],[77.607,67.5925,2.1327],[77.4227,67.5362,0.4321],[77.2307,67.4866,9.4559],[77.0324,67.458,6.6962],[76.9323,67.4489,7.7131],[76.8142,67.4613,9.5772],[76.7374,67.4651,9.0942],[76.6633,67.4604,10.8456],[76.5935,67.4378,9.2804],[76.5551,67.409,16.1249],[76.5888,67.339,25.5604],[76.5533,67.2833,27.4296],[76.2551,67.1291,44.7473],[75.9742,66.955,67.6176],[75.889,66.9061,67.0176],[75.7826,66.8588,65.0482],[75.8411,66.7623,56.7398],[75.8364,66.4819,58.0333],[75.8476,66.3395,77.5],[75.8497,66.2834,84.5719],[75.9477,66.2266,86.4574],[76.0865,66.2062,79.2142],[76.3318,66.1884,68.3095],[76.6436,66.1794,52.1785],[76.7823,66.1683,68.2309],[76.8788,66.1421,57.8399],[76.9044,66.0821,37.9865],[76.8449,66.0125,55.5126],[76.6603,65.9248,61.4148],[76.1288,65.8005,91.5015],[75.8423,65.7526,96.5258],[75.591,65.7009,89.2578],[75.4609,65.646,111.503],[75.4111,65.6078,111.2664],[75.3721,65.5635,112.8088],[75.3857,65.5268,98.587],[75.42,65.4935,110.7954],[75.5951,65.3093,96.431],[75.6456,65.2583,94.2197],[75.7269,65.2095,82.6417],[75.8368,65.1828,81.349],[75.9221,65.1646,79.1593],[75.9787,65.1264,80.2395],[75.9815,65.065,81.4357],[75.9739,64.9923,75.8786],[75.857,64.9066,70.6522],[75.7238,64.8316,75.8007],[75.6269,64.7711,70.3855],[75.5595,64.7241,73.7408],[75.5146,64.6954,76.6396],[75.5015,64.6526,86.5803],[75.4768,64.6049,92.8658],[75.4346,64.5416,74.6891],[75.2872,64.5003,80.2947],[75.0665,64.4569,88.6367],[74.8556,64.4109,79.4724],[74.6869,64.3572,82.8572],[74.5233,64.2487,87.194],[74.3613,64.1206,97.0356],[74.269,64.0251,109.9812],[74.1938,63.9619,125.0118],[74.1089,63.9231,125.2138],[73.9094,63.872,109.8392],[73.8159,63.8587,113.6107],[73.7534,63.809,108.0],[73.7002,63.7453,104.3398],[73.2557,63.5323,111.4282],[73.2148,63.4735,123.7572],[73.1524,63.4114,128.8405],[73.1751,63.3746,128.4487],[73.2154,63.3263,131.4869],[73.2908,63.3084,132.5062],[73.4247,63.2065,125.5904],[73.531,63.1788,124.8304],[73.7442,63.1801,127.4675],[73.9584,63.1871,122.6788],[74.1719,63.1781,140.5345],[74.208,63.1604,135.2591],[74.2574,63.1617,139.0726],[74.3067,63.1465,137.2099],[74.434,63.0938,113.572],[74.5311,63.0327,111.0],[74.7166,63.0355,117.674],[75.0422,63.0496,135.5061],[75.1789,63.0653,140.8171],[75.2868,63.0914,140.3574],[75.3972,63.0973,143.3494],[75.5107,63.0921,131.8638],[75.6226,63.1088,126.0],[75.7993,63.1212,127.3575],[75.9085,63.0927,121.0],[76.0819,63.0624,138.7231],[76.2415,63.0298,120.6517],[76.3046,63.0008,124.168],[76.3363,62.9705,132.9622],[76.4053,62.9706,127.6212],[76.4885,63.0059,121.9041],[76.5774,63.0344,124.6458],[76.6411,63.0412,128.1995],[76.7412,63.0377,130.9347],[76.8498,63.0104,133.1884],[76.9661,63.0027,135.7359],[77.0434,62.9682,132.2242],[77.0671,62.9277,134.0215],[77.1532,62.8437,128.9561],[77.2408,62.7896,124.5756],[77.3892,62.7283,112.0],[77.6771,62.6308,106.0],[77.8376,62.5673,111.0182],[78.0494,62.5215,111.5983],[78.1789,62.5574,108.4026],[78.2697,62.5688,113.3517],[78.3928,62.5794,114.4426],[78.5058,62.5836,113.1947],[78.5999,62.5848,116.0119],[78.7213,62.6006,118.0],[78.7998,62.6088,116.8553],[78.9001,62.5983,120.1813],[78.9914,62.5826,118.7279],[79.163,62.575,119.3174],[79.345,62.5765,119.1743],[79.4852,62.5925,120.4008],[79.6373,62.5853,121.5074],[79.7349,62.5777,126.4143],[79.8384,62.5889,134.7404],[79.8712,62.6516,145.0486],[79.906,62.7241,131.6483],[79.9125,62.7641,152.9652],[79.9287,62.7959,139.0496],[79.9628,62.814,134.8621],[80.0656,62.8182,141.9961],[80.2291,62.8451,150.6926],[80.5053,62.9632,146.6947],[80.501,62.9825,155.1091],[80.5267,62.9851,160.6134],[80.6052,62.9883,173.9213],[80.6402,63.0121,168.987],[80.6514,63.0846,185.2882],[80.7319,63.1013,169.7714],[80.8311,63.1118,164.934],[80.9113,63.1288,186.5191]],
[[75.3421,63.1276,138.8614],[75.3295,63.1524,147.2527],[75.3555,63.1722,107.5434],[75.3987,63.1719,99.0],[75.4308,63.1544,120.3618],[75.4422,63.141,126.059],[75.4134,63.1245,138.623],[75.3421,63.1276,138.8614]]],
[[[77.7005,67.5099,0.0],[77.7005,67.5068,0.0],[77.7099,67.5068,0.0],[77.713,67.512,2.4212],[77.7182,67.513,0.0],[77.7224,67.5182,0.0],[77.7068,67.5182,0.0],[77.7005,67.5099,0.0]]],
[[[77.7438,67.5771,0.0],[77.7375,67.5771,0.0],[77.7292,67.5813,0.0],[77.7229,67.5813,1.8894],[77.7193,67.5787,0.0],[77.7224,67.5766,0.0],[77.7214,67.5734,0.0],[77.7338,67.5672,0.0],[77.7495,67.5672,0.0],[77.7536,67.5745,0.0],[77.7479,67.5771,0.0],[77.7438,67.5771,0.0]]],
[[[77.7188,67.5854,0.0],[77.7172,67.5839,0.0],[77.7224,67.5839,1.4241],[77.7224,67.5849,0.6467],[77.7188,67.5854,0.0]]],
[[[79.8331,66.3438,66.2701],[79.8219,66.3374,67.1841],[79.864,66.3411,68.4131],[79.8809,66.3623,62.0073],[79.8331,66.3438,66.2701]]],
[[[77.7667,67.5625,0.0],[77.7589,67.563,0.0],[77.7599,67.5661,0.0],[77.7562,67.5667,0.7989],[77.7521,67.5646,0.0],[77.7438,67.5646,0.0],[77.7359,67.562,0.0],[77.7375,67.5604,0.0],[77.7557,67.5599,1.6071],[77.7505,67.5516,0.0],[77.7536,67.5495,0.0],[77.7516,67.5443,1.9433],[77.7495,67.5422,2.4644],[77.7443,67.5411,0.0],[77.7359,67.5307,0.0],[77.7417,67.5271,1.6518],[77.7521,67.5271,0.0],[77.7542,67.525,0.0],[77.75,67.5208,0.0],[77.7438,67.5229,0.0],[77.7359,67.5224,0.0],[77.7266,67.5068,2.59],[77.7193,67.5057,0.0],[77.7161,67.5005,1.5684],[77.7109,67.4995,0.0],[77.7141,67.4964,2.3638],[77.7089,67.488,0.0],[77.7161,67.4849,2.6873],[77.713,67.4776,0.0],[77.7161,67.4766,1.9414],[77.7151,67.4714,0.0],[77.7182,67.4703,1.7163],[77.7151,67.4651,0.0],[77.7229,67.4646,1.7334],[77.7271,67.4667,1.3799],[77.7312,67.4667,0.0],[77.7359,67.4724,2.2304],[77.7412,67.4734,0.0],[77.7443,67.4766,2.9742],[77.7542,67.4771,0.0],[77.762,67.4797,0.0],[77.7693,67.4912,0.0],[77.7875,67.4938,0.0],[77.7953,67.4964,0.0],[77.7984,67.4995,1.6164],[77.8099,67.5026,0.0],[77.8172,67.5141,0.0],[77.8245,67.5151,0.0],[77.8255,67.5182,1.1987],[77.8328,67.5193,0.0],[77.838,67.5266,0.7771],[77.8521,67.5271,0.0],[77.8599,67.5297,0.0],[77.8651,67.537,1.9582],[77.8724,67.538,0.0],[77.8729,67.5396,0.0],[77.863,67.5463,1.8225],[77.8641,67.5516,0.0],[77.8547,67.5526,1.7994],[77.8578,67.5578,0.0],[77.8484,67.5589,1.395],[77.8495,67.562,0.0],[77.8401,67.562,0.0],[77.8432,67.5599,0.7028],[77.8422,67.5568,0.0],[77.8453,67.5557,1.1516],[77.8443,67.5526,0.0],[77.8474,67.5516,0.0],[77.8438,67.5479,0.0],[77.8161,67.562,0.0],[77.8125,67.5625,0.0],[77.8047,67.5599,0.0],[77.8005,67.5537,0.0],[77.8037,67.5505,0.0],[77.7974,67.5422,0.0],[77.788,67.5411,0.0],[77.7849,67.538,1.3994],[77.7797,67.537,0.0],[77.7682,67.5297,1.4158],[77.7604,67.5292,0.0],[77.7589,67.5297,0.0],[77.7589,67.5328,1.9571],[77.7724,67.5359,0.0],[77.7755,67.5391,0.0],[77.7807,67.5401,0.0],[77.7833,67.5437,0.965],[77.7813,67.5458,0.0],[77.775,67.5458,0.0],[77.7703,67.5422,0.0],[77.7672,67.5422,0.0],[77.7672,67.5453,0.0],[77.7693,67.5474,0.0],[77.7766,67.5516,0.0],[77.7734,67.5526,1.0777],[77.7745,67.5557,0.0],[77.7651,67.5568,0.0],[77.7682,67.5609,0.0],[77.7667,67.5625,0.0]]],
[[[77.7839,67.5537,0.0],[77.7839,67.5505,1.1809],[77.7854,67.55,0.0],[77.7917,67.55,0.0],[77.7953,67.5526,0.0],[77.7937,67.5542,0.0],[77.7839,67.5537,0.0]]],
[[[77.9167,67.5604,0.0],[77.9151,67.5589,0.0],[77.9182,67.5589,0.0],[77.9182,67.5599,0.0],[77.9167,67.5604,0.0]]],
[[[77.8422,67.5651,0.0],[77.8458,67.5646,0.0],[77.8474,67.5661,0.0],[77.8438,67.5667,0.0],[77.8422,67.5651,0.0]]],
[[[77.7063,67.5917,1.2115],[77.7026,67.5922,1.8451],[77.7,67.5958,0.0],[77.6922,67.5953,0.0],[77.6953,67.5932,1.9046],[77.6943,67.588,0.0],[77.7042,67.5833,1.8331],[77.712,67.5839,0.0],[77.712,67.587,0.0],[77.7089,67.588,1.2909],[77.7099,67.5911,0.0],[77.7063,67.5917,1.2115]]]]}}