{"type":"Feature","properties":{"GID_3":"RUS.24.6.1_1","GID_0":"RUS","country":"Russia","GID_1":"RUS.24_1","province":"Kamchatka","NL_NAME_1":"Камчатскаякрай","GID_2":"RUS.24.6_1","county":"Olyutorskiyrayon","NL_NAME_2":"Олюторскийрайон","city":"NA","VARNAME_3":"NA","NL_NAME_3":"NA","TYPE_3":"NA","ENGTYPE_3":"NA","CC_3":"NA","HASC_3":"NA","name":"N_A.city"},
"geometry":{"type": "MultiPolygon","coordinates": [[[[164.6873,59.6258,0.0],[164.682,59.6277,0.0],[164.6661,59.6267,23.7084],[164.6655,59.6283,0.0],[164.6633,59.6288,0.0],[164.6572,59.6261,6.5925],[164.646,59.6261,0.6928],[164.6449,59.6235,0.6051],[164.6405,59.6205,0.0],[164.6405,59.6187,0.0],[164.6433,59.615,0.0],[164.6528,59.6111,23.5802],[164.6517,59.6036,34.5166],[164.6534,59.5996,3.7669],[164.6636,59.5939,7.0475],[164.6683,59.5889,10.8101],[164.699,59.5906,0.0],[164.7026,59.593,0.0],[164.7005,59.5964,0.0],[164.691,59.5984,0.0],[164.691,59.6026,0.0],[164.6956,59.6053,0.0],[164.6886,59.615,0.0],[164.6873,59.6258,0.0]]],
[[[164.5776,60.0151,0.0],[164.5786,60.013,0.0],[164.5776,60.0109,0.0],[164.5807,60.0109,0.0],[164.5828,60.013,0.0],[164.5807,60.0161,0.0],[164.5776,60.0151,0.0]]],
[[[164.3333,60.025,0.8561],[164.3297,60.0214,0.9125],[164.3328,60.0214,0.7862],[164.3349,60.0234,0.8959],[164.3333,60.025,0.8561]]],
[[[164.3229,60.0563,0.8324],[164.3266,60.0578,0.4897],[164.3172,60.0599,0.6487],[164.3193,60.0568,0.7139],[164.3229,60.0563,0.8324]]],
[[[165.0391,60.0661,0.0],[165.0372,60.0666,0.0],[165.0359,60.0651,0.0],[165.0389,60.0651,0.0],[165.0391,60.0661,0.0]]],
[[[165.0688,60.0812,0.0],[165.0651,60.0776,0.0],[165.0682,60.0776,0.0],[165.0703,60.0797,0.0],[165.0688,60.0812,0.0]]],
[[[165.1078,60.088,0.0],[165.1078,60.0891,0.0],[165.1047,60.0891,0.0],[165.1062,60.0875,0.0],[165.1078,60.088,0.0]]],
[[[165.0599,60.0901,0.0],[165.0547,60.088,0.0],[165.062,60.088,0.0],[165.0641,60.0911,0.0],[165.0599,60.0901,0.0]]],
[[[165.1807,60.0901,0.0],[165.1792,60.0917,0.0],[165.1776,60.0911,0.0],[165.1776,60.0901,0.0],[165.1807,60.0901,0.0]]],
[[[165.9797,60.3536,0.0],[165.9776,60.3505,1.77],[165.9932,60.3547,0.0],[165.9953,60.3578,1.9643],[165.9896,60.3583,0.0],[165.9797,60.3536,0.0]]],
[[[166.0016,60.363,-0.019],[165.9984,60.3589,3.048],[166.0079,60.361,0.0],[166.0172,60.3703,2.3138],[166.0245,60.3714,0.0],[166.0234,60.3745,3.1552],[166.0349,60.3859,0.0],[166.0339,60.3932,1.433],[166.0412,60.4016,0.0],[166.038,60.4016,0.0],[166.0349,60.3984,1.2199],[166.0297,60.3974,0.0],[166.0255,60.3932,0.0],[166.0266,60.3901,0.7426],[166.0172,60.3807,0.3226],[166.0182,60.3776,0.5363],[166.0078,60.3693,0.1976],[166.0026,60.3682,0.0],[166.0005,60.3661,0.0],[166.0016,60.363,-0.019]]],
[[[166.0412,60.4089,0.0],[166.0401,60.4068,0.0],[166.0437,60.4042,2.2843],[166.0505,60.4099,1.5439],[166.0557,60.4109,0.0],[166.0599,60.4141,0.0],[166.0521,60.4146,0.0],[166.0443,60.412,0.0],[166.0412,60.4089,0.0]]],
[[[167.1057,60.3547,0.0],[167.1042,60.3563,0.0],[167.1026,60.3557,0.0],[167.1042,60.3542,0.0],[167.1057,60.3547,0.0]]],
[[[167.1099,60.3589,0.0],[167.1083,60.3604,0.0],[167.1068,60.3599,0.0],[167.1083,60.3583,0.0],[167.1099,60.3589,0.0]]],
[[[166.2526,60.3797,0.0],[166.2568,60.3755,0.0],[166.2641,60.3755,0.0],[166.263,60.3786,0.0],[166.2661,60.3818,0.0],[166.2651,60.3849,0.0],[166.2661,60.387,0.0],[166.263,60.3911,0.3727],[166.2682,60.3964,0.5788],[166.2661,60.3995,0.0],[166.2568,60.3974,0.0],[166.2547,60.3953,0.0],[166.2578,60.3901,0.0],[166.2547,60.387,0.0],[166.2557,60.3839,0.0],[166.2526,60.3797,0.0]]],
[[[167.4078,60.4109,0.0],[167.4063,60.4125,0.0],[167.4047,60.412,1.7872],[167.4047,60.4109,1.4977],[167.4078,60.4109,0.0]]],
[[[170.1443,60.0,0.0],[170.1474,60.0,0.0],[170.1474,60.0016,0.0],[170.1443,60.0016,0.0],[170.1443,60.0,0.0]]],
[[[170.4458,60.0375,0.0],[170.4474,60.038,0.0],[170.4474,60.0391,0.0],[170.4443,60.0391,0.0],[170.4458,60.0375,0.0]]],
[[[169.8708,60.1875,0.0],[169.8724,60.1891,0.0],[169.8693,60.1891,0.0],[169.8693,60.188,0.0],[169.8708,60.1875,0.0]]],
[[[169.8708,60.2167,0.0],[169.8724,60.2182,0.0],[169.8693,60.2182,0.0],[169.8693,60.2172,0.0],[169.8708,60.2167,0.0]]],
[[[170.5125,60.2479,6.4027],[170.5125,60.2458,7.4073],[170.5161,60.2464,0.0],[170.5161,60.2474,0.0],[170.5125,60.2479,6.4027]]],
[[[169.7063,60.3896,0.0],[169.7078,60.3911,0.0],[169.7047,60.3911,0.0],[169.7047,60.3901,0.0],[169.7063,60.3896,0.0]]],
[[[169.6182,60.4401,4.8258],[169.6167,60.4417,0.0],[169.6151,60.4411,4.0037],[169.6151,60.4401,0.0],[169.6182,60.4401,4.8258]]],
[[[169.3755,60.5703,0.0],[169.3714,60.5651,0.0],[169.3771,60.5646,0.0],[169.3807,60.5672,0.0],[169.3786,60.5703,0.0],[169.3755,60.5703,0.0]]],
[[[170.5313,60.2604,0.0],[170.5328,60.262,1.9608],[170.5297,60.262,5.4901],[170.5297,60.2609,7.6852],[170.5313,60.2604,0.0]]],
[[[171.7042,60.7542,0.0],[171.7057,60.7547,0.0],[171.7057,60.7557,0.0],[171.7026,60.7557,0.0],[171.7042,60.7542,0.0]]],
[[[172.075,60.8375,0.0],[172.0786,60.8411,0.0],[172.0708,60.8438,179.5451],[172.0667,60.8417,346.8392],[172.0625,60.8438,672.2531],[172.0458,60.8438,297.4871],[172.0401,60.8411,22.7216],[172.0437,60.8375,0.0],[172.0583,60.8375,0.0],[172.0625,60.8354,0.0],[172.075,60.8375,0.0]]],
[[[172.1021,60.85,26.2725],[172.0984,60.8495,112.1617],[172.0964,60.8464,0.6918],[172.1078,60.8464,0.0],[172.1057,60.8495,17.0963],[172.1021,60.85,26.2725]]],
[[[169.2625,60.5458,0.0],[169.25,60.5458,1.3376999999999999],[169.2458,60.5479,0.0],[169.2375,60.5479,0.0],[169.2354,60.5458,0.0],[169.2359,60.5443,0.0],[169.2437,60.5438,2.1109],[169.2479,60.5417,0.0],[169.2625,60.5417,0.0],[169.2661,60.5453,0.0],[169.2625,60.5458,0.0]]],
[[[169.2042,60.55,1.3738],[169.2,60.55,1.733],[169.1984,60.5484,0.0],[169.2078,60.5484,0.0],[169.2042,60.55,1.3738]]],
[[[169.1729,60.5521,1.8527],[169.1687,60.5521,2.2823],[169.1672,60.5505,0.0],[169.1974,60.5505,0.7012],[169.1958,60.5521,0.0],[169.1729,60.5521,1.8527]]],
[[[169.2912,60.5839,0.0],[169.2901,60.5818,0.0],[169.2958,60.5792,0.0],[169.3016,60.5818,0.0],[169.2979,60.5854,0.0],[169.2912,60.5839,0.0]]],
[[[166.0807,60.4255,0.0],[166.0797,60.4234,1.6009],[166.0854,60.4229,0.0],[166.0911,60.4286,0.0],[166.0896,60.4292,0.0],[166.0807,60.4255,0.0]]],
[[[166.3562,60.4125,0.0],[166.3578,60.413,0.0],[166.3578,60.4141,0.0],[166.3547,60.4141,0.0],[166.3562,60.4125,0.0]]],
[[[166.362,60.4182,0.0],[166.3562,60.4188,0.0],[166.3547,60.4172,0.0],[166.3604,60.4167,0.0],[166.362,60.4182,0.0]]],
[[[166.3667,60.4562,4.2268],[166.3625,60.4562,0.0],[166.3609,60.4547,0.0],[166.3682,60.4547,0.0],[166.3667,60.4562,4.2268]]],
[[[167.7833,60.5187,0.0],[167.7849,60.5203,0.0],[167.7818,60.5203,0.0],[167.7818,60.5193,0.0],[167.7833,60.5187,0.0]]],
[[[170.4969,62.2127,1131.2244],[170.2996,62.2329,1086.8389],[170.221,62.2504,1396.8531],[170.1605,62.2122,965.5286],[170.0892,62.1967,1093.3743],[170.0296,62.2206,1044.197],[169.8815,62.1951,1141.0958],[169.7686,62.1407,1232.3828],[169.6819,62.0649,982.7775],[169.5654,61.9125,766.15],[169.262,61.7999,653.8541],[168.9769,61.7287,633.2983],[168.7088,61.6235,505.8812],[168.5212,61.6351,837.9775],[168.2965,61.6384,937.8361],[168.0132,61.5667,446.7992],[167.7273,61.4672,414.3443],[167.5592,61.3993,634.002],[167.4084,61.3882,315.1733],[167.3186,61.3962,407.6184],[167.2586,61.4288,280.2339],[167.1333,61.4185,257.8821],[166.9077,61.4487,637.1638],[166.7875,61.431,407.6801],[166.7079,61.3818,423.2193],[166.685,61.331,460.3372],[166.6533,61.2752,618.2302],[166.5747,61.2383,400.2112],[166.4573,61.2153,621.6955],[166.2586,61.255,253.3795],[166.1885,61.259,430.7885],[166.0884,61.2182,310.4138],[165.9822,61.171,371.3577],[165.8969,61.1447,309.2054],[165.6501,61.1087,520.0591],[165.5387,61.0548,616.7178],[165.5302,60.9945,358.1007],[165.5168,60.9626,649.3501],[165.4753,60.9411,723.9438],[165.4794,60.8927,616.1592],[165.4852,60.8694,625.0164],[165.4087,60.8331,363.7397],[165.2979,60.8417,468.9535],[165.2288,60.8568,553.4053],[165.1155,60.85,332.001],[165.0161,60.8268,348.6799],[164.9346,60.7806,632.1152],[164.926,60.7413,297.5641],[164.9187,60.7178,623.4945],[164.972,60.6534,465.3347],[165.1155,60.5412,194.1451],[165.0996,60.4991,422.4094],[165.0458,60.4425,663.2389],[164.7309,60.3457,341.067],[164.6507,60.3116,251.0295],[164.578,60.3002,389.2874],[164.5039,60.3006,309.7421],[164.4613,60.3215,287.0229],[164.4297,60.3273,211.0185],[164.3805,60.2768,401.4665],[164.3694,60.2395,226.3726],[164.1347,60.1696,161.3114],[164.0471,60.1525,370.9252],[163.9875,60.109,40.6297],[164.0045,60.0748,29.3362],[164.1278,59.999,26.9067],[164.138,59.9885,17.7745],[164.1418,59.982,0.0],[164.155,59.9772,3.5894],[164.165,59.9797,0.0],[164.1789,59.9778,2.7573],[164.195,59.9836,0.0],[164.1948,59.9873,0.0],[164.2144,59.9906,2.6697],[164.225,59.9847,0.0],[164.23,59.9847,3.1361],[164.2367,59.9811,1.5228],[164.2367,59.9767,1.6689],[164.2335,59.9756,0.5925],[164.2022,59.9683,1.1066],[164.1911,59.9633,1.9096],[164.1822,59.9631,1.8446],[164.1789,59.9589,0.0],[164.1506,59.9428,0.0],[164.1328,59.9297,0.0],[164.1322,59.9264,0.0],[164.1255,59.9206,0.0],[164.1249,59.9172,0.7307],[164.1231,59.9161,0.3642],[164.0911,59.9103,1.5704],[164.0656,59.8978,0.0],[164.0656,59.8939,2.7483],[164.0739,59.8897,0.0],[164.0739,59.8856,0.0],[164.0711,59.8786,0.0],[164.08,59.8697,1.7017],[164.0811,59.8672,2.5291],[164.08,59.8664,3.5608],[164.0833,59.8639,6.2374],[164.0961,59.8642,9.5125],[164.1217,59.8692,19.1779],[164.1439,59.87,0.0],[164.1606,59.8686,0.0],[164.18,59.8628,0.0],[164.1917,59.8547,0.0],[164.2006,59.8522,13.0785],[164.2141,59.8551,0.0],[164.2217,59.8584,0.0],[164.2266,59.8639,0.0],[164.2219,59.8675,0.0],[164.2133,59.8688,0.0],[164.1944,59.8683,24.4074],[164.184,59.8718,8.3983],[164.1638,59.8836,0.0],[164.1419,59.8855,0.0],[164.1364,59.8886,0.0],[164.1305,59.903,0.0],[164.1347,59.9149,0.0],[164.1532,59.9331,0.0],[164.1662,59.9414,0.0],[164.2157,59.9653,0.0],[164.286,59.9797,0.0],[164.3211,59.9836,0.0],[164.3389,59.9906,0.3836],[164.3472,59.9958,0.0],[164.3483,60.0,0.0],[164.3448,60.0,1.3445],[164.3465,60.0013,1.5937],[164.3529,60.0189,0.0],[164.3505,60.0249,0.0],[164.3446,60.0244,0.0],[164.341,60.0184,0.0],[164.3391,60.0203,0.0],[164.3359,60.0203,0.8157],[164.337,60.0172,2.1623],[164.3359,60.0151,0.8847],[164.3389,60.0151,1.2815],[164.3342,60.0102,0.905],[164.3136,60.0272,0.9858],[164.3141,60.0286,0.8996],[164.3089,60.0297,1.4169],[164.3099,60.0328,1.0106],[164.3047,60.0339,3.9448],[164.3099,60.0359,0.8188],[164.3047,60.038,0.8551],[164.3026,60.0411,0.8831],[164.3057,60.0443,0.7232],[164.3047,60.0474,1.1744],[164.3141,60.0568,0.7209],[164.313,60.0599,0.7035],[164.3161,60.063,0.5481],[164.3146,60.0667,0.5938],[164.3182,60.0714,0.9235],[164.3172,60.0745,1.9838],[164.3292,60.075,1.0597],[164.337,60.0776,0.5956],[164.3359,60.0807,2.3601],[164.338,60.0828,1.0783],[164.3432,60.0839,0.7045],[164.3422,60.087,1.1623],[164.3443,60.0891,1.1677],[164.3516,60.0891,1.1992],[164.3578,60.0828,1.0305],[164.3568,60.0797,1.1609],[164.3578,60.0776,1.1816],[164.3557,60.0755,1.046],[164.3505,60.0745,0.6497],[164.3484,60.0714,0.6196],[164.3521,60.0687,0.6],[164.3578,60.0682,1.4969],[164.3547,60.063,0.8463],[164.3599,60.0609,9.9481],[164.3547,60.0547,0.7639],[164.3641,60.0536,0.0],[164.3662,60.0505,0.0],[164.3641,60.0484,0.0],[164.3589,60.0474,0.7818],[164.3568,60.0443,0.9339],[164.3646,60.0417,0.0],[164.3724,60.0443,0.0],[164.3714,60.0474,0.0],[164.3766,60.0526,0.0],[164.3745,60.0557,0.0],[164.3693,60.0568,0.0],[164.3703,60.0599,0.0],[164.3693,60.062,0.9241],[164.3745,60.0672,0.0],[164.3729,60.0708,0.6863],[164.3745,60.0745,0.795],[164.3672,60.0818,1.0242],[164.3724,60.0839,0.815],[164.3693,60.0891,6.1661],[164.3771,60.0896,0.6682],[164.3818,60.0932,0.7386],[164.3958,60.0979,8.2897],[164.4063,60.0979,0.8066],[164.4109,60.1016,0.9852],[164.4187,60.1042,1.0127],[164.4271,60.1042,3.3103],[164.4312,60.1021,1.1886],[164.4458,60.1,0.7443],[164.4563,60.1042,4.5343],[164.4604,60.1042,2.0592],[164.4646,60.1021,0.6935],[164.4729,60.1021,0.654],[164.4771,60.1042,15.4944],[164.4818,60.1005,0.6959],[164.4932,60.0974,6.8713],[164.4964,60.0943,0.0],[164.5078,60.0911,8.5438],[164.5109,60.088,0.0],[164.5245,60.0849,47.3174],[164.5234,60.0818,0.0],[164.5286,60.0807,22.9026],[164.538,60.0714,0.0],[164.55,60.0708,36.7374],[164.5516,60.0703,39.4029],[164.5505,60.0672,0.0],[164.5583,60.0667,26.7763],[164.5661,60.0641,28.69],[164.5651,60.0609,0.0],[164.5703,60.0599,20.3764],[164.5724,60.0578,0.0],[164.5714,60.0547,0.0],[164.5766,60.0536,11.2051],[164.5828,60.0474,0.0],[164.5818,60.0443,0.0],[164.5953,60.0391,0.0],[164.6005,60.0339,0.0],[164.6057,60.0328,0.0],[164.6078,60.0307,0.0],[164.6099,60.0276,0.0],[164.6068,60.0234,0.0],[164.6109,60.0193,8.2155],[164.6187,60.0167,0.0],[164.65,60.0167,0.0],[164.6542,60.0146,5.9408],[164.6604,60.0146,8.7753],[164.6651,60.0109,0.0],[164.6703,60.0099,7.6915],[164.6724,60.0078,0.0],[164.6714,60.0047,0.0],[164.6729,60.0042,0.0],[164.6875,60.0021,0.0],[164.6875,60.0,0.0],[164.7078,60.0,1.8367],[164.7144,59.9969,0.0],[164.7122,59.995,0.0],[164.7267,59.9789,0.0],[164.7278,59.9717,0.0],[164.7322,59.9667,4.7285],[164.7333,59.9625,0.5426],[164.765,59.9436,1.6912],[164.7794,59.93,9.6271],[164.7833,59.9136,5.8196],[164.7817,59.9108,0.9321],[164.7844,59.9075,0.0],[164.7894,59.8919,1.9512],[164.7956,59.8836,2.7225],[164.7961,59.8761,0.0],[164.7989,59.8739,5.4345],[164.8011,59.8675,0.0],[164.8006,59.8578,9.2768],[164.7967,59.8472,0.0],[164.7978,59.8461,11.0701],[164.7939,59.8436,0.0],[164.795,59.8408,0.0],[164.7922,59.8344,9.4791],[164.7944,59.8314,0.0],[164.7944,59.8253,0.0],[164.7989,59.8208,7.5376],[164.7983,59.8169,0.0],[164.8072,59.8144,0.0],[164.8217,59.8075,0.0],[164.8267,59.7989,20.9721],[164.8261,59.7939,2.9655],[164.8233,59.7917,0.0],[164.8244,59.7864,1.7838],[164.8233,59.7858,0.0],[164.8261,59.7833,0.0],[164.8367,59.7819,0.0],[164.8467,59.7858,18.9338],[164.8519,59.781,0.0],[164.8569,59.7812,0.0],[164.8804,59.7927,0.0],[164.8891,59.8019,0.0],[164.9028,59.8044,3.6618],[164.918,59.803,0.0],[164.9243,59.8048,0.0],[164.9346,59.8163,0.0],[164.9713,59.8369,0.0],[164.9967,59.8388,0.0],[165.0144,59.8374,0.0],[165.0662,59.8447,0.0],[165.1061,59.8639,0.0],[165.1157,59.8721,0.0],[165.1205,59.888,0.0],[165.1283,59.8961,4.3084],[165.134,59.8991,15.6263],[165.1316,59.9025,19.8118],[165.1498,59.921,0.0],[165.1562,59.9331,0.0],[165.1703,59.9434,0.0],[165.1744,59.9496,0.0],[165.173,59.9617,0.0],[165.1776,59.9699,0.0],[165.1981,59.9832,0.0],[165.2101,59.9864,29.3689],[165.215,59.9861,24.1062],[165.215,59.9891,15.0415],[165.2264,59.9884,0.0],[165.2342,59.9906,0.0],[165.2366,59.9974,0.0],[165.2341,59.9982,0.0],[165.0448,60.0,110.8045],[165.1911,60.0016,0.0],[165.1901,60.0036,63.3867],[165.1953,60.0057,0.0],[165.1932,60.0078,39.1237],[165.1854,60.0083,35.9675],[165.175,60.0125,0.0],[165.1583,60.0146,9.1544],[165.1536,60.0182,0.0],[165.1484,60.0193,2.6915],[165.1401,60.0276,1.9088],[165.1411,60.0307,0.0],[165.1401,60.0328,0.0],[165.1453,60.0349,0.0],[165.1417,60.0375,0.0],[165.1359,60.0359,1.5992],[165.1391,60.0411,0.0],[165.1359,60.0453,2.9149],[165.1411,60.0505,0.0],[165.1401,60.0536,3.7203],[165.1463,60.0599,2.4008],[165.1516,60.0609,0.0],[165.1662,60.0755,0.0],[165.162,60.0807,0.0],[165.1563,60.0812,0.0],[165.1521,60.0792,3.0378],[165.1479,60.0812,0.0],[165.1438,60.0812,0.0],[165.1396,60.0792,0.0],[165.1354,60.0792,0.0],[165.125,60.0833,0.0],[165.1208,60.0833,0.0],[165.1162,60.0797,0.0],[165.1104,60.0792,0.0],[165.1089,60.0807,0.0],[165.1141,60.0818,0.0],[165.112,60.0849,0.0],[165.1021,60.0854,0.0],[165.1005,60.0849,0.0],[165.1016,60.0818,0.0],[165.0964,60.0807,0.0],[165.1016,60.0776,0.0],[165.0953,60.0714,0.0],[165.0854,60.0708,17.8132],[165.0838,60.0714,6.1628],[165.0849,60.0745,0.0],[165.0833,60.075,0.0],[165.0708,60.075,0.0],[165.0661,60.0714,0.0],[165.0583,60.0687,0.0],[165.0505,60.0682,0.0],[165.0443,60.062,0.0],[165.0453,60.0589,0.0],[165.0396,60.0604,0.0],[165.0354,60.0583,0.0],[165.0339,60.0589,0.0],[165.0349,60.062,0.0],[165.0333,60.0625,0.0],[165.0271,60.0583,11.0052],[165.0255,60.0589,16.2829],[165.0266,60.062,0.0],[165.0234,60.0661,0.0],[165.0328,60.0672,0.0],[165.037,60.0714,0.0],[165.0339,60.0766,0.0],[165.0391,60.0828,0.0],[165.0339,60.0839,0.0],[165.0318,60.0859,8.3765],[165.037,60.0891,0.0],[165.0276,60.0901,0.8415],[165.0234,60.0943,0.0],[165.0286,60.0974,0.0],[165.0234,60.0995,0.0],[165.0396,60.1021,0.0],[165.0412,60.1016,0.0],[165.0401,60.0984,0.0],[165.0417,60.0979,0.0],[165.0542,60.1083,0.0],[165.0583,60.1063,0.0],[165.0661,60.1057,3.2587],[165.0651,60.1026,0.0],[165.0667,60.1021,0.0],[165.075,60.1021,0.0],[165.0792,60.1042,0.0],[165.0932,60.1036,0.0],[165.0917,60.1021,0.0],[165.0838,60.1016,0.0],[165.0807,60.0984,0.0],[165.0693,60.0953,0.0],[165.0672,60.0922,0.0],[165.0708,60.0896,0.0],[165.075,60.0896,9.4353],[165.0917,60.0958,2.0742],[165.1146,60.0958,0.0],[165.1187,60.0979,0.0],[165.1333,60.0979,0.0],[165.137,60.1016,0.0],[165.1297,60.1089,0.0],[165.1307,60.112,0.0],[165.1297,60.1141,0.0],[165.1359,60.1203,0.0],[165.1474,60.1234,0.0],[165.1463,60.1266,0.0],[165.1526,60.1328,0.0],[165.1578,60.1339,0.0],[165.1599,60.1359,0.0],[165.1547,60.1391,0.0],[165.1667,60.1417,0.0],[165.1714,60.138,0.0],[165.1807,60.137,0.0],[165.1797,60.1339,0.0],[165.1849,60.1328,0.0],[165.187,60.1297,0.0],[165.1792,60.1292,0.0],[165.1745,60.1255,0.0],[165.1526,60.1203,0.0],[165.1484,60.1161,0.0],[165.1495,60.113,0.0],[165.1443,60.1109,0.0],[165.1495,60.1099,0.0],[165.1583,60.1021,0.0],[165.1662,60.1047,0.0],[165.1651,60.1078,0.0],[165.1667,60.1083,0.0],[165.1708,60.1063,0.0],[165.1787,60.1057,2.5046],[165.1776,60.1026,0.0],[165.1792,60.1021,0.0],[165.1974,60.0995,13.3064],[165.1922,60.0932,0.0],[165.1932,60.0901,0.0],[165.1854,60.0896,0.0],[165.1818,60.087,1.0006],[165.1839,60.0839,0.0],[165.1917,60.0812,0.0],[165.2,60.0812,0.0],[165.2042,60.0833,14.3188],[165.2146,60.0833,0.0],[165.2188,60.0854,0.0],[165.225,60.0854,0.0],[165.2453,60.0922,0.0],[165.2484,60.0953,0.0],[165.2578,60.0964,0.0],[165.2568,60.0995,5.4094],[165.2646,60.1,0.0],[165.2724,60.1026,0.0],[165.2786,60.1089,0.0],[165.2776,60.112,1.8595],[165.2849,60.1193,0.0],[165.2839,60.1224,23.2544],[165.2974,60.1255,0.0],[165.3089,60.1328,0.0],[165.3203,60.1359,0.0],[165.3234,60.1391,1.7145],[165.3286,60.1401,0.0],[165.3338,60.1453,2.2588],[165.3391,60.1464,0.0],[165.3422,60.1495,0.0],[165.3537,60.1526,0.0],[165.3568,60.1557,0.0],[165.3771,60.1625,0.0],[165.3849,60.163,0.0],[165.388,60.1661,0.0],[165.4083,60.1729,0.0],[165.4146,60.1729,0.0],[165.4417,60.1813,2.5],[165.4479,60.1813,0.0],[165.4521,60.1833,0.0],[165.4583,60.1833,0.0],[165.4766,60.188,0.0],[165.475,60.1896,0.0],[165.4688,60.1896,22.7734],[165.4646,60.1917,0.0],[165.4526,60.1922,0.0],[165.4557,60.1964,0.0],[165.4547,60.1995,0.0],[165.4557,60.2016,0.0],[165.4422,60.2068,0.0],[165.4495,60.2109,0.0],[165.4484,60.2141,0.6992],[165.4536,60.2193,0.0],[165.4505,60.2234,0.0],[165.4516,60.2307,0.0],[165.4505,60.2328,0.0],[165.4547,60.237,0.0],[165.4578,60.237,0.0],[165.4568,60.2339,0.0],[165.4599,60.2307,0.0],[165.4588,60.2276,0.0],[165.4682,60.2224,0.0],[165.4609,60.2182,0.0],[165.462,60.2151,0.0],[165.4568,60.2099,0.0],[165.4599,60.2057,0.0],[165.4588,60.2026,0.0],[165.4609,60.2005,0.0],[165.4688,60.1979,0.0],[165.4792,60.2021,0.0],[165.4833,60.2021,0.0],[165.4912,60.1995,0.0],[165.4943,60.1964,0.0],[165.5021,60.1958,5.6877],[165.5063,60.1937,0.0],[165.5104,60.1958,0.0],[165.5208,60.1958,0.0],[165.525,60.1979,0.0],[165.5313,60.1979,0.0],[165.5479,60.2042,21.7803],[165.5625,60.2062,0.0],[165.5792,60.2125,0.0],[165.5854,60.2125,0.0],[165.5958,60.2167,10.6819],[165.6021,60.2167,0.0],[165.6099,60.2193,0.0],[165.613,60.2224,0.0],[165.6245,60.2255,0.0],[165.6276,60.2286,0.0],[165.6328,60.2297,0.0],[165.6359,60.2328,0.0],[165.6438,60.2354,0.0],[165.65,60.2354,0.0],[165.6542,60.2375,0.0],[165.6646,60.2375,0.0],[165.6687,60.2396,7.2609],[165.6833,60.2396,0.0],[165.687,60.2422,23.5204],[165.6859,60.2453,43.0054],[165.6911,60.2464,0.0],[165.6958,60.25,0.0],[165.7021,60.25,0.0],[165.7063,60.2521,4.3103],[165.7167,60.2521,0.0],[165.7208,60.2542,29.9354],[165.7333,60.2542,0.0],[165.7437,60.2583,0.0],[165.75,60.2583,0.0],[165.7703,60.2651,0.0],[165.775,60.2687,0.0],[165.7828,60.2693,0.0],[165.7901,60.2766,0.0],[165.7953,60.2776,0.0],[165.7943,60.2807,0.0],[165.7995,60.2818,0.0],[165.7984,60.2849,71.5733],[165.8078,60.2859,0.0],[165.8099,60.288,0.0],[165.8089,60.2911,0.0],[165.8141,60.2964,0.0],[165.813,60.2995,1.8809],[165.8193,60.3057,14.5968],[165.8266,60.3068,0.0],[165.8286,60.3089,0.0],[165.8276,60.312,0.0],[165.8328,60.313,0.0],[165.8359,60.3161,0.0],[165.8542,60.3208,0.0],[165.8604,60.3208,0.0],[165.8667,60.325,29.8064],[165.8708,60.3229,0.0],[165.8813,60.3271,2.5796],[165.9083,60.3312,0.0],[165.9125,60.3333,0.6722],[165.9187,60.3333,0.0],[165.925,60.3375,1.8084],[165.9333,60.3375,0.0],[165.9349,60.3391,1.7627],[165.9208,60.3396,-0.0537],[165.9193,60.3411,0.0616],[165.9292,60.3479,0.0],[165.9438,60.35,0.1334],[165.9479,60.3479,0.0],[165.9526,60.3516,0.0],[165.9641,60.3547,-0.056],[165.9661,60.3578,-0.1018],[165.9609,60.363,0.0499],[165.962,60.3661,0.1592],[165.9609,60.3682,-0.0421],[165.9661,60.3693,0.0],[165.963,60.3745,0.1758],[165.9661,60.3786,0.2324],[165.9609,60.3797,0.1908],[165.962,60.3828,0.0],[165.9568,60.3839,0.3608],[165.9526,60.3891,0.0],[165.9578,60.3922,0.0],[165.9714,60.4057,0.0],[165.9766,60.4068,0.0],[165.9755,60.4099,8.4348],[165.987,60.413,0.0],[165.9901,60.4161,0.0],[166.0146,60.4229,0.0],[166.0271,60.4229,0.0],[166.0313,60.425,3.4852],[166.0417,60.425,0.0],[166.0458,60.4271,3.6101],[166.05,60.4271,3.6935],[166.0542,60.425,0.0],[166.0646,60.4292,2.6776],[166.0792,60.4292,0.0],[166.1,60.4354,0.0],[166.1146,60.4354,0.0],[166.1187,60.4375,0.0],[166.1292,60.4375,0.0],[166.1333,60.4396,7.0683],[166.1396,60.4375,0.0],[166.1438,60.4375,0.0],[166.1479,60.4396,2.9862],[166.1521,60.4375,0.0],[166.1563,60.4375,0.0],[166.1604,60.4396,1.2169],[166.1771,60.4396,1.4527],[166.1812,60.4375,0.0],[166.1958,60.4417,1.5749],[166.2188,60.4417,0.0],[166.2229,60.4437,0.8252],[166.2333,60.4437,0.0],[166.237,60.4474,0.845],[166.2333,60.45,0.0],[166.2292,60.4479,0.0],[166.225,60.4479,0.0],[166.2208,60.45,0.0],[166.2104,60.4458,0.0],[166.2063,60.4479,0.0],[166.2021,60.4479,0.0],[166.2005,60.4474,0.0],[166.2016,60.4443,0.0],[166.1896,60.4437,0.0],[166.1854,60.4417,1.4481],[166.1771,60.4417,0.0],[166.1734,60.4453,0.0],[166.1787,60.4464,0.0],[166.1818,60.4495,0.0],[166.2057,60.4568,0.0],[166.2104,60.4604,0.0],[166.2229,60.4604,0.0],[166.2276,60.4641,0.0],[166.2354,60.4667,6.8985],[166.2458,60.4667,0.0],[166.2563,60.4708,6.0224],[166.275,60.4729,0.0],[166.2896,60.4688,0.0],[166.3,60.4688,3.4442],[166.3141,60.4641,2.7175],[166.3172,60.4609,0.0],[166.3224,60.4599,11.2459],[166.3297,60.4526,0.0],[166.3375,60.45,0.0],[166.3474,60.4505,0.0],[166.3516,60.4547,0.0],[166.3484,60.4589,3.565],[166.35,60.4604,1.3793],[166.3646,60.4604,0.3494],[166.3792,60.4562,0.0],[166.3849,60.4578,0.0],[166.3828,60.4526,0.0],[166.375,60.4521,0.0],[166.3703,60.4484,0.0],[166.3589,60.4453,0.6384],[166.3568,60.4432,6.4432],[166.3578,60.4401,3.8017],[166.3568,60.438,0.0],[166.3589,60.4359,0.0],[166.3667,60.4354,0.0],[166.3714,60.4318,0.0],[166.3828,60.4286,10.9437],[166.3818,60.4255,0.0],[166.3839,60.4234,0.0],[166.3891,60.4224,8.5847],[166.3839,60.4151,0.0],[166.3891,60.413,0.0],[166.3859,60.412,0.0],[166.387,60.4089,0.0],[166.3807,60.4026,2.1552],[166.3729,60.4021,0.0],[166.3682,60.3984,0.0],[166.363,60.3974,0.0],[166.3516,60.3859,15.8524],[166.3464,60.3849,0.0],[166.3474,60.3818,19.4018],[166.3401,60.3807,0.0],[166.3349,60.3755,0.0],[166.3271,60.3729,0.0],[166.3188,60.3729,0.0],[166.3083,60.3771,0.0],[166.3042,60.3771,0.0],[166.3005,60.3745,0.0],[166.3016,60.3714,0.0],[166.3,60.3708,0.6248],[166.2958,60.3708,0.0],[166.2917,60.3729,0.0],[166.2813,60.3688,0.4711],[166.2734,60.3682,0.0],[166.2713,60.3661,0.0],[166.2724,60.363,0.0],[166.2708,60.3625,2.1223],[166.2667,60.3625,0.0],[166.2589,60.3651,0.0],[166.2557,60.3682,0.0],[166.2526,60.3682,1.4696],[166.2536,60.3651,0.0],[166.2526,60.363,0.0],[166.2547,60.3609,0.0],[166.2661,60.3578,18.9536],[166.263,60.3557,0.0],[166.2661,60.3516,0.0],[166.2651,60.3484,0.0],[166.2693,60.3443,0.0],[166.2745,60.3432,0.0],[166.2797,60.338,0.0],[166.2849,60.337,3.6496],[166.2818,60.3318,0.0],[166.2839,60.3297,0.0],[166.2891,60.3286,3.4478],[166.288,60.3172,1.2745],[166.2891,60.3151,1.3432],[166.2839,60.313,0.0],[166.2932,60.3078,1.2413],[166.2901,60.3026,0.0],[166.2953,60.3005,0.3462],[166.2922,60.2995,1.092],[166.287,60.2943,0.5883],[166.2776,60.2932,0.0],[166.2786,60.2901,0.0],[166.2776,60.288,0.0],[166.2891,60.2849,0.6668],[166.288,60.2818,1.616],[166.2901,60.2797,1.5925],[166.2953,60.2786,0.7102],[166.2922,60.2745,0.0],[166.2932,60.2714,0.0],[166.288,60.2661,0.0],[166.2932,60.2641,0.0],[166.2901,60.2599,0.0],[166.2912,60.2568,0.0],[166.2859,60.2547,0.0],[166.2937,60.2542,16.9937],[166.2953,60.2526,20.6026],[166.2917,60.25,13.9761],[166.2818,60.2495,0.0],[166.2776,60.2443,0.0],[166.2797,60.2422,0.0],[166.2849,60.2411,0.0],[166.2839,60.238,0.0],[166.2891,60.237,0.0],[166.2912,60.2349,0.0],[166.2932,60.2328,0.0],[166.2922,60.2297,0.0],[166.2974,60.2286,0.0],[166.3005,60.2255,0.0],[166.3057,60.2245,7.3678],[166.3078,60.2224,1.5675],[166.3068,60.2193,0.0],[166.3099,60.2161,9.8329],[166.3089,60.213,0.0],[166.3141,60.2078,6.2782],[166.3109,60.2026,0.0],[166.3141,60.1995,27.5288],[166.313,60.1964,0.0],[166.3141,60.1943,10.1097],[166.3068,60.1932,0.0],[166.3005,60.187,0.0],[166.3057,60.1839,0.0],[166.3005,60.1828,0.0],[166.2984,60.1807,0.0],[166.2995,60.1776,1.1632],[166.2974,60.1755,1.055],[166.2922,60.1745,1.1835],[166.2932,60.1714,0.6967],[166.288,60.1703,1.0581],[166.2912,60.1651,3.3885],[166.288,60.162,0.0],[166.2891,60.1589,0.0],[166.288,60.1568,0.0],[166.2932,60.1547,11.7557],[166.288,60.1536,1.4074],[166.2859,60.1516,0.0],[166.2839,60.1495,0.0],[166.2849,60.1464,2.1629],[166.2807,60.1422,1.0952],[166.2729,60.1417,0.0],[166.2688,60.1396,3.0566],[166.2563,60.1396,0.0],[166.2521,60.1375,0.0],[166.2375,60.1375,0.0],[166.2229,60.1333,0.0],[166.2167,60.1333,0.0],[166.2068,60.1286,0.0],[166.2078,60.1255,3.5966],[166.2047,60.1224,0.0],[166.2057,60.1151,3.8406],[166.2026,60.112,0.0],[166.2036,60.1047,0.0],[166.2026,60.1026,0.0],[166.2078,60.1016,3.0392],[166.2068,60.0984,0.0],[166.2078,60.0964,3.4473],[166.2026,60.0911,0.0],[166.2036,60.088,0.0],[166.2016,60.0859,2.8662],[166.1859,60.0807,0.0],[166.1797,60.0745,0.0],[166.1807,60.0672,0.0],[166.1797,60.0651,0.0],[166.1828,60.0609,0.9324],[166.1766,60.0547,0.0],[166.1714,60.0536,0.0],[166.1771,60.0479,0.0],[166.1833,60.0521,4.2095],[166.187,60.0495,0.901],[166.1859,60.0339,0.0],[166.187,60.0318,0.0],[166.1828,60.0276,3.5011],[166.1776,60.0266,0.0],[166.1755,60.0245,0.0],[166.1766,60.0214,14.5112],[166.1745,60.0193,0.0],[166.1724,60.0172,7.4552],[166.1672,60.0161,0.0],[166.163,60.012,0.0],[166.1682,60.0099,17.6517],[166.1724,60.0057,24.6355],[166.1723,60.0016,16.9693],[166.169,60.0017,0.0],[166.1703,60.0,0.0],[166.1674,59.9936,0.0],[166.1733,59.9891,3.6171],[166.1733,59.9861,6.4433],[166.1711,59.9844,0.0],[166.1756,59.98,0.0],[166.1543,59.9541,0.0],[166.1255,59.9263,0.0],[166.1181,59.9005,0.0],[166.1013,59.8888,0.0],[166.0952,59.8795,0.0],[166.0986,59.8748,4.0605],[166.0992,59.8701,0.0],[166.1036,59.8677,8.3327],[166.1078,59.8617,0.0],[166.1077,59.8567,4.3348],[166.0996,59.8465,0.0],[166.0971,59.8385,1.0385],[166.093,59.8361,0.0],[166.086,59.816,0.0],[166.0939,59.8082,51.443],[166.09,59.8039,0.0],[166.1094,59.7999,0.4463],[166.1457,59.8025,27.3007],[166.152,59.8017,0.492],[166.1689,59.8075,19.8109],[166.1882,59.8111,13.5294],[166.1922,59.8133,22.7803],[166.2014,59.8096,7.0383],[166.2024,59.8071,1.7356],[166.2111,59.805,0.0],[166.2144,59.8072,55.0329],[166.2272,59.8072,10.8081],[166.2456,59.8106,30.0499],[166.2522,59.8094,0.532],[166.2544,59.8117,0.0],[166.2824,59.8107,9.8852],[166.2961,59.8125,4.5716],[166.2952,59.8145,2.3524],[166.2964,59.8158,15.5692],[166.3035,59.8186,1.892],[166.3144,59.8268,0.9261],[166.3294,59.8353,1.7971],[166.335,59.8367,2.0672],[166.3365,59.8399,15.835],[166.3567,59.8533,12.7901],[166.3655,59.8651,3.2737],[166.3757,59.8726,7.3316],[166.3812,59.8809,41.6381],[166.3919,59.8855,46.7392],[166.3967,59.8964,0.5352],[166.4037,59.9048,6.2752],[166.4043,59.9091,33.7438],[166.4161,59.9186,0.0],[166.4172,59.9246,3.3534],[166.43,59.9322,24.2849],[166.4438,59.9362,0.0],[166.4626,59.945,1.0879],[166.4667,59.95,0.0],[166.4995,59.9667,0.7646],[166.5539,59.9892,12.7895],[166.5633,59.9953,0.0],[166.5622,59.9964,3.5956],[166.5807,60.0,0.0],[166.5838,60.0036,0.0],[166.5891,60.0047,0.0],[166.5974,60.013,0.0],[166.5964,60.0161,0.0],[166.6016,60.0172,0.0],[166.6089,60.0245,0.0],[166.6224,60.0297,0.0],[166.6276,60.0349,0.0],[166.6354,60.0354,0.0],[166.6401,60.0391,0.0],[166.6453,60.0401,0.0],[166.6568,60.0516,2.8854],[166.6641,60.0526,0.0],[166.6776,60.0661,0.0],[166.6828,60.0672,0.0],[166.6901,60.0745,3.4768],[166.6979,60.0771,0.0],[166.7057,60.0776,0.0],[166.7109,60.0828,2.39],[166.7224,60.0859,0.0],[166.7214,60.0891,7.5033],[166.7234,60.0911,13.9855],[166.7349,60.0943,0.0],[166.7443,60.1016,0.0],[166.7495,60.1026,0.0],[166.7484,60.1057,0.0],[166.7641,60.1214,0.0],[166.763,60.1245,2.1906],[166.7682,60.1255,0.0],[166.7745,60.1318,0.0],[166.7693,60.1339,4.3127],[166.7703,60.137,1.7261],[166.7693,60.1391,2.6051],[166.7786,60.1422,0.0],[166.7807,60.1443,0.0],[166.7797,60.1474,0.0],[166.7849,60.1484,0.0],[166.7891,60.1526,0.0],[166.788,60.1557,0.0],[166.7912,60.1589,0.0],[166.7901,60.162,2.9423],[166.7995,60.163,0.0],[166.7984,60.1661,0.0],[166.8026,60.1703,2.4701],[166.812,60.1714,0.0],[166.8182,60.1755,0.0],[166.8172,60.1786,2.7254],[166.8214,60.1828,2.4027],[166.8266,60.1839,0.0],[166.8349,60.1922,0.0],[166.837,60.1943,0.0],[166.8359,60.1974,35.8755],[166.8438,60.1979,0.0],[166.8484,60.2016,0.0],[166.8537,60.2026,0.0],[166.8578,60.2068,0.0],[166.8568,60.2099,25.843],[166.8599,60.2109,0.0],[166.8589,60.2141,42.5069],[166.8599,60.2161,0.0],[166.8583,60.2167,0.0],[166.8542,60.2146,52.5397],[166.825,60.2146,28.7265],[166.8208,60.2167,2.7359],[166.8104,60.2167,46.1554],[166.8,60.2208,0.0],[166.7937,60.2208,44.3578],[166.7901,60.2245,0.0],[166.8083,60.225,49.5911],[166.8125,60.2229,0.0],[166.8875,60.2229,0.0],[166.8943,60.2286,0.0],[166.9078,60.2339,0.0],[166.9109,60.237,0.0],[166.9162,60.238,0.0],[166.9172,60.2411,0.0],[166.9234,60.2474,0.0],[166.937,60.2526,0.0],[166.9443,60.2599,0.0],[166.9495,60.2609,0.0],[166.9568,60.2682,0.0],[166.9641,60.2693,0.0],[166.9682,60.2745,8.0791],[166.963,60.2755,0.0],[166.9641,60.2786,0.0],[166.9609,60.2828,0.0],[166.9667,60.2875,0.0],[166.9828,60.288,0.0],[166.9776,60.2911,51.7216],[166.9859,60.2995,0.0],[166.9937,60.3,0.0],[166.9979,60.2979,0.0],[167.0021,60.2979,0.0],[167.0063,60.3,0.0],[167.0583,60.3,0.0],[167.0724,60.3047,0.0],[167.0828,60.3151,0.0],[167.0818,60.3182,0.0],[167.0891,60.3193,0.0],[167.088,60.3224,0.0],[167.0891,60.3245,0.0],[167.0838,60.3297,0.0],[167.0849,60.3328,0.0],[167.0828,60.3349,0.0],[167.0776,60.3359,149.1879],[167.0828,60.338,0.0],[167.0807,60.3411,0.0],[167.0547,60.3505,3.5891],[167.0589,60.3536,0.0],[167.0641,60.3547,0.0],[167.063,60.3578,3.0095],[167.0703,60.3661,0.0],[167.0625,60.3688,0.0],[167.0547,60.3693,189.1618],[167.0557,60.3724,0.0],[167.0505,60.3734,71.6246],[167.0516,60.3766,0.0],[167.0495,60.3786,0.0],[167.0443,60.3797,0.0],[167.0464,60.3828,0.0],[167.0495,60.3839,0.0],[167.0484,60.387,0.0],[167.0537,60.388,0.0],[167.0484,60.3901,0.0],[167.0495,60.3932,0.0],[167.0484,60.3953,11.2751],[167.0537,60.4005,0.0],[167.0526,60.4036,5.3471],[167.0557,60.4068,0.0],[167.0547,60.4099,2.1175],[167.0625,60.4125,0.0],[167.0661,60.412,0.0],[167.063,60.4089,0.0],[167.0766,60.4078,0.0],[167.0729,60.4042,0.0],[167.0688,60.4063,0.0],[167.063,60.4057,0.0],[167.0672,60.4005,0.0],[167.0724,60.3995,0.0],[167.0766,60.3953,0.0],[167.0714,60.3922,0.0],[167.0766,60.387,0.0],[167.0755,60.3839,0.0],[167.0807,60.3828,0.0],[167.0755,60.3807,0.0],[167.0734,60.3766,0.0],[167.0745,60.3734,0.0],[167.0734,60.3714,0.0],[167.0807,60.3714,0.0],[167.0797,60.3745,0.0],[167.0818,60.3766,0.0],[167.0875,60.3771,0.0],[167.0922,60.3734,0.0],[167.0974,60.3724,0.0],[167.0964,60.3693,0.0],[167.1057,60.3682,0.0],[167.1047,60.3651,0.0],[167.1229,60.3625,184.9828],[167.1245,60.362,122.5181],[167.1234,60.3589,0.0],[167.1417,60.3563,152.0391],[167.1495,60.3536,83.3204],[167.1542,60.35,0.0],[167.1604,60.35,69.0536],[167.1682,60.3474,72.1122],[167.1729,60.3438,0.0],[167.1771,60.3438,0.0],[167.1812,60.3458,0.0],[167.1891,60.3432,44.7538],[167.1922,60.3401,0.0],[167.2,60.3396,114.3131],[167.2042,60.3375,0.0],[167.2292,60.3375,0.0],[167.2688,60.35,0.0],[167.2771,60.35,0.0],[167.2818,60.3536,0.0],[167.2912,60.3547,0.0],[167.2958,60.3583,0.0],[167.3037,60.3589,0.0],[167.3089,60.3641,11.9942],[167.3141,60.3651,0.0],[167.3266,60.3755,0.0],[167.3214,60.3776,0.0],[167.3255,60.3828,0.0],[167.3333,60.3854,0.0],[167.35,60.3854,0.0],[167.3547,60.3818,0.0],[167.3599,60.3807,0.0],[167.3589,60.3776,0.0],[167.3667,60.3771,1.6125],[167.3708,60.375,0.0],[167.375,60.3771,42.0039],[167.3828,60.3776,0.0],[167.387,60.3818,0.0],[167.3859,60.3849,135.809],[167.388,60.387,149.7902],[167.3995,60.388,0.0],[167.3984,60.3911,0.0],[167.4016,60.3953,0.0],[167.3963,60.3964,92.3743],[167.3974,60.3995,0.0],[167.3922,60.4005,57.4461],[167.3974,60.4078,0.0],[167.3922,60.4089,1.5876],[167.3891,60.412,0.0],[167.3839,60.413,19.0374],[167.3828,60.4161,0.0],[167.3776,60.4172,22.7468],[167.3828,60.4245,0.0],[167.3776,60.4255,0.0],[167.3786,60.4286,0.0],[167.3693,60.4297,4.1175],[167.3724,60.4349,0.0],[167.3672,60.4359,10.9679],[167.3703,60.4411,0.0],[167.3672,60.4432,0.0],[167.3703,60.4474,0.0],[167.3651,60.4484,0.0],[167.3662,60.4516,0.0],[167.3609,60.4536,0.0],[167.3687,60.4542,0.0],[167.3729,60.4562,0.0],[167.3786,60.4557,0.0],[167.3807,60.4536,6.4686],[167.3797,60.4505,0.0],[167.3828,60.4474,0.0],[167.3818,60.4443,0.0],[167.387,60.4432,0.0],[167.3859,60.438,0.0],[167.3911,60.437,6.4808],[167.3901,60.4339,0.0],[167.3943,60.4297,0.0],[167.3995,60.4286,0.0],[167.4042,60.425,0.0],[167.412,60.4245,0.8813],[167.4109,60.4214,0.0],[167.4187,60.4208,0.0],[167.4266,60.4182,0.0],[167.4109,60.413,1.0486],[167.425,60.4125,0.0],[167.4292,60.4146,0.0],[167.4333,60.4146,0.0],[167.4396,60.4104,0.0],[167.45,60.4104,57.1259],[167.4563,60.4063,0.0],[167.4646,60.4063,0.0],[167.4693,60.4099,16.3258],[167.4787,60.4109,0.0],[167.488,60.4203,0.0],[167.5042,60.4229,0.0],[167.5083,60.425,0.0],[167.5146,60.425,0.0],[167.5188,60.4271,0.0],[167.5354,60.4271,0.0],[167.5396,60.425,0.0],[167.5437,60.4271,0.0],[167.5667,60.4271,0.0],[167.5708,60.4292,62.5178],[167.575,60.4271,0.0],[167.5792,60.4271,0.0],[167.5896,60.4313,0.0],[167.6021,60.4313,0.0],[167.6187,60.4375,0.0],[167.6292,60.4375,0.0],[167.6339,60.4411,0.0],[167.6417,60.4437,0.0],[167.6521,60.4437,0.0],[167.6646,60.4479,0.0],[167.6687,60.4458,0.0],[167.6792,60.45,0.0],[167.6854,60.45,0.0],[167.687,60.4505,0.0],[167.6859,60.4536,0.0],[167.7036,60.4589,0.0],[167.7047,60.462,0.0],[167.7141,60.463,0.0],[167.7109,60.4682,37.6693],[167.7161,60.4693,0.0],[167.7182,60.4724,0.0],[167.713,60.4745,0.0],[167.7208,60.475,0.0],[167.725,60.4771,0.0],[167.7375,60.4771,0.0],[167.7417,60.475,0.0],[167.7583,60.4729,0.0],[167.763,60.4693,0.0],[167.7708,60.4667,0.0],[167.7792,60.4667,0.0],[167.7833,60.4688,0.0],[167.7917,60.4688,0.0],[167.7995,60.4714,0.0],[167.7964,60.4766,0.0],[167.8057,60.4776,0.0],[167.8047,60.4807,0.0],[167.8099,60.487,0.0],[167.8005,60.488,22.5941],[167.8037,60.4911,0.0],[167.7984,60.4922,0.0],[167.7995,60.4953,0.0],[167.7943,60.4964,0.0],[167.7912,60.4995,0.0],[167.7776,60.5047,0.0],[167.7786,60.512,0.0],[167.7776,60.5141,0.0],[167.7807,60.5161,0.0],[167.7776,60.5203,0.0],[167.7797,60.5224,0.0],[167.7849,60.5234,0.0],[167.7937,60.5313,0.3146],[167.8167,60.5313,1.7919],[167.8224,60.5286,0.7991],[167.8245,60.5255,0.0],[167.8172,60.5172,0.0],[167.8266,60.5161,1.1905],[167.8255,60.513,0.0],[167.8307,60.512,48.0575],[167.8276,60.5068,0.0],[167.8333,60.5083,30.7206],[167.8375,60.5062,0.0],[167.8479,60.5062,82.7484],[167.8521,60.5021,0.0],[167.8792,60.5021,0.0],[167.8938,60.5062,0.0],[167.9083,60.5062,0.0],[167.925,60.5125,11.0638],[167.9333,60.5125,0.0],[167.9625,60.5229,0.0],[167.9688,60.5229,0.0],[167.9729,60.525,12.7157],[167.9854,60.525,0.0],[168.012,60.5339,0.0],[168.0151,60.537,0.0],[168.0286,60.5401,0.0],[168.0318,60.5432,0.0],[168.0432,60.5464,0.0],[168.0479,60.55,13.2837],[168.0542,60.55,0.0],[168.0583,60.5521,29.8076],[168.0708,60.5521,0.0],[168.0813,60.5563,3.7824],[168.0979,60.5583,0.0],[168.1021,60.5604,0.0],[168.1125,60.5604,0.0],[168.125,60.5646,0.0],[168.1438,60.5646,0.0],[168.1479,60.5667,0.0],[168.1646,60.5687,0.0],[168.1687,60.5708,1.5088],[168.1875,60.5729,0.0],[168.1979,60.5771,30.6618],[168.2021,60.575,0.0],[168.2167,60.5792,15.0324],[168.2417,60.5792,0.0],[168.2458,60.5812,0.0],[168.2563,60.5812,0.0],[168.2604,60.5833,0.0],[168.275,60.5833,0.0],[168.2896,60.5875,10.8909],[168.3021,60.5875,0.0],[168.3062,60.5896,10.6179],[168.3292,60.5896,0.0],[168.3333,60.5917,4.6666],[168.3479,60.5917,0.0],[168.3521,60.5938,17.0154],[168.3562,60.5917,0.0],[168.3604,60.5938,16.5339],[168.3646,60.5917,0.0],[168.3687,60.5938,12.8668],[168.4104,60.5938,0.0],[168.4146,60.5958,10.8238],[168.4417,60.5958,0.0],[168.4458,60.5979,0.0],[168.45,60.5958,0.0],[168.525,60.5958,3.2577],[168.5292,60.5938,0.0],[168.5333,60.5958,6.0321],[168.5375,60.5938,0.0],[168.5417,60.5958,8.8],[168.55,60.5958,6.7789],[168.5542,60.5938,0.0],[168.5688,60.5938,0.0],[168.5724,60.5911,0.0],[168.5714,60.588,1.079],[168.5734,60.5859,0.0],[168.5786,60.5849,116.795],[168.5734,60.5755,2.0126],[168.5792,60.575,0.0],[168.5833,60.5771,115.5072],[168.6083,60.5771,16.1769],[168.6125,60.575,0.0],[168.6187,60.575,33.6597],[168.6224,60.5724,0.0],[168.6214,60.5693,0.0],[168.6266,60.5682,23.9569],[168.6255,60.5609,0.0],[168.6349,60.5578,0.0],[168.6339,60.5547,0.0],[168.6359,60.5526,0.0],[168.65,60.5521,0.0],[168.6625,60.5563,198.2344],[168.6667,60.5542,0.0],[168.6812,60.5542,71.9939],[168.6839,60.5505,0.0],[168.6891,60.5495,7.1134],[168.6911,60.5474,0.0],[168.6901,60.5443,0.0],[168.6979,60.5438,7.1899],[168.7021,60.5417,0.0],[168.7161,60.5422,5.6885],[168.7151,60.5453,2.2594],[168.7182,60.5474,0.0],[168.7151,60.5516,0.0],[168.7214,60.5578,7.5262],[168.7375,60.5625,0.0],[168.7479,60.5625,0.0],[168.7521,60.5646,57.9845],[168.7563,60.5625,0.0],[168.7604,60.5646,43.0327],[168.7646,60.5625,0.0],[168.7729,60.5625,0.0],[168.7771,60.5646,4.6276],[168.7854,60.5646,4.5517],[168.7896,60.5625,0.0],[168.7937,60.5646,4.4111],[168.8625,60.5646,3.8849],[168.8667,60.5625,0.0],[168.8708,60.5625,0.0],[168.875,60.5646,3.3479],[168.8792,60.5625,0.0],[168.8833,60.5646,3.0614],[168.8958,60.5646,2.6496],[168.9,60.5625,0.0],[168.9083,60.5625,0.0],[168.9125,60.5646,2.4334],[168.9167,60.5625,0.0],[168.9604,60.5625,2.7896],[168.9646,60.5604,0.0],[169.0313,60.5604,0.0],[169.0354,60.5583,0.0],[169.0437,60.5583,0.0],[169.0479,60.5604,4.9176],[169.0521,60.5583,0.0],[169.075,60.5583,4.2921],[169.0792,60.5563,0.0],[169.0979,60.5563,2.6192],[169.1021,60.5542,0.0],[169.1167,60.5542,0.0],[169.1208,60.5521,0.0],[169.1333,60.5521,0.0],[169.1375,60.5542,4.3026],[169.1417,60.5521,0.0],[169.15,60.5521,1.7976],[169.1516,60.5536,3.7783],[169.1463,60.5547,4.1454],[169.1453,60.5578,0.9424],[169.1313,60.5625,0.0],[169.1104,60.5625,0.0],[169.1062,60.5604,1.8247],[169.0984,60.563,0.847],[169.0938,60.5667,0.0],[169.0625,60.5667,0.815],[169.0609,60.5682,0.6644],[169.0958,60.5687,0.0],[169.1021,60.5646,0.0],[169.1229,60.5646,0.0],[169.1271,60.5667,0.6909],[169.1396,60.5667,1.6648],[169.1474,60.5641,0.0],[169.1505,60.5609,0.0],[169.1557,60.5599,0.8691],[169.1547,60.5568,0.0],[169.1625,60.5542,0.0],[169.1708,60.5542,0.0],[169.1807,60.5589,0.0],[169.1693,60.563,0.0],[169.1714,60.5661,0.646],[169.1745,60.5672,0.0],[169.1734,60.5703,0.0],[169.1745,60.5724,0.0],[169.1714,60.5766,0.0],[169.175,60.5792,0.0],[169.1766,60.5786,0.0],[169.1755,60.5755,0.0],[169.1839,60.5672,0.0],[169.1891,60.5661,0.9728],[169.1901,60.563,0.0],[169.2036,60.562,0.0],[169.2026,60.5589,0.0],[169.2063,60.5563,0.0],[169.2188,60.5583,0.4983],[169.2229,60.5563,0.0],[169.2271,60.5563,0.0],[169.2349,60.562,0.0],[169.2307,60.5661,0.0],[169.2255,60.5682,0.5082],[169.2276,60.5703,0.6094],[169.2328,60.5714,0.0],[169.2318,60.5745,0.0],[169.2349,60.5766,0.0],[169.2271,60.5771,0.635],[169.2255,60.5786,0.922],[169.2307,60.5797,0.0],[169.2349,60.5839,0.0],[169.2297,60.587,0.0],[169.2412,60.588,0.0],[169.238,60.5932,0.0],[169.2412,60.5974,0.0],[169.2359,60.5984,1.8408],[169.2375,60.6021,0.0],[169.2359,60.6057,2.218],[169.238,60.6078,1.7184],[169.2432,60.6089,0.0],[169.2422,60.612,0.0],[169.25,60.6146,0.3434],[169.2578,60.612,0.0],[169.2646,60.6063,0.0],[169.2729,60.6063,0.0],[169.2771,60.6083,0.0],[169.2937,60.6083,1.2643],[169.2979,60.6063,0.0],[169.3167,60.6063,0.5846],[169.3245,60.6036,0.0],[169.3234,60.6005,0.0],[169.325,60.6,0.0],[169.3292,60.6021,2.3044],[169.337,60.5995,0.826],[169.3443,60.5922,0.0],[169.3495,60.5911,1.8946],[169.3526,60.588,0.0],[169.3662,60.5849,1.6209],[169.363,60.5797,0.0],[169.375,60.5792,1.3954],[169.3891,60.5745,3.9435],[169.387,60.5714,0.0],[169.3839,60.5703,0.0],[169.3849,60.5672,0.0],[169.3839,60.5651,0.0],[169.3891,60.563,0.999],[169.3839,60.562,0.0],[169.3818,60.5589,0.0],[169.3938,60.5583,1.066],[169.4016,60.5557,0.0],[169.4021,60.5542,0.0],[169.4005,60.5516,0.0],[169.4016,60.5484,0.0],[169.3984,60.5453,0.0],[169.3995,60.5422,0.0],[169.388,60.5411,0.0],[169.3891,60.538,3.9973],[169.3839,60.537,0.0],[169.3807,60.5339,0.0],[169.3672,60.5307,0.0],[169.3625,60.5271,0.0],[169.3583,60.5292,0.0],[169.3396,60.5292,3.0244],[169.3354,60.5313,0.0],[169.3208,60.5313,2.8684],[169.3193,60.5318,2.8703],[169.3203,60.5349,0.0],[169.3083,60.5354,2.6455],[169.3,60.5396,0.0],[169.2854,60.5396,1.258],[169.2813,60.5417,0.0],[169.2708,60.5417,1.3941],[169.2672,60.538,0.0],[169.275,60.5375,1.8939],[169.2792,60.5354,0.0],[169.2896,60.5354,2.4692],[169.3,60.5313,0.0],[169.3146,60.5313,3.3071],[169.3188,60.5292,0.0],[169.3333,60.5292,3.1602],[169.3375,60.5271,0.0],[169.3479,60.5271,3.1669],[169.3542,60.5229,0.0],[169.3687,60.5229,0.0],[169.3729,60.5208,0.0],[169.3917,60.5208,3.2174],[169.4021,60.5167,0.0],[169.4083,60.5167,6.6798],[169.4224,60.512,44.0858],[169.4151,60.5089,0.0],[169.4203,60.5078,0.0],[169.4224,60.5047,44.9759],[169.4146,60.5042,0.0],[169.413,60.5026,0.0],[169.4208,60.5021,48.7432],[169.4224,60.5016,54.9762],[169.4214,60.4984,0.0],[169.4307,60.4974,0.0],[169.4328,60.4932,0.0],[169.4318,60.4901,0.0],[169.4438,60.4896,74.4364],[169.45,60.4854,0.0],[169.4646,60.4854,17.3228],[169.4661,60.4849,17.3228],[169.4651,60.4818,0.0],[169.4667,60.4813,0.0],[169.4787,60.4807,134.1196],[169.4734,60.4776,0.0],[169.4828,60.4745,0.0],[169.4859,60.4714,0.0],[169.4953,60.4703,21.7954],[169.4943,60.4672,0.0],[169.5057,60.4641,53.0962],[169.5089,60.4609,0.0],[169.5167,60.4604,45.2995],[169.5292,60.4562,0.0],[169.5437,60.4562,8.2356],[169.5604,60.45,0.0],[169.5854,60.45,0.0],[169.5896,60.4521,5.5084],[169.5995,60.4526,0.0],[169.5984,60.4557,0.0],[169.6037,60.4568,0.0],[169.6068,60.4599,0.0],[169.6167,60.4604,0.0],[169.6182,60.4589,0.0],[169.6068,60.4547,0.0],[169.6104,60.4521,1.1919],[169.6229,60.4521,0.0],[169.6292,60.4562,0.0],[169.6542,60.4562,0.0],[169.6646,60.4521,0.0],[169.6687,60.4521,0.0],[169.6729,60.4542,1.3643],[169.6833,60.45,0.0],[169.6995,60.4495,0.0],[169.7016,60.4464,0.0],[169.6958,60.4458,0.0],[169.6917,60.4479,0.0],[169.6771,60.4479,2.1645],[169.6729,60.45,0.0],[169.6625,60.45,0.0],[169.6583,60.4521,0.0],[169.6375,60.4521,0.0],[169.6214,60.4464,0.0],[169.6266,60.4453,0.6435],[169.6307,60.4411,0.0],[169.6255,60.438,3.6524],[169.6453,60.4328,3.1538],[169.65,60.4292,0.0],[169.6578,60.4286,0.0],[169.6625,60.425,0.0],[169.6687,60.425,3.1031],[169.6766,60.4224,3.2696],[169.6812,60.4188,0.0],[169.6875,60.4188,3.6414],[169.6953,60.4161,3.7918],[169.6964,60.413,0.0],[169.7016,60.412,0.0],[169.7047,60.4089,0.0],[169.7161,60.4057,1.5119],[169.7208,60.4021,0.0],[169.7287,60.4016,3.9388],[169.738,60.3943,0.0],[169.7432,60.3932,4.1529],[169.7422,60.3901,0.0],[169.7474,60.3891,3.755],[169.7495,60.387,1.722],[169.7479,60.3833,0.0],[169.7495,60.3807,0.0],[169.7484,60.3734,5.4594],[169.7495,60.3714,14.0123],[169.7422,60.3661,0.0],[169.7432,60.363,0.0],[169.7422,60.3609,0.0],[169.7453,60.3568,13.56],[169.7391,60.3526,0.0],[169.7339,60.3516,0.0],[169.7318,60.3484,0.0],[169.737,60.3474,0.0],[169.7359,60.3443,0.0],[169.7412,60.3432,45.3023],[169.7359,60.3391,0.0],[169.737,60.3359,0.0],[169.7359,60.3339,0.0],[169.7401,60.3297,0.0],[169.7495,60.3266,17.2675],[169.7609,60.3193,0.0],[169.7703,60.3182,7.254],[169.7693,60.3151,0.0],[169.7745,60.3141,0.0],[169.7734,60.3089,0.0],[169.7786,60.3078,0.0],[169.7734,60.3016,0.0],[169.7745,60.2984,10.9401],[169.7713,60.2974,0.0],[169.7724,60.2943,0.0],[169.7713,60.2922,0.0],[169.787,60.2786,100.9264],[169.7849,60.2755,59.1449],[169.7797,60.2745,0.0],[169.7807,60.2714,0.0],[169.7797,60.2672,0.0],[169.7849,60.2661,0.0],[169.7896,60.2625,0.0],[169.8,60.2625,2.4339],[169.8349,60.2536,9.4351],[169.8359,60.2505,0.0],[169.8438,60.25,0.0],[169.8484,60.2464,0.0],[169.8599,60.2432,5.7167],[169.8589,60.2401,0.0],[169.8682,60.2391,6.2525],[169.8703,60.237,2.1353],[169.8672,60.2349,0.0],[169.8687,60.2333,0.0],[169.8729,60.2333,0.0],[169.8786,60.2359,0.0],[169.8776,60.2391,0.544],[169.8807,60.2422,0.0],[169.8797,60.2453,1.6016],[169.8818,60.2474,0.0],[169.8979,60.2521,0.0],[169.9229,60.2521,5.5246],[169.9479,60.2438,0.0],[169.9521,60.2458,8.1364],[169.9583,60.2417,0.0],[169.9708,60.2417,0.0],[169.975,60.2438,11.5552],[169.9792,60.2438,5.5342],[169.9937,60.2396,0.794],[170.0083,60.2396,0.0],[170.0099,60.2391,0.5287],[170.0089,60.2359,0.0],[170.0141,60.2349,0.4108],[170.0172,60.2318,0.0],[170.025,60.2313,0.4574],[170.0307,60.2286,0.0],[170.0271,60.225,0.0],[170.0021,60.225,2.6745],[170.0005,60.2255,5.2578],[170.0016,60.2286,0.0],[169.9984,60.2297,0.0],[169.9995,60.2328,0.0],[169.9958,60.2354,0.0],[169.9917,60.2354,1.221],[169.9901,60.2349,0.0],[169.9912,60.2318,1.4361],[169.987,60.2297,0.0],[169.975,60.2292,0.0],[169.9688,60.225,0.0],[169.9646,60.2271,0.0],[169.9521,60.2271,0.0],[169.9458,60.2229,8.6066],[169.9417,60.2229,7.6524],[169.9375,60.225,0.0],[169.9297,60.2224,4.3813],[169.9307,60.2193,0.0],[169.9255,60.2161,0.0],[169.9287,60.212,0.0],[169.9271,60.2104,1.7836],[169.9125,60.2104,0.0],[169.9083,60.2083,3.4303],[169.8896,60.2062,0.0],[169.8714,60.2016,0.0],[169.8755,60.1964,0.0],[169.8807,60.1953,34.8039],[169.8776,60.1932,0.0],[169.8786,60.1859,0.0],[169.8776,60.1839,0.0],[169.8807,60.1797,12.5598],[169.8755,60.1766,0.0],[169.8786,60.1724,0.0],[169.8776,60.1693,0.0],[169.8828,60.1682,8.6396],[169.8818,60.1651,0.0],[169.8891,60.1641,0.0],[169.8943,60.1589,0.0],[169.9203,60.1495,0.0],[169.9172,60.1464,0.0],[169.9224,60.1453,0.0],[169.9214,60.1422,0.0],[169.9266,60.1411,0.0],[169.9255,60.138,0.0],[169.9307,60.137,0.0],[169.9297,60.1318,0.0],[169.9349,60.1266,0.0],[169.9339,60.1234,0.0],[169.937,60.1203,13.4014],[169.9339,60.1182,0.0],[169.9349,60.1151,0.0],[169.9339,60.113,0.0],[169.9391,60.112,0.0],[169.9359,60.1068,0.0],[169.9432,60.1016,0.0],[169.9401,60.0974,0.0],[169.9411,60.0943,0.0],[169.9401,60.0922,0.0],[169.9453,60.0891,0.0],[169.9443,60.0859,0.0],[169.9464,60.0839,0.0],[169.9557,60.0828,159.9207],[169.9526,60.0776,0.0],[169.9604,60.0771,264.5517],[169.9661,60.0745,156.4876],[169.9641,60.0714,55.9113],[169.9588,60.0693,0.0],[169.975,60.0687,259.0516],[169.9766,60.0682,259.0516],[169.9755,60.0651,0.0],[169.9771,60.0646,13.702],[169.9854,60.0708,511.3097],[169.9932,60.0682,371.7632],[169.9922,60.0651,158.6171],[170.0,60.0625,155.8906],[170.0016,60.063,281.895],[170.0005,60.0661,418.7905],[170.0167,60.0687,579.8085],[170.0203,60.0661,594.5701],[170.0193,60.063,494.6359],[170.0213,60.0609,281.938],[170.0307,60.0599,277.4075],[170.0255,60.0547,0.0],[170.0417,60.0542,28.8113],[170.0458,60.0521,28.013],[170.0688,60.0542,325.8129],[170.0729,60.0563,502.0291],[170.0833,60.0563,425.6247],[170.0875,60.0583,473.6865],[170.0932,60.0578,305.2557],[170.0911,60.0547,130.8874],[170.0833,60.0521,62.8941],[170.0729,60.0521,154.2096],[170.0688,60.05,13.4934],[170.0625,60.05,23.535],[170.0609,60.0484,0.0],[170.0646,60.0458,0.0],[170.0708,60.0458,0.0],[170.0896,60.0396,0.0],[170.0958,60.0396,4.571],[170.1125,60.0333,0.0],[170.1203,60.0328,5.1359],[170.1193,60.0297,0.0],[170.1286,60.0266,0.0],[170.1333,60.0229,0.0],[170.1453,60.0224,1.57],[170.1401,60.0193,0.0],[170.1516,60.0161,0.0],[170.1505,60.0109,0.0],[170.1599,60.0057,0.0],[170.1526,60.0016,54.745],[170.1526,60.0,11.6091],[170.1585,60.0,179.2064],[170.1547,59.9943,77.1922],[170.135,59.9818,130.2346],[170.1387,59.9763,185.8745],[170.134,59.9729,62.5305],[170.1365,59.9709,54.4139],[170.1623,59.9691,69.4541],[170.1678,59.9659,41.76],[170.1803,59.964,9.4425],[170.1877,59.9651,8.6216],[170.2112,59.963,3.018],[170.2315,59.9554,31.0838],[170.2475,59.9408,126.9575],[170.2691,59.9303,219.4453],[170.2911,59.9276,223.9075],[170.3216,59.9326,116.3927],[170.3514,59.942,22.0348],[170.3711,59.9455,153.8502],[170.3984,59.9476,0.0],[170.4047,59.9529,0.0],[170.4147,59.9551,0.0],[170.4201,59.9633,0.0],[170.4307,59.9695,0.0],[170.4329,59.9747,0.0],[170.4301,59.9798,0.0],[170.4413,59.9996,0.0],[170.4405,60.0032,0.0],[170.4297,60.0032,25.8023],[170.4307,60.0057,109.0726],[170.4276,60.0099,149.9625],[170.4312,60.0146,16.7095],[170.4297,60.0182,2.8611],[170.4359,60.0245,0.0],[170.4411,60.0255,0.0],[170.4432,60.0297,0.0],[170.4401,60.0339,0.0],[170.4411,60.037,1.9881],[170.4401,60.0391,49.4273],[170.4422,60.0411,0.0],[170.4495,60.0422,0.0],[170.4516,60.0443,0.0],[170.4505,60.0474,16.8693],[170.4568,60.0536,120.9474],[170.4641,60.0547,1.0622],[170.462,60.0578,96.3282],[170.4568,60.0589,241.333],[170.4599,60.0641,0.0],[170.4547,60.0651,125.546],[170.4557,60.0703,1.0514],[170.4526,60.0745,3.9139],[170.4583,60.0812,0.0],[170.4568,60.0839,21.4201],[170.4578,60.0911,217.5947],[170.4568,60.0932,234.4035],[170.462,60.0964,39.6485],[170.4588,60.1016,0.0],[170.4625,60.1063,0.0],[170.4609,60.1089,12.7646],[170.462,60.112,0.0],[170.4568,60.113,5.8841],[170.4599,60.1172,0.0],[170.4583,60.1208,8.5693],[170.4599,60.1234,0.0],[170.4588,60.1266,0.0],[170.4661,60.1359,0.0],[170.4651,60.1432,112.7715],[170.4672,60.1474,0.0],[170.4724,60.1526,0.0],[170.4688,60.1583,17.5132],[170.4724,60.163,4.4999],[170.4714,60.1703,1.7896],[170.4745,60.1724,3.9185],[170.4693,60.1745,2.1849],[170.4714,60.1766,2.1747],[170.4766,60.1776,6.3389],[170.4755,60.1807,8.6976],[170.4766,60.1828,8.355],[170.4396,60.1792,3.4878],[170.4318,60.1818,2.9934],[170.4255,60.1859,3.3371],[170.4214,60.1901,3.1634],[170.4224,60.1932,1.682],[170.4063,60.1937,11.6649],[170.3984,60.1964,4.6175],[170.3958,60.2,4.5195],[170.4042,60.2083,1.4116],[170.4667,60.2083,3.0078],[170.4703,60.2057,1.2423],[170.4693,60.2026,1.6121],[170.4724,60.1995,1.4919],[170.4693,60.1964,1.7354],[170.4714,60.1943,1.7083],[170.4766,60.1932,1.5389],[170.4734,60.188,1.6435],[170.4755,60.1859,2.4661],[170.4787,60.1859,5.8744],[170.4807,60.188,2.7839],[170.4797,60.1953,6.9752],[170.4828,60.1964,6.3078],[170.4818,60.1995,7.3934],[170.4849,60.2026,7.2832],[170.4839,60.2099,1.3042],[170.4912,60.2151,7.4972],[170.4901,60.2182,1.9132],[170.5016,60.2276,0.0],[170.5005,60.2307,2.9644],[170.5099,60.238,0.0],[170.5089,60.2411,3.4962],[170.5125,60.2438,4.241],[170.5125,60.2458,7.4073],[170.4979,60.2396,2.6998],[170.4964,60.2401,2.4646],[170.4974,60.2432,4.2439],[170.4922,60.2443,18.7296],[170.4891,60.2495,4.5336],[170.4812,60.2521,11.2796],[170.4734,60.2526,119.8046],[170.4745,60.2557,2.107],[170.4693,60.2568,11.4137],[170.4651,60.263,3.4524],[170.4703,60.2661,40.9083],[170.4646,60.2667,4.8761],[170.4588,60.2651,2.2266],[170.4599,60.2682,1.6417],[170.4547,60.2693,3.1806],[170.4557,60.2724,1.8124],[170.4318,60.2818,3.3778],[170.4328,60.2849,2.1709],[170.4312,60.2875,3.6308],[170.4328,60.2911,2.0959],[170.4318,60.2932,2.6034],[170.4396,60.2958,2.989],[170.4521,60.2958,2.0377],[170.4563,60.2938,2.264],[170.4625,60.2938,77.0815],[170.4641,60.2932,48.3295],[170.463,60.2901,4.0175],[170.4651,60.288,4.2155],[170.4745,60.2849,8.617],[170.4734,60.2818,6.8434],[170.4776,60.2776,8.1747],[170.4828,60.2766,19.6089],[170.4859,60.2734,5.553],[170.4964,60.2693,1.5573],[170.5167,60.2687,3.5546],[170.5313,60.2646,2.47],[170.5396,60.2646,0.0],[170.5516,60.2693,0.0],[170.5589,60.2766,6.3875],[170.5641,60.2776,0.0],[170.5672,60.2807,3.5857],[170.5771,60.2833,10.8579],[170.6083,60.2833,12.8937],[170.6187,60.2875,199.1966],[170.6333,60.2875,0.0],[170.6375,60.2896,144.0394],[170.6458,60.2896,0.0],[170.6505,60.2932,19.0342],[170.6583,60.2938,0.0],[170.6662,60.2964,0.0],[170.6693,60.2995,0.0],[170.6766,60.3005,0.0],[170.6859,60.3099,59.6968],[170.6891,60.3109,0.0],[170.688,60.3141,65.9969],[170.6891,60.3161,0.0],[170.6812,60.325,0.0],[170.6771,60.325,1.5134],[170.6646,60.3208,2.9852],[170.6547,60.3214,3.1058],[170.6703,60.3276,1.6956],[170.6734,60.3307,4.3796],[170.6812,60.3312,3.5311],[170.687,60.3339,0.0],[170.6859,60.337,5.9511],[170.6891,60.3401,0.0],[170.688,60.3432,88.1964],[170.6891,60.3453,27.4811],[170.6818,60.3464,134.4447],[170.6828,60.3495,0.0],[170.6583,60.35,50.1241],[170.6542,60.3521,0.0],[170.6333,60.3521,0.0],[170.6292,60.35,82.2909],[170.625,60.35,64.4787],[170.6203,60.3536,0.0],[170.6151,60.3547,5.5074],[170.6162,60.3578,4.4107],[170.6109,60.3589,1.8054],[170.613,60.362,3.4281],[170.6182,60.3651,0.0],[170.6172,60.3682,0.0],[170.6313,60.3729,0.0],[170.6396,60.3729,0.0],[170.6438,60.375,133.082],[170.6479,60.3729,0.0],[170.6516,60.3755,155.5251],[170.65,60.3771,195.2761],[170.6438,60.3771,279.5634],[170.6359,60.3797,233.3474],[170.6375,60.3833,0.0],[170.6349,60.387,0.0],[170.6271,60.3875,104.2319],[170.6234,60.3901,33.2131],[170.6276,60.3953,0.0],[170.6307,60.3964,0.0],[170.6297,60.3995,1.5673],[170.6349,60.4005,0.0],[170.637,60.4026,0.0],[170.6359,60.4057,2.5706],[170.6422,60.4099,2.5413],[170.6474,60.4109,0.9445],[170.6432,60.4161,2.2861],[170.6354,60.4188,2.5501],[170.6083,60.4188,2.0483],[170.6042,60.4229,2.5414],[170.5964,60.4182,2.3952],[170.6016,60.412,4.3819],[170.6,60.4104,3.2355],[170.5917,60.4104,40.8992],[170.5854,60.4146,2.4479],[170.5708,60.4146,2.6737],[170.5667,60.4167,2.1578],[170.5625,60.4146,2.4217],[170.5542,60.4146,6.7078],[170.5401,60.4193,1.997],[170.5412,60.4224,1.9884],[170.5401,60.4245,1.876],[170.5432,60.4255,1.9107],[170.5422,60.4286,2.1856],[170.5604,60.4333,1.9531],[170.5813,60.4271,1.9973],[170.5979,60.4271,2.8167],[170.6021,60.4292,2.511],[170.6104,60.4292,2.0639],[170.6146,60.4271,2.0787],[170.6187,60.4271,2.091],[170.6292,60.4313,5.2065],[170.6333,60.4292,2.2218],[170.6438,60.4292,2.0468],[170.6479,60.4313,4.6578],[170.6505,60.4276,2.2244],[170.6557,60.4266,2.9088],[170.6526,60.4224,2.2218],[170.6536,60.4193,4.0999],[170.6505,60.4141,2.3],[170.6542,60.4104,0.0],[170.6604,60.4104,29.7934],[170.675,60.4063,0.0],[170.6792,60.4063,0.0],[170.6833,60.4083,69.7072],[170.6875,60.4063,0.0],[170.7021,60.4063,105.4181],[170.7063,60.4042,0.0],[170.7104,60.4042,0.0],[170.7146,60.4063,112.6102],[170.7188,60.4063,132.6842],[170.7229,60.4042,9.4082],[170.7313,60.4042,9.4941],[170.7328,60.4047,9.2081],[170.7318,60.412,3.7586],[170.7349,60.4141,7.3489],[170.7214,60.4151,32.4184],[170.7182,60.4182,3.6308],[170.713,60.4193,7.889],[170.7109,60.4214,3.2855],[170.713,60.4245,4.3886],[170.7188,60.425,2.8681],[170.7292,60.4292,2.7405],[170.7375,60.4292,3.5598],[170.7422,60.4255,1.7331],[170.7542,60.4208,0.0],[170.7688,60.4229,3.6133],[170.7813,60.4188,0.0],[170.7875,60.4188,14.6581],[170.7984,60.4286,13.1463],[170.8078,60.4318,0.0],[170.8161,60.4422,0.0],[170.8151,60.4495,19.4824],[170.8203,60.4526,0.0],[170.8193,60.4557,3.4773],[170.8234,60.4599,10.1621],[170.8307,60.4609,0.0],[170.8297,60.4641,5.9247],[170.8307,60.4661,5.4943],[170.8229,60.4688,1.0],[170.8193,60.4661,8.4931],[170.8203,60.463,2.9848],[170.8188,60.4625,9.3409],[170.8026,60.4651,5.9652],[170.8042,60.4667,1.7065],[170.8146,60.4667,2.4592],[170.8161,60.4682,1.0],[170.7901,60.4755,1.0],[170.7849,60.4807,1.0],[170.7797,60.4818,67.3643],[170.7745,60.487,18.6703],[170.7713,60.488,9.721],[170.762,60.4974,1.0],[170.7568,60.4984,3.8085],[170.7609,60.5016,2.6429],[170.7688,60.5042,1.2701],[170.7766,60.5047,1.2336],[170.7786,60.5068,1.0],[170.7776,60.5099,1.4882],[170.7849,60.5109,1.0],[170.788,60.5141,1.8051],[170.7958,60.5167,1.0],[170.8099,60.5161,1.0],[170.8089,60.5089,1.0],[170.8167,60.5083,5.1115],[170.8292,60.5042,1.0],[170.8354,60.5042,1.0],[170.8432,60.5016,26.4048],[170.8422,60.4984,1.0],[170.8562,60.4938,2.8184],[170.8641,60.4932,19.8565],[170.8609,60.4901,1.0],[170.8662,60.4891,1.0],[170.863,60.4849,2.8705],[170.8646,60.4833,0.0],[170.8693,60.487,2.85],[170.8771,60.4875,0.0],[170.8813,60.4896,0.0],[170.9229,60.4896,64.3621],[170.9411,60.4943,0.0],[170.9484,60.4995,0.0],[170.9536,60.5005,0.0],[170.9568,60.5036,0.0],[170.9646,60.5062,0.0],[170.975,60.5062,48.4674],[170.9792,60.5042,0.0],[170.9932,60.5047,7.0466],[170.9964,60.5078,15.3782],[171.0161,60.513,0.0],[171.0224,60.5193,2.0778],[171.0213,60.5224,34.1319],[171.0255,60.5245,3.0565],[171.037,60.5276,0.0],[171.0401,60.5307,4.0623],[171.0474,60.5318,0.0],[171.0505,60.5349,4.7262],[171.0828,60.5443,0.0],[171.0875,60.5479,7.1469],[171.0917,60.5479,0.0],[171.0958,60.55,9.8362],[171.1062,60.55,0.0],[171.1229,60.5563,275.7774],[171.1271,60.5542,58.9858],[171.1349,60.5536,36.1771],[171.138,60.5505,0.0],[171.1521,60.5458,0.0],[171.1604,60.5458,0.0],[171.175,60.55,0.0],[171.1938,60.5521,0.0],[171.2,60.5563,20.3821],[171.2203,60.5589,0.0],[171.2234,60.562,0.0],[171.2287,60.563,0.0],[171.238,60.5703,49.6229],[171.2495,60.5734,0.0],[171.2568,60.5786,0.0],[171.2661,60.5797,0.0],[171.2734,60.5849,0.0],[171.2849,60.588,0.0],[171.2896,60.5917,28.6633],[171.3016,60.5943,0.0],[171.3047,60.5974,25.9295],[171.3125,60.6,67.8484],[171.3167,60.6,0.0],[171.3271,60.6042,0.0],[171.3333,60.6042,0.0],[171.3479,60.6104,0.0],[171.3708,60.6104,0.0],[171.3854,60.6146,0.0],[171.3995,60.6151,0.0],[171.4016,60.6172,12.5589],[171.4005,60.6203,64.8038],[171.4078,60.6255,0.0],[171.4026,60.6276,0.0],[171.4,60.6312,0.0],[171.4036,60.6359,0.0],[171.4026,60.6391,35.5307],[171.4047,60.6432,5.2828],[171.4109,60.6495,3.8221],[171.4182,60.6505,0.0],[171.4172,60.6578,1.4265],[171.4203,60.6599,4.2453],[171.4151,60.662,0.0],[171.4287,60.663,0.0],[171.4307,60.6661,0.0],[171.4255,60.6703,0.0],[171.4333,60.6708,4.2779],[171.4411,60.6734,0.0],[171.4401,60.6766,3.9872],[171.4474,60.6776,0.0],[171.4516,60.6818,0.0],[171.4505,60.6849,0.5],[171.4661,60.6901,0.0],[171.4734,60.6953,0.0],[171.4787,60.6964,0.0],[171.4818,60.6995,0.0],[171.4953,60.7026,0.0],[171.4984,60.7057,0.0],[171.5229,60.7146,13.931],[171.5354,60.7146,0.0],[171.5396,60.7167,0.0],[171.55,60.7167,0.0],[171.5542,60.7188,93.6672],[171.5854,60.7167,198.2497],[171.5896,60.7146,14.7309],[171.6062,60.7146,0.0],[171.6104,60.7167,33.0074],[171.6286,60.7172,51.6424],[171.6391,60.7255,0.0],[171.638,60.7286,118.0733],[171.6474,60.7318,0.0],[171.6463,60.7349,97.2569],[171.6536,60.7401,0.0],[171.6526,60.7432,7.5267],[171.6557,60.7474,5.9747],[171.6516,60.7536,18.3948],[171.6463,60.7547,13.2668],[171.6474,60.7578,0.0],[171.638,60.7589,31.5478],[171.6391,60.7641,0.0],[171.6339,60.7651,0.0],[171.6307,60.7682,0.0],[171.6214,60.7714,0.0],[171.6193,60.7734,0.0],[171.6203,60.7766,2.4365],[171.6193,60.7786,4.4054],[171.6224,60.7797,3.9009],[171.6349,60.7901,0.0],[171.6339,60.7932,6.4168],[171.6474,60.7964,0.0],[171.6463,60.7995,0.0],[171.6505,60.8036,0.0],[171.6578,60.8047,0.0],[171.6568,60.8078,0.0],[171.6792,60.8083,9.522],[171.6833,60.8063,0.0],[171.6875,60.8083,0.0],[171.6958,60.8083,0.0],[171.7005,60.812,4.585],[171.7057,60.813,0.0],[171.7047,60.8161,0.0],[171.7078,60.8182,0.0],[171.7026,60.8203,0.0],[171.7057,60.8245,0.0],[171.7026,60.8255,16.9885],[171.7005,60.8286,72.2458],[171.7099,60.8297,0.0],[171.7047,60.8318,49.0532],[171.7063,60.8333,12.8377],[171.725,60.8354,0.0],[171.7297,60.8391,6.1075],[171.7396,60.8396,0.0],[171.75,60.8438,5.286],[171.7604,60.8438,0.0],[171.7646,60.8458,3.3332],[171.7917,60.8458,0.0],[171.7995,60.8432,0.0],[171.7964,60.8401,0.0],[171.8057,60.8391,19.2149],[171.8047,60.8359,0.0],[171.8068,60.8339,0.0],[171.812,60.8328,41.7785],[171.8089,60.8297,0.0],[171.8141,60.8286,3.2691],[171.8109,60.8245,0.0],[171.8125,60.8229,0.0],[171.8167,60.825,0.0],[171.8208,60.825,5.5831],[171.825,60.8229,0.0],[171.8354,60.8229,0.0],[171.8396,60.8208,0.0],[171.8438,60.8208,0.0],[171.8479,60.8229,47.5158],[171.8583,60.8229,0.0],[171.8625,60.825,0.0],[171.8667,60.825,0.0],[171.8833,60.8187,0.0],[171.8875,60.8208,68.1473],[171.9063,60.8229,0.0],[171.9104,60.825,22.4378],[171.9458,60.8271,0.0],[171.9526,60.8328,0.0],[171.962,60.8359,1.5166],[171.9651,60.8391,9.8668],[171.9807,60.8401,0.0],[171.9708,60.8458,239.4949],[171.9667,60.8438,288.1526],[171.9609,60.8443,240.3356],[171.962,60.8474,81.9594],[171.9609,60.8495,20.1783],[171.9641,60.8516,0.0],[171.962,60.8536,0.0],[171.9568,60.8547,79.4969],[171.9578,60.8578,16.9203],[171.9568,60.8599,10.3741],[171.9599,60.8609,0.0],[171.9588,60.8641,0.0],[171.9641,60.8651,0.0],[171.963,60.8745,33.0942],[171.9661,60.8766,0.0],[171.9588,60.8807,143.5349],[171.9667,60.8833,0.0],[171.9708,60.8812,0.0],[171.9776,60.8849,0.0],[171.9854,60.8854,0.0],[171.9896,60.8875,6.3786],[171.9937,60.8854,0.0],[171.9979,60.8875,4.8645],[172.0078,60.887,0.0],[172.0109,60.8839,0.0],[172.0161,60.8828,12.1394],[172.0182,60.8807,23.4261],[172.0172,60.8755,0.0],[172.0266,60.8745,70.2621],[172.0255,60.8714,0.0],[172.0328,60.8661,80.3464],[172.0318,60.863,19.3254],[172.0333,60.8604,28.2507],[172.0318,60.8568,0.0],[172.037,60.8557,186.4197],[172.0349,60.8526,82.3246],[172.0318,60.8516,0.1784],[172.037,60.8495,57.4063],[172.0359,60.8464,0.0],[172.05,60.8458,199.8723],[172.0542,60.8479,178.787],[172.0625,60.8479,405.746],[172.0682,60.8464,187.2766],[172.0724,60.8495,33.009],[172.0672,60.8557,71.4587],[172.0734,60.8599,20.4795],[172.0828,60.8609,0.0],[172.0854,60.8646,17.7235],[172.1016,60.8651,0.0],[172.1005,60.8682,0.0],[172.1037,60.8703,0.0],[172.0943,60.8755,0.0],[172.0953,60.8786,0.0],[172.0922,60.8797,0.0],[172.0932,60.8828,0.0],[172.0901,60.887,0.0],[172.0979,60.8917,26.0655],[172.1057,60.8922,0.0],[172.1109,60.8995,0.0],[172.1203,60.9026,0.0],[172.1193,60.9057,0.0],[172.1266,60.9109,0.0],[172.1255,60.9141,0.0],[172.1328,60.9245,0.0],[172.1271,60.9271,3.2975],[172.1167,60.925,11.1849],[172.1151,60.9255,0.0],[172.113,60.9307,0.0],[172.1313,60.9313,0.0],[172.1354,60.9292,0.0],[172.1438,60.9292,0.0],[172.1479,60.9313,0.0],[172.1583,60.9313,0.0],[172.1625,60.9292,0.0],[172.1667,60.9313,0.0],[172.1787,60.9318,0.0],[172.1818,60.9349,14.2835],[172.1953,60.938,25.1121],[172.1984,60.9432,0.0],[172.2063,60.9437,0.0],[172.2182,60.9484,0.0],[172.213,60.9557,0.0],[172.2182,60.9589,0.0],[172.2151,60.9641,21.7406],[172.2182,60.9651,0.0],[172.2203,60.9682,0.0],[172.2125,60.9688,130.0771],[172.2083,60.9708,170.2386],[172.2021,60.9667,613.5224],[172.1974,60.9703,318.4344],[172.1922,60.9714,211.6624],[172.1938,60.9729,210.0656],[172.1979,60.9729,180.7178],[172.2036,60.9714,141.1881],[172.2026,60.9745,66.4315],[172.2057,60.9766,0.0],[172.2036,60.9786,0.0],[172.1958,60.9792,0.0],[172.1922,60.9818,167.8338],[172.1953,60.9849,0.0],[172.1859,60.9901,268.9116],[172.187,60.9953,0.0],[172.1828,60.9995,114.997],[172.1776,61.0005,130.9408],[172.1828,61.0057,0.0],[172.1734,61.0068,12.8452],[172.1682,61.0141,63.7458],[172.163,61.0151,188.4908],[172.1662,61.0224,13.9558],[172.162,61.0266,60.9094],[172.1479,61.0271,0.0],[172.1375,61.0208,13.3587],[172.1229,61.0208,0.0],[172.1125,61.0167,0.0],[172.1089,61.0172,0.0],[172.1151,61.0224,8.5323],[172.1229,61.025,22.8999],[172.137,61.0255,0.0],[172.1432,61.0297,0.0],[172.1422,61.0328,0.0],[172.1474,61.0339,0.0],[172.1536,61.038,0.0],[172.1516,61.0411,24.0893],[172.1422,61.0422,35.3396],[172.1375,61.0458,0.0],[172.1271,61.0458,146.5445],[172.1255,61.0474,85.3222],[172.1286,61.0495,0.0],[172.1146,61.0542,0.0],[172.1083,61.0542,13.0328],[172.0688,61.0687,22.1939],[172.0609,61.0693,54.1331],[172.063,61.0724,0.0],[172.0661,61.0734,0.0],[172.0646,61.075,0.0],[172.0542,61.075,75.033],[172.0396,61.0792,0.0],[172.0292,61.0792,40.1291],[172.025,61.0812,0.0],[172.0208,61.0792,24.7979],[172.0083,61.0792,0.0],[172.0047,61.0828,0.0],[172.0125,61.0854,0.0],[172.0167,61.0833,0.0],[172.025,61.0833,0.0],[172.05,61.0938,0.0],[172.0578,61.0911,8.5677],[172.0547,61.088,0.0],[172.0682,61.087,11.7187],[172.0734,61.0818,0.0],[172.0854,61.0812,26.6418],[172.087,61.0807,38.3083],[172.0859,61.0776,0.0],[172.1057,61.0724,0.0],[172.1104,61.0687,0.0],[172.1208,61.0687,0.0],[172.1271,61.0667,0.0],[172.1313,61.0625,0.0],[172.1458,61.0625,12.5543],[172.15,61.0646,0.0],[172.1583,61.0646,0.0],[172.163,61.0609,0.0],[172.1724,61.0599,61.9879],[172.1734,61.0568,0.0],[172.1849,61.0536,34.7771],[172.188,61.0505,32.8276],[172.1932,61.0495,110.6251],[172.1901,61.0474,0.0],[172.1911,61.0443,0.0],[172.1901,61.0422,0.0],[172.2083,61.0417,0.0],[172.2125,61.0438,3.7456],[172.2172,61.0401,0.0],[172.2224,61.0391,85.4684],[172.2172,61.0349,0.0],[172.2193,61.0318,0.0],[172.2245,61.0307,114.0795],[172.2214,61.0276,0.0],[172.2412,61.0245,81.2187],[172.2401,61.0214,0.0],[172.2495,61.0203,107.1105],[172.2542,61.0146,31.0592],[172.2604,61.0146,0.0],[172.2646,61.0125,0.0],[172.2703,61.0141,1.9744],[172.2724,61.0109,120.6809],[172.2672,61.0089,0.0],[172.2724,61.0078,12.2213],[172.275,61.0042,0.0],[172.2813,61.0042,0.0],[172.2854,61.0062,0.0],[172.3021,61.0062,0.0],[172.3062,61.0042,0.0],[172.3104,61.0062,0.0],[172.3266,61.0089,0.0],[172.3297,61.012,0.0],[172.3417,61.0167,0.0],[172.3557,61.0161,12.7422],[172.3589,61.013,133.0646],[172.3682,61.0099,0.0],[172.375,61.0042,0.0],[172.3849,61.0047,0.0],[172.3839,61.0078,0.0],[172.3896,61.0104,0.0],[172.3979,61.0104,0.0],[172.4021,61.0083,0.0],[172.4063,61.0083,0.0],[172.4167,61.0125,0.0],[172.4224,61.013,111.6185],[172.4193,61.0182,251.4257],[172.4292,61.0187,0.0],[172.4339,61.0224,0.0],[172.4536,61.0276,0.0],[172.4672,61.0391,0.0],[172.4787,61.0464,0.0],[172.4849,61.0547,5.3507],[172.4776,61.0589,87.568],[172.4807,61.062,22.7734],[172.4688,61.0625,112.0712],[172.4646,61.0646,23.0809],[172.4563,61.0604,442.6795],[172.4438,61.0604,379.0215],[172.4396,61.0625,114.3694],[172.4151,61.0516,0.0],[172.4162,61.0484,18.4649],[172.4042,61.0438,0.8574],[172.4021,61.0458,0.0],[172.4057,61.0516,0.0],[172.4005,61.0526,0.6415],[172.4036,61.0557,0.0],[172.3984,61.0568,0.0],[172.3995,61.0599,0.0],[172.3984,61.062,16.428],[172.4099,61.063,0.0],[172.4089,61.0661,0.0],[172.4109,61.0703,72.9558],[172.413,61.0724,58.6391],[172.4182,61.0734,0.0],[172.4089,61.0766,249.2906],[172.412,61.0776,54.644],[172.4109,61.0807,61.1195],[172.413,61.0849,0.0],[172.4182,61.0859,0.0],[172.4203,61.088,96.9123],[172.4193,61.0911,182.4573],[172.4266,61.0964,0.0],[172.4266,61.0995,0.0],[172.4172,61.1005,118.7995],[172.412,61.1057,0.0],[172.4068,61.1068,2.3331],[172.4042,61.1104,6.6451],[172.3938,61.1104,0.0],[172.3896,61.1083,37.5483],[172.3833,61.1083,0.0],[172.3786,61.1047,0.0],[172.3714,61.1036,0.0],[172.3667,61.1,27.0247],[172.3542,61.1,0.0],[172.35,61.0979,20.9799],[172.3458,61.1,0.0],[172.3021,61.1,26.411],[172.3005,61.1005,16.1198],[172.3016,61.1036,0.0],[172.3,61.1042,0.0],[172.2896,61.1042,7.8722],[172.2854,61.1063,0.0],[172.2776,61.1068,17.097],[172.2786,61.112,0.0],[172.2766,61.1141,0.0],[172.2672,61.1151,16.7824],[172.2641,61.1203,0.0],[172.2505,61.1255,0.0],[172.2484,61.1276,0.0],[172.2484,61.1307,0.0],[172.2557,61.1307,0.0],[172.2547,61.1276,0.0],[172.2563,61.1271,0.0],[172.2682,61.1266,32.5843],[172.2713,61.1214,0.0],[172.2828,61.1182,26.7938],[172.2839,61.1151,0.0],[172.2891,61.1141,7.569],[172.2937,61.1104,0.0],[172.3333,61.1104,0.0],[172.3375,61.1125,14.3821],[172.3417,61.1104,0.0],[172.3458,61.1125,23.561],[172.3667,61.1125,0.0],[172.3703,61.1151,0.0],[172.3693,61.1182,1.3946],[172.3714,61.1203,0.0],[172.3771,61.1208,0.0],[172.3875,61.125,0.0],[172.3917,61.1229,0.0],[172.4146,61.1229,0.0],[172.4187,61.1208,0.0],[172.4307,61.1214,0.0],[172.4297,61.1245,67.9931],[172.4318,61.1266,0.0],[172.4411,61.1297,0.0],[172.438,61.1349,28.247],[172.4432,61.138,19.5714],[172.4411,61.1411,0.0],[172.425,61.1417,152.9388],[172.4234,61.1432,116.9969],[172.4266,61.1443,0.0],[172.425,61.1458,0.0],[172.4146,61.1458,96.9225],[172.4104,61.1479,0.0],[172.4042,61.1479,89.2406],[172.3963,61.1505,39.3439],[172.3917,61.1542,0.0],[172.3813,61.1542,37.391],[172.3766,61.1578,0.0],[172.3672,61.1589,30.4336],[172.3703,61.1609,0.0],[172.3693,61.1641,0.0],[172.3714,61.1682,0.0],[172.3766,61.1693,0.0],[172.3724,61.1766,0.0],[172.362,61.1891,0.0],[172.3568,61.1901,66.9491],[172.3599,61.1932,0.0],[172.3547,61.1943,0.0],[172.35,61.1979,0.0],[172.338,61.1984,103.942],[172.3401,61.2016,0.0],[172.3432,61.2026,0.0],[172.3401,61.2078,2.6981],[172.3474,61.2089,0.0],[172.3505,61.212,0.0],[172.3724,61.2193,0.0],[172.3896,61.2271,0.0],[172.3953,61.2266,0.0],[172.3922,61.2245,0.0],[172.3943,61.2214,0.0],[172.4036,61.2203,30.5396],[172.4057,61.2182,3.1771],[172.4026,61.2161,0.0],[172.4042,61.2146,0.0],[172.4208,61.2146,3.3241],[172.4292,61.2104,0.0],[172.4411,61.2099,23.1838],[172.4401,61.2068,0.0],[172.4422,61.2047,0.0],[172.4474,61.2036,40.4742],[172.4443,61.2016,0.0],[172.4464,61.1984,0.0],[172.4604,61.1937,0.0],[172.4708,61.1937,77.6222],[172.4812,61.1875,33.9116],[172.4917,61.1875,98.6583],[172.4995,61.1849,0.0],[172.5042,61.1813,0.0],[172.512,61.1807,41.3141],[172.5089,61.1776,1.736],[172.5146,61.1729,0.0],[172.5188,61.175,25.2352],[172.5354,61.175,108.2573],[172.55,61.1708,0.0],[172.5625,61.1729,2.2245],[172.5792,61.1667,69.5204],[172.6021,61.1667,62.9876],[172.6062,61.1646,0.0],[172.6104,61.1667,67.1862],[172.6167,61.1646,0.0],[172.6208,61.1667,16.021],[172.6521,61.1667,0.0],[172.6578,61.1693,11.4778],[172.662,61.1734,68.4233],[172.6682,61.1839,110.4186],[172.6651,61.188,299.6655],[172.6682,61.1901,213.0812],[172.6651,61.1943,228.4749],[172.6682,61.1964,57.6199],[172.6672,61.1995,17.9478],[172.6807,61.2089,0.0],[172.6797,61.212,5.3599],[172.6839,61.2161,9.6128],[172.6911,61.2172,0.0],[172.6984,61.2224,4.4843],[172.7036,61.2234,0.0],[172.7026,61.2266,17.025],[172.7099,61.2276,0.0],[172.7146,61.2313,8.4672],[172.7375,61.2333,0.0],[172.7521,61.2396,40.0168],[172.7583,61.2396,0.0],[172.7667,61.2438,93.6997],[172.7745,61.2443,0.0],[172.7729,61.2479,211.0235],[172.7734,61.2495,60.0198],[172.7786,61.2505,0.0],[172.7776,61.2557,0.0],[172.7818,61.2599,0.0],[172.7912,61.263,1.5947],[172.7932,61.2651,4.9467],[172.7932,61.2682,0.0],[172.7912,61.2703,2.8007],[172.7797,61.2734,14.777],[172.7766,61.2786,0.2204],[172.7713,61.2797,1.9183],[172.7646,61.2875,0.0],[172.75,61.2875,11.0282],[172.7297,61.2943,15.0281],[172.7266,61.2974,0.0],[172.7146,61.3021,0.0],[172.6896,61.3021,2.9445],[172.6854,61.3042,0.0],[172.6771,61.3042,0.0],[172.6729,61.3063,0.0],[172.6625,61.3063,5.5132],[172.6583,61.3083,0.0],[172.6505,61.3068,13.7049],[172.6463,61.3089,0.4728],[172.6401,61.3161,0.0],[172.6474,61.3172,2.0901],[172.6521,61.3208,0.0],[172.6729,61.3208,0.0],[172.6745,61.3214,0.0],[172.6734,61.3245,0.6116],[172.675,61.325,0.5713],[172.6792,61.3229,0.0],[172.6833,61.325,0.0],[172.6875,61.325,68.5168],[172.6891,61.3245,50.685],[172.688,61.3214,0.0],[172.6896,61.3208,0.0],[172.7,61.3208,0.0],[172.7042,61.3187,0.0],[172.7146,61.3187,9.6009],[172.7188,61.3167,0.0],[172.725,61.3167,11.213],[172.7312,61.3125,0.0],[172.7458,61.3125,0.0],[172.75,61.3104,0.0],[172.7604,61.3104,0.2625],[172.7682,61.3078,11.9428],[172.7651,61.3057,1.1984],[172.7661,61.3026,0.9898],[172.7651,61.3005,0.6563],[172.7828,61.2974,0.0],[172.7818,61.2943,2.1079],[172.7974,61.2974,0.0],[172.7995,61.2932,0.0],[172.7984,61.2901,0.0],[172.7995,61.288,0.0],[172.7964,61.2859,0.0],[172.8016,61.2849,11.9769],[172.8005,61.2818,1.0848],[172.8125,61.2771,0.0],[172.8203,61.2766,51.1422],[172.8255,61.2714,12.81],[172.8542,61.2708,103.823],[172.8604,61.2667,0.0],[172.875,61.2667,42.5086],[172.8958,61.2583,0.0],[172.9,61.2604,18.1176],[172.9125,61.2604,0.0],[172.9229,61.2646,129.6734],[172.9287,61.2651,0.0],[172.9318,61.2682,98.022],[172.9391,61.2693,0.0],[172.9443,61.2745,65.1989],[172.9516,61.2755,0.0],[172.9568,61.2807,39.4751],[172.9661,61.2839,0.0],[172.9682,61.2859,16.245],[172.9609,61.2891,175.17],[172.9646,61.2938,26.6816],[172.963,61.2974,62.4692],[172.9682,61.3016,13.3356],[172.9438,61.3083,0.0],[172.9396,61.3063,149.1643],[172.9297,61.3109,14.8838],[172.9297,61.3141,0.0],[172.9339,61.3182,0.0],[172.9479,61.3187,0.0],[172.9516,61.3214,168.8865],[172.95,61.325,228.4158],[172.9516,61.3286,8.7315],[172.9422,61.3297,303.6012],[172.9453,61.3328,144.4393],[172.9391,61.3391,152.5002],[172.9109,61.3422,503.6088],[172.9141,61.3453,236.5772],[172.9047,61.3464,420.7081],[172.9057,61.3495,204.9381],[172.9042,61.35,297.503],[172.8963,61.3505,311.0258],[172.8979,61.3521,308.9386],[172.9036,61.3526,177.1433],[172.9,61.3563,88.3282],[172.8813,61.3563,0.0],[172.8745,61.362,62.2387],[172.8672,61.3609,452.322],[172.8682,61.3641,158.1392],[172.8667,61.3646,191.5825],[172.8625,61.3625,520.4071],[172.8542,61.3625,612.4772],[172.85,61.3646,539.796],[172.838,61.3651,425.1034],[172.8411,61.3682,363.1485],[172.8359,61.3693,320.3491],[172.8271,61.3771,0.0],[172.8229,61.3771,4.7211],[172.8188,61.3792,0.0],[172.8021,61.3792,206.543],[172.7922,61.3818,45.0511],[172.7891,61.3849,0.0],[172.775,61.3896,0.0],[172.7693,61.3891,119.3199],[172.7745,61.3859,240.116],[172.7646,61.3854,443.9961],[172.7609,61.3891,111.5625],[172.7661,61.3911,42.9238],[172.75,61.3958,42.8794],[172.7333,61.3958,332.377],[172.7318,61.3974,184.3339],[172.7375,61.3979,169.4333],[172.7391,61.3995,6.0724],[172.7339,61.4005,4.6479],[172.7292,61.4042,0.0],[172.7188,61.4042,17.2408],[172.7146,61.4063,0.0],[172.7083,61.4063,32.1154],[172.7026,61.4089,2.8213],[172.6974,61.4141,0.0],[172.6922,61.4151,2.5463],[172.6922,61.4182,0.0],[172.6974,61.4193,0.0],[172.7088,61.4286,0.5351],[172.7146,61.4313,0.0],[172.7203,61.4307,0.884],[172.725,61.4271,0.0],[172.7307,61.4286,2.0344],[172.7333,61.425,2.2253],[172.7318,61.4224,0.0],[172.7328,61.4193,2.396],[172.7271,61.4188,0.0],[172.7255,61.4172,0.0],[172.7307,61.4161,2.906],[172.7297,61.413,0.0],[172.7349,61.412,3.5501],[172.738,61.4068,1.628],[172.7437,61.4063,0.0],[172.7495,61.4089,0.0],[172.7484,61.412,0.0],[172.7536,61.4151,0.0],[172.7526,61.4182,2.844],[172.762,61.4214,0.0],[172.7672,61.4286,1.1087],[172.7724,61.4297,0.6307],[172.7797,61.4349,2.7774],[172.7932,61.438,0.0],[172.7984,61.4432,3.094],[172.8057,61.4443,0.0],[172.8089,61.4474,3.3195],[172.8146,61.4479,0.0],[172.825,61.4521,3.1063],[172.8333,61.4521,0.0],[172.8583,61.4604,3.5621],[172.8911,61.4651,2.7928],[172.8896,61.4667,0.0],[172.8792,61.4667,2.843],[172.8714,61.4693,0.3881],[172.8672,61.4734,0.667],[172.8687,61.475,2.8009],[172.8833,61.4708,0.8159],[172.8938,61.4708,0.0],[172.9078,61.4661,7.4298],[172.9068,61.463,0.0],[172.9162,61.4599,11.4007],[172.9193,61.4568,0.0],[172.9245,61.4557,11.5894],[172.9214,61.4526,0.0],[172.9307,61.4516,4.2821],[172.937,61.4453,1.3688],[172.9339,61.4422,0.0],[172.9391,61.4401,1.7659],[172.9276,61.4339,10.7772],[172.9333,61.4333,0.0],[172.9375,61.4354,1.3422],[172.9458,61.4354,0.0],[172.95,61.4375,3.581],[172.9604,61.4375,0.0],[172.9646,61.4396,14.8187],[172.9708,61.4375,12.2036],[172.9755,61.4339,49.1241],[172.9807,61.4328,44.3284],[172.9776,61.4297,0.0],[172.987,61.4286,131.3835],[172.9859,61.4255,70.9736],[172.9953,61.4224,224.7772],[172.9922,61.4172,0.0],[172.9974,61.4161,17.368],[172.9943,61.413,0.0],[172.9995,61.412,78.1684],[173.0026,61.4068,0.0],[173.0292,61.4063,443.7213],[173.037,61.4036,347.5752],[173.0339,61.4005,162.3462],[173.0391,61.3995,184.6802],[173.038,61.3964,15.6996],[173.0458,61.3958,131.3786],[173.0484,61.3922,0.0],[173.0562,61.3896,83.0353],[173.0625,61.3896,184.6943],[173.0672,61.3859,82.3019],[173.075,61.3854,238.1818],[173.0792,61.3833,53.3623],[173.0833,61.3854,165.5458],[173.0875,61.3854,163.2795],[173.0917,61.3833,15.8137],[173.0979,61.3875,160.6622],[173.1167,61.3875,6.8072],[173.1208,61.3854,0.0],[173.1396,61.3917,213.2867],[173.1604,61.3917,0.0],[173.1646,61.3937,0.0],[173.1708,61.3937,0.0],[173.1807,61.3964,0.0],[173.1776,61.4016,0.0],[173.1875,61.4042,0.0],[173.1979,61.4042,0.0],[173.2036,61.4068,9.6839],[173.2026,61.4099,340.0383],[173.2042,61.4104,220.5],[173.2182,61.4109,0.0],[173.2318,61.4224,3.1315],[173.2479,61.425,0.0],[173.2604,61.4292,64.8694],[173.2682,61.4297,0.0],[173.2724,61.4318,0.0],[173.2745,61.4339,0.0],[173.2734,61.437,47.159],[173.2797,61.4411,34.7817],[173.3099,61.4526,0.0],[173.312,61.4547,0.0],[173.3109,61.4578,53.2029],[173.3245,61.4672,26.6069],[173.3234,61.4703,131.3612],[173.3266,61.4714,127.5406],[173.3255,61.4745,177.1231],[173.3286,61.4755,55.8866],[173.3276,61.4786,128.0272],[173.3328,61.4818,8.4558],[173.3245,61.487,112.318],[173.3193,61.488,85.7379],[173.3182,61.4911,0.0],[173.313,61.4922,118.9541],[173.3089,61.4964,90.7341],[173.312,61.4995,0.0],[173.3099,61.5016,0.0],[173.3047,61.5026,58.2763],[173.3078,61.5047,10.0017],[173.3047,61.5089,2.3105],[173.3068,61.5141,1.3629],[173.3104,61.5167,1.3814],[173.3161,61.5172,1.5771],[173.3182,61.5193,2.0239],[173.3172,61.5224,2.7248],[173.3229,61.525,2.9683],[173.3349,61.5255,4.1161],[173.3422,61.5307,7.7696],[173.3479,61.5313,0.0],[173.3526,61.5349,5.3185],[173.3662,61.538,0.0],[173.3708,61.5417,6.6735],[173.3917,61.5375,0.0],[173.3958,61.5396,11.5276],[173.4063,61.5396,0.0],[173.4104,61.5417,28.2669],[173.4187,61.5417,26.8018],[173.425,61.5396,0.0],[173.4292,61.5417,7.0154],[173.4333,61.5417,36.4822],[173.4359,61.538,14.3496],[173.4438,61.5375,4.1057],[173.4516,61.5349,16.5592],[173.4505,61.5318,0.0],[173.4563,61.5313,0.0],[173.4563,61.5292,3.3644],[173.4583,61.5292,23.7036],[173.4661,61.5318,0.0],[173.4651,61.5349,0.0],[173.4693,61.537,0.0],[173.4771,61.5396,32.3464],[173.4854,61.5396,0.0],[173.4974,61.5443,0.0],[173.4964,61.5474,19.7734],[173.5016,61.5505,0.0],[173.5005,61.5536,161.6242],[173.5036,61.5547,149.908],[173.5078,61.5599,0.0],[173.5005,61.5651,260.5742],[173.5036,61.5682,0.0],[173.4984,61.5693,191.6581],[173.4995,61.5724,107.7785],[173.4943,61.5734,177.2209],[173.4922,61.5776,204.7081],[173.4974,61.5828,64.2341],[173.488,61.5839,447.3223],[173.4891,61.587,459.6302],[173.488,61.5891,419.438],[173.4974,61.5953,76.17],[173.4953,61.5974,75.6741],[173.4901,61.5984,352.1883],[173.4854,61.6042,381.5085],[173.4651,61.6026,300.367],[173.4682,61.6047,368.3679],[173.4651,61.6089,269.9992],[173.4667,61.6104,306.4881],[173.4771,61.6063,457.8156],[173.4896,61.6083,74.025],[173.4912,61.6099,33.3793],[173.4672,61.6193,449.7732],[173.463,61.6245,172.5312],[173.4682,61.6245,181.119],[173.4708,61.6208,329.2576],[173.4828,61.6214,45.8224],[173.4849,61.6245,0.0],[173.4828,61.6266,12.233],[173.4776,61.6276,45.8107],[173.4766,61.6307,18.5346],[173.4714,61.6318,2.0758],[173.4693,61.6339,0.7979],[173.4693,61.637,1.0065],[173.4734,61.6411,1.4794],[173.4854,61.6458,0.0],[173.4896,61.6437,0.0],[173.5,61.6437,10.3],[173.5047,61.6474,0.0],[173.512,61.6484,0.0],[173.5109,61.6516,37.2671],[173.512,61.6557,0.0],[173.5063,61.6625,207.7016],[173.5078,61.6651,47.8971],[173.5068,61.6682,65.7508],[173.5099,61.6693,0.0],[173.5089,61.6724,22.0593],[173.512,61.6734,0.0],[173.5109,61.6766,0.0],[173.512,61.6786,0.0],[173.5099,61.6828,0.0],[173.5047,61.6839,68.1585],[173.5,61.6875,268.144],[173.4943,61.6859,549.1902],[173.4958,61.6896,289.3314],[173.4943,61.6932,321.4936],[173.5,61.6937,63.9781],[173.5016,61.6953,51.7062],[173.4964,61.6964,117.052],[173.4917,61.7,161.5774],[173.4859,61.6984,395.5659],[173.487,61.7016,262.3932],[173.4818,61.7026,453.5998],[173.4833,61.7042,242.7487],[173.4932,61.7047,0.0],[173.4922,61.7078,1.875],[173.4974,61.7109,3.0428],[173.4922,61.713,1.4898],[173.4901,61.7172,1.3123],[173.4912,61.7203,0.9244],[173.4818,61.7214,0.3227],[173.4833,61.7229,0.7406],[173.4891,61.7234,0.4433],[173.488,61.7266,0.8186],[173.4932,61.7297,0.7734],[173.4922,61.7328,0.8057],[173.4953,61.7339,0.4811],[173.4901,61.7359,0.6492],[173.488,61.7391,0.5393],[173.4953,61.7391,0.8892],[173.5021,61.7333,0.854],[173.5063,61.7333,0.7038],[173.5099,61.7359,0.6441],[173.5083,61.7375,0.3494],[173.5026,61.738,0.8659],[173.5078,61.7411,0.1778],[173.5026,61.7453,1.0341],[173.5083,61.7458,0.7746],[173.5125,61.7438,0.7439],[173.5167,61.7438,0.7826],[173.5208,61.7458,0.5543],[173.5307,61.7464,0.0067],[173.5354,61.75,0.3237],[173.5412,61.7495,0.4172],[173.5318,61.7401,0.2048],[173.5349,61.7391,-0.1024],[173.5437,61.7313,1.5331],[173.5583,61.7333,0.0],[173.5708,61.7375,2.4871],[173.5833,61.7375,0.0],[173.5875,61.7396,3.1184],[173.6042,61.7396,0.0],[173.6083,61.7417,2.9112],[173.6125,61.7396,0.0],[173.6167,61.7417,3.117],[173.6208,61.7396,0.0],[173.625,61.7396,0.0],[173.6292,61.7417,3.1898],[173.6333,61.7396,0.0],[173.6453,61.7391,0.0],[173.6484,61.7359,0.0],[173.6536,61.7349,8.6914],[173.6563,61.7313,0.0],[173.6812,61.7313,585.5037],[173.6828,61.7297,584.3245],[173.6771,61.7292,531.8262],[173.6755,61.7276,338.6429],[173.6891,61.7224,416.7509],[173.6859,61.7193,236.9856],[173.688,61.7172,200.1989],[173.6932,61.7161,265.2655],[173.6922,61.7109,0.0],[173.6974,61.7099,135.2355],[173.7005,61.7047,0.0],[173.7057,61.7036,125.5614],[173.7088,61.7005,0.0],[173.7167,61.7,0.0],[173.7208,61.6979,0.0],[173.7354,61.6979,14.1604],[173.7432,61.6953,0.0],[173.7521,61.6896,37.929],[173.7682,61.6891,291.5814],[173.775,61.6813,0.0],[173.7813,61.6813,34.1968],[173.7917,61.6771,0.0],[173.7958,61.6771,51.4175],[173.8,61.6792,139.2925],[173.8016,61.6786,118.377],[173.8005,61.6755,0.0],[173.8083,61.675,0.0],[173.8161,61.6724,0.0],[173.8182,61.6682,0.0],[173.8172,61.663,0.0],[173.825,61.6625,36.3008],[173.8286,61.6599,22.6213],[173.8271,61.6583,19.682],[173.8214,61.6578,0.0],[173.8234,61.6547,0.0],[173.8286,61.6536,7.9595],[173.8313,61.65,1.6327],[173.8255,61.6443,0.0],[173.8333,61.6437,0.0],[173.837,61.6464,0.0],[173.8359,61.6495,3.4418],[173.8432,61.6505,0.0],[173.8589,61.662,0.0],[173.8729,61.6625,0.0],[173.8818,61.6682,0.0],[173.887,61.6693,0.0],[173.8922,61.6766,0.0],[173.9057,61.6818,0.0],[173.913,61.6911,0.0],[173.9203,61.6922,0.0],[173.9234,61.6953,0.0],[173.9438,61.6979,0.0],[173.9563,61.7021,28.2974],[173.9604,61.7,0.0],[173.9708,61.7,22.4841],[173.975,61.6979,0.0],[173.9792,61.7,16.5304],[173.9833,61.6979,0.0],[173.9953,61.6984,0.0],[173.9974,61.7005,0.0],[173.9964,61.7036,0.0],[173.9995,61.7047,0.0],[173.9984,61.7078,0.0],[174.0026,61.7141,14.7193],[174.0083,61.7146,0.0],[174.0203,61.7193,0.0],[174.0193,61.7224,6.5168],[174.0266,61.7276,0.0],[174.0266,61.7307,0.0],[174.0172,61.7318,19.4788],[174.0213,61.737,0.0],[174.0318,61.7432,0.0],[174.0526,61.7516,0.0],[174.0661,61.7547,0.0],[174.0693,61.7578,2.8991],[174.0792,61.7583,0.0],[174.0911,61.763,0.0],[174.0896,61.7646,2.8293],[174.075,61.7646,0.0],[174.0708,61.7625,1.0264],[174.0667,61.7625,1.1683],[174.0589,61.7651,5.819],[174.0578,61.7682,0.0],[174.0464,61.7714,0.0],[174.0432,61.7745,0.0],[174.0339,61.7755,1.0879],[174.0349,61.7807,0.0],[174.0297,61.7818,0.0],[174.0328,61.7849,0.0],[174.0292,61.7875,0.0],[174.0213,61.788,6.1943],[174.0245,61.7911,0.0],[174.0193,61.7922,4.9813],[174.0141,61.7995,0.0],[174.0089,61.8005,2.9533],[174.0141,61.8057,0.0],[174.0089,61.8078,0.0],[174.0151,61.812,0.0],[174.0229,61.8146,1.1384],[174.0542,61.8146,0.0],[174.0583,61.8125,0.0],[174.0646,61.8125,0.0],[174.0688,61.8146,0.0],[174.0771,61.8146,4.6831],[174.0813,61.8125,0.0],[174.0911,61.8151,0.9605],[174.0932,61.8172,0.7169],[174.0917,61.8187,8.4036],[174.0854,61.8187,13.0267],[174.0672,61.8255,0.0],[174.0568,61.8339,1.5918],[174.0578,61.837,0.0],[174.0484,61.838,0.0],[174.0516,61.8401,0.0],[174.0505,61.8432,0.0],[174.0599,61.8411,0.0],[174.0734,61.8297,2.0169],[174.0938,61.8292,1.356],[174.0953,61.8286,1.0741],[174.0943,61.8255,0.0],[174.0958,61.825,0.0],[174.1,61.8271,0.3696],[174.1042,61.8271,0.0],[174.1187,61.8229,0.0],[174.1271,61.8229,0.0],[174.1417,61.8292,0.0],[174.15,61.8292,0.3943],[174.1604,61.825,0.0],[174.1667,61.825,0.0],[174.1714,61.8214,0.0],[174.1776,61.8193,0.0],[174.187,61.8182,0.0],[174.1911,61.812,0.8207],[174.188,61.8089,0.2811],[174.1958,61.8063,0.2309],[174.2229,61.8063,0.0],[174.2271,61.8042,0.0],[174.2349,61.8036,0.0],[174.2339,61.8005,0.0],[174.2354,61.8,0.0],[174.2396,61.8021,3.8526],[174.2479,61.8021,0.0],[174.2521,61.8042,3.4022],[174.2729,61.8042,0.0],[174.2771,61.8021,10.2382],[174.2833,61.8021,0.0],[174.2875,61.8042,21.164],[174.2979,61.8,0.0],[174.3188,61.8083,24.635],[174.3271,61.8083,0.0],[174.3313,61.8104,7.6303],[174.3354,61.8083,0.0],[174.35,61.8146,1.011],[174.3625,61.8146,0.0],[174.3667,61.8167,4.5483],[174.3766,61.8172,0.0],[174.375,61.8187,1.8545],[174.3583,61.8187,0.9325],[174.3568,61.8203,1.6755],[174.362,61.8234,2.4351],[174.3641,61.8276,1.1293],[174.363,61.8307,0.985],[174.3662,61.8318,0.9564],[174.3651,61.837,3.2564],[174.3672,61.8391,4.4473],[174.3745,61.8401,0.4991],[174.3734,61.8432,4.5811],[174.3771,61.8458,0.8268],[174.3958,61.8438,0.8377],[174.4,61.8458,1.0673],[174.4083,61.8458,1.1079],[174.4125,61.8479,1.124],[174.4203,61.8453,0.9618],[174.4187,61.8396,14.9369],[174.4224,61.8349,15.5407],[174.4214,61.8297,1.0477],[174.4245,61.8235,1.8977],[174.4365,61.8253,112.706],[174.4429,61.8247,341.9914],[174.4517,61.8403,150.3708],[174.4555,61.872,172.2193],[174.3844,61.9018,15.2239],[174.3804,61.9174,15.2579],[174.3609,61.9642,294.9657],[174.2802,61.9958,315.0095],[174.2788,62.0449,368.8784],[174.2378,62.0793,512.0607],[174.1187,62.0654,354.9013],[174.0506,62.0887,112.8032],[174.0596,62.1552,604.2003],[174.0293,62.2097,453.2575],[173.925,62.2386,305.6217],[174.001,62.2936,431.2566],[174.092,62.3294,252.5896],[174.0423,62.4049,209.0986],[173.9549,62.4364,296.9789],[173.8285,62.4406,123.8256],[173.7817,62.484,241.2228],[173.6733,62.4997,313.2569],[173.5315,62.4762,305.4412],[173.3978,62.4679,567.5615],[173.2303,62.431,669.5762],[173.0799,62.4066,489.4504],[173.0209,62.3824,636.5269],[172.9518,62.3596,369.0469],[172.8507,62.3473,285.4756],[172.7692,62.3105,295.3307],[172.6524,62.358,336.086],[172.4659,62.3917,314.601],[172.3315,62.3779,567.3948],[172.2712,62.3503,299.5281],[172.1084,62.3467,759.3541],[172.0599,62.3889,451.9873],[171.9394,62.412,555.9781],[171.8632,62.3921,524.2859],[171.7907,62.3623,993.7657],[171.7502,62.3642,800.8975],[171.6849,62.3341,821.7046],[171.6804,62.3063,637.1719],[171.4599,62.2826,521.8663],[171.3826,62.252,526.7855],[171.2309,62.2324,613.7086],[171.2513,62.2792,784.9913],[171.2171,62.2838,764.7417],[171.1623,62.2541,1066.1099],[171.1103,62.2473,740.0553],[171.1244,62.3087,924.6434],[171.0914,62.32,1128.5104],[171.0335,62.3065,864.9513],[171.0,62.2619,844.5706],[170.9046,62.2563,917.9578],[170.9012,62.2173,1031.2622],[170.8203,62.2046,889.5405],[170.7277,62.2046,1000.4019],[170.6984,62.1703,740.5187],[170.6083,62.173,860.4435],[170.4969,62.2127,1131.2244]]],
[[[169.3557,60.5724,0.0],[169.3526,60.5724,0.0],[169.3526,60.5714,0.0],[169.3557,60.5714,0.0],[169.3557,60.5724,0.0]]],
[[[169.3589,60.5766,0.0],[169.3568,60.5734,0.0],[169.3599,60.5734,0.0],[169.362,60.5755,0.0],[169.3589,60.5766,0.0]]],
[[[169.3557,60.5786,0.0],[169.3542,60.5792,0.0],[169.3526,60.5776,0.0],[169.3542,60.5771,0.0],[169.3557,60.5786,0.0]]],
[[[169.3333,60.5812,0.0],[169.3297,60.5797,0.0],[169.337,60.5797,0.0],[169.3432,60.587,0.0],[169.3359,60.587,0.0],[169.337,60.5839,0.0],[169.3333,60.5812,0.0]]],
[[[169.3161,60.588,0.0],[169.3151,60.5911,0.0],[169.3182,60.5922,0.0],[169.3172,60.5953,0.0],[169.3182,60.5974,0.0],[169.3167,60.5979,0.0],[169.313,60.5953,0.0],[169.312,60.5922,0.0],[169.3062,60.5938,0.0],[169.3005,60.5891,0.0],[169.3021,60.5875,0.0],[169.3062,60.5896,0.0],[169.3104,60.5875,0.0],[169.3161,60.588,0.0]]],
[[[172.1016,60.8609,98.5474],[172.0984,60.8589,0.0],[172.1099,60.8589,6.5087],[172.1042,60.8625,49.9485],[172.1016,60.8609,98.5474]]],
[[[172.45,61.0667,0.0],[172.4458,61.0667,66.5236],[172.4443,61.0651,128.688],[172.4599,61.0651,50.4437],[172.4583,61.0667,2.2074],[172.45,61.0667,0.0]]],
[[[172.4563,61.0708,16.7166],[172.4526,61.0693,0.0],[172.4625,61.0687,0.0],[172.4646,61.0708,15.8905],[172.4625,61.0729,76.0178],[172.4563,61.0708,16.7166]]],
[[[172.4937,61.1104,114.4342],[172.4833,61.1104,343.7306],[172.4792,61.1125,105.7485],[172.4745,61.1089,94.1771],[172.4672,61.1078,53.1907],[172.4588,61.1026,13.862],[172.462,61.1016,70.6616],[172.4609,61.0984,32.276],[172.4625,61.0979,9.2534],[172.4854,61.0979,0.0],[172.4953,61.1047,9.5387],[172.4943,61.1078,181.6037],[172.4953,61.1099,114.4342],[172.4937,61.1104,114.4342]]],
[[[172.7937,61.2813,0.0],[172.7953,61.2818,0.0],[172.7953,61.2828,0.0],[172.7922,61.2828,0.0],[172.7937,61.2813,0.0]]],
[[[173.4563,61.5271,0.0],[173.4563,61.5292,3.3644],[173.4526,61.5286,0.0],[173.4526,61.5276,0.0],[173.4563,61.5271,0.0]]],
[[[173.7208,61.6896,0.0],[173.7224,61.6911,0.0],[173.7193,61.6911,0.0],[173.7193,61.6901,0.0],[173.7208,61.6896,0.0]]],
[[[173.5078,61.7161,2.5459],[173.5021,61.7167,1.6921],[173.5005,61.7151,1.1422],[173.5063,61.7146,0.0],[173.5078,61.7161,2.5459]]],
[[[174.0604,61.725,0.0],[174.0568,61.7193,0.0],[174.0661,61.7214,0.0],[174.0641,61.7266,0.0],[174.0609,61.7266,0.0],[174.0604,61.725,0.0]]],
[[[174.0688,61.7271,0.0],[174.0703,61.7286,0.0],[174.0672,61.7286,0.0],[174.0672,61.7276,0.0],[174.0688,61.7271,0.0]]],
[[[174.0703,61.7349,0.0],[174.0672,61.7349,0.0],[174.0651,61.7318,0.0],[174.0682,61.7318,0.0],[174.0703,61.7349,0.0]]],
[[[174.025,61.7333,0.0],[174.0266,61.7339,0.0],[174.0266,61.7349,0.0],[174.0234,61.7349,0.0],[174.025,61.7333,0.0]]],
[[[173.525,61.7417,0.5675],[173.5213,61.7411,0.6482],[173.5213,61.7401,0.5236],[173.5266,61.7401,0.6173],[173.525,61.7417,0.5675]]],
[[[174.0979,61.7687,0.0],[174.0943,61.7682,0.0],[174.0943,61.7651,3.0317],[174.1,61.7646,0.0],[174.1042,61.7667,0.0],[174.1083,61.7667,0.0],[174.112,61.7703,2.77],[174.1062,61.7708,0.0],[174.1021,61.7687,3.036],[174.0979,61.7687,0.0]]],
[[[174.1187,61.775,0.0],[174.1151,61.7745,1.6663],[174.113,61.7714,3.3031],[174.1187,61.7708,0.0],[174.1229,61.7729,2.9563],[174.1271,61.7729,0.0],[174.1307,61.7766,2.1736],[174.125,61.7771,0.0],[174.1187,61.775,0.0]]],
[[[174.1521,61.7854,1.6106],[174.1484,61.7839,0.0],[174.1521,61.7813,0.0],[174.1599,61.7839,2.8518],[174.1641,61.787,2.0977],[174.1563,61.7875,0.0],[174.1521,61.7854,1.6106]]],
[[[174.1875,61.7917,0.0],[174.1891,61.7932,2.9957],[174.1859,61.7932,0.0],[174.1859,61.7922,3.3222],[174.1875,61.7917,0.0]]],
[[[174.2083,61.7979,2.6475],[174.2047,61.7974,0.0],[174.2047,61.7964,3.6278],[174.2099,61.7964,0.0],[174.2083,61.7979,2.6475]]],
[[[174.0661,61.7984,0.0],[174.0661,61.7995,0.0],[174.063,61.7995,0.0],[174.063,61.7984,0.0],[174.0661,61.7984,0.0]]],
[[[174.2167,61.8,0.9377],[174.213,61.7984,2.8988],[174.2203,61.7984,0.0],[174.2203,61.7995,3.2734],[174.2167,61.8,0.9377]]],
[[[174.225,61.8021,0.0],[174.2214,61.8005,0.8738],[174.2287,61.8005,2.2174],[174.2287,61.8016,0.0],[174.225,61.8021,0.0]]],
[[[174.3935,61.8201,4.1105],[174.4206,61.8229,3.4451],[174.4146,61.825,1.161],[174.3917,61.825,0.9805],[174.387,61.8214,1.6498],[174.3813,61.8208,2.1908],[174.3797,61.8193,2.8561],[174.3935,61.8201,4.1105]]]]}}