{"type":"Feature","properties":{"featurecla":"River","scalerank":8,"rivernum":782,"dissolve":"782River","name":"Bol9","name_alt":null,"note":null,"min_zoom":7.0,"strokeweig":0.25,"name_en":"Bol’shoy Anyuy","min_label":8.0},
"geometry":{"type": "LineString","coordinates": [[165.70498046875002,66.66620514530662,275.8053],[165.66513671875003,66.67963287968162,290.3909],[165.50927734375,66.70148346561912,410.7148],[165.43798828125,66.69354889530662,285.3015],[165.0380859375,66.69867584843162,215.7694],[164.6162109375,66.823260809369117,179.0807],[164.51484375,66.840692449994123,262.6955],[164.4609375,66.843622137494123,208.5151],[164.31708984375,66.816180731244117,200.228],[164.2625,66.81525299686912,165.2028],[164.23828125,66.834100653119123,160.8376],[164.217041015625,66.865838934369123,328.0926],[164.16806640625003,66.87030670780662,392.9045],[164.11328125,66.86505768436912,153.9144],[164.07431640625003,66.86798737186912,146.0],[164.053466796875,66.87372467655662,149.9648],[163.72861328125003,66.890155340619117,139.8535],[163.55517578125,66.93390534061912,130.07],[163.11337890625003,66.95795319218162,105.5846],[163.05576171875003,66.977167059369123,106.409],[162.994140625,66.98358795780662,99.0516],[162.968505859375,66.98956940311912,99.676],[162.91611328125003,67.01190827030662,105.2227],[162.88525390625,67.02045319218162,119.5642],[162.6484375,67.015008856244123,268.6269],[162.62548828125,67.02069733280662,142.7737],[162.596435546875,67.034686590619117,184.258],[162.57421875,67.05267975468162,81.0],[162.572998046875,67.07025787968162,84.8583],[162.48046875,67.090936590619123,78.6789],[162.45693359375002,67.10443756718162,82.8191],[162.39755859375003,67.15119049686912,76.7016],[162.38095703125003,67.18659088749412,73.9918],[162.34775390625003,67.21234772343162,72.7604],[162.34023437500002,67.231317449994123,66.4755],[162.33251953125,67.24445221561912,69.4748],[162.3193359375,67.256463934369123,67.196],[162.31494140625,67.27057526249412,70.1591],[162.333984375,67.28998444218162,70.3655],[162.31728515625002,67.301288153119117,65.1967],[162.30898437500002,67.30975983280662,65.3776],[162.30625,67.31952545780662,62.9761],[162.30615234375,67.33441803593162,192.6423],[162.30019531250002,67.347674871869117,247.0061],[162.27304687500003,67.36591217655662,58.0354],[162.26503906250002,67.379413153119117,56.5479],[162.267578125,67.39374420780662,60.2741],[162.275390625,67.403094793744117,55.4438],[162.27890625000003,67.41327545780662,57.9353],[162.26845703125002,67.430292059369123,51.0],[162.26767578125003,67.44342682499412,54.0145],[162.28125,67.45709869999412,58.2805],[162.299560546875,67.46857330936912,99.3424],[162.3134765625,67.474969793744123,101.3144],[162.30615234375,67.47760651249412,62.2179],[162.28554687500002,67.488641668744123,52.5507],[162.32724609375003,67.513299871869123,65.9798],[162.33056640625,67.51935455936912,71.7542],[162.32275390625,67.53217194218162,47.7319],[162.32724609375003,67.541278387494117,50.5854],[162.353759765625,67.556903387494117,81.2152],[162.345947265625,67.566913153119117,49.6003],[162.322509765625,67.60736725468162,44.5749],[162.319580078125,67.61615631718162,71.0914],[162.3134765625,67.62262604374412,88.8932],[162.289794921875,67.62702057499412,86.3345],[162.280517578125,67.631708074994123,65.3104],[162.271875,67.638299871869123,46.6955],[162.26503906250002,67.64569733280662,42.3938],[162.26435546875,67.65155670780662,40.922],[162.268310546875,67.657001043744117,39.0961],[162.27158203125003,67.66290924686912,41.6864],[162.26845703125002,67.670184637494117,43.362],[162.26035156250003,67.67694733280662,45.7862],[162.23095703125,67.69403717655662,42.6271],[162.20517578125003,67.70087311405662,41.1246],[162.15029296875002,67.70600006718162,37.2344],[162.1279296875,67.71454498905662,35.293],[162.1416015625,67.72199127811912,39.1609],[162.115625,67.737567449994117,32.9464],[162.001171875,67.78412506718162,32.6471],[161.98642578125003,67.78815338749412,34.0167],[161.96718750000002,67.789667059369123,30.7217],[161.90810546875002,67.78473541874412,35.4868],[161.88828125000003,67.789667059369123,32.5181],[161.88056640625,67.79682037968162,29.1134],[161.87636718750002,67.80585358280662,36.71],[161.87050781250002,67.81366608280662,33.5803],[161.85732421875002,67.81696198124412,30.817],[161.82080078125,67.81842682499412,26.5083],[161.78583984375,67.82440827030662,25.5483],[161.75722656250002,67.83466217655662,24.1916],[161.682861328125,67.87909577030662,21.1716],[161.61708984375002,67.908221746869117,19.903],[161.59658203125002,67.92340729374412,18.1474]]}}