{"type":"Feature","properties":{"featurecla":"River","scalerank":6,"rivernum":316,"dissolve":"316River","name":"Anadyr2","name_alt":null,"note":null,"min_zoom":5.0,"strokeweig":0.25,"name_en":"Anadyr’","min_label":6.0},
"geometry":{"type": "LineString","coordinates": [[169.6115234375,65.75507233280662,605.1033],[169.58828125000002,65.75104401249412,521.6726],[169.52216796875,65.72772858280662,374.6546],[169.470947265625,65.71588776249412,251.2391],[169.36669921875,65.70441315311912,302.9489],[169.316162109375,65.692987371869123,214.9696],[169.26123046875,65.670282293744123,198.1308],[169.24033203125003,65.665057684369117,192.3998],[169.150146484375,65.662372137494117,242.2929],[169.032958984375,65.624383856244123,188.3342],[168.96044921875,65.61041901249412,184.0576],[168.94404296875,65.603290106244117,181.3042],[168.93603515625,65.59674713749412,180.7921],[168.91943359375,65.576922918744117,179.2314],[168.912841796875,65.57245514530662,180.1424],[168.8966796875,65.566034246869123,178.1014],[168.890869140625,65.562616278119123,178.825],[168.88828125000003,65.557733465619123,175.9044],[168.884521484375,65.54376862186912,179.1161],[168.87441406250002,65.528094793744117,174.3178],[168.86591796875,65.505487371869123,173.4672],[168.857666015625,65.498065496869117,174.2095],[168.78037109375003,65.49225494999412,173.3578],[168.76806640625,65.484149481244117,171.4552],[168.759521484375,65.47138092655662,166.6625],[168.73964843750002,65.46539948124412,168.0825],[168.69921875,65.459588934369123,166.1709],[168.6845703125,65.44403717655662,168.9257],[168.67919921875,65.43976471561912,167.3505],[168.66708984375003,65.43585846561912,163.5386],[168.626220703125,65.430682684369117,162.3065],[168.5986328125,65.420184637494117,155.5894],[168.5712890625,65.404657293744123,159.2287],[168.55039062500003,65.38458893436912,153.5178],[168.54208984375003,65.360614324994117,153.8406],[168.54443359375,65.33356354374412,147.856],[168.55185546875003,65.308124090619117,146.2694],[168.56484375000002,65.28571198124412,151.0559],[168.583740234375,65.26776764530662,150.1817],[168.60908203125,65.269794012494117,151.5166],[168.7697265625,65.227655340619123,140.3572],[168.810302734375,65.22296784061912,134.3753],[168.84531250000003,65.210809637494123,132.1299],[168.86484375000003,65.17841217655662,130.7735],[168.84931640625,65.12677643436912,124.7732],[168.796630859375,65.090936590619123,122.0293],[168.67919921875,65.041864324994123,111.8025],[168.65966796875,65.02655670780662,112.0552],[168.607666015625,64.96991608280662,105.61],[168.5927734375,64.946551824994117,102.2234],[168.5927734375,64.92145416874412,100.9491],[168.60429687500005,64.89923737186912,107.7866],[168.62460937500003,64.88422272343162,101.3596],[168.66572265625,64.874627996869123,120.6643],[168.75390625,64.87238190311912,155.41],[168.79531250000002,64.86371491093162,142.2768],[168.85683593750002,64.829608465619117,95.5367],[168.932861328125,64.798602606244117,152.9462],[168.9658203125,64.778094793744117,109.757],[168.982666015625,64.770526434369117,251.0542],[169.00136718750002,64.76752350468162,218.2342],[169.22509765625,64.77704498905662,135.3592],[169.26523437500003,64.78778717655662,180.9077],[169.28876953125,64.78864166874412,160.0785],[169.33349609375,64.782098699994123,67.3809],[169.35595703125,64.78156159061912,65.1118],[169.37929687500002,64.78668854374412,67.6741],[169.41640625000002,64.80170319218162,73.8078],[169.435302734375,64.807001043744123,155.4274],[169.53125,64.812127996869123,383.7869],[169.57861328125,64.821649481244123,211.4128],[169.92832031250003,64.79816315311912,46.4839],[170.09072265625002,64.75385162968162,38.7929],[170.16591796875002,64.75018952030662,33.6763],[170.20654296875,64.73761627811912,34.7778],[170.248046875,64.732049871869123,33.529],[170.28359375000002,64.71600983280662,28.0854],[170.41015625,64.71381256718162,26.0102],[170.428125,64.71796295780662,25.9664],[170.44287109375,64.71845123905662,22.4128],[170.4951171875,64.70673248905662,22.2956],[170.58066406250003,64.71613190311912,21.039],[170.61318359375002,64.730243231244117,20.5377],[170.62851562500003,64.733417059369117,21.3566],[170.72910156250003,64.73175690311912,19.9001],[170.74853515625,64.73358795780662,19.0345],[170.76230468750003,64.740252996869117,19.6104],[170.76611328125,64.75702545780662,18.5233],[170.756591796875,64.77789948124412,17.6639],[170.73974609375,64.79889557499412,13.7054],[170.72207031250002,64.815936590619117,19.1059],[170.77988281250003,64.83392975468162,18.6348],[170.80039062500003,64.835809637494123,10.0939],[170.81787109375,64.83258698124412,17.34],[170.834716796875,64.82660553593162,19.3276],[170.8505859375,64.82367584843162,14.2603],[170.86591796875,64.829608465619117,17.7744],[170.87587890625002,64.84406159061912,18.2103],[170.86777343750003,64.85260651249412,16.7114],[170.85107421875,64.85651276249412,18.3692],[170.763671875,64.85736725468162,16.2884],[170.742431640625,64.86371491093162,14.3035],[170.76132812500003,64.87726471561912,21.3762],[170.77880859375,64.88678619999412,18.7733],[170.79150390625,64.899432684369117,16.3007],[170.79638671875,64.921747137494123,17.1873],[170.80263671875002,64.928338934369123,14.2667],[170.81708984375,64.92633698124412,16.0695],[170.84521484375,64.91522858280662,17.2691],[170.8603515625,64.91339752811912,14.5374],[170.8818359375,64.915399481244123,14.1879],[170.90400390625,64.91986725468162,17.0725],[170.919921875,64.925165106244123,17.1306],[170.93896484375,64.940301824994123,16.3087],[170.95224609375003,64.958612371869123,12.9822],[170.96669921875002,64.973993231244123,14.841],[171.00390625,64.984002996869123,16.094],[171.04873046875002,65.009540106244117,17.1951],[171.06552734375003,65.01117584843162,17.3357],[171.09541015625,65.00470612186912,18.6273],[171.11181640625,65.007684637494123,15.7088],[171.1134765625,65.024188543744117,9.7666],[171.13251953125,65.040301824994117,13.4326],[171.14736328125002,65.059833074994117,16.6223],[171.135986328125,65.086542059369123,8.5379],[171.12138671875005,65.095331121869123,16.1187],[171.063720703125,65.113544012494117,15.738],[171.056640625,65.123407293744123,15.8136],[171.061279296875,65.13580963749412,15.5352],[171.07763671875,65.159198309369117,13.1896],[171.09130859375,65.20014069218162,9.3325],[171.099609375,65.21613190311912,18.9964],[171.10341796875002,65.226092840619117,16.7295],[171.10498046875,65.24054596561912,12.7597],[171.09853515625002,65.266473699994123,22.6849],[171.099609375,65.27899811405662,31.7897],[171.11181640625,65.27863190311912,16.0992],[171.13339843750003,65.27118561405662,12.2265],[171.249755859375,65.255389715619117,11.8557],[171.2734375,65.25617096561912,11.79],[171.28369140625,65.264422918744117,12.2772],[171.28583984375,65.27960846561912,15.1927],[171.29248046875,65.29071686405662,12.2453],[171.3029296875,65.29816315311912,7.5],[171.31787109375,65.30255768436912,17.0327],[171.338623046875,65.30292389530662,15.2019],[171.39980468750002,65.28827545780662,12.1314],[171.4513671875,65.28436920780662,7.1708],[171.55009765625005,65.29254791874412,13.2978],[171.68710937500003,65.28204987186912,15.2211],[171.74404296875002,65.28534577030662,12.8031],[171.762939453125,65.28204987186912,10.7157],[171.84130859375,65.23615143436912,13.4924],[171.87558593750003,65.22504303593162,10.179],[171.88974609375003,65.21686432499412,12.9184],[171.895263671875,65.20636627811912,8.2752],[171.89902343750003,65.17841217655662,16.4268],[171.90683593750003,65.16535065311912,12.8729],[171.94130859375002,65.15350983280662,12.8899],[171.98408203125,65.162225653119123,12.6178],[172.02871093750002,65.17767975468162,11.9885],[172.06796875000003,65.18585846561912,8.16],[172.110595703125,65.179217840619117,68.313],[172.19101562500003,65.15058014530662,66.7402],[172.23583984375,65.144891668744123,105.1],[172.265869140625,65.14606354374412,28.7588],[172.298046875,65.15082428593162,15.0141],[172.32656250000002,65.16315338749412,14.0515],[172.34521484375,65.187127996869123,13.7642],[172.35498046875,65.21893952030662,39.0685],[172.36328125,65.23016998905662,45.852],[172.380078125,65.23688385624412,36.1392],[172.400390625,65.237420965619123,25.2236],[172.46201171875003,65.22687409061912,11.0216],[172.50205078125003,65.22980377811912,14.3818],[172.53271484375,65.23871491093162,11.8334],[172.62646484375,65.294794012494123,21.0556],[172.66748046875,65.30963776249412,13.6405],[172.7109375,65.319110418744117,14.0527],[172.753125,65.32245514530662,9.0053],[172.77216796875,65.32684967655662,19.1893],[172.81201171875,65.34650299686912,36.1574],[172.8498046875,65.35504791874412,13.6395],[172.85996093750003,65.36517975468162,32.6159],[172.867431640625,65.37860748905662,44.0493],[172.87744140625,65.39264557499412,35.9375],[172.890625,65.40314362186912,10.9527],[172.91943359375,65.41974518436912,8.111],[172.98486328125,65.47821686405662,12.449],[173.00771484375002,65.50397369999412,10.7922],[173.030517578125,65.516864324994117,11.6099],[173.05615234375,65.522967840619117,12.1809],[173.10908203125,65.52838776249412,13.2775],[173.12460937500003,65.53180573124412,13.7604],[173.16806640625003,65.54743073124412,15.8641],[173.1904296875,65.551629949994123,17.2582],[173.26923828125,65.54608795780662,13.2088],[173.3447265625,65.53095123905662,13.6399],[173.36533203125003,65.521502996869117,14.869],[173.37646484375,65.50348541874412,10.5757],[173.37763671875,65.46137116093162,6.1457],[173.384375,65.444696356244123,10.523],[173.40478515625,65.43439362186912,3.0],[173.46230468750002,65.43231842655662,7.7557],[173.48046875,65.428485418744117,9.1115],[173.55224609375,65.403338934369117,6.5],[173.565673828125,65.396356512494123,7.3752],[173.57705078125002,65.38739655155662,5.0541],[173.607666015625,65.35297272343162,7.9897],[173.61904296875002,65.34540436405662,7.3152],[173.6466796875,65.33185455936912,35.6825],[173.65566406250002,65.32904694218162,37.0552],[173.66455078125,65.327508856244123,43.3724],[173.67138671875,65.32404205936912,13.7608],[173.674072265625,65.315057684369123,8.934],[173.67509765625005,65.30939362186912,2.7177],[173.67724609375,65.302264715619117,7.0622],[173.68037109375,65.29547760624412,6.6316],[173.69218750000005,65.278192449994123,1.0],[173.68896484375,65.267596746869117,5.1998],[173.62978515625002,65.20978424686912,0.0],[173.61289062500003,65.18671295780662,1.3648],[173.60585937500002,65.16425202030662,39.2095]]}}