{"type":"Feature","properties":{"featurecla":"River","scalerank":8,"rivernum":770,"dissolve":"770River","name":"Palyavaam2","name_alt":null,"note":null,"min_zoom":7.0,"strokeweig":0.25,"name_en":"Palyavaam","min_label":8.0},
"geometry":{"type": "LineString","coordinates": [[174.30234375000003,68.553338934369123,354.452],[174.21328125000002,68.53522369999412,574.1816],[174.18310546875,68.53314850468162,381.3781],[174.15537109375003,68.53729889530662,480.3471],[174.100830078125,68.55377838749412,528.1769],[173.99589843750005,68.56696198124412,497.5863],[173.95664062500003,68.579461981244123,381.3486],[173.928466796875,68.597772528119123,253.376],[173.9,68.646112371869123,395.4068],[173.86953125000002,68.67975494999412,329.9211],[173.85683593750002,68.711688543744117,323.5116],[173.84580078125003,68.729364324994123,235.4364],[173.8310546875,68.74384186405662,210.6366],[173.77392578125,68.787127996869117,216.8079],[173.73935546875003,68.80719635624412,213.5728],[173.39101562500002,68.87689850468162,161.7959],[173.29755859375,68.88422272343162,153.0117],[173.21621093750002,68.905633856244123,146.5613],[173.122314453125,68.904169012494123,138.4449],[172.99375,68.91693756718162,129.3649],[172.493359375,68.88800690311912,92.9682],[172.345703125,68.843133856244123,80.7152],[171.94814453125002,68.79022858280662,55.3307],[171.93125,68.78595612186912,53.0],[171.89697265625,68.76715729374412,50.5653],[171.87949218750003,68.76288483280662,49.2358]]}}