{"type":"Feature","properties":{"featurecla":"River","scalerank":8,"rivernum":900,"dissolve":"900River","name":"Oloy","name_alt":null,"note":null,"min_zoom":7.0,"strokeweig":0.15,"name_en":"Oloy","min_label":8.0},
"geometry":{"type": "LineString","coordinates": [[165.47158203125002,65.21552155155662,982.6912],[165.45205078125002,65.19599030155662,1031.3014],[165.45166015625,65.17267487186912,1064.3519],[165.45556640625,65.149286199994123,964.801],[165.44833984375003,65.129901434369117,799.5018],[165.39990234375,65.08856842655662,791.1226],[165.39423828125,65.07977936405662,788.4447],[165.38906250000002,65.06024811405662,758.8647],[165.3828125,65.05036041874412,745.4504],[165.34287109375003,65.02619049686912,769.8137],[165.29013671875003,65.017694403119123,752.5541],[165.2314453125,65.02106354374412,762.0483],[165.174072265625,65.03253815311912,677.8616]]}}