{"type":"Feature","properties":{"featurecla":"River","scalerank":6,"rivernum":316,"dissolve":"316River","name":"Anadyr","name_alt":null,"note":null,"min_zoom":5.0,"strokeweig":0.2,"name_en":"Anadyr’","min_label":6.0},
"geometry":{"type": "LineString","coordinates": [[170.96572265625002,67.09882233280662,625.2393],[170.96718750000002,67.08295319218162,580.7297],[170.97373046875003,67.06781647343162,704.4161],[170.98486328125,67.05609772343162,682.6756],[170.99951171875,67.050409246869123,645.985],[171.126220703125,67.032733465619117,639.2304],[171.16455078125,67.022235418744117,606.5067],[171.29335937500002,67.006952215619123,552.0709],[171.3234375,66.995135809369117,523.5965],[171.34511718750002,66.97406647343162,419.5036]]}}