{"type":"Feature","properties":{"featurecla":"River","scalerank":8,"rivernum":900,"dissolve":"900River","name":"Oloy1","name_alt":null,"note":null,"min_zoom":7.0,"strokeweig":0.2,"name_en":"Oloy","min_label":8.0},
"geometry":{"type": "LineString","coordinates": [[165.174072265625,65.03253815311912,677.8616],[165.10214843750003,65.057879949994117,656.54],[165.03847656250002,65.10578034061912,776.3517],[165.023193359375,65.11310455936912,722.0846],[165.01328125000003,65.11615631718162,784.1771],[164.88046875000003,65.19501373905662,639.8972],[164.72548828125002,65.263934637494117,617.861],[164.70068359375,65.280536199994117,655.0045],[164.68037109375,65.29840729374412,766.8568],[164.65878906250003,65.31268952030662,682.7975],[164.62949218750003,65.31854889530662,738.9358],[164.43544921875002,65.32892487186912,743.0836],[164.41943359375,65.33258698124412,615.9948],[164.40273437500002,65.33905670780662,571.1963],[164.36669921875,65.362909246869123,622.8854],[164.355224609375,65.366327215619123,595.7932],[164.18017578125,65.38983795780662,620.8464],[164.13583984375003,65.407977606244117,595.8791],[164.11630859375003,65.41278717655662,689.8408],[164.072509765625,65.41840241093162,758.9043],[164.03652343750002,65.43146393436912,577.2421],[164.00185546875002,65.438739324994117,537.7183],[163.985107421875,65.44513580936912,580.1905],[163.9755859375,65.44769928593162,638.4565],[163.95556640625,65.448358465619123,604.194],[163.94736328125003,65.45197174686912,544.9658],[163.93613281250003,65.46198151249412,579.0568],[163.9298828125,65.46625397343162,593.035],[163.923583984375,65.469354559369123,603.2072],[163.8078125,65.48944733280662,652.5714],[163.77587890625,65.50690338749412,737.1192],[163.7685546875,65.516961981244123,884.6603],[163.760986328125,65.53925202030662,1079.8916],[163.75537109375,65.54791901249412,901.868],[163.74384765625,65.55524323124412,698.9548],[163.71640625000003,65.56513092655662,623.7404],[163.70380859375,65.57172272343162,590.0806],[163.695556640625,65.58026764530662,511.8678],[163.688232421875,65.59772369999412,483.3498],[163.68271484375003,65.60590241093162,493.0111],[163.67060546875,65.61493561405662,489.9883],[163.596435546875,65.63959381718162,559.0576],[163.553466796875,65.64545319218162,633.9818],[163.510498046875,65.645379949994123,664.1302],[163.46425781250002,65.63349030155662,460.0923],[163.29111328125003,65.622821356244117,463.8314],[163.220703125,65.609735418744123,515.2872],[163.11679687500003,65.60748932499412,865.6015],[163.08603515625003,65.613299871869117,906.3508],[162.96542968750003,65.67121002811912,467.6632],[162.75830078125,65.696405340619123,600.5588],[162.646240234375,65.68085358280662,571.3367],[162.546630859375,65.690301824994123,447.2917]]}}