{"type":"Feature","properties":{"featurecla":"River","scalerank":8,"rivernum":782,"dissolve":"782River","name":"Bol8","name_alt":null,"note":null,"min_zoom":7.0,"strokeweig":0.2,"name_en":"Bol’shoy Anyuy","min_label":8.0},
"geometry":{"type": "LineString","coordinates": [[168.158203125,66.671649481244117,623.4598],[168.13027343750002,66.67926666874412,580.4359],[168.1015625,66.68048737186912,548.6235],[168.04433593750002,66.67584869999412,572.8297],[168.02060546875003,66.67816803593162,572.9815],[167.99843750000002,66.68585846561912,693.709],[167.95566406250003,66.706805731244117,650.3854],[167.930908203125,66.71454498905662,738.4784],[167.90869140625,66.715838934369117,589.4122],[167.84794921875005,66.711542059369123,574.7028],[167.81298828125,66.70111725468162,634.9691],[167.79794921875003,66.69965241093162,697.4872],[167.76962890625003,66.70258209843162,677.8577],[167.452392578125,66.68903229374412,670.3773],[167.43505859375,66.69220612186912,706.153],[167.40126953125002,66.706317449994117,583.2141],[167.38388671875003,66.70954010624412,739.8448],[167.330322265625,66.70648834843162,591.2401],[167.3125,66.70795319218162,580.5389],[167.27080078125005,66.723260809369123,486.4193],[167.25634765625,66.72577545780662,445.7736],[167.24648437500002,66.724872137494117,444.0802],[167.21591796875003,66.71845123905662,628.2381],[167.1375,66.723163153119117,720.7756],[166.86611328125002,66.690545965619123,398.7845],[166.826171875,66.67755768436912,542.8719],[166.77138671875002,66.672235418744123,559.2413],[166.72158203125002,66.655877996869123,504.1753],[166.52626953125002,66.64154694218162,392.6864],[166.46933593750003,66.63056061405662,450.699],[166.42490234375003,66.60712311405662,334.9581],[165.95869140625,66.59113190311912,280.6294],[165.81904296875,66.61090729374412,273.3008],[165.780517578125,66.62616608280662,264.8936],[165.70498046875002,66.66620514530662,275.8053]]}}