{"type":"Feature","properties":{"featurecla":"River","scalerank":8,"rivernum":900,"dissolve":"900River","name":"Oloy2","name_alt":null,"note":null,"min_zoom":7.0,"strokeweig":0.25,"name_en":"Oloy","min_label":8.0},
"geometry":{"type": "LineString","coordinates": [[162.546630859375,65.690301824994123,447.2917],[162.45078125000003,65.68341705936912,395.3607],[162.4181640625,65.68585846561912,530.1511],[162.319580078125,65.70734284061912,791.9398],[162.28583984375,65.710077215619123,594.0191],[162.1416015625,65.70331452030662,595.592],[161.84033203125,65.73712799686912,435.2951],[161.72617187500003,65.73554108280662,418.1733],[161.68906250000003,65.74310944218162,320.6038],[161.60585937500002,65.799920965619123,479.3878],[161.54550781250003,65.82147858280662,761.3613],[161.47900390625,65.83087799686912,335.664],[161.408203125,65.83295319218162,327.8964],[161.386474609375,65.83600494999412,293.3884],[161.28828125,65.868768621869123,281.9974],[161.19570312500002,65.88825104374412,274.6047],[161.148681640625,65.91815827030662,304.2685],[161.109375,65.92560455936912,287.2184],[160.98378906250002,65.97785065311912,372.6046],[160.87783203125002,66.008075262494117,273.2986],[160.81142578125002,66.01593659061912,302.0268],[160.75625,66.02973053593162,236.4602],[160.71103515625003,66.051532293744117,229.5603],[160.70273437500003,66.08002350468162,269.5987],[160.67822265625,66.09198639530662,241.7726],[160.614990234375,66.109491278119123,220.2713],[160.58984375,66.12470123905662,220.9091],[160.567626953125,66.142450262494123,268.5475],[160.405517578125,66.214227606244123,579.997],[160.3498046875,66.247088934369117,474.3022],[160.31640625,66.25507233280662,439.6371],[160.24072265625,66.25812409061912,384.2198],[160.17822265625,66.267450262494123,189.6528],[159.99306640625002,66.353143621869123,499.7209],[159.808837890625,66.41327545780662,157.8134],[159.73212890625,66.454461981244123,181.5539],[159.69101562500003,66.46381256718162,173.2576],[159.5998046875,66.46698639530662,141.9591],[159.58730468750002,66.469256903119117,140.6687],[159.56308593750003,66.479022528119117,138.9297],[159.5078125,66.48737213749412,134.7332],[159.49658203125,66.49115631718162,133.6812],[159.47705078125,66.495379949994117,133.6169],[159.407470703125,66.48749420780662,127.6089]]}}