{"type":"Feature","properties":{"featurecla":"River","scalerank":8,"rivernum":782,"dissolve":"782River","name":"Bol10","name_alt":null,"note":null,"min_zoom":7.0,"strokeweig":0.3,"name_en":"Bol’shoy Anyuy","min_label":8.0},
"geometry":{"type": "LineString","coordinates": [[161.59658203125002,67.92340729374412,18.1474],[161.57099609375,67.941766668744123,18.5179],[161.45322265625003,67.988544012494117,115.0478],[161.38564453125002,68.00153229374412,13.9867],[161.35390625000002,68.01276276249412,18.8001],[161.34423828125,68.021014715619117,14.5792],[161.33203125,68.04291412968162,12.3639],[161.32666015625,68.05036041874412,11.9064],[161.313232421875,68.05817291874412,11.209],[161.30048828125,68.063348699994123,11.2598],[161.28876953125,68.070672918744123,9.049],[161.27880859375,68.085077215619123,11.051],[161.2822265625,68.09808991093162,2.0],[161.2666015625,68.10626862186912,8.0017],[161.24326171875003,68.11054108280662,9.6359],[161.223876953125,68.111835028119117,3.5127],[161.21337890625,68.11493561405662,7.8809],[161.196875,68.12909577030662,6.4791],[161.185791015625,68.13226959843162,7.9822],[161.17324218750002,68.134295965619117,7.1101],[161.16269531250003,68.139667059369117,6.1468],[161.14443359375002,68.156122137494123,6.9753],[161.14052734375002,68.162616278119117,6.2004],[161.13671875,68.17670319218162,5.872],[161.131103515625,68.18378327030662,6.6454],[161.119873046875,68.18720123905662,6.0804],[161.10244140625002,68.19000885624412,0.0],[161.08652343750003,68.19476959843162,7.3083],[161.07958984375,68.204608465619117,4.5257],[161.1064453125,68.22992584843162,7.3728],[161.11376953125,68.243670965619117,6.5499],[161.09326171875,68.24957916874412,4.1089],[160.9560546875,68.24957916874412,5.2445],[160.932861328125,68.25433991093162,5.1415],[160.87539062500002,68.28034088749412,6.2353],[160.856640625,68.29364655155662,5.1745],[160.85546875,68.30280182499412,2.2641],[160.86669921875,68.32892487186912,0.0],[160.86386718750003,68.34454987186912,3.1203],[160.84130859375,68.35553619999412,4.3748],[160.7705078125,68.34650299686912,4.7729],[160.74375,68.35138580936912,4.6613],[160.75185546875002,68.35614655155662,5.0973],[160.75595703125003,68.36078522343162,4.9706],[160.759033203125,68.36603424686912,0.0],[160.76425781250003,68.37250397343162,0.0],[160.74648437500002,68.379413153119117,5.2695],[160.73876953125,68.38922760624412,4.9014],[160.74228515625003,68.39911530155662,0.0],[160.7580078125,68.406024481244117,-0.3973],[160.7431640625,68.417499090619117,0.0],[160.70839843750002,68.42865631718162,5.136],[160.69589843750003,68.440790106244123,3.7196],[160.74365234375,68.44916412968162,4.5912],[160.7580078125,68.45441315311912,4.6748],[160.75068359375,68.45734284061912,0.0],[160.73720703125002,68.46564362186912,4.5886],[160.730224609375,68.46869537968162,4.4187],[160.7501953125,68.480585028119123,1.5017],[160.77900390625,68.48883698124412,5.1418],[160.85800781250003,68.498163153119123,4.8636],[160.935546875,68.523309637494123,0.0]]}}