{"type":"Feature","properties":{"featurecla":"River","scalerank":6,"rivernum":316,"dissolve":"316River","name":"Anadyr1","name_alt":null,"note":null,"min_zoom":5.0,"strokeweig":0.2,"name_en":"Anadyr’","min_label":6.0},
"geometry":{"type": "LineString","coordinates": [[171.34511718750002,66.97406647343162,419.5036],[171.34619140625,66.96539948124412,419.2078],[171.33837890625,66.95050690311912,404.1129],[171.34169921875002,66.94306061405662,411.1591],[171.37246093750002,66.905780340619117,390.552],[171.454345703125,66.844989324994117,388.2835],[171.46015625,66.836932684369117,373.6899],[171.47109375000002,66.81549713749412,367.2715],[171.478515625,66.806170965619117,364.8922],[171.48154296875003,66.79926178593162,363.3977],[171.48046875,66.78192780155662,361.7255],[171.48232421875002,66.77606842655662,360.4455],[171.496826171875,66.76886627811912,526.449],[171.5146484375,66.766961981244123,574.9244],[171.55029296875,66.76862213749412,361.7859],[171.56044921875002,66.764764715619123,361.1382],[171.56884765625,66.75556061405662,358.1046],[171.57656250000002,66.744501043744123,356.353],[171.584716796875,66.735126043744117,349.6006],[171.560546875,66.72614166874412,349.7556],[171.40214843750005,66.701288153119123,357.907],[171.37919921875005,66.69354889530662,456.2994],[171.372314453125,66.688739324994117,360.9422],[171.35996093750003,66.67658112186912,333.3763],[171.35195312500002,66.67243073124412,332.9078],[171.3380859375,66.670428778119117,339.0195],[171.3095703125,66.670184637494117,421.8127],[171.272705078125,66.66437409061912,362.8282],[171.24843750000002,66.663348699994117,426.1193],[171.2248046875,66.65973541874412,590.066],[171.18759765625003,66.64020416874412,323.8279],[171.05048828125,66.609393621869117,401.6932],[170.98740234375003,66.58344147343162,332.6136],[170.89404296875,66.55975983280662,308.8672],[170.7998046875,66.551141668744123,314.4381],[170.75419921875005,66.537616278119117,304.0052],[170.65185546875,66.49017975468162,296.9138],[170.641357421875,66.482538153119123,302.9048],[170.621826171875,66.46356842655662,294.3992],[170.60878906250002,66.455096746869117,293.3877],[170.57236328125003,66.440692449994117,292.9804],[170.372314453125,66.33148834843162,412.1657],[170.16591796875002,66.271991278119117,267.8394],[169.9716796875,66.25470612186912,264.465],[169.87294921875002,66.22174713749412,258.3191],[169.857421875,66.213739324994123,257.4476],[169.84814453125,66.20429108280662,256.6918],[169.8283203125,66.17816803593162,255.9008],[169.82021484375002,66.172723699994123,254.7828],[169.80751953125002,66.159930731244117,291.6458],[169.81435546875002,66.13129303593162,251.5993],[169.8369140625,66.08344147343162,250.3477],[169.83964843750005,66.06488678593162,248.9574],[169.8400390625,66.03778717655662,242.2073],[169.83730468750002,66.012079168744123,240.5824],[169.830078125,65.99774811405662,239.0331],[169.8173828125,65.991473699994117,239.1279],[169.80703125000002,65.984637762494117,237.7131],[169.803955078125,65.97577545780662,237.3568],[169.82197265625,65.95050690311912,234.3367],[169.816162109375,65.940545965619123,232.6215],[169.80478515625003,65.93109772343162,232.3275],[169.79648437500003,65.919549871869123,231.8976],[169.79404296875003,65.89557526249412,230.0424],[169.798583984375,65.869891668744117,227.6089],[169.8078125,65.84577057499412,222.8335],[169.82021484375002,65.826434637494117,220.707],[169.81728515625002,65.80365631718162,330.6011],[169.78330078125003,65.78497955936912,275.7185],[169.688720703125,65.75751373905662,398.4497],[169.6115234375,65.75507233280662,605.1033]]}}