{"type":"Feature","properties":{"featurecla":"River","scalerank":8,"rivernum":770,"dissolve":"770River","name":"Palyavaam","name_alt":null,"note":null,"min_zoom":7.0,"strokeweig":0.15,"name_en":"Palyavaam","min_label":8.0},
"geometry":{"type": "LineString","coordinates": [[177.211181640625,67.92682526249412,710.0276],[177.18339843750005,67.95477936405662,560.0876],[177.167236328125,67.962176824994117,553.6077],[177.1279296875,67.970086981244123,540.9231],[177.111328125,67.97833893436912,540.8751],[177.08339843750002,67.99762604374412,672.917],[176.91347656250002,68.07868073124412,992.3141],[176.881591796875,68.08307526249412,885.5972],[176.84414062500002,68.07672760624412,742.2659],[176.83076171875,68.07660553593162,565.9276],[176.74033203125003,68.097040106244123,562.9567]]}}