{"type":"Feature","properties":{"featurecla":"River","scalerank":7,"rivernum":466,"dissolve":"466River","name":"Omolon3","name_alt":null,"note":null,"min_zoom":6.0,"strokeweig":0.3,"name_en":"Omolon","min_label":7.0},
"geometry":{"type": "LineString","coordinates": [[158.77001953125,67.61212799686912,54.1858],[158.757080078125,67.61676666874412,55.6269],[158.74609375,67.625506903119117,48.037],[158.74091796875,67.63678619999412,54.037],[158.74609375,67.64935944218162,55.4039],[158.74814453125003,67.66168854374412,49.3129],[158.72470703125003,67.679950262494117,51.6633],[158.725341796875,67.69061920780662,50.5898],[158.74951171875,67.72199127811912,51.6778],[158.7978515625,67.75556061405662,49.5084],[158.772705078125,67.780047918744117,46.8158],[158.76318359375,67.786249090619123,45.9598],[158.74365234375,67.79352448124412,45.362],[158.62978515625002,67.81976959843162,43.7621],[158.6095703125,67.831317449994117,71.2049],[158.60625,67.858514715619123,42.822],[158.608642578125,67.866083074994123,41.9358],[158.61826171875003,67.88312409061912,41.3589],[158.62314453125003,67.889276434369123,40.1254],[158.62363281250003,67.89887116093162,38.8427],[158.614990234375,67.91132233280662,39.8703],[158.595947265625,67.930536199994123,38.1866],[158.584228515625,67.94574616093162,37.5976],[158.57666015625,67.96161530155662,36.7111],[158.572509765625,67.979022528119117,35.6984],[158.5712890625,67.99884674686912,33.8641],[158.565673828125,68.01581452030662,34.8762],[158.55263671875002,68.03400299686912,30.551],[158.52353515625003,68.06342194218162,28.8095],[158.5009765625,68.078876043744117,27.6303],[158.48095703125,68.08966705936912,28.2249],[158.47021484375,68.10309479374412,30.5654],[158.47509765625,68.12604401249412,29.1368],[158.490234375,68.14484284061912,27.7696],[158.52822265625002,68.16718170780662,26.6134],[158.544677734375,68.18073151249412,25.7309],[158.552734375,68.195428778119123,24.7617],[158.55859375,68.215350653119117,23.8433],[158.56103515625,68.235126043744117,23.2537],[158.55839843750005,68.24957916874412,22.3308],[158.577880859375,68.26264069218162,21.8842],[158.59541015625,68.26923248905662,21.8561],[158.608154296875,68.278827215619117,21.3221],[158.613037109375,68.30048248905662,22.4243],[158.61171875000002,68.315545965619123,19.53],[158.6134765625,68.32050202030662,19.3469],[158.61972656250003,68.331561590619117,19.2821],[158.635498046875,68.34747955936912,17.7644],[158.66806640625003,68.371844793744117,16.7365],[158.67744140625,68.38519928593162,16.6045],[158.67919921875,68.40070221561912,13.5993],[158.66748046875,68.423211981244123,12.1466],[158.66708984375003,68.429803778119123,11.083],[158.664306640625,68.43756744999412,13.1357],[158.65390625000003,68.44757721561912,9.1157],[158.640625,68.453729559369123,12.98],[158.59248046875,68.46124909061912,12.927],[158.60927734375002,68.474237371869123,12.7706],[158.64560546875003,68.492206121869117,11.1172],[158.66015625,68.50287506718162,11.8694],[158.67099609375003,68.518915106244123,11.709],[158.66875,68.52887604374412,10.8886],[158.64101562500002,68.557489324994123,10.3883],[158.636474609375,68.56061432499412,10.2459],[158.6337890625,68.56476471561912,9.5917],[158.6328125,68.574823309369123,10.9127],[158.63515625000002,68.580194403119123,10.3048],[158.64501953125,68.59381744999412,9.6763],[158.64707031250003,68.597772528119123,3.0053],[158.63671875,68.613641668744123,9.1528],[158.622314453125,68.623553778119117,8.972],[158.61337890625003,68.63434479374412,7.0262],[158.61972656250003,68.65302155155662,9.1169],[158.5947265625,68.65521881718162,5.6873],[158.56289062500002,68.66168854374412,8.0404],[158.54580078125002,68.672479559369123,5.6587],[158.565185546875,68.68720123905662,6.1988],[158.55849609375002,68.69379303593162,4.871],[158.544677734375,68.715106512494117,7.7537],[158.57587890625,68.72382233280662,8.1957],[158.68056640625002,68.729364324994123,-0.6569]]}}