{"type":"Feature","properties":{"featurecla":"River","scalerank":8,"rivernum":770,"dissolve":"770River","name":"Palyavaam1","name_alt":null,"note":null,"min_zoom":7.0,"strokeweig":0.2,"name_en":"Palyavaam","min_label":8.0},
"geometry":{"type": "LineString","coordinates": [[176.74033203125003,68.097040106244123,562.9567],[176.6728515625,68.11017487186912,587.512],[176.55771484375003,68.11395905155662,564.3088],[176.37783203125002,68.152460028119123,585.0],[176.31708984375,68.15216705936912,514.4514],[176.298046875,68.15643952030662,508.3048],[176.287109375,68.162372137494117,514.5062],[176.26728515625,68.177508856244117,509.2953],[176.25644531250003,68.18366119999412,532.1382],[176.22900390625,68.191522528119123,553.6995],[176.1728515625,68.19928619999412,652.1999],[176.1064453125,68.220721746869117,503.7881],[176.01767578125003,68.23407623905662,597.3582],[175.72607421875,68.324090887494123,653.4344],[175.6962890625,68.339374090619117,466.7762],[175.61591796875,68.367450262494117,459.8363],[175.53164062500002,68.368670965619117,438.6753],[175.3603515625,68.35138580936912,442.2592],[175.186279296875,68.37250397343162,459.6821],[175.10009765625,68.37250397343162,384.3832],[175.077880859375,68.375018621869117,404.7219],[175.015869140625,68.39569733280662,451.6547],[174.783203125,68.43756744999412,536.9095],[174.73681640625,68.452411199994117,553.669],[174.607666015625,68.52326080936912,627.6257],[174.583740234375,68.53119537968162,600.2036],[174.48193359375,68.54828522343162,402.6292],[174.30234375000003,68.553338934369123,354.452]]}}