{"type":"Feature","properties":{"featurecla":"River","scalerank":8,"rivernum":782,"dissolve":"782River","name":"Bol7","name_alt":null,"note":null,"min_zoom":7.0,"strokeweig":0.15,"name_en":"Bol’shoy Anyuy","min_label":8.0},
"geometry":{"type": "LineString","coordinates": [[168.95302734375002,66.743670965619117,600.4978],[168.88720703125,66.71869537968162,592.9104],[168.852783203125,66.711932684369117,724.2204],[168.646240234375,66.700458074994117,711.5096],[168.546875,66.67621491093162,549.5687],[168.37763671875,66.66107819218162,618.468],[168.31103515625,66.66889069218162,650.6906],[168.28818359375003,66.66852448124412,583.7926],[168.23408203125,66.65668366093162,587.6791],[168.216552734375,66.654901434369123,600.3513],[168.19892578125,66.656366278119123,671.0793],[168.18427734375,66.66022369999412,849.2793],[168.158203125,66.671649481244117,623.4598]]}}