{"type":"Feature","properties":{"featurecla":"River","scalerank":6,"rivernum":316,"dissolve":"316River","name":"Anadyr3","name_alt":null,"note":null,"min_zoom":5.0,"strokeweig":0.3,"name_en":"Anadyr’","min_label":6.0},
"geometry":{"type": "LineString","coordinates": [[173.60585937500002,65.16425202030662,39.2095],[173.595947265625,65.152118231244117,21.1835],[173.548046875,65.12409088749412,68.794],[173.53125,65.110126043744117,80.5487],[173.55048828125,65.090594793744117,3.6876],[173.556396484375,65.07977936405662,6.0164],[173.55947265625002,65.05316803593162,4.1819],[173.56289062500002,65.04315827030662,5.1135],[173.56904296875,65.03485748905662,4.4676],[173.57900390625002,65.027606512494117,0.8678],[173.615234375,65.01740143436912,-1.0898],[173.69980468750003,65.01923248905662,4.292],[173.77333984375002,65.00275299686912,0.0],[173.85634765625002,64.99982330936912,4.9857],[173.890869140625,64.983514715619123,4.2341],[173.916015625,64.964960028119123,0.0],[173.96933593750003,64.93451569218162,0.0],[173.99365234375,64.91522858280662,4.6123],[174.00917968750002,64.893085028119117,3.3798],[174.02724609375002,64.84638092655662,0.0],[174.0419921875,64.826190496869117,3.6245],[174.07080078125,64.80609772343162,3.1533],[174.1044921875,64.79205963749412,0.0],[174.14013671875,64.78388092655662,3.0751],[174.2119140625,64.779071356244117,3.46],[174.291259765625,64.76337311405662,2.4499],[174.38710937500002,64.72589752811912,1.628],[174.426513671875,64.69806549686912,3.5294],[174.44179687500002,64.69245026249412,0.0]]}}