{"type":"Feature","properties":{"GID_3":"RUS.35.53.1_1","GID_0":"RUS","country":"Russia","GID_1":"RUS.35_1","province":"Krasnoyarsk","NL_NAME_1":"Красноярскийкрай","GID_2":"RUS.35.53_1","county":"Turukhanskiyrayon","NL_NAME_2":"Туруханскийрайон","city":"NA","VARNAME_3":"NA","NL_NAME_3":"NA","TYPE_3":"NA","ENGTYPE_3":"NA","CC_3":"NA","HASC_3":"NA","name":"N_A.city"},
"geometry":{"type": "MultiPolygon","coordinates": [[[[85.9691,61.5052,183.502],[86.2764,61.5602,126.7397],[86.5031,61.4898,176.7267],[86.836,61.4631,173.4498],[87.2884,61.4099,174.4767],[87.5466,61.3137,171.6015],[87.6894,61.2804,135.8945],[88.0933,61.2392,120.1015],[88.2446,61.2675,97.8372],[88.4749,61.2563,78.4326],[88.6864,61.2778,103.0105],[88.7837,61.324,105.5798],[89.0462,61.3145,105.5378],[89.1648,61.3468,156.2991],[89.3011,61.3268,147.7268],[89.6789,61.3097,72.9937],[89.9213,61.2589,114.4132],[90.1135,61.1048,222.3176],[90.3107,60.9814,297.0781],[90.6683,60.9607,248.2213],[91.1307,61.0019,300.0926],[91.0352,61.0606,489.0583],[90.9816,61.0873,420.6447],[90.9172,61.171,198.1076],[90.7792,61.1964,252.254],[90.7297,61.2471,213.6942],[90.709,61.298,238.5213],[90.7192,61.3289,242.2375],[90.702,61.3754,231.2606],[90.6631,61.4278,210.7563],[90.5968,61.4792,191.8748],[90.5844,61.5214,228.7599],[90.6515,61.5471,96.7982],[90.6867,61.5798,216.1486],[90.7185,61.6452,145.3633],[90.8406,61.6662,79.0301],[90.9256,61.7286,173.1768],[90.9333,61.7777,94.497],[90.9135,61.8387,191.9707],[90.8828,61.9108,270.8926],[90.808,61.9297,209.6368],[90.7228,61.9149,226.8392],[90.632,61.9244,321.7619],[90.5609,61.9618,274.608],[90.4905,62.022,312.7799],[90.3813,62.0651,283.5894],[90.2537,62.103,315.8362],[90.1581,62.1505,297.4684],[90.0903,62.2182,267.9839],[90.126,62.2574,283.2573],[90.2908,62.3175,217.91],[90.3323,62.3616,251.8931],[90.379,62.3665,246.5373],[90.3997,62.412,214.0328],[90.3994,62.4385,231.188],[90.4445,62.4645,306.2261],[90.6188,62.4935,292.5475],[90.7854,62.5116,230.9687],[90.9134,62.5701,311.8618],[91.036,62.7087,316.6603],[91.1207,62.7633,365.6034],[91.2683,62.8061,379.7007],[91.4849,62.8527,469.3313],[91.6177,62.8942,502.2113],[91.7171,62.962,481.3097],[91.7431,63.0347,449.7749],[91.7133,63.0906,432.9258],[91.6965,63.2011,319.5508],[91.6726,63.3076,228.7618],[91.6786,63.3764,256.6129],[91.7602,63.4229,247.4574],[91.7523,63.4691,224.9037],[91.6945,63.497,327.2751],[91.7486,63.5466,250.7791],[91.8656,63.6096,310.9715],[92.0221,63.6562,453.248],[92.0903,63.6443,429.4934],[92.1848,63.6629,585.099],[92.2073,63.6987,556.5585],[92.1598,63.8178,354.1386],[92.1583,63.8753,399.3756],[92.1283,63.9094,330.7819],[92.007,63.9104,440.9673],[91.9521,63.9496,445.3394],[92.0041,63.9779,477.5941],[92.045,64.0075,408.5365],[92.111,64.0337,501.7949],[92.1575,64.0681,471.1831],[92.1596,64.1093,468.6678],[92.1137,64.1546,571.8889],[91.9687,64.1617,470.3507],[91.9327,64.2001,400.5675],[91.8097,64.2256,453.6613],[91.8339,64.2553,483.0348],[91.7507,64.3021,516.0842],[91.761,64.342,568.429],[91.5826,64.381,421.4417],[91.5116,64.356,548.1802],[91.4408,64.3613,551.3919],[91.3272,64.3825,400.399],[91.2639,64.3386,384.2528],[91.1587,64.3437,424.6161],[91.1184,64.378,544.2926],[91.0955,64.4106,420.7499],[90.9129,64.4339,385.5579],[90.7589,64.4056,465.8062],[90.6944,64.4191,501.0089],[90.7315,64.4608,444.4683],[90.687,64.4774,405.3333],[90.5804,64.4691,375.3611],[90.5526,64.4885,392.7704],[90.6015,64.5199,372.6199],[90.6523,64.5459,452.6085],[90.5895,64.5862,418.1926],[90.4498,64.6061,417.826],[90.4088,64.5568,521.488],[90.4085,64.498,467.2222],[90.2874,64.507,571.4167],[90.3073,64.5477,524.8321],[90.2319,64.5908,590.4908],[90.169,64.6483,375.0297],[90.0453,64.6506,483.1018],[90.072,64.6881,511.8047],[90.1642,64.7151,646.0627],[90.1015,64.7515,565.5435],[90.0074,64.7511,537.221],[89.9839,64.7164,618.1589],[89.8082,64.6959,638.462],[89.696,64.7078,609.2875],[89.7052,64.7268,504.3835],[89.7916,64.7573,639.0007],[89.7528,64.7925,522.6611],[89.6391,64.8208,427.7625],[89.5546,64.8033,426.7997],[89.5445,64.7823,450.1585],[89.5085,64.7707,456.6401],[89.3694,64.7641,418.7884],[89.24,64.7257,241.8401],[89.1212,64.7488,225.9731],[89.0668,64.8186,313.373],[89.1008,64.8763,345.8935],[89.1897,64.922,295.2197],[89.2913,64.9668,401.4635],[89.3826,65.0033,426.7222],[89.3749,65.0608,473.9043],[89.4177,65.1023,582.6214],[89.4529,65.17,572.4091],[89.327,65.2261,500.2841],[89.4111,65.2473,529.4161],[89.4399,65.2962,492.607],[89.4122,65.3174,499.256],[89.3372,65.3078,486.8355],[89.27,65.3419,530.0598],[89.2821,65.3879,548.1062],[89.2677,65.4127,392.1951],[89.1228,65.4314,402.2063],[89.0279,65.4775,256.5739],[88.8056,65.4713,153.1173],[88.7005,65.4961,131.2857],[88.5774,65.5317,94.7338],[88.6905,65.6569,101.261],[88.8209,65.7463,102.6139],[88.9411,65.8238,353.8856],[89.0311,65.8872,115.9856],[89.0172,66.0431,115.9683],[88.973,66.1906,126.2689],[89.0496,66.3287,120.0993],[89.2091,66.4315,131.3882],[89.3876,66.4542,133.8437],[89.6252,66.4305,159.9809],[89.846,66.4129,182.9913],[89.88,66.4592,301.5932],[89.8381,66.5433,431.2433],[89.8633,66.6067,298.4843],[89.9596,66.6208,326.7315],[90.2076,66.6715,477.3214],[90.3029,66.7536,401.9671],[90.4493,66.8274,350.2017],[90.6919,66.9662,538.8266],[90.714,67.0172,658.9481],[90.9172,67.1738,169.0722],[91.1192,67.2976,439.7714],[91.3182,67.3585,486.9391],[91.3082,67.4463,129.0626],[91.1893,67.4523,114.1485],[91.0505,67.4258,129.1528],[90.9044,67.4117,105.8254],[90.6182,67.4028,93.8804],[90.3664,67.4304,344.9843],[90.1746,67.4537,422.8553],[90.0443,67.486,541.8212],[89.9763,67.4894,500.5917],[89.8345,67.4478,624.9646],[89.6471,67.4597,521.2911],[89.506,67.4225,608.783],[89.3366,67.4555,541.2622],[89.301,67.5134,586.9347],[89.1992,67.4904,592.4626],[89.1638,67.4077,584.3981],[89.014,67.3768,587.0565],[88.8158,67.3852,533.918],[88.7039,67.4278,546.5286],[88.6249,67.4142,578.3463],[88.4958,67.3768,528.0375],[88.0695,67.0784,101.2933],[87.8661,66.9784,115.3012],[87.679,66.9322,99.3034],[87.533,66.9019,90.7512],[87.4003,66.8315,103.8703],[87.3715,66.7281,56.6059],[87.3782,66.646,30.241],[87.389,66.5884,57.8899],[87.4851,66.5168,28.5345],[87.5474,66.4436,37.3846],[87.301,66.3199,32.0704],[87.1587,66.2299,42.7754],[87.0906,66.192,58.2049],[86.9356,66.0635,42.1171],[86.6793,66.0704,52.2429],[86.3706,66.1255,55.8816],[86.2962,66.2028,52.9746],[86.0252,66.3239,60.1959],[85.9046,66.3824,65.6841],[85.7142,66.4086,64.9409],[85.6579,66.4558,85.8485],[85.7087,66.5368,71.1991],[85.6625,66.5868,82.8008],[85.5054,66.6102,64.5913],[85.4522,66.6475,61.6686],[85.5826,66.6982,68.2507],[85.5407,66.7627,67.6913],[85.5988,66.8266,67.6222],[85.5501,66.9362,106.8427],[85.4219,66.9931,103.4293],[85.3231,67.0488,76.3708],[85.3407,67.1242,71.314],[85.244,67.2231,71.5518],[85.307,67.2783,103.7771],[85.2986,67.3308,122.3469],[85.238,67.3572,95.4678],[85.0055,67.3365,118.2269],[85.0488,67.317,91.3199],[84.9358,67.2806,95.6117],[84.8208,67.2121,87.2621],[84.6619,67.2097,81.0942],[84.5716,67.3137,68.2224],[84.3862,67.3414,63.7924],[84.3782,67.4438,51.0448],[84.2644,67.4659,48.8018],[84.1927,67.5436,49.5081],[83.9698,67.622,48.2414],[83.6566,67.619,53.8556],[83.642,67.6881,68.2547],[83.5562,67.7691,47.064],[83.4287,67.8244,55.609],[83.4395,67.8809,32.3659],[83.3232,67.8883,60.1666],[83.2454,67.9381,68.8568],[83.1334,67.927,82.225],[83.069,67.9781,69.5117],[83.2766,68.0787,53.7336],[83.2164,68.1397,17.3544],[83.132,68.1418,34.4451],[83.101,68.1538,60.4795],[83.1056,68.2089,54.1526],[83.0665,68.2484,48.8182],[82.9541,68.2731,81.3738],[82.8588,68.3014,45.7143],[82.7543,68.3523,107.5752],[82.7462,68.2959,131.8285],[82.7611,68.2607,63.2637],[82.6763,68.2343,51.7071],[82.5954,68.2168,48.5028],[82.5795,68.1831,67.6344],[82.5812,68.1625,73.6378],[82.5635,68.1316,58.9367],[82.4788,68.0852,65.0895],[82.4234,68.0673,113.8224],[82.4217,68.0115,99.0216],[82.4283,67.9745,95.4696],[82.4221,67.9419,95.5298],[82.4089,67.9245,87.4408],[82.2422,67.9034,82.5029],[82.1049,67.9267,87.7474],[81.9987,67.9145,79.5176],[81.925,67.8991,76.6065],[81.8262,67.9008,71.8398],[81.7843,67.8831,62.7231],[81.8791,67.8026,61.0141],[81.9536,67.7492,56.1166],[82.0947,67.7096,46.8263],[82.1152,67.6815,59.195],[82.0994,67.6422,44.4766],[82.1371,67.6075,53.6858],[82.1944,67.5797,40.422],[82.2771,67.5508,36.5412],[82.3629,67.5344,36.4347],[82.415,67.4994,35.3844],[82.4219,67.4625,43.3365],[82.3762,67.4304,31.4527],[82.3403,67.3983,43.798],[82.3368,67.3726,26.2557],[82.3557,67.3359,31.0065],[82.3634,67.2878,48.2944],[82.2528,67.2412,46.0379],[82.1747,67.2007,27.79],[82.3661,67.1309,64.5674],[82.5389,67.0619,52.1029],[82.7318,66.994,65.0638],[82.8919,66.9441,69.9666],[83.0618,66.882,65.0497],[83.0797,66.8248,59.2425],[83.1428,66.8136,61.9808],[83.2396,66.7841,56.8096],[83.2536,66.7378,47.9956],[83.2938,66.6886,42.7237],[83.3521,66.6515,29.6023],[83.3142,66.6027,44.7907],[83.2178,66.5721,53.817],[83.1642,66.5432,45.1799],[83.1082,66.4999,62.6456],[83.1174,66.455,33.3802],[83.2167,66.3951,41.8518],[83.3754,66.3302,38.5141],[83.5538,66.1776,39.6803],[83.6047,66.1426,37.8777],[83.5102,66.1227,42.0857],[83.4669,66.1033,37.1183],[83.4632,66.0805,37.054],[83.4646,66.0535,34.0276],[83.4112,66.0461,37.3866],[83.3717,66.014,37.0732],[83.4049,65.967,35.7965],[83.5,65.9246,39.5417],[83.5399,65.8951,42.4318],[83.5731,65.7866,67.7324],[83.634,65.7528,54.0379],[83.7565,65.7374,80.1817],[83.868,65.7572,88.8649],[83.9601,65.7573,56.997],[84.1312,65.6963,53.1725],[84.3113,65.6575,98.5562],[84.353,65.63,60.9322],[84.3581,65.6109,75.5423],[84.2774,65.5899,95.9327],[84.2032,65.5834,113.4878],[84.179,65.567,111.5382],[84.2064,65.5558,106.6344],[84.4135,65.5346,113.7839],[84.513,65.5053,96.0029],[84.5479,65.4855,97.2848],[84.5838,65.4472,124.1815],[84.5744,65.4221,133.8463],[84.5708,65.3902,96.5334],[84.6348,65.3091,95.8873],[84.6534,65.2691,119.5548],[84.5512,65.2163,124.0846],[84.4144,65.1749,120.6185],[84.3674,65.1329,116.2031],[84.3387,65.105,82.4205],[84.3462,65.0815,43.8521],[84.4039,65.0595,48.0508],[84.437,65.0265,64.9425],[84.4495,64.9943,68.0751],[84.4156,64.9556,82.3478],[84.3824,64.9327,80.0789],[84.4226,64.907,63.7576],[84.5674,64.9029,90.7406],[84.7147,64.8944,109.5355],[84.8404,64.904,120.4546],[84.9855,64.9227,85.1396],[85.0761,64.9231,102.0977],[85.1006,64.8912,93.5122],[85.0461,64.8618,113.0668],[85.0175,64.8488,101.728],[85.1607,64.8274,106.1598],[85.2091,64.7959,115.3784],[85.2551,64.7798,115.8168],[85.3528,64.7725,125.5753],[85.4591,64.8159,107.0828],[85.5627,64.8367,134.8437],[85.6403,64.8282,144.9931],[85.6901,64.8143,170.6537],[85.7184,64.79,168.3467],[85.8134,64.7858,127.9942],[85.8554,64.7564,132.2883],[85.8664,64.6982,121.3254],[85.8717,64.6339,120.2071],[85.9046,64.6082,132.7204],[85.9214,64.5718,120.5633],[85.8392,64.5272,116.7472],[85.8185,64.492,88.9458],[85.915,64.4028,113.4566],[85.8903,64.3653,139.2718],[85.9296,64.3107,125.5255],[85.9656,64.2658,159.9396],[85.9777,64.2244,147.5686],[85.9842,64.1908,142.3252],[85.9488,64.1662,122.5289],[85.9625,64.135,140.8094],[85.9681,64.1031,141.8286],[85.9614,64.0516,139.9195],[85.6865,63.9627,112.5365],[85.5027,63.8745,106.9461],[85.4186,63.8579,92.816],[85.3565,63.8379,85.61],[85.3263,63.8015,82.1253],[85.3194,63.7572,81.7268],[85.3192,63.7164,76.8789],[85.3146,63.6676,73.9441],[85.2808,63.642,73.6959],[85.2257,63.6123,75.0756],[85.122,63.5787,71.0375],[85.1506,63.5323,70.5603],[85.2208,63.5068,60.0],[85.2913,63.5056,68.4616],[85.3457,63.4831,73.974],[85.3745,63.4637,71.7498],[85.41,63.3939,73.5488],[85.4558,63.3697,100.5824],[85.5513,63.3773,70.9005],[85.6113,63.3609,87.3173],[85.5646,63.2486,81.0833],[85.5873,63.2035,89.0017],[85.5344,63.1704,95.8691],[85.539,63.144,102.5922],[85.6035,63.1021,124.9818],[85.6163,63.0755,114.9484],[85.5913,63.0257,81.7988],[85.535,63.0052,103.1815],[85.5307,62.9667,82.8351],[85.5087,62.9227,91.0073],[85.4306,62.8869,95.8739],[85.352,62.8613,131.0959],[85.2783,62.7766,207.285],[85.215,62.7543,166.1238],[85.15,62.7103,146.5454],[85.0431,62.6684,121.3488],[85.0378,62.6418,158.668],[85.0001,62.6062,140.8119],[84.9604,62.5787,109.9775],[84.9697,62.5397,126.1767],[84.9527,62.4876,95.8501],[84.9179,62.4466,146.5244],[84.8335,62.3985,138.6361],[84.6786,62.3164,160.5322],[84.5863,62.2653,177.3516],[84.5364,62.2272,151.3868],[84.5145,62.1781,147.6826],[84.5151,62.153,167.1719],[84.4937,62.0675,152.9436],[84.5134,61.9886,151.5512],[84.5938,61.893,152.8499],[84.6851,61.8228,162.21],[84.7644,61.7887,151.1301],[84.9524,61.7692,158.4718],[85.0118,61.7458,176.5308],[85.126,61.7209,182.5022],[85.2131,61.6977,153.263],[85.402,61.6871,187.4407],[85.4773,61.6541,186.2169],[85.578,61.6004,188.2655],[85.6546,61.5768,172.001],[85.7405,61.5718,174.4521],[85.8327,61.5702,163.5194],[85.9159,61.5481,180.103],[85.9691,61.5052,183.502]]]]}}