{"type":"Feature","properties":{"GID_3":"RUS.9.10.1_1","GID_0":"RUS","country":"Russia","GID_1":"RUS.9_1","province":"Buryat","NL_NAME_1":"РеспубликаБурятия","GID_2":"RUS.9.10_1","county":"Kurumkanskiyrayon","NL_NAME_2":"Курумканскийрайон","city":"NA","VARNAME_3":"NA","NL_NAME_3":"NA","TYPE_3":"NA","ENGTYPE_3":"NA","CC_3":"NA","HASC_3":"NA","name":"N_A.city"},
"geometry":{"type": "MultiPolygon","coordinates": [[[[111.2699,53.9513,1904.2096],[111.3115,53.9871,1813.5623],[111.3505,54.036,1733.5627],[111.3697,54.0869,1787.4856],[111.3404,54.1489,1781.5741],[111.2966,54.2308,1709.908],[111.3192,54.2737,1560.8068],[111.4552,54.316,1702.3174],[111.4758,54.3619,1442.1082],[111.5281,54.3861,1456.0004],[111.5716,54.4227,1641.7664],[111.5783,54.522,1564.7778],[111.6571,54.5526,1621.9731],[111.7152,54.5881,1802.1235],[111.8043,54.7249,1519.593],[111.8259,54.763,1902.1389],[111.8132,54.7948,2115.1641],[111.7635,54.8175,1538.2916],[111.721,54.85,1677.5552],[111.7287,54.8872,1527.4026],[111.6983,54.9476,1830.045],[111.8104,54.9944,2251.5898],[111.88,55.1126,2058.2366],[111.9623,55.1517,1960.3055],[112.0524,55.1741,1445.7341],[112.0578,55.2095,1788.0436],[111.9769,55.2545,2072.7778],[111.9717,55.2774,1975.8661],[112.0535,55.3023,1627.3915],[112.0183,55.3106,1636.7257],[112.021,55.3621,1597.2725],[111.9859,55.3814,1391.9629],[111.8823,55.3533,1592.0913],[111.8156,55.3574,1558.4218],[111.7343,55.4275,1730.3064],[111.5896,55.4716,1606.8317],[111.4708,55.4834,1290.7405],[111.4074,55.4924,1580.3145],[111.3977,55.5146,1716.0774],[111.389,55.5505,1229.8514],[111.366,55.5831,1017.481],[111.3222,55.5902,1132.5481],[111.2427,55.5656,1883.5311],[111.1853,55.4763,1588.1427],[111.1507,55.4391,1149.9546],[111.0794,55.4165,1515.8633],[111.0287,55.3523,1603.8921],[110.9493,55.3009,1769.9316],[110.8112,55.28,1851.054],[110.7795,55.2277,1766.8973],[110.6994,55.1736,1817.7054],[110.6438,55.0096,1748.3743],[110.5867,54.9477,2247.6597],[110.5129,54.8994,1955.3376],[110.4628,54.8378,1508.5907],[110.4323,54.711,2175.771],[110.4207,54.611,1873.9685],[110.3851,54.5711,1940.3098],[110.2834,54.5528,1652.8511],[110.2177,54.535,1432.1663],[110.1432,54.4985,2360.4031],[110.0713,54.4462,1835.7],[110.0305,54.3837,1544.6807],[110.0534,54.3128,1313.0347],[110.0749,54.2686,2427.7749],[109.9833,54.1941,1501.184],[109.9531,54.1518,1980.2383],[109.9458,54.1231,1278.6644],[109.9187,54.1053,1794.924],[109.9639,54.058,1542.2015],[110.0558,54.0295,586.7621],[110.2539,54.0214,560.0358],[110.4134,54.048,950.197],[110.5188,54.0896,1091.7607],[110.7131,54.1465,1418.5729],[110.8299,54.1766,1105.7781],[110.905,54.1767,1298.6841],[110.932,54.1491,836.0322],[110.9348,54.0936,1175.202],[110.964,54.0677,1150.0024],[110.9609,54.0293,1455.4402],[111.0277,54.0301,1762.1342],[111.1121,54.0124,2208.0234],[111.1523,53.9549,2002.6656],[111.2699,53.9513,1904.2096]]]]}}