{"type":"Feature","properties":{"featurecla":"Lake","scalerank":9,"name":"Ozero Gusinoye","name_abb":"O. Gusinoye","name_alt":"Lake Gusinoye","note":null,"delta":null,"dam_name":null,"year":-99,"admin":null,"min_zoom":7.0,"min_label":8.0},
"geometry":{"type": "Polygon","coordinates": [[[106.49402765112723,51.284526371078641,550.0],[106.47930944477065,51.291002381875529,551.1812],[106.45664340698147,51.289236197112757,550.0],[106.44163083649778,51.284526371078641,550.0],[106.42102534759857,51.275401083137552,550.0],[106.40277477171639,51.263626518052291,550.0],[106.39512130441096,51.25096886058563,550.0],[106.39100020663113,51.237133746610453,550.0],[106.3815805545629,51.219471898982533,550.0],[106.37039471773193,51.202987507863156,550.0],[106.36009197328229,51.192390399286438,554.9679],[106.34743431581563,51.184736931981007,550.0],[106.319175359611,51.1717849103872,550.0],[106.30563460976293,51.163542714827514,550.0],[106.29415440880479,51.126158470681787,550.0],[106.32153027262808,51.114678269723669,550.0],[106.3653905275707,51.122920465283357,550.0],[106.401891679335,51.144703410691108,550.0],[106.42485208125129,51.169429997370145,550.0],[106.44133647237066,51.181204562455434,550.0],[106.46017577650707,51.186208752616665,550.0],[106.47401089048225,51.192684763413553,550.9441],[106.48843473271171,51.207991698024415,550.0],[106.49962056954269,51.226831002160822,555.9487],[106.5043303955768,51.2441984856616,599.0149],[106.50197548255977,51.269219436467779,573.3763],[106.49402765112723,51.284526371078641,550.0]]]}}