{"type":"Feature","properties":{"featurecla":"Lake","scalerank":9,"name":"Ozero Isinginskoye","name_abb":"O. Isinginskoye","name_alt":"Lake Isinginskoye","note":null,"delta":null,"dam_name":null,"year":-99,"admin":null,"min_zoom":7.0,"min_label":8.0},
"geometry":{"type": "Polygon","coordinates": [[[111.99451573070957,52.949155510008239,945.7476],[111.97302714942896,52.953865336042327,945.7939],[111.95448220941967,52.952393515406669,944.5],[111.93711472591889,52.945328776355524,944.5],[111.92063033479951,52.934437303651634,944.5],[111.90620649257011,52.9208965538036,946.1879],[111.91680360114685,52.908533260464054,944.5],[111.94359073671581,52.901174157285766,944.5],[111.97538206244604,52.901468521412909,947.1253],[112.0004030132522,52.912948722371027,948.3254],[112.00982266532043,52.927666928727632,947.1548],[112.0074677523034,52.939735857940008,956.5576],[111.99451573070957,52.949155510008239,945.7476]]]}}