{"type":"Feature","properties":{"featurecla":"Lake","scalerank":9,"name":"Ozero Kipylyushi","name_abb":"O. Kipylyushi","name_alt":"Lake Kipylyushi","note":null,"delta":null,"dam_name":null,"year":-99,"admin":null,"min_zoom":7.0,"min_label":8.0},
"geometry":{"type": "Polygon","coordinates": [[[112.4416548398226,54.8283760976168,1168.5006],[112.45136885601795,54.83455774428657,1190.3773],[112.45284067665358,54.845154852863317,1223.329],[112.45225194839935,54.862522336364094,1206.2611],[112.44636466585672,54.87047016779664,1210.1021],[112.43311828013577,54.877240542720671,1200.6183],[112.41898880203348,54.879889819864843,1204.6504],[112.41133533472805,54.87635745033927,1175.2957],[112.40662550869393,54.8719419884323,1167.7178],[112.40839169345674,54.868115254779582,1167.8959],[112.41192406298228,54.863994156999752,1167.8452],[112.41133533472805,54.858989966838493,1170.0227],[112.41398461187219,54.857518146202835,1168.0261],[112.41280715536368,54.848098494134632,1167.9189],[112.40662550869393,54.8413281192106,1167.9546],[112.39426221535439,54.848392858261775,1203.5615],[112.38395947090481,54.851630863660205,1203.0197],[112.3748341829637,54.845154852863317,1168.8384],[112.37041872105675,54.836029564922228,1167.9602],[112.37365672645518,54.831614103015255,1168.0038],[112.40603678043965,54.825138092218367,1167.8881],[112.41810570965208,54.824843728091224,1167.7269],[112.4416548398226,54.8283760976168,1168.5006]]]}}