{"type":"Feature","properties":{"featurecla":"Lake","scalerank":9,"name":"null465","name_abb":null,"name_alt":null,"note":"_untitled_281","delta":null,"dam_name":null,"year":-99,"admin":null,"min_zoom":7.0,"min_label":8.0},
"geometry":{"type": "Polygon","coordinates": [[[111.52412185555318,52.557945585050248,948.0458],[111.49939526887414,52.551469574253332,948.258],[111.47967287235628,52.542344286312272,949.8669],[111.48614888315319,52.539400645040956,949.3613],[111.50027836125554,52.529392264718467,953.6307],[111.51440783935783,52.5361626396425,948.072],[111.52588804031598,52.531452813608382,948.9509],[111.54148933905395,52.52968662884561,954.3738],[111.55738500191904,52.531158449481268,953.2621],[111.56915956700431,52.5361626396425,954.8685],[111.57386939303842,52.541166829803728,952.7592],[111.58034540383534,52.550292117744817,953.2191],[111.58211158859814,52.559123041558763,955.5682],[111.57239757240279,52.562949775211479,953.1802],[111.52412185555318,52.557945585050248,948.0458]]]}}