{"type":"Feature","properties":{"featurecla":"Lake","scalerank":9,"name":"null462","name_abb":null,"name_alt":null,"note":"_untitled_284","delta":null,"dam_name":null,"year":-99,"admin":null,"min_zoom":7.0,"min_label":8.0},
"geometry":{"type": "Polygon","coordinates": [[[111.24683084779514,55.863949096866008,478.6692],[111.23240700556568,55.857178721942006,478.5355],[111.22651972302305,55.851880167653633,478.4994],[111.20591423412384,55.838339417805571,478.4524],[111.20591423412384,55.83156904288154,478.3707],[111.22887463604013,55.83156904288154,480.6663],[111.25124630970214,55.838633781932685,486.4154],[111.26949688558426,55.85070271114509,480.4922],[111.28068272241529,55.866304009883066,483.9071],[111.26243214653311,55.867187102264467,502.6082],[111.24683084779514,55.863949096866008,478.6692]]]}}