{"type":"Feature","properties":{"featurecla":"Lake","scalerank":9,"name":"Ozero Bolshoye Yeravnoye","name_abb":"O. Bolshoye Yeravnoye","name_alt":"Lake Bolshoye Yeravnoye","note":null,"delta":null,"dam_name":null,"year":-99,"admin":null,"min_zoom":7.0,"min_label":8.0},
"geometry":{"type": "Polygon","coordinates": [[[111.54031188254544,52.575018704423883,949.7341],[111.56386101271596,52.592680552051775,948.9749],[111.57592994192834,52.61740713873084,950.4845],[111.57386939303842,52.649787192715308,952.3788],[111.55797373017333,52.663622306690513,948.0],[111.53383587174852,52.664799763199028,948.0],[111.44788154662609,52.650375920969594,948.0],[111.42256623169277,52.640367540647105,948.0],[111.41167475898891,52.6179958669851,948.0],[111.41402967200594,52.606810030154094,948.0],[111.42109441105708,52.598273470467291,951.645],[111.43080842725243,52.592680552051775,950.3843],[111.44199426408346,52.590914367289,948.0],[111.44493790535478,52.587970726017659,948.0],[111.44640972599041,52.572958155533968,957.6265],[111.44876463900749,52.566776508864194,960.2192],[111.45494628567724,52.562949775211479,958.7816],[111.4631884812369,52.562066682830078,957.7015],[111.51058110570511,52.564715959974279,949.7943],[111.54031188254544,52.575018704423883,949.7341]]]}}