{"type":"Feature","properties":{"featurecla":"Lake","scalerank":9,"name":"Ozero Kipylyushi","name_abb":"O. Kipylyushi","name_alt":"Lake Kipylyushi","note":null,"delta":null,"dam_name":null,"year":-99,"admin":null,"min_zoom":7.0,"min_label":8.0},
"geometry":{"type": "Polygon","coordinates": [[[112.32420355309705,54.871647624305155,1201.974],[112.30565861308776,54.867526526525324,1184.0801],[112.28534748831567,54.85369141255012,1173.2606],[112.26120962989086,54.844566124609059,1191.2483],[112.24678578766145,54.846037945244717,1233.7009],[112.22735775527076,54.856929417948578,1178.6133],[112.21263954891418,54.858989966838493,1203.3605],[112.19998189144746,54.855751961440063,1199.3695],[112.1882073263622,54.848687222388889,1240.0259],[112.18202567969246,54.839856298574944,1173.251],[112.17849331016686,54.831614103015255,1170.0723],[112.19586079366763,54.814246619514478,1169.9368],[112.22559157050796,54.806887516336189,1169.9713],[112.3171388140459,54.804238239192017,1170.1936],[112.33892175945363,54.811891706497448,1170.119],[112.34893013977614,54.827493005235425,1184.8619],[112.34304285723346,54.851925227787348,1179.51],[112.32420355309705,54.871647624305155,1201.974]]]}}