{"type":"Feature","properties":{"featurecla":"Lake","scalerank":9,"name":"null464","name_abb":null,"name_alt":null,"note":"_untitled_282","delta":null,"dam_name":null,"year":-99,"admin":null,"min_zoom":7.0,"min_label":8.0},
"geometry":{"type": "Polygon","coordinates": [[[111.69514741341669,52.685405252098263,947.0],[111.68543339722135,52.685405252098263,947.0],[111.67513065277171,52.690115078132351,947.0],[111.65746880514382,52.69511926829361,948.5105],[111.63421403910041,52.690998170513751,947.0],[111.61360855020121,52.68010669780989,947.0],[111.60330580575157,52.665977219707571,947.0],[111.59653543082754,52.632714073341674,947.0],[111.62920984893918,52.61652404634944,950.0402],[111.671303919119,52.619173323493641,950.8229],[111.69220377214538,52.635657714612989,950.0352],[111.69426432103529,52.643016817791306,949.4155],[111.70338960897635,52.65920684478354,949.2814],[111.70574452199344,52.669509589233144,950.722],[111.70280088072212,52.682461610826948,951.5676],[111.69514741341669,52.685405252098263,947.0]]]}}