{"type":"Feature","properties":{"featurecla":"Lake","scalerank":9,"name":"Ozero Baunt","name_abb":"O. Baunt","name_alt":"Lake Baunt","note":null,"delta":null,"dam_name":null,"year":-99,"admin":null,"min_zoom":7.0,"min_label":8.0},
"geometry":{"type": "Polygon","coordinates": [[[113.09484883792777,55.173076490488,1065.5403],[113.1033853976146,55.235481685439908,1062.0907],[113.11604305508126,55.260797000373231,1057.5],[113.11515996269986,55.271688473077091,1079.8041],[113.0972037509448,55.27669266323835,1141.2367],[113.07954190331691,55.271688473077091,1067.324],[113.02773381694175,55.235481685439908,1127.0933],[112.92912183435266,55.209872006379442,1090.6057],[112.91852472577591,55.208400185743784,1105.9484],[112.90704452481776,55.197803077167066,1057.5],[112.89468123147822,55.190149609861635,1062.9333],[112.88084611750304,55.184556691446119,1073.1785],[112.86436172638366,55.181024321920546,1090.7371],[112.88202357401155,55.169838485089542,1057.5],[113.03509292012006,55.153648458097308,1057.5],[113.07807008268128,55.158358284131424,1057.5],[113.09484883792777,55.173076490488,1065.5403]]]}}