{"type":"Feature","properties":{"featurecla":"Lake","scalerank":9,"name":"Ozero Bolshaya Kharga","name_abb":"O. Bolshaya Kharga","name_alt":"Lake Bolshaya Kharga","note":null,"delta":null,"dam_name":null,"year":-99,"admin":null,"min_zoom":7.0,"min_label":8.0},
"geometry":{"type": "Polygon","coordinates": [[[111.85469277032206,52.883217945530731,944.0],[111.82878872713445,52.8661448261571,944.0],[111.81142124363367,52.84642242963929,944.0],[111.83379291729568,52.837591505825316,944.4365],[111.86735042778872,52.837591505825316,945.0981],[111.89443192748485,52.849954799164863,948.1906],[111.89737556875616,52.8782137553695,945.1158],[111.88059681350961,52.889988320454762,944.0],[111.85469277032206,52.883217945530731,944.0]]]}}