{"type":"Feature","properties":{"featurecla":"Lake","scalerank":9,"name":"null463","name_abb":null,"name_alt":null,"note":"_untitled_283","delta":null,"dam_name":null,"year":-99,"admin":null,"min_zoom":7.0,"min_label":8.0},
"geometry":{"type": "Polygon","coordinates": [[[111.81613106966779,55.29994742928173,1455.161],[111.81465924903216,55.3061290759515,1633.5253],[111.81083251537945,55.312310722621277,1627.078],[111.80877196648953,55.314371271511192,1601.9473],[111.80523959696393,55.31760927690965,1559.4629],[111.75166532582597,55.31849236929105,1921.1757],[111.73724148359651,55.31672618452825,1659.217],[111.72399509787556,55.312310722621277,1554.5317],[111.72546691851124,55.306717804205761,1454.7406],[111.73547529883371,55.30171361404453,1450.6255],[111.74901604868177,55.298475608646072,1451.5574],[111.76079061376703,55.297003788010414,1450.4465],[111.81171560776085,55.297003788010414,1453.551],[111.81613106966779,55.29994742928173,1455.161]]]}}