{"type":"Feature","properties":{"GID_2":"RUS.56.16_1","GID_0":"RUS","country":"Russia","GID_1":"RUS.56_1","province":"Primor'ye","NL_NAME_1":"Приморскийкрай","county":"Krasnoarmeyskiyrayon","VARNAME_2":"NA","NL_NAME_2":"Красноармейскийрайон","TYPE_2":"Raion","ENGTYPE_2":"District","CC_2":"R66000","HASC_2":"RU.PR.KR","name":"Krasnoarmeyskiyrayon.county"},
"geometry":{"type": "MultiPolygon","coordinates": [[[[135.8249,45.1422,1013.3837],[135.8864,45.2088,912.8402],[135.926,45.2162,1075.2094],[135.9792,45.22,638.683],[136.0826,45.236,490.571],[136.1749,45.2681,696.2266],[136.3117,45.3355,1139.8153],[136.3738,45.4377,820.3677],[136.4224,45.5488,666.0175],[136.4935,45.6626,710.3391],[136.5278,45.6845,648.1735],[136.5565,45.69,694.1224],[136.6073,45.6922,470.2379],[136.6221,45.735,744.0472],[136.5574,45.766,781.5577],[136.598,45.7862,1185.8989],[136.6257,45.7764,1249.7118],[136.6607,45.799,571.8013],[136.6438,45.8377,1274.797],[136.5996,45.8629,1353.7645],[136.5649,45.9164,1054.9109],[136.6118,45.9486,1262.6567],[136.6639,45.9933,898.5536],[136.7159,46.06,936.8882],[136.692,46.0974,1199.022],[136.7191,46.1361,1388.9504],[136.7719,46.1721,1395.9773],[136.7186,46.2337,1140.6169],[136.7379,46.2736,969.055],[136.7373,46.298,1099.6764],[136.6982,46.3052,894.7573],[136.6434,46.3515,872.3635],[136.6191,46.3921,632.6588],[136.5,46.4193,1070.0194],[136.3503,46.436,1207.5972],[136.2944,46.4469,999.8738],[136.2417,46.4271,1023.9722],[136.1966,46.4218,1118.1696],[136.1534,46.4532,1151.5769],[136.0849,46.4711,773.614],[136.0418,46.4483,662.6284],[135.9984,46.438,1056.1892],[136.0159,46.5005,849.1652],[136.0123,46.5394,1134.0798],[135.9659,46.5688,452.4392],[135.9434,46.5853,401.9242],[135.9025,46.6362,295.0339],[135.7995,46.5401,419.4899],[135.7513,46.5109,370.3725],[135.6995,46.4925,458.3512],[135.6931,46.579,358.0615],[135.6417,46.5283,498.6542],[135.5842,46.4863,766.7046],[135.5408,46.4169,951.3054],[135.3248,46.3002,500.7882],[135.2259,46.2871,353.2544],[135.0992,46.2993,200.6365],[134.9722,46.2826,137.1869],[134.8822,46.2502,244.7476],[134.772,46.1947,358.1974],[134.7443,46.2035,186.8942],[134.756,46.2421,243.6051],[134.7276,46.2625,276.6832],[134.6562,46.2646,176.6173],[134.6043,46.252,350.502],[134.5723,46.1915,360.7525],[134.4961,46.1719,375.0252],[134.4617,46.1154,116.2142],[134.4251,46.1121,85.8842],[134.3617,46.149,118.4513],[134.2701,46.1474,233.3974],[134.2433,46.1187,170.0558],[134.1308,46.1096,124.1533],[134.0807,46.0816,104.3889],[134.0557,46.0573,157.9448],[134.0219,46.0559,289.668],[133.998,46.0097,289.6477],[133.9672,45.9187,65.6237],[134.0561,45.8907,71.2783],[134.2122,45.8809,89.6764],[134.2869,45.8818,190.5256],[134.3471,45.8605,206.7757],[134.3651,45.8122,249.4749],[134.403,45.7643,231.2267],[134.3817,45.7313,274.7943],[134.3258,45.7129,231.7148],[134.271,45.7178,178.7118],[134.2543,45.7625,198.9236],[134.2118,45.7914,106.01],[134.1712,45.7752,83.5766],[134.145,45.7358,88.4687],[134.1729,45.7188,137.322],[134.2183,45.7166,173.536],[134.2575,45.659,238.7582],[134.4693,45.6462,159.1099],[134.5382,45.6326,234.9046],[134.6152,45.5845,316.6545],[134.5999,45.5542,431.7329],[134.6624,45.5304,917.3964],[134.7245,45.542,706.1007],[134.7575,45.5652,807.9536],[134.8292,45.5626,670.8837],[134.8674,45.5441,724.4257],[134.9159,45.5641,798.6082],[134.9643,45.5343,662.8022],[134.961,45.4909,436.6017],[134.9302,45.4669,481.8052],[134.9405,45.4304,521.0989],[134.9157,45.4102,652.6366],[134.8065,45.4093,370.7329],[134.7995,45.3704,400.0081],[134.8763,45.3228,1178.4656],[134.9312,45.2943,818.5407],[134.9305,45.2528,845.3763],[135.0085,45.286,545.5015],[135.0489,45.2706,823.8224],[135.035,45.2344,864.3268],[135.0943,45.1746,824.2488],[135.1421,45.1224,756.3192],[135.1728,45.0467,879.7297],[135.1893,45.042,902.9093],[135.2421,45.1065,663.9171],[135.2887,45.102,859.0812],[135.2814,45.0619,789.5168],[135.3188,45.0538,725.0007],[135.4087,45.0743,555.1843],[135.4943,45.0514,769.1982],[135.5461,45.0339,565.019],[135.5809,45.0025,520.8902],[135.6458,45.0448,697.3199],[135.6794,45.0498,531.7679],[135.7665,45.1247,772.1196],[135.8249,45.1422,1013.3837]]]]}}