{"type":"Feature","properties":{"GID_3":"RUS.28.14.1_1","GID_0":"RUS","country":"Russia","GID_1":"RUS.28_1","province":"Khabarovsk","NL_NAME_1":"Хабаровскийкрай","GID_2":"RUS.28.14_1","county":"Nikolaevskiyrayon","NL_NAME_2":"Николаевскийрайон","city":"NA","VARNAME_3":"NA","NL_NAME_3":"NA","TYPE_3":"NA","ENGTYPE_3":"NA","CC_3":"NA","HASC_3":"NA","name":"N_A.city"},
"geometry":{"type": "MultiPolygon","coordinates": [[[[141.3741,52.4362,0.0],[141.376,52.4341,7.2574],[141.3789,52.4368,8.5904],[141.3768,52.4374,0.0],[141.3741,52.4362,0.0]]],
[[[141.38,52.44,0.0],[141.3831,52.4389,10.0054],[141.3865,52.4424,13.9246],[141.3864,52.4484,8.8128],[141.3839,52.4506,0.0],[141.3819,52.4504,0.0],[141.379,52.4459,0.4605],[141.38,52.44,0.0]]],
[[[141.385,52.4665,20.0887],[141.3733,52.4694,2.6383],[141.3689,52.4669,23.2361],[141.36,52.4669,14.9369],[141.3424,52.4631,20.5033],[141.3364,52.4639,11.8723],[141.3338,52.4659,0.0],[141.3285,52.4636,4.1169],[141.3286,52.4556,0.0],[141.3327,52.4532,0.0],[141.3371,52.4571,34.7711],[141.3477,52.4573,23.3989],[141.3577,52.4558,13.2555],[141.363,52.4528,0.822],[141.3621,52.4545,8.3853],[141.3649,52.4545,4.2554],[141.3692,52.459,13.8301],[141.3742,52.4614,0.0],[141.3834,52.4606,17.1371],[141.3899,52.464,0.0],[141.3898,52.4653,0.0],[141.385,52.4665,20.0887]]],
[[[141.3882,52.5072,0.0],[141.3767,52.5103,23.3214],[141.3751,52.5035,2.3293],[141.3767,52.5024,5.4892],[141.3812,52.5036,0.0],[141.3842,52.5017,0.0],[141.3928,52.5052,0.0],[141.3882,52.5072,0.0]]],
[[[141.3678,52.5108,2.5349],[141.3689,52.5092,2.4724],[141.3711,52.51,2.2254],[141.3706,52.5106,1.2764],[141.3678,52.5108,2.5349]]],
[[[141.3638,52.5147,8.9491],[141.3615,52.517,35.0159],[141.3566,52.5178,3.6748],[141.348,52.5172,0.0],[141.3468,52.515,0.0],[141.3544,52.511,2.5315],[141.3638,52.5147,8.9491]]],
[[[141.455,53.1439,0.0],[141.4583,53.1469,0.0],[141.4561,53.1492,0.0],[141.4522,53.1489,0.0],[141.4456,53.1444,0.0],[141.4439,53.1461,0.0],[141.445,53.1475,0.0],[141.4422,53.1483,0.0],[141.4311,53.1433,0.0],[141.43,53.1397,0.0],[141.4344,53.1372,0.0],[141.4456,53.1369,0.0],[141.45,53.1383,0.0],[141.455,53.1439,0.0]]],
[[[141.42,53.2316,0.8101],[141.4222,53.2308,4.8764],[141.4248,53.233,0.0],[141.4228,53.2334,7.5715],[141.42,53.2316,0.8101]]],
[[[141.3178,53.0758,0.8011],[141.315,53.0767,0.9316],[141.3111,53.0736,1.0916],[141.3056,53.0731,1.0535],[141.3,53.0753,1.0157],[141.2922,53.075,0.8821],[141.2883,53.0733,0.857],[141.2872,53.0708,0.6984],[141.2906,53.0694,1.0675],[141.2994,53.0706,1.0276],[141.3067,53.0689,0.9572],[141.3178,53.0733,0.745],[141.3178,53.0758,0.8011]]],
[[[141.2168,53.3746,0.0],[141.2205,53.3735,0.0],[141.223,53.3756,0.0],[141.2178,53.3771,0.0],[141.2168,53.3746,0.0]]],
[[[141.2561,53.4064,3.3016],[141.244,53.4108,0.0],[141.2383,53.4086,0.0],[141.2495,53.3992,0.6049],[141.2533,53.4,0.0],[141.2583,53.3978,1.2828],[141.2606,53.3942,1.341],[141.2783,53.3869,1.1728],[141.2778,53.3856,1.1728],[141.2828,53.3819,0.0],[141.2917,53.3814,0.0],[141.295,53.3786,0.0],[141.3056,53.3758,2.7579],[141.305,53.3742,1.1657],[141.3083,53.375,0.0],[141.3061,53.3781,2.4193],[141.3072,53.38,0.0],[141.2972,53.3858,0.4091],[141.2956,53.3889,2.5184],[141.2972,53.3894,2.4989],[141.3083,53.3839,2.6081],[141.3083,53.3825,1.4318],[141.3128,53.38,1.3499],[141.3122,53.3775,0.0],[141.315,53.3772,0.3569],[141.3172,53.3789,1.9433],[141.32,53.3775,1.5878],[141.3172,53.3747,0.0],[141.3256,53.3719,0.0],[141.3289,53.3736,0.0],[141.3,53.3914,0.0],[141.2728,53.3992,0.0],[141.2561,53.4064,3.3016]]],
[[[141.4456,53.3044,0.0],[141.433,53.3038,0.0],[141.4317,53.2994,0.0],[141.4351,53.2988,1.5332],[141.4439,53.3019,0.0],[141.4478,53.2972,0.0],[141.45,53.2972,0.0],[141.45,53.3019,0.0],[141.4456,53.3044,0.0]]],
[[[141.3595,53.3522,0.0],[141.3422,53.3528,0.0],[141.3383,53.3514,1.5571],[141.3244,53.3511,0.0],[141.3189,53.3483,0.6582],[141.3156,53.3433,0.0],[141.3206,53.3389,0.2762],[141.3194,53.3369,0.0],[141.3256,53.3331,1.5807],[141.325,53.33,1.0643],[141.3322,53.3275,0.0],[141.3378,53.3292,1.1286],[141.3489,53.3269,0.0],[141.3622,53.3272,0.0],[141.3633,53.3283,0.0],[141.3539,53.3317,0.0],[141.3539,53.3336,0.0],[141.3572,53.3358,0.0],[141.3628,53.3367,0.7342],[141.3656,53.3406,1.7452],[141.3678,53.3408,1.6257],[141.3722,53.335,0.8911],[141.3739,53.3286,0.0],[141.3828,53.3244,2.3859],[141.3822,53.3228,0.0],[141.3839,53.3219,0.0],[141.3911,53.32,0.0],[141.3933,53.3217,0.0],[141.3978,53.3197,0.0],[141.4017,53.3211,0.0],[141.4272,53.3158,1.0931],[141.4339,53.3111,0.6624],[141.4489,53.3083,0.0],[141.455,53.3053,1.5834],[141.4583,53.2969,0.0],[141.4744,53.2956,0.0],[141.4783,53.2969,0.0],[141.4822,53.2956,0.0],[141.485,53.2975,0.0],[141.47,53.31,0.0],[141.435,53.3247,1.9331],[141.4322,53.3264,1.5443],[141.4311,53.3294,1.7066],[141.425,53.3319,1.6741],[141.4261,53.3328,0.3457],[141.4206,53.3342,0.7789],[141.4044,53.3428,0.5003],[141.3828,53.3497,0.8233],[141.3595,53.3522,0.0]]],
[[[141.3294,51.9008,1.4139],[141.3278,51.8992,0.0],[141.3328,51.9,0.0],[141.3322,51.9017,0.0],[141.3294,51.9008,1.4139]]],
[[[141.3154,52.2887,0.0],[141.3203,52.2893,0.0],[141.3171,52.2911,3.2632],[141.3148,52.2898,6.7882],[141.3154,52.2887,0.0]]],
[[[141.2083,52.3972,5.7668],[141.2066,52.401,3.4105],[141.1965,52.4,0.0],[141.1981,52.3985,13.3849],[141.1967,52.3964,0.0],[141.2005,52.3924,7.556],[141.198,52.3849,1.095],[141.2074,52.3831,0.0],[141.2134,52.3867,3.7687],[141.2194,52.3876,23.0142],[141.2178,52.3917,6.1475],[141.2118,52.3938,0.0],[141.2083,52.3972,5.7668]]],
[[[141.2921,52.5165,3.9539],[141.2824,52.5184,12.9934],[141.2821,52.5159,13.4979],[141.2787,52.5137,0.0],[141.2884,52.5119,0.0],[141.299,52.5128,2.7725],[141.3028,52.5155,2.7165],[141.2921,52.5165,3.9539]]],
[[[141.1793,52.4015,4.8943],[141.1838,52.4006,8.2491],[141.1897,52.4024,0.0],[141.1768,52.4061,0.0],[141.1736,52.4055,0.0],[141.1793,52.4015,4.8943]]],
[[[141.1185,52.4626,-0.0153],[141.1235,52.4632,0.0526],[141.1201,52.4644,0.058],[141.1156,52.4619,-0.1876],[141.1185,52.4626,-0.0153]]],
[[[141.1194,52.4781,0.1654],[141.1207,52.4749,0.0439],[141.1245,52.4769,0.0376],[141.124,52.4788,0.034],[141.1217,52.4797,0.034],[141.1194,52.4781,0.1654]]],
[[[141.1987,52.8206,0.0],[141.2005,52.819,5.1708],[141.2039,52.8195,0.0],[141.2003,52.8208,0.0],[141.1987,52.8206,0.0]]],
[[[141.2566,52.5202,0.0],[141.2608,52.5172,5.1026],[141.2623,52.5183,0.0],[141.2578,52.5202,2.6592],[141.2566,52.5202,0.0]]],
[[[141.2428,53.0628,0.6539],[141.2472,53.0619,0.0],[141.2444,53.0689,0.2001],[141.2406,53.0661,0.2793],[141.2411,53.0633,0.0],[141.2428,53.0628,0.6539]]],
[[[141.2939,53.0675,1.0524],[141.2844,53.0706,0.6984],[141.28,53.0692,0.9764],[141.2728,53.0697,0.9104],[141.275,53.0667,0.6788],[141.2805,53.0647,0.8183],[141.2961,53.0661,1.1314],[141.2939,53.0675,1.0524]]],
[[[141.2411,53.07,0.327],[141.2433,53.0706,0.5251],[141.2406,53.0731,0.544],[141.2389,53.0711,0.3522],[141.2272,53.0717,0.2512],[141.2328,53.0667,0.0],[141.2345,53.0681,0.1306],[141.2333,53.0694,0.4564],[141.2356,53.0703,0.2753],[141.2372,53.0658,0.1241],[141.2411,53.07,0.327]]],
[[[141.0731,52.9848,1.2669],[141.0617,52.9847,1.4045],[141.0553,52.9812,0.8828],[141.0541,52.9773,0.0],[141.065,52.9696,0.402],[141.0749,52.9664,0.0],[141.0819,52.9666,0.3226],[141.072,52.9733,0.5378],[141.0659,52.9745,1.1612],[141.0652,52.9764,0.7192],[141.0774,52.978,0.7145],[141.0872,52.9736,1.125],[141.0863,52.9724,1.125],[141.0889,52.9711,0.1039],[141.0978,52.9717,0.5807],[141.0978,52.9761,0.4673],[141.0917,52.9778,1.9303],[141.0872,52.9811,0.2644],[141.0731,52.9848,1.2669]]],
[[[139.7887,54.2422,25.9929],[139.7868,54.2455,56.959],[139.7865,54.2442,105.915],[139.7683,54.2521,203.1496],[139.7252,54.2179,251.4783],[139.6843,54.1887,410.1107],[139.6495,54.1486,260.5228],[139.5813,54.1136,239.3629],[139.5474,54.0601,831.7374],[139.4911,54.0235,769.3545],[139.432,53.9803,645.7767],[139.4374,53.9424,437.1884],[139.3844,53.9147,223.7764],[139.2349,53.8418,130.7189],[139.1858,53.8582,231.9067],[139.1645,53.888,440.9479],[139.0897,53.9065,461.8847],[139.056,53.9516,422.837],[138.9717,53.9392,384.879],[138.8818,53.9318,533.0586],[138.8194,53.8285,172.6094],[138.7462,53.7631,350.1747],[138.8129,53.6984,171.9523],[138.765,53.626,198.4219],[138.7233,53.5552,431.1618],[138.7916,53.5393,221.9161],[138.8473,53.5306,175.8613],[138.9168,53.523,195.9956],[138.9592,53.4945,346.3876],[138.9943,53.461,284.855],[139.0263,53.4442,196.2973],[139.0743,53.4606,281.7983],[139.1489,53.5028,427.9753],[139.2155,53.5503,319.7338],[139.254,53.5607,222.1385],[139.2933,53.5358,202.2],[139.398,53.5329,285.6805],[139.4564,53.4986,221.8798],[139.5573,53.4856,108.0726],[139.56,53.4503,60.0614],[139.537,53.3774,166.1679],[139.5978,53.353,37.2588],[139.5886,53.2846,80.4345],[139.5488,53.2701,179.8338],[139.6221,53.2285,5.0017],[139.6791,53.162,3.8335],[139.7598,53.192,3.2009],[139.797,53.2256,3.1304],[139.8436,53.2377,2.6364],[139.9388,53.2371,2.2622],[139.9597,53.2471,2.2982],[139.9456,53.2703,2.7523],[139.9971,53.3043,160.8175],[140.0496,53.2967,1.9013],[140.0637,53.26,1.7509],[140.0254,53.2309,3.1344],[140.102,53.1679,2.5046],[140.1358,53.146,2.8613],[140.1056,53.0935,176.0549],[140.0325,53.0241,95.2623],[140.1746,52.9791,170.0356],[140.3499,52.906,198.9086],[140.411,52.9035,108.7882],[140.4677,52.9825,460.357],[140.524,52.9946,420.1633],[140.6517,52.9813,287.7639],[140.7307,52.9654,105.5717],[140.7279,52.908,385.5535],[140.8261,52.9374,153.2519],[140.9048,52.9129,109.778],[140.9053,52.8649,170.8434],[140.9769,52.8233,278.0204],[140.9453,52.7653,212.0033],[140.8884,52.6851,336.8045],[140.8095,52.6935,314.8834],[140.7293,52.7229,513.6807],[140.6678,52.7215,451.7763],[140.6335,52.6935,227.5042],[140.5969,52.6414,364.3312],[140.6732,52.6239,522.6057],[140.7983,52.5671,378.1772],[140.8147,52.5425,230.4002],[140.7394,52.5209,260.6494],[140.6515,52.5008,177.8447],[140.6064,52.4552,335.045],[140.6474,52.4209,405.4268],[140.7432,52.3945,390.2429],[140.8591,52.3552,357.7586],[140.9851,52.297,181.2925],[140.98,52.2618,137.3859],[140.9469,52.2359,242.608],[140.9809,52.2107,160.4825],[140.9797,52.188,305.143],[140.9585,52.1754,297.0559],[141.0239,52.1129,199.651],[141.0007,52.0705,376.2342],[140.9565,52.0204,102.3245],[140.9644,51.9573,286.5806],[140.9589,51.9155,367.1864],[141.0074,51.9055,373.3609],[141.0721,51.8993,142.4323],[141.1452,51.8493,128.728],[141.17,51.8286,0.0],[141.18,51.8372,16.5475],[141.1844,51.8392,23.0975],[141.1922,51.8475,5.2955],[141.1972,51.8497,0.0],[141.235,51.8575,15.6634],[141.2444,51.8564,0.0],[141.2505,51.8586,0.0],[141.2379,51.8657,0.0],[141.2379,51.8692,33.9875],[141.245,51.8747,0.0],[141.245,51.8772,8.5595],[141.2472,51.8792,3.896],[141.2606,51.885,0.0],[141.2739,51.8889,22.5409],[141.2811,51.8858,7.7597],[141.2939,51.8911,7.756],[141.2994,51.8906,28.4477],[141.3022,51.8917,0.0],[141.3017,51.8936,80.1486],[141.3039,51.8972,17.7647],[141.3253,51.9051,0.0],[141.3339,51.9122,24.7961],[141.3517,51.9186,0.0],[141.3628,51.9197,15.0041],[141.3653,51.9166,0.0],[141.3848,51.9169,0.0],[141.3899,51.9142,0.0],[141.3911,51.9189,23.7241],[141.3961,51.9211,0.0],[141.3956,51.9256,0.0],[141.3928,51.9278,8.3436],[141.3967,51.9331,16.4423],[141.395,51.935,6.4427],[141.3978,51.9378,0.0],[141.3967,51.9389,71.4988],[141.3978,51.9408,16.7065],[141.4084,51.9471,40.7936],[141.4175,51.9483,0.0],[141.4178,51.9514,8.5966],[141.4214,51.9527,7.4433],[141.4225,51.9554,0.0],[141.4163,51.9575,3.8151],[141.4135,51.9602,22.994],[141.4136,51.9629,17.5982],[141.4165,51.966,11.9558],[141.4149,51.9697,9.2383],[141.4036,51.9693,0.0],[141.3966,51.9672,0.0],[141.3903,51.9692,1.6089],[141.3832,51.9776,0.0],[141.3706,51.9819,21.3229],[141.3663,51.9868,2.6636],[141.3566,51.9864,1.2828],[141.3509,51.9882,1.0957],[141.3522,51.9903,0.0],[141.3444,51.9986,1.2026],[141.345,52.0,1.2871],[141.3411,52.0085,1.2259],[141.3392,52.021,0.0],[141.3398,52.026,0.0],[141.338,52.0308,0.4442],[141.3397,52.0361,0.0],[141.3386,52.0405,0.8036],[141.3446,52.0587,0.9936],[141.3437,52.0635,1.0437],[141.3454,52.0659,0.4499],[141.3436,52.0685,1.0527],[141.3462,52.0722,0.9039],[141.346,52.0775,0.9649],[141.3487,52.0835,1.1072],[141.352,52.085,0.0],[141.3485,52.0934,1.0596],[141.3493,52.0995,0.4949],[141.3542,52.1,0.0],[141.3644,52.1096,0.1697],[141.3886,52.1231,0.101],[141.4191,52.1437,0.3121],[141.4239,52.1446,0.0],[141.4262,52.1472,1.3265],[141.4393,52.1527,1.1753],[141.4628,52.1597,0.2636],[141.4744,52.1614,0.7379],[141.4814,52.1589,3.6123],[141.4894,52.1614,0.694],[141.502,52.1617,0.6779],[141.5172,52.16,3.1281],[141.5202,52.1569,0.0],[141.5431,52.1514,1.1702],[141.5466,52.1521,7.4682],[141.539,52.1642,0.0],[141.5393,52.1678,0.0],[141.5371,52.1724,0.0],[141.5342,52.1753,27.6754],[141.5299,52.1763,5.3385],[141.5252,52.1831,0.0],[141.5253,52.1851,0.0],[141.5283,52.1875,6.4991],[141.5301,52.1949,0.0],[141.5386,52.2043,3.1463],[141.5204,52.2132,7.0523],[141.514,52.2192,3.2719],[141.5149,52.2222,1.0417],[141.525,52.2291,0.0],[141.5288,52.2357,0.0],[141.5222,52.2382,10.0755],[141.5136,52.2379,1.3388],[141.5133,52.2406,0.0],[141.5117,52.2414,0.0],[141.5081,52.2373,0.3969],[141.5033,52.2348,0.525],[141.5076,52.2219,6.1697],[141.4953,52.2178,3.1141],[141.4855,52.2164,7.2311],[141.4814,52.2166,8.7638],[141.4777,52.219,0.0],[141.4573,52.2206,0.0],[141.4552,52.2217,15.1059],[141.4547,52.225,1.2017],[141.4528,52.2256,0.0],[141.4492,52.2188,0.0],[141.442,52.2169,3.9181],[141.4019,52.2187,3.5778],[141.3845,52.2226,0.0],[141.3821,52.2267,3.9892],[141.37,52.2316,32.5347],[141.362,52.2418,0.0],[141.3535,52.2445,5.1503],[141.3408,52.2523,1.3308],[141.3378,52.2555,0.0],[141.3386,52.2596,3.5412],[141.3329,52.2646,4.1749],[141.3287,52.2733,15.4333],[141.3179,52.2809,4.5147],[141.3143,52.2862,10.792],[141.2936,52.2845,4.053],[141.2852,52.287,3.8067],[141.2788,52.2869,7.9278],[141.258,52.2939,1.6253],[141.2525,52.2974,21.8316],[141.25,52.3007,0.0],[141.2515,52.3026,0.0],[141.243,52.3051,22.164],[141.2422,52.3088,9.5001],[141.2468,52.3145,0.0],[141.2547,52.3164,6.6908],[141.2527,52.3197,35.9697],[141.2506,52.3212,5.6949],[141.2444,52.3215,2.8095],[141.2356,52.3181,8.2094],[141.2279,52.3203,18.2198],[141.2267,52.3223,0.0],[141.2281,52.3243,0.0],[141.2279,52.3294,0.0],[141.2219,52.3303,16.6541],[141.2207,52.3335,4.8649],[141.2126,52.3354,4.317],[141.2144,52.3386,0.0],[141.2099,52.3458,0.0],[141.2108,52.3489,0.0],[141.2025,52.3487,37.7233],[141.1979,52.3512,5.7735],[141.1981,52.3534,0.0],[141.1966,52.3542,0.0],[141.1902,52.3532,24.8406],[141.1848,52.3572,0.0],[141.1719,52.359,3.8208],[141.1667,52.3621,0.0],[141.1609,52.3601,7.288],[141.1583,52.3552,6.5021],[141.1428,52.3522,3.4263],[141.1574,52.3566,0.0],[141.1594,52.3613,2.0627],[141.1679,52.3649,0.1151],[141.1591,52.3688,0.5988],[141.1586,52.3728,-0.1362],[141.1469,52.381,0.3305],[141.1456,52.3849,0.274],[141.1364,52.3858,0.4497],[141.1316,52.3938,-0.0777],[141.1368,52.397,0.1009],[141.1284,52.3965,-0.0235],[141.1273,52.3974,-0.0015],[141.1301,52.3988,0.1096],[141.1297,52.4,0.1096],[141.1237,52.3989,0.0156],[141.1209,52.4008,0.0785],[141.1206,52.4048,-0.0665],[141.1167,52.4101,0.6216],[141.1218,52.4154,0.0],[141.1188,52.4188,0.4862],[141.1215,52.4218,0.0],[141.1141,52.4264,0.8613],[141.1203,52.4269,0.0],[141.1213,52.4279,0.0],[141.1192,52.4293,0.0109],[141.123,52.4285,0.0],[141.1246,52.4297,0.2009],[141.1194,52.4342,0.0],[141.1227,52.4369,0.0],[141.1212,52.44,0.0],[141.1222,52.4424,0.0],[141.1106,52.4467,0.2107],[141.1157,52.4495,-0.0203],[141.1192,52.4492,0.0774],[141.1205,52.4516,0.2819],[141.1159,52.4529,0.0522],[141.1172,52.4558,0.0112],[141.1146,52.4563,0.1913],[141.1141,52.4581,-0.0295],[141.1079,52.4598,0.0872],[141.1198,52.4664,0.0],[141.1122,52.4688,0.2581],[141.1141,52.4696,0.0326],[141.1135,52.4729,0.1923],[141.1191,52.4733,0.0],[141.1152,52.4748,0.0116],[141.1128,52.4776,0.4556],[141.1106,52.4839,6.0373],[141.1194,52.4889,0.1498],[141.1228,52.4936,0.7862],[141.1333,52.4978,1.2417],[141.1483,52.5081,2.006],[141.1578,52.5097,3.4974],[141.1694,52.5072,6.2043],[141.18,52.5086,1.3222],[141.1878,52.5064,0.1926],[141.2128,52.5088,11.7746],[141.2223,52.5171,0.0],[141.2222,52.5244,0.0],[141.2279,52.532,0.0],[141.2283,52.5358,0.8771],[141.2425,52.5516,0.0],[141.2418,52.558,2.8169],[141.2535,52.5835,0.0],[141.2571,52.588,0.0],[141.265,52.589,0.0],[141.2673,52.5916,0.0],[141.2667,52.5939,0.0],[141.2608,52.5995,0.0],[141.2601,52.6131,0.0],[141.2546,52.6429,11.0722],[141.2625,52.6524,6.1718],[141.2706,52.652,0.0],[141.2758,52.6555,22.9076],[141.2812,52.6557,24.488],[141.2843,52.6583,0.0],[141.2824,52.66,10.4792],[141.2807,52.6664,8.3457],[141.2715,52.6673,0.0],[141.2603,52.6732,0.9661],[141.2553,52.6779,1.2339],[141.2504,52.6871,0.0],[141.2478,52.7069,3.5468],[141.2468,52.7365,0.0],[141.2393,52.7438,0.0],[141.2278,52.7464,4.6675],[141.2205,52.7528,2.3386],[141.22,52.7556,0.0],[141.2152,52.7571,1.2189],[141.1961,52.7725,7.1826],[141.1866,52.7737,19.1307],[141.1784,52.7779,2.4076],[141.1734,52.7828,10.969],[141.1696,52.784,0.0],[141.1635,52.7917,8.1981],[141.1647,52.8002,0.0],[141.1673,52.8053,0.0],[141.1727,52.8105,1.0163],[141.1787,52.8124,0.0],[141.1792,52.8144,0.0],[141.1862,52.8198,0.9033],[141.1828,52.8215,9.4767],[141.1826,52.824,7.7898],[141.1888,52.8315,3.0321],[141.1981,52.8388,3.9757],[141.1996,52.842,0.0],[141.2226,52.8563,0.0],[141.2381,52.8614,0.0],[141.24,52.866,0.0],[141.2346,52.8684,27.1445],[141.2235,52.8678,13.7476],[141.2141,52.8655,14.6854],[141.2062,52.8599,2.2761],[141.1952,52.8567,4.3983],[141.1725,52.8564,25.2688],[141.1448,52.8659,2.0217],[141.125,52.8751,55.8116],[141.1144,52.8828,25.2303],[141.0993,52.8872,0.0],[141.0705,52.8828,3.2784],[141.0643,52.8846,0.0],[141.0594,52.8839,0.4607],[141.0623,52.8861,0.0],[141.056,52.8877,0.5392],[141.0541,52.8905,1.7979],[141.0551,52.8946,5.6448],[141.0587,52.8977,2.0461],[141.0529,52.9092,0.0],[141.041,52.9246,0.6737],[141.0318,52.9242,4.6213],[141.0181,52.927,7.6487],[140.9928,52.9247,9.1547],[140.9847,52.9254,31.8819],[140.9629,52.933,14.7295],[140.9551,52.9397,1.6571],[140.9489,52.9546,25.1782],[140.9504,52.9708,0.0],[140.9484,52.9776,10.6517],[140.9411,52.9925,3.363],[140.9281,53.005,14.0846],[140.9296,53.0094,9.9307],[140.9251,53.0134,7.8544],[140.9236,53.0165,0.0],[140.9256,53.0186,0.0],[140.9222,53.0208,0.0],[140.9228,53.0253,0.3241],[140.93,53.0347,0.0],[140.93,53.0367,0.0],[140.9267,53.0369,0.0],[140.9122,53.03,2.2966],[140.9004,53.028,3.1323],[140.8899,53.0309,2.5569],[140.8783,53.0369,7.1559],[140.8739,53.0372,5.0178],[140.8637,53.0437,14.0931],[140.8469,53.0479,0.0],[140.8367,53.0408,0.0],[140.8278,53.0403,3.2285],[140.8261,53.0414,3.8946],[140.8272,53.0447,0.0],[140.8144,53.0614,22.9871],[140.8141,53.0655,5.8588],[140.7989,53.0761,0.0],[140.7933,53.0767,13.9514],[140.7865,53.0819,14.7809],[140.775,53.0875,3.7204],[140.7722,53.0949,0.0],[140.7679,53.0975,0.0],[140.765,53.1019,1.2284],[140.7225,53.1117,18.6659],[140.725,53.1279,0.0],[140.7263,53.1283,0.0],[140.7195,53.1301,0.4926],[140.725,53.1308,0.0],[140.7228,53.1322,3.9415],[140.7239,53.1331,3.9415],[140.7272,53.1322,0.3971],[140.7317,53.1342,4.3041],[140.7372,53.1342,1.9593],[140.7389,53.1361,5.8433],[140.7456,53.1342,0.7644],[140.75,53.1372,0.0562],[140.7489,53.1386,0.0562],[140.7544,53.1383,0.0],[140.7661,53.1417,7.5252],[140.7783,53.1414,3.8469],[140.7883,53.1386,0.0],[140.8006,53.1378,7.16],[140.8067,53.135,0.0],[140.8133,53.1367,0.0],[140.8183,53.1361,7.3083],[140.8233,53.1322,3.8906],[140.8328,53.1303,0.0],[140.8378,53.1233,0.0],[140.8461,53.1194,0.0],[140.8506,53.1153,0.0],[140.8628,53.11,0.4291],[140.8628,53.1072,0.0],[140.8608,53.1051,0.0],[140.8617,53.1028,0.0],[140.8633,53.1019,0.0],[140.8633,53.0998,0.0],[140.8678,53.0969,6.8141],[140.8683,53.0925,0.0],[140.875,53.0872,15.4494],[140.8728,53.0839,0.3637],[140.875,53.08,0.3218],[140.8811,53.0806,1.9203],[140.8905,53.0842,24.3579],[140.9083,53.0792,13.3678],[140.9233,53.0786,0.0],[140.9483,53.0694,2.5869],[140.9611,53.0675,17.2354],[140.9733,53.0617,0.0],[140.98,53.0572,25.7824],[140.9811,53.0542,0.0],[141.0058,53.0402,1.22],[141.0155,53.0375,11.6714],[141.0261,53.0319,0.0],[141.0317,53.0278,5.3427],[141.0322,53.0256,2.9726],[141.0428,53.0267,0.0],[141.0633,53.0203,0.0],[141.0723,53.0156,10.8857],[141.0794,53.0172,6.0402],[141.0854,53.0162,4.0626],[141.0937,53.0106,13.7241],[141.0961,53.0011,0.0],[141.1017,52.9974,17.4829],[141.1189,53.0028,4.2245],[141.1233,52.9975,1.8609],[141.1222,52.995,24.8148],[141.1234,52.9933,3.6143],[141.1393,52.9909,26.7471],[141.1468,52.9913,1.4956],[141.1552,52.9946,3.8019],[141.1774,52.9996,8.2471],[141.202,53.0013,0.0],[141.2058,53.0047,7.9603],[141.1983,53.0075,5.6184],[141.1983,53.0111,3.8301],[141.2083,53.0183,1.5814],[141.2072,53.0214,16.7746],[141.2367,53.0283,0.0],[141.245,53.0336,0.0],[141.2439,53.0364,9.0416],[141.2461,53.0381,1.2618],[141.2578,53.0419,0.0],[141.2444,53.0478,20.5343],[141.2448,53.0535,0.0],[141.2417,53.0558,3.2089],[141.2239,53.06,2.4659],[141.2195,53.0672,1.6119],[141.2206,53.0697,0.3011],[141.2406,53.08,0.853],[141.25,53.0825,0.9903],[141.2522,53.0858,1.0483],[141.2572,53.0831,0.7517],[141.2839,53.0833,0.7984],[141.2861,53.0839,0.4851],[141.285,53.0856,0.9914],[141.2928,53.0864,0.4524],[141.2989,53.0889,1.6635],[141.3156,53.0886,0.1963],[141.3372,53.0839,3.5871],[141.34,53.0811,15.1404],[141.3394,53.0794,4.6846],[141.3461,53.0769,0.0],[141.35,53.0772,1.5354],[141.3578,53.0811,1.5825],[141.3683,53.0825,1.4125],[141.37,53.0836,1.4125],[141.3622,53.0872,0.8101],[141.3628,53.0886,0.8101],[141.3539,53.0908,0.0],[141.3539,53.0928,0.0],[141.3439,53.1011,11.0096],[141.3461,53.1053,0.0],[141.3456,53.1086,0.692],[141.3572,53.1147,11.1297],[141.3661,53.1172,0.0],[141.3672,53.1203,0.0],[141.3611,53.1272,0.204],[141.3622,53.135,0.0],[141.3639,53.1369,0.0],[141.39,53.1428,0.0],[141.395,53.1425,0.0],[141.3983,53.1447,0.0],[141.4106,53.1442,0.3703],[141.4194,53.1522,1.8975],[141.4222,53.1519,1.4744],[141.42,53.1478,0.6502],[141.4211,53.1461,0.0],[141.4267,53.145,0.0],[141.4439,53.1525,0.0],[141.4367,53.1567,0.0],[141.4439,53.1611,0.0],[141.4428,53.1633,0.0],[141.4439,53.1644,4.6663],[141.4322,53.1692,0.0],[141.4328,53.1728,0.0],[141.4228,53.1792,4.4499],[141.4106,53.1931,5.0582],[141.4094,53.1992,0.555],[141.4117,53.2039,0.0],[141.4072,53.2114,3.7639],[141.4089,53.2153,3.0196],[141.4189,53.2214,0.561],[141.415,53.2233,26.9636],[141.415,53.2256,6.4718],[141.4044,53.2272,0.0],[141.3933,53.2256,0.0],[141.3895,53.2267,4.9535],[141.3861,53.2247,1.3065],[141.365,53.2217,1.7165],[141.3567,53.2253,0.0],[141.35,53.225,0.0],[141.3478,53.2267,0.0],[141.3489,53.2283,0.0],[141.3467,53.2292,0.0],[141.3472,53.2306,0.0],[141.3417,53.2306,0.0],[141.3422,53.2331,0.309],[141.3656,53.2394,0.0],[141.3678,53.2411,0.0],[141.3672,53.2433,0.0],[141.3717,53.2453,0.0],[141.3828,53.2442,0.0],[141.3944,53.2472,0.0],[141.3922,53.2486,0.0],[141.3944,53.2508,0.0],[141.3905,53.2522,0.0],[141.3861,53.25,0.0],[141.3761,53.2508,1.6198],[141.3828,53.2533,0.0],[141.3861,53.2578,0.0],[141.3917,53.2567,0.0],[141.3922,53.2614,0.0],[141.3967,53.2639,0.0],[141.39,53.2642,0.0],[141.3895,53.2669,0.0],[141.4055,53.285,0.351],[141.4167,53.2911,0.3],[141.4156,53.2925,9.6367],[141.4172,53.2956,22.5612],[141.4094,53.3025,0.0],[141.4017,53.3053,13.6993],[141.3917,53.3,3.9884],[141.3844,53.2986,9.5055],[141.3717,53.2997,10.4967],[141.3661,53.3023,0.0],[141.3666,53.3054,0.0],[141.3633,53.3056,0.0],[141.3517,53.3,9.629],[141.3413,53.3001,0.0],[141.3378,53.2981,5.6101],[141.3328,53.3,2.6783],[141.3217,53.2997,3.811],[141.3161,53.3036,0.9719],[141.2883,53.3086,14.0902],[141.2828,53.3147,3.0116],[141.2794,53.3117,5.2347],[141.2694,53.3078,4.7937],[141.2439,53.3042,3.9415],[141.2389,53.3061,0.0],[141.2372,53.3083,0.0],[141.2261,53.3081,0.719],[141.2094,53.3128,0.3266],[141.2078,53.3144,0.0],[141.21,53.3172,0.0],[141.2061,53.3214,0.0],[141.2011,53.32,0.0],[141.1978,53.3222,0.0],[141.1967,53.3172,0.0],[141.19,53.3175,0.2474],[141.1744,53.3317,0.0],[141.1689,53.3322,0.0],[141.165,53.3364,0.0],[141.1567,53.3378,1.8112],[141.15,53.345,0.5831],[141.1367,53.3539,5.102],[141.1255,53.3589,0.0],[141.1217,53.3592,0.0],[141.115,53.3633,0.0],[141.11,53.3642,0.0],[141.095,53.375,0.0],[141.085,53.3728,0.0],[141.0956,53.3786,0.0],[141.0956,53.38,0.0],[141.0928,53.3811,0.0],[141.0978,53.3828,0.0],[141.0956,53.3844,0.2416],[141.0983,53.3869,0.305],[141.1061,53.3881,0.0],[141.1111,53.3908,0.0],[141.1128,53.3942,1.1037],[141.1095,53.3969,0.0],[141.0947,53.401,0.0],[141.0822,53.3989,0.0],[141.0589,53.3994,0.576],[141.0456,53.4031,0.316],[141.0289,53.4036,1.2509],[140.992,53.4125,1.3985],[140.9832,53.411,1.2376],[140.9896,53.4144,0.8391],[140.9867,53.4208,0.8397],[140.9889,53.4245,0.8363],[140.9883,53.4306,1.0354],[140.9961,53.4439,1.5211],[140.9944,53.445,1.5211],[140.9863,53.4453,10.4929],[140.9722,53.4428,0.0],[140.9639,53.4383,1.1787],[140.9611,53.4356,0.0],[140.9589,53.4292,5.1755],[140.9533,53.4267,8.7525],[140.91,53.4247,6.4718],[140.905,53.4267,0.5003],[140.9072,53.4288,0.0],[140.9059,53.435,0.0],[140.9071,53.4388,0.0],[140.9095,53.441,0.0],[140.913,53.4491,0.0],[140.9088,53.4566,2.1951],[140.9017,53.4639,0.2325],[140.9022,53.465,0.2325],[140.8967,53.4689,15.7988],[140.91,53.4683,0.0],[140.915,53.4697,1.6938],[140.915,53.4756,5.8959],[140.9206,53.4786,0.0],[140.9194,53.4797,0.0],[140.9206,53.4814,1.2519],[140.9278,53.4867,0.0],[140.9311,53.4933,4.3145],[140.935,53.4925,0.6366],[140.9437,53.4972,1.2419],[140.9522,53.4966,0.8484],[140.9553,53.4947,0.3889],[140.9937,53.4868,0.4596],[141.0041,53.4832,1.0541],[141.0061,53.4809,0.485],[141.0139,53.4817,0.0],[141.0244,53.4792,3.0389],[141.0283,53.4753,0.0],[141.0339,53.475,0.0],[141.0378,53.47,0.4221],[141.0494,53.4728,2.9252],[141.0556,53.4714,1.5054],[141.0667,53.4644,0.0],[141.1067,53.4567,0.5],[141.115,53.4506,0.0],[141.1272,53.4464,0.0],[141.1311,53.4483,0.0],[141.1239,53.4514,3.3622],[141.1217,53.4547,0.4905],[141.0928,53.4653,0.6323],[141.0544,53.4747,0.0],[141.0367,53.4775,2.3401],[140.9922,53.4894,0.0],[140.9422,53.4997,2.2912],[140.8939,53.5144,3.7466],[140.8317,53.53,4.4537],[140.815,53.5372,0.0],[140.7772,53.5497,3.183],[140.7505,53.556399999999996,2.7239],[140.7189,53.5683,12.052],[140.6739,53.5919,5.8069],[140.6478,53.6008,0.2828],[140.63,53.6039,0.9023],[140.6311,53.605,0.9023],[140.63,53.6069,2.7496],[140.62,53.6131,1.3493],[140.5939,53.6219,4.7714],[140.5561,53.6411,3.3386],[140.5228,53.6628,3.2544],[140.5155,53.6692,5.6653],[140.5072,53.6797,10.2608],[140.5056,53.6847,6.382],[140.5063,53.6895,10.5143],[140.5083,53.6922,4.7164],[140.5072,53.6931,14.3277],[140.5094,53.6939,11.6409],[140.5145,53.7025,0.9052],[140.5217,53.7067,4.9292],[140.5211,53.7097,4.712],[140.5172,53.7133,2.8414],[140.4867,53.7261,6.4185],[140.4761,53.7322,0.7234],[140.4153,53.7509,2.1583],[140.3745,53.7669,1.6573],[140.3728,53.7667,1.7306],[140.375,53.7656,1.6573],[140.3739,53.7653,5.3885],[140.3606,53.7706,0.7431],[140.3561,53.7692,2.8768],[140.3572,53.7717,3.5629],[140.345,53.7786,5.0125],[140.3644,53.7708,0.2992],[140.3456,53.7797,3.0165],[140.3117,53.8039,4.3685],[140.3061,53.8117,3.2564],[140.305,53.8158,0.0],[140.2928,53.825,3.1126],[140.2717,53.8475,0.9857],[140.2645,53.8614,7.0752],[140.2606,53.8642,3.1564],[140.2533,53.8736,7.9567],[140.2556,53.8936,3.1322],[140.2589,53.8986,0.0],[140.2672,53.9022,0.9136],[140.2706,53.9081,3.0125],[140.2756,53.9103,0.0],[140.2796,53.9213,3.1049],[140.2978,53.9267,0.0],[140.305,53.9267,0.0],[140.3094,53.9283,2.1487],[140.3133,53.9378,5.6388],[140.3172,53.9419,0.0],[140.3278,53.9464,0.0],[140.3249,53.9495,2.8327],[140.3256,53.9511,0.8993],[140.33,53.9525,0.0],[140.3289,53.9558,0.0],[140.283,53.9689,0.0],[140.2811,53.9722,0.0],[140.2707,53.9717,32.8644],[140.2531,53.9767,6.9366],[140.2316,53.9851,15.0243],[140.2078,53.9991,0.0],[140.2056,54.0025,7.7389],[140.2116,54.0099,0.0],[140.2113,54.0126,9.2847],[140.2159,54.0217,2.2064],[140.2104,54.0334,3.6235],[140.2096,54.0426,0.0],[140.1992,54.0549,0.0],[140.1739,54.0628,0.8952],[140.1603,54.0635,22.531],[140.1514,54.0677,19.3888],[140.1395,54.0706,16.8316],[140.1344,54.0738,0.0],[140.1195,54.078,0.436],[140.1177,54.0793,3.3947],[140.1176,54.0822,0.0],[140.1102,54.0802,83.3426],[140.0936,54.0817,16.1726],[140.0605,54.0923,0.0],[140.0291,54.0997,3.5988],[139.9851,54.1135,142.3485],[139.9496,54.1276,51.1849],[139.9307,54.1378,19.7128],[139.9183,54.1495,8.7961],[139.8918,54.1644,62.8748],[139.8761,54.1764,25.0218],[139.8739,54.18,45.5027],[139.875,54.1825,7.587],[139.8889,54.1875,0.0],[139.89,54.1917,6.3042],[139.8917,54.1925,0.0],[139.8833,54.1956,3.1063],[139.88,54.1983,13.1606],[139.8768,54.1979,13.1606],[139.8755,54.1947,15.4105],[139.8676,54.1905,0.0],[139.8605,54.1844,0.0],[139.8589,54.1811,2.2104],[139.8528,54.1803,25.7542],[139.8288,54.1863,1.0037],[139.7939,54.2006,0.8877],[139.7811,54.2114,12.6531],[139.7767,54.22,9.3154],[139.782,54.2232,0.0],[139.7841,54.2267,0.0],[139.7839,54.2319,0.0],[139.7867,54.2356,26.3271],[139.7872,54.2414,107.5781],[139.7887,54.2422,25.9929]],
[[140.763,53.19,54.2335],[140.7711,53.1832,169.1251],[140.7562,53.1641,212.488],[140.7354,53.1613,144.1792],[140.7065,53.1679,13.1496],[140.6942,53.1914,124.3758],[140.721,53.2083,208.5405],[140.7525,53.1988,226.6545],[140.763,53.19,54.2335]]],
[[[140.85,53.0858,0.2561],[140.8445,53.0872,0.0],[140.8261,53.0847,0.6366],[140.825,53.0831,0.7139],[140.8283,53.0822,5.2755],[140.85,53.0675,1.799],[140.8556,53.0658,0.0],[140.8578,53.0692,0.0],[140.8533,53.0722,0.7242],[140.8511,53.0764,0.9869],[140.8528,53.0786,0.0],[140.8483,53.0806,0.3952],[140.8528,53.0831,0.0],[140.85,53.0858,0.2561]]],
[[[140.8244,53.0922,0.0],[140.8178,53.0928,0.0],[140.8139,53.0911,0.0],[140.8233,53.0883,0.0],[140.8294,53.0892,0.0],[140.8244,53.0922,0.0]]],
[[[141.2082,53.3827,0.0],[141.2132,53.3848,0.0],[141.2023,53.39,0.7955],[141.1953,53.3883,0.3389],[141.2058,53.3842,0.6524],[141.2082,53.3827,0.0]]],
[[[141.1148,53.4467,0.4937],[141.1095,53.4478,0.0],[141.1122,53.4453,0.0],[141.1233,53.4419,0.0],[141.1439,53.4392,2.8015],[141.1544,53.4353,0.0],[141.1644,53.4358,3.7738],[141.1672,53.4328,0.8465],[141.185,53.4269,2.8786],[141.19,53.4169,0.0],[141.1967,53.4186,0.0],[141.1928,53.4194,0.0],[141.1928,53.4211,0.0],[141.1956,53.4219,0.0],[141.1989,53.4206,1.304],[141.2,53.4183,0.8554],[141.1989,53.4172,1.3117],[141.2039,53.4167,0.0],[141.2061,53.4183,0.0],[141.2022,53.4194,0.0],[141.2056,53.4214,0.8784],[141.2111,53.4172,3.5857],[141.2089,53.4147,0.0],[141.2106,53.4136,0.0],[141.2233,53.4125,1.7799],[141.2306,53.4094,1.3155],[141.235,53.4103,0.0],[141.2328,53.4144,0.0],[141.2256,53.4164,2.5914],[141.2222,53.4203,0.0],[141.2072,53.4236,3.494],[141.2017,53.4278,0.0],[141.175,53.4392,0.0],[141.1339,53.4414,0.0],[141.1148,53.4467,0.4937]]],
[[[141.0817,53.4467,2.5954],[141.0783,53.4478,0.0],[141.0744,53.4467,0.6058],[141.069,53.4402,0.0],[141.071,53.439,0.6331],[141.0743,53.4401,0.0],[141.0828,53.445,0.0],[141.0817,53.4467,2.5954]]]]}}