{"type":"Feature","properties":{"GID_3":"RUS.56.28.1_1","GID_0":"RUS","country":"Russia","GID_1":"RUS.56_1","province":"Primor'ye","NL_NAME_1":"Приморскийкрай","GID_2":"RUS.56.28_1","county":"Spassk-Dal'nyy","NL_NAME_2":"Спасск-Дальний","city":"NA","VARNAME_3":"NA","NL_NAME_3":"NA","TYPE_3":"NA","ENGTYPE_3":"NA","CC_3":"NA","HASC_3":"NA","name":"N_A.city"},
"geometry":{"type": "MultiPolygon","coordinates": [[[[132.8068,44.546,126.1325],[132.8118,44.5482,137.2455],[132.8137,44.5524,147.0628],[132.8116,44.5572,144.1212],[132.8072,44.5589,127.0248],[132.7979,44.5584,110.6302],[132.7933,44.5537,118.3614],[132.7941,44.5501,121.9055],[132.8019,44.5455,120.6378],[132.8068,44.546,126.1325]]]]}}