{"type":"Feature","properties":{"GID_2":"RUS.9.12_1","GID_0":"RUS","country":"Russia","GID_1":"RUS.9_1","province":"Buryat","NL_NAME_1":"РеспубликаБурятия","county":"Mukhorshibirskiyrayon","VARNAME_2":"NA","NL_NAME_2":"Мухоршибирскийрайон","TYPE_2":"Raion","ENGTYPE_2":"District","CC_2":"R60001","HASC_2":"RU.BU.MK","name":"Mukhorshibirskiyrayon.county"},
"geometry":{"type": "MultiPolygon","coordinates": [[[[108.2886,50.9655,1076.936],[108.2951,51.0081,1031.0016],[108.3238,51.0182,1194.7151],[108.3895,51.0204,1091.2369],[108.4418,51.0323,878.2327],[108.4886,51.0514,889.4312],[108.5492,51.0941,1005.9921],[108.537,51.1134,838.7587],[108.4987,51.1377,952.9476],[108.4412,51.1482,1029.0596],[108.3722,51.1817,914.1414],[108.3889,51.2205,832.0936],[108.4332,51.2407,821.617],[108.4563,51.2788,946.6665],[108.4579,51.3474,903.7924],[108.4853,51.3918,1270.4612],[108.4405,51.4375,1062.4265],[108.3821,51.4737,1049.9268],[108.3237,51.4909,824.5566],[108.2662,51.4842,877.5234],[108.1729,51.468,1007.3814],[108.0815,51.4458,1000.6653],[108.0305,51.4003,944.0889],[107.9676,51.3653,1265.7745],[107.9175,51.3854,1056.5544],[107.9051,51.4054,1317.7279],[107.864,51.3829,1180.5798],[107.8522,51.361,1294.1465],[107.8445,51.3158,1210.8118],[107.8065,51.3025,982.5267],[107.752,51.3182,1016.509],[107.7137,51.2877,872.2118],[107.7086,51.2614,792.6807],[107.6396,51.2523,809.3918],[107.5989,51.2764,841.2923],[107.5967,51.3166,1009.5142],[107.5486,51.3269,887.3287],[107.513,51.3105,1081.2166],[107.4498,51.2637,1023.6785],[107.4261,51.2387,900.5464],[107.3537,51.2202,890.5559],[107.2858,51.1869,741.1213],[107.2897,51.1389,598.3249],[107.2629,51.1179,574.2794],[107.1685,51.097,557.0781],[107.055,51.0688,543.6682],[107.0656,51.0144,548.4739],[107.0438,50.9987,572.4857],[107.0453,50.9613,580.1497],[106.972,50.9339,657.4442],[106.9457,50.9147,750.5485],[106.9481,50.8723,683.6099],[107.017,50.8627,720.5948],[107.0956,50.8244,656.2369],[107.1502,50.7897,717.4578],[107.1962,50.7653,844.7642],[107.2393,50.7506,947.0804],[107.2921,50.7698,1151.9648],[107.3324,50.8273,1014.6086],[107.4481,50.8724,1122.176],[107.6658,50.8924,994.7948],[107.7514,50.8771,1163.6697],[107.8157,50.8884,1268.5145],[107.8776,50.9488,1005.3127],[107.9332,50.9703,1007.2211],[108.003,50.9417,1042.7004],[108.0889,50.9502,1029.7688],[108.1462,50.9657,1061.9727],[108.215,50.9667,883.4719],[108.2886,50.9655,1076.936]]]]}}