{"type":"Feature","properties":{"featurecla":"River","scalerank":8,"rivernum":874,"dissolve":"874River","name":"Vakh1","name_alt":null,"note":null,"min_zoom":7.0,"strokeweig":0.2,"name_en":"Vakh","min_label":8.0},
"geometry":{"type": "LineString","coordinates": [[85.266503906250023,61.29352448124412,151.6532],[85.090234375000023,61.29242584843162,124.0698],[85.055078125000023,61.30097077030662,121.9193],[85.0556640625,61.32916901249412,129.7785],[84.998242187500011,61.34625885624412,127.0249],[84.884960937500011,61.361835028119117,120.6043],[84.875,61.36835358280662,128.1761],[84.861328125,61.383417059369123,117.2288],[84.850341796875,61.38910553593162,118.4738],[84.835693359375,61.390643621869117,120.9104],[84.795019531250034,61.382928778119123,118.8204],[84.685791015625,61.382928778119123,115.2052],[84.6728515625,61.38458893436912,121.2167],[84.644921875000023,61.39594147343162,117.7984],[84.60205078125,61.40180084843162,110.3839],[84.565039062500034,61.41339752811912,133.5283],[84.365478515625,61.414422918744123,113.0218],[84.313232421875,61.42243073124412,110.5247],[84.26806640625,61.451190496869117,106.4541],[84.274316406250023,61.451190496869117,100.7387],[84.258203125000023,61.46161530155662,110.5572],[84.218457031250011,61.475458074994123,109.177],[84.2197265625,61.485370184369117,107.572],[84.199462890625,61.50116608280662,105.8899],[84.169921875,61.50946686405662,111.9542],[84.1064453125,61.51325104374412,102.0874],[84.091064453125,61.50983307499412,100.8929],[84.071533203125,61.49494049686912,104.8446],[84.058398437499989,61.49152252811912,102.7226],[84.039453125000023,61.490497137494117,100.8188],[83.909277343750034,61.46002838749412,100.909],[83.8701171875,61.45612213749412,97.927],[83.829296875000011,61.44061920780662,105.6544],[83.810302734375,61.43573639530662,98.3471],[83.772851562500023,61.443133856244117,100.5863],[83.753515625000034,61.444354559369117,91.6807],[83.70068359375,61.43183014530662,91.1809],[83.67333984375,61.42047760624412,99.1203],[83.654296875,61.406512762494117,99.2667],[83.6337890625,61.38202545780662,98.753],[83.616943359375,61.36749909061912,97.3981],[83.595605468750023,61.36127350468162,93.365],[83.475976562500023,61.37213776249412,101.7642],[83.397363281250023,61.389667059369117,98.8403],[83.379638671875,61.391376043744117,106.845],[83.366455078125,61.38605377811912,92.0327],[83.354101562500034,61.374872137494123,89.3721],[83.343457031250011,61.37189362186912,88.9124],[83.33154296875,61.37518952030662,91.1934],[83.295117187500011,61.39203522343162,90.304],[83.286376953125,61.39423248905662,89.1683],[83.258691406250023,61.396844793744123,84.1479],[83.212890625,61.39594147343162,88.64],[83.223535156250023,61.414911199994123,80.565],[83.214941406250034,61.42023346561912,106.7121],[83.134179687500023,61.415399481244123,86.7838],[82.887109375000023,61.43402741093162,90.5837],[82.84326171875,61.448016668744117,75.0],[82.8212890625,61.451190496869117,84.7845],[82.808398437499989,61.455340887494117,74.5],[82.779052734375,61.473993231244123,84.779],[82.760498046875,61.479120184369123,98.5682],[82.738378906250034,61.47772858280662,78.6897],[82.693945312500034,61.46735260624412,78.8074],[82.670996093750034,61.464862371869117,88.0846],[82.649658203125,61.46857330936912,80.2884],[82.60693359375,61.483661199994117,91.3725],[82.582275390625,61.485370184369117,93.3545],[82.582275390625,61.479120184369123,80.0255],[82.589257812500023,61.46308014530662,83.2121],[82.570068359375,61.455682684369123,77.4757],[82.54052734375,61.45746491093162,84.73],[82.5166015625,61.46857330936912,81.5176],[82.50439453125,61.476092840619117,84.9859],[82.489648437500023,61.479120184369123,86.218],[82.45849609375,61.479120184369123,86.2483],[82.44287109375,61.481317449994123,88.9206],[82.404199218750023,61.49896881718162,87.146],[82.340722656250023,61.49982330936912,69.0],[82.303417968750011,61.495721746869123,81.3885],[82.286865234375,61.48847077030662,76.2865],[82.283203125,61.476922918744123,79.3829],[82.274121093750011,61.46967194218162,88.487799999999993],[82.262109375000023,61.465936590619123,73.1705],[82.234082031250011,61.46210358280662,78.3252],[82.206933593750023,61.44904205936912,76.1172],[82.191308593750023,61.444354559369117,78.4784],[82.185156250000034,61.44599030155662,75.8918],[82.176367187500034,61.44989655155662,79.8256],[82.16650390625,61.45270416874412,79.1606],[82.1572265625,61.451190496869117,79.329],[82.152734375000023,61.44537994999412,82.6726],[82.154394531250034,61.43915436405662,82.6117],[82.157324218750034,61.433856512494117,87.4577],[82.1572265625,61.43073151249412,83.7003],[82.144775390625,61.42780182499412,83.1209],[82.10595703125,61.43073151249412,82.5725],[82.04736328125,61.420184637494117,86.0352],[82.038964843750023,61.40875885624412,67.2364],[82.01904296875,61.407831121869123,78.8],[81.928417968750011,61.42951080936912,70.1689],[81.910058593750023,61.43073151249412,70.2561],[81.89453125,61.428094793744123,69.6973],[81.864501953125,61.41852448124412,82.8024],[81.833740234375,61.41425202030662,69.5208],[81.8095703125,61.404901434369123,75.9639],[81.797119140625,61.40277741093162,73.7821],[81.62646484375,61.40582916874412,75.6208],[81.598876953125,61.39252350468162,71.6153],[81.572656250000023,61.375506903119117,68.0415],[81.547119140625,61.373651434369123,66.8821],[81.492431640625,61.382928778119123,64.1222],[81.463281250000023,61.37897369999412,63.9386],[81.407128906250023,61.359491278119123,63.0188],[81.379150390625,61.354999090619117,65.4155],[81.357177734375,61.348895574994117,62.7225],[81.317480468750034,61.31867096561912,61.3035],[81.293701171875,61.30719635624412,59.7496],[81.261962890625,61.30609772343162,66.6655],[81.234375,61.313348699994123,63.4156],[81.208105468750034,61.316766668744123,64.3008],[81.168212890625,61.29938385624412,61.5545],[81.13818359375,61.29694244999412,62.1448],[81.12548828125,61.290399481244123,59.0146],[81.115917968750011,61.28278229374412,56.9127],[81.08154296875,61.265643621869117,56.379],[81.07470703125,61.263446356244117,56.6129],[81.060644531250034,61.26141998905662,64.6182],[81.05419921875,61.259393621869123,59.4425],[81.049218750000023,61.254754949994123,62.7573],[81.045117187500011,61.24286530155662,59.8067],[81.04052734375,61.23895905155662,55.5013],[81.025781250000023,61.23688385624412,59.4513],[81.009960937500011,61.23737213749412,57.4211],[80.994873046875,61.23602936405662,59.0111],[80.96875,61.22040436405662,58.6736],[80.95458984375,61.21991608280662,59.5101],[80.927001953125,61.224627996869117,59.8023],[80.910839843750011,61.22333405155662,55.2998],[80.868554687500023,61.21100494999412,58.4017],[80.82763671875,61.20746491093162,60.4286],[80.81396484375,61.20416901249412,55.1714],[80.775,61.18585846561912,56.4232],[80.759033203125,61.18366119999412,57.9499],[80.745898437499989,61.187372137494123,55.4178],[80.730224609375,61.19452545780662,53.6719],[80.714648437499989,61.19891998905662,54.2962],[80.70068359375,61.194208074994123,55.1719],[80.688574218750034,61.18732330936912,53.8505],[80.610449218750034,61.17328522343162,54.3223],[80.512304687500034,61.16998932499412,52.3343],[80.465576171875,61.16303131718162,52.5263],[80.450781250000034,61.16657135624412,58.3662],[80.437109375000034,61.17182037968162,53.0885],[80.406982421875,61.17743561405662,53.2788],[80.395605468750034,61.17743561405662,53.3474]]}}