{"type":"Feature","properties":{"featurecla":"River","scalerank":7,"rivernum":635,"dissolve":"635River","name":"null96","name_alt":null,"note":null,"min_zoom":6.0,"strokeweig":0.3,"name_en":null,"min_label":7.0},
"geometry":{"type": "LineString","coordinates": [[73.960839843750023,61.18244049686912,27.0],[73.960351562500023,61.15680573124412,33.6903],[73.964453125,61.14862702030662,34.1496],[73.9814453125,61.136493231244117,34.4067],[74.007714843750023,61.12250397343162,32.8652],[74.017578125,61.112909246869123,33.6962],[74.005615234375,61.10858795780662,34.3853],[73.994873046875,61.106317449994123,33.7741],[73.9703125,61.09650299686912,36.6965],[73.939697265625,61.090204168744123,33.7078],[73.9326171875,61.08063385624412,35.3631],[73.928613281250023,61.06928131718162,33.4134],[73.919921875,61.06012604374412,31.1417],[73.8935546875,61.055438543744117,31.9523],[73.85849609375,61.05878327030662,33.7692],[73.823437500000011,61.06708405155662,36.5862],[73.797119140625,61.077508856244123,33.268],[73.7828125,61.080096746869117,32.1784],[73.767578125,61.07623932499412,26.6235],[73.7525390625,61.070575262494117,26.0],[73.73876953125,61.06757233280662,38.2257],[73.72119140625,61.071161199994123,34.1072],[73.712597656250011,61.07929108280662,30.2603],[73.70751953125,61.088251043744123,32.8239],[73.70078125,61.09430573124412,33.0757],[73.67197265625,61.09503815311912,32.4888],[73.641015625000023,61.08710358280662,30.8743],[73.60986328125,61.08356354374412,32.6157],[73.580761718750011,61.09772369999412,32.5654],[73.576074218750023,61.10724518436912,31.5546],[73.575439453125,61.11749909061912,32.3742],[73.573144531250023,61.125751043744117,26.488],[73.563720703125,61.12909577030662,32.4245],[73.53271484375,61.128924871869117,33.2366],[73.51904296875,61.12702057499412,32.2618],[73.44052734375,61.104999090619117,32.5929],[73.31396484375,61.08832428593162,32.9078],[73.231640625000011,61.08795807499412,30.913],[73.215722656250023,61.085809637494123,31.8024],[73.201074218750023,61.08136627811912,31.3044],[73.18701171875,61.07379791874412,30.2729],[73.2203125,61.06232330936912,31.1304],[73.370703125,61.06024811405662,35.1394],[73.386132812500023,61.056415106244117,30.9788],[73.392480468750023,61.046502996869123,29.8754],[73.386962890625,61.03656647343162,33.1185],[73.37451171875,61.030536199994117,31.7958],[73.282617187500023,61.01984284061912,34.1364],[73.273193359375,61.01544830936912,32.821],[73.25732421875,60.99396393436912,32.3827],[73.2490234375,60.98566315311912,31.8477],[73.215234375000023,60.97968170780662,31.593],[73.13974609375,60.988299871869117,31.6998],[73.111230468750023,60.97138092655662,32.8638],[73.11865234375,60.96454498905662,34.1131],[73.103515625,60.955096746869117,31.4029],[73.086816406250023,60.950946356244117,30.9933],[73.0146484375,60.95062897343162,30.983],[72.9478515625,60.94245026249412,30.6696],[72.8212890625,60.95990631718162,29.1224],[72.785546875000023,60.969256903119117,30.0682],[72.75009765625,60.97321198124412,29.1756],[72.6734375,60.99420807499412,31.9011],[72.655957031250011,60.99237702030662,30.7906],[72.64111328125,60.985223699994123,30.8856],[72.628662109375,60.97479889530662,30.7443],[72.6298828125,60.96588776249412,33.6661],[72.643945312500023,60.95661041874412,26.824],[72.67294921875,60.944696356244123,29.1723],[72.64599609375,60.929559637494123,29.9608],[72.608154296875,60.933465887494123,29.0281],[72.504296875000023,60.955585028119117,27.4349],[72.485742187500023,60.96674225468162,29.5786],[72.46982421875,60.98029205936912,30.8197],[72.44638671875,60.99188873905662,29.7594],[72.410058593750023,60.99823639530662,29.5825],[72.302734375,60.99188873905662,30.194],[72.26962890625,60.99555084843162,29.6076],[72.205322265625,61.01056549686912,29.4183],[72.172753906250023,61.012323309369123,29.1353],[72.110058593750011,61.00580475468162,28.379],[72.07958984375,61.00885651249412,55.2057],[72.052978515625,61.02326080936912,30.0691],[72.025634765625,61.032586981244123,29.0806],[71.986523437500011,61.03143952030662,29.6294],[71.891357421875,61.01544830936912,29.27],[71.87939453125,61.016229559369123,29.7669],[71.8642578125,61.01984284061912,29.0367],[71.8251953125,61.037713934369123,27.5611],[71.74267578125,61.06244537968162,28.8978],[71.70224609375,61.05902741093162,28.3999],[71.685449218750023,61.06012604374412,28.6192],[71.680566406250023,61.06281159061912,28.2937],[71.670654296875,61.070672918744123,28.9927],[71.665625,61.07379791874412,28.5272],[71.5943359375,61.09906647343162,28.1587],[71.359619140625,61.105340887494123,28.0292],[71.343457031250011,61.10858795780662,29.3382],[71.333740234375,61.11774323124412,25.2023],[71.329492187500023,61.129022528119123,22.6012],[71.324609375000023,61.13861725468162,26.7398],[71.3125,61.142694403119123,27.2404],[71.28427734375,61.146502996869117,27.7508],[71.270263671875,61.146112371869123,28.9545],[71.257519531250011,61.13959381718162,27.8367],[71.24755859375,61.131463934369123,27.3354],[71.23642578125,61.12421295780662,22.0241],[71.224853515625,61.11847565311912,28.2599],[71.213134765625,61.114764715619117,27.2049],[71.1939453125,61.11322662968162,27.0135],[71.156982421875,61.11627838749412,23.593],[71.137451171875,61.114764715619117,27.9667],[71.12509765625,61.11005280155662,26.6606],[71.102783203125,61.09699127811912,26.7489],[71.086816406250023,61.09430573124412,26.1912],[70.89169921875,61.115497137494117,21.8218],[70.78271484375,61.15717194218162,25.6616],[70.7197265625,61.163202215619123,26.7941],[70.57568359375,61.155780340619117,26.1369],[70.56259765625,61.152704168744123,25.3813],[70.547753906250023,61.139520574994123,31.8582],[70.535058593750023,61.136493231244117,26.4006],[70.521240234375,61.13812897343162,24.2991],[70.4814453125,61.149530340619123,29.0906],[70.3740234375,61.149530340619123,24.9751],[70.35947265625,61.15167877811912,25.057],[70.328125,61.16107819218162,25.9869],[70.312255859375,61.163202215619123,26.3868],[70.2822265625,61.16107819218162,26.6066],[70.253662109375,61.155780340619117,25.5931],[70.214453125,61.15265534061912,26.1669],[70.099609375,61.163202215619123,25.2686],[70.01708984375,61.151629949994117,19.1234],[69.986718750000023,61.155780340619117,18.3182],[69.93896484375,61.17743561405662,18.3182],[69.9208984375,61.181268621869123,23.6515],[69.863183593750023,61.18366119999412,27.4471],[69.848876953125,61.181512762494123,18.5121],[69.821533203125,61.17218659061912,25.8081],[69.80859375,61.16998932499412,24.8695],[69.7333984375,61.17743561405662,24.6017],[69.70908203125,61.17536041874412,26.1351],[69.683496093750023,61.16950104374412,25.9357],[69.65966796875,61.15973541874412,24.8217],[69.640625,61.146112371869123,24.7461],[69.62744140625,61.14118073124412,18.9239],[69.61572265625,61.14789459843162,26.7835],[69.60595703125,61.15802643436912,22.2418],[69.59912109375,61.163202215619123,24.8127],[69.584375,61.162372137494117,24.8914],[69.57431640625,61.159540106244123,25.094],[69.566650390625,61.15424225468162,23.469],[69.55810546875,61.146112371869123,24.4035],[69.54501953125,61.14118073124412,24.4988],[69.489501953125,61.142694403119123,22.3319],[69.47509765625,61.14057037968162,23.6544],[69.447265625,61.13117096561912,25.1693],[69.4345703125,61.12909577030662,24.4713],[69.38232421875,61.13117096561912,22.9917],[69.355859375000023,61.13617584843162,22.5233],[69.329003906250023,61.146112371869123,23.438],[69.30185546875,61.151239324994123,23.69],[69.27099609375,61.14642975468162,24.1031],[69.241796875,61.13544342655662,20.2428],[69.21884765625,61.122186590619123,23.1843],[69.2119140625,61.115497137494117,23.5847],[69.207275390625,61.10956452030662,22.8824],[69.200097656250023,61.104754949994117,22.7781],[69.185302734375,61.10114166874412,23.8151],[69.169335937500023,61.10101959843162,22.8148],[69.15673828125,61.104608465619123,22.0344],[69.1123046875,61.12653229374412,22.7663],[69.099365234375,61.129657293744117,23.4913],[69.082275390625,61.12909577030662,22.9694],[69.0712890625,61.12518952030662,23.002],[69.0513671875,61.11249420780662,17.2892],[69.040722656250011,61.10858795780662,17.1937],[69.023828125000023,61.10883209843162,24.2396],[68.993896484375,61.119012762494123,23.7193],[68.97861328125,61.122186590619123,23.9618],[68.966064453125,61.12103912968162,23.2244],[68.910839843750011,61.10175202030662,23.8689]]}}