{"type":"Feature","properties":{"featurecla":"River","scalerank":9,"rivernum":1076,"dissolve":"1076River","name":"Bol2","name_alt":null,"note":null,"min_zoom":7.1,"strokeweig":0.25,"name_en":"Bol’shoy Yugan","min_label":8.1},
"geometry":{"type": "LineString","coordinates": [[73.38486328125,60.10736725468162,55.8872],[73.38095703125,60.11542389530662,51.688],[73.37548828125,60.118915106244117,45.6597],[73.374609375,60.12372467655662,52.1111],[73.38486328125,60.13532135624412,57.1661],[73.396386718750023,60.13934967655662,52.6279],[73.409765625,60.14179108280662,59.3813],[73.41416015625,60.14777252811912,47.769],[73.398681640625,60.16266510624412,54.768],[73.416259765625,60.17609284061912,54.0723],[73.443603515625,60.18463776249412,53.4516],[73.49853515625,60.19061920780662,55.2666],[73.515234375,60.19660065311912,49.3279],[73.570556640625,60.23834869999412,53.2028],[73.595898437500011,60.24787018436912,49.9718],[73.61865234375,60.251483465619117,61.7251],[73.666406250000023,60.25141022343162,49.8937],[73.679589843750023,60.25360748905662,52.6503],[73.701562500000023,60.263446356244117,51.8447],[73.71484375,60.26569244999412,48.5222],[73.81162109375,60.26300690311912,50.3108],[73.82431640625,60.26569244999412,42.141],[73.83359375,60.273211981244117,49.2608],[73.83642578125,60.281122137494123,42.4632],[73.83837890625,60.28986237186912,60.4686],[73.844921875000011,60.299823309369117,53.0271],[73.8544921875,60.307147528119117,48.2269],[73.86484375,60.31122467655662,51.1113],[73.876367187500023,60.31305573124412,44.4463],[73.923095703125,60.313495184369117,47.8611],[73.9287109375,60.31561920780662,44.0092],[73.93173828125,60.320331121869117,46.8799],[73.933837890625,60.32501862186912,54.3427],[73.93701171875,60.32709381718162,51.5132],[73.95224609375,60.330096746869117,51.1722],[73.958984375,60.33722565311912,51.6732],[73.962304687500023,60.34638092655662,49.8039],[73.9677734375,60.35504791874412,50.4285],[73.978417968750023,60.363885809369123,49.1279],[74.023193359375,60.390985418744123,51.199],[74.02880859375,60.39606354374412,43.8432],[74.036035156250023,60.416522528119117,49.0657],[74.036376953125,60.42719147343162,38.2502],[74.03369140625,60.43671295780662,45.1667],[74.0357421875,60.44464752811912,56.3593],[74.05029296875,60.45062897343162,45.8776],[74.043701171875,60.46759674686912,52.4607],[74.041894531250023,60.479266668744117,44.2104],[74.04345703125,60.50897858280662,46.5585],[74.038476562500023,60.52204010624412,42.7299],[74.026269531250023,60.53217194218162,46.6635],[73.995703125,60.54682037968162,35.2689],[74.005761718750023,60.554071356244123,44.1148],[74.02939453125,60.56061432499412,46.3562],[74.036035156250023,60.56732819218162,42.4794],[74.03525390625,60.576288153119123,48.8368],[74.029296875,60.584979559369117,48.5929],[74.020898437500023,60.591424871869123,42.9451],[73.994531250000023,60.60065338749412,41.3283],[73.979882812500023,60.61566803593162,38.7493],[73.967041015625,60.632196356244123,39.5124],[73.9541015625,60.643085028119117,38.2201],[73.942285156250023,60.64557526249412,39.5705],[73.917382812500023,60.646014715619117,37.5809],[73.905664062500023,60.64923737186912,37.4682],[73.89658203125,60.65704987186912,37.8342],[73.890869140625,60.666034246869117,47.4296],[73.88427734375,60.673456121869123,37.7991],[73.843359375,60.682001043744123,39.5828],[73.80283203125,60.70587799686912,42.7463],[73.702880859375,60.71991608280662,34.8984],[73.70166015625,60.72504303593162,38.938],[73.7060546875,60.733417059369117,29.4042],[73.7076171875,60.74481842655662,41.7868],[73.703027343750023,60.75287506718162,40.0937],[73.697167968750023,60.755731512494123,38.4744],[73.694726562500023,60.758563543744117,33.5362],[73.70078125,60.76654694218162,37.0499],[73.712792968750023,60.77289459843162,38.9836],[73.728271484375,60.774432684369117,34.7946],[73.75927734375,60.77277252811912,35.2831],[73.780957031250011,60.77973053593162,39.9686],[73.7783203125,60.79596588749412,39.1187],[73.763427734375,60.81427643436912,30.7267],[73.7486328125,60.827411199994117,35.5442],[73.729296875000017,60.835565496869123,35.0576],[73.722070312500023,60.84186432499412,38.0751],[73.72509765625,60.85126373905662,32.8402],[73.726318359375,60.858758856244123,37.7341],[73.7197265625,60.865741278119117,33.0769],[73.70078125,60.87579987186912,32.2736],[73.73046875,60.892596746869117,32.4873],[73.7236328125,60.904315496869117,32.0214],[73.666796875000017,60.922967840619123,32.2314],[73.654687500000023,60.928973699994117,31.3924],[73.649121093750011,60.93475983280662,32.3156],[73.644775390625,60.94257233280662,32.3568],[73.6357421875,60.95429108280662,31.9324],[73.622460937500023,60.96173737186912,32.4894],[73.587304687500023,60.968133856244123,33.0449],[73.573974609375,60.97479889530662,31.939],[73.568603515625,60.979266668744117,36.9991],[73.558398437500017,60.985223699994123,36.3036],[73.553417968750011,60.988788153119117,41.8617],[73.54296875,60.99347565311912,31.7281],[73.536035156250023,60.98920319218162,29.5227],[73.52890625,60.97821686405662,35.2129],[73.511962890625,60.97882721561912,32.0064],[73.46435546875,60.98566315311912,32.4753],[73.431054687500023,60.985614324994117,32.3153],[73.41796875,60.989374090619123,31.8496],[73.406152343750023,60.99933502811912,26.0],[73.40087890625,61.011346746869123,27.4046],[73.401269531250023,61.02167389530662,25.957],[73.398828125000023,61.031024481244117,32.7313],[73.388574218750023,61.039667059369123,32.9396]]}}