{"type":"Feature","properties":{"featurecla":"River","scalerank":8,"rivernum":842,"dissolve":"842River","name":"Severnaya3","name_alt":"Northern Sos’va","note":null,"min_zoom":7.0,"strokeweig":0.3,"name_en":"Severnaya Sos’va","min_label":8.0},
"geometry":{"type": "LineString","coordinates": [[64.703320312500011,63.41132233280662,10.5977],[64.727294921875,63.41449616093162,7.5758],[64.750244140625,63.42243073124412,8.3625],[64.819921875,63.46002838749412,34.3672],[64.826904296875,63.466571356244117,36.4288],[64.835205078125,63.479754949994117,37.5355],[64.834375,63.48456452030662,35.5235],[64.82958984375,63.48871491093162,36.1405],[64.826904296875,63.50006744999412,36.1736],[64.833740234375,63.53424713749412,21.4145],[64.8287109375,63.543817449994123,9.8402],[64.815332031250023,63.56024811405662,14.4134],[64.80673828125,63.58942291874412,13.4136],[64.807031250000023,63.59857819218162,12.8917],[64.816308593750023,63.60248444218162,12.7978],[64.828320312500011,63.604754949994117,13.9896],[64.853417968750023,63.614520574994117,8.5477],[64.864501953125,63.61676666874412,14.7176],[64.87353515625,63.624286199994117,9.236],[64.86572265625,63.64142487186912,13.1974],[64.8404296875,63.671405340619117,13.3472],[64.81396484375,63.67914459843162,13.3849],[64.792236328125,63.693133856244117,13.5375],[64.777734375000023,63.71259186405662,9.5497],[64.772363281250023,63.736590887494117,42.8204],[64.783398437500011,63.76166412968162,41.53],[64.81005859375,63.786737371869123,34.4696],[64.867919921875,63.82221100468162,13.0325],[64.979296875000017,63.864520574994117,12.2325],[65.031005859375,63.872430731244123,11.9432],[65.05087890625,63.88007233280662,6.2525],[65.06982421875,63.890252996869123,13.4148],[65.083251953125,63.900751043744123,12.5825],[65.08544921875,63.91132233280662,11.5778],[65.069238281250023,63.93207428593162,9.8564],[65.069580078125,63.94537994999412,6.3186],[65.081445312500023,63.95575592655662,11.9497],[65.098535156250023,63.95892975468162,12.4199],[65.134179687500023,63.95941803593162,13.0708],[65.15576171875,63.964374090619117,13.1013],[65.249755859375,63.998651434369123,11.835],[65.27548828125,64.01300690311912,12.3548],[65.32373046875,64.05158112186912,12.0026],[65.349023437500023,64.064227606244117,12.4892],[65.3544921875,64.06867096561912,12.0642],[65.35654296875,64.07538483280662,12.2026],[65.356201171875,64.08222077030662,11.0934],[65.3544921875,64.089715887494123,12.185],[65.363037109375,64.10309479374412,11.0538],[65.370019531250023,64.110370184369117,10.8509],[65.421630859375,64.13800690311912,11.2791],[65.430908203125,64.14630768436912,5.5954],[65.437744140625,64.15802643436912,5.5954],[65.441015625,64.17279694218162,14.9053],[65.441796875000023,64.18537018436912,12.0138],[65.445703125000023,64.19623444218162,5.7532],[65.45751953125,64.205829168744117,12.4551]]}}