{"type":"Feature","properties":{"featurecla":"River","scalerank":9,"rivernum":1076,"dissolve":"1076River","name":"Bol1","name_alt":null,"note":null,"min_zoom":7.1,"strokeweig":0.2,"name_en":"Bol’shoy Yugan","min_label":8.1},
"geometry":{"type": "LineString","coordinates": [[75.173730468750023,58.96723053593162,90.1481],[75.18173828125,58.988885809369123,87.2893],[75.201171875,58.995965887494123,86.4775],[75.225,58.99896881718162,82.4364],[75.24609375,59.008172918744123,84.1059],[75.25400390625,59.017352606244117,85.8445],[75.267333984375,59.03693268436912,93.5873],[75.276757812500023,59.046014715619123,88.0469],[75.287011718750023,59.05145905155662,87.9306],[75.30966796875,59.06000397343162,83.0846],[75.318359375,59.066522528119123,85.0671],[75.321044921875,59.073993231244117,81.0152],[75.320556640625,59.08283112186912,85.1985],[75.318359375,59.09381744999412,96.0737],[75.32861328125,59.10028717655662,84.5486],[75.3662109375,59.10809967655662,83.3489],[75.34326171875,59.140741278119123,80.8717],[75.314697265625,59.17230866093162,79.9614],[75.30283203125,59.17584869999412,76.3367],[75.269921875000023,59.17877838749412,81.9245],[75.256103515625,59.194354559369117,78.856],[75.23974609375,59.20148346561912,74.8676],[75.20849609375,59.20990631718162,78.0825],[75.1806640625,59.20966217655662,74.5468],[75.133691406250023,59.193622137494117,94.4235],[75.10546875,59.18939850468162,70.5493],[75.076416015625,59.197381903119123,73.9128],[75.06015625,59.19940827030662,73.2352],[75.047119140625,59.193133856244117,71.9688],[75.03427734375,59.18317291874412,76.0744],[75.01953125,59.178729559369117,74.2439],[74.950878906250011,59.16840241093162,72.6518],[74.94091796875,59.16889069218162,72.1442],[74.929882812500011,59.17511627811912,71.2936],[74.925683593750023,59.18256256718162,69.7919],[74.923095703125,59.19110748905662,76.2644],[74.91708984375,59.20026276249412,69.4664],[74.899121093750011,59.203241278119123,69.1618],[74.84677734375,59.18195221561912,71.1652],[74.824951171875,59.175799871869117,71.4361],[74.7744140625,59.18463776249412,70.9871],[74.756738281250023,59.18317291874412,71.5273],[74.72861328125,59.175799871869117,69.2901],[74.727294921875,59.171893621869117,70.4466],[74.7275390625,59.16486237186912,67.1627],[74.725830078125,59.15827057499412,70.7191],[74.718164062500023,59.15521881718162,71.0076],[74.707275390625,59.159540106244123,74.1183],[74.695068359375,59.166864324994123,66.1396],[74.68505859375,59.169208074994117,73.9658],[74.680908203125,59.158319403119123,71.9587],[74.685791015625,59.13495514530662,70.5764],[74.6841796875,59.12494537968162,66.4403],[74.6734375,59.11432526249412,69.6549],[74.663281250000011,59.111835028119117,67.9454],[74.636962890625,59.11469147343162,65.7135],[74.625683593750011,59.11432526249412,67.4453],[74.61630859375,59.10980866093162,66.2209],[74.597363281250011,59.096551824994123,69.5726],[74.588134765625,59.09381744999412,65.0811],[74.561425781250023,59.09699127811912,63.8722],[74.50634765625,59.11115143436912,66.2467],[74.478271484375,59.11432526249412,62.0567],[74.467041015625,59.11334869999412,65.9979],[74.445703125000023,59.10907623905662,70.5052],[74.4345703125,59.10809967655662,62.6783],[74.419189453125,59.11078522343162,67.7731],[74.3935546875,59.123651434369123,66.7656],[74.379296875000023,59.12799713749412,65.8955],[74.35068359375,59.125995184369117,70.0897],[74.3212890625,59.12055084843162,70.8575],[74.293212890625,59.12225983280662,68.536],[74.269433593750023,59.142206121869123,66.405],[74.2759765625,59.15009186405662,68.1857],[74.270898437500023,59.15387604374412,63.2961],[74.23203125,59.156756903119117,69.7378],[74.222070312500023,59.16144440311912,68.8824],[74.221435546875,59.17011139530662,67.2947],[74.235253906250023,59.18317291874412,67.5112],[74.22119140625,59.190204168744117,73.876],[74.212158203125,59.18659088749412,70.6084],[74.20419921875,59.17938873905662,71.3577],[74.1943359375,59.175799871869117,67.2173],[74.1845703125,59.177997137494117,73.547],[74.166406250000023,59.18939850468162,69.4514],[74.143847656250017,59.188495184369117,68.445],[74.10751953125,59.175653387494123,69.4196],[74.08447265625,59.175799871869117,67.53],[74.08837890625,59.183856512494117,64.7131],[74.09130859375,59.195331121869117,68.7416],[74.08984375,59.20551178593162,67.5607],[74.0810546875,59.20990631718162,63.8782],[74.069921875,59.207049871869117,71.1174],[74.062890625000023,59.20062897343162,67.2782],[74.057373046875,59.19367096561912,66.9165],[74.05029296875,59.18939850468162,68.0598],[73.9677734375,59.18915436405662,68.6557],[73.959228515625,59.19318268436912,67.2449],[73.9541015625,59.20368073124412,69.177],[73.96982421875,59.21515534061912,70.0962],[73.958251953125,59.23139069218162,64.7633],[73.936718750000011,59.245868231244117,65.7625],[73.88583984375,59.27130768436912,65.1939],[73.82431640625,59.28558991093162,64.1406],[73.7783203125,59.290643621869123,65.0324],[73.75888671875,59.29669830936912,68.8885],[73.72021484375,59.32135651249412,69.0668],[73.65244140625,59.34772369999412,69.3345],[73.66357421875,59.372919012494123,61.7765],[73.65244140625,59.38739655155662,61.9888],[73.627685546875,59.393915106244123,63.8717],[73.59775390625,59.39545319218162,66.0244],[73.5458984375,59.391717840619123,68.0186],[73.52890625,59.39545319218162,61.7757],[73.52060546875,59.40106842655662,60.0112],[73.4849609375,59.43305084843162,61.1852],[73.47216796875,59.440448309369117,61.7287],[73.457275390625,59.443866278119117,65.4506],[73.446533203125,59.440936590619117,63.8168],[73.423730468750023,59.42682526249412,64.6626],[73.412841796875,59.42218659061912,54.02],[73.3970703125,59.42133209843162,66.5464],[73.361328125,59.42963287968162,62.2008],[73.329980468750023,59.45062897343162,61.8376],[73.323437500000011,59.45697662968162,59.859],[73.33505859375,59.455438543744123,56.9524],[73.345458984375,59.45673248905662,60.4038],[73.353515625,59.461542059369123,56.3536],[73.358300781250023,59.470575262494123,65.0322],[73.338281250000023,59.48346588749412,59.2822],[73.290625,59.50568268436912,64.6621],[73.269433593750023,59.51837799686912,55.4431],[73.247802734375,59.535174871869117,63.0119],[73.23544921875,59.54987213749412,69.0091],[73.236523437500011,59.566034246869123,59.007],[73.255078125000011,59.587274481244123,51.6749],[73.231640625000011,59.61212799686912,56.3853],[73.237695312500023,59.639178778119117,60.6597],[73.26376953125,59.660907293744117,63.259],[73.30029296875,59.669794012494123,57.4239],[73.309814453125,59.67609284061912,58.424],[73.30625,59.69000885624412,64.4592],[73.292578125,59.703876043744117,60.0908],[73.257080078125,59.71674225468162,65.0229],[73.2486328125,59.731805731244123,60.5207],[73.249902343750023,59.74811432499412,63.1121],[73.2626953125,59.75861237186912,54.2584],[73.253173828125,59.772967840619117,57.1898],[73.241601562500023,59.786493231244123,56.4758],[73.275634765625,59.802997137494117,61.5874],[73.281982421875,59.81171295780662,58.9207],[73.275781250000023,59.82746002811912,53.9587],[73.267578125,59.832391668744123,53.1744],[73.256103515625,59.83637116093162,67.1254],[73.247802734375,59.84247467655662,59.1814],[73.2490234375,59.85419342655662,57.5077],[73.25732421875,59.859247137494123,65.1831],[73.317138671875,59.863885809369123,50.0344],[73.324609375000023,59.86701080936912,59.472],[73.330322265625,59.874627996869123,61.0339],[73.33447265625,59.887811590619123,55.4463],[73.3306640625,59.89264557499412,61.6251],[73.322021484375,59.895379949994123,49.2786],[73.310546875,59.90253327030662,50.2259],[73.303125,59.90546295780662,54.4433],[73.29443359375,59.907098699994123,65.0662],[73.28857421875,59.91156647343162,58.3118],[73.289453125000023,59.92304108280662,58.4595],[73.29599609375,59.930047918744123,54.8264],[73.330322265625,59.94354889530662,52.7088],[73.320556640625,59.94733307499412,51.2075],[73.31015625,59.95331452030662,52.0923],[73.301513671875,59.961297918744123,50.8063],[73.296875,59.97089264530662,55.0607],[73.32236328125,59.971698309369117,47.6215],[73.347265625,59.975946356244123,54.3056],[73.358789062500023,59.98615143436912,51.959],[73.343994140625,60.004999090619123,51.6708],[73.34970703125,60.01178619999412,52.8773],[73.348535156250023,60.01788971561912,49.213],[73.341552734375,60.02265045780662,60.4673],[73.330322265625,60.02545807499412,54.2409],[73.35,60.05744049686912,55.8321],[73.358300781250023,60.06647369999412,50.3189],[73.382519531250011,60.08380768436912,55.6009],[73.385498046875,60.09088776249412,52.0438],[73.38486328125,60.10736725468162,55.8872]]}}