{"type":"Feature","properties":{"featurecla":"River","scalerank":7,"rivernum":635,"dissolve":"635River","name":"null98","name_alt":null,"note":null,"min_zoom":6.0,"strokeweig":0.3,"name_en":null,"min_label":7.0},
"geometry":{"type": "LineString","coordinates": [[66.53427734375,62.29035065311912,74.4089],[66.520263671875,62.290790106244117,13.0009],[66.48046875,62.278192449994123,19.0439],[66.468359375,62.277460028119123,18.8484],[66.396240234375,62.28266022343162,20.8727],[66.384960937500011,62.27936432499412,21.9843],[66.371777343750011,62.269891668744123,19.2908],[66.361083984375,62.26544830936912,13.5848],[66.34912109375,62.266376043744117,25.2626],[66.338281250000023,62.27081940311912,19.8097],[66.319042968750011,62.287127996869117,18.766],[66.306542968750023,62.29169342655662,21.0426],[66.23681640625,62.29865143436912,22.0329],[66.20419921875,62.307733465619123,19.6671],[66.16953125,62.32562897343162,18.9498],[66.1591796875,62.328241278119123,18.5647],[66.04306640625,62.33368561405662,18.0579],[66.019238281250011,62.34186432499412,17.3696],[66.01806640625,62.35114166874412,17.5707],[66.027246093750023,62.37213776249412,17.3761],[66.026123046875,62.38287994999412,11.8527],[66.015234375,62.39093659061912,16.7035],[65.996777343750011,62.39765045780662,12.8544],[65.936718750000011,62.40912506718162,18.4324],[65.915429687500023,62.42182037968162,18.832],[65.875244140625,62.45172760624412,17.7753],[65.846582031250023,62.45978424686912,18.4887],[65.781494140625,62.467401434369123,11.7389],[65.7548828125,62.48212311405662,17.9937],[65.72900390625,62.49286530155662,17.6071],[65.65927734375,62.49921295780662,19.0852],[65.634960937500011,62.513202215619117,17.4197],[65.63046875,62.53107330936912,18.2335],[65.6416015625,62.54413483280662,20.7018],[65.676660156250023,62.56842682499412,17.1117],[65.655175781250023,62.586444403119117,11.5278],[65.587304687500023,62.623065496869117,16.9504],[65.567138671875,62.643670965619123,30.029],[65.52060546875,62.718036199994117,24.3609]]}}