{"type":"Feature","properties":{"featurecla":"River","scalerank":9,"rivernum":1076,"dissolve":"1076River","name":"Bol","name_alt":null,"note":null,"min_zoom":7.1,"strokeweig":0.15,"name_en":"Bol’shoy Yugan","min_label":8.1},
"geometry":{"type": "LineString","coordinates": [[75.146484375,58.69660065311912,126.6141],[75.170117187500011,58.71649811405662,124.4715],[75.190332031250023,58.73773834843162,122.4187],[75.195214843750023,58.75910065311912,117.1975],[75.173730468750023,58.77912018436912,120.1462],[75.186279296875,58.81342194218162,114.5788],[75.171875,58.85162994999412,103.9953],[75.14111328125,58.88434479374412,91.273],[75.10546875,58.90204498905662,97.9025],[75.1259765625,58.928729559369117,105.5376],[75.110742187500023,58.94342682499412,88.5862],[75.129638671875,58.95197174686912,86.171],[75.15869140625,58.95844147343162,86.4488],[75.173730468750023,58.96723053593162,90.1481]]}}