{"type":"Feature","properties":{"featurecla":"River","scalerank":7,"rivernum":633,"dissolve":"633River","name":"Malaya","name_alt":null,"note":null,"min_zoom":6.0,"strokeweig":0.3,"name_en":"Malaya Ob","min_label":7.0},
"geometry":{"type": "LineString","coordinates": [[65.046484375,63.006952215619123,17.4248],[65.011621093750023,63.03998444218162,9.8854],[64.923730468750023,63.08881256718162,11.3979],[64.913818359375,63.09613678593162,18.7206],[64.906494140625,63.10504791874412,9.9639],[64.901953125,63.11652252811912,16.1791],[64.90048828125,63.13397858280662,19.6099],[64.9068359375,63.14008209843162,16.6684],[64.91845703125,63.143670965619123,15.7703],[64.956640625,63.17133209843162,14.6465],[64.979882812500023,63.181415106244117,16.625],[64.997460937500023,63.194940496869123,13.0845],[65.00439453125,63.222674871869117,9.6325],[65.00146484375,63.25128815311912,11.3112],[64.992919921875,63.27277252811912,9.3275],[64.96337890625,63.31513092655662,38.7407],[64.9912109375,63.33051178593162,43.8733],[65.065820312500023,63.38336823124412,15.1754],[65.097363281250011,63.39447662968162,18.4327],[65.16513671875,63.407342840619123,15.0082],[65.1962890625,63.41815827030662,12.1871],[65.225341796875,63.432879949994117,15.3848],[65.24658203125,63.44818756718162,14.7214],[65.249755859375,63.46539948124412,15.4981],[65.22412109375,63.485858465619117,11.0689],[65.199951171875,63.49433014530662,13.3917],[65.18896484375,63.50153229374412,9.0404],[65.18310546875,63.51373932499412,8.9098],[65.184814453125,63.52399323124412,9.0576],[65.19052734375,63.534930731244117,13.2027],[65.2037109375,63.55475494999412,12.375],[65.16943359375,63.61676666874412,15.9673],[65.164794921875,63.63043854374412,15.4038],[65.16259765625,63.64374420780662,13.8764],[65.162011718750023,63.67450592655662,10.7658],[65.190820312500023,63.709735418744117,13.3672],[65.3150390625,63.70697662968162,14.5003],[65.340234375000023,63.73285553593162,12.242],[65.316015625,63.75934479374412,12.2035],[65.304101562500023,63.77912018436912,13.6984],[65.30859375,63.79962799686912,16.603],[65.333984375,63.82843659061912,11.5796],[65.320068359375,63.84259674686912,9.9807],[65.330322265625,63.855829168744123,9.5355],[65.352783203125,63.865594793744123,12.8573],[65.404541015625,63.87360260624412,12.7834],[65.51220703125,63.93012116093162,13.434],[65.5556640625,63.961200262494117,12.6373],[65.591210937500023,63.996356512494117,7.0618],[65.605712890625,64.04169342655662,8.6159],[65.597900390625,64.058221746869123,12.7439],[65.586328125000023,64.075799871869123,6.2323],[65.580468750000023,64.093133856244123,5.9857],[65.576074218750023,64.10089752811912,6.6111],[65.556884765625,64.110956121869123,12.8056],[65.552441406250011,64.120477606244123,5.9426],[65.552441406250011,64.15802643436912,5.869],[65.548095703125,64.17084381718162,5.8595],[65.544189453125,64.17719147343162,13.5082],[65.536035156250023,64.18085358280662,10.5776],[65.46875,64.19611237186912,11.4513],[65.45751953125,64.205829168744117,12.4551],[65.45517578125,64.22748444218162,9.098],[65.468164062500023,64.24664948124412,6.0933],[65.4859375,64.265985418744123,13.5601],[65.497802734375,64.28839752811912,11.9401],[65.45458984375,64.294208074994117,11.201599999999999],[65.431054687500023,64.30084869999412,5.3133],[65.416015625,64.308856512494117,6.9506],[65.405859375,64.32184479374412,9.7321],[65.40634765625,64.32965729374412,5.0562],[65.41171875,64.33734772343162,11.0286],[65.416015625,64.34979889530662,5.367],[65.412109375,64.37848541874412,11.4489],[65.395898437500023,64.390155340619117,5.1413],[65.3716796875,64.39789459843162,11.0719],[65.343994140625,64.414667059369123,11.248],[65.34921875,64.42963287968162,11.7886],[65.397216796875,64.479999090619117,12.538],[65.409082031250023,64.500604559369123,12.5649],[65.404052734375,64.52631256718162,12.9741],[65.390039062500023,64.54608795780662,12.1417],[65.3701171875,64.56110260624412,11.5202],[65.2470703125,64.62128327030662,6.0047],[65.21533203125,64.659295965619123,9.1292],[65.21728515625,64.712909246869117,4.9796],[65.228271484375,64.74445221561912,4.9748],[65.22861328125,64.763299871869123,9.5146],[65.217187500000023,64.78009674686912,11.0892],[65.193115234375,64.80573151249412,4.7773],[65.17822265625,64.831903387494123,9.8835],[65.19052734375,64.84430573124412,9.2551],[65.2138671875,64.85712311405662,8.8423],[65.23095703125,64.88422272343162,10.9282],[65.185546875,64.896844793744123,4.927],[65.16416015625,64.90790436405662,10.0697],[65.1552734375,64.921747137494123,9.8634],[65.141015625000023,64.936639715619123,9.1722],[65.046875,64.94757721561912,8.2453],[65.003320312500023,64.96527741093162,8.3853],[64.976464843750023,64.985126043744117,10.152],[64.972558593750023,65.011590887494123,8.6537],[64.99755859375,65.049335028119117,9.182],[64.970458984375,65.06329987186912,8.1178],[64.8912109375,65.07831452030662,8.3666],[64.874755859375,65.100213934369123,10.2526],[64.867919921875,65.115741278119117,8.73],[64.836181640625,65.157098699994123,3.5402],[64.826904296875,65.17218659061912,8.76],[64.82578125,65.18231842655662,7.8156],[64.828027343750023,65.20380280155662,3.5849],[64.826904296875,65.21381256718162,3.5605],[64.819042968750011,65.22968170780662,8.9494],[64.808837890625,65.23822662968162,8.3901],[64.779052734375,65.250751043744117,8.4056],[64.752197265625,65.26618073124412,7.9257],[64.735595703125,65.28180573124412,8.7513],[64.7251953125,65.30170319218162,28.7563],[64.7138671875,65.34613678593162,8.6294],[64.711816406250023,65.36945221561912,4.4801],[64.713134765625,65.39264557499412,3.3064],[64.720458984375,65.40875885624412,3.2047],[64.728515625,65.43329498905662,8.4665],[64.70703125,65.453973699994123,8.2648],[64.67578125,65.47174713749412,3.1178],[64.655029296875,65.48749420780662,19.8189],[64.653076171875,65.518817449994117,8.1321],[64.683496093750023,65.533465887494117,7.786],[64.72470703125,65.54132721561912,7.9852],[64.754638671875,65.55206940311912,7.0828],[64.78134765625,65.56928131718162,7.5381],[64.793847656250023,65.57990143436912,6.9384],[64.802636718750023,65.60297272343162,6.9477],[64.826904296875,65.63837311405662,8.0978],[64.87353515625,65.67853424686912,11.8059],[64.98154296875,65.736590887494117,6.9927],[65.03173828125,65.774920965619117,6.5238],[65.065820312500023,65.81586334843162,6.2465],[65.0810546875,65.82697174686912,6.3915],[65.16318359375,65.86237213749412,6.9714],[65.396484375,65.898065496869123,6.665],[65.430566406250023,65.90863678593162,7.3263],[65.44638671875,65.92328522343162,7.0732],[65.446533203125,65.940448309369117,22.2988],[65.443359375,65.959735418744117,33.6299],[65.450097656250023,65.980975653119117,32.2239],[65.460205078125,65.99005768436912,26.3896],[65.59189453125,66.064471746869117,5.6219],[65.64072265625,66.106073309369123,7.3688],[65.693261718750023,66.13361237186912,2.7468],[65.703515625000023,66.136004949994117,4.4053]]}}