{"type":"Feature","properties":{"featurecla":"River","scalerank":8,"rivernum":842,"dissolve":"842River","name":"Severnaya1","name_alt":"Northern Sos’va","note":null,"min_zoom":7.0,"strokeweig":0.2,"name_en":"Severnaya Sos’va","min_label":8.0},
"geometry":{"type": "LineString","coordinates": [[60.019238281250011,62.15009186405662,209.7902],[60.047265625000023,62.14362213749412,205.6678],[60.085693359375,62.127801824994123,205.5123],[60.114013671875,62.107782293744123,208.4987],[60.112060546875,62.088641668744117,212.0916],[60.134863281250006,62.065545965619123,159.3139],[60.158105468750023,62.05866119999412,151.8127],[60.258203125000023,62.07355377811912,174.4315],[60.303320312500006,62.085809637494123,128.3415],[60.335205078125,62.10809967655662,129.7728],[60.338623046875,62.14325592655662,126.8715],[60.31640625,62.17255280155662,114.5467],[60.31494140625,62.18561432499412,102.9595],[60.337988281250006,62.191034246869123,114.9697],[60.406347656250006,62.184198309369123,79.6296],[60.421777343750023,62.186053778119117,66.0337],[60.470800781250006,62.20246002811912,74.4332],[60.600830078125,62.262323309369123,52.0636],[60.622314453125,62.26679108280662,62.9617],[60.634033203125,62.27240631718162,59.4141],[60.680078125000023,62.307733465619123,45.4794],[60.709570312500006,62.31732819218162,44.4988],[60.80419921875,62.328241278119123,43.9141],[60.80419921875,62.33502838749412,51.9626],[60.790722656250011,62.34931061405662,48.0716],[60.779882812500006,62.367694403119117,45.096],[60.782128906250023,62.383563543744117,42.7339],[60.830761718750011,62.39520905155662,46.888],[60.935791015625,62.448016668744117,70.1265],[60.9482421875,62.45172760624412,77.7249],[60.964746093750023,62.453631903119117,64.0965],[61.020117187500006,62.45172760624412,39.903],[61.035400390625,62.453729559369123,40.8995],[61.061718750000011,62.46271393436912,44.5783],[61.077880859375,62.46478912968162,41.224],[61.089257812500023,62.46173737186912,37.3581],[61.091699218750023,62.45429108280662,39.3126],[61.092382812500006,62.44537994999412,53.2981],[61.098388671875,62.43744537968162,56.5671],[61.117773437500006,62.43121979374412,50.4495],[61.132226562500023,62.43585846561912,45.4396],[61.145263671875,62.44476959843162,60.0194],[61.160546875000023,62.45172760624412,65.7759],[61.1787109375,62.452020574994123,65.7237],[61.207421875000023,62.44049713749412,50.707],[61.23779296875,62.435077215619117,44.9699],[61.243359375000011,62.428583074994123,42.8812],[61.242431640625,62.407342840619123,35.8366],[61.2451171875,62.39374420780662,36.4901],[61.252197265625,62.38678619999412,38.6576],[61.276562500000011,62.37665436405662,50.013],[61.3232421875,62.34760162968162,44.3471],[61.358789062500023,62.33161041874412,42.7265],[61.416894531250023,62.328241278119123,35.1555],[61.42919921875,62.326044012494123,32.4289],[61.458886718750023,62.31671784061912,37.7706],[61.500585937500006,62.31159088749412,35.0723],[61.511621093750023,62.31317780155662,27.2076],[61.524121093750011,62.321405340619123,37.6913],[61.49658203125,62.35187409061912,26.7234],[61.476318359375,62.38666412968162,38.0349],[61.471435546875,62.42328522343162,52.7696],[61.489501953125,62.45917389530662,56.9569],[61.565820312500023,62.52582428593162,45.9694],[61.646484375,62.57465241093162,30.9784],[61.633544921875,62.607196356244117,31.5584],[61.6328125,62.615594793744123,25.3269],[61.64208984375,62.62604401249412,32.865],[61.656494140625,62.630877996869117,53.7534],[61.671875,62.634051824994117,39.7953],[61.684277343750011,62.64008209843162,31.2796],[61.688378906250023,62.65717194218162,39.6029],[61.666894531250023,62.668719793744117,35.5763],[61.639404296875,62.679706121869117,30.0297],[61.6259765625,62.69501373905662,28.9635],[61.629980468750006,62.71747467655662,23.2798],[61.637939453125,62.73480866093162,30.2399],[61.643164062500006,62.75189850468162,30.4044],[61.6396484375,62.77387116093162,33.2277],[61.6265625,62.79047272343162,24.6543],[61.584570312500006,62.81329987186912,32.5394],[61.565185546875,62.82916901249412,30.7213],[61.5875,62.84076569218162,29.4644],[61.636816406250006,62.85358307499412,34.0453],[61.65390625,62.86945221561912,34.8293],[61.635937500000011,62.88336823124412,34.0664],[61.61181640625,62.89435455936912,32.5648],[61.586523437500006,62.90155670780662,37.6879],[61.511474609375,62.90521881718162,32.706],[61.488867187500006,62.909198309369117,21.9415],[61.421289062500023,62.929071356244123,27.5409],[61.406494140625,62.94013092655662,35.0588],[61.400781250000023,62.96222565311912,29.8731],[61.40673828125,62.97199127811912,29.1777],[61.4365234375,62.973749090619123,30.3738],[61.448437500000011,62.97931549686912,21.2111],[61.449462890625,62.986346746869117,18.5829],[61.447363281250006,62.99750397343162,27.6637],[61.443359375,63.00910065311912,28.2507],[61.438232421875,63.01715729374412,26.6419],[61.428320312500006,63.02057526249412,19.1949],[61.399316406250023,63.025409246869117,21.0336],[61.393310546875,63.03021881718162,23.8885],[61.38828125,63.041376043744123,24.8096],[61.3765625,63.047479559369123,27.6668],[61.352294921875,63.055047918744123,17.5],[61.335058593750006,63.07001373905662,29.2373],[61.3212890625,63.08539459843162,26.2165],[61.304882812500011,63.097430731244117,22.9053],[61.268945312500023,63.10553619999412,17.0565],[61.263671875,63.112811590619117,25.3954],[61.265722656250006,63.119989324994123,25.2375],[61.276562500000011,63.12335846561912,20.85],[61.28466796875,63.12763092655662,24.557],[61.2802734375,63.13751862186912,22.0759],[61.2724609375,63.14887116093162,23.6513],[61.269775390625,63.157489324994117,16.3777],[61.278417968750006,63.162469793744123,27.633],[61.305566406250023,63.16620514530662,20.4987],[61.311279296875,63.17450592655662,21.8365],[61.306884765625,63.18170807499412,22.1593],[61.276562500000011,63.20587799686912,25.0851],[61.304589843750023,63.219598699994123,23.733],[61.317285156250023,63.22785065311912,22.2005],[61.324951171875,63.239374090619123,31.1917],[61.269775390625,63.239374090619123,28.0933],[61.31015625,63.26239655155662,29.1898],[61.324951171875,63.267352606244117,23.9562],[61.361523437500011,63.271356512494123,26.2242],[61.373779296875,63.278436590619123,14.6308],[61.365234375,63.29401276249412,20.1708],[61.384033203125,63.30890534061912,30.5599],[61.414453125000023,63.316913153119117,27.0837],[61.442773437500023,63.31439850468162,26.1343],[61.455322265625,63.297723699994123,24.3033],[61.4580078125,63.28656647343162,25.8501],[61.46484375,63.279169012494123,17.3016],[61.474853515625,63.27777741093162,31.4718],[61.4859375,63.28436920780662,21.4436],[61.490917968750011,63.294696356244117,15.9499],[61.489160156250023,63.305292059369123,20.5407],[61.482519531250006,63.32135651249412,21.9609],[61.484472656250006,63.34271881718162,19.6156],[61.489501953125,63.362909246869123,23.7634],[61.507714843750023,63.398797918744123,20.4444],[61.510644531250023,63.407586981244123,19.8347],[61.499121093750006,63.424432684369123,14.185],[61.45263671875,63.45123932499412,18.2018],[61.448437500000011,63.472772528119123,14.6596],[61.47021484375,63.48981354374412,22.8622],[61.502539062500006,63.487909246869123,21.2283],[61.531835937500006,63.489618231244123,28.0775],[61.544677734375,63.517450262494123,21.6386],[61.547460937500006,63.54071686405662,22.3501],[61.555566406250023,63.557245184369123,19.1749],[61.568261718750023,63.570086981244117,21.1913],[61.5849609375,63.58197662968162,20.1572],[61.6142578125,63.59625885624412,18.0754],[61.648193359375,63.60468170780662,19.1789],[61.8662109375,63.63043854374412,17.1893],[61.918554687500006,63.626971746869117,21.5817],[62.025292968750023,63.607928778119117,23.4672],[62.078515625000023,63.61676666874412,19.9787],[62.094628906250023,63.62750885624412,17.7679],[62.111328125,63.642108465619117,12.0],[62.128662109375,63.65253327030662,21.9699],[62.147363281250023,63.650897528119117,31.5486],[62.159570312500023,63.63727448124412,31.6926],[62.156005859375,63.62189362186912,19.1174],[62.133691406250023,63.59564850468162,14.5],[62.186621093750006,63.57428619999412,19.9263],[62.21142578125,63.55951569218162,22.0733],[62.221923828125,63.537616278119117,12.0],[62.22802734375,63.533710028119117,12.0],[62.257226562500023,63.522821356244123,20.234],[62.266845703125,63.517450262494123,20.7403],[62.2841796875,63.492547918744123,18.0],[62.290722656250011,63.485858465619117,18.0],[62.321875,63.474237371869123,21.276],[62.387451171875,63.482782293744123,18.9407],[62.421142578125,63.47614166874412,22.5748],[62.509863281250006,63.43121979374412,18.9727],[62.599365234375,63.40839264530662,26.5858],[62.631591796875,63.38983795780662,19.7078],[62.6625,63.378290106244123,23.0904],[62.68603515625,63.37348053593162,33.5231],[62.729589843750006,63.356708074994117,19.373],[62.763916015625,63.35675690311912,12.0],[62.817285156250023,63.37787506718162,36.7263],[62.845703125,63.38336823124412,12.4162],[63.00625,63.38336823124412,11.74],[63.019775390625,63.38165924686912,14.0197],[63.0322265625,63.37750885624412,39.8126],[63.044921875,63.36969635624412,23.5261],[63.072265625,63.331903387494123,37.2864],[63.078515625000023,63.31708405155662,36.121],[63.093359375,63.301044012494117,11.1088],[63.142578125,63.259881903119123,20.5363],[63.15478515625,63.246844793744117,21.0748],[63.170654296875,63.23554108280662,16.5523],[63.184277343750011,63.23102448124412,18.3962],[63.198632812500023,63.22846100468162,17.8996],[63.23095703125,63.21771881718162,28.7144],[63.266992187500023,63.21320221561912,10.297],[63.286865234375,63.21295807499412,10.0]]}}