{"type":"Feature","properties":{"featurecla":"River","scalerank":7,"rivernum":635,"dissolve":"635River","name":"null97","name_alt":null,"note":null,"min_zoom":6.0,"strokeweig":0.3,"name_en":null,"min_label":7.0},
"geometry":{"type": "LineString","coordinates": [[68.54833984375,61.09308502811912,24.6905],[68.526953125,61.08185455936912,15.2259],[68.4830078125,61.074090887494123,24.2128],[68.422119140625,61.05231354374412,23.278199999999998],[68.229882812500023,61.02521393436912,22.836],[68.21201171875,61.026629949994117,22.6649],[68.19921875,61.03107330936912,17.0],[68.173583984375,61.04389069218162,22.7541],[68.152246093750023,61.049090887494117,26.4167],[68.09873046875,61.06940338749412,18.0],[68.04013671875,61.06757233280662,21.9934],[68.019238281250011,61.074725653119117,22.3675],[67.992089843750023,61.08893463749412,22.4985],[67.968359375,61.10529205936912,22.7761],[67.958251953125,61.11847565311912,26.5628],[67.954345703125,61.135516668744117,23.3166],[67.93369140625,61.17816803593162,23.3877],[67.924218750000023,61.19110748905662,22.7394],[67.9140625,61.19757721561912,22.336],[67.88818359375,61.20954010624412,23.9039],[67.875683593750011,61.21845123905662,22.2642],[67.851757812500011,61.249139715619123,19.0284],[67.842041015625,61.255975653119123,22.9064],[67.8296875,61.26117584843162,25.3647],[67.81640625,61.26447174686912,24.4957],[67.78564453125,61.267938543744123,22.2619],[67.77587890625,61.27411530155662,21.5211],[67.759667968750023,61.29352448124412,21.7643],[67.7294921875,61.322137762494123,22.0738],[67.721435546875,61.33771393436912,21.9725],[67.718652343750023,61.358417059369117,21.7878],[67.7115234375,61.38495514530662,21.1503],[67.69345703125,61.402704168744123,21.8604],[67.63037109375,61.429071356244123,20.7965],[67.61279296875,61.43915436405662,21.1882],[67.5400390625,61.468036199994117,20.1064],[67.517480468750023,61.48212311405662,20.4029],[67.498779296875,61.49054596561912,35.8106],[67.500390625000023,61.50263092655662,36.7699],[67.505615234375,61.51642487186912,20.1842],[67.50634765625,61.52692291874412,17.0],[67.4931640625,61.53229401249412,17.0],[67.448974609375,61.534442449994117,18.6754],[67.436914062500023,61.53998444218162,38.2815],[67.436718750000011,61.55292389530662,37.2695],[67.446875,61.560663153119123,36.08],[67.458984375,61.56769440311912,36.2397],[67.466064453125,61.58038971561912,48.0313],[67.47861328125,61.59760162968162,21.8129],[67.476953125000023,61.602069403119117,23.3002],[67.473535156250023,61.60663483280662,16.0],[67.4716796875,61.61225006718162,20.219],[67.466210937500023,61.61896393436912,19.9926],[67.4306640625,61.63617584843162,16.5],[67.411035156250023,61.64984772343162,19.8986],[67.399316406250023,61.654315496869117,22.8142],[67.38232421875,61.65668366093162,21.8156],[67.3173828125,61.65668366093162,16.0],[67.31259765625,61.66107819218162,28.8815],[67.31494140625,61.67096588749412,21.1196],[67.3203125,61.681268621869123,24.0063],[67.32421875,61.687030340619117,21.0727],[67.32626953125,61.69245026249412,20.7554],[67.322265625,61.69586823124412,21.2138],[67.315673828125,61.698358465619123,21.301],[67.310546875,61.70136139530662,16.0],[67.305908203125,61.708026434369117,21.5475],[67.30615234375,61.71161530155662,21.1865],[67.307861328125,61.714227606244123,21.9194],[67.30712890625,61.71808502811912,16.0],[67.2900390625,61.74677155155662,21.8868],[67.27685546875,61.756122137494117,21.3329],[67.235595703125,61.76215241093162,21.1605],[67.221923828125,61.769061590619117,21.4304],[67.1978515625,61.79315827030662,20.1695],[67.191015625,61.796649481244117,20.6369],[67.182031250000023,61.79938385624412,21.6122],[67.174072265625,61.80353424686912,16.0],[67.170654296875,61.811151434369123,19.4191],[67.173828125,61.82306549686912,21.7275],[67.182031250000023,61.827020574994123,21.6057],[67.19287109375,61.82819244999412,20.8573],[67.204345703125,61.831659246869123,21.4767],[67.213134765625,61.838495184369123,20.2972],[67.21435546875,61.843622137494123,20.9323],[67.214111328125,61.84882233280662,20.9212],[67.220458984375,61.85907623905662,17.0],[67.225,61.86871979374412,21.1526],[67.22802734375,61.87299225468162,22.1907],[67.23388671875,61.87567780155662,22.7186],[67.24716796875,61.87470123905662,20.7724],[67.2525390625,61.87641022343162,16.0],[67.264892578125,61.891376043744117,19.3284],[67.26083984375,61.89972565311912,21.4318],[67.250683593750011,61.90912506718162,21.8501],[67.2451171875,61.92731354374412,18.5],[67.249902343750023,61.948846746869123,19.9683],[67.25595703125,61.96430084843162,21.7694],[67.25146484375,61.97406647343162,22.3371],[67.224609375,61.978778387494117,19.9678],[67.174707031250023,61.97223541874412,19.3593],[67.147705078125,61.97211334843162,19.9714],[67.13583984375,61.98187897343162,15.0],[67.1376953125,61.99860260624412,15.0],[67.142333984375,62.01190827030662,20.9763],[67.156982421875,62.04022858280662,24.6626],[67.135498046875,62.04572174686912,21.4601],[67.11865234375,62.04596588749412,13.0],[67.08115234375,62.04022858280662,13.0],[67.062109375,62.040301824994117,13.0],[67.0572265625,62.04645416874412,26.6421],[67.0556640625,62.058221746869123,20.2585],[67.047119140625,62.074969793744117,19.8948],[67.014404296875,62.08771393436912,30.3597],[66.9716796875,62.08258698124412,19.4029],[66.9287109375,62.08209869999412,19.4681],[66.89560546875,62.109149481244117,13.0],[66.891357421875,62.12494537968162,22.0594],[66.8896484375,62.14118073124412,21.2096],[66.884179687500023,62.15497467655662,19.7149],[66.868896484375,62.16376373905662,20.2812],[66.847558593750023,62.16156647343162,18.1002],[66.824462890625,62.152460028119123,19.0107],[66.80126953125,62.14752838749412,19.887],[66.779687500000023,62.15753815311912,18.7669],[66.7720703125,62.17035553593162,18.8479],[66.7662109375,62.19891998905662,12.9131],[66.759033203125,62.211542059369123,22.6408],[66.747314453125,62.22089264530662,20.6624],[66.720458984375,62.234491278119123,18.7993],[66.708740234375,62.242792059369123,12.5406],[66.703027343750023,62.251092840619123,69.4734],[66.69775390625,62.261981512494117,73.4553],[66.69150390625,62.27142975468162,75.3266],[66.683203125,62.27545807499412,56.9515]]}}