{"type":"Feature","properties":{"featurecla":"River","scalerank":2,"rivernum":44,"dissolve":"44River","name":"Irtysh3","name_alt":null,"note":null,"min_zoom":2.1,"strokeweig":0.8,"name_en":"Irtysh","min_label":3.1},
"geometry":{"type": "LineString","coordinates": [[68.861328125,61.12445709843162,18.2365],[68.87021484375,61.11737702030662,24.3004],[68.880078125000011,61.111590887494117,17.8305],[68.90087890625,61.10346100468162,24.4914],[68.935302734375,61.10028717655662,22.8203],[68.946191406250023,61.09711334843162,24.7087],[68.95068359375,61.09406159061912,23.826],[68.954345703125,61.08991119999412,22.66],[68.979394531250023,61.03888580936912,24.3827],[68.985742187500023,61.02948639530662,22.9662],[68.993896484375,61.024774481244123,23.0188],[68.998242187500011,61.01752350468162,23.8249],[69.00693359375,61.00958893436912,27.8373],[69.016992187500023,61.00348541874412,52.4702],[69.025292968750023,61.00141022343162,52.7634],[69.042724609375,60.99140045780662,111.1942],[69.060449218750023,60.98419830936912,112.0162],[69.0791015625,60.980096746869123,17.5688],[69.158398437500011,60.980096746869123,23.9225],[69.17783203125,60.97540924686912,24.4329],[69.221923828125,60.95636627811912,25.0581],[69.238183593750023,60.954461981244123,25.2803],[69.300097656250017,60.96246979374412,24.8964],[69.321191406250023,60.96063873905662,17.0],[69.369531250000023,60.93939850468162,25.2292],[69.38681640625,60.936639715619123,26.2027],[69.40537109375,60.94013092655662,24.2752],[69.44384765625,60.951776434369123,17.7724],[69.46240234375,60.95050690311912,19.2927],[69.47421875,60.941278387494123,17.975],[69.480371093750023,60.926776434369117,22.103],[69.4892578125,60.89606354374412,24.7443],[69.50107421875,60.882342840619117,29.211],[69.51669921875,60.87335846561912,26.2226],[69.550195312500023,60.85871002811912,26.2446],[69.5634765625,60.847919012494117,24.856],[69.572021484375,60.83527252811912,27.106],[69.585839843750023,60.80621979374412,29.0885],[69.5966796875,60.79328034061912,24.0677],[69.63876953125,60.76618073124412,25.5423],[69.64951171875,60.75202057499412,26.4376],[69.655029296875,60.736200262494123,26.7071],[69.6587890625,60.71967194218162,18.1247],[69.6646484375,60.70331452030662,18.486],[69.676025390625,60.69013092655662,26.6836],[69.691308593750023,60.682245184369123,26.0512],[69.759375,60.67096588749412,27.1973],[69.776123046875,60.67023346561912,27.5284],[69.826416015625,60.67621491093162,26.0792],[69.837890625,60.675067449994117,27.7632],[69.848388671875,60.672381903119117,27.1825],[69.8603515625,60.667840887494123,28.193],[69.869531250000023,60.66083405155662,20.4558],[69.871777343750011,60.65082428593162,33.3696],[69.86572265625,60.640643621869117,28.7498],[69.8544921875,60.63226959843162,30.7474],[69.830322265625,60.621210028119123,21.6159],[69.821679687500023,60.61420319218162,20.0],[69.8193359375,60.60480377811912,37.8478],[69.818115234375,60.59454987186912,32.02],[69.812744140625,60.584735418744117,21.6131],[69.796777343750023,60.57367584843162,21.4151],[69.778564453125,60.564471746869117,28.8299],[69.762451171875,60.55316803593162,21.3949],[69.753320312500023,60.53583405155662,32.2489],[69.7564453125,60.515643621869117,27.8698],[69.77001953125,60.49860260624412,27.705],[69.802001953125,60.469598699994123,19.6774],[69.812109375,60.454364324994117,31.8779],[69.81689453125,60.43891022343162,33.1649],[69.81455078125,60.42365143436912,20.0],[69.802978515625,60.40875885624412,20.0],[69.776953125,60.38837311405662,20.0],[69.766845703125,60.375360418744123,32.7182],[69.765039062500023,60.36005280155662,28.5337],[69.77490234375,60.35016510624412,38.087],[69.79345703125,60.34638092655662,20.3311],[69.8287109375,60.34503815311912,28.5296],[69.838134765625,60.34198639530662,27.965699999999998],[69.844628906250023,60.33649323124412,29.43],[69.875683593750011,60.27814362186912,29.1506],[69.8828125,60.254999090619123,28.8845],[69.883544921875,60.23261139530662,20.0],[69.8658203125,60.23248932499412,20.0],[69.8310546875,60.240838934369123,26.5239],[69.8134765625,60.24249909061912,39.6464],[69.8056640625,60.24115631718162,36.5688],[69.799707031250023,60.23798248905662,44.3019],[69.795117187500011,60.23285553593162,40.5629],[69.785058593750023,60.21076080936912,30.4883],[69.780517578125,60.20502350468162,20.0],[69.752197265625,60.184344793744117,31.375],[69.744873046875,60.180682684369117,75.3481],[69.7173828125,60.17121002811912,36.2519],[69.705078125,60.16474030155662,30.5316],[69.6943359375,60.15460846561912,25.694],[69.6884765625,60.14581940311912,21.6258],[69.683496093750023,60.135516668744117,22.3298],[69.6802734375,60.12457916874412,34.3589],[69.679589843750023,60.11408112186912,30.1241],[69.682861328125,60.10394928593162,35.036],[69.6900390625,60.09723541874412,41.1156],[69.69970703125,60.09345123905662,34.6212],[69.710351562500023,60.09198639530662,35.8573],[69.726171875,60.09357330936912,37.0837],[69.740234375,60.09857819218162,36.7312],[69.767822265625,60.11200592655662,27.3166],[69.7740234375,60.11432526249412,30.913],[69.77939453125,60.11542389530662,30.0334],[69.78427734375,60.11530182499412,30.0308],[69.788818359375,60.114032293744117,29.6826],[69.802441406250011,60.10651276249412,31.5323],[69.803613281250023,60.10236237186912,31.7165],[69.812890625000023,60.097772528119123,32.549],[69.839648437500017,60.07904694218162,21.0],[69.895898437500023,60.05109284061912,31.2057],[69.91259765625,60.03864166874412,30.4627],[69.920117187500011,60.02448151249412,34.528],[69.92001953125,60.006854559369117,23.1384],[69.910400390625,59.97296784061912,31.3106],[69.901123046875,59.95563385624412,31.9391],[69.889062500000023,59.94452545780662,31.9987],[69.858154296875,59.92621491093162,44.5882],[69.849853515625,59.911249090619123,32.3033],[69.8599609375,59.89569733280662,34.7629],[69.9107421875,59.85639069218162,33.0236],[69.918701171875,59.84699127811912,31.57],[69.92197265625,59.837030340619123,33.0465],[69.91904296875,59.82916901249412,36.3721],[69.912011718750023,59.82489655155662,24.3932],[69.903076171875,59.823114324994123,35.245],[69.894775390625,59.822772528119117,34.669],[69.8798828125,59.823846746869123,31.696],[69.811914062500023,59.84149811405662,33.8512],[69.79931640625,59.84320709843162,34.6123],[69.787109375,59.84186432499412,24.4855],[69.771240234375,59.82868073124412,24.6335],[69.7662109375,59.807001043744123,31.505],[69.7646484375,59.761737371869117,33.5988],[69.74755859375,59.74127838749412,32.2261],[69.71728515625,59.737567449994117,32.8229],[69.587304687500023,59.757196356244123,29.1071],[69.552734375,59.75348541874412,35.8512],[69.523193359375,59.737811590619117,35.6262],[69.48193359375,59.686786199994117,28.9962],[69.465039062500011,59.672723699994123,35.2966],[69.4400390625,59.662372137494117,25.462],[69.334228515625,59.649530340619123,25.5958]]}}