{"type":"Feature","properties":{"featurecla":"River","scalerank":8,"rivernum":971,"dissolve":"971River","name":"null75","name_alt":null,"note":null,"min_zoom":7.0,"strokeweig":0.3,"name_en":null,"min_label":8.0},
"geometry":{"type": "LineString","coordinates": [[65.107421875,63.95941803593162,11.6606],[65.1158203125,63.93060944218162,11.9801],[65.132714843750023,63.91168854374412,7.5582],[65.157617187500023,63.90106842655662,12.7256],[65.267578125,63.89252350468162,13.6489],[65.304296875,63.88263580936912,12.8223],[65.340234375000023,63.863153387494123,13.1495]]}}