{"type":"Feature","properties":{"featurecla":"River","scalerank":8,"rivernum":842,"dissolve":"842River","name":"Severnaya2","name_alt":"Northern Sos’va","note":null,"min_zoom":7.0,"strokeweig":0.25,"name_en":"Severnaya Sos’va","min_label":8.0},
"geometry":{"type": "LineString","coordinates": [[63.286865234375,63.21295807499412,10.0],[63.392333984375,63.21979401249412,34.5735],[63.511474609375,63.207879949994123,28.898],[63.564355468750023,63.19245026249412,21.5473],[63.73828125,63.19403717655662,17.5727],[63.758056640625,63.19159577030662,15.8786],[63.768652343750006,63.18598053593162,16.6979],[63.791406250000023,63.168573309369123,15.8177],[63.81787109375,63.15790436405662,15.3849],[63.912011718750023,63.06232330936912,9.7225],[63.92529296875,63.055047918744123,12.8963],[63.948437500000011,63.04901764530662,12.3509],[63.95859375,63.05097077030662,21.9639],[63.962890625,63.06464264530662,18.3944],[63.9697265625,63.10968659061912,15.7077],[63.98388671875,63.13544342655662,10.4163],[64.006738281250023,63.144159246869123,14.9384],[64.06591796875,63.143182684369123,13.1757],[64.1650390625,63.16083405155662,15.222],[64.1962890625,63.154071356244117,15.3467],[64.224609375,63.142108465619117,14.3117],[64.254638671875,63.134784246869117,13.3354],[64.28466796875,63.13434479374412,14.5299],[64.31298828125,63.143182684369123,20.4638],[64.33505859375,63.157001043744117,14.5949],[64.3453125,63.16168854374412,16.2571],[64.360742187500023,63.164911199994123,13.9416],[64.3974609375,63.16351959843162,13.0316],[64.414794921875,63.16547272343162,14.7419],[64.422265625000023,63.17450592655662,10.5],[64.4169921875,63.184588934369117,27.4522],[64.40673828125,63.19415924686912,11.5],[64.4,63.20416901249412,12.7799],[64.405029296875,63.215838934369117,10.5],[64.426025390625,63.23419830936912,10.5],[64.43603515625,63.240838934369123,10.5],[64.448828125,63.246844793744117,12.0432],[64.50693359375,63.256854559369117,10.5],[64.5337890625,63.265643621869117,10.5],[64.545166015625,63.28436920780662,48.7988],[64.536865234375,63.31268952030662,12.6188],[64.540722656250011,63.324090887494123,10.0],[64.5625,63.32880280155662,10.0],[64.576074218750023,63.33734772343162,32.8452],[64.58447265625,63.356073309369123,38.9231],[64.595703125,63.374872137494123,11.7492],[64.625683593750011,63.38654205936912,15.6881],[64.6421875,63.40070221561912,12.5],[64.651562500000011,63.40387604374412,13.2412],[64.664453125000023,63.405047918744117,15.9543],[64.68955078125,63.41010162968162,13.7104],[64.703320312500011,63.41132233280662,10.5977]]}}