{"type":"Feature","properties":{"featurecla":"River","scalerank":7,"rivernum":543,"dissolve":"543River","name":"Nadym","name_alt":null,"note":null,"min_zoom":6.0,"strokeweig":0.15,"name_en":"Nadym","min_label":7.0},
"geometry":{"type": "LineString","coordinates": [[71.563232421875,63.541034246869117,107.9952],[71.563232421875,63.541034246869117,107.9952],[71.563232421875,63.541034246869117,107.9952],[71.563232421875,63.541034246869117,107.9952],[71.563232421875,63.541034246869117,107.9952],[71.593017578125,63.54975006718162,105.0],[71.655957031250011,63.557489324994123,105.0],[71.68603515625,63.564960028119117,104.2014],[71.711669921875,63.57904694218162,103.0],[71.751367187500023,63.612323309369117,102.9609],[71.77490234375,63.62299225468162,104.8682],[71.78369140625,63.624530340619117,102.3192],[71.809472656250023,63.624627996869123,100.5]]}}