{"type":"Feature","properties":{"GID_3":"RUS.24.9.1_1","GID_0":"RUS","country":"Russia","GID_1":"RUS.24_1","province":"Kamchatka","NL_NAME_1":"Камчатскаякрай","GID_2":"RUS.24.9_1","county":"Tigil'skiyrayon","NL_NAME_2":"Тигильскийрайон","city":"NA","VARNAME_3":"NA","NL_NAME_3":"NA","TYPE_3":"NA","ENGTYPE_3":"NA","CC_3":"NA","HASC_3":"NA","name":"N_A.city"},
"geometry":{"type": "MultiPolygon","coordinates": [[[[159.241,58.4608,0.0],[159.2436,58.4629,0.0],[159.2388,58.4624,0.0],[159.2387,58.4598,0.25],[159.241,58.4608,0.0]]],
[[[159.22066,58.465,0.0],[159.2205,58.4649,0.0],[159.2197,58.4642,0.0],[159.22066,58.465,0.0]]],
[[[159.22066,58.465,0.0],[159.2213,58.4654,0.0],[159.2227,58.4667,0.0],[159.22066,58.465,0.0]]],
[[[155.7394,56.1272,0.0],[155.7367,56.1278,2.762],[155.74,56.1303,0.0],[155.7389,56.135,3.6153],[155.7406,56.1358,1.1768],[155.7406,56.1403,2.1757],[155.7294,56.1139,2.4652],[155.7328,56.1178,0.0],[155.735,56.1244,1.73],[155.7394,56.1272,0.0]]],
[[[155.7422,56.1467,1.5393],[155.7417,56.1453,0.6504],[155.7428,56.1453,0.6504],[155.7444,56.1486,0.0],[155.7417,56.1475,0.8419],[155.7422,56.1467,1.5393]]],
[[[156.5438,57.1833,0.0],[156.5345,57.1803,0.0],[156.5352,57.1616,0.0],[156.545,57.1651,0.0],[156.5475,57.1703,0.0],[156.5438,57.1833,0.0]]],
[[[156.5838,57.171,0.843],[156.5849,57.1699,0.5752],[156.585,57.1715,0.0],[156.5899,57.1741,0.0],[156.5893,57.1776,0.0],[156.5859,57.1781,3.0308],[156.5838,57.1762,1.429],[156.5838,57.171,0.843]]],
[[[159.2367,58.4578,2.19],[159.2378,58.4622,0.0],[159.2345,58.4658,0.7301],[159.2289,58.4681,0.4673],[159.2228,58.4622,0.9862],[159.225,58.4589,0.5736],[159.2228,58.4589,0.5736],[159.2239,58.46,0.5736],[159.2222,58.4608,0.4402],[159.22,58.4569,1.134],[159.2222,58.4539,1.9048],[159.2317,58.4508,0.5],[159.2367,58.4578,2.19]]],
[[[159.2425,58.4632,0.0],[159.2441,58.4655,0.0],[159.2394,58.4684,1.706],[159.2375,58.4679,1.706],[159.2372,58.4651,0.3842],[159.2425,58.4632,0.0]]],
[[[159.3798,56.666,781.5941],[159.4661,56.6728,706.0236],[159.5976,56.6979,1800.5415],[159.5522,56.7369,1476.5197],[159.5613,56.7573,1159.6338],[159.6548,56.7842,992.7259],[159.7322,56.8118,1170.5129],[159.7341,56.8573,1359.8535],[159.6425,56.892,626.2696],[159.6741,56.9261,531.9267],[159.774,56.9359,790.4443],[159.8077,56.9523,829.0384],[159.7744,56.9812,766.3486],[159.802,57.0236,409.9218],[159.8089,57.0443,551.7403],[159.8372,57.0558,756.4025],[159.9359,57.05,1011.0673],[159.9342,57.0998,1344.6569],[160.0062,57.1344,876.8809],[160.0959,57.2086,843.7448],[160.1152,57.271,986.9924],[160.1973,57.3253,1834.0688],[160.1947,57.3593,1122.8707],[160.2431,57.3855,1698.8571],[160.2705,57.4392,1032.8301],[160.2921,57.5433,953.9446],[160.3183,57.5568,1056.3533],[160.286,57.5955,735.3727],[160.2844,57.6193,601.871],[160.2732,57.6633,508.7261],[160.2739,57.7184,833.7454],[160.3188,57.7746,1129.0299],[160.3888,57.8253,681.0483],[160.6052,58.0234,589.9161],[160.7017,58.1319,895.7657],[160.7706,58.2206,801.22],[160.8577,58.3069,1131.885],[160.8939,58.3714,810.4943],[160.8866,58.4575,1025.5061],[160.9307,58.5159,1490.3572],[161.2345,58.6546,1612.7256],[161.2932,58.7057,1274.7925],[161.3875,58.8302,1035.5112],[161.4243,58.9323,662.7494],[161.4461,59.013,392.1968],[161.5056,59.073,1012.9038],[161.5191,59.1354,458.5128],[161.4748,59.2343,1047.0222],[161.5377,59.2836,436.8705],[161.6121,59.3228,867.0612],[161.7427,59.3044,607.7279],[162.0659,59.277,373.5706],[162.1106,59.3157,247.4185],[162.1076,59.3474,472.9262],[162.0759,59.3705,482.8607],[161.996,59.3987,1041.7241],[161.9202,59.4289,689.6827],[161.823,59.4947,1336.2705],[161.7596,59.5555,1393.7852],[161.6873,59.5862,655.6636],[161.592,59.6313,883.5817],[161.5155,59.6867,516.7949],[161.4456,59.7633,400.0598],[161.3774,59.8135,312.1327],[161.3362,59.8735,527.1605],[161.3766,59.9154,195.8305],[161.4224,59.927,447.7285],[161.4579,59.9496,317.7821],[161.4204,59.9784,20.778],[161.415,59.9717,36.2438],[161.4117,59.9703,0.0],[161.4118,59.9673,0.0],[161.4094,59.9658,0.0],[161.4101,59.9627,4.9454],[161.4028,59.955,18.6414],[161.3903,59.9535,0.0],[161.3874,59.9516,49.422],[161.3789,59.9539,0.0],[161.3711,59.9469,1.2691],[161.3622,59.9436,0.0],[161.3633,59.9414,4.7612],[161.3568,59.9374,0.0],[161.3347,59.9278,12.6496],[161.3253,59.9171,0.0],[161.3254,59.9138,9.6878],[161.32,59.9028,32.3603],[161.3098,59.8922,10.184],[161.3027,59.8877,3.8681],[161.3022,59.8839,38.5099],[161.2994,59.8822,4.9324],[161.2938,59.8734,15.488],[161.2862,59.8654,41.9722],[161.2817,59.8631,0.0],[161.2688,59.8487,135.2624],[161.2465,59.837,25.155],[161.2239,59.8303,7.2084],[161.2174,59.8251,78.1649],[161.1998,59.821,10.2683],[161.1883,59.8206,0.0],[161.1881,59.8151,37.9147],[161.1831,59.8095,56.9305],[161.1772,59.8058,0.0],[161.176,59.8021,0.0],[161.1678,59.7936,189.6676],[161.1573,59.7849,6.4522],[161.1469,59.7783,7.3997],[161.1398,59.7758,4.6314],[161.1281,59.7671,18.3183],[161.1106,59.7587,62.4844],[161.0952,59.7558,0.0],[161.0672,59.7442,28.0118],[161.0517,59.7462,0.0],[161.0439,59.743899999999996,0.0],[161.0417,59.7408,0.0],[161.0428,59.7386,68.7727],[161.0331,59.7316,33.0978],[161.0317,59.7278,5.1309],[161.0239,59.7275,0.0],[161.0102,59.7237,24.4703],[161.0068,59.7215,0.0],[161.0075,59.7172,38.7159],[160.9995,59.7114,0.0],[160.9995,59.7098,22.0048],[160.9933,59.7114,0.0],[160.9864,59.7082,0.0],[160.9591,59.7092,0.0],[160.9578,59.7056,0.0],[160.9522,59.7064,10.0327],[160.9438,59.7026,0.0],[160.9432,59.6964,0.0],[160.95,59.6933,14.941],[160.9492,59.6869,0.0],[160.9522,59.6832,4.2747],[160.9528,59.6786,2.9289],[160.9481,59.6773,1.3639],[160.944,59.674,0.0],[160.944,59.6702,0.0],[160.938,59.6623,5.5149],[160.9167,59.6465,36.0228],[160.9124,59.6393,0.0],[160.8979,59.6282,22.005],[160.8813,59.6198,8.8355],[160.8534,59.6093,1.877],[160.7881,59.5958,1.6074],[160.7709,59.5961,2.7246],[160.7673,59.5986,6.4614],[160.7499,59.5913,5.7787],[160.6963,59.5909,1.2133],[160.6919,59.5899,2.6563],[160.6905,59.5865,19.2451],[160.6834,59.5819,28.4029],[160.6656,59.5794,1.9039],[160.6508,59.5724,4.0544],[160.6233,59.5664,1.3575],[160.6226,59.5632,11.7046],[160.6022,59.5614,5.3036],[160.5789,59.5569,1.4557],[160.5522,59.556399999999996,0.3373],[160.55,59.5544,1.6408],[160.5406,59.5542,0.3012],[160.5372,59.5522,2.9377],[160.5211,59.5514,1.5953],[160.5161,59.5483,3.1942],[160.5039,59.5492,0.3513],[160.5,59.5464,2.561],[160.5011,59.5453,3.9223],[160.4995,59.5422,3.7738],[160.4945,59.5396,1.9773],[160.495,59.5444,1.8319],[160.5017,59.5497,0.3513],[160.5061,59.5503,1.1542],[160.5056,59.5517,2.0188],[160.51,59.5506,1.3187],[160.5183,59.5536,0.3665],[160.5356,59.5561,0.7399],[160.5121,59.5588,0.0],[160.496,59.5561,0.9048],[160.4878,59.5486,3.9402],[160.4811,59.5369,0.0],[160.4755,59.5181,3.1169],[160.4766,59.5172,4.1453],[160.4761,59.5133,3.7936],[160.4739,59.51,4.365],[160.4756,59.5092,3.6499],[160.4728,59.5039,1.6367],[160.4706,59.5044,0.0],[160.47,59.5008,2.9439],[160.4639,59.493899999999996,4.5721],[160.4661,59.4906,3.8744],[160.4744,59.4897,4.8332],[160.4778,59.4869,3.9731],[160.4811,59.4875,5.4684],[160.4789,59.4808,4.6666],[160.4678,59.4819,4.0101],[160.4633,59.4808,3.1213],[160.4644,59.4789,5.1455],[160.4633,59.4747,3.0181],[160.46,59.47,4.0446],[160.4583,59.4639,2.0228],[160.46,59.4614,3.564],[160.4583,59.4617,2.6953],[160.4539,59.4578,3.5557],[160.4517,59.4508,4.0267],[160.445,59.4464,0.5479],[160.4461,59.4419,4.7745],[160.4411,59.4383,3.923],[160.4383,59.4328,5.106],[160.4406,59.4311,4.2631],[160.4367,59.4297,4.5795],[160.43,59.4181,8.7746],[160.425,59.4125,8.1557],[160.4228,59.4125,4.4878],[160.4239,59.4114,5.4412],[160.4228,59.4092,7.3354],[160.4144,59.4011,3.0803],[160.4178,59.3983,4.2189],[160.4139,59.3997,1.7311],[160.4128,59.3975,2.8667],[160.4089,59.3978,3.9921],[160.4078,59.3956,3.4239],[160.4017,59.3931,1.7442],[160.3956,59.3864,7.7726],[160.3783,59.3781,4.2251],[160.3733,59.375,4.0008],[160.3743,59.374,4.0008],[160.3706,59.3733,6.1714],[160.3595,59.3661,11.6432],[160.3267,59.3503,3.7854],[160.3256,59.3481,3.5881],[160.3206,59.3475,2.9086],[160.3194,59.3467,2.8944],[160.3211,59.345,2.481],[160.3139,59.3433,4.24],[160.3128,59.3422,2.9694],[160.3144,59.3422,4.24],[160.3128,59.3414,4.3307],[160.3106,59.3425,2.5141],[160.3049,59.3417,2.6015],[160.3011,59.3394,7.2934],[160.2639,59.3297,22.2715],[160.2441,59.3293,2.8632],[160.2325,59.3327,2.2785],[160.2189,59.3297,8.1699],[160.1969,59.3293,9.0157],[160.1884,59.3194,0.0],[160.1897,59.3137,0.0],[160.1886,59.3101,4.8491],[160.1681,59.2939,0.0],[160.1662,59.2905,0.0],[160.1563,59.2838,0.0],[160.1233,59.2692,1.891],[160.1108,59.2669,84.9043],[160.1057,59.2683,4.448],[160.1049,59.2665,44.7095],[160.1018,59.2658,3.2663],[160.1031,59.2635,15.4687],[160.1013,59.2612,3.4855],[160.095,59.2575,7.3288],[160.0873,59.2481,25.024],[160.0748,59.2407,0.0],[160.0638,59.2362,3.924],[160.0569,59.228,38.1193],[160.0414,59.2235,0.0],[160.0424,59.2223,38.9596],[160.0409,59.2208,8.0083],[160.0261,59.2125,0.0],[160.026,59.2095,9.3873],[160.0232,59.2062,16.8224],[160.0011,59.1919,24.0447],[160.0,59.1897,21.0744],[159.9967,59.1898,0.0],[159.9879,59.1857,0.0],[159.9702,59.1755,0.8181],[159.969,59.1736,6.3761],[159.9678,59.1747,3.0553],[159.9337,59.1654,4.1697],[159.9111,59.1526,0.0],[159.8923,59.1461,3.8819],[159.8813,59.1393,0.0],[159.865,59.1322,0.0],[159.8561,59.1252,3.9724],[159.848,59.1121,0.0],[159.8411,59.1065,0.0],[159.833,59.095,0.0],[159.8351,59.0852,2.4476],[159.8327,59.0766,0.0],[159.8373,59.0777,0.3994],[159.8389,59.0767,0.0],[159.8297,59.0756,0.0],[159.801,59.0539,0.0],[159.7881,59.0491,0.0],[159.7786,59.0406,0.6369],[159.7746,59.0392,2.664],[159.7639,59.0398,2.9984],[159.7626,59.0377,4.8395],[159.7633,59.0335,5.8111],[159.7524,59.0175,20.4113],[159.735,59.0011,0.0],[159.7322,58.9947,120.8757],[159.7244,58.9881,0.0],[159.7211,58.9792,120.7748],[159.7191,58.9781,13.8711],[159.7195,58.9766,0.0],[159.7234,58.9752,0.0],[159.7411,58.9767,0.0],[159.7419,58.9749,0.0],[159.749,58.9718,0.0],[159.7578,58.9619,2.5517],[159.7611,58.9467,0.0],[159.76,58.9389,0.0],[159.7572,58.9367,0.0],[159.76,58.9353,0.0],[159.7552,58.9149,14.6715],[159.7472,58.8917,0.0],[159.7367,58.8736,7.5048],[159.7224,58.8582,20.6543],[159.7011,58.8419,17.5257],[159.6805,58.8312,5.731],[159.6743,58.8304,20.4797],[159.6689,58.8333,24.3946],[159.6615,58.8331,14.3203],[159.6533,58.8352,17.5696],[159.6427,58.8343,21.8662],[159.6358,58.8369,10.4331],[159.6324,58.8335,0.0],[159.6338,58.8306,0.0],[159.6313,58.8269,11.6726],[159.6228,58.8217,20.7874],[159.6171,58.8203,20.9917],[159.6185,58.8153,0.0],[159.6267,58.8108,6.778],[159.6194,58.7994,0.7947],[159.6071,58.7897,0.0],[159.6173,58.7905,2.0562],[159.6215,58.793,2.0706],[159.6207,58.79,0.7936],[159.6122,58.789,0.7229],[159.6126,58.7863,4.9952],[159.6075,58.7867,4.1655],[159.5994,58.7842,0.0],[159.5917,58.7736,14.685],[159.5778,58.7606,4.8359],[159.5322,58.7272,1.0846],[159.5333,58.7258,5.6942],[159.4872,58.6975,4.0095],[159.4617,58.6889,0.0],[159.4189,58.6708,0.8516],[159.405,58.6608,0.0],[159.3656,58.6272,2.7945],[159.3311,58.6042,0.0],[159.2262,58.5607,0.0],[159.2044,58.5448,0.0],[159.1885,58.5286,0.0],[159.1809,58.5197,0.0],[159.18,58.5145,2.6812],[159.1917,58.5131,0.9743],[159.1978,58.5064,2.1822],[159.2027,58.506,4.3225],[159.2077,58.5015,3.0287],[159.2044,58.5008,0.0],[159.2072,58.4998,3.8529],[159.2076,58.496,6.5712],[159.2208,58.4866,0.0],[159.2272,58.4839,52.0533],[159.2304,58.4802,0.0],[159.24,58.4783,1.6701],[159.2456,58.4739,3.993],[159.245,58.4722,2.8521],[159.2485,58.4677,0.0],[159.2527,58.4664,5.9249],[159.2516,58.4642,0.3941],[159.2439,58.4608,2.327],[159.2372,58.4553,0.5],[159.2367,58.4492,1.6319],[159.2345,58.4506,0.5],[159.2306,58.4492,3.6509],[159.2272,58.4519,3.238],[159.2206,58.4533,5.0825],[159.2167,58.4567,4.986],[159.2195,58.4619,0.0],[159.2183,58.4636,5.0301],[159.2256,58.4703,0.0],[159.2244,58.4725,1.5996],[159.2172,58.4775,0.0],[159.2078,58.4814,0.0],[159.2033,58.4814,2.8703],[159.1911,58.4883,2.8526],[159.1878,58.4925,0.0],[159.1833,58.4947,1.4835],[159.1822,58.4961,0.0],[159.1844,58.4975,0.0],[159.1806,58.4981,0.0],[159.1811,58.4994,0.0],[159.1767,58.4994,1.3858],[159.175,58.4964,1.7839],[159.1739,58.4975,0.0],[159.1778,58.5017,0.0],[159.1772,58.5056,4.5864],[159.1794,58.5053,0.0],[159.1778,58.5072,0.0],[159.1806,58.5075,0.0],[159.1783,58.5089,0.7568],[159.1809,58.511,0.0],[159.1774,58.5131,0.0],[159.1728,58.5131,0.0],[159.1744,58.5114,0.8099],[159.1706,58.5089,0.0],[159.1722,58.5083,4.2332],[159.1711,58.5061,4.7698],[159.1689,58.5047,1.5797],[159.1611,58.4917,3.0741],[159.15,58.4789,4.09],[159.1456,58.4767,0.5854],[159.1444,58.4733,2.2752],[159.1428,58.4733,2.2752],[159.1411,58.4706,1.2103],[159.1155,58.4511,8.7605],[159.0774,58.4279,23.3026],[159.053,58.4188,0.0],[159.0381,58.4093,3.9188],[159.0248,58.403,13.5972],[159.0067,58.3978,0.0],[158.9921,58.3891,0.0],[158.949,58.3732,0.0],[158.809,58.3147,19.5544],[158.7466,58.2961,2.6136],[158.6659,58.2621,0.0],[158.6229,58.2363,27.3122],[158.5982,58.2237,31.9248],[158.5717,58.2062,4.4142],[158.4279,58.1383,16.982],[158.415,58.1301,22.4932],[158.3666,58.0934,0.8299],[158.3542,58.0824,17.6876],[158.3148,58.0645,4.6261],[158.2592,58.0466,2.4268],[158.2208,58.0316,0.8808],[158.2159,58.0273,0.0],[158.2164,58.0205,0.0],[158.2188,58.0176,19.488],[158.2021,58.0211,4.0863],[158.1839,58.0219,3.5142],[158.1449,58.0047,5.5965],[158.1283,58.0,17.7624],[158.1155,58.0,0.0],[158.1003,57.9956,0.0],[158.0731,57.9931,0.0],[158.0389,57.9847,33.4936],[158.0137,57.9831,0.0],[157.9934,57.9785,61.9117],[157.9324,57.9724,30.3274],[157.9126,57.9761,48.7804],[157.896,57.9772,21.5366],[157.8811,57.9761,97.0629],[157.8715,57.9783,61.3282],[157.854,57.9791,86.5417],[157.8017,57.9861,14.3298],[157.7689,57.9925,7.7733],[157.7621,57.995,11.8922],[157.7622,57.9969,0.0],[157.7572,58.0025,0.0],[157.7571,58.0075,0.0],[157.7528,58.0097,3.939],[157.7583,58.0133,0.0],[157.7589,58.0156,0.0],[157.7472,58.0147,0.0],[157.745,58.0131,7.3668],[157.7049,58.0112,72.6355],[157.6781,58.0128,91.011],[157.6584,58.0018,74.8764],[157.6722,57.9961,18.5273],[157.6739,57.9933,53.3045],[157.6739,57.9878,52.248],[157.6713,57.98,40.7081],[157.6507,57.9609,101.1428],[157.6375,57.9561,134.8769],[157.6137,57.94,100.5952],[157.5963,57.9346,37.5051],[157.5785,57.9328,72.0935],[157.5772,57.9309,90.3668],[157.5838,57.9272,3.6926],[157.5868,57.9221,39.8247],[157.5894,57.9042,70.7212],[157.5873,57.8958,12.3003],[157.5785,57.8864,42.2982],[157.5823,57.8788,102.617],[157.5799,57.8722,111.2782],[157.5432,57.8339,73.4026],[157.5336,57.8292,1.5518],[157.5344,57.83,36.5889],[157.5319,57.8281,7.3764],[157.5274,57.8223,0.0],[157.5206,57.8189,0.9298],[157.4394,57.7903,103.0272],[157.3939,57.7811,12.1666],[157.36,57.7725,18.319],[157.3044,57.7658,7.2884],[157.2417,57.7664,11.0404],[157.1756,57.7733,6.7923],[157.1219,57.7825,0.0],[157.1189,57.7836,1.2044],[157.12,57.7844,0.0],[157.0522,57.8003,7.4563],[157.0411,57.806399999999996,10.081],[157.03,57.8167,4.4433],[157.0289,57.8206,38.1436],[157.03,57.8228,0.0],[157.0283,57.8253,26.997],[157.0356,57.8303,2.3842],[157.0256,57.8339,1.1209],[157.0194,57.8383,1.6303],[157.0133,57.8447,15.0481],[157.0106,57.8508,6.7321],[157.0111,57.8536,0.0],[157.0039,57.8572,0.0],[156.9991,57.8531,0.0],[156.99,57.8515,0.0],[156.9789,57.8439,0.0],[156.9789,57.8417,6.9501],[156.9748,57.8382,30.9274],[156.9656,57.8375,0.0],[156.9672,57.8361,0.0],[156.965,57.8336,49.9483],[156.9527,57.8308,0.0],[156.9394,57.8229,55.1842],[156.9316,57.8211,0.0],[156.9214,57.8163,0.0],[156.914,57.8112,0.0],[156.9044,57.8003,76.1352],[156.8789,57.7956,0.0],[156.8694,57.7956,0.0],[156.8606,57.7969,40.7331],[156.8596,57.8022,0.0],[156.854,57.8014,0.0],[156.8544,57.8,0.0],[156.8494,57.7981,12.6],[156.8467,57.795,21.7442],[156.8472,57.7928,44.4375],[156.8439,57.7903,0.0],[156.8432,57.787,0.0],[156.8546,57.7856,35.7826],[156.8552,57.7795,22.1523],[156.8522,57.7742,0.0],[156.8439,57.7706,0.0],[156.8361,57.7728,0.0],[156.8267,57.7681,0.0],[156.8261,57.7653,11.0371],[156.8153,57.7554,49.2088],[156.8,57.7475,0.0],[156.7883,57.735,19.7327],[156.7751,57.7273,2.6005],[156.7738,57.7244,0.0],[156.78,57.7208,20.2638],[156.7856,57.7197,0.0],[156.787,57.7244,0.0],[156.7898,57.7246,0.0],[156.7939,57.7286,0.0],[156.8089,57.7272,18.1982],[156.8357,57.7176,6.4898],[156.8467,57.7161,17.2061],[156.8556,57.7117,0.0],[156.8561,57.7092,0.0],[156.8722,57.7028,3.5247],[156.9033,57.6753,4.0712],[156.9589,57.6019,3.0562],[156.9683,57.5856,9.4968],[156.9728,57.5761,22.6342],[156.973,57.5714,0.9746],[156.9889,57.5386,1.7469],[156.9911,57.5273,0.0],[156.9956,57.5206,8.1786],[156.9988,57.4973,35.7197],[157.0005,57.4949,16.2096],[157.0034,57.4599,15.1441],[157.0005,57.4335,7.037],[156.9837,57.3992,1.0204],[156.9839,57.3961,5.71],[156.9801,57.394,11.1546],[156.9712,57.3842,0.0],[156.9657,57.3754,4.69],[156.9661,57.3731,9.5685],[156.9634,57.372,10.4649],[156.9414,57.3468,30.0353],[156.9363,57.3395,0.0],[156.9367,57.3364,8.6946],[156.9331,57.3356,0.0],[156.9302,57.3322,4.3007],[156.9111,57.3052,2.833],[156.91,57.3011,1.0081],[156.8989,57.2871,1.6427],[156.8928,57.2803,17.598],[156.8874,57.2791,0.0],[156.8834,57.2756,25.6007],[156.8789,57.2678,3.3296],[156.8538,57.2385,3.6528],[156.8518,57.2357,0.2584],[156.8517,57.2281,0.1383],[156.85,57.2258,0.5934],[156.845,57.2242,2.4603],[156.8406,57.2189,5.2052],[156.8122,57.1956,5.4881],[156.7939,57.1686,6.1781],[156.7817,57.1547,2.8345],[156.7561,57.1353,3.021],[156.7406,57.1169,3.5884],[156.7317,57.1089,3.3382],[156.73,57.1047,3.4203],[156.7239,57.0978,1.1108],[156.7222,57.0928,1.3435],[156.72,57.0914,2.6112],[156.7178,57.0842,2.4303],[156.7211,57.0822,2.2014],[156.7278,57.0825,0.3246],[156.7383,57.0778,1.9493],[156.7383,57.0761,2.4241],[156.7339,57.0739,1.2836],[156.7317,57.0706,2.5801],[156.7272,57.0683,3.2905],[156.7039,57.0644,2.0006],[156.6878,57.0575,2.017],[156.6683,57.0589,1.2106],[156.6472,57.0675,2.2217],[156.6511,57.0694,1.3399],[156.6511,57.0725,1.0868],[156.6228,57.0753,17.8328],[156.61,57.0806,0.4447],[156.605,57.0808,1.2483],[156.5953,57.0865,12.5454],[156.5794,57.0872,0.3423],[156.5598,57.1009,19.2541],[156.5532,57.1018,28.1952],[156.5495,57.1,0.0],[156.5481,57.0976,7.5286],[156.5383,57.0931,5.8426],[156.5401,57.0898,21.3636],[156.5361,57.0866,0.0],[156.5372,57.0846,0.0],[156.5333,57.0806,0.0],[156.5411,57.0778,0.0],[156.5422,57.0731,10.3578],[156.5501,57.0645,18.1898],[156.5501,57.0496,4.4858],[156.541,57.0247,3.2854],[156.5356,57.0211,1.646],[156.5226,57.0034,2.8204],[156.5183,57.0,0.0],[156.5133,56.9904,2.7075],[156.5086,56.9887,0.556],[156.5065,56.9851,1.9389],[156.5009,56.9818,0.3836],[156.5011,56.9794,2.2364],[156.4969,56.975,5.213],[156.495,56.975,3.3875],[156.4933,56.9719,4.5367],[156.4883,56.9694,1.604],[156.47,56.9544,3.5433],[156.4356,56.9322,2.8439],[156.4278,56.9292,2.0189],[156.425,56.9267,3.3686],[156.4261,56.9253,3.5108],[156.4206,56.9253,3.7574],[156.4061,56.9175,3.8544],[156.3783,56.9064,2.6278],[156.3689,56.8997,2.4951],[156.3539,56.8925,1.9662],[156.3533,56.8917,1.7973],[156.3561,56.8911,1.754],[156.355,56.8903,2.3484],[156.3517,56.8925,2.8683],[156.3611,56.8975,2.402],[156.3161,56.8822,0.0],[156.3083,56.8772,2.3874],[156.3,56.8764,3.2835],[156.2617,56.8647,2.037],[156.2544,56.8597,2.1619],[156.2433,56.8575,1.5892],[156.2422,56.8556,1.8964],[156.2406,56.8564,2.2372],[156.2411,56.8575,2.0263],[156.2478,56.86,1.694],[156.2339,56.8597,0.0],[156.2233,56.8558,0.0],[156.2144,56.8503,0.0],[156.2094,56.8428,1.8999],[156.2106,56.8386,2.2863],[156.2195,56.8378,2.4875],[156.2139,56.8317,2.6311],[156.215,56.83,2.1029],[156.2167,56.8322,2.5339],[156.2183,56.8319,2.4692],[156.2183,56.8289,2.1175],[156.2167,56.8283,1.945],[156.2161,56.8272,1.8791],[156.2178,56.8269,2.2764],[156.2144,56.8225,1.8368],[156.2044,56.8153,0.0],[156.2072,56.8119,1.1192],[156.2072,56.8094,0.8737],[156.205,56.8069,1.403],[156.2056,56.8053,2.2793],[156.2028,56.805,1.035],[156.1989,56.8008,0.0],[156.1978,56.7961,1.6291],[156.2,56.7947,1.8761],[156.1944,56.7942,1.7342],[156.1933,56.7958,0.4724],[156.1828,56.7928,2.7765],[156.1633,56.7917,3.7299],[156.1306,56.7842,0.3231],[156.13,56.7797,0.0],[156.1317,56.7786,0.3522],[156.1289,56.7767,0.3924],[156.1039,56.7669,2.1028],[156.09,56.7572,1.2575],[156.08,56.7578,1.1897],[156.095,56.7686,1.4234],[156.1061,56.7833,1.5857],[156.1328,56.7967,0.3562],[156.1478,56.7975,0.353],[156.1472,56.8014,0.8269],[156.1506,56.805,0.0],[156.15,56.8069,0.8871],[156.17,56.8183,0.6472],[156.1689,56.8217,3.428],[156.1711,56.8272,3.1625],[156.1783,56.8292,2.6943],[156.1828,56.8281,0.0],[156.1856,56.8308,2.3343],[156.1828,56.83,2.5899],[156.1817,56.8317,3.3087],[156.1756,56.8325,1.8099],[156.1644,56.8303,2.4821],[156.1478,56.8242,0.8391],[156.1306,56.8147,4.535],[156.1189,56.8103,2.7151],[156.1044,56.7994,4.765],[156.0972,56.7964,0.697],[156.0739,56.7769,2.8535],[156.0428,56.7383,5.0949],[156.0194,56.7172,4.347],[156.0183,56.7156,2.9086],[156.0194,56.715,4.9855],[156.015,56.7122,0.0],[156.015,56.7103,4.1807],[156.0133,56.71,4.1807],[156.01,56.7047,5.101],[155.9956,56.69,1.0975],[155.9772,56.6583,4.6664],[155.9744,56.6542,4.9687],[155.9711,56.6525,0.0],[155.9711,56.6497,4.4568],[155.9656,56.6433,2.7015],[155.9556,56.6233,4.6022],[155.9489,56.6136,0.0],[155.9411,56.595,5.5389],[155.9383,56.5833,3.4751],[155.93,56.5658,2.3925],[155.9284,56.5597,0.0],[155.9289,56.5542,4.263],[155.9222,56.5419,0.0],[155.9139,56.5183,0.7967],[155.9083,56.5086,0.9201],[155.9083,56.5044,3.49],[155.9055,56.5022,0.0],[155.9067,56.4992,3.6699],[155.905,56.4986,3.4746],[155.9039,56.4931,2.8766],[155.9022,56.4922,1.8588],[155.9033,56.4908,3.2337],[155.9006,56.4889,0.5445],[155.8994,56.4828,0.5563],[155.8917,56.4686,2.8537],[155.89,56.4614,3.4107],[155.8917,56.4606,3.2069],[155.89,56.4603,3.5712],[155.8872,56.4544,0.0],[155.8867,56.4486,2.9436],[155.885,56.4481,0.0],[155.8833,56.4436,2.8719],[155.88,56.4419,0.5438],[155.8928,56.4369,2.5],[155.8944,56.4334,3.2547],[155.88,56.4242,2.7912],[155.8689,56.4203,0.0],[155.8667,56.4131,0.0],[155.8611,56.4044,0.0],[155.8615,56.399,1.9899],[155.8527,56.3836,3.9209],[155.8397,56.3654,0.0],[155.8316,56.3502,0.0],[155.8253,56.3329,2.3475],[155.8202,56.3109,2.0058],[155.8144,56.3037,0.0],[155.8067,56.2822,0.0],[155.8068,56.2781,2.0733],[155.8108,56.2825,0.7618],[155.8135,56.291,2.0218],[155.8156,56.2911,1.9779],[155.8157,56.2899,1.6332],[155.8131,56.2866,1.5933],[155.8135,56.2836,0.0],[155.8219,56.2933,0.0],[155.8266,56.2919,2.0799],[155.8215,56.2896,0.5983],[155.821,56.2861,1.7459],[155.8135,56.2784,0.4745],[155.8062,56.2751,4.0139],[155.8013,56.2673,5.0715],[155.7943,56.249,2.2898],[155.7823,56.2259,0.0],[155.7812,56.215,3.2665],[155.7692,56.2004,0.9409],[155.764,56.1868,1.3444],[155.7575,56.1769,1.6126],[155.757,56.1719,0.0],[155.7544,56.1675,13.426],[155.7558,56.1638,0.0],[155.755,56.1613,14.7805],[155.7493,56.155,1.4921],[155.7436,56.1395,15.7372],[155.7444,56.126,6.1936],[155.7384,56.1194,0.0],[155.7358,56.1123,0.0],[155.7373,56.109,4.4649],[155.7448,56.1043,1.27],[155.7645,56.1003,0.8642],[155.7944,56.0883,0.0],[155.8033,56.0872,1.472],[155.8283,56.0883,1.0585],[155.8344,56.0869,1.171],[155.8417,56.0814,0.5],[155.8622,56.0722,2.6192],[155.8561,56.0731,3.2297],[155.8439,56.0781,4.0256],[155.8356,56.0847,0.9662],[155.8278,56.0875,1.0585],[155.8039,56.0847,3.2652],[155.7861,56.0889,1.3059],[155.7772,56.0942,0.0],[155.7694,56.0942,0.0],[155.7706,56.0931,2.025],[155.7694,56.0931,2.7857],[155.7617,56.0967,1.6538],[155.7454,56.0987,0.6628],[155.7432,56.0968,2.0525],[155.7394,56.0965,1.9636],[155.7363,56.0935,0.4633],[155.7288,56.0844,0.0],[155.7271,56.0783,0.3735],[155.7359,56.0767,0.0],[155.7403,56.0724,1.5781],[155.7494,56.0712,0.0],[155.7394,56.0715,1.512],[155.7351,56.0749,2.0652],[155.7265,56.0759,1.342],[155.7237,56.078,0.6875],[155.7194,56.0777,0.3397],[155.7191,56.0813,0.0],[155.7206,56.0826,0.7163],[155.7183,56.0856,1.4488],[155.7133,56.0775,4.3805],[155.7156,56.0758,3.1958],[155.7189,56.0772,0.3397],[155.7189,56.0747,4.0314],[155.7206,56.075,4.0314],[155.7178,56.0742,3.8379],[155.715,56.075,2.7569],[155.7144,56.0697,2.0],[155.7089,56.0656,3.5016],[155.7078,56.0669,2.9633],[155.7117,56.0703,2.3845],[155.7111,56.0714,3.7971],[155.7139,56.0742,3.2447],[155.7133,56.0767,4.7272],[155.7094,56.0722,5.0167],[155.7078,56.0722,1.8651],[155.6972,56.0511,4.0089],[155.6872,56.0372,0.0],[155.69,56.0367,7.5843],[155.6906,56.0333,5.218],[155.6883,56.03,2.5],[155.6894,56.0194,3.5163],[155.6878,56.0181,10.1679],[155.6889,56.0203,3.5163],[155.6856,56.0239,4.8065],[155.6867,56.0242,4.8065],[155.6861,56.032,4.7159],[155.6878,56.0342,4.5511],[155.6867,56.0356,0.732],[155.6733,56.0172,1.2592],[155.6683,56.0033,9.189],[155.6505,55.9669,0.0],[155.65,55.9453,0.0],[155.6517,55.9267,0.0],[155.65,55.9217,0.877],[155.6511,55.8997,2.3884],[155.6491,55.8938,3.0527],[155.6489,55.885,3.615],[155.65,55.8842,3.615],[155.6483,55.8767,0.0],[155.6489,55.8644,12.1373],[155.6478,55.8628,0.0],[155.6489,55.8603,27.376],[155.6472,55.8447,6.3887],[155.6483,55.8386,3.9968],[155.645,55.8217,1.7159],[155.6461,55.8189,1.6744],[155.645,55.8172,1.607],[155.6467,55.8156,0.8636],[155.645,55.8142,1.8755],[155.6461,55.8108,2.3715],[155.64,55.7886,0.7936],[155.6389,55.7736,1.1227],[155.64,55.7681,2.2449],[155.6372,55.747,1.3135],[155.6855,55.7314,18.2851],[155.8276,55.7257,41.2706],[156.1322,55.6464,95.0114],[156.2416,55.6548,80.6254],[156.4544,55.7266,100.288],[157.0247,55.681399999999996,306.6275],[157.3865,55.679,764.5557],[157.5074,55.6392,1411.1018],[157.5952,55.6524,1364.0916],[157.5526,55.7309,858.7853],[157.7343,55.829,1428.1654],[157.8466,55.94,764.3477],[158.1922,56.1275,729.0277],[158.1824,56.148,1148.5165],[158.044,56.1747,597.6327],[157.9905,56.1805,585.4561],[157.825,56.1849,473.3147],[157.6937,56.2085,425.4814],[157.5531,56.2919,269.8461],[157.4606,56.394,283.7239],[157.3551,56.4986,125.6496],[157.414,56.5575,145.0462],[157.4974,56.6151,109.4244],[157.4613,56.677,118.9154],[157.6614,56.7634,72.6542],[157.8407,56.7513,129.8099],[157.9645,56.7098,118.8178],[158.0835,56.7046,180.0351],[158.2812,56.7362,302.1508],[158.4421,56.5267,579.8502],[159.2241,56.6615,743.075],[159.3272,56.6619,746.5248],[159.3798,56.666,781.5941]]],
[[[159.2339,58.4686,0.0],[159.2356,58.4669,0.0],[159.2367,58.4675,0.0],[159.2361,58.4697,0.2924],[159.2339,58.4686,0.0]]],
[[[160.4111,59.4013,3.9617],[160.4122,59.3995,3.9663],[160.4219,59.4102,4.5815],[160.4194,59.4095,4.5815],[160.4111,59.4013,3.9617]]],
[[[160.4596,59.4732,4.6765],[160.4577,59.4775,3.0823],[160.4541,59.4769,0.0],[160.4494,59.4655,0.0],[160.4534,59.4663,0.9902],[160.4596,59.4732,4.6765]]],
[[[160.4595,59.4745,4.5935],[160.46,59.4737,1.5084],[160.462,59.4742,3.0181],[160.4601,59.4763,2.9185],[160.4595,59.4745,4.5935]]],
[[[160.4956,59.5424,2.0433],[160.4956,59.5406,2.0844],[160.4989,59.5453,2.8799],[160.4969,59.5446,2.5226],[160.4956,59.5424,2.0433]]],
[[[160.6583,59.5833,1.3938],[160.6628,59.5824,0.0],[160.6633,59.5838,2.1007],[160.6611,59.5855,0.0],[160.6583,59.5833,1.3938]]],
[[[161.3982,59.9578,0.0],[161.4007,59.9572,0.228],[161.4023,59.9588,0.0],[161.3987,59.9587,0.0],[161.3982,59.9578,0.0]]]]}}