{"type":"Feature","properties":{"GID_3":"RUS.30.13.1_1","GID_0":"RUS","country":"Russia","GID_1":"RUS.30_1","province":"Khanty-Mansiy","NL_NAME_1":"Ханты-МансийскийАОк","GID_2":"RUS.30.13_1","county":"Nizhnevartovskiyrayon","NL_NAME_2":"Нижневартовскийрайон","city":"NA","VARNAME_3":"NA","NL_NAME_3":"NA","TYPE_3":"NA","ENGTYPE_3":"NA","CC_3":"NA","HASC_3":"NA","name":"N_A.city"},
"geometry":{"type": "MultiPolygon","coordinates": [[[[80.9889,63.1339,197.0434],[80.9525,63.1376,184.0169],[80.8311,63.1118,164.934],[80.7319,63.1013,169.7714],[80.6514,63.0846,185.2882],[80.6402,63.0121,168.987],[80.6052,62.9883,173.9213],[80.5267,62.9851,160.6134],[80.501,62.9825,155.1091],[80.5053,62.9632,146.6947],[80.2291,62.8451,150.6926],[80.0656,62.8182,141.9961],[79.9628,62.814,134.8621],[79.9287,62.7959,139.0496],[79.9125,62.7641,152.9652],[79.906,62.7241,131.6483],[79.8712,62.6516,145.0486],[79.8384,62.5889,134.7404],[79.7349,62.5777,126.4143],[79.6373,62.5853,121.5074],[79.4852,62.5925,120.4008],[79.345,62.5765,119.1743],[79.163,62.575,119.3174],[78.9914,62.5826,118.7279],[78.9001,62.5983,120.1813],[78.7998,62.6088,116.8553],[78.7213,62.6006,118.0],[78.5999,62.5848,116.0119],[78.5058,62.5836,113.1947],[78.3928,62.5794,114.4426],[78.2697,62.5688,113.3517],[78.1789,62.5574,108.4026],[78.0494,62.5215,111.5983],[77.8376,62.5673,111.0182],[77.6771,62.6308,106.0],[77.3892,62.7283,112.0],[77.2408,62.7896,124.5756],[77.1532,62.8437,128.9561],[77.0671,62.9277,134.0215],[77.0434,62.9682,132.2242],[76.9661,63.0027,135.7359],[76.8498,63.0104,133.1884],[76.7412,63.0377,130.9347],[76.6411,63.0412,128.1995],[76.6407,62.9282,114.715],[76.6245,62.771,105.7462],[76.5949,62.6172,88.3694],[76.5885,62.5669,88.2692],[76.4241,62.2836,73.8919],[76.0416,62.2274,75.2118],[75.9904,62.2281,75.0802],[75.9681,62.1651,72.8529],[75.9546,62.0938,69.6276],[75.7887,62.0604,69.1369],[75.3764,62.0082,60.3098],[75.1717,62.0017,74.7269],[74.964,62.0187,69.1023],[74.8964,61.8229,53.1878],[74.8529,61.5895,52.1056],[74.879,61.414,38.1462],[74.8849,61.3322,42.0437],[74.8924,61.2859,45.1533],[75.0547,61.1754,34.7831],[75.1217,61.2037,35.0768],[75.1794,61.2234,34.6396],[75.2492,61.2054,35.6506],[75.3064,61.1549,37.5194],[75.3315,61.1109,36.0092],[75.3437,61.083,35.4441],[75.3846,61.0499,37.7057],[75.4075,61.0211,36.558],[75.3529,61.003,46.6806],[75.3329,60.9341,49.9116],[75.3909,60.9071,34.178],[75.3867,60.8946,42.4164],[75.1069,60.8648,46.2108],[74.8325,60.8509,47.5116],[74.7416,60.8479,48.8163],[74.6951,60.8378,68.079],[74.6702,60.8261,69.887],[74.6518,60.7668,56.3177],[74.6947,60.7019,96.6106],[74.716,60.6758,79.1899],[74.8391,60.6833,69.9463],[74.9325,60.6848,68.915],[74.9991,60.6246,93.1451],[75.0535,60.6068,86.6421],[75.0801,60.571,85.9731],[75.1126,60.51,83.7716],[75.11,60.453,90.0609],[75.1,60.4052,88.4136],[75.2384,60.3131,85.577],[75.2628,60.2895,81.1492],[75.2664,60.2697,68.5773],[75.1925,60.2652,92.9976],[75.1233,60.2673,93.953],[75.1031,60.2702,88.1404],[75.0902,60.2286,88.9776],[75.0852,60.1896,91.2868],[75.0721,60.1685,96.573],[75.1807,60.1488,90.5066],[75.2714,60.1138,90.9447],[75.3866,60.0494,90.4453],[75.4614,60.0112,99.8365],[75.4777,59.9033,84.2012],[75.6332,59.9334,96.0519],[75.7736,59.937,101.7486],[75.9109,59.9214,98.2793],[76.0232,59.8893,93.252],[76.1607,59.8307,103.2849],[76.3473,59.7629,101.0396],[76.4862,59.7141,114.0265],[76.6789,59.6521,107.9935],[76.6751,59.6844,103.07],[76.7286,59.7232,117.2057],[76.7458,59.7805,120.167],[76.7322,59.8322,99.5122],[76.7413,59.89,100.9791],[76.7562,59.9372,95.2436],[76.7652,59.9736,107.9567],[76.7461,60.033,102.887],[76.7212,60.0759,84.6509],[76.7796,60.1115,97.2997],[76.8337,60.1617,86.3662],[76.8665,60.2225,95.1142],[76.842,60.2732,73.6988],[76.8314,60.3398,83.8571],[76.841,60.4004,86.4989],[76.8592,60.4518,72.3078],[76.9041,60.48,54.0512],[76.9989,60.4937,54.4395],[77.0543,60.513,48.8035],[77.073,60.5393,45.9925],[77.018,60.6078,38.1666],[77.0024,60.635,43.3097],[77.0664,60.7115,40.5098],[77.0751,60.741,40.9632],[77.056,60.7896,39.1187],[77.0912,60.8265,34.1013],[77.1546,60.8384,50.4808],[77.2574,60.8088,40.7828],[77.3581,60.7991,47.5583],[77.5142,60.8092,50.0388],[77.6325,60.8051,55.1517],[77.7717,60.7938,53.2876],[77.865,60.7738,56.2155],[77.9411,60.75,55.7543],[78.0277,60.748,58.7397],[78.1122,60.7896,61.495],[78.2122,60.7916,69.6201],[78.4454,60.7663,74.2123],[78.5329,60.7689,75.4368],[78.609,60.8002,83.9617],[78.6797,60.8249,83.4285],[78.7262,60.7788,70.4045],[78.7934,60.7551,57.1535],[78.8751,60.7423,59.4265],[78.9247,60.7511,62.1266],[78.946,60.785,56.8347],[79.0121,60.8106,60.0721],[79.0996,60.8072,64.2328],[79.1839,60.7993,60.6723],[79.2472,60.7901,59.9384],[79.2801,60.7637,71.6329],[79.2651,60.7319,66.6042],[79.2679,60.697,80.5171],[79.303,60.6577,73.5557],[79.3723,60.6417,69.6018],[79.4517,60.6406,80.7391],[79.5804,60.6518,90.9756],[79.7052,60.669,92.5023],[79.8472,60.659,88.6242],[79.9717,60.6673,92.9188],[80.0582,60.664,96.6803],[80.1607,60.6698,98.3967],[80.2512,60.6984,113.9875],[80.3166,60.7231,106.82],[80.4593,60.744,109.7394],[80.5953,60.7466,118.6163],[80.6456,60.7709,105.8057],[80.7252,60.789,108.2684],[80.8198,60.7853,119.1331],[80.9179,60.7756,107.1577],[81.0471,60.7332,101.7078],[81.0531,60.7028,101.6135],[81.0648,60.6628,102.5974],[81.0819,60.6235,100.0214],[81.234,60.6041,102.2813],[81.3347,60.6087,110.1775],[81.4762,60.6036,127.2598],[81.5907,60.6288,118.6018],[81.6894,60.6233,105.8246],[81.7673,60.6339,108.1259],[81.8638,60.6252,98.8377],[81.9853,60.5924,112.1075],[82.0787,60.5538,118.5164],[82.1133,60.5264,122.3511],[82.153,60.5071,119.9439],[82.2468,60.5129,132.9345],[82.3244,60.5523,120.1526],[82.4025,60.5946,114.8574],[82.4128,60.6402,118.5119],[82.4178,60.6956,121.498],[82.5305,60.7544,115.4776],[82.6691,60.8164,118.1522],[82.8239,60.8708,118.857],[82.9821,60.931,128.6385],[83.0994,60.9728,131.3633],[83.1962,61.0016,142.3122],[83.3697,61.0152,138.4139],[83.5178,61.0134,152.8191],[83.6158,60.9867,159.4429],[83.7066,60.9347,145.4832],[83.7673,60.9034,139.0977],[83.8627,60.8688,144.0549],[83.946,60.8346,143.7748],[84.0536,60.8256,154.1959],[84.1663,60.834,154.8477],[84.253,60.844,148.9292],[84.5658,60.9565,154.2557],[84.9414,61.0552,147.2957],[85.6618,61.2593,160.2401],[85.6721,61.2752,163.3892],[85.6785,61.3262,155.5101],[85.6569,61.3649,161.8649],[85.6537,61.3934,155.235],[85.7171,61.4233,159.6129],[85.7987,61.4486,179.5959],[85.9643,61.4684,168.9047],[85.9691,61.5052,183.502],[85.9159,61.5481,180.103],[85.8327,61.5702,163.5194],[85.7405,61.5718,174.4521],[85.6546,61.5768,172.001],[85.578,61.6004,188.2655],[85.4773,61.6541,186.2169],[85.402,61.6871,187.4407],[85.2131,61.6977,153.263],[85.126,61.7209,182.5022],[85.0118,61.7458,176.5308],[84.9524,61.7692,158.4718],[84.7644,61.7887,151.1301],[84.6851,61.8228,162.21],[84.5938,61.893,152.8499],[84.5134,61.9886,151.5512],[84.4937,62.0675,152.9436],[84.5151,62.153,167.1719],[84.5145,62.1781,147.6826],[84.4557,62.1977,164.3533],[84.4067,62.2417,149.8034],[84.3258,62.2682,150.8848],[84.3079,62.3344,175.4409],[84.2203,62.3806,162.4461],[84.1102,62.3756,152.547],[84.0307,62.4367,156.1848],[83.9827,62.4846,173.7485],[83.9241,62.5172,167.9015],[83.8676,62.5341,176.5757],[83.8022,62.5406,186.4174],[83.7132,62.507,178.1749],[83.6623,62.4796,176.1881],[83.622,62.4777,167.3218],[83.6257,62.5202,183.0486],[83.6078,62.5303,182.9015],[83.4542,62.4571,160.7825],[83.3938,62.4547,159.0424],[83.2242,62.489,172.5381],[83.1461,62.5143,173.7544],[83.1027,62.5326,151.0407],[83.0963,62.5843,147.7005],[83.076,62.6053,157.3725],[82.8394,62.6312,157.7616],[82.7977,62.6458,163.4334],[82.7954,62.7291,158.8845],[82.7917,62.7568,155.6581],[82.583,62.7642,199.5276],[82.4004,62.7519,158.0338],[82.317,62.7623,159.0715],[82.1922,62.8031,180.3541],[82.1283,62.8223,176.3089],[82.0406,62.8149,153.4835],[81.9846,62.7796,126.2145],[81.9474,62.7343,135.8904],[81.9314,62.6956,138.1208],[81.852,62.6854,137.4987],[81.757,62.7108,154.6639],[81.672,62.7639,163.0585],[81.6179,62.8069,167.7196],[81.5152,62.7869,163.8698],[81.4398,62.8034,169.9248],[81.3499,62.8359,191.4024],[81.3023,62.8646,189.2271],[81.3056,62.8924,180.3456],[81.3376,62.9183,176.6128],[81.1793,62.991,156.3462],[81.0669,63.0469,177.8572],[81.0113,63.1028,181.9371],[80.9889,63.1339,197.0434]],
[[75.2359,61.2703,45.1381],[75.191,61.2698,45.8341],[75.1792,61.2784,45.2493],[75.1952,61.3005,45.4171],[75.2445,61.3096,42.4978],[75.2574,61.2796,44.9685],[75.2359,61.2703,45.1381]],
[[76.3228,60.9613,38.3785],[76.2274,60.9444,34.2483],[76.1909,60.9609,36.274],[76.2019,61.0088,29.989],[76.2589,61.0135,35.9543],[76.3151,61.0004,36.837],[76.3228,60.9613,38.3785]],
[[76.8415,60.9242,44.4802],[76.8002,60.9201,45.5623],[76.7642,60.9322,47.5774],[76.7629,60.9488,60.0731],[76.8346,60.9718,57.7215],[76.867,60.9667,44.6485],[76.8816,60.9471,43.2135],[76.8415,60.9242,44.4802]],
[[77.5023,62.0912,68.0049],[77.4364,62.0807,66.4478],[77.3734,62.0995,67.22],[77.3953,62.1364,68.3736],[77.4833,62.1503,65.6018],[77.527,62.1064,69.1051],[77.5023,62.0912,68.0049]],
[[75.1732,61.6042,67.7888],[75.0697,61.5968,42.6022],[75.0679,61.6427,48.9439],[75.0885,61.6634,47.9449],[75.1526,61.675,42.5195],[75.2201,61.6527,43.8693],[75.219,61.624,43.3643],[75.1732,61.6042,67.7888]]]]}}