{"type":"Feature","properties":{"featurecla":"River","scalerank":8,"rivernum":707,"dissolve":"707River","name":"Bol4","name_alt":null,"note":null,"min_zoom":7.0,"strokeweig":0.2,"name_en":"Bol’shoy Yenisey","min_label":8.0},
"geometry":{"type": "LineString","coordinates": [[98.537109375,52.325311590619116,1592.0522],[98.3330078125,52.30731842655662,1565.9094],[98.311132812500034,52.30097077030662,1638.7915],[98.267675781250034,52.28180573124412,1503.4243],[98.171142578125,52.25177643436912,1410.5538],[97.982519531250034,52.219110418744116,1326.2266],[97.962597656250011,52.209735418744117,1269.418],[97.948828125000034,52.191913153119117,1296.1272],[97.924707031250023,52.147235418744117,1214.536],[97.911523437500023,52.13092682499412,1199.5436],[97.889257812500034,52.12164948124412,1276.5015],[97.859375,52.11798737186912,1184.2864],[97.801660156250023,52.117938543744117,1189.2048],[97.67333984375,52.135272528119117,1126.4114],[97.625585937500034,52.14911530155662,1203.235],[97.606347656250023,52.15204498905662,1166.8186],[97.598535156250023,52.154169012494116,1105.2874],[97.5791015625,52.163592840619117,1091.11],[97.47314453125,52.172381903119117,1081.7607],[97.459570312500034,52.17194244999412,1080.6104],[97.445410156250034,52.16950104374412,1105.2744],[97.418212890625,52.160760809369116,1189.2848],[97.407470703125,52.15888092655662,1082.0088],[97.295117187500011,52.15204498905662,1097.7461],[97.224853515625,52.138299871869116,1081.7629],[97.198974609375,52.13837311405662,1048.3722]]}}