{"type":"Feature","properties":{"featurecla":"River","scalerank":4,"rivernum":133,"dissolve":"133River","name":"Kyzyl2","name_alt":null,"note":null,"min_zoom":4.0,"strokeweig":0.3,"name_en":"Kyzyl-Khem","min_label":5.0},
"geometry":{"type": "LineString","coordinates": [[95.965039062500011,51.34210846561912,878.4481],[95.94091796875,51.345086981244116,844.2997],[95.930419921875,51.34467194218162,816.593],[95.917236328125,51.34210846561912,907.5719],[95.906494140625,51.337665106244117,853.2349],[95.883544921875,51.32489655155662,734.4473],[95.853613281250034,51.31781647343162,1058.6089],[95.802441406250011,51.29852936405662,764.2833],[95.780029296875,51.29498932499412,759.1924]]}}