{"type":"Feature","properties":{"featurecla":"River","scalerank":8,"rivernum":707,"dissolve":"707River","name":"Bol3","name_alt":null,"note":null,"min_zoom":7.0,"strokeweig":0.15,"name_en":"Bol’shoy Yenisey","min_label":8.0},
"geometry":{"type": "LineString","coordinates": [[98.733154296875,52.515155340619117,2073.9336],[98.703710937500034,52.48615143436912,2064.3159],[98.625585937500034,52.452167059369117,1797.6794],[98.603515625,52.419549871869116,1807.7643],[98.6025390625,52.39606354374412,1911.3451],[98.605566406250034,52.37763092655662,2003.316],[98.605224609375,52.36041901249412,1784.8582],[98.59326171875,52.34076569218162,1638.3051],[98.584082031250034,52.33441803593162,1597.7815],[98.57080078125,52.33002350468162,1591.9491],[98.537109375,52.325311590619116,1592.0522]]}}