{"type":"Feature","properties":{"featurecla":"River","scalerank":8,"rivernum":707,"dissolve":"707River","name":"Bol5","name_alt":null,"note":null,"min_zoom":7.0,"strokeweig":0.25,"name_en":"Bol’shoy Yenisey","min_label":8.0},
"geometry":{"type": "LineString","coordinates": [[97.198974609375,52.13837311405662,1048.3722],[97.17626953125,52.144159246869116,1224.2493],[97.14453125,52.16193268436912,1050.9851],[97.106201171875,52.16754791874412,1114.2588],[97.08251953125,52.17633698124412,1139.8052],[97.068603515625,52.179315496869116,1149.7039],[97.057031250000023,52.178729559369117,1160.6123],[97.027441406250034,52.17316315311912,1079.772],[96.935546875,52.16974518436912,1063.6694],[96.861718750000023,52.15839264530662,1125.2615],[96.705468750000023,52.15888092655662,1016.0967],[96.695410156250034,52.16071198124412,1009.6588],[96.6748046875,52.16925690311912,1025.0762],[96.66455078125,52.17194244999412,1026.7068],[96.61767578125,52.16559479374412,1022.7207],[96.606054687500034,52.16876862186912,1031.7087],[96.541015625,52.21283600468162,996.2723],[96.555078125000023,52.220477606244117,1008.6115],[96.551513671875,52.22736237186912,1000.7396],[96.52734375,52.24079010624412,998.3154],[96.5244140625,52.247430731244116,999.4263],[96.526464843750034,52.25409577030662,998.7577],[96.5263671875,52.25922272343162,996.4243],[96.516796875000011,52.26129791874412,992.1047],[96.505957031250034,52.26203034061912,979.7805],[96.49609375,52.26447174686912,982.589],[96.4873046875,52.26886627811912,973.1086],[96.4794921875,52.27558014530662,1005.3641],[96.4521484375,52.26923248905662,988.5834],[96.382519531250011,52.273065496869116,984.4055],[96.359082031250011,52.26471588749412,958.0344],[96.3408203125,52.254999090619116,965.3618],[96.31884765625,52.25641510624412,950.3383],[96.2734375,52.26813385624412,988.7582],[96.22119140625,52.26532623905662,941.3803],[96.163818359375,52.25470612186912,1333.8046],[96.106542968750034,52.25079987186912,969.7562],[96.054882812500011,52.26813385624412,1069.6504],[96.037011718750023,52.277460028119116,926.1588],[96.038183593750034,52.28082916874412,931.0791],[96.048095703125,52.289178778119116,924.4978],[96.057861328125,52.293963934369117,923.9774],[96.0888671875,52.30206940311912,923.7001],[96.099316406250011,52.303485418744117,923.4661],[96.104736328125,52.308124090619117,917.6323],[96.1103515625,52.31903717655662,922.2541],[96.11474609375,52.33148834843162,913.3832],[96.116455078125,52.34076569218162,915.6741],[96.11865234375,52.34418366093162,914.5564],[96.123242187500011,52.346063543744116,913.0259],[96.1279296875,52.34870026249412,923.5992],[96.130078125000011,52.354364324994116,919.6729],[96.12841796875,52.36066315311912,909.9642],[96.12255859375,52.37287018436912,910.2139],[96.12255859375,52.37799713749412,907.3632],[96.12939453125,52.385760809369117,908.7755],[96.145898437500023,52.39752838749412,902.9364],[96.150488281250034,52.405877996869116,909.8171],[96.1513671875,52.418719793744117,937.9023],[96.146679687500011,52.42426178593162,972.4333],[96.138085937500023,52.428241278119117,975.4216],[96.126367187500023,52.43598053593162,948.7929],[96.123779296875,52.44269440311912,931.0544],[96.116455078125,52.47040436405662,908.2214],[96.11279296875,52.478143621869116,923.1166],[96.094921875000011,52.49371979374412,928.8496],[96.088476562500034,52.50153229374412,897.1884],[96.078125,52.53839752811912,905.8007],[96.068603515625,52.555682684369117,915.5769],[96.0439453125,52.56683991093162,898.0858],[96.0126953125,52.58746979374412,897.8725],[96.010498046875,52.589471746869116,903.0409],[96.001220703125,52.61884186405662,895.3856],[96.000390625000023,52.625018621869117,895.1767],[95.929101562500023,52.64838287968162,880.1782],[95.917236328125,52.66254303593162,889.1995],[95.905859375000034,52.67206452030662,886.7396],[95.852294921875,52.695575262494117,945.6974],[95.834716796875,52.700702215619117,864.4173]]}}