{"type":"Feature","properties":{"featurecla":"River","scalerank":4,"rivernum":144,"dissolve":"144River","name":"Malyy","name_alt":null,"note":null,"min_zoom":4.0,"strokeweig":0.3,"name_en":"Malyy Yenisey","min_label":5.0},
"geometry":{"type": "LineString","coordinates": [[95.780029296875,51.29498932499412,759.1924],[95.75390625,51.30304596561912,775.8063],[95.746972656250023,51.31928131718162,790.7867],[95.752636718750011,51.35956452030662,861.5966],[95.74267578125,51.37042877811912,831.4199],[95.6572265625,51.41681549686912,722.4825],[95.644433593750023,51.427997137494117,720.4211],[95.619238281250034,51.455096746869117,726.0314],[95.602148437500034,51.46918366093162,711.892],[95.484619140625,51.53595612186912,804.2695],[95.451904296875,51.54303619999412,739.2715],[95.43212890625,51.55280182499412,856.5825],[95.42041015625,51.555047918744116,797.0981],[95.396582031250034,51.55329010624412,708.7561],[95.3759765625,51.548211981244116,687.5491],[95.328710937500034,51.54364655155662,697.035],[95.197265625,51.58234284061912,682.9041],[95.160839843750011,51.58539459843162,674.8523],[95.1494140625,51.58856842655662,673.4745],[95.141503906250023,51.594501043744117,688.1997],[95.124267578125,51.612665106244116,685.7367],[95.11865234375,51.61652252811912,685.3644],[95.099218750000034,51.622333074994117,690.5203],[95.055419921875,51.649286199994116,679.5435],[95.033935546875,51.657489324994117,681.6178],[95.021240234375,51.657831121869116,679.0917],[95.01025390625,51.65582916874412,681.6024],[94.992431640625,51.650653387494117,704.6871],[94.949316406250034,51.64276764530662,659.8729],[94.91845703125,51.631854559369117,657.4955],[94.893457031250023,51.639422918744117,655.9631],[94.855224609375,51.664911199994116,668.2925],[94.813720703125,51.685321356244117,657.1722],[94.78759765625,51.694598699994117,649.575],[94.69091796875,51.711444403119117,777.3644],[94.512451171875,51.72321198124412,635.4464],[94.464746093750023,51.73371002811912,687.3925]]}}