{"type":"Feature","properties":{"featurecla":"River","scalerank":8,"rivernum":707,"dissolve":"707River","name":"Bol6","name_alt":null,"note":null,"min_zoom":7.0,"strokeweig":0.3,"name_en":"Bol’shoy Yenisey","min_label":8.0},
"geometry":{"type": "LineString","coordinates": [[94.464746093750023,51.73371002811912,687.3925],[94.470312500000034,51.74017975468162,693.1348],[94.472070312500023,51.74884674686912,638.969],[94.470117187500023,51.75861237186912,633.0883],[94.464746093750023,51.76850006718162,626.8907],[94.48779296875,51.78742096561912,632.4542],[94.48876953125,51.81476471561912,644.6606],[94.475976562500023,51.84284088749412,638.1509],[94.457910156250023,51.864032293744117,648.2928],[94.451416015625,51.865985418744117,637.3007],[94.4423828125,51.86664459843162,640.6742],[94.43408203125,51.868524481244116,637.0],[94.4306640625,51.87396881718162,646.8859],[94.432373046875,51.88104889530662,644.1013],[94.435791015625,51.88873932499412,644.0438],[94.438232421875,51.89704010624412,641.125],[94.436718750000011,51.90558502811912,652.2654],[94.428125,51.91486237186912,656.73],[94.418212890625,51.91913483280662,657.8844],[94.412695312500034,51.925067449994117,654.2853],[94.4169921875,51.93915436405662,661.7091],[94.425878906250034,51.94806549686912,665.3065],[94.450439453125,51.95624420780662,657.3127],[94.465039062500011,51.96625397343162,688.4771],[94.477441406250023,51.972674871869117,747.8333],[94.481835937500023,51.973895574994117,759.0678],[94.48486328125,51.97589752811912,710.2239],[94.486425781250034,51.98627350468162,673.1662],[94.5029296875,52.01520416874412,805.4645],[94.485937500000034,52.02069733280662,675.6435],[94.436718750000011,52.01483795780662,666.1752],[94.4248046875,52.017108465619117,683.4458],[94.416601562500034,52.02106354374412,685.7994],[94.411718750000034,52.02802155155662,678.4649],[94.41015625,52.039081121869117,686.696],[94.40576171875,52.05182526249412,681.6442],[94.396240234375,52.056024481244116,875.3214],[94.386621093750023,52.05695221561912,757.3091],[94.38232421875,52.059588934369117,767.1866],[94.380078125000011,52.06244537968162,789.6737],[94.375585937500034,52.06561920780662,742.5555],[94.370996093750023,52.070086981244117,696.3733],[94.368554687500023,52.076922918744117,673.125],[94.37158203125,52.08197662968162,674.0],[94.3857421875,52.09210846561912,771.8779],[94.38916015625,52.097430731244117,838.5511],[94.3857421875,52.108661199994117,908.2853],[94.37109375,52.12335846561912,817.991],[94.368554687500023,52.13092682499412,762.0823],[94.380078125000011,52.146014715619117,823.043],[94.405029296875,52.15912506718162,845.8038],[94.433007812500023,52.16840241093162,855.8181],[94.45458984375,52.17194244999412,916.7623],[94.465039062500011,52.17536041874412,796.1313],[94.474853515625,52.18353912968162,863.8978],[94.483789062500023,52.19281647343162,874.6011],[94.4921875,52.19977448124412,763.1179],[94.5224609375,52.213641668744117,747.4874],[94.532470703125,52.220331121869116,1017.9141],[94.597949218749989,52.27863190311912,765.8832],[94.60888671875,52.30097077030662,1268.113],[94.589941406250034,52.312616278119116,749.1437],[94.562109375000034,52.32013580936912,766.2178],[94.546142578125,52.330194403119116,985.0693],[94.58447265625,52.33454010624412,795.2786],[94.60302734375,52.33392975468162,1069.6144],[94.622460937500023,52.330194403119116,1025.0842],[94.650488281250034,52.31830475468162,994.1929],[94.659423828125,52.31647369999412,763.7043],[94.666601562500034,52.31867096561912,768.73],[94.680273437500034,52.32807037968162,754.8616],[94.698437500000011,52.33319733280662,1108.8599],[94.710839843750023,52.341327215619117,862.8995],[94.720703125,52.35321686405662,999.864],[94.724853515625,52.36774323124412,1003.684],[94.727929687500023,52.38641998905662,831.405],[94.735742187500023,52.39252350468162,838.9935],[94.7470703125,52.39581940311912,791.494],[94.76025390625,52.405877996869116,974.7941],[94.768164062500034,52.424188543744116,901.9767],[94.771386718750023,52.441913153119117,854.9448],[94.78076171875,52.45526764530662,814.7352],[94.832421875000023,52.465204168744116,850.9449],[94.876562500000034,52.48737213749412,790.4902],[94.896679687500011,52.494647528119117,805.0667],[94.965039062500011,52.494647528119117,799.3086],[94.978759765625,52.496698309369116,794.2684],[95.00390625,52.50568268436912,803.1219],[95.016210937500034,52.507684637494116,803.1619],[95.026123046875,52.51056549686912,801.4354],[95.043359375000023,52.52435944218162,800.6105],[95.053808593750034,52.529413153119116,839.3363],[95.065332031250023,52.530780340619117,803.0668],[95.16650390625,52.529413153119116,814.6219],[95.177343750000034,52.52716705936912,818.1],[95.197509765625,52.51740143436912,818.1071],[95.207763671875,52.515155340619117,816.9822],[95.257080078125,52.51361725468162,811.0728],[95.27294921875,52.515155340619117,819.0751],[95.27392578125,52.517206121869116,811.9636],[95.277929687500034,52.52204010624412,811.5076],[95.282958984375,52.526971746869116,812.7156],[95.287207031250034,52.529413153119116,821.8909],[95.294677734375,52.528583074994117,818.3892],[95.309472656250023,52.52301666874412,821.3383],[95.31396484375,52.521991278119117,813.2047],[95.3583984375,52.53168366093162,815.6525],[95.380273437500023,52.542987371869117,823.3516],[95.3896484375,52.559833074994117,834.1649],[95.391992187500023,52.573016668744117,821.0295],[95.39794921875,52.579120184369117,820.4619],[95.40673828125,52.58331940311912,821.2887],[95.4169921875,52.590838934369117,826.0513],[95.437402343750023,52.617547918744116,827.3192],[95.475683593750034,52.64435455936912,837.0762],[95.629199218749989,52.68024323124412,980.5092],[95.662695312500034,52.698016668744117,948.4043],[95.673583984375,52.700702215619117,877.1587],[95.71728515625,52.699579168744116,854.4966],[95.741308593750034,52.70746491093162,859.6389],[95.786865234375,52.69330475468162,866.9522],[95.798730468750023,52.693866278119117,867.9137],[95.821191406250023,52.70001862186912,873.2646],[95.834716796875,52.700702215619117,864.4173]]}}