{"type":"Feature","properties":{"featurecla":"River","scalerank":4,"rivernum":133,"dissolve":"133River","name":"Kyzyl1","name_alt":null,"note":null,"min_zoom":4.0,"strokeweig":0.25,"name_en":"Kyzyl-Khem","min_label":5.0},
"geometry":{"type": "LineString","coordinates": [[97.297949218750034,51.35956452030662,937.2948],[97.27734375,51.351434637494116,1176.793],[97.24560546875,51.353534246869117,1224.6663],[97.191503906250034,51.363299871869117,1254.8429],[97.027587890625,51.35578034061912,1144.9185],[97.013916015625,51.353387762494116,1241.8312],[96.988037109375,51.34345123905662,1113.0132],[96.973046875000023,51.34210846561912,1233.3982],[96.960546875000034,51.34552643436912,1268.907],[96.941992187500034,51.35809967655662,1084.1208],[96.931396484375,51.363299871869117,1226.413],[96.915625,51.364862371869116,1421.1053],[96.873046875,51.35578034061912,1008.5729],[96.861718750000023,51.359002996869116,976.697],[96.8359375,51.37311432499412,1153.5012],[96.821533203125,51.37628815311912,1353.793],[96.640625,51.37006256718162,965.012],[96.629003906250034,51.36676666874412,1093.7433],[96.60986328125,51.35224030155662,874.8918],[96.599023437500023,51.348993231244116,887.8672],[96.3212890625,51.348993231244116,1073.3645],[96.28076171875,51.342059637494117,1078.928],[96.266015625000023,51.34210846561912,928.6358],[96.2548828125,51.344989324994117,888.6719],[96.2333984375,51.35394928593162,1165.9758],[96.212158203125,51.35761139530662,1143.4196],[96.2021484375,51.36273834843162,879.2085],[96.194580078125,51.37030670780662,798.4328],[96.186621093750034,51.39105866093162,1166.8318],[96.17431640625,51.396112371869116,1350.2552],[96.143652343750034,51.39679596561912,1355.3865],[96.08447265625,51.39130280155662,1155.8708],[96.053955078125,51.38226959843162,786.8491],[96.040625,51.366717840619117,764.927],[96.032617187500023,51.34638092655662,749.0],[96.012939453125,51.33881256718162,790.8475],[95.988183593750023,51.339129949994117,923.2468],[95.965039062500011,51.34210846561912,878.4481]]}}