{"type":"Feature","properties":{"GID_2":"RUS.3.2_1","GID_0":"RUS","country":"Russia","GID_1":"RUS.3_1","province":"Amur","NL_NAME_1":"Амурскаяобласть","county":"Belogorsk","VARNAME_2":"NA","NL_NAME_2":"Белогорск","TYPE_2":"Gorsovet","ENGTYPE_2":"District","CC_2":"NA","HASC_2":"RU.AM.BG","name":"Belogorsk.county"},
"geometry":{"type": "MultiPolygon","coordinates": [[[[128.4854,50.8765,165.0271],[128.4953,50.8902,169.6864],[128.4923,50.8966,166.7768],[128.4823,50.9018,170.4595],[128.4667,50.9062,174.3204],[128.4493,50.9064,169.2168],[128.4436,50.9002,169.5679],[128.4399,50.8933,162.8427],[128.4402,50.8814,164.0278],[128.4647,50.8737,164.7403],[128.4734,50.8736,165.1576],[128.4854,50.8765,165.0271]]]]}}