{"type":"Feature","properties":{"GID_3":"RUS.83.7.1_1","GID_0":"RUS","country":"Russia","GID_1":"RUS.83_1","province":"Zabaykal'ye","NL_NAME_1":"Забайкальскийкрай","GID_2":"RUS.83.7_1","county":"Borzya","NL_NAME_2":"Борзя","city":"NA","VARNAME_3":"NA","NL_NAME_3":"NA","TYPE_3":"NA","ENGTYPE_3":"NA","CC_3":"NA","HASC_3":"NA","name":"N_A.city"},
"geometry":{"type": "MultiPolygon","coordinates": [[[[116.594,50.3759,740.7795],[116.6041,50.3869,704.9681],[116.6069,50.3998,696.4561],[116.5785,50.4073,685.1951],[116.5547,50.3911,681.6351],[116.5574,50.3833,688.8317],[116.5781,50.374,725.0694],[116.594,50.3759,740.7795]]]]}}