{"type":"Feature","properties":{"GID_3":"RUS.83.15.1_1","GID_0":"RUS","country":"Russia","GID_1":"RUS.83_1","province":"Zabaykal'ye","NL_NAME_1":"Забайкальскийкрай","GID_2":"RUS.83.15_1","county":"Karymskiyrayon","NL_NAME_2":"Карымскийрайон","city":"NA","VARNAME_3":"NA","NL_NAME_3":"NA","TYPE_3":"NA","ENGTYPE_3":"NA","CC_3":"NA","HASC_3":"NA","name":"N_A.city"},
"geometry":{"type": "MultiPolygon","coordinates": [[[[114.3067,51.2767,898.7511],[114.3368,51.3109,940.2681],[114.3569,51.3502,900.679],[114.3931,51.3931,853.1163],[114.4426,51.4131,885.5767],[114.496,51.4289,1003.6103],[114.5554,51.4428,967.0909],[114.5762,51.4752,881.8218],[114.6171,51.5297,930.5079],[114.6431,51.5405,794.2056],[114.6927,51.5566,857.3904],[114.7479,51.591,868.3372],[114.7984,51.6268,904.8043],[114.8723,51.6671,813.2037],[114.8947,51.6612,1021.787],[114.9081,51.7083,905.4658],[114.9291,51.7368,627.3616],[114.9434,51.7861,568.1581],[114.933,51.8321,618.0854],[114.9403,51.8852,630.0945],[114.9575,51.9341,723.8263],[114.9933,51.9614,741.7371],[115.0309,51.9761,710.4587],[115.0835,51.9934,800.9581],[115.1487,52.0213,772.2132],[115.1929,52.0653,859.8774],[115.1443,52.0891,985.0048],[115.0881,52.1073,873.7046],[115.0771,52.1391,1039.0762],[115.038,52.1578,919.5553],[115.0102,52.2013,863.1723],[115.0482,52.2452,840.7261],[115.0982,52.2884,882.1246],[115.134,52.3373,925.4315],[115.1568,52.3888,906.7885],[115.1768,52.4295,1022.4245],[115.1535,52.4166,864.2481],[115.1251,52.4272,796.4997],[115.1197,52.4741,747.715],[115.1079,52.504,663.9487],[115.0721,52.5032,710.4161],[115.0309,52.4966,744.5272],[114.9911,52.4982,728.9149],[114.8705,52.5428,938.9798],[114.7482,52.5714,1128.8606],[114.6284,52.6043,1268.7939],[114.6087,52.6304,1185.8794],[114.59,52.6432,1148.3135],[114.5723,52.6831,1029.7739],[114.5397,52.6367,1055.2085],[114.5029,52.6152,952.9653],[114.4451,52.6096,950.5421],[114.4313,52.5634,982.2144],[114.4418,52.4736,982.0718],[114.46,52.4129,1014.4626],[114.4389,52.3469,908.7878],[114.4072,52.2936,877.4602],[114.4138,52.1531,926.6427],[114.3883,52.113,897.7174],[114.3363,52.0782,966.3079],[114.2863,52.0536,1034.3871],[114.2835,52.0124,1128.2482],[114.25,51.9694,1015.795],[114.2036,51.9462,958.97],[114.1765,51.9241,808.9818],[114.1961,51.8865,960.2456],[114.2411,51.8541,1098.9166],[114.2741,51.827,912.2344],[114.2499,51.7846,766.5081],[114.1866,51.7522,839.2673],[114.1406,51.724,695.7257],[114.0596,51.7051,746.7111],[113.8377,51.7129,820.5165],[113.7795,51.7108,770.4998],[113.7398,51.7016,723.2594],[113.7065,51.683,761.9013],[113.6753,51.6043,845.0366],[113.6432,51.577,803.8936],[113.609,51.5642,757.3942],[113.6002,51.5119,879.2159],[113.5646,51.4001,907.3242],[113.5134,51.3646,966.1014],[113.4571,51.2943,780.6803],[113.41,51.2476,837.6613],[113.391,51.2031,1046.4541],[113.3814,51.1688,859.8431],[113.3809,51.1215,1154.8201],[113.4069,51.1058,1072.7346],[113.4326,51.0805,1126.7794],[113.5194,51.0744,939.3141],[113.5881,51.058,862.9944],[113.6526,51.0297,853.0802],[113.7119,51.0413,974.1855],[113.7161,51.0724,889.9057],[113.717,51.101,860.8505],[113.757,51.1179,842.0822],[113.7718,51.1573,936.5444],[113.7068,51.1799,875.1223],[113.6499,51.2054,824.5434],[113.6648,51.2628,896.7454],[113.7021,51.2714,755.5214],[113.7737,51.2766,831.5035],[113.8064,51.3059,922.8528],[113.8341,51.3434,845.6381],[113.8884,51.3545,895.9526],[113.9551,51.3516,919.5366],[113.991,51.3946,856.5559],[114.0193,51.3957,784.5248],[114.0493,51.3441,743.7366],[114.1149,51.3651,810.5656],[114.1394,51.3437,798.0045],[114.132,51.3227,891.4801],[114.1845,51.29,921.5872],[114.2468,51.2799,963.9599],[114.3067,51.2767,898.7511]]]]}}