{"type":"Feature","properties":{"featurecla":"River","scalerank":5,"rivernum":188,"dissolve":"188River","name":"Indigirka","name_alt":null,"note":null,"min_zoom":4.7,"strokeweig":0.15,"name_en":"Indigirka","min_label":5.7},
"geometry":{"type": "LineString","coordinates": [[144.71181640625002,62.76801178593162,1134.2014],[144.749755859375,62.74066803593162,953.7438],[144.76503906250002,62.724237371869123,945.3854],[144.78701171875002,62.68207428593162,965.3268],[144.82656250000002,62.62824127811912,994.3021],[144.83974609375002,62.61554596561912,1002.6895],[144.99072265625,62.51422760624412,1092.4026],[145.00888671875003,62.50739166874412,1128.1589]]}}