{"type":"Feature","properties":{"featurecla":"River","scalerank":5,"rivernum":188,"dissolve":"188River","name":"Indigirka1","name_alt":null,"note":null,"min_zoom":4.7,"strokeweig":0.2,"name_en":"Indigirka","min_label":5.7},
"geometry":{"type": "LineString","coordinates": [[142.057861328125,63.85150787968162,614.4674],[142.0927734375,63.818622137494117,620.874],[142.133056640625,63.792352606244123,629.5583],[142.21035156250002,63.766620184369117,633.8809],[142.23486328125,63.75397369999412,632.0886],[142.27080078125005,63.729022528119117,640.4492],[142.38046875000003,63.68756744999412,768.2495],[142.39423828125,63.67658112186912,757.5193],[142.403515625,63.66132233280662,647.9774],[142.41328125,63.61151764530662,661.7236],[142.4228515625,63.595575262494123,656.3582],[142.442578125,63.580096746869117,664.2235],[142.46738281250003,63.569452215619123,657.7103],[142.64931640625002,63.53815338749412,1114.472],[142.66123046875003,63.53217194218162,1033.3588],[142.68515625000003,63.51496002811912,905.0982],[142.71445312500003,63.49909088749412,673.6096],[142.74716796875003,63.487176824994123,672.8433],[142.78134765625003,63.479754949994117,677.3295],[142.81494140625,63.47711823124412,677.7819],[142.86289062500003,63.480829168744123,688.7779],[142.92958984375002,63.49469635624412,762.1031],[142.94970703125,63.49640534061912,829.5487],[142.969921875,63.49555084843162,834.6418],[143.08945312500003,63.47492096561912,772.4995],[143.150390625,63.450799871869123,695.6202],[143.1818359375,63.44257233280662,710.597],[143.2509765625,63.43695709843162,998.5316],[143.26650390625002,63.43121979374412,1019.6747],[143.29189453125002,63.41107819218162,963.502],[143.30605468750002,63.402606512494117,759.1038],[143.32216796875002,63.39789459843162,713.8483],[143.35595703125,63.39227936405662,710.0053],[143.8875,63.207538153119117,760.2008],[144.01279296875003,63.18744537968162,767.4473],[144.0625,63.17084381718162,772.4174],[144.08730468750002,63.167840887494123,775.4293],[144.09873046875003,63.164911199994123,782.1266],[144.10546875,63.160663153119117,778.527],[144.11875,63.148065496869123,779.8063],[144.12607421875003,63.143182684369123,783.8699],[144.18427734375,63.12543366093162,788.3502],[144.201171875,63.11652252811912,790.659],[144.203857421875,63.111835028119117,792.8474],[144.20517578125003,63.10541412968162,796.3632],[144.20791015625002,63.09857819218162,793.4964],[144.21484375,63.092303778119117,793.9622],[144.22617187500003,63.08893463749412,803.6265],[144.23583984375,63.09064362186912,802.127],[144.24521484375003,63.094110418744123,799.6121],[144.25644531250003,63.09601471561912,801.3192],[144.32773437500003,63.09662506718162,812.0055],[144.349853515625,63.09003327030662,813.9592],[144.37978515625002,63.074237371869117,815.8785],[144.408203125,63.054461981244117,820.3144],[144.43310546875,63.031122137494123,826.3909],[144.452880859375,63.004999090619123,834.2802],[144.44189453125,62.97699616093162,843.4208],[144.45263671875,62.95746491093162,848.895],[144.475341796875,62.94440338749412,854.5589],[144.52109375000003,62.92865631718162,1008.0461],[144.52880859375,62.923114324994117,1115.6675],[144.57138671875003,62.85822174686912,915.6531],[144.63671875,62.807879949994117,1149.3737],[144.67138671875,62.79266998905662,1084.0901],[144.71347656250003,62.76630280155662,1083.7448]]}}