{"type":"Feature","properties":{"featurecla":"River","scalerank":5,"rivernum":188,"dissolve":"188River","name":"Indigirka2","name_alt":null,"note":null,"min_zoom":4.7,"strokeweig":0.25,"name_en":"Indigirka","min_label":5.7},
"geometry":{"type": "LineString","coordinates": [[144.884521484375,67.84650299686912,32.3584],[144.829833984375,67.822040106244117,33.6388],[144.810791015625,67.81696198124412,22.9085],[144.79111328125003,67.816034246869123,27.257],[144.74960937500003,67.818963934369123,28.01],[144.728759765625,67.81696198124412,25.758],[144.72021484375,67.81317780155662,33.1112],[144.70068359375,67.800799871869117,35.1133],[144.68789062500002,67.79645416874412,25.6615],[144.65185546875,67.79303619999412,24.9201],[144.61416015625002,67.79462311405662,32.2341],[144.52451171875003,67.81159088749412,36.8024],[144.50966796875002,67.80939362186912,36.9908],[144.4970703125,67.80280182499412,36.0551],[144.48583984375,67.79303619999412,26.6775],[144.4826171875,67.784442449994117,25.1324],[144.48779296875,67.77655670780662,24.9202],[144.50341796875,67.762323309369123,35.1908],[144.50830078125,67.752704168744117,37.8921],[144.50849609375,67.74860260624412,37.9803],[144.51123046875,67.745379949994117,38.4418],[144.53759765625,67.73236725468162,35.8276],[144.552734375,67.72846100468162,37.4439],[144.568359375,67.72736237186912,37.3258],[144.61328125,67.73419830936912,26.4942],[144.65683593750003,67.73358795780662,36.561],[144.696533203125,67.72565338749412,38.0438],[144.7150390625,67.70770905155662,35.3932],[144.70810546875003,67.691522528119123,37.8004],[144.692138671875,67.67938873905662,37.3894],[144.680908203125,67.666034246869117,38.2458],[144.68789062500002,67.64569733280662,39.2167],[144.53544921875005,67.61884186405662,33.7909],[144.43798828125,67.63800690311912,34.6088],[144.3875,67.64130280155662,40.7349],[144.28994140625002,67.63263580936912,45.1547],[144.212890625,67.614618231244123,45.2034],[144.1875,67.61212799686912,43.5723],[144.1611328125,67.61456940311912,45.106],[144.08505859375003,67.63263580936912,49.9097],[144.06093750000002,67.63410065311912,50.3776],[143.91357421875,67.61517975468162,54.9794],[143.868359375,67.600116278119117,57.5715],[143.84121093750002,67.598895574994117,53.9244],[143.813720703125,67.60285065311912,56.0505],[143.78818359375003,67.610223699994123,58.6582],[143.76708984375,67.61212799686912,53.0533],[143.72236328125,67.605975653119117,52.5],[143.70087890625,67.61212799686912,53.9859],[143.68759765625003,67.62372467655662,57.9958],[143.6796875,67.63458893436912,61.493899999999996],[143.67041015625,67.64252350468162,60.507],[143.653076171875,67.64569733280662,61.7962],[143.58242187500002,67.64923737186912,90.6171],[143.21044921875,67.60028717655662,243.3228],[143.12841796875,67.57770416874412,68.2033],[143.02294921875,67.56256744999412,185.7913],[142.99589843750005,67.55341217655662,90.1609],[142.97031250000003,67.539911199994123,84.9809],[142.81162109375003,67.49030182499412,126.9278],[142.7392578125,67.45221588749412,136.4997],[142.7041015625,67.44647858280662,97.7614],[142.63427734375,67.460809637494123,258.0153],[142.59951171875002,67.45416901249412,84.0827],[142.59912109375,67.444452215619123,110.2879],[142.6162109375,67.43195221561912,94.3305],[142.648681640625,67.41522858280662,120.9083],[142.628662109375,67.398553778119123,155.0581],[142.557373046875,67.36798737186912,312.1413],[142.53720703125003,67.352411199994123,138.963],[142.5283203125,67.34235260624412,190.2832],[142.52714843750005,67.33380768436912,202.5612],[142.5400390625,67.32892487186912,202.4137],[142.6015625,67.338641668744117,321.681],[142.614501953125,67.33771393436912,304.6966],[142.62705078125003,67.334491278119117,218.2615],[142.6376953125,67.32782623905662,103.1423],[142.64580078125005,67.31683991093162,104.266],[142.648681640625,67.302508856244117,112.9584],[142.64453125,67.290399481244123,115.1503],[142.63613281250002,67.279901434369123,116.4991],[142.612060546875,67.257684637494123,109.0],[142.60302734375,67.24469635624412,111.0],[142.60097656250002,67.230340887494123,117.5329],[142.62294921875002,67.18463776249412,121.9071],[142.63320312500002,67.17218659061912,121.0542],[142.63730468750003,67.165790106244117,122.41],[142.6396484375,67.156854559369123,126.063],[142.63291015625003,67.13654205936912,118.9237],[142.61669921875,67.12238190311912,123.2823],[142.604736328125,67.10809967655662,188.1249],[142.611328125,67.08685944218162,125.6114],[142.618896484375,67.079120184369117,126.5438],[142.644775390625,67.061297918744117,124.4694],[142.65380859375,67.04975006718162,132.9841],[142.653076171875,67.04083893436912,133.3886],[142.64892578125,67.03143952030662,139.9418],[142.6484375,67.01850006718162,135.919],[142.654296875,67.008905340619123,136.7925],[142.665283203125,67.00116608280662,131.0159],[142.68759765625003,66.98895905155662,137.425],[142.71240234375,66.96759674686912,139.5051],[142.71884765625003,66.959588934369123,142.9814],[142.72548828125002,66.94525787968162,143.0885],[142.73476562500002,66.898456121869117,141.9441],[142.73916015625002,66.88605377811912,142.1058],[142.755859375,66.85114166874412,144.2679],[142.75830078125,66.837762762494123,147.5259],[142.757080078125,66.81061432499412,154.1138],[142.759765625,66.79730866093162,147.1196],[142.80341796875,66.71430084843162,160.6213],[142.82041015625003,66.69489166874412,155.8266],[142.843017578125,66.68305084843162,161.1611],[142.88662109375002,66.67706940311912,248.2028],[142.900390625,66.66876862186912,231.6079],[142.92226562500002,66.649774481244123,203.9539],[142.93408203125,66.643573309369117,198.9594],[142.9482421875,66.64179108280662,195.42],[142.961669921875,66.644403387494123,200.63],[142.9873046875,66.652460028119123,210.8978],[143.00185546875002,66.652460028119123,323.8523],[143.013916015625,66.649042059369123,332.6454],[143.0263671875,66.64337799686912,334.3326],[143.04843750000003,66.628778387494123,300.1487],[143.05800781250002,66.61652252811912,241.8261],[143.05927734375,66.60346100468162,189.5399],[143.052001953125,66.56012604374412,175.2733],[143.052734375,66.55353424686912,174.188],[143.05507812500002,66.54682037968162,177.7521],[143.06005859375,66.53864166874412,179.6007],[143.08203125,66.51312897343162,181.7954],[143.09072265625002,66.50775787968162,180.1513],[143.10048828125002,66.502948309369117,185.8983],[143.10927734375002,66.49701569218162,186.218],[143.114990234375,66.48810455936912,183.0462],[143.11591796875,66.48065827030662,185.6612],[143.114501953125,66.47028229374412,186.7096],[143.116943359375,66.46381256718162,190.8941],[143.12089843750005,66.46063873905662,192.6469],[143.12587890625002,66.45868561405662,190.9423],[143.12998046875003,66.45587799686912,190.3456],[143.13173828125002,66.450213934369117,189.9424],[143.129638671875,66.44293854374412,194.8287],[143.12070312500003,66.43622467655662,200.3169],[143.11865234375,66.429461981244117,197.3877],[143.125,66.411395574994117,204.0886],[143.14013671875,66.39667389530662,201.298],[143.19482421875,66.36420319218162,209.6249],[143.1984375,66.354852606244123,211.4468],[143.19619140625002,66.34345123905662,209.232],[143.20058593750002,66.323602606244123,209.8924],[143.212158203125,66.31293366093162,212.8248],[143.24794921875002,66.28974030155662,211.3522],[143.25527343750002,66.27521393436912,213.9994],[143.2509765625,66.268329168744117,228.2466],[143.224853515625,66.244745184369123,260.7045],[143.22031250000003,66.237176824994123,254.1592],[143.22216796875,66.23175690311912,261.9558],[143.226318359375,66.22772858280662,262.7239],[143.228515625,66.22431061405662,227.1983],[143.2294921875,66.19953034061912,228.3578],[143.22802734375,66.18768952030662,229.7286],[143.22314453125,66.17597077030662,235.0293],[143.21337890625,66.16522858280662,243.4975],[143.191162109375,66.14887116093162,245.1617],[143.18320312500003,66.13703034061912,248.9721],[143.1767578125,66.11615631718162,243.4429],[143.171630859375,66.10785553593162,259.899],[143.16171875000003,66.099969793744123,255.6438],[143.14208984375,66.09039948124412,288.4275],[143.136474609375,66.08331940311912,307.7956],[143.13916015625,66.07221100468162,301.603],[143.14306640625,66.06830475468162,297.6858],[143.15292968750003,66.06134674686912,262.1599],[143.15712890625002,66.056415106244117,262.5952],[143.15908203125002,66.051629949994123,269.0567],[143.16181640625,66.04047272343162,260.6443],[143.16259765625,66.035272528119123,264.2676],[143.16171875000003,66.022723699994117,286.303],[143.156494140625,66.01398346561912,290.771],[143.1396484375,65.99677155155662,637.018],[143.13339843750003,65.98566315311912,437.9534],[143.12744140625,65.96222565311912,248.4279],[143.12255859375,65.94989655155662,407.1589],[143.11669921875,65.93939850468162,556.5042],[143.11083984375,65.93109772343162,546.059],[143.10302734375,65.924090887494117,549.8851],[143.08115234375003,65.91303131718162,325.3581],[143.0595703125,65.90546295780662,278.3438],[143.04794921875003,65.903680731244123,282.5837],[143.03330078125003,65.90314362186912,289.4622],[143.02099609375,65.90119049686912,289.7746],[143.01259765625002,65.89435455936912,291.0503],[143.00986328125003,65.879266668744123,291.0916],[143.00429687500002,65.878778387494123,296.333],[142.99501953125002,65.87543366093162,329.8257],[142.98974609375,65.874530340619117,323.0288],[142.98388671875,65.875018621869117,335.5905],[142.973876953125,65.87787506718162,364.6447],[142.96914062500002,65.878680731244117,373.9997],[142.95546875000002,65.87689850468162,418.5287],[142.94677734375,65.87103912968162,371.4779],[142.94091796875,65.862176824994123,345.8524],[142.93173828125003,65.84210846561912,383.6017],[142.928955078125,65.84003327030662,370.9801],[142.921142578125,65.836786199994123,416.5245],[142.87919921875005,65.82807037968162,708.7864],[142.8662109375,65.820917059369123,632.6328],[142.84287109375003,65.796161199994117,417.7495],[142.83408203125003,65.78888580936912,319.189],[142.81240234375002,65.776874090619117,287.3926],[142.73105468750003,65.74701569218162,344.9707],[142.720458984375,65.74530670780662,353.6617],[142.710693359375,65.74164459843162,356.9475],[142.70263671875,65.73346588749412,447.1062],[142.69873046875,65.72296784061912,594.1243],[142.69580078125,65.70184967655662,308.1162],[142.691162109375,65.691278387494123,431.8115],[142.676513671875,65.67682526249412,386.9466],[142.66044921875005,65.666278387494117,335.0664],[142.64599609375,65.65363190311912,434.6617],[142.63632812500003,65.63300202030662,373.2762],[142.630078125,65.61066315311912,361.8103],[142.62099609375002,65.590838934369117,774.8811],[142.607177734375,65.574237371869117,709.6914],[142.587158203125,65.561786199994117,632.6664],[142.584228515625,65.551874090619123,1147.4806],[142.58652343750003,65.542352606244123,558.5175],[142.59248046875,65.53363678593162,331.9747],[142.59970703125003,65.52619049686912,352.9976],[142.60751953125003,65.520038153119117,515.9026],[142.6337890625,65.50849030155662,941.336],[142.650390625,65.49506256718162,779.118],[142.65195312500003,65.47675202030662,807.9286],[142.64912109375,65.455829168744117,1059.3182],[142.653515625,65.43451569218162,797.411],[142.731640625,65.422137762494117,382.7169],[142.77265625,65.42340729374412,387.7849],[142.81308593750003,65.41803619999412,593.3218],[142.860595703125,65.42145416874412,661.2375],[142.87646484375,65.420672918744117,867.7485],[142.94443359375003,65.40814850468162,526.5638],[143.069580078125,65.406122137494123,565.1006],[143.125,65.41412994999412,629.3174],[143.263427734375,65.406610418744123,648.1023],[143.28330078125003,65.40314362186912,920.053],[143.29453125000003,65.39325592655662,1005.6401],[143.28857421875,65.37262604374412,545.7607],[143.26914062500003,65.356317449994123,390.9633],[143.2421875,65.342645574994123,689.4617],[143.21845703125,65.32721588749412,709.5626],[143.20947265625,65.305438543744117,396.0543],[143.196875,65.30011627811912,396.0108],[143.174072265625,65.286883856244117,418.2488],[143.16015625,65.28412506718162,397.1519],[143.1376953125,65.28632233280662,399.9394],[143.126708984375,65.28449127811912,469.7691],[143.12119140625003,65.276239324994123,472.029],[143.126220703125,65.265399481244117,441.2504],[143.14023437500003,65.258807684369117,401.6606],[143.15625,65.25360748905662,398.7608],[143.167236328125,65.246942449994123,414.128],[143.170654296875,65.23627350468162,469.5507],[143.16767578125,65.225604559369117,458.0211],[143.1162109375,65.13996002811912,423.5796],[143.11220703125002,65.135126043744123,461.8306],[143.107421875,65.13129303593162,504.9627],[143.10107421875,65.12799713749412,641.0797],[143.07763671875,65.12274811405662,442.7513],[143.0734375,65.12091705936912,446.1765],[143.07216796875002,65.114276434369117,467.5807],[143.057373046875,65.103778387494117,427.0071],[143.06494140625,65.08820221561912,428.7478],[143.08310546875003,65.07294342655662,430.571],[143.099609375,65.063592840619123,435.9973],[143.124267578125,65.05829498905662,489.266],[143.14951171875003,65.05695221561912,443.0907],[143.174072265625,65.05267975468162,431.0],[143.19589843750003,65.03876373905662,444.8553],[143.20185546875,65.03009674686912,444.6522],[143.21083984375002,65.00958893436912,440.7153],[143.21689453125003,64.99994537968162,468.7868],[143.23193359375,64.98688385624412,548.3321],[143.23525390625002,64.98236725468162,578.0917],[143.236328125,64.97650787968162,714.4821],[143.2353515625,64.95600006718162,754.5696],[143.247802734375,64.92560455936912,653.8173],[143.27236328125002,64.90363190311912,445.6925],[143.36669921875,64.845477606244117,464.9398],[143.38339843750003,64.83185455936912,471.588],[143.38583984375003,64.81574127811912,541.1508],[143.37880859375002,64.80780670780662,512.2408],[143.357421875,64.79743073124412,459.0],[143.348388671875,64.791034246869117,471.1174],[143.343017578125,64.78168366093162,475.0774],[143.33798828125003,64.76080963749412,605.506],[143.33349609375,64.75116608280662,503.835],[143.3125,64.738544012494117,549.8454],[143.2861328125,64.73358795780662,810.4186],[143.26425781250003,64.72479889530662,899.6008],[143.257080078125,64.700555731244123,691.7396],[143.2646484375,64.678729559369117,491.2395],[143.27734375,64.657001043744117,540.9406],[143.28554687500002,64.63507721561912,520.1974],[143.27978515625,64.61261627811912,478.567],[143.2685546875,64.602411199994123,486.5204],[143.25419921875005,64.59711334843162,477.662],[143.21132812500002,64.59076569218162,631.2833],[143.189697265625,64.58295319218162,555.3093],[143.17861328125002,64.57746002811912,532.0067],[143.1513671875,64.56757233280662,505.6855],[143.12343750000002,64.563983465619117,549.4167],[143.009521484375,64.565936590619117,1026.4055],[142.8859375,64.54450104374412,637.414],[142.820068359375,64.52277252811912,571.5037],[142.80009765625005,64.508075262494117,560.1479],[142.806640625,64.49347565311912,515.2911],[142.827880859375,64.48090241093162,497.0039],[142.85166015625003,64.47223541874412,709.5141],[142.85263671875003,64.44269440311912,688.4769],[142.838623046875,64.41876862186912,669.3791],[142.793212890625,64.377215887494117,507.807],[142.78330078125003,64.365838934369123,512.2059],[142.77480468750002,64.35211823124412,511.7847],[142.76953125,64.337030340619123,515.9823],[142.770263671875,64.321551824994117,516.0834],[142.77675781250002,64.309198309369123,518.848],[142.7861328125,64.29645416874412,519.0765],[142.79345703125,64.28339264530662,519.9085],[142.79345703125,64.26984284061912,522.9661],[142.78662109375,64.26727936405662,520.5458],[142.77431640625002,64.259540106244117,523.1985],[142.76748046875002,64.256366278119117,526.3455],[142.74560546875,64.25177643436912,522.2805],[142.72421875000003,64.252557684369123,526.2602],[142.70351562500002,64.25751373905662,533.5713],[142.65878906250003,64.274530340619123,1032.2765],[142.60595703125,64.28473541874412,729.5298],[142.23281250000002,64.30560944218162,596.6245],[142.19833984375003,64.301288153119117,587.2652],[142.17148437500003,64.29242584843162,553.7911],[142.07675781250003,64.24030182499412,558.3057],[141.9384765625,64.18537018436912,567.595],[141.92255859375,64.16913483280662,570.4962],[141.9189453125,64.153436590619123,571.6696],[141.921630859375,64.13788483280662,580.6147],[141.93125,64.10736725468162,577.9708],[141.92783203125003,64.081903387494123,583.0769],[141.91123046875003,64.064227606244117,588.3665],[141.889892578125,64.04877350468162,591.0182],[141.87255859375,64.030389715619123,603.3358],[141.867431640625,64.017596746869117,596.7217],[141.86533203125003,64.00238678593162,596.4772],[141.86728515625003,63.98749420780662,799.4749],[141.87441406250002,63.975702215619123,714.6151],[141.88671875,63.968866278119123,618.2545],[141.91679687500005,63.96308014530662,596.3261],[141.930419921875,63.95709869999412,675.4526],[141.941162109375,63.94562409061912,696.9987],[141.94677734375,63.93256256718162,657.8962],[141.955078125,63.90387604374412,611.1311],[141.96279296875002,63.892450262494123,608.2768],[141.97294921875005,63.885516668744117,801.7253],[142.03115234375002,63.87067291874412,611.8518],[142.044921875,63.863153387494123,612.965],[142.057861328125,63.85150787968162,614.4674]]}}