{"type":"Feature","properties":{"featurecla":"River","scalerank":5,"rivernum":188,"dissolve":"188River","name":"Indigirka3","name_alt":null,"note":null,"min_zoom":4.7,"strokeweig":0.3,"name_en":"Indigirka","min_label":5.7},
"geometry":{"type": "LineString","coordinates": [[147.45253906250002,70.039325262494117,13.138],[147.50498046875003,70.032001043744117,11.9073],[147.53125,70.02252838749412,6.5],[147.54541015625,70.00556061405662,14.8954],[147.5400390625,69.98541901249412,13.7496],[147.519775390625,69.969842840619123,15.0138],[147.49599609375002,69.955585028119117,13.8785],[147.4794921875,69.93939850468162,14.628],[147.4755859375,69.92804596561912,12.6369],[147.471923828125,69.87970612186912,14.039],[147.46875,69.869012762494123,13.2141],[147.454296875,69.84064362186912,11.112],[147.44785156250003,69.81354401249412,13.6594],[147.439697265625,69.79437897343162,14.4579],[147.43994140625,69.78607819218162,15.5238],[147.447265625,69.77619049686912,7.0],[147.46718750000002,69.758807684369117,13.1329],[147.475830078125,69.74933502811912,40.5179],[147.4826171875,69.73663971561912,28.1903],[147.4865234375,69.72138092655662,17.0719],[147.48496093750003,69.708026434369117,7.0],[147.47792968750002,69.69708893436912,7.0],[147.46494140625003,69.689471746869117,7.0],[147.411376953125,69.67133209843162,7.3614],[147.40488281250003,69.667743231244117,8.3507],[147.39785156250002,69.65424225468162,15.3454],[147.40664062500002,69.64423248905662,59.378],[147.462158203125,69.62079498905662,10.8298],[147.4677734375,69.617303778119123,14.1697],[147.4794921875,69.604510809369117,31.1779],[147.497314453125,69.59564850468162,84.3946],[147.519775390625,69.59564850468162,96.364],[147.57705078125002,69.607440496869117,99.8709],[147.58447265625,69.60700104374412,83.9341],[147.588134765625,69.60272858280662,81.0049],[147.58515625,69.59723541874412,60.5286],[147.56982421875,69.58869049686912,7.0],[147.56484375000002,69.58417389530662,7.0],[147.56396484375,69.57782623905662,16.4493],[147.567138671875,69.554217840619117,7.0],[147.57138671875003,69.54010651249412,17.379],[147.57861328125,69.52704498905662,15.2494],[147.61259765625005,69.48505280155662,15.6403],[147.61591796875,69.477313543744117,16.1208],[147.618359375,69.467889715619123,7.0],[147.621337890625,69.461053778119123,7.0],[147.62656250000003,69.455829168744117,13.557],[147.66679687500005,69.43671295780662,16.4407],[147.66796875,69.43134186405662,19.0721],[147.67333984375,69.43012116093162,15.0353],[147.67822265625,69.412616278119117,41.2287],[147.66796875,69.39972565311912,16.7365],[147.65,69.39142487186912,5.4909],[147.63232421875,69.38788483280662,16.7472],[147.48603515625,69.39899323124412,15.9042],[147.461669921875,69.39667389530662,14.7691],[147.36865234375,69.35968659061912,18.6582],[147.35302734375,69.346698309369117,17.5227],[147.352783203125,69.33161041874412,16.2001],[147.36289062500003,69.31683991093162,9.6569],[147.39697265625,69.29144928593162,18.9523],[147.45673828125,69.26373932499412,18.5449],[147.465576171875,69.25665924686912,19.546],[147.470458984375,69.24921295780662,19.8159],[147.478759765625,69.219256903119117,17.7819],[147.48408203125,69.212274481244123,18.4939],[147.499267578125,69.199823309369123,10.9149],[147.505615234375,69.19269440311912,17.7593],[147.510498046875,69.183710028119123,15.4348],[147.5126953125,69.173944403119123,10.6901],[147.51035156250003,69.16461823124412,17.7768],[147.50244140625,69.15704987186912,17.4687],[147.4912109375,69.152850653119117,19.6135],[147.4677734375,69.14789459843162,18.6567],[147.45087890625,69.14130280155662,19.4964],[147.443603515625,69.135614324994123,20.3141],[147.44052734375003,69.127948309369117,11.617],[147.4443359375,69.11823151249412,11.7355],[147.45371093750003,69.111835028119117,12.136],[147.46464843750005,69.106463934369117,19.2729],[147.47304687500002,69.099627996869117,17.7302],[147.477783203125,69.086688543744117,17.9335],[147.474609375,69.07611725468162,18.0144],[147.465576171875,69.06769440311912,18.692],[147.45371093750003,69.06098053593162,21.1078],[147.438720703125,69.05560944218162,20.1246],[147.4228515625,69.05292389530662,19.6941],[147.42246093750003,69.04730866093162,20.4879],[147.42148437500003,69.04352448124412,21.258],[147.42099609375003,69.03986237186912,17.5224],[147.42226562500002,69.03485748905662,23.353],[147.42568359375002,69.02948639530662,8.5],[147.43027343750003,69.02582428593162,8.5],[147.44082031250002,69.01959869999412,19.1874],[147.4833984375,68.981219793744117,20.2013],[147.55615234375,68.94257233280662,77.0726],[147.579296875,68.92511627811912,75.5283],[147.58642578125,68.90692780155662,10.0],[147.57568359375,68.89850494999412,10.0],[147.5548828125,68.89386627811912,22.5472],[147.53271484375,68.892352606244117,21.3298],[147.517578125,68.89325592655662,18.1758],[147.5029296875,68.898065496869123,21.821],[147.476318359375,68.91266510624412,20.7589],[147.399658203125,68.940057684369123,20.7393],[147.36708984375002,68.94269440311912,20.3268],[147.33310546875003,68.934198309369123,20.2779],[147.31884765625,68.928729559369117,21.3256],[147.31386718750002,68.92609284061912,21.3156],[147.332763671875,68.89826080936912,20.3027],[147.341796875,68.889276434369123,15.1678],[147.35146484375002,68.88129303593162,19.0254],[147.36044921875003,68.875848699994123,21.7301],[147.37832031250002,68.86041901249412,22.5796],[147.37460937500003,68.844745184369117,18.9949],[147.35693359375,68.83185455936912,23.1473],[147.33310546875003,68.824969793744117,21.0787],[147.29345703125,68.82709381718162,21.8765],[147.217041015625,68.843622137494123,21.0827],[147.17617187500002,68.838641668744117,22.5014],[147.16259765625,68.833514715619117,23.1963],[147.154541015625,68.828973699994123,21.3342],[147.13759765625002,68.81439850468162,22.0686],[147.12246093750002,68.80597565311912,20.3895],[147.0888671875,68.79791901249412,24.3084],[147.072509765625,68.79022858280662,22.0478],[147.085693359375,68.768329168744117,21.4978],[147.091015625,68.75421784061912,10.9593],[147.08349609375,68.741961981244117,21.8766],[147.01943359375002,68.70184967655662,23.8681],[147.00732421875,68.68683502811912,23.5433],[147.00419921875005,68.66669342655662,15.6794],[147.0078125,68.656366278119123,18.147],[147.013427734375,68.650653387494117,25.1106],[147.017822265625,68.64435455936912,73.3112],[147.017822265625,68.632586981244117,23.523],[147.01181640625003,68.62518952030662,11.6858],[147.001953125,68.61945221561912,24.6656],[146.99599609375002,68.612420965619123,22.5356],[147.00068359375,68.60150787968162,24.6817],[147.015380859375,68.577752996869123,16.7139],[147.00478515625002,68.56903717655662,25.384],[146.767578125,68.586932684369117,26.1012],[146.744140625,68.58478424686912,25.5573],[146.6583984375,68.545038153119123,24.9804],[146.61337890625003,68.531366278119123,24.4308],[146.56533203125002,68.54035065311912,26.3385],[146.4755859375,68.574090887494123,25.0513],[146.374755859375,68.59247467655662,26.887],[146.27304687500003,68.592889715619123,23.4259],[146.18017578125,68.573016668744117,22.8832],[146.16767578125,68.56683991093162,25.8397],[146.134033203125,68.54376862186912,25.9211],[146.111328125,68.536493231244123,20.831],[146.08935546875,68.53461334843162,26.9946],[146.044677734375,68.536981512494123,24.1538],[146.00332031250002,68.53180573124412,26.3517],[145.98691406250003,68.51557037968162,27.3612],[145.978125,68.49201080936912,17.622],[145.959228515625,68.464960028119123,27.4881],[145.932373046875,68.44379303593162,27.9142],[145.886962890625,68.41998932499412,26.6024],[145.87148437500002,68.408319403119123,18.6161],[145.86630859375003,68.39765045780662,25.647],[145.88349609375,68.39301178593162,28.0596],[145.92470703125002,68.38886139530662,64.1233],[145.97158203125002,68.37726471561912,29.4757],[146.016357421875,68.35980866093162,25.169],[146.051513671875,68.33771393436912,23.8925],[146.02548828125003,68.32343170780662,24.5],[145.9951171875,68.32282135624412,26.7594],[145.81191406250002,68.34454987186912,26.7196],[145.78173828125,68.34320709843162,26.8873],[145.7578125,68.33917877811912,28.457],[145.75068359375,68.330194403119123,26.7151],[145.77089843750002,68.31415436405662,27.72],[145.79755859375,68.30744049686912,27.9151],[145.85556640625003,68.304950262494117,27.5554],[145.88076171875002,68.29059479374412,27.9559],[145.82070312500002,68.27338287968162,26.5],[145.64394531250002,68.29059479374412,25.9479],[145.612060546875,68.28839752811912,27.9698],[145.59375,68.281854559369123,28.6642],[145.59619140625,68.27106354374412,25.3191],[145.626220703125,68.25580475468162,28.3639],[145.6728515625,68.239862371869123,29.2524],[145.694580078125,68.229754949994117,27.1727],[145.71630859375,68.214227606244123,30.0208],[145.67832031250003,68.195917059369123,28.8943],[145.63037109375,68.198016668744117,26.1976],[145.5375,68.214227606244123,27.1467],[145.37783203125002,68.213251043744123,31.7294],[145.33828125000002,68.201190496869117,25.4875],[145.3234375,68.178827215619123,23.078],[145.33583984375002,68.160272528119123,29.6199],[145.352294921875,68.14252350468162,29.3003],[145.34912109375,68.12238190311912,30.884],[145.31533203125002,68.10736725468162,18.2398],[145.231640625,68.10309479374412,29.7595],[145.202392578125,68.077655340619117,26.8742],[145.2275390625,68.06708405155662,28.2854],[145.283203125,68.051141668744123,31.3116],[145.30419921875,68.03668854374412,31.9232],[145.23642578125003,68.019159246869123,26.4261],[145.20712890625003,68.00336334843162,30.8809],[145.21591796875003,67.98151276249412,31.5478],[145.02099609375,67.99457428593162,24.7803],[144.98935546875003,67.97833893436912,19.9271],[145.00429687500002,67.96210358280662,30.6539],[145.070068359375,67.94562409061912,20.1682],[145.0849609375,67.930536199994123,31.7699],[145.079296875,67.91547272343162,33.7741],[145.06875,67.90570709843162,36.4856],[145.0626953125,67.89557526249412,32.9636],[145.07138671875003,67.87909577030662,34.8575],[144.90517578125002,67.85407135624412,30.0125],[144.884521484375,67.84650299686912,32.3584]]}}