{"type":"Feature","properties":{"featurecla":"River","scalerank":5,"rivernum":188,"dissolve":"188River","name":"Indigirka4","name_alt":null,"note":null,"min_zoom":4.7,"strokeweig":0.4,"name_en":"Indigirka","min_label":5.7},
"geometry":{"type": "LineString","coordinates": [[149.6232421875,71.02936432499412,1.4471],[149.6193359375,71.02545807499412,1.6261],[149.616943359375,71.02106354374412,3.1124],[149.61611328125002,71.015985418744123,-0.7931],[149.61767578125,71.010272528119117,-0.1233],[149.6240234375,71.002704168744117,1.1581],[149.63330078125,70.998309637494117,-0.1527],[149.653076171875,70.99249909061912,-0.9492],[149.63349609375,70.979120184369123,4.9025],[149.585693359375,70.97321198124412,3.2889],[149.56298828125,70.963983465619123,5.1259],[149.55615234375,70.958124090619123,4.1325],[149.55361328125002,70.95441315311912,3.1086],[149.55224609375,70.950213934369117,-0.6204],[149.553955078125,70.94318268436912,4.3696],[149.558837890625,70.93927643436912,4.6645],[149.564697265625,70.936053778119117,4.586],[149.56884765625,70.931268621869123,4.0016],[149.56679687500002,70.92157623905662,4.8238],[149.55576171875003,70.91327545780662,4.8707],[149.52978515625,70.90314362186912,4.8639],[149.39833984375002,70.887958074994117,4.7351],[149.23378906250002,70.897479559369117,5.5347],[149.20361328125,70.89508698124412,3.6507],[149.1513671875,70.881122137494117,5.4063],[149.12705078125003,70.87055084843162,5.7813],[149.090576171875,70.849237371869123,5.7426],[148.9814453125,70.816034246869123,5.5378],[148.944580078125,70.81183502811912,1.0],[148.9318359375,70.81207916874412,1.0],[148.9072265625,70.815448309369117,1.0],[148.87685546875002,70.815545965619123,1.0],[148.82919921875003,70.82489655155662,6.2097],[148.7998046875,70.82465241093162,6.1333],[148.74404296875002,70.81561920780662,6.4971],[148.731640625,70.809442449994123,6.0825],[148.72402343750002,70.799676824994123,7.0282],[148.72421875000003,70.78620026249412,7.2217],[148.7326171875,70.77619049686912,1.0],[148.743359375,70.766864324994117,1.0],[148.75048828125,70.75568268436912,1.0],[148.75058593750003,70.74237702030662,1.0],[148.744873046875,70.73029205936912,1.0],[148.735595703125,70.72003815311912,1.0],[148.72509765625,70.71234772343162,1.0],[148.69765625000002,70.701288153119123,5.7595],[148.44882812500003,70.67072174686912,7.049],[148.373046875,70.64813873905662,7.1159],[148.3048828125,70.64594147343162,7.5044],[148.183837890625,70.62872955936912,3.6019],[147.995361328125,70.635126043744123,7.2275],[147.90097656250003,70.620868231244117,45.8708],[147.87460937500003,70.61286041874412,-0.891],[147.85556640625003,70.59870026249412,5.0554],[147.8515625,70.58673737186912,0.5851],[147.85625,70.56305573124412,7.0502],[147.85429687500005,70.551629949994123,8.5417],[147.84560546875002,70.542352606244123,8.2821],[147.8330078125,70.53620026249412,8.5633],[147.81904296875,70.53290436405662,8.5252],[147.75039062500002,70.533954168744117,9.0279],[147.732421875,70.53058502811912,8.5664],[147.72314453125,70.52631256718162,1.9943],[147.71533203125,70.52057526249412,3.2294],[147.70078125000003,70.507098699994117,-0.4856],[147.67587890625003,70.492206121869117,8.5724],[147.619873046875,70.47492096561912,8.5057],[147.594482421875,70.46027252811912,9.1781],[147.57138671875003,70.44037506718162,8.9892],[147.525634765625,70.419940496869117,9.4457],[147.5244140625,70.414569403119117,9.2273],[147.51904296875,70.413348699994117,9.3403],[147.51914062500003,70.403924871869123,2.9923],[147.5244140625,70.395135809369123,8.6706],[147.53261718750002,70.387958074994117,0.8037],[147.541015625,70.38349030155662,9.0603],[147.54443359375,70.368524481244123,9.4791],[147.53183593750003,70.35980866093162,9.1312],[147.51328125000003,70.35565827030662,9.9136],[147.46259765625,70.35138580936912,10.2849],[147.44394531250003,70.34711334843162,10.6617],[147.43115234375,70.33930084843162,5.4854],[147.42841796875,70.33331940311912,3.6995],[147.42841796875,70.32746002811912,1.9893],[147.429443359375,70.32147858280662,2.5889],[147.42919921875,70.31500885624412,3.1066],[147.42578125,70.30768463749412,7.4429],[147.420654296875,70.30231354374412,9.5547],[147.33535156250002,70.24994537968162,10.6982],[147.323974609375,70.23969147343162,11.514099999999999],[147.32089843750003,70.227411199994123,9.9532],[147.330078125,70.21796295780662,10.9221],[147.34755859375002,70.21356842655662,10.7602],[147.41044921875005,70.214960028119123,11.5555],[147.42392578125003,70.21246979374412,12.0884],[147.4365234375,70.20392487186912,12.2845],[147.44404296875,70.19269440311912,10.5183],[147.447509765625,70.17975494999412,7.0948],[147.44521484375002,70.167352606244123,3.0902],[147.43603515625,70.157586981244123,11.0482],[147.42041015625,70.15106842655662,11.7974],[147.38222656250002,70.14398834843162,12.3873],[147.30380859375003,70.14252350468162,12.3155],[147.28378906250003,70.13849518436912,10.2315],[147.30244140625,70.120965887494123,3.0],[147.3466796875,70.09796784061912,3.5],[147.3642578125,70.07929108280662,12.4677],[147.37636718750002,70.058465887494123,4.5],[147.38427734375,70.050555731244117,10.6936],[147.39560546875003,70.04498932499412,11.9884],[147.40957031250002,70.04218170780662,11.1714],[147.45253906250002,70.039325262494117,13.138]]}}