{"type":"Feature","properties":{"featurecla":"River","scalerank":5,"rivernum":188,"dissolve":"188River","name":"Indigirka5","name_alt":null,"note":null,"min_zoom":4.7,"strokeweig":0.4,"name_en":"Indigirka","min_label":5.7},
"geometry":{"type": "LineString","coordinates": [[150.03095703125,71.22162506718162,2.6289],[149.97802734375,71.214960028119123,0.0],[149.95185546875,71.205682684369123,0.0],[149.947509765625,71.203387762494117,0.0],[149.9296875,71.18952057499412,0.0],[149.924560546875,71.186542059369117,0.0],[149.919189453125,71.18463776249412,0.0],[149.91416015625003,71.160516668744123,2.9036],[149.91015625,71.15412018436912,3.6487],[149.904541015625,71.15033600468162,2.1388],[149.88271484375002,71.141620184369117,1.5],[149.88623046875,71.12689850468162,2.281],[149.90175781250002,71.11920807499412,2.3558],[149.92041015625,71.11383698124412,-0.2283],[149.93408203125,71.106219793744117,2.9221],[149.9228515625,71.10040924686912,3.7057],[149.911376953125,71.097284246869123,3.846],[149.81884765625,71.090106512494117,1.8175],[149.791259765625,71.08295319218162,3.512],[149.71738281250003,71.053241278119117,3.7728],[149.70703125,71.05060455936912,4.36],[149.65517578125002,71.043329168744123,3.974],[149.637939453125,71.03766510624412,0.8944],[149.62783203125002,71.032586981244123,0.7173],[149.6232421875,71.02936432499412,1.4471]]}}