{"type":"Feature","properties":{"GID_3":"RUS.30.9.1_1","GID_0":"RUS","country":"Russia","GID_1":"RUS.30_1","province":"Khanty-Mansiy","NL_NAME_1":"Ханты-МансийскийАОк","GID_2":"RUS.30.9_1","county":"Megion","NL_NAME_2":"Мегион","city":"NA","VARNAME_3":"NA","NL_NAME_3":"NA","TYPE_3":"NA","ENGTYPE_3":"NA","CC_3":"NA","HASC_3":"NA","name":"N_A.city"},
"geometry":{"type": "MultiPolygon","coordinates": [[[[76.3228,60.9613,38.3785],[76.3151,61.0004,36.837],[76.2589,61.0135,35.9543],[76.2019,61.0088,29.989],[76.1909,60.9609,36.274],[76.2274,60.9444,34.2483],[76.3228,60.9613,38.3785]]]]}}