{"type":"Feature","properties":{"featurecla":"Range/mtn","name":"Koryak Range","namealt":null,"region":"Asia","subregion":null,"min_label":5.3,"max_label":9.0,"scalerank":4},
"geometry":{"type": "Polygon","coordinates": [[[166.16731714539961,61.779251899565025,42.0071],[166.1718856128962,61.767279364056606,44.1075],[166.2154647144587,61.548163153119049,72.4179],[166.2537947925837,61.0927798523378,548.4846],[166.30079186289626,60.7775943054628,28.353],[166.30811608164626,60.670233465619077,379.6179],[166.30450907793809,60.642806364345915,133.5973],[166.43287194102126,60.664557196087856,148.8411],[168.92054283945876,61.295843817181577,140.9282],[169.3341170582087,61.424689032025327,653.6504],[170.02003014414626,61.542608953900356,715.7524],[174.1827498707087,62.592413641400356,144.8978],[174.60889733164626,62.667853094525384,560.2194],[174.93592369883382,62.756293035931577,217.6548],[176.16480553477132,62.976568914837884,793.6336],[176.84498131602132,63.058356024212856,573.7218],[177.00440514414632,63.105536199994077,311.6536],[177.10755455820876,63.195746160931577,436.4706],[177.09229576914626,63.467596746869106,138.4805],[176.79883873789615,63.597235418744049,65.8665],[176.4149276050837,63.6379458679628,82.0],[175.18726647227132,63.639960028119049,91.897],[174.76209557383376,63.614447332806606,191.6398],[174.54175865977126,63.583197332806634,186.2412],[174.14893639414632,63.564215399212884,90.0926],[174.05836022227115,63.5499331726503,98.5485],[173.77735436289632,63.478522039837827,176.2811],[173.6809188160212,63.466925360150356,495.7444],[172.84852135508376,63.431097723431549,199.5428],[170.51832115977126,63.147040106244077,589.4438],[169.7498885425837,62.976752020306634,385.548],[166.16731714539961,61.779251899565025,42.0071]]]}}