{"type":"Feature","properties":{"GID_3":"RUS.2.26.1_1","GID_0":"RUS","country":"Russia","GID_1":"RUS.2_1","province":"Altay","NL_NAME_1":"Алтайскийкрай","GID_2":"RUS.2.26_1","county":"Loktevskiyrayon","NL_NAME_2":"Локтевскийрайон","city":"NA","VARNAME_3":"NA","NL_NAME_3":"NA","TYPE_3":"NA","ENGTYPE_3":"NA","CC_3":"NA","HASC_3":"NA","name":"N_A.city"},
"geometry":{"type": "MultiPolygon","coordinates": [[[[81.6088,50.7537,426.8784],[81.619,50.7542,413.6587],[81.6692,50.7629,417.7059],[81.6908,50.7636,397.3801],[81.763,50.7721,534.0893],[81.7697,50.7749,561.6554],[81.7744,50.8144,451.6436],[81.7803,50.8172,442.8526],[81.79,50.8163,443.9374],[81.7948,50.8125,455.8416],[81.7933,50.7958,486.4707],[81.8184,50.808,482.1385],[81.8506,50.8177,489.2131],[81.8572,50.8307,455.8166],[81.9626,50.8512,374.3062],[81.9734,50.8635,372.4241],[81.96,50.9085,383.3016],[81.9351,50.9268,375.5367],[81.9168,50.9663,321.1836],[81.9138,51.0017,326.76],[81.9153,51.0436,337.7134],[81.9279,51.1102,286.5],[81.8976,51.1589,402.7274],[81.832,51.1673,368.2272],[81.7593,51.1971,311.5135],[81.6821,51.2489,361.6953],[81.6166,51.2344,387.2472],[81.4288,51.2455,337.4551],[81.3407,51.2372,340.6057],[81.2792,51.2365,281.1996],[81.2212,51.2535,243.2486],[81.1901,51.2678,229.0031],[81.1625,51.2779,227.4781],[81.1398,51.2747,228.1358],[81.1227,51.2602,230.4299],[81.1284,51.2204,231.1898],[81.1269,51.2187,231.1588],[81.1388,51.2089,237.6313],[81.1447,51.2017,247.4799],[81.1471,51.1893,249.5974],[81.1451,51.1631,245.9335],[81.1237,51.1001,238.464],[81.0946,51.0702,240.9983],[81.083,51.0624,241.3911],[81.0768,51.0531,236.8357],[81.0754,51.035,237.859],[81.0708,51.0198,235.8751],[81.0568,50.9958,244.6071],[81.0584,50.9722,250.1213],[81.0615,50.9594,250.7718],[81.1583,50.9575,262.1968],[81.2116,50.9674,265.9265],[81.2727,50.9825,255.7366],[81.3226,50.9969,257.9116],[81.391,50.9963,263.5259],[81.3947,50.991,264.366],[81.3951,50.9827,266.0286],[81.4038,50.9823,266.8253],[81.4075,50.977,268.5521],[81.4089,50.9511,274.3346],[81.4252,50.9467,277.6141],[81.4344,50.9196,286.9135],[81.4263,50.909,289.2945],[81.4129,50.9008,291.272],[81.4181,50.8961,294.3331],[81.4195,50.8887,296.6729],[81.4254,50.8845,297.3522],[81.4484,50.882,323.9177],[81.4547,50.8688,306.4568],[81.4613,50.868,307.9554],[81.4776,50.8334,333.1281],[81.4792,50.8208,344.6699],[81.4737,50.8111,363.7309],[81.4547,50.7911,411.7532],[81.4499,50.7825,410.0832],[81.4493,50.7629,423.4438],[81.4518,50.7615,424.2333],[81.4794,50.7582,388.0127],[81.5407,50.7588,404.9302],[81.593,50.7531,440.0901],[81.6088,50.7537,426.8784]]]]}}