{"type":"Feature","properties":{"GID_2":"RUS.83.30_1","GID_0":"RUS","country":"Russia","GID_1":"RUS.83_1","province":"Zabaykal'ye","NL_NAME_1":"Забайкальскийкрай","county":"Shilkinskiyrayon","VARNAME_2":"NA","NL_NAME_2":"Шилкинскийрайон","TYPE_2":"Raion","ENGTYPE_2":"District","CC_2":"R64092","HASC_2":"RU.CT.SK","name":"Shilkinskiyrayon.county"},
"geometry":{"type": "MultiPolygon","coordinates": [[[[116.201,51.5602,875.786],[116.1588,51.5808,927.0858],[116.1623,51.6147,804.6235],[116.1502,51.6307,842.7858],[116.1146,51.6513,887.8901],[116.1043,51.6824,863.5012],[116.1221,51.7188,701.9049],[116.1626,51.747,743.2444],[116.2025,51.7781,705.1825],[116.2398,51.8173,772.0168],[116.261,51.8616,628.6083],[116.2739,51.9091,530.0726],[116.3035,51.9427,551.1356],[116.2946,51.9668,604.949],[116.264,51.9857,617.4996],[116.2113,51.9802,632.435],[116.1274,51.9623,664.155],[116.0727,51.9742,665.6262],[116.0601,51.997,775.6638],[116.1067,52.0024,687.0962],[116.1422,52.0209,657.6176],[116.163,52.0538,664.6886],[116.1648,52.0925,636.7561],[116.1071,52.1171,562.0253],[116.0375,52.1349,700.718],[115.9646,52.1399,763.2656],[115.8888,52.1472,799.6945],[115.8666,52.1571,777.423],[115.8564,52.2002,679.9257],[115.7223,52.2157,770.5295],[115.6653,52.2154,784.1365],[115.5898,52.2063,735.9972],[115.5551,52.1772,739.5773],[115.5157,52.1591,930.6163],[115.4444,52.173,762.7231],[115.4043,52.1919,868.3915],[115.3672,52.2236,883.6356],[115.2924,52.2445,873.7946],[115.2239,52.271,1075.1846],[115.1655,52.2904,956.575],[115.0982,52.2884,882.1246],[115.0482,52.2452,840.7261],[115.0102,52.2013,863.1723],[115.038,52.1578,919.5553],[115.0771,52.1391,1039.0762],[115.0881,52.1073,873.7046],[115.1443,52.0891,985.0048],[115.1929,52.0653,859.8774],[115.1487,52.0213,772.2132],[115.0835,51.9934,800.9581],[115.0309,51.9761,710.4587],[114.9933,51.9614,741.7371],[114.9575,51.9341,723.8263],[114.9403,51.8852,630.0945],[114.933,51.8321,618.0854],[114.9434,51.7861,568.1581],[114.9291,51.7368,627.3616],[114.9081,51.7083,905.4658],[114.8947,51.6612,1021.787],[114.926,51.6407,988.4504],[114.9491,51.6175,970.3707],[114.9894,51.6243,848.5973],[115.002,51.6368,914.4178],[115.0369,51.6862,856.1801],[115.0831,51.6798,876.3344],[115.1232,51.6589,944.3666],[115.1488,51.6297,844.2525],[115.1896,51.6173,972.6536],[115.2725,51.6018,858.5799],[115.3165,51.5974,761.064],[115.394,51.5712,781.2314],[115.4547,51.5406,762.8687],[115.5433,51.5002,669.7237],[115.5829,51.4621,736.1426],[115.5881,51.405,600.9994],[115.6297,51.3693,672.2878],[115.7112,51.3546,705.6107],[115.7799,51.3302,650.6223],[115.8096,51.3029,605.7162],[115.8889,51.2935,604.0125],[115.9225,51.3478,552.9006],[115.9875,51.383,792.2653],[116.0258,51.4261,699.7698],[115.9738,51.492,546.0857],[116.1119,51.5573,695.43],[116.1518,51.5371,890.7709],[116.1968,51.5427,985.7817],[116.201,51.5602,875.786]]]]}}