{"type":"Feature","properties":{"GID_2":"RUS.2.64_1","GID_0":"RUS","country":"Russia","GID_1":"RUS.2_1","province":"Altay","NL_NAME_1":"Алтайскийкрай","county":"Zalesovskiyrayon","VARNAME_2":"NA","NL_NAME_2":"Залесовскийрайон","TYPE_2":"Raion","ENGTYPE_2":"District","CC_2":"R53091","HASC_2":"RU.AL.ZL","name":"Zalesovskiyrayon.county"},
"geometry":{"type": "MultiPolygon","coordinates": [[[[84.3922,53.7703,272.0477],[84.4812,53.7992,224.2804],[84.5532,53.8193,166.593],[84.6151,53.8165,168.3697],[84.6657,53.802,167.6708],[84.747,53.8065,165.9628],[84.7797,53.8248,267.7076],[84.814,53.86,243.4388],[84.9726,53.8922,215.2219],[85.1232,53.9333,288.2027],[85.1542,53.9984,244.666],[85.1515,54.0426,333.1367],[85.1966,54.0882,362.5114],[85.2439,54.1156,319.6828],[85.3298,54.1563,392.3135],[85.3833,54.189,333.9562],[85.4257,54.2004,321.1624],[85.3902,54.1964,362.6971],[85.3612,54.226,363.9721],[85.2779,54.2912,364.4028],[85.1902,54.3966,454.6729],[85.1413,54.4181,394.7591],[85.0858,54.4063,394.6145],[85.0806,54.3825,384.037],[85.0132,54.3765,341.2288],[84.9036,54.3623,388.5431],[84.6155,54.2805,291.0256],[84.5402,54.2426,337.1608],[84.5407,54.2092,249.5437],[84.485,54.1673,267.3227],[84.419,54.1352,292.5999],[84.402,54.157,314.5927],[84.3774,54.1657,273.7869],[84.3372,54.1612,299.4633],[84.29,54.1659,255.4646],[84.2391,54.1876,228.0766],[83.9937,54.1128,248.0206],[83.9977,54.0919,263.7089],[83.9926,54.0772,263.5823],[83.954,54.069,214.8098],[83.9447,54.0528,241.9998],[83.963,54.021,228.3976],[83.9948,53.9873,161.4048],[84.0526,53.9489,152.2128],[84.1101,53.9421,165.9649],[84.1402,53.931399999999996,161.9044],[84.1905,53.9421,175.6498],[84.242,53.9613,152.1075],[84.2734,53.9359,173.1885],[84.2977,53.8882,205.4221],[84.2786,53.8447,239.1775],[84.3124,53.8289,288.4227],[84.3567,53.8183,273.024],[84.3844,53.7896,259.1498],[84.3922,53.7703,272.0477]]]]}}