{"type":"Feature","properties":{"GID_2":"RUS.35.58_1","GID_0":"RUS","country":"Russia","GID_1":"RUS.35_1","province":"Krasnoyarsk","NL_NAME_1":"Красноярскийкрай","county":"Zaozyorny","VARNAME_2":"Zaozernyy","NL_NAME_2":"Заозёрный","TYPE_2":"Gorsovet","ENGTYPE_2":"District","CC_2":"NA","HASC_2":"RU.KY.ZA","name":"Zaozyorny.county"},
"geometry":{"type": "MultiPolygon","coordinates": [[[[94.7461,55.9265,316.3162],[94.7657,55.9345,331.9231],[94.766,55.9511,241.8178],[94.7505,55.9598,211.1638],[94.7068,55.9565,211.8164],[94.6938,55.948,217.067],[94.6987,55.9316,238.9895],[94.7086,55.9256,264.4034],[94.7461,55.9265,316.3162]]]]}}