{"type":"Feature","properties":{"GID_2":"RUS.56.2_1","GID_0":"RUS","country":"Russia","GID_1":"RUS.56_1","province":"Primor'ye","NL_NAME_1":"Приморскийкрай","county":"Arsen'evgorod","VARNAME_2":"Arsen'ev","NL_NAME_2":"Арсеньев(город)","TYPE_2":"Gorod","ENGTYPE_2":"City","CC_2":"R66002","HASC_2":"RU.PR.AS","name":"Arsen'evgorod.county"},
"geometry":{"type": "MultiPolygon","coordinates": [[[[133.3714,44.1066,609.1755],[133.4527,44.0997,382.6842],[133.5154,44.1298,415.7111],[133.5237,44.1836,276.9369],[133.4554,44.2234,257.3315],[133.3923,44.2515,171.0087],[133.3312,44.2376,133.3177],[133.2885,44.2196,136.0607],[133.2555,44.1629,160.2654],[133.2628,44.14,179.4061],[133.3036,44.1144,309.1466],[133.3714,44.1066,609.1755]]]]}}