{"type":"Feature","properties":{"GID_3":"RUS.83.22.1_1","GID_0":"RUS","country":"Russia","GID_1":"RUS.83_1","province":"Zabaykal'ye","NL_NAME_1":"Забайкальскийкрай","GID_2":"RUS.83.22_1","county":"Mogoytuyskiyrayon","NL_NAME_2":"Могойтуйскийрайон","city":"NA","VARNAME_3":"NA","NL_NAME_3":"NA","TYPE_3":"NA","ENGTYPE_3":"NA","CC_3":"NA","HASC_3":"NA","name":"N_A.city"},
"geometry":{"type": "MultiPolygon","coordinates": [[[[115.289,50.5464,603.389],[115.4537,50.5149,668.1263],[115.5356,50.5484,661.0664],[115.5752,50.5976,589.782],[115.6439,50.631,673.2762],[115.6729,50.6981,578.7067],[115.6564,50.7824,680.5961],[115.5769,50.8114,647.8461],[115.473,50.8111,737.1857],[115.4166,50.8192,721.9744],[115.3581,50.8479,753.4238],[115.2695,50.8491,697.9709],[115.1947,50.8521,704.4303],[115.1771,50.9085,689.0074],[115.2175,50.945,698.5571],[115.2449,51.0217,686.4879],[115.2869,51.0541,692.7643],[115.4364,51.0039,622.0329],[115.5158,51.0087,687.7267],[115.5513,51.0467,612.6636],[115.6266,51.0711,579.8152],[115.7061,51.1027,699.9805],[115.7571,51.1537,655.7339],[115.7925,51.2011,651.9293],[115.8192,51.2623,613.9972],[115.8096,51.3029,605.7162],[115.7799,51.3302,650.6223],[115.7112,51.3546,705.6107],[115.6297,51.3693,672.2878],[115.5881,51.405,600.9994],[115.5829,51.4621,736.1426],[115.5433,51.5002,669.7237],[115.4547,51.5406,762.8687],[115.394,51.5712,781.2314],[115.3165,51.5974,761.064],[115.2725,51.6018,858.5799],[115.1896,51.6173,972.6536],[115.1488,51.6297,844.2525],[115.1232,51.6589,944.3666],[115.0831,51.6798,876.3344],[115.0369,51.6862,856.1801],[115.002,51.6368,914.4178],[114.9894,51.6243,848.5973],[114.9491,51.6175,970.3707],[114.926,51.6407,988.4504],[114.8947,51.6612,1021.787],[114.8723,51.6671,813.2037],[114.7984,51.6268,904.8043],[114.7479,51.591,868.3372],[114.6927,51.5566,857.3904],[114.6431,51.5405,794.2056],[114.6171,51.5297,930.5079],[114.5762,51.4752,881.8218],[114.5554,51.4428,967.0909],[114.496,51.4289,1003.6103],[114.4426,51.4131,885.5767],[114.3931,51.3931,853.1163],[114.3569,51.3502,900.679],[114.3368,51.3109,940.2681],[114.3067,51.2767,898.7511],[114.3259,51.254,885.9832],[114.3663,51.241,839.5646],[114.3919,51.2165,780.4122],[114.4063,51.1743,735.3494],[114.4457,51.1259,740.9027],[114.5203,51.0756,686.0206],[114.6146,51.0359,734.9209],[114.6492,51.0369,760.0535],[114.6534,51.0613,760.1819],[114.6944,51.0633,917.8751],[114.726,51.0609,785.8738],[114.7736,51.0313,918.3707],[114.8621,51.0085,742.5723],[114.8882,50.9866,768.0966],[114.9163,50.9414,685.4742],[115.0049,50.929,660.4341],[115.0307,50.9052,674.9945],[115.087,50.8463,761.559],[115.1325,50.7811,773.047],[115.1758,50.6979,667.1782],[115.2268,50.6375,663.1559],[115.289,50.5464,603.389]]]]}}