{"type":"Feature","properties":{"GID_2":"RUS.56.17_1","GID_0":"RUS","country":"Russia","GID_1":"RUS.56_1","province":"Primor'ye","NL_NAME_1":"Приморскийкрай","county":"Lazovskiyrayon","VARNAME_2":"NA","NL_NAME_2":"Лазовскийрайон","TYPE_2":"Raion","ENGTYPE_2":"District","CC_2":"R66000","HASC_2":"RU.PR.LA","name":"Lazovskiyrayon.county"},
"geometry":{"type": "MultiPolygon","coordinates": [[[[133.2396,42.7351,9.394],[133.2374,42.7354,1.0624],[133.2385,42.7315,0.0],[133.2404,42.7318,0.0],[133.2396,42.7351,9.394]]],
[[[133.2343,42.7396,0.0],[133.2318,42.7396,0.0],[133.2318,42.7371,2.9627],[133.2332,42.7374,2.9627],[133.2343,42.7396,0.0]]],
[[[133.6118,42.8485,0.0],[133.6104,42.8488,0.0],[133.6107,42.8454,0.0],[133.6132,42.8449,0.0],[133.6135,42.8465,0.0],[133.6118,42.8485,0.0]]],
[[[133.8104,42.866,0.0],[133.8038,42.8662,4.8899],[133.8032,42.8618,0.0],[133.8043,42.8607,0.0],[133.8104,42.8615,0.0],[133.8124,42.8651,0.0],[133.8104,42.866,0.0]]],
[[[133.8196,42.8735,4.1939],[133.8151,42.8737,0.0],[133.8151,42.8726,0.0],[133.8185,42.8713,0.0],[133.8207,42.8724,0.0],[133.8196,42.8735,4.1939]]],
[[[133.884,42.8943,0.0],[133.881,42.8949,0.0],[133.8801,42.8929,0.0],[133.8815,42.8913,0.0],[133.886,42.8918,0.0],[133.8865,42.8937,0.0],[133.884,42.8943,0.0]]],
[[[134.1896,43.0285,0.0],[134.1896,43.0304,7.5382999999999996],[134.184,43.0296,0.0],[134.1849,43.0282,2.8196],[134.1896,43.0285,0.0]]],
[[[133.8835,43.5752,1136.6755],[133.7491,43.6153,913.8112],[133.6517,43.674,972.1659],[133.5941,43.5985,705.8096],[133.669,43.5575,793.8625],[133.694,43.5047,571.9794],[133.6682,43.4385,706.3226],[133.7066,43.4218,930.2446],[133.762,43.4332,815.3084],[133.8034,43.4152,656.5943],[133.8153,43.3847,598.2704],[133.8528,43.3714,414.8187],[133.8472,43.3386,393.8715],[133.7841,43.3165,762.5938],[133.7303,43.2842,1013.6102],[133.706,43.2367,1164.2876],[133.6999,43.1976,312.6175],[133.6626,43.1958,529.2802],[133.613,43.1223,752.7563],[133.5394,43.0692,530.8524],[133.5,43.048,553.5869],[133.4518,43.0366,635.205],[133.4197,42.9985,420.7896],[133.3804,42.9602,382.5495],[133.3569,42.9622,419.8549],[133.3143,42.9113,468.0139],[133.2751,42.8304,381.5423],[133.2671,42.7954,254.3225],[133.2471,42.7758,62.2598],[133.2045,42.76,153.6907],[133.1778,42.725,172.3959],[133.1728,42.7029,0.0],[133.1749,42.7043,0.0],[133.1743,42.7068,0.0],[133.1774,42.7074,0.4185],[133.1754,42.7088,1.5568],[133.1765,42.711,4.2716],[133.186,42.7107,4.9481],[133.1854,42.7076,0.0],[133.1879,42.7062,0.0],[133.1874,42.7015,0.0],[133.1985,42.704,15.4544],[133.1987,42.7054,15.4544],[133.204,42.7076,0.0],[133.2043,42.711,2.3716],[133.1996,42.7118,9.9765],[133.2029,42.7135,0.0],[133.2026,42.7149,0.0],[133.2004,42.7143,1.8657],[133.2024,42.7185,0.0],[133.2065,42.7204,0.0],[133.2063,42.7238,0.0],[133.2024,42.7238,0.0],[133.2007,42.7257,3.8952],[133.2035,42.7287,0.0],[133.2024,42.731,6.9403],[133.2088,42.7304,0.0],[133.2112,42.7332,0.0],[133.2135,42.7324,7.4],[133.2149,42.729,0.0],[133.2179,42.7304,0.0],[133.2193,42.734,35.9523],[133.2218,42.734,0.0],[133.2221,42.7363,6.7276],[133.2265,42.7357,0.0],[133.2276,42.7382,0.0],[133.224,42.7418,3.3791],[133.2238,42.7451,1.7137],[133.229,42.7513,8.3146],[133.2435,42.751,0.4022],[133.246,42.7524,18.7345],[133.2518,42.7507,18.6137],[133.2593,42.7518,0.0],[133.2593,42.7535,5.7546],[133.2626,42.7549,1.7728],[133.2746,42.7526,3.7651],[133.2804,42.7549,0.0],[133.2876,42.7524,0.0],[133.2907,42.7565,0.0],[133.2907,42.7604,1.3999],[133.2896,42.7635,0.0],[133.2863,42.7646,12.0974],[133.2857,42.7665,0.8353],[133.291,42.7726,6.0584],[133.2943,42.774,16.7985],[133.3087,42.7726,0.0],[133.3132,42.774,10.451],[133.3218,42.7738,31.0128],[133.3271,42.7721,31.3911],[133.3329,42.7754,0.0],[133.3454,42.776,3.7699],[133.3485,42.7735,4.2986],[133.3468,42.7701,0.0],[133.3496,42.7649,4.5403],[133.3618,42.7613,0.0],[133.3721,42.7654,0.0],[133.3788,42.764,0.0],[133.3826,42.7671,69.0818],[133.3968,42.769,7.3355],[133.4015,42.7704,0.0],[133.4026,42.7724,11.6098],[133.4054,42.7726,12.4277],[133.4071,42.771,2.7205],[133.4182,42.7749,10.8116],[133.4235,42.774,0.0],[133.4251,42.7762,0.0],[133.4246,42.7796,19.1411],[133.4318,42.7785,0.0],[133.4326,42.781,17.877],[133.4362,42.7826,0.0],[133.4368,42.7854,0.0],[133.4321,42.7868,23.0731],[133.4321,42.7899,1.2386],[133.4401,42.7926,0.0],[133.4418,42.796,2.2961],[133.4515,42.7946,0.0],[133.4507,42.7899,0.0],[133.4535,42.7904,0.0],[133.4579,42.7946,12.4658],[133.4607,42.7919,0.0],[133.4618,42.7957,27.9873],[133.4651,42.7949,3.9934],[133.4685,42.7915,0.0],[133.4721,42.7921,24.9106],[133.4738,42.796,15.6768],[133.4757,42.7962,3.6788],[133.4771,42.7946,0.0],[133.4821,42.7954,0.0],[133.4843,42.7985,4.9359],[133.4826,42.8021,25.6395],[133.4863,42.8029,0.0],[133.4871,42.8049,2.4174],[133.4926,42.8049,0.0],[133.4924,42.8085,3.9974],[133.4985,42.8076,0.0],[133.5024,42.8093,0.0],[133.5038,42.8132,1.1207],[133.5143,42.8129,0.0],[133.5171,42.8171,0.0],[133.5074,42.8213,2.0702],[133.5071,42.824,0.0],[133.5001,42.8279,0.0],[133.5001,42.8304,0.0],[133.5026,42.8335,0.8529],[133.5065,42.8338,27.5653],[133.5124,42.8299,0.0],[133.5168,42.8338,24.2383],[133.5221,42.8329,0.0],[133.5243,42.8349,0.0],[133.5304,42.8351,1.4667],[133.5321,42.8343,49.9269],[133.5315,42.8296,0.0],[133.5374,42.8274,17.6769],[133.5382,42.8235,0.0],[133.5437,42.8251,0.0],[133.5465,42.8232,0.0],[133.5462,42.8193,0.0],[133.5499,42.8185,0.0],[133.554,42.8204,0.0],[133.5601,42.8196,0.0],[133.5621,42.8215,0.0],[133.5624,42.8271,0.0],[133.5576,42.8307,2.1795],[133.5576,42.8326,3.1339],[133.5624,42.834,10.1389],[133.5654,42.8324,4.9738],[133.5676,42.8351,0.0],[133.5674,42.8374,8.1956],[133.5715,42.8382,1.1855],[133.5746,42.8324,0.0],[133.5735,42.8285,0.0],[133.5815,42.8246,0.0],[133.5887,42.8288,4.0705],[133.5901,42.8338,25.4229],[133.596,42.834,47.2926],[133.6015,42.8321,41.9149],[133.604,42.8338,0.0],[133.6032,42.8363,0.0],[133.6004,42.8376,1.4467],[133.6032,42.8426,0.0],[133.5971,42.8451,33.768],[133.5963,42.849,0.0],[133.5943,42.8501,8.0333],[133.5957,42.854,2.7414],[133.6032,42.8571,24.1545],[133.616,42.8582,0.2538],[133.619,42.8557,4.0706],[133.6168,42.8521,0.0],[133.6249,42.8449,0.0],[133.6299,42.849,16.2921],[133.6399,42.8513,0.0],[133.6385,42.8543,0.0],[133.6449,42.8574,0.0],[133.641,42.8585,3.3698],[133.6413,42.8618,0.0],[133.6465,42.8624,0.0],[133.6465,42.8596,0.5317],[133.6499,42.8596,0.4989],[133.646,42.8699,0.0],[133.6468,42.8743,0.0],[133.649,42.8751,0.0],[133.6521,42.8596,0.7624],[133.6832,42.8526,0.8443],[133.6951,42.846,2.3967],[133.6957,42.8404,0.0],[133.6913,42.8374,0.0],[133.6979,42.8299,0.0],[133.7029,42.8268,0.0],[133.7093,42.826,15.8182],[133.7118,42.8238,4.8976],[133.7096,42.8176,15.4323],[133.7137,42.8154,0.0],[133.7118,42.8115,1.9408],[133.7157,42.8068,0.0],[133.7176,42.8065,0.0],[133.7279,42.8076,0.0],[133.7315,42.8151,15.4551],[133.7346,42.8163,0.0],[133.7393,42.8218,3.1124],[133.746,42.8243,0.0],[133.7465,42.8257,0.0],[133.7407,42.8307,4.8406],[133.7404,42.8354,0.0],[133.7429,42.8407,5.2876],[133.7474,42.8451,0.0],[133.7543,42.8474,7.2401],[133.7565,42.8507,8.4124],[133.7607,42.8524,15.0636],[133.769,42.8532,0.0],[133.7713,42.8571,25.0023],[133.7793,42.8585,0.0],[133.7818,42.8632,1.296],[133.7871,42.8624,11.7694],[133.7957,42.8726,2.375],[133.8038,42.8737,0.0],[133.8087,42.8763,11.0419],[133.8138,42.8751,0.0],[133.816,42.8829,10.8171],[133.8149,42.886,1.3607],[133.8218,42.8913,3.0912],[133.8296,42.8918,0.0],[133.8326,42.8893,8.1851],[133.8396,42.8893,0.0],[133.8482,42.8937,0.0],[133.8596,42.8963,0.0],[133.8615,42.8988,0.0],[133.8607,42.9024,14.8406],[133.8649,42.9032,0.0],[133.8663,42.9076,8.6127],[133.8696,42.9068,0.0],[133.874,42.9093,3.3242],[133.8837,42.9093,2.2332],[133.891,42.9051,0.0],[133.8887,42.9004,0.0],[133.8918,42.8974,0.0],[133.9015,42.8976,1.8756],[133.9024,42.8951,0.0],[133.9126,42.8949,0.0],[133.9143,42.8935,0.0],[133.9271,42.8918,1.5358],[133.9265,42.8901,2.4798],[133.9124,42.889,1.1124],[133.9071,42.8937,13.4872],[133.8982,42.8921,2.9037],[133.8987,42.8937,0.0],[133.8971,42.8951,0.0],[133.8929,42.8951,5.0911],[133.8899,42.891,0.0],[133.8943,42.889,38.2272],[133.8951,42.8868,0.0],[133.9007,42.8854,33.7933],[133.9001,42.8824,0.0],[133.9018,42.8782,0.0],[133.8935,42.8726,0.0],[133.8949,42.8679,0.0],[133.911,42.8704,0.3732],[133.9157,42.8685,0.0],[133.916,42.8671,0.0],[133.9232,42.8662,0.0],[133.926,42.8715,5.293],[133.9324,42.8776,23.2536],[133.9379,42.8799,0.0],[133.9504,42.8799,0.0],[133.9512,42.8843,26.6256],[133.9549,42.8885,0.0],[133.9568,42.9071,11.6539],[133.9732,42.9165,0.0],[133.9835,42.9276,13.9189],[134.0068,42.9388,1.013],[134.0115,42.9437,0.0],[134.0104,42.9493,2.9542],[134.0226,42.9576,4.5034],[134.0399,42.9646,0.0],[134.0471,42.9724,24.2884],[134.0524,42.9732,6.3181],[134.0615,42.9715,0.0],[134.0671,42.9735,0.0],[134.0804,42.9743,0.0],[134.0854,42.9787,0.0],[134.0921,42.9813,0.0],[134.0971,42.9871,20.5398],[134.1174,42.9896,0.0],[134.1254,42.9938,0.0],[134.1282,42.9987,5.6278],[134.126,43.0143,8.1756],[134.1282,43.0182,9.7819],[134.1313,43.0204,0.6044],[134.1343,43.0204,0.0],[134.1401,43.0251,0.0],[134.1438,43.0257,21.0237],[134.1507,43.034,9.0566],[134.1621,43.0326,6.1858],[134.1643,43.0346,3.4565],[134.1701,43.0349,0.0],[134.1715,43.0374,52.4292],[134.1754,43.0382,0.7387],[134.1751,43.0407,0.0],[134.1696,43.0418,6.1741],[134.1699,43.046,40.2365],[134.1749,43.0579,0.6736],[134.1738,43.0618,4.1599],[134.1754,43.0649,2.0817],[134.1821,43.066,2.5302],[134.1854,43.0718,1.6379],[134.1929,43.0718,0.0],[134.1968,43.0751,0.0],[134.2032,43.0743,0.8848],[134.2082,43.0757,2.0832],[134.2096,43.0782,0.0],[134.2143,43.0807,36.5758],[134.2204,43.0807,16.0049],[134.2238,43.0788,21.2534],[134.2337,43.0799,0.0],[134.2521,43.096,39.5171],[134.2607,43.0974,0.0],[134.269,43.104,14.8928],[134.2779,43.1079,15.9606],[134.291,43.1071,25.6692],[134.2982,43.109,31.6913],[134.3013,43.1071,7.7852],[134.3035,43.1007,0.0],[134.3054,43.1007,30.7005],[134.3082,43.0965,0.0],[134.309,43.0988,55.0329],[134.3168,43.1032,0.0],[134.3093,43.1029,20.7916],[134.3076,43.1068,44.5313],[134.3026,43.1079,5.1188],[134.3018,43.1107,0.4656],[134.3057,43.1165,0.3938],[134.311,43.1199,25.5818],[134.3207,43.1218,0.0],[134.329,43.1174,8.3497],[134.3335,43.1218,0.0],[134.3374,43.1182,0.0],[134.3368,43.1151,0.0],[134.3432,43.1113,0.0],[134.3504,43.1154,0.0],[134.3501,43.1174,0.0],[134.3474,43.119,0.0],[134.3482,43.1215,1.5776],[134.356,43.1218,0.0],[134.3579,43.1237,0.0],[134.3579,43.1263,0.0],[134.3671,43.1257,15.5743],[134.3701,43.1265,0.0],[134.3699,43.1296,4.9421],[134.3737,43.1293,7.599],[134.3826,43.1321,0.0],[134.3804,43.1374,7.0887],[134.3865,43.1432,1.3357],[134.3918,43.1449,3.8922],[134.3971,43.144,18.7062],[134.4076,43.1476,45.2368],[134.4124,43.1476,32.8545],[134.4162,43.1457,13.1749],[134.4232,43.1526,6.4726],[134.4396,43.1587,0.0],[134.4401,43.1649,0.0],[134.449,43.1726,-0.2659],[134.4524,43.1738,27.653],[134.4582,43.1729,0.4551],[134.4854,43.1821,11.9844],[134.4913,43.1874,0.0],[134.4896,43.1888,0.0],[134.4901,43.1915,0.6913],[134.4943,43.1915,0.0],[134.5182,43.2093,11.7878],[134.5479,43.2257,21.5754],[134.5576,43.2374,9.9046],[134.5682,43.2388,4.1359],[134.5696,43.2412,0.5877],[134.5746,43.2432,1.7962],[134.586,43.2438,30.6586],[134.5874,43.2412,0.0],[134.5915,43.2407,17.5015],[134.594,43.2379,5.4662],[134.6007,43.2363,0.0],[134.6074,43.2374,0.0],[134.6254,43.2454,0.0],[134.6313,43.2554,0.0],[134.6268,43.2588,7.9949],[134.6282,43.2637,3.7358],[134.6421,43.2615,0.0],[134.654,43.2657,0.0],[134.6585,43.269,2.0443],[134.6632,43.2682,3.4655],[134.6751,43.2749,0.0],[134.6815,43.2802,0.0],[134.679,43.2874,0.1383],[134.6826,43.2932,0.0743],[134.6793,43.2954,5.378],[134.6715,43.2968,5.3465],[134.6687,43.2993,2.7221],[134.6704,43.3018,2.5571],[134.6796,43.3015,1.1468],[134.684,43.3032,2.0952],[134.6951,43.3024,1.4052],[134.6965,43.3057,10.4553],[134.699,43.3007,16.0775],[134.7088,43.2985,0.0],[134.7085,43.3026,14.6632],[134.7124,43.3007,0.0],[134.7201,43.3013,5.1458],[134.7257,43.3046,0.0],[134.7251,43.3082,33.0203],[134.7293,43.3104,0.5719],[134.7321,43.3104,0.4655],[134.7329,43.3076,0.0],[134.7462,43.3074,47.8496],[134.7529,43.3057,27.2773],[134.7585,43.3071,88.7778],[134.7635,43.306,2.7069],[134.7649,43.3082,1.9531],[134.7726,43.3063,0.0],[134.7793,43.3082,0.0],[134.7793,43.3115,0.0],[134.7857,43.3157,0.0],[134.7843,43.3168,52.2638],[134.7857,43.3185,0.0],[134.7835,43.3207,0.0],[134.7793,43.3201,26.6415],[134.7785,43.3221,9.7185],[134.7918,43.3271,0.0],[134.7915,43.331,0.0],[134.786,43.3326,2.7457],[134.7857,43.3343,0.0],[134.7937,43.3354,0.0],[134.7932,43.3374,25.1623],[134.7879,43.3401,2.6721],[134.7896,43.3457,4.15],[134.7932,43.3499,6.6619],[134.7985,43.351,0.5094],[134.7996,43.3493,0.0],[134.8065,43.3496,0.0],[134.8163,43.354,0.0],[134.8246,43.3635,0.0],[134.8276,43.3693,17.9506],[134.8299,43.3704,0.0],[134.8299,43.3724,42.5549],[134.8326,43.374,0.0],[134.8387,43.384,72.1899],[134.8404,43.3857,30.8885],[134.8449,43.3854,0.0],[134.8468,43.3882,47.7302],[134.8515,43.3904,0.0],[134.8526,43.3932,0.6374],[134.8576,43.3937,0.0],[134.8615,43.3974,38.4486],[134.8693,43.3971,26.4633],[134.8768,43.4049,0.0],[134.8885,43.4113,18.3923],[134.9138,43.4168,0.0],[134.9307,43.4224,7.8395],[134.9443,43.4313,2.2294],[134.9476,43.4313,0.0],[134.9512,43.4343,18.543],[134.9601,43.4368,0.0],[134.9651,43.4401,0.0],[134.9688,43.4401,0.0],[134.9771,43.4493,0.0],[134.9676,43.4529,15.4879],[134.9618,43.4579,5.7788],[134.966,43.4607,3.2443],[134.9662,43.4632,3.29],[134.9679,43.4632,1.3114],[134.969,43.4663,3.428],[134.9724,43.4688,19.535],[134.9893,43.4671,40.4938],[134.991,43.4646,0.0],[134.994,43.4663,5.1036],[134.9976,43.4624,36.9988],[135.006,43.4621,0.0],[135.0082,43.4651,0.0],[135.0126,43.466,0.0],[135.014,43.4688,0.0],[135.019,43.4688,1.9859],[135.0196,43.4701,1.9859],[135.0226,43.4693,0.0],[135.0229,43.4712,0.0],[135.0276,43.4735,0.0],[135.0326,43.4732,0.0],[135.0335,43.4757,3.6683],[135.0363,43.4771,9.5513],[135.0363,43.481,10.1807],[135.041,43.4824,31.219],[135.0432,43.4807,1.0427],[135.0446,43.4826,12.4246],[135.0604,43.4849,0.0],[135.0626,43.4885,2.9866],[135.0715,43.4888,0.0],[135.0862,43.4982,0.6241],[135.0968,43.5026,3.6245],[135.1182,43.5026,1.9817],[135.1251,43.4993,0.4333],[135.126,43.5007,21.6112],[135.1349,43.5013,0.0],[135.1418,43.5049,0.0],[135.1482,43.514,14.4372],[135.1507,43.5143,0.0],[135.1529,43.5221,8.8051],[135.1485,43.5271,0.0],[135.146,43.5346,0.0],[135.1471,43.5438,22.8571],[135.1529,43.5488,22.6874],[135.1604,43.5485,0.0],[135.1651,43.5549,0.0],[135.1687,43.556,0.0],[135.1699,43.5732,43.2408],[135.1735,43.576,0.0],[135.1743,43.5824,0.0],[135.1812,43.5885,0.0],[135.1826,43.5943,0.0],[135.179,43.5965,0.0],[135.1818,43.5993,0.0],[135.1815,43.6021,0.0],[135.174,43.6035,13.4796],[135.1729,43.6049,1.4797],[135.1738,43.6079,1.779],[135.1837,43.6115,0.0],[135.1857,43.6146,9.1342],[135.1896,43.616,0.0],[135.1915,43.6199,0.0],[135.2065,43.6271,5.8876],[135.2118,43.6312,0.0],[135.2179,43.6324,3.4969],[135.2229,43.631,0.0],[135.226,43.6346,0.0],[135.2243,43.6374,0.0],[135.2251,43.6432,0.0],[135.2196,43.6446,0.0],[135.2179,43.6524,0.0],[135.214,43.656,3.647],[135.2246,43.6582,0.0],[135.2268,43.6604,0.0],[135.2279,43.6635,0.0],[135.2274,43.6782,0.0],[135.2215,43.6865,5.6575],[135.2271,43.689,31.1088],[135.2299,43.686,0.0],[135.2321,43.6865,0.0],[135.2324,43.6893,4.5239],[135.2357,43.6918,0.0],[135.2337,43.6946,39.7019],[135.2349,43.6974,0.0],[135.2276,43.6993,0.0],[135.2135,43.6999,1.668],[135.2038,43.7065,9.9054],[135.2004,43.7115,0.1177],[135.2068,43.7118,0.0],[135.2065,43.7154,2.3568],[135.2165,43.711,0.4232],[135.2196,43.7129,0.0],[135.2213,43.7157,3.6517],[135.2204,43.7182,0.4032],[135.2254,43.7235,0.3406],[135.2282,43.7229,0.4267],[135.2332,43.7265,1.2172],[135.2582,43.7279,0.0],[135.2632,43.7304,0.0],[135.2679,43.7363,11.6435],[135.2787,43.741,8.5683],[135.291,43.7401,0.7969],[135.2921,43.7368,2.4734],[135.2899,43.7346,6.6061],[135.2612,43.7287,16.9647],[135.2563,43.7235,0.0],[135.2535,43.7157,1.0246],[135.2504,43.7118,32.6265],[135.2499,43.7068,0.0],[135.2513,43.7026,0.0],[135.2579,43.6951,0.0],[135.2626,43.6932,0.0],[135.2682,43.6874,0.0],[135.2796,43.686,0.0],[135.2957,43.6926,0.0],[135.3018,43.6935,0.0],[135.3068,43.7004,0.0],[135.321,43.7068,0.0],[135.3212,43.7085,0.0],[135.3251,43.7085,0.0],[135.3343,43.7137,0.0],[135.3393,43.7149,0.0],[135.3546,43.7137,0.0],[135.3607,43.7199,0.0],[135.3696,43.7226,0.0],[135.3718,43.7249,0.0],[135.3743,43.7346,0.0],[135.3771,43.7393,0.0],[135.3854,43.7454,0.0],[135.389,43.7515,11.3669],[135.3963,43.7546,8.1995],[135.4012,43.759,14.5559],[135.4093,43.7599,18.466],[135.4182,43.756,0.0],[135.4365,43.7649,0.0],[135.4351,43.7651,5.6872],[135.4351,43.7687,126.2688],[135.4371,43.7693,0.0],[135.4357,43.7707,0.0],[135.4376,43.774,0.0],[135.4365,43.7796,0.0],[135.4382,43.7799,0.0],[135.4385,43.7818,0.0],[135.4362,43.786,0.0],[135.4449,43.794,0.0],[135.4457,43.7971,0.0],[135.4504,43.7979,0.0],[135.4538,43.8013,0.0],[135.4546,43.8054,0.0],[135.4593,43.8079,36.6477],[135.4637,43.8071,0.0],[135.4749,43.814,0.0],[135.4749,43.8176,3.4401],[135.4787,43.8213,12.904],[135.479,43.8235,0.0],[135.4743,43.8265,25.8009],[135.474,43.8296,1.7919],[135.4782,43.8338,32.7332],[135.4818,43.834,0.0],[135.4807,43.8382,6.8304],[135.4829,43.841,0.0],[135.4888,43.844,0.0],[135.496,43.844,0.0],[135.4971,43.8462,43.0758],[135.5015,43.846,19.1308],[135.5054,43.8435,0.0],[135.5082,43.8443,0.0],[135.5026,43.8493,24.8508],[135.504,43.8646,33.1055],[135.5112,43.8715,4.2712],[135.5104,43.8771,1.436],[135.5121,43.8782,0.0],[135.5115,43.8818,19.9161],[135.5129,43.884,35.9618],[135.5232,43.8874,0.0],[135.5249,43.8887,0.0],[135.5246,43.8937,0.0],[135.5276,43.8954,0.0],[135.5279,43.8996,2.7018],[135.5265,43.9004,2.7018],[135.5165,43.9012,0.0],[135.5043,43.8988,0.0],[135.5054,43.8968,1.1969],[135.5021,43.8968,0.746],[135.5015,43.8943,1.128],[135.5049,43.8896,0.0],[135.5038,43.8826,0.0],[135.4876,43.8732,2.4808],[135.4857,43.8643,0.6149],[135.4796,43.8688,0.5],[135.4832,43.8715,0.6798],[135.4832,43.8735,0.0],[135.4601,43.8779,1.2387],[135.4579,43.8851,2.3509],[135.4679,43.8885,0.0],[135.4701,43.8918,14.3061],[135.4682,43.9018,12.402],[135.4607,43.9135,1.2165],[135.4637,43.916,13.837],[135.4679,43.9162,0.0],[135.4713,43.9146,0.0],[135.4713,43.9174,0.0],[135.4732,43.9179,0.0],[135.4735,43.9199,0.0],[135.4665,43.9238,0.0],[135.4668,43.926,4.1383],[135.4696,43.9279,0.0],[135.4704,43.9326,16.8205],[135.4612,43.939,0.0],[135.4563,43.9393,0.0],[135.4565,43.9413,0.0],[135.4535,43.9432,0.0],[135.4529,43.9482,0.0],[135.4585,43.9546,1.8318],[135.466,43.956,1.4748],[135.4957,43.9479,0.0],[135.4982,43.9449,0.0],[135.5007,43.9457,7.8845],[135.5065,43.9429,0.4559],[135.5085,43.9362,0.0],[135.5112,43.9354,0.6055],[135.5129,43.9321,3.298],[135.5154,43.9226,11.0427],[135.5193,43.921,0.0],[135.5215,43.9268,33.26],[135.5207,43.9404,8.951],[135.5168,43.9443,0.0],[135.5099,43.944,0.6978],[135.5071,43.9474,2.3232],[135.5068,43.9504,1.7116],[135.5118,43.9543,0.0],[135.5132,43.9579,11.5778],[135.5124,43.9632,0.0],[135.5149,43.9646,0.0],[135.5149,43.9701,2.0059],[135.5124,43.9712,7.4305],[135.5104,43.9779,-0.5],[135.5124,43.9779,3.4181],[135.5154,43.9721,1.4571],[135.5204,43.9718,3.6288],[135.5201,43.9701,0.4418],[135.5237,43.9668,0.0],[135.5307,43.9707,6.5452],[135.5324,43.984,0.0],[135.5293,43.9893,0.0],[135.5215,43.9946,4.5362],[135.524,43.9982,0.0],[135.5238,44.0007,5.0104],[135.5307,44.0083,1.0713],[135.5342,44.0067,0.0],[135.5418,44.0073,29.6068],[135.5464,44.0121,8.2955],[135.5524,44.0113,16.1129],[135.5564,44.0136,16.2544],[135.56,44.0203,0.5207],[135.5649,44.0234,0.9187],[135.5729,44.022,0.0],[135.5789,44.0256,2.0803],[135.58,44.0233,0.0],[135.5841,44.0223,25.5388],[135.5971,44.0212,0.0],[135.6,44.0231,21.5758],[135.6004,44.026,5.8254],[135.6063,44.0293,10.9796],[135.6104,44.0354,24.4752],[135.613,44.0369,0.379],[135.6214,44.0385,1.4173],[135.6262,44.0335,0.0],[135.6329,44.0351,6.1415],[135.6343,44.0429,16.9686],[135.6366,44.0453,15.8615],[135.6324,44.0523,4.2814],[135.6335,44.0567,0.0],[135.6304,44.0618,2.8464],[135.6312,44.0663,1.7481],[135.6359,44.0709,27.6131],[135.6374,44.0818,0.0],[135.6312,44.0987,0.0],[135.6351,44.1028,2.3352],[135.6456,44.1025,0.0],[135.6452,44.1123,20.8184],[135.6477,44.1141,0.0],[135.6484,44.1169,0.0],[135.6514,44.1184,0.0],[135.6507,44.1256,7.0873],[135.6602,44.1306,0.0],[135.6573,44.1351,20.825],[135.6482,44.1257,18.9649],[135.5735,44.1636,56.8709],[135.4859,44.2003,140.0808],[135.4048,44.2267,204.5905],[135.3741,44.1775,425.5818],[135.3159,44.1692,401.6747],[135.289,44.1388,361.2373],[135.2748,44.1137,321.1775],[135.2241,44.071,576.0236],[135.1532,44.0497,619.1696],[135.0745,44.0501,753.0204],[134.9932,44.0708,629.8052],[134.9576,44.0966,644.8349],[134.8897,44.1028,897.7949],[134.8596,44.1156,637.3529],[134.8208,44.1469,771.2759],[134.7821,44.1674,560.1136],[134.7158,44.1706,691.7256],[134.6739,44.1529,1159.0739],[134.6783,44.1105,661.9379],[134.6645,44.0554,607.7762],[134.6172,44.0442,460.9769],[134.5479,43.9866,547.7949],[134.5056,44.0039,942.3591],[134.4768,43.9683,958.3651],[134.4769,43.9479,844.1705],[134.5135,43.9027,451.8512],[134.5696,43.8663,789.8147],[134.5429,43.7856,968.4962],[134.4958,43.7476,886.824],[134.4352,43.7196,1133.1605],[134.3732,43.6408,857.6226],[134.3628,43.6024,654.7719],[134.3101,43.539,713.8542],[134.2103,43.5519,641.5863],[134.1658,43.5149,1047.4529],[134.0613,43.5402,1379.9174],[134.0257,43.5795,870.2592],[133.9744,43.6284,535.058],[133.939,43.6238,614.3271],[133.9153,43.5802,935.4095],[133.8835,43.5752,1136.6755]]],
[[[135.2821,43.6804,0.0],[135.2779,43.681,2.8156],[135.2754,43.679,0.0],[135.2754,43.6763,0.0],[135.2807,43.6757,0.0],[135.2821,43.6804,0.0]]],
[[[135.2107,43.7074,1.5845],[135.209,43.7071,0.7683],[135.2126,43.7054,0.0],[135.2124,43.7071,0.3484],[135.2107,43.7074,1.5845]]],
[[[135.4846,43.9104,25.0063],[135.4785,43.9093,0.0],[135.4738,43.906,0.0],[135.4724,43.9026,0.0],[135.4749,43.9026,1.9281],[135.4801,43.899,0.0],[135.4904,43.9007,0.0],[135.4907,43.9038,0.0],[135.4846,43.9104,25.0063]]]]}}