{"type":"Feature","properties":{"GID_2":"RUS.2.36_1","GID_0":"RUS","country":"Russia","GID_1":"RUS.2_1","province":"Altay","NL_NAME_1":"Алтайскийкрай","county":"Pospelikhinskiyrayon","VARNAME_2":"NA","NL_NAME_2":"Поспелихинскийрайон","TYPE_2":"Raion","ENGTYPE_2":"District","CC_2":"R53093","HASC_2":"RU.AL.PO","name":"Pospelikhinskiyrayon.county"},
"geometry":{"type": "MultiPolygon","coordinates": [[[[82.4186,51.8205,196.2251],[82.4114,51.8598,190.6276],[82.421,51.8991,186.6521],[82.3871,51.9133,184.1928],[82.3191,51.8915,190.805],[82.2904,51.9075,193.9809],[82.2023,51.9031,221.0739],[82.2178,51.9358,227.0753],[82.1828,51.962,194.8802],[82.1321,51.9393,202.5072],[82.0883,51.9281,197.5883],[82.0682,51.9615,207.5808],[82.0023,52.0211,176.9232],[81.9551,52.0498,202.6845],[81.9388,52.0848,233.5814],[81.9461,52.0955,232.5675],[81.9502,52.1131,238.8019],[81.8291,52.2142,243.1796],[81.8155,52.1741,248.7639],[81.7434,52.1636,260.6317],[81.7064,52.1441,278.5127],[81.6994,52.1296,279.9073],[81.7168,52.109,264.3668],[81.7117,52.0808,243.4156],[81.6304,52.0478,245.4006],[81.5631,52.0116,239.5997],[81.5959,51.9719,218.7838],[81.5517,51.9358,216.5362],[81.5266,51.905,215.8377],[81.4928,51.8764,214.1791],[81.4703,51.8819,222.6438],[81.4353,51.8653,226.4625],[81.4101,51.8476,227.7042],[81.3904,51.7996,218.3096],[81.414,51.7536,204.0549],[81.4653,51.739,195.5],[81.5574,51.6805,197.8808],[81.5579,51.6474,219.2541],[81.566,51.6176,230.8026],[81.6091,51.6006,244.93],[81.6251,51.5608,239.4133],[81.6456,51.5303,228.2011],[81.7257,51.5406,238.4825],[81.7966,51.5417,289.2781],[81.8204,51.5231,286.891],[81.8709,51.5319,245.3891],[81.9543,51.5643,261.8997],[81.9491,51.621,242.1495],[81.953,51.668,253.2219],[81.9735,51.6923,243.7447],[82.0198,51.6682,228.524],[82.0706,51.657,245.5815],[82.1104,51.6827,231.9951],[82.1119,51.7122,224.0843],[82.1108,51.7376,223.5858],[82.1423,51.742,215.0826],[82.1663,51.7592,213.1512],[82.3246,51.7727,278.4803],[82.3913,51.7933,215.6461],[82.4186,51.8205,196.2251]]]]}}