{"type":"Feature","properties":{"GID_2":"RUS.56.28_1","GID_0":"RUS","country":"Russia","GID_1":"RUS.56_1","province":"Primor'ye","NL_NAME_1":"Приморскийкрай","county":"Spassk-Dal'nyy","VARNAME_2":"NA","NL_NAME_2":"Спасск-Дальний","TYPE_2":"Gorod","ENGTYPE_2":"City","CC_2":"NA","HASC_2":"RU.PR.SD","name":"Spassk-Dal'nyy.county"},
"geometry":{"type": "MultiPolygon","coordinates": [[[[132.8068,44.546,126.1325],[132.8118,44.5482,137.2455],[132.8137,44.5524,147.0628],[132.8116,44.5572,144.1212],[132.8072,44.5589,127.0248],[132.7979,44.5584,110.6302],[132.7933,44.5537,118.3614],[132.7941,44.5501,121.9055],[132.8019,44.5455,120.6378],[132.8068,44.546,126.1325]]]]}}