{"type":"Feature","properties":{"GID_2":"RUS.28.6_1","GID_0":"RUS","country":"Russia","GID_1":"RUS.28_1","province":"Khabarovsk","NL_NAME_1":"Хабаровскийкрай","county":"im.Lazorayon","VARNAME_2":"ImeniLazo","NL_NAME_2":"им.Лазорайон","TYPE_2":"Raion","ENGTYPE_2":"District","CC_2":"R67090","HASC_2":"RU.KH.IL","name":"im.Lazorayon.county"},
"geometry":{"type": "MultiPolygon","coordinates": [[[[134.725,47.7853,36.5],[134.7177,47.7951,36.0],[134.778,47.8452,47.6156],[134.8721,47.8489,49.0122],[134.9762,47.8311,57.314],[135.0558,47.8204,61.9678],[135.1922,47.8262,74.9275],[135.3279,47.8403,99.7506],[135.4166,47.8237,123.3686],[135.4296,47.7959,119.61],[135.4295,47.7607,109.9918],[135.4643,47.7327,141.9832],[135.4857,47.7119,272.4717],[135.4792,47.6771,178.9102],[135.4788,47.6223,526.1469],[135.5217,47.589,374.3661],[135.5275,47.5743,196.894],[135.4459,47.5615,327.9727],[135.4359,47.5354,252.3432],[135.4241,47.485,271.3882],[135.273,47.4279,230.0462],[135.3206,47.4022,272.8734],[135.3474,47.3679,304.4126],[135.3299,47.3106,294.9168],[135.3889,47.2627,261.6393],[135.3865,47.2046,538.6382],[135.3544,47.1794,438.4536],[135.3403,47.1332,329.9318],[135.3629,47.0975,280.4815],[135.4028,47.089,294.492],[135.4357,47.0751,371.2646],[135.4548,47.054,599.3118],[135.4421,47.0353,348.2509],[135.4223,47.011,306.5586],[135.3846,46.9753,377.0966],[135.3771,46.9513,330.3132],[135.3971,46.9393,480.8139],[135.4403,46.9284,421.9077],[135.4924,46.9419,302.4683],[135.5275,46.9714,300.488],[135.5613,46.9974,345.4753],[135.6102,46.9976,257.4084],[135.6114,46.9753,280.5993],[135.6799,46.9729,513.5659],[135.7269,46.9801,579.9899],[135.778,46.9678,586.1372],[135.777,46.9382,498.7836],[135.7493,46.9233,532.5331],[135.8221,46.892,530.3358],[135.845,46.8557,549.0069],[135.918,46.8262,432.4092],[135.9694,46.8116,397.9253],[135.9962,46.8142,398.3266],[136.0265,46.8632,358.9163],[136.0506,46.8858,387.6],[136.0999,46.8885,353.0014],[136.1219,46.8691,386.23],[136.1481,46.8335,467.399],[136.2512,46.8005,587.3432],[136.3339,46.7852,683.3271],[136.3858,46.7972,1258.5366],[136.4139,46.8158,873.7403],[136.4558,46.8309,916.8651],[136.4861,46.8288,697.934],[136.5345,46.8191,993.1617],[136.6004,46.8157,1060.2454],[136.6713,46.85,1355.7905],[136.7061,46.8711,899.5104],[136.7331,46.8965,1026.9131],[136.7942,46.9192,1295.116],[136.8617,46.9581,1044.9111],[136.9009,46.9606,1356.8127],[136.916,46.9763,1166.09],[136.9589,47.0056,1252.7458],[136.9919,47.0223,1175.7708],[136.9813,47.051,1050.7552],[136.9369,47.1034,1138.4788],[136.9634,47.1513,1112.135],[136.98,47.1948,1183.4592],[137.0216,47.2491,1536.564],[137.0439,47.3072,1310.4352],[137.0753,47.3204,1380.5105],[137.1456,47.2981,1344.1475],[137.2215,47.2766,957.4829],[137.2728,47.275,989.0734],[137.2958,47.2398,1065.4355],[137.3425,47.2242,1166.7354],[137.4158,47.2109,1344.8687],[137.4577,47.2226,1287.5237],[137.4707,47.2424,1311.2979],[137.4934,47.2539,1136.7511],[137.52,47.2595,1153.1162],[137.5611,47.2737,1329.9924],[137.5972,47.3176,1505.7577],[137.6359,47.3445,983.6971],[137.7009,47.3664,963.0493],[137.7568,47.3593,945.7166],[137.8032,47.3413,966.7062],[137.9141,47.3773,835.2061],[137.923,47.4436,1238.6239],[138.0017,47.4509,826.1721],[138.016,47.4798,1320.0291],[138.0833,47.5037,1147.3119],[138.0846,47.5393,1154.1982],[138.0823,47.5691,945.082],[138.0713,47.6069,786.875],[138.0282,47.6161,594.493],[137.9845,47.6286,930.6712],[138.0477,47.6735,838.3783],[138.0551,47.699,969.2366],[138.0297,47.6951,707.1519],[137.9928,47.693,1000.4064],[137.9689,47.7161,1038.2612],[137.9373,47.7319,1086.7386],[137.908,47.7339,1080.3202],[137.826,47.7118,847.986],[137.776,47.7142,977.3083],[137.7242,47.7364,1017.4154],[137.6021,47.7979,963.3344],[137.5589,47.8024,1118.1548],[137.512,47.8042,1165.4763],[137.4667,47.7927,1215.2838],[137.4339,47.8065,1053.2964],[137.4264,47.8297,1069.0792],[137.4591,47.854,1021.9692],[137.5068,47.8667,1040.7393],[137.5696,47.8782,1235.3496],[137.5862,47.8997,984.7749],[137.594,47.9238,1043.4912],[137.5655,47.9485,841.7856],[137.5222,47.9646,1118.7374],[137.4068,47.9982,1076.8256],[137.4015,48.032,1021.9718],[137.3929,48.0418,1064.9697],[137.3511,48.0603,1042.2261],[137.3305,48.1056,1261.6318],[137.3676,48.1395,1419.3928],[137.4734,48.2004,1313.1752],[137.5314,48.194,1032.4601],[137.5476,48.2048,1075.7839],[137.4709,48.2669,1072.7444],[137.472,48.3292,872.7185],[137.5335,48.384,1389.0087],[137.5815,48.4172,888.9495],[137.5757,48.4561,951.7066],[137.6594,48.5286,1018.4022],[137.7683,48.5372,1083.3687],[137.8059,48.5506,955.7517],[137.8019,48.5825,908.5992],[137.8222,48.6324,917.5203],[137.8959,48.6962,898.9187],[137.9284,48.7222,910.1482],[137.8956,48.7838,875.821],[137.79,48.7863,1048.3322],[137.6795,48.7293,712.9113],[137.6051,48.7269,781.7059],[137.6443,48.7626,1240.3295],[137.6565,48.821,852.9108],[137.5747,48.8911,894.4641],[137.4456,48.8819,882.6727],[137.3583,48.9041,671.9965],[137.2918,48.8877,527.8757],[137.1668,48.9374,715.7111],[137.0422,48.8457,547.7605],[136.9899,48.7549,554.8291],[136.9545,48.6997,443.4744],[136.8832,48.6328,373.662],[136.8093,48.5919,603.0507],[136.7738,48.5448,395.3677],[136.7583,48.4586,584.7787],[136.7981,48.4394,646.2437],[136.797,48.3972,513.5247],[136.7307,48.3603,522.7574],[136.7178,48.3216,394.624],[136.7387,48.2475,792.6034],[136.6712,48.2319,513.8675],[136.6076,48.2438,488.5656],[136.5331,48.2204,385.9889],[136.4772,48.2625,272.3344],[136.3867,48.2798,159.1732],[136.3826,48.3657,301.8389],[136.3552,48.3974,158.8199],[136.2722,48.4073,147.5429],[136.2229,48.4319,69.6678],[136.1712,48.4885,61.9607],[136.0617,48.5582,39.1702],[136.0614,48.6153,41.5484],[136.0506,48.6682,48.7085],[136.0441,48.7182,30.2548],[136.0051,48.6868,78.3634],[135.9594,48.6258,33.4659],[135.9738,48.5571,35.8207],[135.9377,48.4706,40.6076],[135.9225,48.3852,47.1153],[135.8869,48.263,53.9207],[135.8129,48.2451,51.515],[135.6817,48.271,51.2851],[135.5064,48.2566,64.6038],[135.115,48.1741,88.7301],[135.0021,48.1579,88.0957],[134.907,48.0988,51.3968],[134.804,48.1076,43.1844],[134.7082,48.1455,37.0579],[134.6745,48.1988,92.6877],[134.668,48.1889,37.16],[134.6711,48.1642,40.2624],[134.664,48.1477,34.0],[134.6349,48.1204,34.0],[134.6275,48.1036,35.2976],[134.6214,48.0962,34.0],[134.5788,48.0611,34.0],[134.5654,48.0394,34.0],[134.5566,48.0323,37.097],[134.5506,48.0244,36.886],[134.5513,47.9936,40.0716],[134.5539,47.9813,36.904],[134.5809,47.9613,40.9781],[134.5852,47.9501,36.0],[134.5867,47.9394,37.6443],[134.5805,47.9274,36.0],[134.5811,47.9179,37.1869],[134.5889,47.9068,36.0],[134.6016,47.9019,36.0],[134.6406,47.9,36.0],[134.6569,47.8934,36.0],[134.664,47.8793,37.9529],[134.6704,47.8332,36.0],[134.6755,47.8226,38.0409],[134.7025,47.8008,36.0],[134.725,47.7853,36.5]]]]}}