{"type":"Feature","properties":{"GID_3":"RUS.28.20.1_1","GID_0":"RUS","country":"Russia","GID_1":"RUS.28_1","province":"Khabarovsk","NL_NAME_1":"Хабаровскийкрай","GID_2":"RUS.28.20_1","county":"Ul'chskiyrayon","NL_NAME_2":"Ульчскийрайон","city":"NA","VARNAME_3":"NA","NL_NAME_3":"NA","TYPE_3":"NA","ENGTYPE_3":"NA","CC_3":"NA","HASC_3":"NA","name":"N_A.city"},
"geometry":{"type": "MultiPolygon","coordinates": [[[[140.8783,51.4264,13.6119],[140.8729,51.4295,0.0],[140.8695,51.4366,31.76],[140.863,51.4372,2.0785],[140.8639,51.4331,12.8888],[140.8716,51.4278,0.0],[140.8703,51.4236,0.0],[140.8772,51.4219,0.0],[140.8905,51.4247,0.0],[140.8833,51.4275,0.0],[140.8783,51.4264,13.6119]]],
[[[140.8363,51.441,4.7867],[140.8393,51.4417,0.0],[140.836,51.4435,7.5838],[140.8349,51.4416,0.0],[140.8363,51.441,4.7867]]],
[[[140.8161,51.4753,0.0],[140.8187,51.4758,0.0],[140.8179,51.4772,11.6408],[140.82,51.4783,0.0],[140.8134,51.4786,0.0],[140.8161,51.4753,0.0]]],
[[[140.6861,51.3268,0.0],[140.6879,51.3265,0.0],[140.6883,51.3285,0.0],[140.6855,51.3288,0.0],[140.6861,51.3268,0.0]]],
[[[140.8107,51.4637,0.0],[140.8188,51.4657,0.0],[140.8142,51.467,4.7679],[140.8103,51.4649,0.0],[140.8107,51.4637,0.0]]],
[[[137.7863,52.1856,445.0343],[137.7463,52.1854,550.1268],[137.6725,52.1815,598.7668],[137.6442,52.1516,448.0423],[137.472,52.0654,431.8304],[137.4264,52.0289,386.3978],[137.4251,51.989,487.1357],[137.5091,51.9672,227.0165],[137.5108,51.9262,175.854],[137.6066,51.8956,197.072],[137.6314,51.836,190.2035],[137.6813,51.8007,315.5095],[137.756,51.779,293.6737],[137.8207,51.773,294.8981],[137.876,51.7311,398.3979],[137.977,51.7254,466.9315],[138.0504,51.7366,614.1342],[138.1208,51.7359,1323.3961],[138.1486,51.7098,991.9164],[138.149,51.6504,567.184],[138.1205,51.5902,965.8588],[138.0442,51.5167,585.2371],[137.953,51.4545,737.9262],[137.8871,51.4154,716.9521],[137.8558,51.4023,930.7264],[137.9322,51.361,775.2137],[138.0699,51.3386,512.7964],[138.1726,51.3339,794.2543],[138.2276,51.3355,355.2376],[138.2522,51.3304,239.5366],[138.2699,51.2951,276.119],[138.4235,51.2508,115.348],[138.4938,51.2354,306.3978],[138.5991,51.2784,123.7119],[138.7044,51.3401,354.0281],[138.7737,51.3611,280.1706],[138.8848,51.4106,252.1978],[138.9459,51.4173,133.5367],[139.1048,51.277,89.3993],[139.099,51.229,124.3756],[139.1759,51.1735,378.5135],[139.2453,51.1583,347.9468],[139.2997,51.1216,623.7959],[139.3334,51.0963,1184.3564],[139.2763,51.0687,807.1838],[139.2782,51.0396,875.1975],[139.3458,51.0588,1025.5076],[139.4231,51.0328,707.1106],[139.5037,50.9924,562.0585],[139.5638,50.9591,703.1426],[139.6063,50.9522,496.6593],[139.6685,50.9811,656.3621],[139.7281,50.9295,583.244],[139.7678,50.9346,670.1313],[139.8341,50.9715,592.7841],[139.893,51.0243,940.7383],[139.9631,50.9936,558.6722],[139.9565,50.9571,770.5488],[139.9901,50.9288,777.3702],[140.0776,50.9075,576.58],[140.1203,50.8681,446.1287],[140.168,50.8366,882.8418],[140.2172,50.8345,962.2128],[140.2918,50.8355,638.5007],[140.3216,50.8152,333.4489],[140.3911,50.8299,218.4234],[140.4649,50.8795,162.3861],[140.4993,50.9101,235.5358],[140.5258,50.9536,412.3962],[140.5821,50.972,246.1946],[140.6335,50.9978,0.0],[140.6389,51.0083,0.0],[140.6428,51.0209,1.5118],[140.6381,51.0215,17.3465],[140.6307,51.0254,48.7195],[140.6209,51.0254,30.1488],[140.6133,51.0281,8.2238],[140.63,51.0278,12.7784],[140.6467,51.0225,4.4124],[140.6787,51.0337,0.0],[140.6778,51.0438,0.0],[140.6819,51.0566,99.9425],[140.6786,51.0612,30.2597],[140.6761,51.0778,5.2922],[140.6733,51.0811,67.3384],[140.6722,51.0881,97.8916],[140.6669,51.0999,0.0],[140.6575,51.1052,32.0143],[140.6522,51.1103,11.6132],[140.6522,51.1131,0.0],[140.6472,51.1153,86.3587],[140.6467,51.1183,33.3725],[140.6367,51.1167,34.5633],[140.629,51.1177,6.455],[140.643,51.1198,0.0],[140.6488,51.124,21.8125],[140.6535,51.1364,20.6315],[140.6576,51.1392,0.0],[140.6562,51.1414,0.0],[140.6626,51.1486,0.0],[140.6641,51.1578,50.5511],[140.6606,51.1667,10.5555],[140.6678,51.1722,0.0],[140.6656,51.18,1.9425],[140.6573,51.1943,0.0],[140.6587,51.2018,58.7629],[140.6549,51.2086,23.2297],[140.655,51.2111,16.5883],[140.6588,51.2204,42.6847],[140.6469,51.2266,14.431],[140.6382,51.2286,40.2235],[140.6313,51.2282,33.9672],[140.6249,51.231,0.0],[140.6174,51.2273,6.4263],[140.6095,51.2305,0.0],[140.6073,51.2332,4.337],[140.5978,51.2331,14.6383],[140.595,51.2353,6.0997],[140.5972,51.2364,0.0],[140.6117,51.2351,0.0],[140.615,51.2365,1.9552],[140.6188,51.2348,0.0],[140.6243,51.2357,8.6461],[140.6277,51.232,0.0],[140.63,51.2317,0.7164],[140.6328,51.2358,11.3535],[140.644,51.2389,12.7325],[140.6483,51.2372,8.5909],[140.6656,51.2471,22.7679],[140.6879,51.2514,5.361],[140.7,51.2492,17.3412],[140.7033,51.25,4.4291],[140.7033,51.2522,0.0],[140.6978,51.2558,0.0],[140.6963,51.2623,19.0467],[140.6928,51.2653,23.3592],[140.6933,51.2678,20.6843],[140.6913,51.2688,0.0],[140.69,51.2724,7.9007],[140.6717,51.2883,54.7049],[140.676,51.2963,5.379],[140.6744,51.2989,22.9112],[140.677,51.3041,0.0],[140.6745,51.3091,46.2041],[140.6756,51.3128,6.7046],[140.6683,51.3197,14.0462],[140.6713,51.3269,14.4108],[140.68,51.3305,3.2613],[140.69,51.3303,0.0],[140.7205,51.3394,24.199],[140.7575,51.3451,0.0],[140.7644,51.3437,0.0],[140.7662,51.3406,12.766],[140.7787,51.3339,21.7651],[140.7861,51.3375,77.3118],[140.8033,51.3404,0.0],[140.8185,51.3476,30.2383],[140.8222,51.3542,157.6007],[140.8282,51.3571,45.982],[140.8328,51.3647,24.9251],[140.8499,51.3699,5.4195],[140.86,51.3708,0.0],[140.8541,51.3753,0.0],[140.8576,51.3831,119.6908],[140.8615,51.3863,31.5493],[140.8646,51.3921,0.0],[140.8579,51.4,58.0896],[140.8588,51.4052,73.3603],[140.8551,51.4092,0.0],[140.8545,51.4123,0.0],[140.8569,51.4167,9.7142],[140.8645,51.4215,0.0],[140.8591,51.4224,0.0],[140.8448,51.4195,3.7125],[140.834,51.4212,0.0],[140.832,51.4181,19.5222],[140.8295,51.4175,0.709],[140.8219,51.42,52.7624],[140.8194,51.4233,0.0],[140.815,51.4256,0.0],[140.8107,51.4263,25.8721],[140.7978,51.4217,5.2765],[140.7983,51.4172,5.1489],[140.7961,51.4158,7.0232],[140.7933,51.4169,8.7048],[140.7939,51.42,0.0],[140.7889,51.4219,12.5025],[140.7839,51.4272,0.0],[140.785,51.4317,0.0],[140.7828,51.4342,0.0],[140.7831,51.4398,0.0],[140.7878,51.445,0.7669],[140.785,51.4478,0.0],[140.7842,51.4518,2.1872],[140.7854,51.4545,1.5049],[140.7729,51.4537,33.8227],[140.7578,51.4594,13.8154],[140.7521,51.4638,0.0974],[140.7495,51.4617,57.462],[140.7379,51.462,32.7446],[140.7282,51.4656,0.7974],[140.7345,51.4696,0.398],[140.7392,51.4699,0.0],[140.7569,51.4672,7.8001],[140.7685,51.4685,0.0],[140.7849,51.4648,0.0],[140.7822,51.4675,0.0],[140.7828,51.4692,2.744],[140.7861,51.4706,10.4271],[140.7911,51.4758,17.6831],[140.7961,51.4769,0.0],[140.7928,51.4834,0.0],[140.8044,51.4894,8.9449],[140.8078,51.4875,10.7895],[140.8106,51.4886,0.0],[140.8237,51.501,12.0704],[140.8264,51.4994,0.0],[140.8266,51.491,0.0],[140.8223,51.4861,0.0],[140.8281,51.484,12.8988],[140.8352,51.4897,5.6157],[140.8394,51.491,17.0411],[140.8455,51.4908,29.7849],[140.8588,51.4853,0.0],[140.8658,51.4881,29.8066],[140.8757,51.4888,49.3557],[140.8838,51.4929,27.2598],[140.8878,51.4969,9.3716],[140.886,51.5018,109.6113],[140.8868,51.5128,7.4266],[140.8953,51.5182,0.0],[140.8995,51.5244,0.0],[140.8895,51.5374,3.4624],[140.8886,51.5423,0.0],[140.8906,51.5506,17.9301],[140.887,51.5526,7.027],[140.8858,51.556399999999996,45.8564],[140.8895,51.5628,0.0],[140.885,51.5656,0.0],[140.8806,51.5722,40.2467],[140.8794,51.5816,48.5333],[140.874,51.5896,26.7862],[140.8734,51.5936,27.1169],[140.875,51.597,0.0],[140.8793,51.6003,9.8963],[140.8806,51.607,7.0395],[140.8723,51.6139,0.0],[140.8772,51.6206,0.0],[140.8755,51.625,7.1652],[140.877,51.6279,0.0],[140.881,51.6294,6.1652],[140.8967,51.6271,23.5262],[140.907,51.6298,24.2807],[140.926,51.6411,94.8424],[140.9426,51.6465,0.0],[140.949,51.6503,0.0],[140.9554,51.6568,0.0],[140.957,51.6615,0.0],[140.9639,51.6658,55.1506],[140.9737,51.6694,9.9206],[141.0011,51.6747,6.9855],[141.0094,51.6794,30.4658],[141.0308,51.6836,0.0],[141.0444,51.6825,0.0],[141.0572,51.6842,17.8321],[141.0606,51.6861,56.6796],[141.0771,51.6858,37.1997],[141.0832,51.6842,6.2847],[141.0878,51.6853,0.0],[141.0906,51.6833,0.0],[141.0994,51.6842,115.331],[141.1064,51.681399999999996,0.0],[141.1073,51.6872,0.0],[141.1172,51.6906,0.0],[141.1168,51.6991,71.6595],[141.1206,51.7028,0.0],[141.1178,51.7042,0.0],[141.1111,51.7039,5.5856],[141.1039,51.7092,20.7927],[141.1017,51.7125,26.2678],[141.1029,51.7192,6.5147],[141.1098,51.7255,11.7231],[141.1234,51.7307,20.8244],[141.1281,51.7348,7.1877],[141.1301,51.7388,24.1707],[141.14,51.7447,0.0],[141.1367,51.7492,65.6895],[141.1435,51.7559,21.2465],[141.1494,51.7583,12.4252],[141.1517,51.7614,8.3883],[141.1506,51.7641,13.3813],[141.1611,51.7714,0.0],[141.1583,51.7739,22.5043],[141.16,51.7764,49.3806],[141.1789,51.7831,0.0],[141.1807,51.7867,15.9035],[141.1716,51.792,20.5662],[141.1656,51.7933,4.3451],[141.1622,51.7961,24.739],[141.1611,51.7997,9.903],[141.1633,51.8025,3.7008],[141.1601,51.8058,69.2169],[141.1628,51.8097,0.0],[141.1617,51.8144,25.8668],[141.1711,51.8225,15.0775],[141.1689,51.8269,0.0],[141.17,51.8286,0.0],[141.1452,51.8493,128.728],[141.0721,51.8993,142.4323],[141.0074,51.9055,373.3609],[140.9589,51.9155,367.1864],[140.9644,51.9573,286.5806],[140.9565,52.0204,102.3245],[141.0007,52.0705,376.2342],[141.0239,52.1129,199.651],[140.9585,52.1754,297.0559],[140.9797,52.188,305.143],[140.9809,52.2107,160.4825],[140.9469,52.2359,242.608],[140.98,52.2618,137.3859],[140.9851,52.297,181.2925],[140.8591,52.3552,357.7586],[140.7432,52.3945,390.2429],[140.6474,52.4209,405.4268],[140.6064,52.4552,335.045],[140.6515,52.5008,177.8447],[140.7394,52.5209,260.6494],[140.8147,52.5425,230.4002],[140.7983,52.5671,378.1772],[140.6732,52.6239,522.6057],[140.5969,52.6414,364.3312],[140.6335,52.6935,227.5042],[140.6678,52.7215,451.7763],[140.7293,52.7229,513.6807],[140.8095,52.6935,314.8834],[140.8884,52.6851,336.8045],[140.9453,52.7653,212.0033],[140.9769,52.8233,278.0204],[140.9053,52.8649,170.8434],[140.9048,52.9129,109.778],[140.8261,52.9374,153.2519],[140.7279,52.908,385.5535],[140.7307,52.9654,105.5717],[140.6517,52.9813,287.7639],[140.524,52.9946,420.1633],[140.4677,52.9825,460.357],[140.411,52.9035,108.7882],[140.3499,52.906,198.9086],[140.1746,52.9791,170.0356],[140.0325,53.0241,95.2623],[140.1056,53.0935,176.0549],[140.1358,53.146,2.8613],[140.102,53.1679,2.5046],[140.0254,53.2309,3.1344],[140.0637,53.26,1.7509],[140.0496,53.2967,1.9013],[139.9971,53.3043,160.8175],[139.9456,53.2703,2.7523],[139.9597,53.2471,2.2982],[139.9388,53.2371,2.2622],[139.8436,53.2377,2.6364],[139.797,53.2256,3.1304],[139.7598,53.192,3.2009],[139.6791,53.162,3.8335],[139.6221,53.2285,5.0017],[139.5488,53.2701,179.8338],[139.5886,53.2846,80.4345],[139.5978,53.353,37.2588],[139.537,53.3774,166.1679],[139.56,53.4503,60.0614],[139.5573,53.4856,108.0726],[139.4564,53.4986,221.8798],[139.398,53.5329,285.6805],[139.2933,53.5358,202.2],[139.254,53.5607,222.1385],[139.2155,53.5503,319.7338],[139.1489,53.5028,427.9753],[139.0743,53.4606,281.7983],[139.0263,53.4442,196.2973],[138.9943,53.461,284.855],[138.9592,53.4945,346.3876],[138.9168,53.523,195.9956],[138.8473,53.5306,175.8613],[138.7916,53.5393,221.9161],[138.7233,53.5552,431.1618],[138.6862,53.537,266.9273],[138.5942,53.5438,222.8666],[138.6581,53.5032,118.2993],[138.6365,53.3674,225.0779],[138.567,53.3537,349.0224],[138.5188,53.3074,388.5462],[138.5493,53.281,325.7744],[138.5417,53.2097,371.658],[138.5465,53.1513,438.2565],[138.6085,53.1094,104.9994],[138.703,53.0991,314.6547],[138.7561,53.095,154.8981],[138.8324,53.064,78.3468],[138.888,53.0212,80.9768],[139.0466,52.9368,4.8173],[139.1235,52.9342,122.9803],[139.2355,52.9643,4.6739],[139.3511,52.9476,1.0],[139.4499,52.9298,3.2807],[139.5844,52.9291,1.7661],[139.5901,52.9002,2.0773],[139.6383,52.8912,4.1535],[139.6505,52.8564,1.4436],[139.7324,52.872,3.0913],[139.768,52.8625,2.9569],[139.7514,52.8189,3.4284],[139.7905,52.7946,4.3365],[139.9091,52.7746,4.1145],[139.9731,52.746,4.1892],[140.0361,52.6786,25.1618],[140.0203,52.611,235.5289],[139.9721,52.5553,190.9216],[139.8337,52.4555,701.887],[139.7686,52.4525,351.6813],[139.7195,52.4698,315.2626],[139.6897,52.5006,529.3138],[139.6442,52.542,359.2967],[139.4946,52.5182,108.3798],[139.4133,52.5316,71.84],[139.3774,52.5569,100.6839],[139.2664,52.5665,289.0816],[139.1938,52.5708,216.4541],[139.1417,52.5703,178.6829],[139.0832,52.5546,364.4706],[139.036,52.5256,372.8202],[139.0072,52.5103,311.3509],[138.9463,52.5,545.885],[138.7841,52.5369,374.073],[138.7363,52.5357,677.1575],[138.7149,52.5197,666.7383],[138.7082,52.4891,745.7461],[138.6642,52.441,268.4351],[138.5363,52.377,153.8344],[138.3256,52.3326,216.9259],[138.2491,52.3092,290.0929],[138.0596,52.1883,623.4698],[137.9773,52.1702,388.6461],[137.9031,52.1633,287.4962],[137.7863,52.1856,445.0343]]]]}}