{"type":"Feature","properties":{"GID_2":"RUS.16.10_1","GID_0":"RUS","country":"Russia","GID_1":"RUS.16_1","province":"Gorno-Altay","NL_NAME_1":"РеспубликаАлтай","county":"Ust'-Kanskiyrayon","VARNAME_2":"NA","NL_NAME_2":"Усть-Канскийрайон","TYPE_2":"Raion","ENGTYPE_2":"District","CC_2":"R53010","HASC_2":"RU.GA.US","name":"Ust'-Kanskiyrayon.county"},
"geometry":{"type": "MultiPolygon","coordinates": [[[[84.2349,50.3082,2057.4204],[84.2354,50.3025,2069.3462],[84.2413,50.2917,2164.9077],[84.2626,50.2697,2249.4297],[84.3241,50.2245,2220.4919],[84.3364,50.2198,2332.1848],[84.3748,50.2188,1932.0176],[84.4102,50.222,1850.3524],[84.4183,50.2246,2031.5109],[84.423,50.2276,2123.437],[84.3886,50.2897,1574.6453],[84.3759,50.3226,1996.0203],[84.3746,50.3487,1530.0219],[84.3984,50.3749,1536.1643],[84.41,50.4133,1561.4121],[84.4153,50.4414,1544.3784],[84.4436,50.4785,1659.4006],[84.4939,50.5124,1161.8733],[84.5329,50.5108,1299.9559],[84.6943,50.4898,1555.7737],[84.755,50.5082,1418.2654],[84.8558,50.5146,1500.8254],[84.844,50.5381,1408.9723],[84.8244,50.5428,1333.2001],[84.7457,50.5753,1912.5928],[84.7626,50.5928,1720.6378],[84.8363,50.6046,1364.0085],[84.8487,50.6458,1512.1675],[84.8537,50.6869,1841.4756],[84.8704,50.7053,1656.0793],[84.9545,50.694,1320.3054],[84.9841,50.659,1480.9824],[85.0285,50.6354,1229.257],[85.1087,50.63,1543.4147],[85.181,50.6422,1712.4294],[85.2388,50.6851,1573.4088],[85.2934,50.7013,1624.7424],[85.356,50.7279,1478.5087],[85.3597,50.7499,1394.8682],[85.3965,50.7822,1330.8173],[85.3785,50.8031,1212.2676],[85.3363,50.8169,1410.7976],[85.2719,50.8425,1372.642],[85.2582,50.8631,1428.0359],[85.2493,50.8946,1635.0488],[85.2189,50.924,1289.3362],[85.2266,50.9588,1518.0292],[85.2586,50.9764,1577.5073],[85.2687,51.005,1799.0073],[85.2533,51.0299,1367.7234],[85.1374,51.1728,1555.0922],[85.1508,51.1887,1674.7504],[85.109,51.2427,1340.0426],[85.0695,51.2437,1209.1896],[85.0418,51.2341,1465.2885],[84.9934,51.289,1507.5955],[85.0209,51.307,1353.1332],[84.9686,51.3641,1330.1638],[84.8999,51.3627,1142.7261],[84.91,51.4213,1105.1681],[84.984,51.4515,1040.8643],[84.9561,51.4765,1300.9009],[84.8969,51.4391,1179.3669],[84.8276,51.4311,1286.0205],[84.7371,51.4311,1165.6724],[84.675299999999993,51.3894,850.6604],[84.5811,51.3503,1291.3376],[84.4986,51.3232,1175.1849],[84.4468,51.2912,1388.8442],[84.3836,51.28,1441.308],[84.2777,51.2707,1919.8589],[84.1939,51.2694,1731.0839],[84.1748,51.2393,1802.4783],[84.1615,51.1837,1776.3499],[84.1396,51.1127,1432.5144],[84.0912,51.1468,1232.0847],[84.0204,51.1256,880.6204],[83.9754,51.1149,976.0182],[83.9918,51.0535,1033.1216],[84.0402,51.0412,738.381],[84.1038,51.0613,819.6991],[84.1647,51.0442,914.749],[84.1968,51.0021,1307.0132],[84.2359,50.994,1754.8331],[84.292,50.9959,1144.5994],[84.3625,50.9764,1678.6423],[84.4991,50.9668,1259.9445],[84.5012,50.9202,2220.1992],[84.4732,50.886,2167.9814],[84.5217,50.8725,1681.2249],[84.5923,50.8558,1691.1771],[84.6041,50.8369,1932.5376],[84.5816,50.8186,2245.1731],[84.4988,50.7837,1879.756],[84.5099,50.7365,2050.3772],[84.4374,50.7059,1666.2512],[84.3874,50.72,1596.8816],[84.3241,50.6888,1673.7253],[84.2326,50.673,1862.5815],[84.0506,50.6478,1614.6396],[84.0593,50.6416,1715.3777],[84.0615,50.6423,1750.5552],[84.0659,50.6349,1860.8865],[84.0739,50.6349,1900.3955],[84.1208,50.6071,2030.3269],[84.1723,50.5606,1959.0741],[84.1907,50.5477,1775.6416],[84.2041,50.5421,1847.7389],[84.2189,50.5323,1604.9161],[84.2332,50.5154,1545.9351],[84.2389,50.5014,1585.1786],[84.2362,50.496,1666.7909],[84.2193,50.4825,1522.6943],[84.2113,50.4714,1760.1677],[84.2096,50.453,1990.1632],[84.217,50.4343,2034.1953],[84.2479,50.3853,1701.2849],[84.2571,50.3583,1820.0989],[84.2559,50.3437,2069.5479],[84.2345,50.3142,2068.8657],[84.2349,50.3082,2057.4204]]]]}}