{"type":"Feature","properties":{"GID_3":"RUS.30.19.1_1","GID_0":"RUS","country":"Russia","GID_1":"RUS.30_1","province":"Khanty-Mansiy","NL_NAME_1":"Ханты-МансийскийАОк","GID_2":"RUS.30.19_1","county":"Sovetskiyrayon","NL_NAME_2":"Советскийрайон","city":"NA","VARNAME_3":"NA","NL_NAME_3":"NA","TYPE_3":"NA","ENGTYPE_3":"NA","CC_3":"NA","HASC_3":"NA","name":"N_A.city"},
"geometry":{"type": "MultiPolygon","coordinates": [[[[60.7944,61.7224,125.373],[60.898,61.7079,125.2897],[61.0799,61.7025,130.8407],[61.178,61.6847,142.8738],[61.2885,61.6578,169.2453],[61.4655,61.5822,139.6969],[61.668,61.5271,145.843],[61.8838,61.4546,127.5053],[62.0538,61.4154,132.8738],[62.4374,61.2819,142.322],[62.5951,61.2433,125.5088],[62.7187,61.2032,105.939],[62.7808,61.1622,112.9786],[62.8417,61.1081,109.1165],[62.8955,61.0732,101.3536],[62.9159,61.0158,81.2851],[62.8685,60.9219,88.8624],[62.8343,60.8865,93.539],[62.8739,60.8349,91.9767],[62.8863,60.7837,94.4198],[62.94,60.7067,96.9092],[63.0307,60.6069,93.5775],[63.1398,60.5127,83.8578],[63.3385,60.4998,78.5836],[63.6247,60.5571,59.7264],[63.9553,60.6319,53.0191],[64.452,60.753,73.2502],[64.9609,60.9052,70.4049],[64.9709,60.9383,70.3222],[65.0158,60.9697,74.0436],[65.0671,60.9924,73.6095],[65.1771,61.0082,75.6439],[65.3277,61.0539,74.0],[65.798,61.2265,80.7096],[65.9055,61.2855,92.4492],[65.9473,61.3205,92.0],[65.9551,61.36,100.6065],[65.9881,61.4393,78.9143],[65.9856,61.4947,84.4175],[65.9545,61.5279,96.8008],[65.914,61.567,134.5466],[65.9343,61.5869,116.6819],[65.998,61.639,67.3821],[65.982,61.6835,104.0269],[65.9152,61.7219,142.5375],[65.8223,61.7597,140.1463],[65.6925,61.7815,135.5242],[65.5771,61.7696,138.3868],[65.4355,61.7464,133.2436],[65.3365,61.7376,125.0878],[65.3063,61.7222,126.4293],[65.2915,61.689,102.4205],[65.2468,61.6655,104.0049],[65.1807,61.6664,139.9373],[65.0991,61.6851,113.1702],[64.9759,61.726,124.9232],[64.8833,61.7762,101.4509],[64.8185,61.8308,132.027],[64.679,61.9135,141.9628],[64.653,61.9462,146.2477],[64.6502,61.9749,136.2339],[64.7927,62.0198,109.1049],[64.7932,62.0513,134.254],[64.7263,62.0857,133.0213],[64.6597,62.1055,118.2448],[64.5919,62.1543,134.8953],[64.5866,62.2043,172.5086],[64.6173,62.2283,155.2979],[64.685,62.2203,149.5886],[64.7766,62.2292,148.5808],[64.7877,62.2489,148.9719],[64.7975,62.2945,145.1015],[64.6797,62.35,123.5952],[64.6138,62.3669,96.0812],[64.4116,62.3787,72.2363],[64.3189,62.3789,46.0563],[64.2485,62.3693,34.8753],[64.1653,62.3362,65.1104],[64.0505,62.2975,43.5576],[63.8979,62.2631,92.7103],[63.6491,62.2197,102.6686],[63.5929,62.1893,118.5941],[63.5371,62.1673,133.6868],[63.4842,62.1399,113.3294],[63.3233,62.1617,140.7514],[63.1127,62.1587,162.1658],[62.7511,62.1658,222.1035],[62.5787,62.1732,211.6646],[62.4784,62.1818,157.434],[62.3838,62.1696,99.6052],[62.3557,62.1614,94.287],[62.3053,62.1124,73.6082],[62.2687,62.0985,74.383],[62.1948,62.105,98.2731],[62.086,62.1561,84.6655],[62.0088,62.168,71.5557],[61.9365,62.1631,59.6179],[61.8216,62.1336,56.8195],[61.5285,62.0325,47.7321],[61.4617,62.0006,41.5385],[61.4087,61.9478,38.5199],[61.3862,61.9063,38.3374],[61.3351,61.8702,38.7287],[61.2474,61.8762,42.616],[61.1375,61.8505,59.1975],[61.0198,61.8091,98.6988],[60.8986,61.7785,118.8305],[60.8347,61.7566,133.0169],[60.7944,61.7224,125.373]]]]}}