{"type":"Feature","properties":{"featurecla":"River","scalerank":2,"rivernum":32,"dissolve":"32River","name":"Angara3","name_alt":null,"note":null,"min_zoom":2.1,"strokeweig":0.2,"name_en":"Angara","min_label":3.1},
"geometry":{"type": "LineString","coordinates": [[102.489013671875,58.829217840619123,186.7187],[102.47265625,58.83441803593162,186.657],[102.42080078125002,58.83539459843162,191.9519],[102.31103515625,58.85126373905662,188.2823],[102.2109375,58.88764069218162,184.0923],[102.18222656250003,58.89337799686912,186.3197],[102.154296875,58.90790436405662,199.3184],[101.9951171875,58.939569403119123,177.5],[101.96572265625002,58.95355866093162,201.9867],[101.94775390625,58.97321198124412,283.485]]}}