{"type":"Feature","properties":{"featurecla":"Lake Centerline","scalerank":4,"rivernum":145,"dissolve":"145Lake Centerline","name":"Verkhniy","name_alt":null,"note":null,"min_zoom":4.0,"strokeweig":0.3,"name_en":"Verkhniy Yenisey","min_label":5.0},
"geometry":{"type": "LineString","coordinates": [[91.510937500000011,53.73541901249412,247.9969],[91.49365234375,53.754657293744117,240.3041],[91.4833984375,53.76801178593162,238.5334],[91.46875,53.778094793744117,242.6268],[91.44287109375,53.79926178593162,239.1966],[91.433691406250034,53.82367584843162,240.3701],[91.435546875,53.86176178593162,237.5],[91.44140625,53.890497137494116,237.5],[91.448437500000011,53.91510651249412,237.0],[91.459228515625,53.93207428593162,237.0],[91.49072265625,53.94086334843162,237.0],[91.512597656250023,53.95807526249412,237.0],[91.527587890625,53.97943756718162,237.0],[91.546630859375,54.004266668744116,237.0],[91.558837890625,54.02912018436912,235.5],[91.560156250000034,54.06293366093162,234.0],[91.547753906250023,54.09528229374412,232.5],[91.525634765625,54.131854559369117,232.0],[91.49267578125,54.17255280155662,232.0],[91.435546875,54.22589752811912,232.0],[91.405859375000034,54.26752350468162,232.0],[91.380468750000034,54.310565496869117,232.0],[91.33935546875,54.347040106244116,232.0],[91.294042968750034,54.38226959843162,232.0],[91.27294921875,54.42548248905662,232.0],[91.273828125000023,54.47418854374412,232.0],[91.26025390625,54.51141998905662,232.0],[91.231542968750034,54.52936432499412,232.0],[91.194238281250023,54.54682037968162,232.0],[91.159765625000034,54.55878327030662,232.0],[91.123046875,54.57599518436912,232.0],[90.959375,54.639667059369117,232.0],[90.934277343750011,54.66657135624412,232.0],[90.935449218750023,54.700311590619116,232.0],[90.946533203125,54.76288483280662,232.0],[90.948632812500023,54.80560944218162,232.0],[90.946533203125,54.85663483280662,232.0],[90.951416015625,54.886981512494117,232.0],[90.96484375,54.90631744999412,232.0],[90.983007812500034,54.936639715619116,232.0],[90.999902343750023,54.961444403119117,232.0],[91.013916015625,54.979608465619116,232.0],[91.034765625000034,55.00189850468162,232.0],[91.0634765625,55.022821356244116,232.0],[91.09912109375,55.042352606244116,232.0],[91.165917968750023,55.058465887494116,232.0],[91.347265625000034,55.064471746869117,232.0],[91.415722656250011,55.07831452030662,232.0],[91.53369140625,55.10700104374412,232.0],[91.74951171875,55.13666412968162,232.0],[91.818115234375,55.14911530155662,232.0],[91.858789062500023,55.15802643436912,232.0],[91.895410156250023,55.171161199994117,232.0],[92.012939453125,55.19135162968162,232.0],[92.106835937500023,55.220819403119116,232.0],[92.142968750000023,55.238055731244117,232.0],[92.20654296875,55.28192780155662,232.0],[92.235595703125,55.30719635624412,232.0],[92.318359375,55.38812897343162,232.0],[92.345703125,55.42072174686912,232.0],[92.408398437500011,55.50311920780662,232.0]]}}