{"type":"Feature","properties":{"featurecla":"River","scalerank":8,"rivernum":743,"dissolve":"743River","name":"Taymura2","name_alt":null,"note":null,"min_zoom":7.0,"strokeweig":0.25,"name_en":"Taymura","min_label":8.0},
"geometry":{"type": "LineString","coordinates": [[101.67343750000003,62.396600653119123,246.7332],[101.6669921875,62.407489324994117,248.0838],[101.66591796875002,62.41632721561912,259.1534],[101.659912109375,62.423846746869117,275.0327],[101.63925781250003,62.43073151249412,294.7133],[101.59912109375,62.43854401249412,271.1609],[101.58339843750002,62.44428131718162,258.8229],[101.5673828125,62.45490143436912,246.9334],[101.55029296875,62.46210358280662,237.9851],[101.509033203125,62.47150299686912,236.0428],[101.50283203125002,62.479120184369123,225.0],[101.514404296875,62.48871491093162,247.9958],[101.57724609375003,62.49896881718162,332.0011],[101.55800781250002,62.50873444218162,315.7217],[101.53857421875,62.50873444218162,315.804],[101.51845703125002,62.506219793744123,286.4984],[101.31728515625002,62.52850983280662,264.0366],[101.296630859375,62.52692291874412,263.038],[101.25869140625002,62.512567449994123,264.0578],[101.2373046875,62.510370184369123,238.2911],[101.227783203125,62.52350494999412,238.4848],[101.22109375000002,62.53058502811912,245.1912],[101.20712890625003,62.538202215619123,236.7552],[101.196044921875,62.54706452030662,233.7909],[101.19765625000002,62.55792877811912,232.3872],[101.20253906250002,62.56928131718162,231.6359],[101.20253906250002,62.58380768436912,218.0],[101.19921875,62.59821198124412,234.3791],[101.19423828125002,62.60883209843162,230.8296],[101.176513671875,62.62628815311912,235.8869],[101.15595703125001,62.64081452030662,274.5857],[101.13916015625,62.65827057499412,231.8699],[101.13222656250002,62.684588934369117,227.1398],[101.13613281250002,62.69684479374412,228.8826],[101.14306640625,62.706659246869123,246.7968],[101.14541015625002,62.71662018436912,240.4544],[101.13593750000001,62.729266668744117,284.9918],[101.1181640625,62.73505280155662,251.2005],[101.09873046875003,62.72980377811912,241.9372],[101.06396484375,62.71246979374412,229.0938],[101.043701171875,62.71124909061912,231.9597],[100.99404296875002,62.714471746869123,229.4545],[100.97792968750002,62.70880768436912,225.2905],[100.960205078125,62.69696686405662,226.1962],[100.92343750000003,62.69220612186912,261.7197],[100.90576171875,62.68524811405662,333.0545],[100.887451171875,62.660760809369123,230.0113],[100.87451171875,62.62848541874412,218.8811],[100.85830078125002,62.60040924686912,224.7729],[100.83056640625,62.588397528119117,244.1407],[100.7392578125,62.58319733280662,396.5194],[100.6962890625,62.58661530155662,329.3551],[100.65927734375003,62.60260651249412,452.6943],[100.63369140625002,62.620624090619117,430.0945],[100.60429687499999,62.63568756718162,295.2342],[100.57177734375,62.64179108280662,381.6526],[100.499267578125,62.62714264530662,354.7922],[100.298583984375,62.65704987186912,302.2793],[100.2666015625,62.66681549686912,268.7191],[100.23476562500002,62.68524811405662,233.0669],[100.196533203125,62.715594793744117,217.9988],[100.1904296875,62.72601959843162,214.4559],[100.19394531250003,62.73529694218162,214.2392],[100.21425781250002,62.75348541874412,222.6256],[100.197998046875,62.77338287968162,215.8403],[100.171875,62.79364655155662,244.6546],[100.14267578125003,62.81073639530662,246.2492],[100.117431640625,62.82111237186912,271.7587],[100.075439453125,62.82562897343162,253.9974],[100.05722656250003,62.83222077030662,184.5102],[100.05996093750002,62.84564850468162,278.3188],[100.066162109375,62.859393621869117,300.8622],[100.056396484375,62.86774323124412,318.6619],[99.985742187500023,62.885370184369123,413.8756],[99.9560546875,62.89704010624412,317.4541],[99.89892578125,62.93097565311912,319.5803],[99.873046875,62.94135162968162,190.2158],[99.863476562500011,62.95026276249412,244.4516],[99.86474609375,62.96576569218162,311.0487],[99.877539062500034,62.97504303593162,272.1291],[99.9404296875,62.985614324994117,229.9798],[99.929882812500011,62.995135809369117,240.8003],[99.9228515625,63.00031159061912,197.6999],[99.91943359375,62.999872137494123,200.6491],[99.924218750000023,63.021502996869117,201.974],[99.92626953125,63.02033112186912,225.2901],[99.926660156250023,63.02899811405662,259.0197],[99.9296875,63.034198309369117,302.9347],[99.930908203125,63.03949616093162,268.2273],[99.92626953125,63.04828522343162,252.5949],[99.918847656250023,63.05194733280662,216.6469],[99.896240234375,63.054315496869123,262.6516],[99.888671875,63.05792877811912,264.8725],[99.893164062500034,63.082391668744123,269.6004],[99.918066406250034,63.108026434369123,259.2139],[99.92724609375,63.12824127811912,267.9776],[99.884667968750023,63.13641998905662,229.9281],[99.84130859375,63.13678619999412,167.0646],[99.82275390625,63.14276764530662,167.3368],[99.8095703125,63.15753815311912,237.6921],[99.811279296875,63.15900299686912,226.9307],[99.81396484375,63.16510651249412,196.1889],[99.81640625,63.172381903119117,172.5396],[99.816992187500034,63.17743561405662,169.8155],[99.81396484375,63.18378327030662,161.4358],[99.80517578125,63.19599030155662,288.022],[99.803320312500034,63.20221588749412,253.0644],[99.784765625000034,63.21491119999412,181.3635],[99.67236328125,63.25995514530662,194.2624],[99.645751953125,63.27606842655662,165.5479],[99.621679687500034,63.29669830936912,252.9232],[99.5947265625,63.314471746869117,192.8204],[99.545800781250023,63.326288153119123,164.8703],[99.5166015625,63.34503815311912,224.5978],[99.498242187500011,63.34931061405662,229.3879],[99.475830078125,63.35138580936912,199.2252],[99.336523437500034,63.397088934369123,361.927],[99.259765625,63.39935944218162,271.6722],[99.247802734375,63.40704987186912,261.7374],[99.0830078125,63.44550202030662,294.8374],[99.041796874999989,63.44550202030662,178.7711],[99.046875,63.472919012494117,370.9995],[99.022070312500034,63.48627350468162,236.2789],[98.987402343750034,63.493915106244117,209.5709],[98.963134765625,63.50385162968162,166.288],[98.949951171875,63.51459381718162,243.0646],[98.93603515625,63.51874420780662,261.0264],[98.921142578125,63.51801178593162,243.9688],[98.852929687500023,63.495135809369117,207.1527],[98.73388671875,63.49335358280662,143.2116],[98.725830078125,63.491083074994123,142.3263],[98.714111328125,63.48126862186912,156.012],[98.706347656249989,63.47907135624412,182.142],[98.696386718750034,63.480243231244117,210.0994],[98.679882812500011,63.485370184369117,220.5971],[98.58203125,63.494159246869117,257.1248],[98.537109375,63.50458405155662,142.3774],[98.528417968750034,63.520038153119117,138.1418],[98.511816406250034,63.528094793744117,168.172],[98.49267578125,63.53278229374412,157.0994],[98.472363281250011,63.534686590619117,147.9765],[98.452734375000034,63.534295965619123,153.4963],[98.460205078125,63.545526434369123,264.1472],[98.474707031250034,63.55231354374412,195.0558],[98.507910156250034,63.56159088749412,171.8386],[98.49375,63.57245514530662,128.6118],[98.489648437500023,63.582879949994123,163.4509],[98.49375,63.59357330936912,188.6186],[98.504199218749989,63.60565827030662,127.2001],[98.509179687500023,63.61566803593162,164.584],[98.497314453125,63.61603424686912,159.036],[98.4794921875,63.61322662968162,137.4259],[98.466064453125,63.61334869999412,145.3599],[98.398046875000034,63.64411041874412,287.5164],[98.3740234375,63.648553778119123,212.1768],[98.295654296875,63.64411041874412,166.9813],[98.309277343750011,63.664569403119117,121.1105],[98.29833984375,63.66559479374412,117.5646],[98.287841796875,63.668085028119123,110.9581],[98.277587890625,63.672137762494117,157.2119],[98.267675781250034,63.677606512494123,163.6158],[98.329833984375,63.70551178593162,126.4718],[98.314355468750023,63.71649811405662,128.8307],[98.278710937500023,63.72040436405662,125.4269],[98.260839843750034,63.72601959843162,145.9246],[98.260156250000023,63.72870514530662,136.6138],[98.25927734375,63.73944733280662,132.9429],[98.257421875000034,63.743426824994117,129.9859],[98.248144531250034,63.749627996869123,113.0453],[98.24169921875,63.749774481244117,141.222],[98.2353515625,63.74750397343162,185.5208],[98.088134765625,63.74835846561912,130.2836],[98.047949218750034,63.760760809369117,96.8926]]}}