{"type":"Feature","properties":{"featurecla":"River","scalerank":8,"rivernum":748,"dissolve":"748River","name":"Mana2","name_alt":null,"note":null,"min_zoom":7.0,"strokeweig":0.25,"name_en":"Mana","min_label":8.0},
"geometry":{"type": "LineString","coordinates": [[95.732324218750023,55.749530340619117,236.3412],[95.814355468750023,55.79608795780662,232.9195],[95.852148437500034,55.825799871869116,230.8652],[95.86328125,55.83246491093162,228.7071],[95.873242187500011,55.84137604374412,229.3655],[95.883056640625,55.85944244999412,336.8417],[95.890869140625,55.87897369999412,332.3654],[95.89306640625,55.89215729374412,319.1953],[95.887597656250023,55.90350983280662,271.9861],[95.87255859375,55.917743231244117,226.2711],[95.867919921875,55.92584869999412,228.2784],[95.87060546875,55.933221746869116,224.7212],[95.875244140625,55.94049713749412,227.0856],[95.876220703125,55.94818756718162,228.4632],[95.87158203125,55.95538971561912,228.8103],[95.85791015625,55.968133856244116,225.2506],[95.855224609375,55.972674871869117,224.4039],[95.851318359375,56.01496002811912,219.4216],[95.855224609375,56.03070709843162,217.7391],[95.865478515625,56.04401276249412,218.4134],[95.8916015625,56.06317780155662,214.346],[95.896679687500011,56.07514069218162,221.595],[95.891992187500023,56.089227606244116,213.5563],[95.88037109375,56.10578034061912,214.1291],[95.86669921875,56.11994049686912,211.2691],[95.855224609375,56.12689850468162,216.275],[95.863037109375,56.13092682499412,214.6564],[95.883056640625,56.14740631718162,234.1864],[95.873242187500011,56.15485260624412,212.6479],[95.8701171875,56.162616278119117,212.5127],[95.8681640625,56.17133209843162,219.1799],[95.862597656249989,56.181512762494116,245.3708],[95.834716796875,56.205438543744116,266.178],[95.828222656250034,56.212909246869117,270.3896],[95.813232421875,56.215936590619116,278.0518],[95.765380859375,56.21747467655662,219.1965],[95.7021484375,56.234637762494117,216.3334],[95.652734375000023,56.24188873905662,202.2163],[95.574609375000023,56.24298737186912,201.3848],[95.560937500000023,56.245135809369117,199.3016],[95.538671875000034,56.254754949994116,210.7523],[95.52685546875,56.25726959843162,212.2968],[95.513281250000034,56.25543854374412,200.8705],[95.505957031250034,56.25043366093162,196.477],[95.50048828125,56.24530670780662,198.0397],[95.492578125000023,56.24298737186912,199.2782],[95.486718750000023,56.244159246869117,198.1931],[95.4775390625,56.24896881718162,195.4412],[95.471435546875,56.24982330936912,197.5923],[95.3740234375,56.249872137494116,192.7516],[95.3486328125,56.24298737186912,193.4249],[95.339648437499989,56.23725006718162,197.3485],[95.332617187500034,56.23065827030662,192.3701],[95.324951171875,56.225116278119117,193.0487],[95.31396484375,56.22247955936912,192.5219],[95.309667968750034,56.22443268436912,192.2026],[95.305273437500034,56.23358795780662,189.6806],[95.300878906250034,56.23615143436912,193.3444],[95.2626953125,56.23615143436912,187.9969],[95.2509765625,56.23224518436912,197.709],[95.224023437500023,56.218280340619117,189.1911],[95.214648437499989,56.21942780155662,189.193],[95.200781250000034,56.22809479374412,190.576],[95.188378906250023,56.22821686405662,185.5466],[95.176171875000023,56.224725653119116,189.046],[95.1630859375,56.22247955936912,190.59],[95.117578125000023,56.229608465619116,220.5589],[95.1015625,56.22931549686912,231.7711],[95.107177734375,56.21710846561912,184.8684],[95.10986328125,56.212909246869117,185.9093],[95.115234375,56.208856512494116,184.0],[95.100683593750034,56.19562409061912,185.9966],[95.06298828125,56.21015045780662,204.173],[95.043847656250023,56.205438543744116,185.0094],[95.024121093750011,56.19721100468162,183.5459],[94.975,56.19464752811912,179.7705],[94.9208984375,56.168329168744116,174.1779],[94.835351562500023,56.15827057499412,299.2735],[94.8037109375,56.143670965619116,298.8444],[94.773339843750023,56.13422272343162,198.9923],[94.694921875000034,56.15692780155662,172.0034],[94.662841796875,56.16107819218162,333.3022],[94.63427734375,56.146991278119117,397.8314],[94.599218750000034,56.12409088749412,319.5178],[94.563085937500034,56.10761139530662,168.5294],[94.532470703125,56.11261627811912,182.3028],[94.542724609375,56.11725494999412,185.2273],[94.54345703125,56.12164948124412,190.1636],[94.514404296875,56.149286199994116,317.8337],[94.502050781250034,56.15753815311912,246.2515],[94.4921875,56.16107819218162,274.4362],[94.4169921875,56.15973541874412,241.9601],[94.409423828125,56.15582916874412,172.7389],[94.40478515625,56.149188543744117,270.5475],[94.391015625000023,56.13336823124412,245.6722],[94.38720703125,56.12750885624412,262.1797],[94.38134765625,56.122821356244117,192.1457],[94.368554687500023,56.11945221561912,272.8493],[94.355859375000023,56.11969635624412,159.3751],[94.325292968750034,56.12543366093162,319.529],[94.183007812500023,56.12689850468162,197.2554],[94.1640625,56.12421295780662,204.8722],[94.158105468750023,56.12763092655662,270.6323],[94.14892578125,56.13996002811912,326.5487],[94.132080078125,56.194598699994117,385.6462],[94.124267578125,56.207049871869117,314.931],[94.1142578125,56.217889715619116,389.2133],[94.104736328125,56.22247955936912,318.4364],[94.1,56.22772858280662,297.4612],[94.09716796875,56.23969147343162,347.4588],[94.09423828125,56.26349518436912,379.0276],[94.0875,56.28754303593162,366.6657],[94.078857421875,56.301874090619116,273.2084],[94.049902343750034,56.328973699994116,333.233],[94.033300781250034,56.340350653119117,183.6691],[94.027587890625,56.34638092655662,339.1262],[94.01904296875,56.400653387494117,316.2457],[94.012451171875,56.40473053593162,326.7635],[93.991455078125,56.410516668744116,316.7636],[93.984375,56.414325262494117,279.754],[93.981054687500034,56.42206452030662,229.4847],[93.97998046875,56.44122955936912,252.7306],[93.9775390625,56.44843170780662,257.3363],[93.95703125,56.463153387494117,239.5254],[93.932226562500034,56.466424871869116,166.6665],[93.878515625000034,56.46210358280662,127.4227],[93.873779296875,56.471551824994116,131.4821],[93.875585937500034,56.49042389530662,163.9734],[93.875390625000023,56.504754949994116,154.6695],[93.844482421875,56.49140045780662,127.788],[93.8251953125,56.49982330936912,140.201],[93.78564453125,56.539667059369116,138.397]]}}