{"type":"Feature","properties":{"featurecla":"River","scalerank":7,"rivernum":383,"dissolve":"383River","name":"Verkhnyaya","name_alt":null,"note":null,"min_zoom":6.0,"strokeweig":0.2,"name_en":"Verkhnyaya Taymyra","min_label":7.0},
"geometry":{"type": "LineString","coordinates": [[94.12158203125,73.814081121869123,48.176],[94.126220703125,73.803338934369123,79.3817],[94.124609375000034,73.79559967655662,149.6849],[94.12158203125,73.788202215619123,69.2455],[94.12158203125,73.778680731244123,62.2102],[94.1357421875,73.74884674686912,34.5848],[94.160058593750023,73.71857330936912,26.6942],[94.19091796875,73.69440338749412,24.4265],[94.224609375,73.683124090619117,21.4555],[94.20361328125,73.66901276249412,20.6847],[94.09375,73.640008856244123,19.4267],[94.063085937500034,73.637958074994117,17.9756],[94.032617187500023,73.641376043744117,31.5623],[93.998632812500034,73.648944403119117,20.2348]]}}