{"type":"Feature","properties":{"featurecla":"River","scalerank":8,"rivernum":743,"dissolve":"743River","name":"Taymura","name_alt":null,"note":null,"min_zoom":7.0,"strokeweig":0.15,"name_en":"Taymura","min_label":8.0},
"geometry":{"type": "LineString","coordinates": [[104.09228515625,62.46478912968162,458.5607],[103.900390625,62.46478912968162,384.407],[103.86972656250003,62.457538153119117,401.0874],[103.83359375000003,62.44122955936912,369.2212],[103.80322265625,62.41803619999412,364.1283],[103.79052734375,62.38971588749412,351.3958],[103.77744140625003,62.37103912968162,374.749],[103.742431640625,62.362323309369117,373.1411],[103.63330078125,62.365594793744123,348.5531]]}}