{"type":"Feature","properties":{"featurecla":"River","scalerank":6,"rivernum":317,"dissolve":"317River","name":"Olenëk","name_alt":null,"note":null,"min_zoom":5.0,"strokeweig":0.2,"name_en":"Olenëk","min_label":6.0},
"geometry":{"type": "LineString","coordinates": [[104.95693359375002,67.56830475468162,430.5503],[105.00644531250003,67.55084869999412,457.7305],[105.17539062500003,67.54096100468162,457.11],[105.27783203125,67.51373932499412,445.5548],[105.33925781250002,67.51373932499412,454.5902]]}}