{"type":"Feature","properties":{"featurecla":"River","scalerank":7,"rivernum":383,"dissolve":"383River","name":"Verkhnyaya1","name_alt":null,"note":null,"min_zoom":6.0,"strokeweig":0.2,"name_en":"Verkhnyaya Taymyra","min_label":7.0},
"geometry":{"type": "LineString","coordinates": [[93.998632812500034,73.648944403119117,20.2348],[93.96923828125,73.65326569218162,14.5618],[93.85595703125,73.64496491093162,17.6336],[93.83447265625,73.63483307499412,16.9461],[93.793212890625,73.60736725468162,22.4842],[93.735058593750011,73.58576080936912,17.2198],[93.6708984375,73.578485418744123,30.3223],[93.54248046875,73.580682684369123,76.4905],[93.35986328125,73.55280182499412,36.1726],[93.329296875000011,73.54389069218162,41.4425],[93.306640625,73.52545807499412,43.8935],[93.340722656250023,73.50495026249412,27.2636],[93.328515625000023,73.49591705936912,24.6292],[93.2861328125,73.48444244999412,29.7128],[93.298925781250034,73.473260809369123,24.9332],[93.328857421875,73.460321356244123,14.7044],[93.340722656250023,73.449725653119117,17.5992],[93.345117187500023,73.43707916874412,24.9936],[93.34228515625,73.428729559369117,18.9438],[93.34130859375,73.41986725468162,22.8749],[93.351171875000034,73.405633856244123,30.8794],[93.362597656249989,73.39874909061912,31.5977],[93.37744140625,73.391864324994117,27.6598],[93.390380859375,73.38324616093162,26.6874],[93.400976562500034,73.357049871869123,26.462],[93.413476562500023,73.34613678593162,29.9144],[93.428808593750034,73.33832428593162,24.1276],[93.443115234375,73.33368561405662,20.3229],[93.466894531250034,73.33136627811912,21.188],[93.54248046875,73.34052155155662,13.2804],[93.559179687500034,73.335809637494123,14.5728],[93.570068359375,73.32465241093162,18.4573],[93.580078125,73.310907293744123,31.7745],[93.593994140625,73.29889557499412,14.9593],[93.637304687500034,73.28314850468162,15.3511],[93.830078125,73.25043366093162,30.1121],[94.224609375,73.238055731244117,17.2868],[94.2421875,73.233905340619117,11.8322],[94.26025390625,73.22748444218162,14.4318],[94.276562500000011,73.21869537968162,9.3393],[94.308203125000034,73.19122955936912,16.4933],[94.32861328125,73.184198309369123,26.6996],[94.427148437500023,73.176385809369123,28.9347],[94.52294921875,73.14826080936912,35.2311],[94.905957031250011,73.11603424686912,13.1823],[95.708886718750023,73.181024481244123,4.2946],[95.75341796875,73.192401434369117,13.0533]]}}