{"type":"Feature","properties":{"featurecla":"River","scalerank":8,"rivernum":748,"dissolve":"748River","name":"Mana1","name_alt":null,"note":null,"min_zoom":7.0,"strokeweig":0.2,"name_en":"Mana","min_label":8.0},
"geometry":{"type": "LineString","coordinates": [[95.54833984375,54.49664948124412,1307.7129],[95.550878906250034,54.50543854374412,1138.5601],[95.5625,54.52997467655662,1055.6422],[95.565820312500023,54.53510162968162,1024.488],[95.574121093750023,54.53974030155662,1347.5828],[95.5732421875,54.551044012494117,1221.0657],[95.5693359375,54.564569403119116,874.3349],[95.569433593750034,54.576044012494116,877.8782],[95.572851562500034,54.576922918744117,832.4943],[95.586035156250034,54.57538483280662,987.2303],[95.589941406250034,54.576044012494116,1142.1715],[95.5927734375,54.58161041874412,1113.2217],[95.5947265625,54.591424871869116,804.1089],[95.6,54.60370514530662,1171.3422],[95.602148437500034,54.611932684369116,926.134],[95.603515625,54.63410065311912,1170.5398],[95.594921875000011,54.651385809369117,1019.1064],[95.574951171875,54.664178778119116,949.4327],[95.55224609375,54.674823309369117,956.687],[95.535253906250034,54.685321356244117,1040.6644],[95.505859375,54.71771881718162,973.3637],[95.488037109375,54.72882721561912,989.0521],[95.4501953125,54.73627350468162,960.307],[95.41845703125,54.75556061405662,613.005],[95.4169921875,54.766131903119117,731.6169],[95.41455078125,54.77094147343162,676.4187],[95.40771484375,54.77411530155662,616.4406],[95.3916015625,54.77338287968162,852.2783],[95.3837890625,54.774042059369116,885.374],[95.29638671875,54.79901764530662,904.885],[95.254980468750034,54.81683991093162,654.2977],[95.219482421875,54.84296295780662,542.3235],[95.203857421875,54.85834381718162,456.7418],[95.187255859375,54.87140534061912,526.3863],[95.167089843750034,54.880487371869116,559.0114],[95.140625,54.883905340619116,505.6049],[95.129199218749989,54.89252350468162,530.7719],[95.11962890625,54.91242096561912,443.5365],[95.114648437500023,54.935174871869116,425.2319],[95.116455078125,54.95221588749412,406.4578],[95.133544921875,54.970331121869116,437.1454],[95.154882812500034,54.98468659061912,409.3803],[95.168066406250034,54.99921295780662,399.5685],[95.160742187500034,55.01764557499412,543.3161],[95.13330078125,55.043231512494117,550.712],[95.132519531250011,55.05731842655662,382.1045],[95.143652343750034,55.082538153119117,364.9715],[95.150292968750023,55.08991119999412,374.3212],[95.157812500000034,55.09540436405662,381.3487],[95.163281250000011,55.10297272343162,425.9297],[95.1640625,55.116717840619117,419.681],[95.157958984375,55.12775299686912,503.4243],[95.135156250000023,55.14984772343162,401.4228],[95.129980468750034,55.16168854374412,345.6248],[95.16162109375,55.33978912968162,305.0583],[95.173583984375,55.36225006718162,295.3921],[95.189160156250011,55.37238190311912,295.8548],[95.227148437500034,55.38373444218162,294.1821],[95.24560546875,55.39325592655662,294.2393],[95.25341796875,55.405047918744117,289.0504],[95.273339843750023,55.44635651249412,412.4201],[95.2763671875,55.455340887494117,281.2317],[95.318115234375,55.45966217655662,278.3166],[95.3388671875,55.464960028119116,274.9057],[95.37060546875,55.48273346561912,271.2639],[95.416259765625,55.48505280155662,278.5994],[95.437402343750023,55.48944733280662,272.4708],[95.451269531250034,55.50128815311912,266.4658],[95.462890625,55.51972077030662,269.4154],[95.465234375000023,55.53668854374412,309.0565],[95.451416015625,55.54413483280662,268.5272],[95.43115234375,55.547967840619116,261.4056],[95.41162109375,55.558465887494116,274.8323],[95.4,55.573749090619117,273.2518],[95.4033203125,55.591913153119116,430.1615],[95.390625,55.600116278119117,321.0173],[95.390722656250034,55.60663483280662,263.7086],[95.41015625,55.61920807499412,256.8566],[95.424560546875,55.61664459843162,254.6757],[95.433496093750023,55.61688873905662,281.1805],[95.437402343750023,55.622919012494116,276.1165],[95.4375,55.630633856244117,257.1737],[95.438378906250023,55.634295965619117,251.0881],[95.4404296875,55.636493231244117,252.5715],[95.456640625000034,55.64691803593162,252.485],[95.468359375000034,55.64996979374412,252.3596],[95.49951171875,55.65399811405662,249.7903],[95.527246093750023,55.66693756718162,248.9501],[95.543066406250034,55.670526434369116,248.9983],[95.557519531250023,55.66388580936912,258.0419],[95.580664062500034,55.659051824994116,257.6262],[95.619042968750023,55.66425202030662,244.9792],[95.657470703125,55.67450592655662,243.7792],[95.6806640625,55.68500397343162,319.4972],[95.687402343750023,55.69367096561912,317.7319],[95.68798828125,55.702411199994117,318.4188],[95.684472656250023,55.725946356244116,244.6142],[95.691162109375,55.737811590619117,240.3596],[95.706445312500023,55.74652741093162,243.4434],[95.732324218750023,55.75641510624412,282.9135]]}}