{"type":"Feature","properties":{"featurecla":"River","scalerank":6,"rivernum":269,"dissolve":"269River","name":"Vilyuy2","name_alt":null,"note":null,"min_zoom":5.0,"strokeweig":0.2,"name_en":"Vilyuy","min_label":6.0},
"geometry":{"type": "LineString","coordinates": [[103.88515625000002,65.93537018436912,460.4413],[103.94345703125003,65.924188543744123,450.5249],[103.96826171875,65.91522858280662,424.6625],[103.98681640625,65.901874090619117,449.9806],[103.99853515625,65.886493231244117,446.693],[103.99609375,65.88141510624412,435.256],[103.98818359375002,65.876239324994117,412.1767],[103.983642578125,65.860614324994117,415.3304],[103.989501953125,65.84418366093162,409.7219],[104.00380859375002,65.83429596561912,408.8564],[104.088134765625,65.803583074994123,406.0094],[104.09912109375,65.796014715619123,405.935],[104.105224609375,65.783319403119123,403.2769],[104.10830078125002,65.76996491093162,404.519],[104.1142578125,65.75934479374412,403.8166],[104.12978515625002,65.75507233280662,406.5847],[104.27656250000001,65.75617096561912,417.6253],[104.45078125000003,65.716815496869117,415.1765],[104.4970703125,65.71344635624412,403.4997],[104.5244140625,65.71503327030662,406.5898],[104.538818359375,65.714227606244123,405.2624],[104.54843750000003,65.709735418744117,405.8963],[104.55341796875001,65.705096746869117,398.2861],[104.56923828125002,65.69489166874412,398.9199],[104.58505859375003,65.690790106244123,395.7212],[104.60341796875002,65.68146393436912,397.2425],[104.61337890625003,65.679315496869123,394.3577],[104.64453125,65.67877838749412,395.1764],[104.659423828125,65.67682526249412,395.0553],[104.67441406250003,65.672479559369123,404.1326],[104.71425781250002,65.64850494999412,392.2863],[104.729736328125,65.64520905155662,397.952],[104.922119140625,65.658807684369123,405.0046],[104.98779296875,65.646112371869123,397.28],[105.011474609375,65.64520905155662,395.2531],[105.05380859375003,65.652118231244117,396.9498],[105.17539062500003,65.686151434369123,397.7346],[105.24208984375002,65.69159577030662,392.5889],[105.25732421875,65.699823309369123,391.5414],[105.26162109375002,65.71234772343162,402.1855],[105.25537109375,65.721307684369123,400.7539],[105.244873046875,65.72968170780662,390.7968],[105.23623046875002,65.74079010624412,392.861],[105.44570312500002,65.774920965619117,393.8474],[105.47304687500002,65.772333074994123,391.9758],[105.49267578125,65.76520416874412,391.0211],[105.53173828125,65.74079010624412,391.2449],[105.55859375,65.73151276249412,387.354],[105.58544921875,65.731463934369117,391.4409],[105.613037109375,65.73432037968162,391.1759],[105.6416015625,65.73395416874412,391.4783],[105.63134765625,65.72150299686912,390.9937],[105.6279296875,65.70807526249412,383.3235],[105.63291015625003,65.69733307499412,387.8398],[105.66425781250001,65.687616278119123,391.4763],[105.67177734375002,65.675897528119123,392.5121],[105.676513671875,65.664178778119123,390.3963],[105.685302734375,65.658807684369123,389.215],[105.696875,65.65521881718162,391.1963],[105.74335937500001,65.63153717655662,390.11],[105.80615234375,65.61395905155662,406.8417],[105.82587890625001,65.60419342655662,400.3297],[105.9189453125,65.53839752811912,393.2104],[105.931640625,65.51593659061912,392.2743],[105.91640625000002,65.474383856244117,399.2096],[105.92255859375001,65.453387762494117,384.538],[105.915283203125,65.446551824994117,385.2323],[105.93320312500003,65.42963287968162,378.2726],[105.957275390625,65.416522528119117,386.5002],[105.98261718750001,65.40973541874412,385.5878],[106.004638671875,65.41181061405662,386.7351],[105.99863281250003,65.42694733280662,386.7229],[106.013671875,65.43268463749412,387.8903],[106.05244140625001,65.43231842655662,400.9604],[106.07421875,65.43768952030662,385.5311],[106.110595703125,65.45868561405662,393.4181],[106.13496093750001,65.459588934369123,384.3576],[106.15419921875002,65.45246002811912,392.6592],[106.16660156250003,65.443377996869117,381.1052],[106.18056640625002,65.43561432499412,378.0552],[106.203857421875,65.43231842655662,383.1475],[106.2822265625,65.439813543744123,389.6486],[106.30625,65.43231842655662,393.4298],[106.29140625000002,65.42365143436912,386.2476],[106.302001953125,65.41974518436912,396.3123],[106.33984375,65.41864655155662,394.63],[106.391357421875,65.42609284061912,385.2325],[106.40380859375,65.42389557499412,389.0696],[106.4267578125,65.41400787968162,388.1731],[106.439697265625,65.41181061405662,383.0017],[106.458984375,65.41266510624412,384.6251],[106.471923828125,65.415887762494123,400.5229],[106.498046875,65.43231842655662,375.0],[106.5029296875,65.437274481244117,380.4009],[106.505615234375,65.44232819218162,381.0282],[106.509521484375,65.447626043744123,396.0077],[106.5185546875,65.453387762494117,374.0],[106.527587890625,65.456170965619123,388.2805],[106.73769531250002,65.480731512494117,371.6682],[106.78408203125002,65.502069403119123,390.9354],[106.792236328125,65.50800202030662,412.3969],[106.78925781250001,65.52094147343162,489.4637],[106.77597656250003,65.52960846561912,478.1628],[106.74453125000002,65.541522528119117,408.4425],[106.75888671875003,65.554706121869117,415.1502],[106.77509765625001,65.56085846561912,460.7791],[106.833984375,65.565790106244123,392.2708],[106.872802734375,65.57990143436912,376.5959],[106.89501953125,65.583124090619123,375.6384],[106.968017578125,65.58075592655662,373.204],[106.991455078125,65.583124090619123,388.3312],[106.9990234375,65.58563873905662,414.155],[107.01679687500001,65.59381744999412,494.947],[107.025634765625,65.59674713749412,504.63869999999997],[107.03720703125003,65.59821198124412,449.1467],[107.06601562500003,65.59674713749412,394.6013],[107.12177734375001,65.608661199994117,408.1967],[107.2177734375,65.615497137494117,368.6703],[107.27041015625002,65.63312409061912,527.0417],[107.41552734375,65.617938543744117,390.4984]]}}