{"type":"Feature","properties":{"featurecla":"River","scalerank":8,"rivernum":949,"dissolve":"949River","name":"Kureyka1","name_alt":null,"note":null,"min_zoom":7.0,"strokeweig":0.25,"name_en":"Kureyka","min_label":8.0},
"geometry":{"type": "LineString","coordinates": [[90.047753906250023,67.230487371869117,182.4061],[89.68359375,67.13654205936912,89.5182],[89.63232421875,67.131219793744123,87.5559],[89.401123046875,67.062616278119123,128.4737],[89.352929687500023,67.06171295780662,182.3436],[89.255957031250034,67.07257721561912,187.0222],[89.143164062500034,67.06854889530662,180.7813],[89.066162109375,67.07855866093162,195.0401],[88.951757812500034,67.07880280155662,129.5342],[88.92041015625,67.074335028119123,160.5181],[88.86328125,67.05292389530662,102.9932],[88.83203125,67.045282293744123,86.5],[88.790917968750023,67.04547760624412,86.5],[88.712597656250011,67.05902741093162,86.5],[88.673828125,67.059588934369117,118.6409],[88.35888671875,67.014520574994123,109.5161],[88.334716796875,67.00592682499412,136.2632],[88.313085937500034,66.991961981244117,154.977],[88.271679687500011,66.95380280155662,97.6192],[88.244873046875,66.941424871869117,93.6712],[88.187109375000034,66.92865631718162,104.8298],[88.207763671875,66.909686590619117,75.3556],[88.270263671875,66.87872955936912,85.7555],[88.283300781250034,66.856952215619117,76.6235],[88.2763671875,66.82794830936912,98.709],[88.258056640625,66.81195709843162,118.2142],[88.201416015625,66.78461334843162,182.2304],[88.19140625,66.77484772343162,179.3945],[88.17919921875,66.752069403119123,59.0437],[88.173437500000034,66.743670965619117,42.449],[88.15576171875,66.730731512494117,42.7687],[88.135351562500034,66.72223541874412,153.865],[88.113671875000023,66.71771881718162,78.283],[88.02392578125,66.708612371869123,54.1115],[88.002832031250023,66.70270416874412,65.5037],[87.947509765625,66.677850653119123,50.7313],[87.88720703125,66.669696356244117,39.7284],[87.865820312500034,66.66339752811912,51.3521],[87.851318359375,66.654901434369123,58.4398],[87.845117187500023,66.63715241093162,33.6713],[87.845605468750023,66.616083074994123,25.1786],[87.84130859375,66.59845612186912,16.7654],[87.820898437500034,66.59113190311912,11.0687],[87.80517578125,66.58978912968162,27.9576],[87.788281250000011,66.58502838749412,35.3771],[87.77490234375,66.57562897343162,27.8133],[87.769433593750023,66.560077215619117,33.2292],[87.757519531250011,66.54718659061912,25.9908],[87.730371093750023,66.540545965619117,11.662],[87.632910156250034,66.53266022343162,14.7044],[87.501855468750023,66.55011627811912,11.3464],[87.45947265625,66.54889557499412,13.1781],[87.21240234375,66.47077057499412,1.7062]]}}