{"type":"Feature","properties":{"featurecla":"River","scalerank":7,"rivernum":493,"dissolve":"493River","name":"Kotuy1","name_alt":null,"note":null,"min_zoom":6.0,"strokeweig":0.2,"name_en":"Kotuy","min_label":7.0},
"geometry":{"type": "LineString","coordinates": [[95.9345703125,68.85687897343162,757.9995],[96.024023437500034,68.84650299686912,1252.4492],[96.096582031250023,68.82575104374412,723.774],[96.201904296875,68.81391022343162,862.368],[96.252343750000023,68.80158112186912,1175.5797],[96.39697265625,68.743915106244117,964.1169],[96.42431640625,68.738397528119123,674.2808],[96.483789062500023,68.74262116093162,859.3267],[96.51171875,68.73883698124412,917.5209],[96.537353515625,68.73248932499412,612.2794],[96.5966796875,68.72699616093162,583.6699],[96.84375,68.74762604374412,936.6077],[96.856640625000011,68.75226471561912,834.0087],[96.882714843750023,68.769305731244117,767.1312],[96.902441406250034,68.779071356244117,792.7479],[96.924072265625,68.78510162968162,915.5221],[97.353613281250034,68.79108307499412,627.1205],[97.40283203125,68.78058502811912,607.2322],[97.444726562500023,68.76007721561912,669.1764],[97.56982421875,68.67377350468162,691.079],[97.6240234375,68.60919830936912,532.4341],[97.70947265625,68.53815338749412,754.6174],[97.750244140625,68.51727936405662,735.1268],[97.773193359375,68.51007721561912,772.429],[97.794677734375,68.491083074994123,515.7448],[97.808398437499989,68.48627350468162,450.5719],[97.804589843750023,68.47101471561912,494.445],[97.80224609375,68.45221588749412,498.4475],[97.819042968750011,68.45001862186912,517.0882],[97.8427734375,68.44415924686912,643.3005],[97.864843750000034,68.43549225468162,640.2667],[97.877343750000023,68.42487213749412,668.8527],[97.874609375000034,68.41315338749412,645.8381],[97.864160156250023,68.402606512494117,509.2463],[97.8583984375,68.39203522343162,454.3603],[97.870214843750034,68.38019440311912,462.16],[97.89697265625,68.36945221561912,581.859],[97.907324218750034,68.36090729374412,570.5076],[97.911523437500023,68.34601471561912,521.8109],[97.91943359375,68.33417389530662,540.9783],[97.937744140625,68.325555731244123,539.7914],[98.106835937500023,68.28937409061912,662.1727],[98.140869140625,68.270624090619123,660.2841],[98.168066406250034,68.24848053593162,605.7175],[98.198828125000034,68.23139069218162,498.6273],[98.326074218750023,68.18976471561912,487.3358],[98.343457031250011,68.17841217655662,624.4521],[98.350488281250023,68.167254949994117,581.7178],[98.355566406250034,68.15363190311912,502.6656],[98.363037109375,68.14227936405662,520.6077],[98.377539062500034,68.13751862186912,513.5519],[98.393457031250023,68.13446686405662,608.3199],[98.411816406250011,68.126825262494123,734.8781],[98.429296875000034,68.116717840619117,802.2919],[98.442138671875,68.10614655155662,775.5535],[98.460693359375,68.09503815311912,546.9995],[98.4833984375,68.09284088749412,514.7937],[98.528222656250023,68.09650299686912,680.6897],[98.575585937500023,68.08991119999412,722.1691],[98.666601562500034,68.060907293744123,594.5768],[98.808984375000023,68.048114324994117,631.7166],[98.827050781250023,68.04010651249412,578.2794],[98.857177734375,68.018426824994123,439.284],[98.89013671875,68.01117584843162,396.6033],[98.9072265625,68.003924871869117,418.6745],[98.923095703125,67.994012762494123,419.8634],[98.935937500000023,67.98322174686912,453.523],[98.952880859375,67.973993231244123,414.8456],[98.97314453125,67.971795965619123,398.3603],[99.013769531250034,67.97272369999412,583.6257],[99.05712890625,67.96576569218162,613.6331],[99.078320312500011,67.95819733280662,738.4889],[99.095458984375,67.94623444218162,576.6765],[99.105224609375,67.91815827030662,398.0204],[99.090576171875,67.89081452030662,374.7297],[99.068359375,67.86359284061912,365.2067],[99.056054687500023,67.835809637494123,373.4731],[99.05908203125,67.824579168744123,367.7671],[99.065673828125,67.81818268436912,366.9598],[99.067968750000034,67.811151434369123,367.2213],[99.05908203125,67.79767487186912,382.6652],[99.046875,67.786737371869123,398.843],[99.007519531250011,67.76007721561912,407.618],[99.052148437500023,67.75397369999412,363.7118],[99.071533203125,67.746356512494117,370.2178],[99.090234375000023,67.733417059369117,380.1218],[99.11083984375,67.70734284061912,364.594],[99.121337890625,67.69000885624412,367.1627],[99.124267578125,67.67816803593162,357.367],[99.11669921875,67.67194244999412,366.2163],[99.0947265625,67.66803619999412,453.7253],[99.090234375000023,67.660760809369123,460.4908],[99.098242187500034,67.65216705936912,429.499],[99.116796875000034,67.64996979374412,365.561],[99.151562500000011,67.65082428593162,376.7867],[99.176367187500034,67.644647528119123,344.6284],[99.187744140625,67.634393621869123,387.1047],[99.187890625000023,67.61859772343162,382.7635],[99.178808593750034,67.59564850468162,357.6173],[99.240332031250034,67.57404205936912,390.939],[99.313720703125,67.56488678593162,379.0713],[99.33544921875,67.558612371869117,373.0842],[99.357421875,67.543085028119123,365.3248],[99.377050781250034,67.52509186405662,382.4582],[99.38232421875,67.512811590619123,375.9649],[99.383886718750034,67.500751043744117,344.4154],[99.38720703125,67.489618231244123,341.2147],[99.397216796875,67.48041412968162,348.1749],[99.4296875,67.468866278119123,357.5862],[99.445556640625,67.45978424686912,414.1522],[99.4521484375,67.44623444218162,396.0858],[99.4609375,67.43256256718162,334.6983],[99.481201171875,67.424335028119117,342.2733],[99.521093750000034,67.41522858280662,359.462],[99.547753906250023,67.40216705936912,357.5586],[99.588623046875,67.387958074994117,369.3414],[99.602929687500023,67.373309637494117,352.0941],[99.611230468750023,67.36871979374412,356.6756],[99.646484375,67.36200592655662,362.8827],[99.677734375,67.35162994999412,342.814],[99.903076171875,67.32904694218162,299.0167],[99.921142578125,67.32269928593162,304.8236],[99.9404296875,67.31329987186912,298.1978]]}}