{"type":"Feature","properties":{"featurecla":"River","scalerank":7,"rivernum":586,"dissolve":"586River","name":"Pyasina1","name_alt":null,"note":null,"min_zoom":6.0,"strokeweig":0.25,"name_en":"Pyasina","min_label":7.0},
"geometry":{"type": "LineString","coordinates": [[89.365820312500034,71.565936590619117,7.1671],[89.394921875000023,71.58002350468162,12.0806],[89.419677734375,71.59943268436912,7.3596],[89.4658203125,71.64447662968162,8.7427],[89.508398437500034,71.66815827030662,5.4194],[89.5595703125,71.676629949994123,33.7742],[89.772363281250023,71.676629949994123,15.9394],[89.88037109375,71.68878815311912,17.0449],[89.96142578125,71.70685455936912,12.8083],[90.005273437500023,71.724237371869123,3.4592],[90.0244140625,71.74713776249412,7.594],[90.0078125,71.77081940311912,34.1246],[89.9736328125,71.783465887494117,3.7273],[89.945898437500034,71.797723699994123,10.6483],[89.948632812500023,71.82599518436912,11.6484],[89.973242187500034,71.84381744999412,7.755],[90.005615234375,71.858514715619123,12.4959],[90.02587890625,71.87677643436912,11.4534],[90.013916015625,71.90485260624412,8.4273],[90.0146484375,71.916131903119123,3.8965],[90.030029296875,71.928583074994123,7.6137],[90.049902343750034,71.93854401249412,14.5318],[90.084082031250034,71.947381903119123,4.8178],[90.088134765625,71.95868561405662,14.4678],[90.085839843750023,71.972186590619117,8.2013],[90.085839843750023,71.983661199994117,8.6239],[90.111083984375,72.01496002811912,2.3241],[90.478613281250034,72.18366119999412,5.1519],[90.48681640625,72.19281647343162,5.0784],[90.483642578125,72.20746491093162,2.0926],[90.49462890625,72.22284577030662,0.8867],[90.511132812500023,72.236102606244117,6.723],[90.524023437500034,72.24433014530662,8.9888],[90.595703125,72.271502996869117,6.0747],[90.606542968750034,72.285272528119123,0.7462],[90.598046875000023,72.298602606244117,0.9181],[90.577880859375,72.311639715619123,1.5628],[90.55517578125,72.32184479374412,0.6219],[90.538281250000011,72.326288153119123,10.947],[90.558398437499989,72.33746979374412,8.186],[90.584716796875,72.33869049686912,19.0097],[90.73388671875,72.329461981244123,56.711],[90.762597656250023,72.33502838749412,55.6906],[90.941796875000023,72.395135809369123,7.1025],[91.037109375,72.412616278119117,0.9139],[91.085839843750023,72.432245184369123,3.9463],[91.106835937500023,72.46344635624412,27.0928],[91.094628906250023,72.47589752811912,54.4183],[91.066503906250034,72.481708074994117,55.3685],[90.963281250000023,72.48786041874412,1.115],[90.94189453125,72.495233465619123,2.155],[90.921289062500023,72.510614324994123,2.7807],[90.9716796875,72.552264715619117,52.6827],[91.051367187500034,72.56391022343162,39.9152],[91.13671875,72.556415106244117,30.8652],[91.22119140625,72.536395574994117,0.9468],[91.300683593750023,72.53009674686912,2.7471],[91.34033203125,72.52033112186912,13.2165],[91.514404296875,72.504413153119117,10.508],[91.54345703125,72.50934479374412,-0.2445],[91.576074218750023,72.52155182499412,-0.1242],[91.60595703125,72.53717682499412,5.3031],[91.627539062500034,72.55219147343162,11.5293],[91.648193359375,72.57575104374412,3.744],[91.6484375,72.59210846561912,12.3849],[91.63330078125,72.60480377811912,12.5268],[91.528076171875,72.65448639530662,18.3987],[91.497314453125,72.66205475468162,16.1573],[91.425097656249989,72.671014715619123,11.693],[91.38916015625,72.67999909061912,7.4448],[91.360058593750011,72.69684479374412,0.6536],[91.375390625000023,72.70697662968162,-1.5518],[91.411865234375,72.716424871869123,-0.4772],[91.428320312500034,72.724139715619117,2.0907],[91.44189453125,72.73773834843162,-0.9666],[91.446044921875,72.750995184369117,22.7719],[91.438232421875,72.761102606244123,8.8624],[91.396093750000034,72.767596746869117,11.094],[91.376855468750023,72.77423737186912,11.8907],[91.358642578125,72.783954168744117,2.9311],[91.342675781250023,72.79547760624412,4.8474],[91.337597656250011,72.803827215619123,-1.4683],[91.33056640625,72.82965729374412,3.1386],[91.325878906250011,72.840204168744123,-0.4624],[91.2998046875,72.86310455936912,14.2848],[91.234375,72.89142487186912,4.1389],[91.205761718750011,72.91217682499412,6.1742],[91.194433593750034,72.93512604374412,15.3575],[91.190820312500023,72.981805731244123,5.6884],[91.174560546875,73.00470612186912,18.6198],[91.138671875,73.02826569218162,2.3796],[91.127343750000023,73.03949616093162,0.8618],[91.111083984375,73.06281159061912,-2.086],[91.101464843750023,73.07355377811912,-2.1315],[91.086669921875,73.08356354374412,2.4523],[91.067773437500023,73.09247467655662,2.6909],[91.059814453125,73.09723541874412,17.1273],[91.05859375,73.105487371869117,3.4329],[91.05908203125,73.12482330936912,-0.9102],[91.061718750000011,73.13922760624412,-1.8774],[91.065673828125,73.14630768436912,-1.1216],[91.064453125,73.15387604374412,0.7049],[91.051660156250023,73.169794012494123,5.328],[91.029052734375,73.19147369999412,-2.0735],[90.976757812500011,73.22772858280662,21.3557],[90.94921875,73.24115631718162,9.4929],[90.900097656250011,73.25592682499412,8.7297],[90.7236328125,73.27997467655662,5.6574],[90.473388671875,73.251825262494123,31.4957],[90.226660156250034,73.192401434369117,-1.4163],[90.121972656250023,73.182001043744123,23.3309],[90.016699218750034,73.18366119999412,9.6167],[89.545800781250023,73.24371979374412,21.8477],[89.438085937500034,73.22711823124412,8.1544],[89.273681640625,73.238055731244117,1.7267],[89.248242187500011,73.23566315311912,7.2021],[89.143847656249989,73.21271393436912,6.7873],[89.081738281250011,73.20783112186912,-1.3946],[88.976953125000023,73.18512604374412,-1.0368],[88.951757812500034,73.18280670780662,-0.8531],[88.667578125000034,73.21222565311912,23.1002],[88.4228515625,73.19306061405662,10.4759],[88.367578125000023,73.174090887494117,31.7312],[88.35205078125,73.164667059369123,-0.0291],[88.338281250000023,73.139178778119117,-1.2983],[88.322021484375,73.12543366093162,-1.333],[88.290722656250011,73.10712311405662,0.8824],[88.26611328125,73.100458074994123,0.259],[88.158203125,73.09027741093162,13.5809],[88.10986328125,73.076190496869117,7.864],[87.942578125000011,73.06806061405662,2.1096]]}}