{"type":"Feature","properties":{"featurecla":"River","scalerank":8,"rivernum":743,"dissolve":"743River","name":"Taymura1","name_alt":null,"note":null,"min_zoom":7.0,"strokeweig":0.2,"name_en":"Taymura","min_label":8.0},
"geometry":{"type": "LineString","coordinates": [[103.63330078125,62.365594793744123,348.5531],[103.4,62.39740631718162,338.8523],[103.2705078125,62.451776434369123,311.1394],[103.2294921875,62.459100653119123,352.4129],[103.03955078125,62.436883856244123,356.6953],[103.01669921875003,62.43817780155662,307.1786],[102.99667968750003,62.444208074994123,355.5776],[102.95751953125,62.461786199994123,535.8434],[102.937744140625,62.46552155155662,495.6243],[102.90664062500002,62.475116278119117,320.8392],[102.86660156250002,62.517352606244117,330.3284],[102.832275390625,62.52692291874412,437.9747],[102.7470703125,62.53119537968162,497.5511],[102.70615234375003,62.539422918744123,370.4514],[102.62919921874999,62.56513092655662,446.8345],[102.45332031250001,62.569354559369117,453.037],[102.43212890625,62.56720612186912,497.9252],[102.41328125000001,62.56171295780662,480.3925],[102.41083984375001,62.558710028119123,480.9192],[102.40869140625,62.55341217655662,418.8543],[102.40712890625002,62.54779694218162,349.443],[102.406494140625,62.54364655155662,323.0732],[102.40517578125002,62.53961823124412,287.6601],[102.40214843749999,62.539569403119117,291.317],[102.39765625000001,62.540643621869123,332.5021],[102.39345703125002,62.53998444218162,352.6321],[102.382080078125,62.53534577030662,392.1188],[102.37158203125,62.533319403119123,298.18],[102.3623046875,62.529559637494117,325.2162],[102.32138671875003,62.47540924686912,269.3194],[102.3310546875,62.46466705936912,266.5081],[102.33408203125003,62.45880768436912,267.54],[102.330078125,62.45197174686912,328.3327],[102.318359375,62.43817780155662,257.9744],[102.287109375,62.41498444218162,261.724],[102.24609375,62.40253327030662,345.4909],[102.16015625,62.396600653119123,289.6714],[102.1181640625,62.39838287968162,412.4027],[102.09765625,62.395868231244123,388.4019],[102.08134765624999,62.38666412968162,381.5555],[102.0654296875,62.37238190311912,319.5451],[102.05214843750002,62.36554596561912,320.4521],[102.03701171875002,62.36493561405662,288.4114],[101.95654296875,62.38361237186912,350.1248],[101.93417968750003,62.383563543744117,370.4484],[101.88613281250002,62.37518952030662,367.2668],[101.86083984375,62.373797918744117,325.1092],[101.79794921875003,62.38727448124412,318.583],[101.70849609375,62.38165924686912,277.4989],[101.67343750000003,62.396600653119123,246.7332]]}}