{"type":"Feature","properties":{"featurecla":"River","scalerank":7,"rivernum":493,"dissolve":"493River","name":"Kotuy2","name_alt":null,"note":null,"min_zoom":6.0,"strokeweig":0.2,"name_en":"Kotuy","min_label":7.0},
"geometry":{"type": "LineString","coordinates": [[98.267675781250034,68.20575592655662,650.1592],[98.248779296875,68.199969793744117,417.9078],[98.259667968750023,68.186053778119117,387.5082],[98.295654296875,68.157342840619123,387.3439],[98.288183593750034,68.151141668744117,387.4937],[98.305419921875,68.13519928593162,387.7348],[98.399658203125,68.07819244999412,388.7495],[98.43310546875,68.06500885624412,387.9765],[98.46875,68.05695221561912,388.2467],[98.627343750000023,68.04621002811912,387.0765],[98.711328125000023,68.02912018436912,387.3709],[98.843017578125,68.034442449994117,603.0387],[98.8369140625,68.034442449994117,590.0814]]}}