{"type":"Feature","properties":{"featurecla":"River","scalerank":5,"rivernum":181,"dissolve":"181River","name":"Lower3","name_alt":"Nizhnyaya Tunguska","note":null,"min_zoom":4.7,"strokeweig":0.3,"name_en":"Lower Tunguska","min_label":5.7},
"geometry":{"type": "LineString","coordinates": [[102.37265625000003,64.046502996869123,393.567],[102.36279296875,64.049335028119117,335.89],[102.35976562500002,64.05573151249412,377.07],[102.358154296875,64.06305573124412,422.4042],[102.35292968750002,64.06830475468162,412.0561],[102.340576171875,64.07160065311912,393.9457],[102.28310546875002,64.07709381718162,302.5486],[102.1748046875,64.10700104374412,415.4887],[101.9208984375,64.10126373905662,438.2737],[101.86728515625003,64.109393621869117,156.63],[101.53378906250003,64.23371002811912,412.1099],[101.46503906250001,64.23578522343162,441.8421],[101.44199218750003,64.23273346561912,396.1953],[101.36474609375,64.20355866093162,403.8892],[101.31357421875003,64.19782135624412,454.3268],[101.298095703125,64.19257233280662,432.3926],[101.2861328125,64.18427155155662,445.6325],[101.272216796875,64.171991278119123,237.2182],[101.25917968750002,64.16608307499412,217.5621],[101.227783203125,64.15973541874412,236.1038],[101.20058593750002,64.14667389530662,335.3687],[101.1552734375,64.11212799686912,475.0983],[101.12548828125,64.10504791874412,429.9531],[101.088134765625,64.110223699994123,243.2067],[101.01992187500002,64.13349030155662,335.6546],[100.943603515625,64.144891668744123,311.9896],[100.797119140625,64.19257233280662,469.3036],[100.715576171875,64.20636627811912,440.1915],[100.67294921875003,64.208124090619123,441.3935],[100.638427734375,64.20111725468162,380.6361],[100.56826171875002,64.17694733280662,290.9437],[100.536376953125,64.18085358280662,177.0684],[100.51816406250003,64.19672272343162,132.5],[100.516357421875,64.213153387494117,231.3868],[100.5126953125,64.22919342655662,281.6895],[100.489501953125,64.24420807499412,387.056],[100.40439453125003,64.252069403119123,147.3735],[100.36757812500002,64.264422918744117,172.3716],[100.378662109375,64.29071686405662,407.9531],[100.34033203125,64.302362371869123,565.7454],[100.30136718750003,64.29840729374412,456.4948],[100.26132812500003,64.288690496869123,314.167],[100.130859375,64.27863190311912,309.5305],[100.09003906250001,64.269159246869123,367.0554],[99.986328125,64.22626373905662,340.4106],[99.961035156250034,64.21027252811912,200.9946],[99.9404296875,64.179706121869117,265.3851],[99.933837890625,64.15717194218162,289.7033],[99.929589843750023,64.148065496869123,161.7956],[99.91943359375,64.13812897343162,246.3226],[99.898535156250034,64.126483465619117,183.6106],[99.875585937500034,64.12055084843162,191.0305],[99.450292968750034,64.126239324994117,427.8717],[99.299707031250023,64.154559637494117,539.173],[98.802734375,64.17792389530662,488.7247],[98.6240234375,64.15241119999412,394.7468],[98.303417968750011,64.187762762494117,451.8684],[98.240478515625,64.186542059369117,430.7674],[98.145410156250023,64.16596100468162,442.5851],[98.100683593750034,64.14630768436912,289.4287],[98.061621093750034,64.11823151249412,218.4839],[98.091552734375,64.097919012494117,128.9356],[98.164453125000023,64.07855866093162,214.5846],[98.19580078125,64.05988190311912,152.4226],[98.203320312500011,64.04804108280662,104.0356],[98.201416015625,64.038104559369117,124.7864],[98.182373046875,64.01862213749412,177.0596],[98.176367187500034,64.014667059369117,178.9969],[98.161718750000034,64.009393621869123,173.1087],[98.154394531250034,64.00470612186912,201.1562],[98.148828125000023,63.99652741093162,152.3652],[98.147216796875,63.98114655155662,184.3997],[98.144238281250011,63.974237371869123,163.7361],[98.10986328125,63.94965241093162,112.8548],[98.067138671875,63.939813543744123,143.9505],[97.8955078125,63.933465887494123,241.1408],[97.860742187500023,63.919305731244123,236.5341],[97.856201171875,63.891717840619123,99.0561],[97.883056640625,63.868280340619123,156.0038],[97.964648437499989,63.85114166874412,311.3081],[97.996777343750011,63.834002996869117,225.5883],[98.043359375000023,63.797235418744123,175.2531],[98.052832031250034,63.779803778119117,113.6966],[98.034277343750034,63.761346746869123,157.4458],[97.9892578125,63.74933502811912,242.6512],[97.701904296875,63.76434967655662,127.4077],[97.608154296875,63.789813543744117,195.1528],[97.400292968750023,63.800067449994117,221.656],[97.151464843750034,63.850848699994117,221.4858],[97.042236328125,63.844598699994123,157.5772],[96.965576171875,63.850702215619123,296.3661],[96.516357421875,63.79486725468162,217.0782],[96.492773437500034,63.79950592655662,179.1587],[96.451074218750023,63.825946356244117,193.8785],[96.441699218749989,63.83026764530662,155.9282],[96.43310546875,63.83563873905662,138.4239],[96.413476562500023,63.86176178593162,325.25],[96.40380859375,63.871210028119123,287.3655],[96.356640625000011,63.88788483280662,223.1757],[96.014550781250023,63.90521881718162,272.413],[95.92822265625,63.924188543744123,333.2259],[95.727783203125,63.99201080936912,274.696],[95.635937500000011,64.03571198124412,201.5261],[95.614990234375,64.042987371869117,143.0875],[95.505078125000011,64.06561920780662,253.191],[95.450585937500023,64.064471746869117,409.8561],[95.30419921875,64.03571198124412,215.0663],[95.252832031250023,64.03400299686912,174.446],[95.201904296875,64.03912994999412,263.7381],[95.15625,64.04938385624412,201.9462],[95.081152343750034,64.076678778119117,333.5391],[95.008203125000023,64.086786199994123,191.7589],[94.93017578125,64.109881903119117,183.3904],[94.898193359375,64.131708074994123,246.0174],[94.879638671875,64.13800690311912,286.8457],[94.841552734375,64.14557526249412,342.2569],[94.804882812500011,64.15802643436912,190.6944],[94.741113281250023,64.19013092655662,209.2039],[94.704980468750023,64.200213934369117,207.9713],[94.678808593750034,64.20148346561912,190.5928],[94.601318359375,64.193377996869117,133.2303],[94.481835937500023,64.20697662968162,136.4925],[94.039648437500034,64.176385809369123,262.6905],[94.001562500000034,64.161883856244117,146.4717],[93.98095703125,64.15863678593162,140.8111],[93.9609375,64.16205475468162,128.6051],[93.949121093750023,64.17059967655662,128.7091],[93.93896484375,64.18195221561912,116.4993],[93.923583984375,64.193377996869117,154.7075],[93.4345703125,64.28912994999412,248.109],[93.39501953125,64.30634186405662,183.0547],[93.285742187500034,64.36835358280662,234.3153],[93.239355468750034,64.38776276249412,261.7719],[93.227441406250023,64.39569733280662,269.8762],[93.20361328125,64.40692780155662,165.6173],[93.114160156250023,64.41242096561912,185.3908],[92.972558593750023,64.443377996869117,103.6815],[92.92236328125,64.44660065311912,169.9384],[92.8779296875,64.442645574994117,171.3781],[92.7509765625,64.41242096561912,125.5669],[92.699609375000023,64.40863678593162,218.7125],[92.4560546875,64.42450592655662,321.0455],[92.406835937500034,64.421502996869123,286.9317],[92.367578125000023,64.406268621869117,253.1861],[92.357812500000023,64.39520905155662,135.9119],[92.3447265625,64.36871979374412,101.3457],[92.333984375,64.35785553593162,70.1688],[92.30908203125,64.349872137494117,133.8833],[92.190820312500023,64.362079168744117,227.8421],[92.14990234375,64.37372467655662,186.4182],[92.110937500000034,64.39105866093162,124.3738],[92.080078125,64.41242096561912,245.9504]]}}