{"type":"Feature","properties":{"featurecla":"River","scalerank":7,"rivernum":586,"dissolve":"586River","name":"Pyasina","name_alt":null,"note":null,"min_zoom":6.0,"strokeweig":0.2,"name_en":"Pyasina","min_label":7.0},
"geometry":{"type": "LineString","coordinates": [[88.015869140625,70.087909246869117,112.3492],[88.117285156250034,70.118036199994123,61.3441],[88.153564453125,70.12140534061912,36.4094],[88.239013671875,70.11493561405662,36.8556],[88.284570312500023,70.11823151249412,49.7426],[88.304443359375,70.13605377811912,26.9972],[88.275634765625,70.170038153119123,27.0113],[88.140869140625,70.199481512494117,23.6831],[88.098388671875,70.238788153119117,32.9267],[88.122314453125,70.24384186405662,33.788],[88.345703125,70.25751373905662,34.0958],[88.449951171875,70.276629949994117,34.6717],[88.529687500000023,70.328241278119123,38.106],[88.536523437500023,70.33808014530662,25.9509],[88.53369140625,70.35370514530662,34.8267],[88.530029296875,70.362420965619123,38.0728],[88.532958984375,70.36994049686912,36.3914],[88.55029296875,70.38214752811912,42.1598],[88.587792968750023,70.399774481244123,47.4986],[88.75244140625,70.451922918744117,40.3982],[88.851318359375,70.457635809369123,41.9386],[88.8935546875,70.47894928593162,38.578],[88.900634765625,70.488885809369123,45.2105],[88.920654296875,70.543719793744117,64.7635],[88.9267578125,70.554217840619117,50.0126],[88.9365234375,70.56195709843162,44.5994],[88.95458984375,70.57111237186912,45.1317],[89.062255859375,70.604754949994117,33.9837],[89.120361328125,70.60468170780662,39.315],[89.241455078125,70.64520905155662,59.3714],[89.27685546875,70.64484284061912,28.8126],[89.297460937500034,70.647967840619117,29.5255],[89.513769531250034,70.748553778119117,28.2414],[89.592382812500034,70.77081940311912,16.4165],[89.679296875000034,70.77997467655662,16.5664],[89.720605468750023,70.79254791874412,23.2775],[89.74658203125,70.81891510624412,22.0308],[89.757226562500023,70.832538153119117,21.184],[89.774804687500023,70.845721746869117,18.8671],[89.794531250000034,70.85565827030662,19.0744],[89.824462890625,70.863641668744123,22.7625],[89.863671875000023,70.884881903119123,31.3052],[89.872949218750023,70.89435455936912,26.607],[89.862597656249989,70.91730377811912,12.1021],[89.83203125,70.93805573124412,11.8885],[89.797558593750011,70.95648834843162,11.7428],[89.774121093750011,70.97260162968162,24.6579],[89.762451171875,70.99982330936912,13.8849],[89.767968750000023,71.02411530155662,16.7098],[89.779296875,71.04755280155662,15.5687],[89.7841796875,71.07245514530662,21.839],[89.766357421875,71.10321686405662,15.678],[89.728759765625,71.11945221561912,13.1315],[89.5986328125,71.132684637494123,13.5267],[89.455175781250034,71.16803619999412,16.0515],[89.317968750000034,71.17487213749412,10.0179],[89.239501953125,71.199090887494123,12.3498],[89.214941406250034,71.20282623905662,9.724],[89.153564453125,71.250604559369123,9.1541],[89.151123046875,71.261493231244117,13.2578],[89.153710937500023,71.27484772343162,11.4459],[89.160449218749989,71.28888580936912,13.2066],[89.170654296875,71.30182526249412,8.9876],[89.17919921875,71.32062409061912,11.4019],[89.166796874999989,71.333270574994117,12.3517],[89.115917968750011,71.359881903119117,11.6557],[89.112060546875,71.359881903119117,12.0246],[89.111425781250034,71.362665106244123,18.7461],[89.112060546875,71.37726471561912,34.1556],[89.116943359375,71.386835028119123,25.2828],[89.12841796875,71.391229559369123,26.9671],[89.14111328125,71.39374420780662,28.3889],[89.150097656250011,71.397723699994117,27.8067],[89.158593750000023,71.404169012494123,24.4741],[89.179785156250034,71.41474030155662,10.2179],[89.187597656250034,71.42133209843162,10.5148],[89.19375,71.431659246869117,11.41],[89.192480468750034,71.436542059369117,11.769],[89.188720703125,71.440545965619123,12.6156],[89.187597656250034,71.448602606244123,6.3843],[89.193261718750023,71.46893952030662,6.5699],[89.203515625000023,71.483905340619117,6.628],[89.2197265625,71.493280340619123,8.0414],[89.242919921875,71.49701569218162,10.1214],[89.249121093750034,71.52033112186912,16.4292],[89.287011718750023,71.540643621869123,9.9698],[89.365820312500034,71.565936590619117,7.1671]]}}