{"type":"Feature","properties":{"featurecla":"River","scalerank":6,"rivernum":245,"dissolve":"245River","name":"Taz1","name_alt":null,"note":null,"min_zoom":5.0,"strokeweig":0.2,"name_en":"Taz","min_label":6.0},
"geometry":{"type": "LineString","coordinates": [[84.4453125,62.811151434369123,161.6779],[84.465722656250023,62.81964752811912,128.9752],[84.565332031250023,62.88703034061912,105.7343],[84.573339843750034,62.889276434369123,106.2248],[84.586181640625,62.88996002811912,105.3738],[84.598046875000023,62.89325592655662,106.7942],[84.617919921875,62.907733465619117,104.5513],[84.62744140625,62.91107819218162,103.0931],[84.66455078125,62.912469793744123,121.6731],[84.718994140625,62.90350983280662,106.712],[84.733642578125,62.90424225468162,100.6643],[84.751855468750023,62.90936920780662,104.1072],[84.769433593750023,62.918963934369117,100.2088],[84.777734375000023,62.93146393436912,97.2376],[84.767822265625,62.945184637494123,101.7514],[84.784570312500023,62.96076080936912,97.8957],[84.804785156250034,62.966815496869117,117.9899],[84.8271484375,62.96539948124412,103.2916],[84.87841796875,62.951434637494117,98.8804],[84.891357421875,62.95587799686912,97.4301],[84.91552734375,62.98981354374412,100.1237],[84.932714843750034,63.00165436405662,115.6455],[84.956152343750034,63.011346746869123,113.8849],[84.980566406250034,63.01788971561912,111.7845],[85.001074218750034,63.020282293744117,94.8787],[85.058837890625,63.020282293744117,91.6399],[85.071386718750034,63.02301666874412,90.6924],[85.0927734375,63.03620026249412,87.4098],[85.102929687500023,63.040790106244117,89.2804],[85.118066406250023,63.04218170780662,86.4728],[85.149658203125,63.03974030155662,88.4119],[85.164941406250023,63.040790106244117,88.2132],[85.20654296875,63.055047918744123,85.707],[85.2314453125,63.058221746869123,84.1513],[85.241796875000034,63.060809637494117,87.4722],[85.25439453125,63.06806061405662,86.4066],[85.27197265625,63.09210846561912,83.083],[85.278564453125,63.09601471561912,86.2227],[85.289453125000023,63.09918854374412,82.3996],[85.309960937500023,63.113299871869117,84.8823],[85.319580078125,63.11652252811912,83.1494],[85.424218750000023,63.126092840619123,84.8856],[85.45068359375,63.132098699994117,81.7773],[85.466699218750023,63.143182684369123,92.9302],[85.491455078125,63.198260809369117,97.2297],[85.501367187500023,63.212030340619123,104.7372],[85.509765625,63.217303778119117,106.4593],[85.52880859375,63.22516510624412,82.2967],[85.53564453125,63.23261139530662,77.7478],[85.534912109375,63.240838934369123,78.2804],[85.531494140625,63.25250885624412,78.6116],[85.530859375000034,63.26288483280662,86.8905],[85.538964843750023,63.267352606244117,84.1057],[85.560546875,63.273211981244117,81.3075],[85.617431640625,63.31513092655662,93.4609],[85.655957031250011,63.334735418744117,95.3589],[85.667724609375,63.34454987186912,95.8674],[85.672119140625,63.35980866093162,80.2423],[85.640625,63.37421295780662,76.3173],[85.495507812500023,63.37482330936912,87.4758],[85.453027343750023,63.36969635624412,107.1223],[85.444726562500023,63.36371491093162,75.8823],[85.4404296875,63.355829168744123,68.0],[85.433837890625,63.34979889530662,78.8926],[85.4189453125,63.349237371869123,73.1993],[85.41015625,63.35321686405662,75.9398],[85.4013671875,63.361200262494123,74.8207],[85.394238281250011,63.37079498905662,75.9211],[85.391503906250023,63.37970612186912,76.8341],[85.381591796875,63.39325592655662,74.8302],[85.364843750000034,63.404803778119117,73.6877],[85.361523437500011,63.41498444218162,83.0811],[85.391503906250023,63.42438385624412,75.8075],[85.376855468750023,63.44391510624412,70.7995],[85.373437500000023,63.453973699994123,68.8594],[85.3779296875,63.466571356244117,73.7608],[85.335546875000034,63.486835028119117,73.0657],[85.319238281250023,63.498651434369123,68.924],[85.299072265625,63.517450262494123,65.4222],[85.2763671875,63.52240631718162,77.3766],[85.21240234375,63.51093170780662,71.7367],[85.19921875,63.510614324994123,71.3553],[85.186132812500034,63.53046295780662,69.2389],[85.155859375000034,63.535174871869117,70.0407],[85.0966796875,63.53424713749412,72.5714],[85.077539062500023,63.543231512494117,70.3932],[85.06103515625,63.556170965619117,67.2404],[85.046972656250034,63.572040106244117,68.0716],[85.035253906250034,63.58942291874412,65.1298],[84.967041015625,63.58197662968162,66.6166],[84.898046875000034,63.58197662968162,57.8329],[84.881591796875,63.58417389530662,64.0584],[84.853125,63.593524481244117,58.5186],[84.839746093750023,63.59564850468162,57.599],[84.83447265625,63.601190496869123,67.6714],[84.821679687500023,63.62750885624412,62.7372],[84.815527343750034,63.63666412968162,62.0626],[84.803613281250023,63.64325592655662,65.4626],[84.774658203125,63.65143463749412,63.6286],[84.760937500000011,63.657733465619117,63.4776],[84.732421875,63.681024481244123,68.6171],[84.719921875000011,63.688495184369117,59.6501],[84.704687500000034,63.69110748905662,62.0509],[84.674218750000023,63.68073151249412,59.7361],[84.658203125,63.677606512494123,61.3976],[84.636962890625,63.67951080936912,54.7747],[84.575878906250011,63.69183991093162,64.4068],[84.518652343750034,63.690204168744117,65.3346],[84.500244140625,63.69183991093162,64.7396],[84.486230468750023,63.69660065311912,65.3309],[84.458984375,63.709735418744117,68.5492],[84.445898437500034,63.71234772343162,61.5297],[84.431640625,63.711688543744117,60.9475],[84.417724609375,63.709100653119123,61.4241],[84.405029296875,63.703973699994123,52.1764],[84.39453125,63.69562409061912,66.1597],[84.381103515625,63.690936590619117,62.5278],[84.339941406250034,63.693475653119123,77.8183],[84.32275390625,63.69183991093162,74.953],[84.317138671875,63.68793366093162,78.5103],[84.3076171875,63.67560455936912,71.1327],[84.30224609375,63.671405340619117,71.4456],[84.295654296875,63.67035553593162,67.7379],[84.280957031250011,63.67206452030662,77.4273],[84.274316406250023,63.671405340619117,81.262],[84.229736328125,63.653436590619123,57.1468],[84.20166015625,63.648700262494117,80.2839],[84.172558593750011,63.638934637494117,58.2886],[84.157617187500023,63.63666412968162,59.5117],[84.091699218750023,63.644549871869117,76.3642],[84.07568359375,63.64411041874412,61.4135],[84.054589843750023,63.63666412968162,67.845],[84.046484375000034,63.61041901249412,56.9207],[83.996777343750011,63.59284088749412,65.5537],[83.93505859375,63.58356354374412,55.2871],[83.671630859375,63.575213934369117,62.6158],[83.692578125000011,63.599481512494123,69.8049],[83.725976562500023,63.60834381718162,54.4705],[83.76123046875,63.61249420780662,55.4082],[83.788281250000011,63.62299225468162,56.3817],[83.8076171875,63.65387604374412,55.1771],[83.79052734375,63.67194244999412,49.8628],[83.761816406250034,63.68707916874412,53.0885],[83.738671875000023,63.722528387494123,52.4893],[83.7197265625,63.72724030155662,44.7284],[83.697021484375,63.72882721561912,53.1864],[83.678417968750011,63.73285553593162,45.0154],[83.6650390625,63.74457428593162,50.5068],[83.65283203125,63.75824616093162,48.1089],[83.638671875,63.76349518436912,46.7509],[83.591796875,63.73078034061912,48.9719],[83.560546875,63.72931549686912,53.6272],[83.492919921875,63.74030182499412,46.5115],[83.504638671875,63.781756903119117,52.3694],[83.47412109375,63.80426666874412,45.8256],[83.383056640625,63.82843659061912,46.6828],[83.366455078125,63.83917877811912,39.7198],[83.32275390625,63.883661199994123,44.388]]}}