{"type":"Feature","properties":{"featurecla":"River","scalerank":7,"rivernum":625,"dissolve":"625River","name":"Podkamennaya1","name_alt":null,"note":null,"min_zoom":6.0,"strokeweig":0.3,"name_en":"Podkamennaya Tunguska","min_label":7.0},
"geometry":{"type": "LineString","coordinates": [[96.973046875000023,60.95770905155662,168.9205],[96.945068359375,60.97138092655662,166.5253],[96.907812500000034,60.977899481244123,227.9904],[96.806884765625,61.021991278119117,266.0929],[96.780517578125,61.040301824994117,199.2908],[96.702050781250023,61.11163971561912,235.5905],[96.691308593750023,61.12775299686912,265.7609],[96.683007812500023,61.151629949994117,158.9598],[96.680908203125,61.176141668744123,170.2777],[96.688378906250023,61.194208074994123,359.4438],[96.688232421875,61.19989655155662,354.2598],[96.7060546875,61.268085028119117,168.4052],[96.70703125,61.280389715619123,163.4103],[96.702050781250023,61.290399481244123,255.8172],[96.67578125,61.29755280155662,253.7285],[96.641503906250023,61.289325262494117,333.6907],[96.582275390625,61.26251862186912,153.196],[96.562255859375,61.25702545780662,152.2684],[96.558007812500023,61.26361725468162,181.4817],[96.558837890625,61.27582428593162,285.7946],[96.5546875,61.28729889530662,332.6352],[96.543359375000023,61.293963934369117,254.6378],[96.499609375000034,61.31061432499412,270.7812],[96.486523437500011,61.32855866093162,177.3696],[96.503173828125,61.34577057499412,154.1295],[96.55126953125,61.37238190311912,281.8931],[96.564355468750023,61.396502996869117,237.5536],[96.543554687500034,61.406024481244117,189.6907],[96.5087890625,61.40631744999412,192.2798],[96.442773437500023,61.397577215619123,203.5638],[96.418066406250034,61.400018621869123,275.6539],[96.410449218749989,61.41425202030662,232.0961],[96.42431640625,61.444354559369117,210.7128],[96.4462890625,61.478876043744123,146.905],[96.455078125,61.48847077030662,146.541],[96.468017578125,61.49591705936912,163.3902],[96.481835937500023,61.50006744999412,198.1455],[96.493359375000011,61.506219793744123,159.4104],[96.5,61.51947662968162,167.4067],[96.4765625,61.523456121869117,235.6434],[96.44580078125,61.53339264530662,209.6203],[96.42333984375,61.54852936405662,144.9597],[96.42431640625,61.567889715619117,144.9],[96.445214843750023,61.578241278119123,144.7083],[96.50048828125,61.58466217655662,174.8622],[96.519921875000023,61.60138580936912,243.8138],[96.504785156250023,61.605487371869117,169.1924],[96.45849609375,61.60883209843162,289.7677],[96.447265625,61.61310455936912,334.6709],[96.423437500000034,61.62604401249412,251.2058],[96.4140625,61.62872955936912,266.4949],[96.400292968750023,61.635126043744123,155.4263],[96.389062500000023,61.64813873905662,275.9518],[96.3740234375,61.65851471561912,215.6888],[96.3486328125,61.65668366093162,206.5689],[96.32763671875,61.64581940311912,149.3084],[96.289794921875,61.62055084843162,317.2639],[96.2666015625,61.61566803593162,267.8039],[96.1748046875,61.61090729374412,346.8097],[96.08544921875,61.63007233280662,296.4783],[96.02392578125,61.63617584843162,187.564],[96.009033203125,61.642840887494117,448.4815],[95.999414062500023,61.658807684369123,482.3286],[95.994384765625,61.677997137494117,339.5605],[95.992919921875,61.69415924686912,212.7274],[95.982177734375,61.71234772343162,255.6387],[95.95751953125,61.722674871869117,169.6771],[95.929882812500011,61.729852606244123,178.5506],[95.910449218749989,61.73859284061912,172.6689],[95.900976562500034,61.753778387494123,345.4949],[95.905957031250011,61.76654694218162,324.5272],[95.938232421875,61.79315827030662,400.6902],[95.92333984375,61.80695221561912,362.5965],[95.90625,61.81366608280662,371.1342],[95.86875,61.82111237186912,233.4796],[95.811279296875,61.84503815311912,441.2491],[95.778417968750034,61.85175202030662,373.3298],[95.745019531250023,61.86627838749412,278.4881],[95.725488281250023,61.869501043744123,377.8528],[95.499267578125,61.837909246869117,220.5913],[95.410253906250034,61.83698151249412,194.4664],[95.362597656249989,61.84259674686912,217.0784],[95.317285156250023,61.85407135624412,211.4501],[95.249267578125,61.89472077030662,165.1977],[95.211328125000023,61.90497467655662,317.1684],[95.088134765625,61.91486237186912,154.815],[95.00927734375,61.93866608280662,311.838],[94.971923828125,61.95490143436912,119.0212],[94.94970703125,61.960467840619117,154.4018],[94.899121093750011,61.96173737186912,396.6608],[94.875683593750011,61.965106512494117,318.7851],[94.81884765625,61.989032293744117,282.51],[94.800537109375,61.992450262494117,298.1229],[94.72265625,61.99079010624412,355.8204],[94.6845703125,61.982928778119117,341.077],[94.649804687500023,61.965106512494117,292.4482],[94.637451171875,61.95331452030662,318.1623],[94.634033203125,61.94342682499412,333.2117],[94.633203125000023,61.93231842655662,320.416],[94.628662109375,61.91669342655662,179.2382],[94.62158203125,61.90473053593162,271.3655],[94.558691406250034,61.83991119999412,282.0545],[94.556884765625,61.831659246869123,309.7957],[94.563867187500023,61.81549713749412,368.5315],[94.555419921875,61.804461981244117,334.5179],[94.5380859375,61.79926178593162,131.5577],[94.518847656249989,61.800653387494123,116.7642],[94.51171875,61.809930731244123,224.6062],[94.505078125000011,61.81683991093162,290.1754],[94.4990234375,61.82111237186912,404.7228],[94.3837890625,61.836297918744123,413.1428],[94.361718750000023,61.84503815311912,141.6401],[94.319238281250023,61.85285065311912,223.9076],[94.226953125000023,61.83222077030662,117.9058],[94.183007812500023,61.82794830936912,106.4719],[94.11962890625,61.838495184369123,160.5416],[94.076416015625,61.852557684369117,216.5806],[93.998632812500034,61.855829168744123,131.5659],[93.877343750000023,61.88544342655662,83.176],[93.759863281250034,61.89215729374412,197.0515],[93.74169921875,61.88629791874412,241.2426],[93.730712890625,61.873895574994123,366.506],[93.7275390625,61.86249420780662,344.669],[93.726953125000023,61.85028717655662,335.7756],[93.724365234375,61.83539459843162,141.106],[93.703222656250034,61.80329010624412,95.4888],[93.670117187500011,61.78693268436912,148.2914],[93.630859375,61.78095123905662,202.5313],[93.590917968750034,61.780145574994123,240.7373],[93.5751953125,61.783075262494123,343.497],[93.563232421875,61.79108307499412,301.2975],[93.5556640625,61.803094793744123,307.3864],[93.552978515625,61.81806061405662,344.7708],[93.54638671875,61.83454010624412,431.1536],[93.530517578125,61.841180731244123,424.528],[93.29296875,61.84845612186912,60.9536],[93.256103515625,61.84149811405662,120.7254],[93.18603515625,61.80975983280662,103.6595],[93.14892578125,61.800653387494123,151.1843],[93.050097656249989,61.801874090619123,232.067],[92.792578125000034,61.85895416874412,189.543],[92.711669921875,61.91046784061912,310.5862],[92.682714843750034,61.92413971561912,256.5798],[92.641357421875,61.93463776249412,285.1928],[92.511474609375,61.94403717655662,148.8679],[92.477441406250023,61.952411199994117,62.5074],[92.466064453125,61.96906159061912,58.9254],[92.461035156250034,61.99127838749412,58.5822],[92.445898437500034,62.01630280155662,88.6948],[92.408593750000023,62.05792877811912,150.0484],[92.38916015625,62.07416412968162,140.788],[92.260644531250023,62.13678619999412,143.1706],[92.2275390625,62.14325592655662,269.978],[92.206347656249989,62.15143463749412,246.3589],[92.137597656250023,62.19074127811912,70.6804],[92.120996093750023,62.204706121869123,52.4498],[92.120361328125,62.21930573124412,57.7603],[92.126708984375,62.23078034061912,65.1582],[92.1357421875,62.24115631718162,66.3513],[92.142187500000034,62.25250885624412,81.931],[92.14599609375,62.27289459843162,207.8931],[92.141992187500023,62.28156159061912,187.0836],[92.131933593750034,62.28705475468162,96.3753],[92.11767578125,62.297479559369123,45.4578],[92.091796875,62.32269928593162,45.6377],[92.066503906250034,62.34125397343162,121.6464],[92.03857421875,62.348993231244123,91.2714],[92.00439453125,62.34186432499412,74.2232],[91.961035156250034,62.319452215619123,69.0451],[91.8603515625,62.300897528119123,44.392],[91.813378906250023,62.26459381718162,48.2522],[91.781152343750023,62.16181061405662,42.664],[91.730712890625,62.12958405155662,181.5343],[91.552441406250011,62.109149481244117,198.7782],[91.535449218749989,62.10309479374412,108.9311],[91.518945312500023,62.09491608280662,185.206],[91.50537109375,62.08539459843162,253.1506],[91.497314453125,62.074969793744117,51.279],[91.495019531250023,62.063495184369117,232.6732],[91.497314453125,62.02313873905662,128.6924],[91.493359375000011,61.99542877811912,57.4926],[91.482421875,61.97675202030662,59.1102],[91.438867187500023,61.940936590619117,40.7124],[91.431054687500023,61.929803778119123,39.6754],[91.4306640625,61.91815827030662,45.9732],[91.435156250000034,61.89313385624412,95.2967],[91.431640625,61.880389715619117,76.1133],[91.422753906250023,61.868670965619117,114.0491],[91.401123046875,61.84845612186912,39.6816],[91.408398437500011,61.84162018436912,39.3796],[91.401123046875,61.83539459843162,61.3544],[91.42529296875,61.81427643436912,102.1677],[91.449951171875,61.80255768436912,36.5],[91.468994140625,61.78742096561912,43.416],[91.476757812500011,61.75592682499412,37.4878],[91.474853515625,61.731708074994117,179.904],[91.477441406250023,61.717547918744117,35.1905],[91.496484375000023,61.70600006718162,187.7447],[91.50732421875,61.693963934369123,57.4711],[91.515625,61.680438543744117,255.712],[91.518310546875,61.670917059369117,267.5215],[91.494873046875,61.64996979374412,147.9744],[91.40576171875,61.661151434369117,244.2766],[91.37060546875,61.65326569218162,104.8944]]}}