{"type":"Feature","properties":{"featurecla":"River","scalerank":7,"rivernum":428,"dissolve":"428River","name":"Nizhnyaya1","name_alt":null,"note":null,"min_zoom":6.0,"strokeweig":0.3,"name_en":"Nizhnyaya Taymyra","min_label":7.0},
"geometry":{"type": "LineString","coordinates": [[99.423925781250034,75.793475653119117,12.3715],[99.391699218750034,75.79096100468162,7.1331],[99.346923828125,75.79096100468162,24.004],[99.3046875,75.781024481244117,3.5477],[99.275,75.77106354374412,9.9779],[99.254980468750034,75.75617096561912,-1.6319],[99.267578125,75.743768621869123,-1.627],[99.284912109375,75.73383209843162,-1.5785],[99.29736328125,75.72638580936912,-0.231],[99.2998046875,75.71649811405662,2.1609],[99.2724609375,75.70905182499412,6.2964],[99.2451171875,75.69415924686912,11.3215],[99.220312500000034,75.684198309369123,19.1558],[99.205468750000023,75.66681549686912,16.889],[99.17822265625,75.649432684369117,14.9047],[99.165722656250011,75.624627996869123,72.327],[99.1533203125,75.59979889530662,30.1382],[99.1484375,75.57990143436912,13.4111],[99.1533203125,75.56500885624412,7.8742],[99.170654296875,75.55512116093162,6.822],[99.203027343750023,75.54767487186912,22.1065],[99.254980468750034,75.537713934369123,72.1627],[99.324609375000023,75.53278229374412,98.6007],[99.371777343750011,75.522821356244123,103.4552],[99.4189453125,75.51288483280662,95.2567],[99.463623046875,75.507928778119123,70.119],[99.518310546875,75.495477606244123,85.8277],[99.548095703125,75.49054596561912,60.0063],[99.600195312500034,75.48309967655662,73.3505],[99.64990234375,75.48309967655662,63.8058],[99.689550781250034,75.480585028119123,55.2859],[99.751708984375,75.47809479374412,57.6238],[99.77392578125,75.470721746869117,42.8873],[99.783935546875,75.46076080936912,29.8967],[99.771484375,75.443377996869117,4.8722],[99.756591796875,75.43341705936912,6.2789],[99.749121093750034,75.42352936405662,24.3132],[99.764062500000023,75.41107819218162,5.6191],[99.77392578125,75.39618561405662,6.9797],[99.786376953125,75.37140534061912,2.2118],[99.808691406250034,75.36395905155662,24.6304],[99.850976562500023,75.34906647343162,94.6357],[99.878320312500023,75.341571356244117,53.2048],[99.910546875000023,75.33417389530662,31.5647],[99.94287109375,75.326678778119117,32.18],[99.955322265625,75.32172272343162,13.3015],[99.995019531250023,75.31427643436912,36.3635],[100.02724609375002,75.301874090619123,3.5355],[100.042236328125,75.28949616093162,34.051],[100.05712890625,75.27704498905662,76.8056],[100.05712890625,75.26459381718162,57.9703],[100.05712890625,75.252215887494117,28.802],[100.064453125,75.23981354374412,93.5152],[100.08193359375002,75.23236725468162,50.1847],[100.10664062500001,75.22492096561912,14.0553],[100.14638671875002,75.21491119999412,55.9347],[100.16884765625002,75.20746491093162,82.0209],[100.191162109375,75.19013092655662,156.6964],[100.19570312500002,75.16864655155662,1.5339]]}}