{"type":"Feature","properties":{"featurecla":"River","scalerank":6,"rivernum":269,"dissolve":"269River","name":"Vilyuy1","name_alt":null,"note":null,"min_zoom":5.0,"strokeweig":0.2,"name_en":"Vilyuy","min_label":6.0},
"geometry":{"type": "LineString","coordinates": [[103.516357421875,65.994012762494123,507.5304],[103.56064453125003,66.00995514530662,467.8631],[103.60986328125,66.01703522343162,449.9887],[103.730712890625,66.01276276249412,439.576],[103.74843750000002,66.008417059369123,435.9927],[103.76357421875002,66.000604559369123,434.8424],[103.777587890625,65.987811590619117,444.6786],[103.779541015625,65.983514715619123,436.8034],[103.782470703125,65.97077057499412,438.1567],[103.784423828125,65.966669012494123,433.5424],[103.79453125000003,65.959100653119123,427.3959],[103.80380859375003,65.955926824994123,427.9677],[103.81357421875003,65.95392487186912,430.159],[103.83828125000002,65.945184637494123,441.0173],[103.88515625000002,65.93537018436912,460.4413]]}}