{"type":"Feature","properties":{"featurecla":"River","scalerank":7,"rivernum":383,"dissolve":"383River","name":"Verkhnyaya2","name_alt":null,"note":null,"min_zoom":6.0,"strokeweig":0.25,"name_en":"Verkhnyaya Taymyra","min_label":7.0},
"geometry":{"type": "LineString","coordinates": [[95.75341796875,73.192401434369117,13.0533],[95.824609375000023,73.20917389530662,13.9416],[95.848876953125,73.21076080936912,13.4019],[95.88134765625,73.21771881718162,4.4296],[95.875244140625,73.23602936405662,13.4899],[95.860253906250023,73.26129791874412,10.9397],[95.86572265625,73.28925202030662,12.0319],[95.904052734375,73.31293366093162,13.9649],[95.99853515625,73.32660553593162,13.7302],[96.040625,73.34052155155662,19.8482],[96.05908203125,73.35419342655662,27.9883],[96.06396484375,73.366229559369117,35.4995],[96.057226562500034,73.37897369999412,10.0671],[96.040625,73.39508698124412,2.5331],[96.074121093750023,73.43964264530662,16.7756],[96.0830078125,73.457147528119123,10.4386],[96.064697265625,73.471063543744123,5.6962],[96.045019531250034,73.48187897343162,10.3112],[96.0234375,73.48883698124412,4.5574],[96.0,73.491327215619123,5.2569],[95.940673828125,73.49079010624412,25.6807],[95.9111328125,73.49664948124412,26.3952],[95.889892578125,73.51239655155662,43.0585],[95.90966796875,73.52387116093162,13.7575],[95.95654296875,73.52912018436912,13.4312],[96.00439453125,73.54437897343162,13.9925],[96.088476562500034,73.55341217655662,11.6451],[96.208984375,73.604120184369123,23.6508],[96.252343750000023,73.61481354374412,8.2959],[96.509667968750023,73.62348053593162,4.3798],[96.575097656250023,73.641473699994123,2.8653],[96.657617187500023,73.653680731244123,7.2579],[96.67822265625,73.66266510624412,8.0846],[96.68701171875,73.673602606244117,13.8012],[96.69873046875,73.698114324994123,12.5331],[96.712304687500023,73.71039459843162,5.9965],[96.732812500000023,73.719501043744117,12.5142],[96.963476562500034,73.77338287968162,28.494],[97.099316406250011,73.827264715619123,4.0883],[97.123144531250034,73.85504791874412,5.353],[97.1240234375,73.86566803593162,8.0484],[97.121484375000023,73.876581121869123,5.637],[97.121679687500034,73.888544012494123,4.6906],[97.130615234375,73.902215887494123,5.4358],[97.148681640625,73.913690496869123,5.3148],[97.304101562500023,73.94196198124412,40.6454],[97.582128906250034,73.92328522343162,27.1375],[97.597753906250034,73.924676824994123,26.8405],[97.707617187500034,73.95221588749412,78.9658],[97.719628906250023,73.95746491093162,80.8721],[97.720898437500011,73.974481512494123,51.4146],[97.709716796875,73.99457428593162,32.5245],[97.691699218749989,74.01141998905662,45.8567],[97.671875,74.01886627811912,28.7417],[97.693115234375,74.046258856244123,7.8653],[97.733300781250023,74.066180731244117,10.5992],[97.81396484375,74.08942291874412,26.1335],[97.86865234375,74.09723541874412,33.7264],[97.98291015625,74.09821198124412,7.3342],[98.03466796875,74.111688543744123,10.5814],[98.125878906250023,74.148309637494123,3.4382],[98.172949218750034,74.15900299686912,8.2538],[98.3955078125,74.17096588749412,13.4566],[98.626220703125,74.11139557499412,5.3142],[98.651757812500023,74.108270574994123,6.0954]]}}