{"type":"Feature","properties":{"featurecla":"River","scalerank":8,"rivernum":748,"dissolve":"748River","name":"Mana","name_alt":null,"note":null,"min_zoom":7.0,"strokeweig":0.15,"name_en":"Mana","min_label":8.0},
"geometry":{"type": "LineString","coordinates": [[95.50732421875,54.34638092655662,1350.6183],[95.51123046875,54.37189362186912,1065.698],[95.520605468750034,54.386493231244117,1156.1614],[95.531835937500034,54.39887116093162,1136.2213],[95.54150390625,54.41779205936912,1036.2246],[95.545654296875,54.43720123905662,1158.957],[95.54833984375,54.49664948124412,1307.7129]]}}