{"type":"Feature","properties":{"featurecla":"River","scalerank":8,"rivernum":749,"dissolve":"749River","name":"Popigay","name_alt":null,"note":null,"min_zoom":7.0,"strokeweig":0.15,"name_en":"Popigay","min_label":8.0},
"geometry":{"type": "LineString","coordinates": [[110.88330078125,70.880731512494123,449.9427],[110.9228515625,70.884540106244117,423.8452],[111.174072265625,70.96527741093162,370.6604],[111.500244140625,71.01227448124412,269.7287],[111.56162109375003,71.03156159061912,253.1911],[111.69765625000002,71.043817449994123,231.161],[111.77871093750002,71.06281159061912,153.9088],[111.81552734375003,71.07684967655662,167.8129],[111.85664062500001,71.085809637494123,177.856],[111.947021484375,71.08710358280662,148.9499],[111.98681640625,71.100458074994123,191.6805],[111.99169921875,71.106952215619117,196.1147],[111.999267578125,71.12470123905662,135.4178],[112.00390625,71.12836334843162,162.0114],[112.013916015625,71.125848699994123,152.6688],[112.03769531250003,71.11554596561912,127.3413],[112.048828125,71.114618231244123,127.4678],[112.083251953125,71.11859772343162,135.3684],[112.159423828125,71.11371491093162,171.8163],[112.242919921875,71.095331121869123,112.3446],[112.26123046875,71.09418366093162,113.6288],[112.27626953125002,71.097528387494123,90.1801],[112.27919921875002,71.105487371869117,85.5531],[112.27822265625002,71.114520574994117,97.4943],[112.28164062500002,71.12152741093162,121.5163],[112.306396484375,71.12555573124412,88.4447],[112.3779296875,71.12897369999412,76.3688],[112.39765625000001,71.141961981244123,72.6654],[112.39599609375,71.15827057499412,128.8872],[112.38144531250003,71.16937897343162,108.5358],[112.36337890625003,71.178583074994123,108.1957],[112.3505859375,71.18915436405662,135.7761],[112.34511718750002,71.20966217655662,105.0808],[112.35429687499999,71.221698309369117,111.8972],[112.36806640625002,71.23126862186912,112.6381],[112.37656250000003,71.244403387494117,92.8338],[112.369873046875,71.262567449994123,82.0262],[112.34931640625001,71.27594635624412,102.8238],[112.323974609375,71.28388092655662,126.315],[112.302734375,71.28595612186912,123.5425],[112.28671875000003,71.28204987186912,100.6672],[112.27197265625,71.275897528119117,85.8247],[112.257080078125,71.27216217655662,101.7959],[112.240478515625,71.27570221561912,116.2957],[112.19912109375002,71.29279205936912,103.6928],[112.2060546875,71.303485418744117,117.0552],[112.20429687500001,71.310419012494123,152.9906],[112.196533203125,71.315545965619123,177.7554],[112.18544921875002,71.32074616093162,164.8687],[112.153564453125,71.33112213749412,112.4494],[112.13925781250003,71.33808014530662,68.7876],[112.14794921875,71.341180731244123,104.8282],[112.17578125,71.34747955936912,89.3698],[112.172119140625,71.361932684369123,85.1797],[112.15214843749999,71.377948309369117,129.7473],[112.130859375,71.38898346561912,120.9798],[112.06396484375,71.40753815311912,144.2162],[111.85400390625,71.43109772343162,53.6477],[111.8291015625,71.443622137494117,39.4857],[111.8701171875,71.467547918744117,38.8869],[111.89013671875,71.47211334843162,35.6612],[111.93173828125003,71.46527741093162,32.5561],[111.95263671875,71.464129949994117,35.7712],[111.95751953125,71.46662018436912,36.6143],[111.95986328125002,71.475213934369123,35.9198],[111.966064453125,71.47711823124412,31.3396],[111.99423828125003,71.475946356244123,34.7316],[112.00849609375001,71.47687409061912,43.7223],[112.02099609375,71.480829168744123,38.884],[112.0263671875,71.48932526249412,34.3175],[112.01699218750002,71.497430731244123,37.6157],[112.00283203125002,71.50507233280662,37.4402],[111.99365234375,71.51251862186912,36.9237],[112.00732421875,71.51874420780662,37.1609],[111.96464843749999,71.52057526249412,41.4594],[111.91464843750003,71.52936432499412,33.826],[111.87656250000003,71.549823309369117,44.4255],[111.8701171875,71.58698151249412,31.7793],[111.8701171875,71.59186432499412,31.7811],[111.86953125000002,71.59442780155662,29.3071],[111.874267578125,71.59674713749412,33.9471],[111.890625,71.60065338749412,34.2465],[111.90224609375002,71.60016510624412,38.0369],[111.91542968750002,71.597040106244123,40.1112],[111.92822265625,71.59577057499412,38.3462],[111.93896484375,71.60065338749412,39.1026],[111.93789062500002,71.61383698124412,52.5395],[111.91640625000002,71.62482330936912,46.4688],[111.8701171875,71.641620184369117,32.6576],[111.90029296875002,71.663690496869123,31.7493],[111.9111328125,71.669549871869123,34.7238],[111.90419921875002,71.683465887494123,35.2014],[111.892578125,71.69013092655662,32.553],[111.86328125,71.69684479374412,28.7477],[111.83056640625,71.709247137494117,30.0568],[111.81845703125003,71.71674225468162,30.5935],[111.80488281250001,71.72821686405662,30.2408],[111.77001953125,71.745868231244117,28.0046],[111.2841796875,71.82721588749412,22.6353],[111.27597656250003,71.83148834843162,22.896],[111.2568359375,71.850213934369123,42.9175],[111.242919921875,71.85455963749412,46.0828],[111.17148437500003,71.862323309369117,21.4126],[111.15078125000002,71.868182684369117,23.8306],[111.09609375000002,71.896112371869123,31.9625],[111.07470703125,71.90204498905662,41.8758],[110.96083984375002,71.91766998905662,47.7237],[110.86269531250002,71.911493231244123,40.9714],[110.81494140625,71.92279694218162,54.6223],[110.80927734375001,71.92706940311912,51.7797],[110.7998046875,71.93939850468162,45.794],[110.79443359375,71.94391510624412,54.4714],[110.78330078125003,71.94684479374412,62.2366],[110.7568359375,71.94782135624412,47.4139],[110.74609375,71.95075104374412,49.6919],[110.73232421875002,71.96100494999412,46.468],[110.732421875,71.96771881718162,50.5548],[110.73505859375001,71.975213934369123,67.5641],[110.72929687499999,71.98798248905662,24.5293],[110.69287109375,72.01825592655662,17.2933]]}}