{"type":"Feature","properties":{"featurecla":"River","scalerank":4,"rivernum":145,"dissolve":"145River","name":"Verkhniy2","name_alt":null,"note":null,"min_zoom":4.0,"strokeweig":0.4,"name_en":"Verkhniy Yenisey","min_label":5.0},
"geometry":{"type": "LineString","coordinates": [[92.998046875,58.100116278119117,74.0],[92.971289062500034,58.05829498905662,83.9147],[92.986230468750023,58.03156159061912,97.4095],[93.027587890625,58.01837799686912,107.7186],[93.080078125,58.01752350468162,106.5242],[93.130615234375,58.024530340619123,117.737],[93.154687500000023,58.020868231244123,79.9732],[93.168847656250023,58.003924871869117,117.5511],[93.168212890625,57.98273346561912,124.0625],[93.159765625000034,57.97016022343162,177.0466],[93.155859375000034,57.957391668744116,155.3817],[93.168847656250023,57.93561432499412,98.6271],[93.182031250000023,57.92304108280662,80.0],[93.21142578125,57.90058014530662,80.5],[93.224023437500023,57.887811590619116,85.7616],[93.23388671875,57.87274811405662,137.6516],[93.241943359375,57.85565827030662,81.5],[93.248144531250034,57.83746979374412,101.6339],[93.251953125,57.81891510624412,109.1992],[93.254638671875,57.76886627811912,123.5056],[93.271240234375,57.702411199994117,91.9404],[93.275292968750023,57.65314362186912,94.6759],[93.28369140625,57.63019440311912,89.3902],[93.297460937500034,57.610126043744117,87.5],[93.316796875000023,57.58954498905662,100.2024],[93.326562500000023,57.563739324994117,88.5],[93.310791015625,57.54169342655662,125.0594],[93.265625,57.51105377811912,122.5502],[93.251367187500023,57.48590729374412,115.7979],[93.263671875,57.44061920780662,128.2221],[93.255078125000011,57.418573309369116,92.0],[93.2412109375,57.39545319218162,118.5001],[93.24072265625,57.37079498905662,92.0],[93.25,57.346795965619116,165.2465],[93.265625,57.32550690311912,130.807],[93.288671875000034,57.305438543744117,216.6418],[93.318457031250034,57.287958074994116,208.716],[93.350683593750034,57.27558014530662,160.2859],[93.40185546875,57.267840887494117,92.5],[93.4125,57.259881903119116,115.9722],[93.429443359375,57.236688543744116,160.237],[93.448339843750034,57.22308991093162,175.9046],[93.450878906250011,57.216913153119116,173.5462],[93.449951171875,57.20197174686912,155.5105],[93.4375,57.17621491093162,101.0313],[93.435302734375,57.16132233280662,146.1677],[93.446533203125,57.154803778119117,109.5163],[93.454003906250023,57.14874909061912,97.5],[93.45947265625,57.13495514530662,115.3385],[93.462988281250034,57.11994049686912,174.5367],[93.464111328125,57.110126043744117,135.1293],[93.458593750000034,57.08026764530662,160.7315],[93.443359375,57.06134674686912,159.0369],[93.39599609375,57.031268621869117,195.4495],[93.3798828125,57.014032293744116,168.6441],[93.374902343750023,57.01019928593162,103.4877],[93.381103515625,56.99835846561912,217.8149],[93.398535156250034,56.977167059369116,253.0476],[93.402148437499989,56.966083074994117,262.0414],[93.403417968750034,56.953485418744116,123.2511],[93.406982421875,56.942499090619116,152.5287],[93.412207031250034,56.93305084843162,194.8556],[93.4189453125,56.92511627811912,250.7314],[93.450585937500023,56.89508698124412,175.1296],[93.46044921875,56.878778387494116,184.9008],[93.464111328125,56.85651276249412,111.3491],[93.4736328125,56.833612371869116,122.2802],[93.49658203125,56.81842682499412,109.5284],[93.525634765625,56.809442449994116,124.6071],[93.552978515625,56.80536530155662,127.6835],[93.5869140625,56.804803778119116,133.7645],[93.602929687500023,56.80121491093162,179.9606],[93.615136718750023,56.79108307499412,107.5],[93.618896484375,56.78021881718162,107.5],[93.614501953125,56.77289459843162,107.5],[93.593994140625,56.75690338749412,108.0],[93.602636718750034,56.74518463749412,116.1711],[93.635498046875,56.715936590619116,131.592],[93.664257812500011,56.680926824994117,145.5955],[93.672753906250023,56.67499420780662,149.5329],[93.6845703125,56.672381903119117,134.8568],[93.731201171875,56.65387604374412,142.2171],[93.745507812500023,56.643329168744117,146.8128],[93.75390625,56.63214752811912,152.8733],[93.76025390625,56.620721746869116,153.593],[93.768652343750034,56.609491278119116,145.4055],[93.774121093750011,56.598504949994116,150.2431],[93.784082031250023,56.56098053593162,148.2873],[93.78564453125,56.54840729374412,151.2407],[93.782617187500023,56.530389715619116,113.0],[93.774023437500034,56.521014715619117,114.8535],[93.71435546875,56.49787018436912,114.0],[93.69921875,56.48956940311912,114.0],[93.686718750000011,56.47943756718162,116.4128],[93.685644531250034,56.46845123905662,123.0134],[93.703857421875,56.421161199994117,115.5],[93.685937500000023,56.410028387494116,121.6023],[93.63134765625,56.390399481244117,145.7046],[93.611328125,56.38703034061912,118.8327],[93.595312500000034,56.376336981244116,117.5],[93.592382812500034,56.32941315311912,342.8395],[93.5771484375,56.318719793744116,201.0804],[93.520263671875,56.32074616093162,126.5439],[93.492919921875,56.317987371869116,121.2505],[93.457617187500034,56.297870184369117,120.5],[93.438574218750034,56.290399481244116,132.8714],[93.422558593750011,56.27985260624412,121.25],[93.415722656250011,56.260370184369116,128.9033],[93.416894531250023,56.23334381718162,122.5],[93.415136718750034,56.217792059369117,128.2461],[93.403564453125,56.20892975468162,134.264],[93.278710937500023,56.174676824994116,126.4968],[93.191162109375,56.162958074994116,241.6196],[93.168847656250023,56.15363190311912,135.5495],[93.158203125,56.139667059369117,141.619],[93.163671875000034,56.128290106244116,137.3966],[93.173583984375,56.114276434369117,137.6692],[93.17626953125,56.092157293744116,130.6141],[93.163818359375,56.075311590619116,147.6126],[93.140625,56.062616278119116,137.4413],[93.1181640625,56.06049225468162,141.4797],[93.10791015625,56.07514069218162,139.863],[93.094628906250023,56.08637116093162,137.7843],[93.06494140625,56.07990143436912,131.5],[93.0185546875,56.05805084843162,141.4286],[92.977783203125,56.03204987186912,133.625],[92.928955078125,56.01312897343162,135.0],[92.708593750000034,55.974627996869117,137.5],[92.466796875,55.96185944218162,236.4832],[92.455322265625,55.96381256718162,297.6127],[92.428808593750034,55.97321198124412,489.8186],[92.415283203125,55.97614166874412,509.0482],[92.398681640625,55.976678778119116,433.4418],[92.367773437500034,55.97296784061912,176.3871],[92.353271484375,55.96930573124412,142.5],[92.316699218749989,55.95172760624412,156.8584],[92.2802734375,55.922479559369116,232.0],[92.2529296875,55.88727448124412,232.0],[92.244042968750023,55.85199616093162,237.1897],[92.2490234375,55.83588287968162,263.2195],[92.260644531250023,55.817987371869116,254.9633],[92.276562500000011,55.803338934369116,232.0],[92.3134765625,55.79157135624412,475.7321],[92.35693359375,55.76459381718162,232.0],[92.381103515625,55.75641510624412,232.0],[92.431884765625,55.75141022343162,232.0],[92.458740234375,55.74469635624412,300.5103],[92.470605468750023,55.732782293744116,263.8403],[92.473242187500034,55.71124909061912,266.6747],[92.47998046875,55.691180731244117,277.9052],[92.497167968750034,55.65399811405662,302.086],[92.50390625,55.62897369999412,358.3549],[92.500097656250034,55.60993073124412,418.3723],[92.4873046875,55.59320709843162,336.5667],[92.466796875,55.57514069218162,295.6088],[92.453222656250034,55.55597565311912,323.6685],[92.44677734375,55.53485748905662,232.0],[92.436279296875,55.52667877811912,232.0],[92.422558593750011,55.51801178593162,232.0],[92.408398437500011,55.50311920780662,232.0]]}}