{"type":"Feature","properties":{"featurecla":"River","scalerank":5,"rivernum":181,"dissolve":"181River","name":"Lower4","name_alt":"Nizhnyaya Tunguska","note":null,"min_zoom":4.7,"strokeweig":0.3,"name_en":"Lower Tunguska","min_label":5.7},
"geometry":{"type": "LineString","coordinates": [[87.961181640625,65.775995184369123,8.4399],[87.956445312500023,65.775995184369123,6.2776],[87.989013671875,65.783710028119117,14.5418],[88.0498046875,65.80951569218162,46.9338],[88.1884765625,65.84808991093162,76.6704],[88.224365234375,65.84943268436912,71.7952],[88.314453125,65.831805731244117,129.1009],[88.346435546875,65.83124420780662,123.1707],[88.376220703125,65.84052155155662,112.3698],[88.398193359375,65.85919830936912,6.7993],[88.418212890625,65.88153717655662,6.7548],[88.442285156250023,65.90167877811912,116.5036],[88.472070312500023,65.91657135624412,172.821],[88.505273437500023,65.92792389530662,9.3091],[88.807861328125,65.97650787968162,95.498],[88.946533203125,65.982294012494123,217.9544],[89.0556640625,65.969989324994117,134.8791],[89.072167968750023,65.964862371869117,163.9977],[89.1142578125,65.93976471561912,190.2745],[89.13525390625,65.931512762494123,154.6334],[89.201562500000023,65.91864655155662,244.4748],[89.26025390625,65.89264557499412,404.6959],[89.261328125000034,65.88727448124412,184.4537],[89.265527343750023,65.88593170780662,157.5778],[89.301171875000023,65.86249420780662,168.185],[89.4619140625,65.79682037968162,166.3666],[89.533300781250034,65.77655670780662,95.4687],[89.634033203125,65.769061590619117,171.5653],[89.654296875,65.764520574994123,186.1022],[89.723730468750034,65.738397528119123,150.2371],[89.802978515625,65.725604559369117,166.5957],[89.843457031250011,65.71405670780662,245.2107],[89.88232421875,65.697772528119117,194.3087],[90.004199218749989,65.67047760624412,438.0435],[90.038964843750023,65.650653387494117,46.5828],[90.05810546875,65.61298248905662,130.653],[90.041015625,65.57953522343162,53.7328],[89.97802734375,65.52289459843162,152.8134],[89.96923828125,65.507342840619117,109.6897],[89.965917968750034,65.49066803593162,57.1097],[89.97802734375,65.33612702030662,136.4656],[89.982177734375,65.316766668744123,129.5708],[90.011962890625,65.245477606244123,71.6116],[90.015527343750023,65.226922918744123,27.1017],[90.01220703125,65.201288153119123,29.9394],[89.997314453125,65.15021393436912,30.6344],[90.000244140625,65.125018621869117,149.0536],[90.02099609375,65.10162994999412,212.1568],[90.05078125,65.09503815311912,188.5104],[90.114843750000034,65.099237371869123,199.8248],[90.148681640625,65.096551824994123,294.52],[90.181884765625,65.08978912968162,194.8442],[90.207421875000023,65.07733795780662,401.2881],[90.26806640625,65.018182684369123,228.6695],[90.292724609375,65.00275299686912,137.3939],[90.304101562500023,64.99310944218162,316.9904],[90.310156250000034,64.98102448124412,354.9514],[90.309960937500023,64.970233465619117,257.1602],[90.307031250000023,64.95795319218162,99.8086],[90.298095703125,64.935907293744123,47.2571],[90.28076171875,64.90692780155662,60.8019],[90.274658203125,64.890985418744123,129.9958],[90.276953125000034,64.87506744999412,271.7695],[90.287695312500034,64.85932037968162,316.4277],[90.3017578125,64.846551824994123,354.8308],[90.318261718750023,64.83698151249412,319.5065],[90.370898437499989,64.82086823124412,198.013],[90.397851562500023,64.80438873905662,38.859],[90.406835937500034,64.801532293744117,37.9653],[90.421289062500023,64.788104559369117,44.4432],[90.440673828125,64.784686590619117,43.3162],[90.50244140625,64.79547760624412,391.1988],[90.715722656250023,64.77838776249412,228.1852],[90.732617187500011,64.77301666874412,235.1283],[90.750244140625,64.762713934369117,279.3491],[90.781494140625,64.73700592655662,233.8489],[90.799072265625,64.72675202030662,170.2352],[90.847753906250034,64.70807526249412,140.6501],[90.862207031250023,64.69953034061912,122.0781],[90.873242187500011,64.68720123905662,153.1877],[90.88916015625,64.656756903119117,44.5285],[90.900292968750023,64.64337799686912,96.9594],[90.9150390625,64.63300202030662,136.7496],[90.992431640625,64.59723541874412,292.8949],[91.02978515625,64.591180731244123,198.3573],[91.042724609375,64.587420965619117,289.1945],[91.054785156250034,64.58173248905662,380.5511],[91.076269531250034,64.56354401249412,394.7833],[91.084228515625,64.558465887494123,299.2869],[91.099023437500023,64.55316803593162,186.7797],[91.286523437500023,64.51361725468162,219.0568],[91.305078125000023,64.504754949994123,125.5235],[91.314697265625,64.50165436405662,139.5557],[91.3896484375,64.49738190311912,230.3199],[91.45556640625,64.48371002811912,274.2006],[91.47509765625,64.482440496869117,312.6712],[91.66552734375,64.498553778119117,289.5104],[91.890625,64.457538153119117,126.5369],[91.926171875000023,64.43915436405662,259.9952],[91.97021484375,64.42731354374412,191.1935],[92.03662109375,64.42169830936912,272.09],[92.081445312500023,64.411249090619123,232.6676]]}}