{"type":"Feature","properties":{"featurecla":"River","scalerank":8,"rivernum":841,"dissolve":"841River","name":"Chuna3","name_alt":null,"note":null,"min_zoom":7.0,"strokeweig":0.3,"name_en":"Chuna","min_label":8.0},
"geometry":{"type": "LineString","coordinates": [[95.471435546875,57.73248932499412,181.845],[95.30712890625,57.73932526249412,191.7573],[95.192578125000011,57.76947662968162,200.4278],[95.088623046875,57.77570221561912,190.0924],[94.900390625,57.765008856244116,133.8755],[94.861523437500011,57.76874420780662,149.3013],[94.736718750000023,57.79999420780662,115.2555],[94.478417968750023,57.787127996869117,224.1805],[94.393652343750034,57.796258856244116,129.8055],[94.349023437500023,57.80756256718162,104.8631],[94.316992187500034,57.82465241093162,94.0305],[94.311279296875,57.83417389530662,93.8173],[94.30810546875,57.85663483280662,103.0248],[94.3037109375,57.86591217655662,104.7716],[94.291113281250034,57.878192449994117,117.2675],[94.28076171875,57.885126043744116,120.3584],[94.25244140625,57.896991278119117,101.8999],[94.229394531250023,57.91046784061912,100.4253],[94.222949218749989,57.92377350468162,99.9176],[94.222363281250011,57.94086334843162,106.807],[94.2177734375,57.96588776249412,105.4591],[94.205175781250034,57.98517487186912,129.5427],[94.185546875,57.99970123905662,135.953],[94.055419921875,58.06024811405662,130.8937],[94.018847656249989,58.084588934369123,91.7394],[93.984375,58.122919012494123,104.7433]]}}