{"type":"Feature","properties":{"featurecla":"River","scalerank":6,"rivernum":343,"dissolve":"343River","name":"Kheta1","name_alt":null,"note":null,"min_zoom":5.0,"strokeweig":0.25,"name_en":"Kheta","min_label":6.0},
"geometry":{"type": "LineString","coordinates": [[96.006591796875,70.845965887494117,23.1179],[96.094921875000011,70.843768621869117,40.6132],[96.14697265625,70.83124420780662,21.0786],[96.212158203125,70.82416412968162,18.5752],[96.286376953125,70.83685944218162,20.941],[96.389550781250023,70.84125397343162,13.5936],[96.465234375000023,70.856317449994123,40.3877],[97.305419921875,70.85053131718162,15.0654],[97.36279296875,70.839715887494123,20.8364],[97.490234375,70.79645416874412,12.4285],[97.533935546875,70.79132721561912,27.4584],[97.818115234375,70.802362371869123,9.4828],[97.841406250000034,70.809344793744117,10.3872],[97.859619140625,70.82172272343162,8.1233],[97.86181640625,70.83197662968162,8.379],[97.85400390625,70.85980866093162,17.5054],[97.856201171875,70.87323639530662,16.7836],[97.886621093750023,70.89203522343162,14.6807],[98.098046875000023,70.93060944218162,9.7669],[98.113476562500011,70.938739324994117,8.1909],[98.125683593750011,70.949579168744123,7.2223],[98.1298828125,70.95441315311912,16.2918],[98.13427734375,70.96234772343162,13.6871],[98.134765625,70.973407293744117,15.6343],[98.124609375000034,70.97601959843162,14.8911],[98.111523437500011,70.977069403119117,11.1612],[98.103271484375,70.98309967655662,6.1981],[98.115234375,71.00360748905662,7.6944],[98.175390625000034,71.04779694218162,8.3338],[98.17529296875,71.06903717655662,9.7294],[98.156152343750023,71.078143621869117,14.8505],[98.131445312500034,71.07977936405662,7.2437],[98.106054687500034,71.076434637494117,6.7286],[98.084375,71.070672918744123,7.9991],[98.064355468750023,71.07074616093162,7.4906],[98.036523437500023,71.076532293744123,14.6834],[98.016796875000011,71.085809637494123,11.6247],[98.020751953125,71.09638092655662,11.0128],[98.041259765625,71.104266668744117,5.3563],[98.082910156250023,71.11493561405662,7.5336],[98.103271484375,71.123407293744123,6.3129],[98.110058593750011,71.13324616093162,16.2314],[98.105566406250034,71.14533112186912,14.4311],[98.089648437499989,71.16803619999412,11.2926],[98.083984375,71.18134186405662,12.9764],[98.08203125,71.191522528119123,7.6731],[98.087597656250011,71.199969793744117,24.2382],[98.104882812500023,71.20783112186912,27.3202],[98.128662109375,71.21124909061912,25.137],[98.150634765625,71.206903387494123,13.9496],[98.192138671875,71.18854401249412,13.5354],[98.245361328125,71.177850653119123,8.5561],[98.349853515625,71.19196198124412,15.5534],[98.45556640625,71.176776434369117,11.8127],[98.769238281250011,71.181024481244123,12.6335],[98.8095703125,71.17145416874412,11.1667],[98.871337890625,71.143915106244123,13.2879],[98.903710937500023,71.140741278119123,11.4363],[99.0126953125,71.16913483280662,11.4491],[99.168212890625,71.181512762494123,10.7214],[99.234082031250011,71.21588776249412,8.3606],[99.292089843750034,71.26715729374412,33.4696],[99.316796875000023,71.28131744999412,12.8208],[99.410449218749989,71.30756256718162,11.0267],[99.439697265625,71.32575104374412,1.0],[99.468457031250011,71.358661199994117,10.7954],[99.473730468750034,71.367303778119123,9.6779],[99.471777343750034,71.37506744999412,7.9291],[99.461328125000023,71.39313385624412,50.5691],[99.460058593750034,71.40143463749412,48.9976],[99.478613281250034,71.420917059369117,20.7418],[99.5556640625,71.448602606244123,8.4874]]}}