{"type":"Feature","properties":{"featurecla":"River","scalerank":6,"rivernum":343,"dissolve":"343River","name":"Kheta","name_alt":null,"note":null,"min_zoom":5.0,"strokeweig":0.2,"name_en":"Kheta","min_label":6.0},
"geometry":{"type": "LineString","coordinates": [[92.219921875000011,69.98663971561912,1029.1902],[92.435791015625,69.99286530155662,838.1044],[92.457421875000023,69.989618231244123,863.9902],[92.50390625,69.975604559369117,877.8379],[93.564160156250011,69.905633856244123,830.8335],[93.638427734375,69.88910553593162,768.2242],[93.742089843750023,69.87982819218162,850.1376],[93.752539062500034,69.87152741093162,745.7208],[93.768652343750034,69.84577057499412,576.7358],[93.788818359375,69.83527252811912,480.6438],[93.814355468750023,69.83515045780662,338.8902],[93.865234375,69.84198639530662,682.9335],[94.2763671875,69.83795807499412,484.8415],[94.426855468750034,69.86249420780662,705.0266],[94.60009765625,69.86212799686912,526.646],[94.655957031250011,69.871112371869117,620.3137],[94.717480468750011,69.88873932499412,198.1963],[94.73876953125,69.89093659061912,159.1952],[94.75390625,69.89594147343162,159.53],[94.799902343750034,69.931903387494117,317.8176],[94.819726562500023,69.940448309369117,349.0778],[94.882519531250011,69.953631903119117,651.4727],[94.951904296875,69.977801824994117,577.1891],[94.99365234375,69.984247137494123,591.5109],[95.068359375,70.01911041874412,453.4397],[95.167871093750023,70.04718659061912,707.8986],[95.235253906250023,70.076288153119123,190.5889],[95.2626953125,70.09552643436912,138.8184],[95.30859375,70.118280340619123,436.4652],[95.365917968750011,70.12470123905662,398.6736],[95.593994140625,70.120379949994117,250.9964],[95.6162109375,70.126483465619117,205.1421],[95.694580078125,70.16754791874412,172.352],[95.70556640625,70.174920965619123,111.1869],[95.714111328125,70.18427155155662,86.7158],[95.730224609375,70.211053778119123,89.3691],[95.741455078125,70.22162506718162,131.2623],[95.796142578125,70.25836823124412,100.9692],[95.818115234375,70.28327057499412,386.3531],[95.892675781250034,70.341083074994117,70.155],[95.898193359375,70.363397528119123,271.6735],[95.847949218749989,70.37457916874412,66.3066],[95.834228515625,70.38349030155662,60.4456],[95.827392578125,70.39984772343162,75.7707],[95.830175781250034,70.41876862186912,58.0263],[95.860595703125,70.525506903119123,103.5039],[95.859472656250034,70.54230377811912,80.9577],[95.851757812500011,70.556512762494123,61.784],[95.840039062500011,70.56854889530662,86.629],[95.826904296875,70.57892487186912,85.9414],[95.811279296875,70.58649323124412,110.7713],[95.793359375000023,70.59003327030662,119.0771],[95.757421875000034,70.589618231244117,131.0549],[95.65625,70.56220123905662,74.8215],[95.390722656250034,70.55878327030662,113.1247],[95.36962890625,70.56476471561912,113.8107],[95.360253906250023,70.57111237186912,89.9605],[95.35791015625,70.57709381718162,98.8788],[95.362207031250023,70.58344147343162,79.8636],[95.413281250000011,70.61481354374412,52.7044],[95.451904296875,70.629901434369117,78.2849],[95.462988281250034,70.63727448124412,106.0386],[95.467480468750011,70.64838287968162,92.7829],[95.462158203125,70.65766022343162,82.4291],[95.44970703125,70.664911199994123,84.2823],[95.422558593750011,70.67352936405662,76.2883],[95.374414062500023,70.67975494999412,69.9471],[95.270751953125,70.67694733280662,71.6251],[95.216064453125,70.66925690311912,70.3589],[95.20263671875,70.66510651249412,66.6766],[95.163818359375,70.64789459843162,49.8982],[95.149121093750011,70.64435455936912,51.146],[95.087304687500023,70.64484284061912,57.9387],[95.046875,70.64081452030662,50.9525],[94.867431640625,70.652362371869117,54.0802],[94.765380859375,70.631610418744117,40.5228],[94.738476562500011,70.633661199994123,34.7449],[94.678955078125,70.65180084843162,35.6883],[94.65673828125,70.65412018436912,37.666],[94.546142578125,70.640497137494123,27.982],[94.509375,70.64227936405662,33.2791],[94.479296874999989,70.65436432499412,31.8404],[94.4169921875,70.68891022343162,25.304],[94.298828125,70.735126043744117,43.2723],[94.258691406250023,70.743524481244123,49.2441],[94.230712890625,70.74433014530662,44.2917],[94.149023437500034,70.736102606244117,40.7591],[94.033203125,70.75177643436912,31.5469],[94.026464843750034,70.755633856244117,30.9293],[94.021240234375,70.761102606244123,30.852],[94.01904296875,70.76740143436912,29.4361],[94.020117187500034,70.77887604374412,34.9635],[94.023193359375,70.781854559369123,36.6168],[94.028564453125,70.78278229374412,37.643],[94.052001953125,70.800799871869117,30.9042],[94.206152343750034,70.87531159061912,25.8424],[94.388671875,70.92694733280662,23.9503],[94.419921875,70.949090887494123,25.163],[94.464746093750023,70.97260162968162,24.0719],[94.487207031250023,70.97870514530662,39.1527],[94.505859375,70.97443268436912,40.5303],[94.524658203125,70.96674225468162,18.9486],[94.546630859375,70.96259186405662,26.2271],[95.071044921875,70.92780182499412,17.4272],[95.0947265625,70.92169830936912,23.5916],[95.142822265625,70.89252350468162,22.9307],[95.1630859375,70.88690827030662,15.5265],[95.189697265625,70.88715241093162,22.2935],[95.25927734375,70.90802643436912,22.8061],[95.284765625000034,70.908807684369123,23.3451],[95.304296875000034,70.90338776249412,20.1118],[95.341796875,70.883807684369117,23.1172],[95.3955078125,70.87091705936912,24.9663],[95.511962890625,70.87287018436912,21.5974],[95.717187500000023,70.84650299686912,21.6833],[96.006591796875,70.845965887494117,23.1179]]}}