{"type":"Feature","properties":{"featurecla":"River","scalerank":7,"rivernum":383,"dissolve":"383River","name":"Verkhnyaya3","name_alt":null,"note":null,"min_zoom":6.0,"strokeweig":0.3,"name_en":"Verkhnyaya Taymyra","min_label":7.0},
"geometry":{"type": "LineString","coordinates": [[98.651757812500023,74.108270574994123,6.0954],[98.76123046875,74.10138580936912,2.2929],[98.786718750000034,74.105585028119123,2.1461],[98.857421875,74.12872955936912,9.1786],[98.909912109375,74.13983795780662,3.4596],[99.243896484375,74.159784246869123,40.8113],[99.336523437500034,74.14887116093162,72.5591],[99.3720703125,74.15534088749412,27.805],[99.46435546875,74.18488190311912,2.9799],[99.527734375000023,74.219354559369123,7.6472],[99.538964843750023,74.22809479374412,8.2863],[99.551855468750034,74.23590729374412,8.7264],[99.580322265625,74.24091217655662,7.8498],[99.593457031250011,74.24823639530662,8.5422],[99.606640625000011,74.25751373905662,5.9895],[99.621337890625,74.26386139530662,19.6305],[99.781640625000023,74.306268621869123,2.115]]}}