{"type":"Feature","properties":{"featurecla":"River","scalerank":7,"rivernum":493,"dissolve":"493River","name":"Kotuy3","name_alt":null,"note":null,"min_zoom":6.0,"strokeweig":0.25,"name_en":"Kotuy","min_label":7.0},
"geometry":{"type": "LineString","coordinates": [[99.9404296875,67.31329987186912,298.1978],[99.9814453125,67.28351471561912,302.6612],[100.011962890625,67.274920965619117,298.6177],[100.04873046875002,67.25617096561912,297.3406],[100.06679687500002,67.25189850468162,295.8689],[100.1162109375,67.24774811405662,329.0147],[100.25263671875001,67.21710846561912,348.2613],[100.29501953125003,67.198016668744117,364.4723],[100.309814453125,67.16583893436912,369.0583],[100.30322265625,67.15253327030662,371.467],[100.280029296875,67.12970612186912,312.2015],[100.275,67.11493561405662,294.0786],[100.28115234375002,67.10382721561912,288.4474],[100.32343750000001,67.07770416874412,279.4498],[100.32871093750003,67.06549713749412,278.7436],[100.33017578125003,67.05206940311912,270.9023],[100.334375,67.04120514530662,279.52],[100.34736328125001,67.03681061405662,268.6375],[100.372314453125,67.03241608280662,275.822],[100.421630859375,67.013202215619117,305.8369],[100.61337890625003,66.989032293744117,300.1689],[100.64199218750002,66.98932526249412,285.0648],[100.66269531250003,66.99799225468162,329.8181],[100.670654296875,67.01080963749412,298.8893],[100.673583984375,67.02326080936912,289.7433],[100.67841796875001,67.03607819218162,279.8097],[100.693359375,67.049823309369117,291.4958],[100.712158203125,67.057733465619123,304.6444],[100.73232421875002,67.06244537968162,285.1104],[100.751708984375,67.06928131718162,308.2441],[100.76845703125002,67.08392975468162,292.7458],[100.731201171875,67.10553619999412,247.8187],[100.720703125,67.11896393436912,308.3015],[100.75185546875002,67.12811920780662,288.7353],[100.77158203125003,67.142206121869123,326.881],[100.78281250000003,67.145379949994123,303.3194],[100.794921875,67.14740631718162,277.584],[100.83740234375,67.16278717655662,263.8593],[100.87763671875001,67.18781159061912,244.1709],[100.89785156250002,67.197040106244117,262.7303],[100.9267578125,67.20062897343162,265.2008],[100.93984375000002,67.20380280155662,257.8365],[100.96279296875002,67.217889715619123,258.5466],[101.05605468750002,67.234735418744123,257.684],[101.084716796875,67.23663971561912,245.0005],[101.111083984375,67.24140045780662,243.5214],[101.13222656250002,67.255243231244123,251.0092],[101.13232421875,67.265399481244117,240.9419],[101.134033203125,67.27399323124412,220.927],[101.1396484375,67.28253815311912,247.8791],[101.14980468750002,67.28900787968162,248.9078],[101.17255859375001,67.296502996869123,240.0199],[101.1806640625,67.30304596561912,243.3352],[101.18515625000003,67.319110418744117,245.2119],[101.177001953125,67.348260809369123,248.0234],[101.1806640625,67.36505768436912,262.3037],[101.18339843749999,67.36383698124412,258.543],[101.25507812500001,67.41290924686912,286.9345],[101.21474609375002,67.43012116093162,257.1456],[101.195556640625,67.44110748905662,210.2626],[101.1875,67.45758698124412,260.4162],[101.30009765624999,67.49481842655662,241.6588],[101.31357421875003,67.502704168744117,239.1557],[101.35791015625,67.53900787968162,232.8557],[101.378662109375,67.54950592655662,238.1841],[101.487060546875,67.555682684369117,228.0744],[101.52255859375003,67.563739324994117,226.8317],[101.513671875,67.57050202030662,220.3832],[101.50380859375002,67.57501862186912,223.7925],[101.492919921875,67.57733795780662,192.0],[101.48164062500001,67.57733795780662,192.0],[101.51035156250003,67.586444403119117,205.6825],[101.57080078125,67.598016668744123,220.969],[101.598388671875,67.60846588749412,232.4603],[101.70449218750002,67.60748932499412,213.5884],[101.72119140625,67.62177155155662,200.0955],[101.71982421875003,67.63153717655662,189.5338],[101.718017578125,67.638055731244123,190.8786],[101.71962890625002,67.643329168744117,188.5349],[101.72841796875002,67.64935944218162,197.0081],[101.76650390625002,67.663690496869123,195.2404],[101.77587890625,67.673602606244117,190.3706],[101.779541015625,67.69232819218162,186.6886],[101.77011718750003,67.70661041874412,186.0287],[101.73544921875003,67.72821686405662,197.2645],[101.75058593750003,67.73346588749412,194.5014],[101.78125,67.73639557499412,190.6915],[101.79638671875,67.74188873905662,192.8522],[101.79150390625,67.744891668744117,184.1303],[101.78173828125,67.75263092655662,185.1649],[101.77587890625,67.75556061405662,184.6272],[101.84716796875,67.783075262494123,186.6537],[101.8798828125,67.800897528119123,194.1507],[101.8720703125,67.82074616093162,189.3796],[101.843994140625,67.834491278119117,185.6471],[101.84521484375,67.83954498905662,195.5],[101.88193359375003,67.85455963749412,182.848],[101.919921875,67.87494537968162,192.5742],[101.937255859375,67.87909577030662,181.8978],[102.0400390625,67.86542389530662,190.4033],[102.06689453125,67.86652252811912,190.6726],[102.0830078125,67.870721746869123,190.2399],[102.12783203125002,67.903338934369117,193.3869],[102.17373046875002,67.92340729374412,191.2425],[102.1943359375,67.92865631718162,183.0437],[102.24111328125002,67.933368231244117,187.9243],[102.259765625,67.944208074994123,182.473],[102.262939453125,67.95661041874412,182.5031],[102.25732421875,67.98371002811912,186.8915],[102.26318359375,67.98895905155662,186.1492],[102.28212890625002,67.99298737186912,189.2194],[102.322509765625,68.01141998905662,182.2108],[102.34511718750002,68.01618073124412,180.2802],[102.564453125,68.002557684369123,189.0585],[102.578125,68.00629303593162,182.4761],[102.62460937500003,68.03168366093162,208.4079],[102.64833984375002,68.03729889530662,191.4902],[102.74550781250002,68.04633209843162,190.0152],[102.874267578125,68.08783600468162,188.9268],[102.91162109375,68.095575262494123,187.8592],[102.94873046875,68.11432526249412,204.3701],[103.0986328125,68.14838287968162,179.7459],[103.20839843750002,68.194354559369117,171.1542],[103.272216796875,68.210809637494123,190.2899],[103.2841796875,68.221698309369117,181.2969],[103.2763671875,68.23444244999412,203.6971],[103.251708984375,68.24042389530662,207.138],[103.188720703125,68.24396393436912,187.1919],[103.167236328125,68.24957916874412,183.9743],[103.148193359375,68.259295965619117,188.0683],[103.14013671875,68.273211981244117,185.0257],[103.1455078125,68.28595612186912,170.8712],[103.15839843750001,68.29437897343162,174.3018],[103.17431640625,68.301532293744117,193.493],[103.18857421875003,68.31037018436912,274.3228],[103.158935546875,68.325555731244123,182.9948],[103.15322265625002,68.331561590619117,243.044],[103.152587890625,68.34039948124412,269.0161],[103.16005859375002,68.35675690311912,223.7114],[103.16064453125,68.36505768436912,170.0072],[103.1572265625,68.37885162968162,201.4061],[103.15468750000002,68.37995026249412,194.3526],[103.136474609375,68.39276764530662,169.235],[103.123779296875,68.39874909061912,211.855],[103.09853515625002,68.406024481244117,167.4039],[103.10048828125002,68.415643621869123,304.347],[103.10429687499999,68.42328522343162,293.4442],[103.11591796875001,68.43732330936912,164.7095],[103.119384765625,68.446551824994117,283.975],[103.11328125,68.452167059369117,274.2295],[103.10410156250003,68.456317449994117,263.7428],[103.09853515625002,68.46124909061912,234.3786],[103.095703125,68.47333405155662,245.0337],[103.09482421875003,68.48554108280662,249.9034],[103.09951171875002,68.497674871869123,161.4912],[103.11279296875,68.509637762494123,206.0899],[103.109619140625,68.535663153119117,211.2623],[103.1328125,68.564569403119123,244.2445],[103.166259765625,68.58808014530662,222.08],[103.21298828125003,68.60321686405662,218.2375],[103.245361328125,68.62714264530662,201.1444],[103.263671875,68.632586981244117,212.4298],[103.28955078125,68.634881903119123,200.676],[103.55419921875,68.70001862186912,192.4278],[103.59023437500002,68.71332428593162,188.9329],[103.60634765625002,68.72199127811912,176.5525],[103.625244140625,68.73541901249412,165.0517],[103.62998046875003,68.74396393436912,193.5978],[103.62158203125,68.750506903119117,201.4859],[103.541259765625,68.77509186405662,190.4139],[103.523681640625,68.78400299686912,179.1742],[103.491943359375,68.81952545780662,230.4834],[103.46845703125001,68.83075592655662,208.9142],[103.46503906250001,68.84406159061912,173.4427],[103.466796875,68.85895416874412,180.6553],[103.47226562500003,68.86933014530662,165.9767],[103.4892578125,68.882196356244123,165.639],[103.544189453125,68.90692780155662,171.5982],[103.56689453125,68.921991278119123,188.8646],[103.58193359375002,68.942254949994123,178.6011],[103.583984375,68.966180731244123,175.0333],[103.568115234375,68.99225494999412,168.4885],[103.584228515625,69.005145574994117,165.1496],[103.76767578125003,69.05145905155662,145.8424],[104.04511718750001,69.039081121869117,166.0407],[104.09072265625002,69.04572174686912,171.5485],[104.109619140625,69.059686590619123,144.375],[104.09736328125001,69.075311590619123,169.5997],[104.054443359375,69.10211823124412,172.7274],[104.04160156250003,69.11383698124412,178.0483],[104.03037109375003,69.11981842655662,177.99],[104.0029296875,69.12970612186912,165.0907],[103.99765625000003,69.137567449994123,141.7358],[104.000244140625,69.149530340619123,164.1559],[104.009765625,69.174432684369123,188.4812],[103.93320312500003,69.185907293744123,177.1668],[103.890869140625,69.19721100468162,190.9098],[103.86289062500003,69.21198151249412,190.2367],[103.839111328125,69.23065827030662,172.0248],[103.81015625000003,69.24603912968162,189.9891],[103.77919921875002,69.25714752811912,249.4827],[103.74960937500003,69.26312897343162,220.4253],[103.71425781250002,69.26251862186912,191.7809],[103.705322265625,69.26654694218162,170.2373],[103.70400390625002,69.27313873905662,140.7401],[103.71054687500003,69.27802155155662,177.999],[103.71875,69.28156159061912,174.3855],[103.72236328125001,69.283710028119117,172.5298],[103.71132812500002,69.29572174686912,147.9286],[103.69882812500003,69.302362371869123,174.7139],[103.667724609375,69.314715887494117,163.2917],[103.619384765625,69.34198639530662,194.0751],[103.55517578125,69.35455963749412,186.9969],[103.53671875000003,69.366229559369117,195.1888],[103.54736328125,69.37506744999412,189.0195],[103.55078125,69.38361237186912,141.1594],[103.54843750000003,69.39191315311912,139.4921],[103.541259765625,69.399920965619117,169.6882],[103.45556640625,69.44342682499412,162.3387],[103.432861328125,69.463251043744123,158.6293],[103.461669921875,69.48224518436912,169.5839],[103.519775390625,69.48810455936912,174.2513],[103.537353515625,69.49286530155662,187.9242],[103.55078125,69.503045965619123,145.0755],[103.54648437500003,69.510614324994123,203.6888],[103.532470703125,69.515399481244117,230.8757],[103.51679687500001,69.51703522343162,245.0862],[103.43671875000001,69.513690496869117,188.2992],[103.40576171875,69.522821356244123,148.0047],[103.40087890625,69.57514069218162,178.7039],[103.37314453125003,69.58331940311912,223.4992],[103.3375,69.58136627811912,197.7249],[103.294677734375,69.57160065311912,231.4172],[103.26943359375002,69.57147858280662,242.6419],[103.24648437500002,69.576532293744123,220.339],[103.236328125,69.58869049686912,191.2415],[103.23046875,69.602167059369123,229.3682],[103.21621093750002,69.606073309369123,211.6768],[103.18310546875,69.60761139530662,198.1358],[103.11806640625002,69.631366278119117,255.5133],[103.098388671875,69.633661199994123,254.8202],[103.07558593750002,69.63312409061912,248.6914],[103.053955078125,69.63556549686912,169.0341],[103.037109375,69.646747137494117,143.915],[103.03505859375002,69.65424225468162,151.5002],[103.038818359375,69.672137762494117,161.8532],[103.037109375,69.681512762494123,125.6644],[103.03076171875,69.69061920780662,153.4129],[103.02255859375003,69.69806549686912,170.1564],[103.01308593750002,69.70404694218162,186.9867],[103.0029296875,69.70880768436912,160.8266],[103.02412109375001,69.71600983280662,135.1789],[103.071044921875,69.717157293744123,130.2862],[103.09228515625,69.728631903119123,161.0893],[103.07470703125,69.736346746869117,252.1017],[103.0341796875,69.73651764530662,236.2148],[103.015869140625,69.740838934369123,230.7934],[102.96787109375003,69.76959869999412,263.7989],[102.94970703125,69.77582428593162,326.4402],[102.91220703125003,69.782977606244117,266.7413],[102.89414062500003,69.78876373905662,230.8675],[102.87763671875001,69.79889557499412,126.0949],[102.86416015625002,69.82672760624412,194.0974],[102.89394531250002,69.83869049686912,156.6759],[102.97060546875002,69.84186432499412,191.8718],[102.98583984375,69.84552643436912,192.6489],[102.9892578125,69.85285065311912,190.7861],[102.9892578125,69.864129949994123,197.756],[102.9931640625,69.87946198124412,243.9374],[103.0439453125,69.91840241093162,165.4305],[103.05078125,69.92792389530662,119.9939],[103.03408203125002,69.93817780155662,143.1582],[103.00996093750001,69.94928619999412,165.108],[102.99404296875002,69.96088287968162,147.5154],[103.00234375000002,69.97260162968162,139.3466],[103.0595703125,69.99323151249412,174.4042],[103.08798828125003,70.009881903119123,207.7103],[103.088623046875,70.027215887494123,276.236],[103.07763671875,70.047870184369117,159.6362],[103.096435546875,70.05817291874412,132.821],[103.12753906250003,70.059833074994117,231.5942],[103.1845703125,70.049188543744123,146.5043],[103.202880859375,70.062127996869123,135.4484],[103.22890625000002,70.10431549686912,107.7328],[103.25419921874999,70.12152741093162,161.1239],[103.28173828125,70.128192449994117,140.742],[103.310791015625,70.131219793744123,107.7402],[103.34033203125,70.13776276249412,198.4396],[103.352294921875,70.14374420780662,124.1211],[103.37587890625002,70.159540106244123,105.9474],[103.38720703125,70.165301824994117,129.7142],[103.45,70.16998932499412,203.3931],[103.46503906250001,70.17584869999412,246.4923],[103.49501953125002,70.19599030155662,250.8241],[103.52822265625002,70.20722077030662,158.6144],[103.5634765625,70.211688543744117,258.9765],[103.59931640625001,70.211053778119123,286.3604],[103.66552734375,70.198993231244117,227.8908],[103.6875,70.20014069218162,79.1424],[103.69931640625003,70.20355866093162,173.351],[103.70634765624999,70.20831940311912,275.1639],[103.7109375,70.21552155155662,230.3469],[103.7158203125,70.226434637494123,177.0],[103.71689453125003,70.23139069218162,175.9845],[103.71669921875002,70.24188873905662,170.8195],[103.71845703125001,70.247333074994117,123.3075],[103.72236328125001,70.25092194218162,66.3302],[103.73388671875,70.255145574994117,192.2755],[103.73876953125,70.258417059369123,151.9885],[103.7265625,70.263446356244117,258.0753],[103.66416015625003,70.26666901249412,258.4036],[103.567138671875,70.28876373905662,75.851],[103.555419921875,70.29767487186912,170.0468],[103.54677734375002,70.333124090619123,152.6545],[103.52792968750003,70.36200592655662,66.4021],[103.523681640625,70.37641022343162,95.8474],[103.511474609375,70.39350006718162,53.1222],[103.48291015625,70.402948309369123,74.6812],[103.42783203125003,70.407733465619117,200.9977],[103.39599609375,70.40399811405662,164.7514],[103.336181640625,70.388788153119123,74.4344],[103.3046875,70.387225653119117,125.2141],[103.271484375,70.39044830936912,254.9039],[103.25595703125003,70.396258856244117,59.9577],[103.24941406250002,70.407733465619117,189.4354],[103.25625,70.414911199994123,227.4799],[103.27236328125002,70.420770574994123,167.6982],[103.3046875,70.428241278119117,283.4455],[103.421875,70.43793366093162,184.6513],[103.454833984375,70.45612213749412,39.644],[103.364013671875,70.47308991093162,67.6646],[103.326171875,70.49567291874412,110.8211],[103.32070312500002,70.53693268436912,159.5572],[103.33408203125003,70.56012604374412,282.1223],[103.35537109375002,70.577655340619117,159.2061],[103.38095703125003,70.58881256718162,155.5064],[103.40771484375,70.59271881718162,114.4498],[103.41806640625003,70.597919012494117,98.8802],[103.41064453125,70.60944244999412,222.0703],[103.394775390625,70.620965887494123,272.3303],[103.38007812500001,70.626239324994117,254.653],[103.358642578125,70.62933991093162,140.1143],[103.308837890625,70.643670965619123,24.6985],[103.2841796875,70.647967840619117,46.7395],[103.124267578125,70.641131903119117,195.132],[103.07236328125003,70.65119049686912,187.3474],[103.03408203125002,70.66779205936912,108.9332],[103.015380859375,70.680047918744123,171.1517],[103.00673828125002,70.693231512494123,136.223],[103.01220703125,70.708026434369117,38.0205],[103.02656250000001,70.722284246869123,223.7027],[103.05703125000002,70.74457428593162,111.7175],[103.07275390625,70.76898834843162,19.0],[103.06591796875,70.79169342655662,35.4726],[103.044677734375,70.81110260624412,20.0835],[103.01669921875003,70.825458074994117,139.4239],[102.99306640625002,70.83161041874412,209.1641],[102.94248046875003,70.83881256718162,269.7274],[102.92041015625,70.845965887494117,265.8733],[102.9013671875,70.85797760624412,92.7305],[102.89853515625003,70.866473699994117,21.1121],[102.90322265625002,70.875848699994123,20.0],[102.90673828125,70.890643621869117,21.4488],[102.89101562500002,70.91828034061912,16.3269],[102.85400390625,70.92938873905662,9.2932],[102.81093750000002,70.93585846561912,259.2845],[102.77695312500003,70.949579168744123,100.3157],[102.75673828125002,70.96906159061912,19.6512],[102.74570312500003,70.97662994999412,15.526],[102.72929687499999,70.98309967655662,28.0716],[102.66835937500002,70.99689362186912,31.3752],[102.494384765625,71.011981512494117,29.6594],[102.476318359375,71.01764557499412,30.0732],[102.4619140625,71.028583074994117,35.1779],[102.45332031250001,71.04645416874412,262.9242],[102.366455078125,71.05829498905662,164.9324],[102.33046875000002,71.07697174686912,42.7158],[102.34130859375,71.11139557499412,138.0084],[102.35664062500001,71.12079498905662,108.801],[102.461669921875,71.14704010624412,190.3714],[102.48388671875,71.14874909061912,165.258],[102.5068359375,71.14252350468162,195.7695],[102.547119140625,71.12628815311912,6.74],[102.56787109375,71.12372467655662,25.6387],[102.591552734375,71.127069403119123,6.583],[102.61679687500003,71.13641998905662,67.0488],[102.61953125000002,71.144159246869123,72.0794],[102.59492187500001,71.16437409061912,39.5659],[102.58730468750002,71.18158600468162,87.8589],[102.59619140625,71.193377996869117,110.9477],[102.61376953125,71.200702215619117,196.4739],[102.66425781250001,71.20807526249412,12.7349],[102.674560546875,71.21112702030662,84.2084],[102.6845703125,71.216327215619117,137.5212],[102.712158203125,71.23615143436912,205.7068],[102.74169921875,71.249530340619117,194.9176],[102.81289062500002,71.269159246869123,241.3912],[102.8896484375,71.27374909061912,58.0532],[102.95302734375002,71.290155340619123,115.4076],[102.98125,71.29205963749412,23.0241],[102.994873046875,71.29462311405662,8.5298],[103.00732421875,71.30084869999412,21.8255],[103.0125,71.30621979374412,17.9534],[103.02099609375,71.31867096561912,96.7862],[103.02695312500003,71.324579168744123,48.2327],[103.05234375000003,71.337762762494123,20.6296],[103.06396484375,71.348407293744117,17.9183],[103.07705078125002,71.37152741093162,21.3223],[103.086181640625,71.383661199994123,10.2266],[103.116455078125,71.39801666874412,29.4513],[103.181884765625,71.39813873905662,13.9585],[103.209228515625,71.418329168744123,-0.7665],[103.2197265625,71.435907293744123,-0.4064],[103.22763671875003,71.455194403119123,20.2041],[103.22958984375003,71.47492096561912,23.3226],[103.22255859375002,71.493524481244123,22.9212],[103.19843750000001,71.51752350468162,40.8245],[103.169677734375,71.532489324994117,167.1345],[103.1376953125,71.53986237186912,134.5803],[103.103759765625,71.54108307499412,91.4483],[103.003173828125,71.532733465619117,-0.6486],[102.96875,71.53864166874412,143.2936]]}}