{"type":"Feature","properties":{"featurecla":"River","scalerank":6,"rivernum":317,"dissolve":"317River","name":"Olenëk1","name_alt":null,"note":null,"min_zoom":5.0,"strokeweig":0.2,"name_en":"Olenëk","min_label":6.0},
"geometry":{"type": "LineString","coordinates": [[105.33925781250002,67.51373932499412,454.5902],[105.34765625,67.517206121869123,452.5747],[105.35908203125001,67.534540106244123,427.4692],[105.3671875,67.54096100468162,402.6845],[105.37802734375003,67.54230377811912,395.0732],[105.40156250000001,67.540155340619123,373.556],[105.41181640625001,67.544061590619123,355.3477],[105.41445312500002,67.54962799686912,359.8794],[105.41416015625003,67.564081121869123,392.9823],[105.41552734375,67.56830475468162,390.5808],[105.43789062500002,67.57977936405662,360.5679],[105.460693359375,67.58588287968162,356.741],[105.5107421875,67.58881256718162,388.9602],[105.53818359375003,67.58563873905662,379.6593],[105.59433593750003,67.57147858280662,352.9078],[105.644775390625,67.56586334843162,368.7495],[105.65478515625,67.566522528119123,359.7591],[105.68017578125,67.575458074994117,358.8163],[105.69257812500001,67.57575104374412,355.3727],[105.705078125,67.57318756718162,347.1891],[105.71669921875002,67.56830475468162,338.248],[105.689453125,67.54730866093162,329.3175],[105.68544921875002,67.524676824994117,332.196],[105.69873046875,67.50336334843162,322.607],[105.72353515625002,67.48639557499412,323.7554],[105.7734375,67.47321198124412,392.5289],[105.935791015625,67.48639557499412,307.6701],[105.9306640625,67.528094793744117,312.148],[105.95742187500002,67.53974030155662,331.898],[105.99912109375003,67.54340241093162,337.5411],[106.03867187500003,67.56085846561912,322.315],[106.00107421875003,67.582782293744117,302.8176],[105.98916015625002,67.596942449994117,314.6657],[106.00429687500002,67.612665106244123,316.2793],[106.03261718750002,67.61908600468162,316.7668],[106.061279296875,67.614764715619117,334.1252],[106.11416015625002,67.59223053593162,321.3806],[106.14697265625,67.58454010624412,315.6913],[106.225830078125,67.57782623905662,317.0714],[106.25419921874999,67.564569403119123,316.2417],[106.278076171875,67.54975006718162,294.4779],[106.332275390625,67.534295965619123,316.2381],[106.35400390625,67.519891668744123,286.7867],[106.34248046875001,67.51801178593162,292.9968],[106.32265625000002,67.508807684369117,307.9195],[106.3125,67.506219793744123,312.2551],[106.29648437500003,67.50714752811912,331.7984],[106.26621093750003,67.51337311405662,333.0652],[106.25039062500002,67.51373932499412,325.3675],[106.23105468750003,67.50824616093162,324.084],[106.182861328125,67.47272369999412,284.1187],[106.213134765625,67.45990631718162,280.2821],[106.25576171875002,67.44855377811912,309.0735],[106.27714843749999,67.43280670780662,280.728],[106.24355468750002,67.40692780155662,312.7998],[106.22802734375,67.386102606244123,285.5865],[106.250244140625,67.36505768436912,297.1443],[106.2880859375,67.34894440311912,302.2126],[106.3193359375,67.34235260624412,319.3774],[106.405029296875,67.33954498905662,285.5182],[106.42919921875,67.345819403119123,290.3723],[106.46328125000002,67.359149481244117,321.9132],[106.47929687499999,67.36261627811912,365.416],[106.51083984375003,67.35651276249412,307.1971],[106.525390625,67.359149481244117,327.9684],[106.56494140625,67.37384674686912,318.0477],[106.607421875,67.378680731244117,287.6554],[106.649658203125,67.37592194218162,319.4366],[106.71152343750003,67.36322662968162,295.1642],[106.756591796875,67.359393621869117,286.4895],[106.86123046875002,67.32807037968162,259.4381],[107.01708984375,67.318133856244117,277.2714],[107.08740234375,67.28534577030662,264.554],[107.13662109375002,67.282489324994117,257.7739],[107.187744140625,67.28717682499412,280.5968],[107.2373046875,67.30158112186912,268.9555],[107.24863281250003,67.29975006718162,267.4833],[107.259765625,67.29596588749412,255.6338],[107.27197265625,67.29401276249412,263.3266],[107.28330078125003,67.295428778119117,264.8739],[107.306884765625,67.301141668744123,265.8899],[107.31982421875,67.30145905155662,259.0726],[107.32470703125,67.29901764530662,255.6348],[107.33583984375002,67.289667059369123,245.836],[107.34091796875003,67.287127996869117,242.9051],[107.4052734375,67.287127996869117,246.4072],[107.43427734375001,67.28143952030662,246.5138],[107.45712890625003,67.268182684369123,275.9888],[107.47744140625002,67.25287506718162,259.8054],[107.49951171875,67.241083074994123,256.0541],[107.5375,67.233758856244123,241.5835],[107.57167968750002,67.23627350468162,254.6666],[107.638916015625,67.256122137494117,253.6478],[107.78281250000003,67.277215887494123,246.6885],[107.86083984375,67.276385809369117,241.9022],[107.88222656250002,67.25299713749412,233.7704],[107.905029296875,67.24909088749412,248.166],[107.95068359375,67.235467840619123,274.0549],[107.97089843750001,67.232538153119123,267.3662],[107.9912109375,67.22699616093162,256.9879],[108.017333984375,67.216327215619117,253.8428],[108.04345703125,67.20941803593162,233.8743],[108.0849609375,67.22260162968162,274.4146],[108.17011718750001,67.212030340619123,245.1182],[108.23525390625002,67.229852606244123,259.6488],[108.25888671875003,67.232538153119123,277.9702],[108.28330078125003,67.230731512494117,283.5157],[108.29345703125,67.225702215619123,276.4875],[108.30009765624999,67.21820709843162,284.8951],[108.31357421875003,67.208612371869123,293.2243],[108.34003906250001,67.200311590619123,266.8687],[108.365234375,67.20001862186912,254.2254],[108.41660156250003,67.205194403119123,235.9508],[108.45791015625002,67.19660065311912,251.7924],[108.53232421875003,67.15912506718162,286.3385],[108.68896484375,67.12677643436912,224.0327],[108.71230468750002,67.126092840619123,225.2931],[108.7353515625,67.12848541874412,238.8234],[108.76083984375003,67.13471100468162,269.4484],[108.80605468750002,67.139032293744123,310.9436],[108.94443359375003,67.11579010624412,271.1895],[108.98984375000003,67.12128327030662,233.1215],[109.077880859375,67.145135809369123,235.1707],[109.1220703125,67.15058014530662,259.5258],[109.30996093750002,67.11676666874412,214.373],[109.33505859375003,67.117450262494117,208.1501]]}}