{"type":"Feature","properties":{"featurecla":"River","scalerank":7,"rivernum":625,"dissolve":"625River","name":"Podkamennaya2","name_alt":null,"note":null,"min_zoom":6.0,"strokeweig":0.3,"name_en":"Podkamennaya Tunguska","min_label":7.0},
"geometry":{"type": "LineString","coordinates": [[91.37060546875,61.65326569218162,104.8944],[91.334716796875,61.630877996869117,52.3494],[91.297119140625,61.62274811405662,33.0222],[91.216064453125,61.61566803593162,37.0294],[91.097363281250011,61.585711981244117,31.4981],[91.05224609375,61.582147528119123,31.304],[91.02099609375,61.590106512494117,32.146],[90.969482421875,61.628534246869123,31.7188],[90.941796875000023,61.642352606244117,43.3546],[90.896240234375,61.64813873905662,30.5989],[90.853125,61.64862702030662,36.5116],[90.8125,61.655536199994117,31.0322],[90.774121093750011,61.68024323124412,30.6589],[90.748925781250023,61.70307037968162,27.0],[90.72265625,61.718622137494123,28.0123],[90.69189453125,61.724481512494123,27.0],[90.653710937500023,61.71808502811912,119.0826],[90.560644531250034,61.68060944218162,27.0],[90.22509765625,61.665790106244117,54.3025],[90.188232421875,61.65668366093162,44.2588],[90.16650390625,61.641620184369117,33.6841],[90.141796875000011,61.602557684369117,56.9037],[90.120019531250023,61.588983465619123,30.4179]]}}