{"type":"Feature","properties":{"featurecla":"River","scalerank":7,"rivernum":493,"dissolve":"493River","name":"Kotuy4","name_alt":null,"note":null,"min_zoom":6.0,"strokeweig":0.3,"name_en":"Kotuy","min_label":7.0},
"geometry":{"type": "LineString","coordinates": [[102.97431640625001,71.53937409061912,145.2225],[102.94736328125003,71.55084869999412,11.472],[102.87753906250003,71.56574127811912,117.2459],[102.82333984375003,71.57111237186912,43.1952],[102.80166015625002,71.57623932499412,0.3332],[102.73916015625002,71.60199616093162,46.3328],[102.6298828125,71.61310455936912,-0.7967],[102.607421875,71.619891668744117,-0.479],[102.52822265625002,71.660272528119123,10.4418],[102.497802734375,71.681415106244117,3.5205],[102.48408203125001,71.68781159061912,9.3151],[102.40576171875,71.70929596561912,0.4311],[102.39296875000002,71.719842840619123,-0.4446],[102.388671875,71.734735418744123,-0.4313],[102.39169921875003,71.749627996869123,-0.6496],[102.39208984375,71.763055731244123,-0.4975],[102.37929687500002,71.77387116093162,-0.5049],[102.36152343750001,71.778924871869123,-0.4745],[102.22988281250002,71.787616278119117,-0.4356],[102.20458984375,71.79413483280662,-0.7119],[102.193115234375,71.79950592655662,-0.6245],[102.183837890625,71.80621979374412,-0.7086],[102.17626953125,71.814715887494117,-0.7145],[102.16416015625003,71.83515045780662,-0.5463],[102.10439453125002,71.907001043744117,-0.6188],[102.09794921874999,71.916766668744117,-0.8648],[102.083984375,71.94855377811912,5.6729],[102.08261718750003,71.94745514530662,7.5019],[102.08173828125001,71.94623444218162,8.0054],[102.08056640625,71.94330475468162,8.1325]]}}