{"type":"Feature","properties":{"featurecla":"River","scalerank":6,"rivernum":368,"dissolve":"368River","name":"Khatanga","name_alt":null,"note":null,"min_zoom":5.0,"strokeweig":0.3,"name_en":"Khatanga","min_label":6.0},
"geometry":{"type": "LineString","coordinates": [[105.06972656250002,72.774432684369117,-1.4063],[104.98935546875003,72.777606512494117,-1.3397],[104.94013671875001,72.76166412968162,-1.992],[104.784912109375,72.746112371869117,-0.7455],[104.759521484375,72.74005768436912,0.0874],[104.73447265625003,72.73114655155662,2.4428],[104.72265625,72.724481512494123,3.3525],[104.69277343750002,72.69916412968162,3.3102],[104.61777343750003,72.661737371869123,4.0661],[104.48291015625,72.628534246869123,2.854],[104.44248046875003,72.62323639530662,0.6808],[104.37392578125002,72.625751043744117,2.6014],[104.21484375,72.60346100468162,2.9745],[104.201171875,72.59735748905662,3.4765],[104.19101562500003,72.588397528119117,3.2112],[104.185791015625,72.57636139530662,-1.9983],[104.18613281250003,72.56146881718162,4.094],[104.18916015625001,72.553973699994117,4.2386],[104.19814453125002,72.538446356244123,4.7505],[104.2001953125,72.53095123905662,4.7834],[104.18701171875,72.50629303593162,4.4753],[104.155029296875,72.492694403119117,4.746],[103.858642578125,72.456903387494123,5.1728],[103.74951171875,72.427997137494117,5.4465],[103.412353515625,72.426776434369117,-1.6994],[103.2177734375,72.39777252811912,3.2607],[103.150390625,72.378192449994117,0.8453],[103.09462890625002,72.36957428593162,-1.6097],[103.08203125,72.36347077030662,-1.5033],[103.072021484375,72.35455963749412,-1.3792],[103.0654296875,72.34393952030662,-1.6446],[103.05097656250001,72.30951569218162,5.4664],[103.044677734375,72.30072662968162,4.482],[103.03681640625001,72.29303619999412,1.5391],[103.027587890625,72.286151434369117,4.7298],[103.00390625,72.27240631718162,6.3593],[102.97900390625,72.26190827030662,6.282],[102.90009765625001,72.240838934369123,6.7156],[102.80751953125002,72.18744537968162,3.9884],[102.673828125,72.145526434369117,-0.0324],[102.65097656250003,72.13092682499412,7.1945],[102.634521484375,72.11066315311912,4.7133],[102.623779296875,72.09076569218162,7.8791],[102.616943359375,72.082391668744123,4.5194],[102.607421875,72.07489655155662,7.9068],[102.459716796875,71.998651434369123,-0.6939],[102.39267578125003,71.98126862186912,6.2401],[102.10390625000002,71.961932684369117,6.7286],[102.078125,71.951776434369123,8.2489]]}}