{"type":"Feature","properties":{"featurecla":"River","scalerank":8,"rivernum":749,"dissolve":"749River","name":"Popigay1","name_alt":null,"note":null,"min_zoom":7.0,"strokeweig":0.25,"name_en":"Popigay","min_label":8.0},
"geometry":{"type": "LineString","coordinates": [[110.69287109375,72.01825592655662,17.2933],[110.67138671875,72.03632233280662,35.5005],[110.65390625000003,72.054950262494117,15.0384],[110.6455078125,72.072381903119123,27.3922],[110.651123046875,72.087274481244123,34.6842],[110.63916015625,72.10602448124412,79.9746],[110.60585937500002,72.14508698124412,13.9552],[110.60605468750003,72.159540106244123,15.3404],[110.63759765625002,72.17328522343162,15.4741],[110.67128906250002,72.183465887494123,14.6071],[110.69189453125,72.18488190311912,5.7144],[110.70712890625003,72.18878815311912,12.8387],[110.71630859375,72.19525787968162,13.5829],[110.71875,72.203973699994123,13.8107],[110.709716796875,72.22296784061912,47.3067],[110.67783203125003,72.250751043744117,12.88],[110.67099609375003,72.26911041874412,23.3462],[110.64882812500002,72.29132721561912,82.6047],[110.59765625,72.29767487186912,72.1633],[110.540283203125,72.29828522343162,48.6485],[110.5,72.30329010624412,47.741],[110.457763671875,72.31464264530662,16.3065],[110.39697265625,72.32306549686912,16.476],[110.299072265625,72.35236237186912,26.1277],[110.20751953125,72.366961981244117,22.8781],[110.163818359375,72.36908600468162,18.1346],[110.1484375,72.372088934369117,15.6963],[110.1376953125,72.379510809369123,14.7129],[110.11953125000002,72.399188543744117,25.6669],[110.103271484375,72.409442449994117,22.2603],[110.085693359375,72.415545965619117,21.0741],[109.91552734375,72.446307684369117,31.2441],[109.84492187500001,72.47247955936912,29.5968],[109.78134765625003,72.48725006718162,9.5786],[109.75234375000002,72.505633856244117,28.5677],[109.83251953125,72.527850653119117,-0.1759],[109.85595703125,72.53912994999412,28.3246],[109.812744140625,72.560419012494123,41.2471],[109.65781250000003,72.54938385624412,26.9483],[109.60205078125,72.56085846561912,27.6959],[109.60830078125002,72.55341217655662,7.5303],[109.5595703125,72.566766668744123,16.988],[109.50791015625003,72.57135651249412,20.1916],[109.30009765624999,72.564569403119123,28.9257],[109.197509765625,72.573846746869123,28.0041],[109.122314453125,72.594354559369123,20.1856],[109.07041015625003,72.595819403119123,34.9083],[109.04179687499999,72.592401434369123,19.7966],[109.02265625000001,72.58417389530662,48.0324],[109.01884765624999,72.57391998905662,34.8702],[109.0263671875,72.55353424686912,-1.3291],[109.02265625000001,72.542840887494123,-1.5966],[109.00341796875,72.534784246869123,19.4992],[108.97519531250003,72.53436920780662,11.5096],[108.90576171875,72.542499090619117,27.1193],[108.872802734375,72.557489324994123,13.8363],[108.846435546875,72.56488678593162,5.7443],[108.83945312500003,72.57440827030662,52.7271],[108.834228515625,72.58551666874412,50.9718],[108.82753906250002,72.594354559369123,23.8736],[108.81044921875002,72.599383856244117,21.1108],[108.76123046875,72.60272858280662,33.7832],[108.74560546875,72.608026434369123,17.2132],[108.74228515625003,72.62042877811912,3.6728],[108.7568359375,72.628192449994117,3.5545],[108.77685546875,72.633661199994123,28.4489],[108.790283203125,72.639422918744117,31.7936],[108.787841796875,72.660516668744123,33.9938],[108.75253906250003,72.676288153119117,47.7866],[108.67724609375,72.69061920780662,39.6701],[108.39150390625002,72.68671295780662,35.7495],[108.25751953125001,72.72052643436912,34.8591],[108.22509765625,72.73480866093162,36.0097],[108.19423828125002,72.75238678593162,20.3946],[108.12177734375001,72.75885651249412,24.7883],[108.10703125000003,72.764178778119117,4.1406],[108.08154296875,72.780536199994117,36.8408],[108.06650390625003,72.786737371869123,47.7817],[108.0390625,72.790545965619117,45.6346],[107.87246093750002,72.78375885624412,20.5229],[107.84814453125,72.786737371869123,13.8605],[107.83134765624999,72.79279205936912,13.372],[107.820068359375,72.801044012494117,19.0346],[107.79648437500003,72.82404205936912,45.5308],[107.7568359375,72.83588287968162,51.1439],[107.6015625,72.81976959843162,19.9784],[107.47207031250002,72.84931061405662,20.6066],[107.31679687500002,72.86066315311912,0.5855],[107.29580078125002,72.85822174686912,5.5135],[107.23105468750003,72.840204168744123,4.773],[107.180419921875,72.83624909061912,-0.1504],[107.03896484375002,72.85321686405662,0.852]]}}