{"type":"Feature","properties":{"GID_2":"RUS.18.3_1","GID_0":"RUS","country":"Russia","GID_1":"RUS.18_1","province":"Irkutsk","NL_NAME_1":"Иркутскаяобласть","county":"Angarskiyrayon","VARNAME_2":"NA","NL_NAME_2":"Ангарскийрайон","TYPE_2":"Raion","ENGTYPE_2":"District","CC_2":"R63092","HASC_2":"RU.IR.AR","name":"Angarskiyrayon.county"},
"geometry":{"type": "MultiPolygon","coordinates": [[[[104.3547,53.031,715.0851],[104.3103,53.0325,654.4531],[104.2431,53.0275,685.2582],[104.2053,53.0481,633.6725],[104.1628,53.0504,647.7125],[104.1448,53.0381,642.9818],[104.0969,53.0278,560.2788],[104.039,53.0324,633.5972],[103.9623,53.0431,631.6292],[103.8963,53.0388,553.0872],[103.8224,53.0117,573.2149],[103.7783,52.9735,541.4533],[103.7421,52.914,535.8862],[103.7402,52.8698,521.5609],[103.7841,52.852,523.2924],[103.7752,52.797,532.0247],[103.8033,52.7694,523.7576],[103.7868,52.7164,505.5667],[103.7873,52.6602,414.5854],[103.7567,52.602,428.9877],[103.7307,52.5418,430.854],[103.6911,52.4948,436.6402],[103.9774,52.4946,413.6638],[104.2617,52.6064,559.952],[104.3957,52.7414,616.2914],[104.3546,52.8083,672.6501],[104.302,52.8452,544.3864],[104.2495,52.847,570.0919],[104.1982,52.8552,575.4573],[104.1808,52.8926,531.2182],[104.1897,52.942,577.1357],[104.2229,52.9556,619.5138],[104.2721,52.9612,643.5388],[104.3652,52.9792,682.692],[104.3906,53.0223,735.0134],[104.3547,53.031,715.0851]],
[[103.8155,52.5356,421.6341],[103.8057,52.5324,421.8738],[103.7907,52.5365,424.0504],[103.7887,52.5538,420.208],[103.821,52.5563,417.9363],[103.8263,52.5496,418.9493],[103.8155,52.5356,421.6341]]]]}}