{"type":"Feature","properties":{"GID_2":"RUS.60.11_1","GID_0":"RUS","country":"Russia","GID_1":"RUS.60_1","province":"Sakha","NL_NAME_1":"РеспубликаСаха","county":"Kobyayskiyrayon","VARNAME_2":"NA","NL_NAME_2":"Кобяйскийрайон","TYPE_2":"Raion","ENGTYPE_2":"District","CC_2":"R65001","HASC_2":"RU.SK.KO","name":"Kobyayskiyrayon.county"},
"geometry":{"type": "MultiPolygon","coordinates": [[[[127.2449,66.6491,1356.2615],[127.3218,66.5926,1000.0845],[127.26,66.5111,608.8576],[127.1812,66.4631,1000.9202],[127.0559,66.4339,420.0724],[126.965,66.3988,427.435],[126.915,66.3371,811.3674],[126.8874,66.249,646.5195],[126.8915,66.1576,335.5944],[126.9418,66.0968,667.7474],[127.021,66.0557,658.2136],[127.1071,66.037,721.7492],[127.1846,66.0455,745.1404],[127.2568,66.0627,899.816],[127.3168,66.0662,730.0494],[127.4028,66.0365,1057.2908],[127.4898,65.9887,822.9612],[127.4605,65.9701,793.4366],[127.3963,65.9485,1250.0573],[127.2408,65.9587,941.6369],[127.1924,65.9354,794.4576],[127.1989,65.9036,739.9148],[127.2657,65.8624,755.466],[127.2556,65.8148,873.2134],[127.1874,65.7397,551.3057],[127.1245,65.7417,677.3044],[127.0298,65.7343,1108.2898],[126.9706,65.71,836.275],[126.9646,65.6519,678.4113],[126.7983,65.5751,519.0324],[126.6387,65.5739,647.1986],[126.546,65.5503,761.3861],[126.4797,65.5007,618.3391],[126.4042,65.4702,519.2102],[126.2319,65.4424,301.5544],[126.0804,65.4336,323.5067],[125.9337,65.4042,330.1346],[125.764,65.3551,277.8021],[125.5665,65.334,179.6604],[125.3891,65.3357,113.1524],[125.2709,65.3208,97.7418],[125.1328,65.2701,84.7607],[125.0691,65.2162,91.1482],[125.0442,65.1559,83.9605],[124.9345,65.1581,53.4918],[124.9013,65.1197,52.4466],[124.9118,65.0665,49.5749],[124.9596,65.0452,60.1439],[124.957,64.9979,45.9683],[124.8619,64.9647,44.4386],[124.6671,64.9301,53.7331],[124.6058,64.9166,51.9076],[124.5995,64.8788,46.5],[124.6491,64.8465,53.0166],[124.7924,64.7999,55.31],[124.9177,64.757,56.4034],[124.9897,64.6966,49.9636],[124.9626,64.6593,54.0156],[124.9901,64.6081,54.097],[125.123,64.5646,57.6289],[125.211,64.5217,56.098],[125.1284,64.4811,95.5929],[124.9992,64.3774,104.2152],[124.854,64.293,116.795],[124.6876,64.2557,126.4893],[124.5243,64.2265,133.1293],[124.4342,64.1399,136.3793],[124.3232,64.0915,94.6443],[124.1498,64.0408,73.5617],[123.9314,64.007,110.171],[123.8176,63.9445,96.2583],[123.7673,63.8777,106.0738],[123.7138,63.8153,111.9551],[123.6339,63.7716,112.0643],[123.6143,63.6674,133.7639],[123.7094,63.5831,136.5379],[123.8247,63.5491,183.5592],[123.8842,63.4847,155.2454],[123.9378,63.4348,173.1976],[124.1986,63.362,172.2041],[124.4861,63.2967,189.1073],[124.7892,63.2424,233.0263],[125.1593,63.1884,195.7166],[125.4948,63.1548,236.2325],[125.7726,63.1434,196.5157],[125.8517,63.1457,198.0125],[125.9881,63.159,172.9181],[126.1367,63.1623,169.5015],[126.3339,63.1761,193.8476],[126.7003,63.2305,178.7917],[126.9594,63.2498,142.8244],[127.1704,63.2827,127.8519],[127.3012,63.3528,139.65],[127.3282,63.3956,139.6689],[127.381,63.416,130.289],[127.5124,63.4148,90.532],[127.6411,63.4012,93.2338],[127.8113,63.3611,119.2619],[127.8851,63.2276,157.2341],[127.9322,63.2316,166.1985],[127.9899,63.2201,138.5709],[128.0289,63.1911,132.1883],[128.056,63.1599,163.8762],[128.1326,63.1436,177.4519],[128.2197,63.1571,170.6781],[128.2583,63.1859,180.6611],[128.3257,63.2522,148.3929],[128.4319,63.3395,114.2516],[128.5613,63.4134,79.1457],[128.6492,63.4809,68.8867],[128.7789,63.5598,89.2009],[128.9383,63.6142,94.9931],[129.163,63.6032,109.5273],[129.3385,63.5828,93.6867],[129.4445,63.5347,82.8678],[129.575,63.5241,82.4151],[129.6876,63.5705,91.152],[129.7958,63.6208,117.9709],[129.9457,63.6476,173.3094],[130.0462,63.6269,126.225],[130.1192,63.5958,143.9701],[130.1902,63.6129,168.1177],[130.4248,63.7323,277.9285],[130.5783,63.754,259.4763],[130.717,63.7236,251.5729],[130.8922,63.6972,177.0131],[131.1081,63.6557,252.6627],[131.2455,63.6409,266.9957],[131.4459,63.6494,307.8482],[131.6198,63.6716,372.1699],[131.9768,63.6944,471.5143],[132.2735,63.6977,323.9796],[132.2803,63.7393,402.9963],[132.3473,63.7831,511.8541],[132.4385,63.8276,541.4468],[132.5987,63.9379,510.9644],[132.5978,63.986,747.3162],[132.5897,64.0366,966.0804],[132.6404,64.0823,1203.1921],[132.7545,64.1178,775.7751],[132.7786,64.148,859.7249],[132.758,64.1669,1376.3503],[132.7883,64.1999,1217.3461],[132.8332,64.2377,1207.3074],[132.8827,64.295,1528.6482],[132.859,64.3309,1236.4032],[132.7783,64.3653,1306.1125],[132.7569,64.4119,1700.3225],[132.7478,64.474,1579.0569],[132.7001,64.503,1361.9485],[132.5562,64.548,1809.4946],[132.3993,64.5539,1178.5234],[132.3067,64.5609,1650.3453],[132.2572,64.5879,800.0065],[132.2189,64.6227,1414.3085],[132.2277,64.6665,1132.8513],[132.2901,64.7048,1253.6075],[132.3361,64.761,919.2621],[132.31,64.8226,866.7748],[132.2207,64.8774,839.1931],[132.0665,64.9665,1112.6105],[131.9767,65.0487,964.4141],[131.9426,65.1179,792.1812],[131.8985,65.1832,911.6891],[131.7763,65.2506,726.8334],[131.7098,65.3347,917.0293],[131.5787,65.3835,978.4171],[131.4566,65.3946,578.6793],[131.4263,65.4496,540.5148],[131.4668,65.5123,817.3243],[131.5449,65.546,650.5665],[131.6833,65.6232,445.7639],[131.692,65.6673,433.2543],[131.6063,65.7156,638.1177],[131.4855,65.7476,584.5825],[131.3307,65.7517,786.3701],[131.1561,65.7679,662.7204],[131.112,65.791,676.3642],[131.1166,65.8347,516.4841],[131.0622,65.8437,549.3071],[130.9486,65.8715,815.939],[130.8917,65.9113,502.9106],[130.8824,65.9578,741.3787],[130.826,65.9842,867.7745],[130.6978,66.0085,737.4555],[130.4896,66.0615,1026.5465],[130.3006,66.1477,1055.8611],[130.1294,66.2724,1076.6847],[130.1096,66.369,987.5227],[129.9735,66.4573,830.1272],[129.7918,66.5095,821.631],[129.6588,66.491,746.694],[129.5547,66.4842,845.1859],[129.4786,66.5063,847.3866],[129.318,66.5178,801.435],[129.1757,66.5157,704.3899],[128.9848,66.5094,859.4463],[128.7813,66.5171,916.6412],[128.614,66.561,1011.7763],[128.4959,66.5949,1151.7087],[128.3545,66.595,1138.9299],[128.1965,66.5819,1331.7633],[128.0512,66.5118,1532.7295],[127.9272,66.4838,1292.4994],[127.8743,66.5148,931.7271],[127.8557,66.5736,1308.3112],[127.7826,66.6101,1321.5496],[127.6073,66.6431,939.7258],[127.4731,66.663,1424.0996],[127.2449,66.6491,1356.2615]]]]}}