{"type":"Feature","properties":{"GID_1":"RUS.83_1","GID_0":"RUS","country":"Russia","province":"Zabaykal'ye","VARNAME_1":"Zabaykalsky","NL_NAME_1":"Забайкальскийкрай","TYPE_1":"Kray","ENGTYPE_1":"Territory","CC_1":"NA","HASC_1":"RU.ZB","ISO_1":"NA","name":"Zabaykal'ye.province"},
"geometry":{"type": "MultiPolygon","coordinates": [[[[109.2473,49.3503,1334.7542],[109.3291,49.3415,1353.5751],[109.3763,49.3295,1438.7812],[109.3819,49.3229,1418.833],[109.4099,49.3109,1438.8723],[109.4521,49.2949,1519.9901],[109.4847,49.2881,1436.2498],[109.4895,49.2851,1503.4949],[109.501,49.2548,1523.2144],[109.5129,49.2409,1423.8899],[109.5397,49.2261,1319.4568],[109.5711,49.2226,1370.4899],[109.5925,49.2229,1322.814],[109.5981,49.2247,1370.7253],[109.6357,49.2265,1312.0804],[109.6615,49.2299,1436.1018],[109.7015,49.2316,1375.5355],[109.7564,49.2273,1450.8694],[109.7878,49.2208,1357.3643],[109.806,49.2137,1256.2632],[109.8284,49.1948,1305.1997],[109.8434,49.1913,1295.6602],[109.8589,49.1971,1329.918],[109.8764,49.2082,1346.7188],[109.887,49.21,1303.8628],[109.9392,49.2038,1365.4078],[109.9575,49.2032,1366.516],[109.9823,49.1987,1346.5837],[110.0185,49.1994,1414.3524],[110.0575,49.1943,1666.5902],[110.1503,49.1736,1497.1047],[110.1641,49.1723,1501.5851],[110.1849,49.1675,1532.0708],[110.2341,49.1651,1528.8928],[110.3025,49.1817,1448.7925],[110.3267,49.1917,1430.3698],[110.3515,49.2075,1297.1702],[110.3763,49.2333,1372.0747],[110.3873,49.2493,1341.2672],[110.3995,49.2585,1310.2166],[110.4155,49.2511,1297.8188],[110.4481,49.2247,1571.7524],[110.4827,49.2032,1534.9147],[110.4988,49.1985,1691.9681],[110.5183,49.199,1596.3761],[110.5405,49.1959,1510.1134],[110.5589,49.1815,1503.7295],[110.5689,49.1767,1451.6758],[110.5728,49.1718,1578.2385],[110.5963,49.1621,1478.8708],[110.6568,49.1499,1465.6027],[110.7066,49.1459,1302.4806],[110.7663,49.1451,1359.2151],[110.8063,49.1503,1190.2766],[110.8217,49.1545,1261.9216],[110.8421,49.1633,1440.4152],[110.8591,49.1671,1357.6425],[110.9247,49.1745,1332.3135],[110.9551,49.1843,1251.7125],[110.9923,49.1999,1224.2611],[111.033,49.2295,1334.8823],[111.0724,49.2474,1174.9551],[111.106,49.2735,1084.4426],[111.1329,49.2859,1262.2648],[111.1698,49.3003,1445.7919],[111.2169,49.3127,1382.0549],[111.2491,49.3168,1031.1925],[111.2703,49.3245,1183.7996],[111.3201,49.3337,1330.6415],[111.3333,49.3387,1244.6115],[111.3617,49.3683,1224.5375],[111.3797,49.3735,1306.4119],[111.3923,49.3731,1315.8625],[111.4617,49.3551,1237.2349],[111.4803,49.3475,1241.1912],[111.5019,49.3438,1304.906],[111.522,49.3461,1282.6226],[111.6625,49.3963,962.1968],[111.6949,49.4044,1011.08],[111.7159,49.4067,1282.5288],[111.7284,49.4059,1148.4724],[111.7717,49.3971,1259.7026],[111.8189,49.3911,1198.7036],[111.8977,49.3917,1081.667],[111.9345,49.3955,1049.3025],[111.9657,49.4025,987.6243],[111.9857,49.4091,1193.5804],[112.0195,49.4251,1119.9021],[112.0382,49.4282,996.7692],[112.1109,49.4313,989.4603],[112.1327,49.4362,889.5891],[112.1964,49.4591,1057.8622],[112.2241,49.4669,1088.0159],[112.2613,49.4837,926.1953],[112.2861,49.4901,1032.3987],[112.3373,49.494,880.6239],[112.4377,49.5247,859.9885],[112.4559,49.5339,857.0665],[112.4891,49.5426,848.4776],[112.5132,49.5465,835.8164],[112.593,49.5254,842.2157],[112.6085,49.5247,901.8823],[112.6469,49.5283,954.9236],[112.6611,49.5242,956.0493],[112.6916,49.5047,1218.9086],[112.7163,49.4918,1008.2439],[112.7413,49.4899,1076.8064],[112.7549,49.4924,1188.939],[112.7911,49.5031,1169.4017],[112.7985,49.5073,1237.4497],[112.8145,49.5111,1243.9385],[112.8409,49.5223,1245.1309],[112.8673,49.5391,1251.5785],[112.8889,49.5502,1241.6985],[112.9321,49.5663,1257.1497],[112.9661,49.5865,1168.1696],[112.9933,49.5933,1182.8768],[113.0875,49.6083,1107.3679],[113.1006,49.6143,1157.3147],[113.1035,49.625,1033.0746],[113.0959,49.6556,1059.2839],[113.1079,49.6811,1056.9923],[113.1191,49.6953,1131.6074],[113.1304,49.7195,1046.8167],[113.1459,49.7451,957.569],[113.1863,49.8009,980.1282],[113.1985,49.8127,1004.4904],[113.2303,49.8349,1164.0662],[113.3292,49.8778,1029.7119],[113.3589,49.8924,1086.2043],[113.3965,49.9175,971.0126],[113.4442,49.9392,1046.2434],[113.4547,49.9418,993.5029],[113.4667,49.9497,993.6936],[113.4776,49.9662,962.1047],[113.4933,49.9749,969.3821],[113.5263,49.9751,1103.1719],[113.5365,49.9793,1031.8838],[113.5706,50.0076,1106.9719],[113.6005,50.0227,1059.3123],[113.6659,50.0425,1042.6533],[113.7007,50.0561,885.6112],[113.7415,50.0762,1041.5571],[113.7793,50.0901,951.7354],[113.7957,50.0941,1041.7585],[113.8201,50.0949,998.0349],[113.8389,50.0916,920.305],[113.8565,50.0855,912.0164],[113.8688,50.0846,939.1566],[113.8953,50.1067,909.8966],[113.9464,50.1311,876.3871],[114.0159,50.1777,922.8167],[114.0344,50.1857,837.109],[114.0757,50.1846,859.0825],[114.0839,50.1867,871.5582],[114.0955,50.1931,885.6196],[114.1083,50.2078,1011.8287],[114.1121,50.2103,971.6763],[114.1389,50.2191,911.4329],[114.1957,50.2471,911.3624],[114.2322,50.2586,873.3407],[114.2871,50.2719,877.2171],[114.349,50.2829,839.8817],[114.3694,50.2811,780.9029],[114.3951,50.2639,785.8075],[114.4207,50.2534,781.8454],[114.4545,50.2445,781.816],[114.4863,50.2424,850.9957],[114.4884,50.2396,864.0077],[114.5073,50.2371,813.3723],[114.5468,50.238,800.4808],[114.5839,50.2423,759.7406],[114.5935,50.2455,788.7493],[114.6427,50.2552,795.5513],[114.6723,50.2563,772.2035],[114.7089,50.2527,776.7456],[114.7488,50.2462,748.4845],[114.8113,50.2325,733.842],[114.8223,50.2273,713.9993],[114.8554,50.222,715.5731],[114.9534,50.1946,691.905],[114.9644,50.1934,676.0],[115.0041,50.1774,680.717],[115.0073,50.1723,687.1161],[115.0255,50.1573,726.2187],[115.0679,50.1121,676.3715],[115.1527,50.0497,654.2509],[115.1785,50.0292,650.9548],[115.1813,50.0237,648.8106],[115.2136,49.9961,651.3842],[115.2379,49.9794,650.4364],[115.2661,49.9657,614.6472],[115.3251,49.9405,664.4968],[115.346,49.9296,612.4894],[115.36,49.9164,604.7581],[115.3746,49.9078,598.368],[115.4007,49.9023,599.6056],[115.4205,49.901,600.0642],[115.4579,49.9087,594.5],[115.4677,49.9081,608.9951],[115.4879,49.8969,599.1142],[115.5091,49.8961,599.0353],[115.5529,49.9073,599.2984],[115.5927,49.9034,602.0782],[115.6198,49.8976,604.5139],[115.667,49.8905,608.8322],[115.7209,49.8846,621.2015],[115.7415,49.8848,621.3962],[115.7593,49.8871,624.0963],[115.7689,49.8901,626.3628],[115.8553,49.9327,635.8407],[115.8926,49.9469,637.3613],[115.9089,49.9499,641.6833],[115.9194,49.9559,645.752],[115.9517,49.9687,679.2812],[115.9663,49.9727,680.0037],[116.0261,49.9985,701.789],[116.0573,50.0083,701.9617],[116.0987,50.0169,714.2563],[116.1257,50.0204,702.6782],[116.1348,50.0196,701.0504],[116.2051,50.0317,673.4662],[116.2339,50.0325,702.9686],[116.2641,50.0251,691.7336],[116.4103,49.9745,846.5594],[116.4477,49.9631,755.1392],[116.5361,49.9525,738.5933],[116.6067,49.9403,675.3032],[116.6122,49.9377,671.522],[116.6224,49.9282,665.4645],[116.6411,49.9033,720.2781],[116.6736,49.8726,683.7579],[116.6909,49.8488,643.4047],[116.7067,49.8338,644.3785],[116.7195,49.8271,644.1297],[116.8042,49.7919,669.0912],[116.8229,49.7784,700.3597],[116.8568,49.7576,726.0112],[116.8868,49.7507,771.9524],[116.9334,49.7252,784.4423],[116.948,49.721,779.9845],[116.9721,49.7177,800.1415],[117.003,49.7094,805.4351],[117.069,49.6861,787.0297],[117.2743,49.6315,688.9189],[117.3257,49.6281,670.3051],[117.4235,49.6329,675.0747],[117.4492,49.6328,654.2689],[117.4785,49.6284,656.449],[117.7229,49.541,574.6217],[117.7423,49.5365,595.7942],[117.842,49.5069,544.2339],[117.8546,49.5054,544.6817],[117.8653,49.5089,543.8561],[117.8711,49.5156,543.6355],[117.8735,49.5304,543.1385],[117.8714,49.5366,543.4388],[117.8734,49.5384,543.0575],[117.9064,49.5426,543.1434],[117.9354,49.5637,540.666],[117.9551,49.5677,541.5697],[117.9715,49.5794,541.1867],[117.9867,49.5837,540.538],[117.9997,49.5981,539.2817],[118.0092,49.6035,541.1893],[118.0146,49.6115,540.22],[118.0183,49.6135,538.9984],[118.0269,49.6118,540.0834],[118.031,49.6186,540.1351],[118.0366,49.6192,539.8995],[118.0407,49.6092,539.2253],[118.0459,49.6097,539.6945],[118.0504,49.6139,540.0305],[118.0556,49.6144,539.1696],[118.0587,49.6116,539.9105],[118.0638,49.6108,554.0241],[118.0668,49.6124,541.4796],[118.0701,49.6177,539.5056],[118.0689,49.6233,539.5349],[118.0603,49.629,539.2111],[118.0641,49.632,538.9896],[118.0744,49.6317,539.2682],[118.086,49.6396,538.9077],[118.0895,49.6384,539.2457],[118.0912,49.6305,538.8906],[118.0979,49.6339,538.8506],[118.1109,49.647,538.1434],[118.1053,49.6499,538.3702],[118.1118,49.6543,537.4408],[118.1096,49.659,537.3945],[118.1117,49.6613,538.1998],[118.1208,49.6624,537.9788],[118.1507,49.6594,536.9551],[118.159,49.661,537.6747],[118.1721,49.6711,537.2124],[118.1713,49.6736,535.2407],[118.1745,49.6775,535.525],[118.1903,49.6802,536.5824],[118.1981,49.685,535.9498],[118.2076,49.6939,536.2526],[118.2091,49.6989,535.6125],[118.2043,49.7057,534.9854],[118.2072,49.7109,536.4153],[118.2171,49.7151,535.4191],[118.2277,49.7272,535.8732],[118.2383,49.733,535.592],[118.2499,49.7378,535.6653],[118.2665,49.7421,537.6981],[118.27,49.7453,544.7124],[118.2758,49.7434,535.0691],[118.2863,49.7467,532.7745],[118.3051,49.7655,534.6952],[118.3112,49.7666,534.5416],[118.3252,49.765,534.3207],[118.3307,49.7712,533.7222],[118.3544,49.7763,532.9087],[118.3795,49.7761,533.77],[118.3731,49.7887,533.9812],[118.3801,49.7919,533.4767],[118.3794,49.8011,532.8206],[118.387,49.8029,532.5755],[118.3884,49.8063,533.2253],[118.3854,49.8174,532.3347],[118.3868,49.8241,532.2401],[118.3947,49.8228,532.3212],[118.409,49.8163,532.4694],[118.4167,49.8151,532.3686],[118.4256,49.8209,532.3161],[118.4378,49.8228,532.2975],[118.4504,49.829,531.776],[118.4563,49.8235,531.859],[118.4608,49.8231,531.9207],[118.4664,49.8258,531.6379],[118.466,49.8316,530.826],[118.4693,49.836,531.6375],[118.4845,49.8344,531.3933],[118.4867,49.8374,531.1989],[118.4863,49.8402,531.4742],[118.4806,49.8461,530.7825],[118.4833,49.8513,531.3381],[118.4788,49.8556,530.713],[118.4831,49.8608,531.1051],[118.488,49.8722,530.3413],[118.4935,49.8755,530.7426],[118.4985,49.8764,529.984],[118.5077,49.8736,530.704],[118.5138,49.8767,530.2628],[118.5203,49.8845,530.1303],[118.5198,49.8896,529.9791],[118.5221,49.8939,529.6089],[118.5279,49.8973,530.3597],[118.5364,49.8974,529.7771],[118.5418,49.8995,529.4238],[118.5511,49.8981,529.6719],[118.5556,49.9005,529.8892],[118.5495,49.906,529.6824],[118.5535,49.91,528.6561],[118.549,49.9149,529.0831],[118.5547,49.9212,529.2937],[118.5626,49.9257,528.9425],[118.5866,49.9234,528.8577],[118.5984,49.9278,527.9724],[118.6056,49.9246,528.3215],[118.6148,49.9291,528.6489],[118.6144,49.9384,528.317],[118.6291,49.9335,528.223],[118.641,49.9403,528.2978],[118.6446,49.9446,528.0834],[118.6574,49.9448,527.8704],[118.6708,49.9484,527.6121],[118.6964,49.9449,526.9509],[118.7376,49.9456,526.4389],[118.7513,49.9524,525.8785],[118.7706,49.9544,526.2031],[118.7989,49.9652,525.5452],[118.8345,49.962,524.2434],[118.8447,49.9652,524.9454],[118.8618,49.9657,525.0737],[118.8746,49.9736,523.6456],[118.8857,49.9677,524.2306],[118.9142,49.9782,523.9996],[118.9332,49.9817,523.8782],[118.9487,49.9802,523.5813],[118.9698,49.9819,523.2991],[118.9711,49.9719,523.976],[118.9797,49.9733,524.2347],[118.9892,49.97,557.0806],[118.9961,49.9758,523.1848],[119.0335,49.9807,522.605],[119.0413,49.9772,522.5727],[119.0605,49.9842,522.5366],[119.0736,49.9838,522.9161],[119.0837,49.9928,522.1836],[119.0974,49.995,521.8053],[119.1061,50.0,521.2723],[119.1173,50.0132,521.0587],[119.1336,50.013,521.1573],[119.1489,50.0089,521.6056],[119.17,50.0071,532.0978],[119.1868,50.0087,521.6708],[119.1975,50.0121,522.3572],[119.2231,50.0403,520.4222],[119.2493,50.056399999999996,531.9456],[119.2607,50.0598,520.4064],[119.2772,50.0721,519.4529],[119.2812,50.08,522.8545],[119.293,50.0793,518.8796],[119.3007,50.0881,518.7323],[119.3018,50.0961,519.8139],[119.3219,50.1046,518.6519],[119.3214,50.1108,519.6559],[119.3146,50.1207,517.7115],[119.3187,50.132,517.9859],[119.3311,50.1386,518.2376],[119.3301,50.1423,518.131],[119.3372,50.1557,517.7799],[119.3503,50.1588,517.6879],[119.3606,50.168,517.616],[119.3638,50.1749,517.6754],[119.3527,50.2082,516.7274],[119.3598,50.2184,527.2212],[119.3599,50.229,518.2454],[119.3369,50.238,517.7944],[119.3315,50.2438,515.4677],[119.3303,50.2566,516.2277],[119.3229,50.2606,515.5203],[119.3245,50.2732,515.4098],[119.3164,50.2772,515.1166],[119.3249,50.2835,514.7202],[119.3327,50.2967,540.257],[119.3423,50.3029,517.2571],[119.3489,50.3029,515.0606],[119.3586,50.3057,514.9678],[119.3676,50.3119,514.048],[119.3688,50.3144,514.7509],[119.368,50.3169,512.5],[119.3565,50.3184,536.2808],[119.3516,50.3224,514.8292],[119.3511,50.3251,513.0984],[119.3555,50.3308,513.2244],[119.3557,50.3335,514.6827],[119.3524,50.3398,513.3353],[119.3456,50.3468,513.9587],[119.3209,50.3499,512.1876],[119.3051,50.3455,515.1936],[119.2974,50.3408,553.5188],[119.2921,50.3405,553.7462],[119.2873,50.3463,535.2246],[119.2838,50.3462,534.5634],[119.2813,50.3456,522.7643],[119.2795,50.3417,515.5641],[119.2769,50.3399,535.6844],[119.2689,50.3398,510.8044],[119.2589,50.3423,511.7862],[119.2472,50.3367,511.3522],[119.2331,50.3396,510.9841],[119.2302,50.3428,510.7934],[119.2277,50.3515,509.4328],[119.2214,50.3568,510.251],[119.2065,50.3555,509.535],[119.1837,50.3459,527.1295],[119.1785,50.3457,507.4953],[119.1752,50.353,508.5402],[119.164,50.3522,508.9062],[119.1583,50.355,509.0668],[119.1558,50.3597,509.2486],[119.1611,50.3739,508.0779],[119.1591,50.3755,507.7599],[119.1505,50.3774,506.8192],[119.1407,50.3831,507.2236],[119.1354,50.3821,507.2496],[119.132,50.3786,508.2366],[119.1243,50.3751,507.8498],[119.1179,50.3784,507.1749],[119.1161,50.3818,508.0463],[119.1163,50.3848,508.0189],[119.1198,50.3896,506.3215],[119.1295,50.3955,509.2029],[119.1392,50.4078,505.2806],[119.1496,50.4149,506.9938],[119.1579,50.4178,506.724],[119.1675,50.4192,504.7401],[119.1856,50.4173,504.0958],[119.2039,50.4097,504.4162],[119.2103,50.4273,505.5477],[119.2206,50.4397,504.6336],[119.2324,50.4429,504.7831],[119.241,50.4505,503.682],[119.236,50.4606,503.5275],[119.2475,50.4716,503.7069],[119.2521,50.481,502.2383],[119.2473,50.4931,502.6156],[119.2307,50.5028,502.734],[119.2529,50.5096,501.9884],[119.259,50.5167,502.7517],[119.2569,50.5276,502.0681],[119.2703,50.5495,501.1285],[119.2586,50.5642,501.1984],[119.2619,50.5682,499.7387],[119.2742,50.5729,500.8662],[119.2823,50.5783,499.855],[119.283,50.5847,499.428],[119.2816,50.5847,500.6367],[119.2837,50.5888,499.2567],[119.2768,50.5949,499.8427],[119.2735,50.6018,499.6063],[119.2747,50.6038,497.0],[119.2803,50.6097,507.6943],[119.289,50.6142,497.8773],[119.3021,50.6164,499.4258],[119.312,50.6214,498.8193],[119.319,50.6283,498.0147],[119.321,50.635,498.2338],[119.3255,50.6373,496.7961],[119.3324,50.6366,497.3846],[119.3402,50.6316,497.3295],[119.3441,50.6315,497.7663],[119.3575,50.6482,497.1154],[119.3713,50.6569,495.0931],[119.375,50.6632,496.5872],[119.3738,50.6675,495.9637],[119.3693,50.6719,496.3923],[119.3691,50.677,493.5],[119.3722,50.6811,543.5179],[119.3796,50.6848,496.2654],[119.4114,50.6878,495.908],[119.4283,50.6934,494.8914],[119.4331,50.6987,494.8616],[119.4357,50.7075,494.2027],[119.4511,50.7152,494.2524],[119.4803,50.7395,490.7438],[119.4896,50.7545,492.4208],[119.4882,50.7722,490.4447],[119.4912,50.7791,491.1029],[119.5059,50.7888,491.2843],[119.5054,50.8057,489.981],[119.5021,50.8181,489.8547],[119.489,50.8394,486.5],[119.4939,50.8439,488.8714],[119.5076,50.8472,488.5482],[119.5103,50.8604,487.7648],[119.5181,50.8639,488.6999],[119.5212,50.8827,487.689],[119.5109,50.901,486.8254],[119.5144,50.9066,487.217],[119.5347,50.9163,486.3228],[119.5416,50.9237,486.0836],[119.5498,50.929,485.8043],[119.5682,50.9511,484.8827],[119.5808,50.9756,500.7],[119.5923,50.9847,482.3518],[119.6047,50.9917,493.6197],[119.6157,51.0052,498.9917],[119.632,51.0118,483.2747],[119.6598,51.013,482.5924],[119.6676,51.015,480.0],[119.6739,51.019,482.6704],[119.6866,51.0191,481.5345],[119.6923,51.0278,482.017],[119.6936,51.0388,481.2011],[119.7113,51.0535,480.659],[119.711,51.0634,479.4513],[119.7073,51.07,478.4323],[119.7235,51.0745,478.9522],[119.7319,51.0847,479.152],[119.745,51.0903,477.5564],[119.7494,51.1006,478.3985],[119.7404,51.1077,478.0995],[119.7389,51.1162,477.5249],[119.7608,51.1246,477.6269],[119.7665,51.1376,477.2362],[119.768,51.1527,476.2984],[119.7595,51.1587,474.5811],[119.7644,51.1632,475.3879],[119.7719,51.163,473.6726],[119.7727,51.1714,476.0281],[119.7634,51.1841,473.8488],[119.7588,51.1984,473.3616],[119.7569,51.2108,474.1913],[119.7591,51.2183,473.3156],[119.7672,51.2237,474.3361],[119.7793,51.2242,481.1357],[119.8027,51.2167,472.9765],[119.809,51.2202,506.3791],[119.8096,51.2259,480.2563],[119.8025,51.2309,507.3332],[119.7894,51.2361,511.1383],[119.7872,51.2437,471.1246],[119.7877,51.2494,510.6173],[119.8103,51.2646,484.6193],[119.8063,51.2704,500.6358],[119.806,51.2827,480.5766],[119.8205,51.2926,502.7456],[119.8677,51.2974,471.7225],[119.8734,51.3095,471.7358],[119.8776,51.3368,466.1501],[119.8796,51.3414,468.4893],[119.8922,51.3466,467.5623],[119.9121,51.3497,470.0414],[119.9277,51.3547,471.0382],[119.9298,51.3603,470.2997],[119.9213,51.3663,487.2054],[119.9068,51.3726,465.0582],[119.8998,51.3785,466.8234],[119.9005,51.3851,464.0631],[119.9056,51.3915,463.3907],[119.9166,51.3949,465.5651],[119.9363,51.396,463.5385],[119.9539,51.4057,497.5336],[119.9531,51.4124,499.4377],[119.9612,51.4178,480.9666],[119.9623,51.4291,474.075],[119.9694,51.4392,488.3634],[119.9874,51.4527,464.1617],[119.9884,51.4631,463.463],[119.9845,51.4689,467.8638],[119.9746,51.4759,463.2629],[119.9709,51.4908,462.0054],[119.9829,51.5043,460.9983],[120.0072,51.5144,463.9226],[120.0347,51.5401,458.3819],[120.0432,51.5526,456.7659],[120.0471,51.5632,457.4868],[120.0465,51.5705,456.1951],[120.0348,51.5803,454.8346],[120.0347,51.5883,454.2855],[120.0368,51.5965,451.9149],[120.0495,51.6122,453.8235],[120.0522,51.6253,497.7579],[120.0612,51.6357,462.4893],[120.0974,51.6481,513.809],[120.0963,51.6544,448.3364],[120.0864,51.6691,450.6861],[120.0925,51.6772,451.1495],[120.1033,51.6768,447.1557],[120.1154,51.6729,459.0694],[120.1337,51.673,446.0248],[120.1481,51.6745,450.5538],[120.1745,51.6816,455.1915],[120.2002,51.7027,450.9082],[120.2193,51.7141,456.9025],[120.2254,51.7224,470.6932],[120.2484,51.7291,442.4065],[120.255,51.7336,457.9097],[120.2631,51.7463,458.0301],[120.2684,51.75,442.1528],[120.2834,51.7506,452.9425],[120.2898,51.7528,512.6715],[120.2954,51.7571,467.2405],[120.3117,51.7806,483.5807],[120.3187,51.7849,440.0062],[120.3513,51.7894,442.3155],[120.3667,51.8034,454.6473],[120.3747,51.8077,438.699],[120.3881,51.811,445.1546],[120.3994,51.8117,445.4525],[120.402,51.816,501.4844],[120.3981,51.8251,516.8809],[120.4004,51.8298,503.4601],[120.4134,51.835,490.7288],[120.4374,51.8414,432.41],[120.454,51.8435,436.9312],[120.4546,51.8461,440.7062],[120.4643,51.8507,461.4601],[120.4685,51.8545,475.847],[120.4706,51.863,441.5146],[120.4693,51.8746,447.0616],[120.471,51.8798,440.5981],[120.474,51.8829,438.5595],[120.4956,51.8879,503.6217],[120.5257,51.8802,429.903],[120.5385,51.8791,426.5],[120.5446,51.882,530.4454],[120.5477,51.8915,426.0],[120.5476,51.904,437.9185],[120.5501,51.9076,430.278],[120.5572,51.9122,428.2696],[120.5819,51.9102,424.0],[120.5928,51.9124,425.352],[120.5981,51.9175,492.2966],[120.6069,51.9217,488.9133],[120.636,51.9246,481.3029],[120.6464,51.9282,459.7787],[120.652,51.9341,434.9381],[120.6515,51.9493,470.4733],[120.6559,51.9574,426.0013],[120.6929,51.9827,463.646],[120.7078,51.9979,426.8984],[120.7069,52.0065,462.51],[120.7104,52.0105,421.8188],[120.7061,52.0169,422.4671],[120.6881,52.0236,418.3188],[120.6806,52.0316,418.0768],[120.6797,52.0431,418.3428],[120.6863,52.0536,541.4429],[120.7014,52.0633,422.3984],[120.7112,52.0745,447.5687],[120.7183,52.0771,413.683],[120.7408,52.0784,436.3542],[120.7308,52.0895,497.7085],[120.7612,52.1124,414.3],[120.7517,52.1398,424.496],[120.7552,52.1438,486.5724],[120.7707,52.1501,408.2303],[120.7782,52.1584,408.6269],[120.7743,52.1652,414.7208],[120.7469,52.1876,465.0435],[120.7366,52.207,407.8888],[120.7354,52.2174,405.8286],[120.7383,52.2237,407.5637],[120.7563,52.2445,403.1517],[120.7536,52.2499,404.9124],[120.7425,52.2534,452.1765],[120.716,52.2557,440.5736],[120.7064,52.2583,408.4609],[120.7011,52.2628,482.9314],[120.6963,52.2774,399.1882],[120.6875,52.2838,446.9355],[120.6479,52.2985,463.6638],[120.6206,52.313,480.0577],[120.6181,52.315,472.5012],[120.6163,52.3224,430.924],[120.6147,52.337,399.2587],[120.6102,52.3447,398.9375],[120.61,52.3477,401.7735],[120.6164,52.3568,397.4008],[120.6208,52.3591,399.7929],[120.6348,52.3577,446.9674],[120.6443,52.3648,396.4784],[120.6413,52.3827,395.196],[120.6575,52.4053,391.4505],[120.6697,52.4134,423.1129],[120.6796,52.4297,398.3839],[120.675,52.4593,391.2329],[120.6796,52.4671,419.9612],[120.6764,52.4721,394.6741],[120.6765,52.476,402.4758],[120.6932,52.4831,386.9869],[120.6945,52.4898,402.585],[120.6912,52.4961,407.0076],[120.6818,52.5033,390.8575],[120.6793,52.5077,424.7554],[120.6806,52.5118,386.0208],[120.687,52.5157,387.564],[120.7197,52.5288,384.9558],[120.7229,52.535,391.5196],[120.721,52.5431,400.9692],[120.7059,52.5496,389.1647],[120.6997,52.5493,382.4267],[120.6896,52.5441,396.9487],[120.6818,52.5426,461.7868],[120.6582,52.5573,414.3632],[120.6478,52.5619,420.8996],[120.6195,52.5674,425.7592],[120.612,52.5707,393.6859],[120.6022,52.578,394.3209],[120.5961,52.5891,378.8643],[120.5837,52.5941,463.2192],[120.5617,52.5929,379.9349],[120.5408,52.5972,463.473],[120.5211,52.6079,388.7848],[120.4816,52.6234,468.3356],[120.4619,52.6368,439.2065],[120.4525,52.6413,405.0552],[120.4379,52.6413,377.9424],[120.428,52.6375,383.6504],[120.3945,52.6188,452.3587],[120.3715,52.6151,374.3026],[120.2704,52.6197,385.9303],[120.2154,52.5967,476.2595],[120.1824,52.5767,393.0495],[120.1394,52.5848,389.8416],[120.1097,52.5853,364.0286],[120.0789,52.5826,364.4613],[120.0612,52.5841,411.4282],[120.0507,52.5886,425.7334],[120.0389,52.5969,430.7668],[120.028,52.6145,464.7458],[120.0242,52.6316,438.0314],[120.0247,52.6442,428.1717],[120.0306,52.6608,402.8145],[120.047,52.6805,360.0812],[120.055,52.6979,403.0344],[120.0556,52.7048,414.8492],[120.0498,52.7151,389.9121],[120.0451,52.7319,400.6335],[120.0246,52.7597,362.6276],[120.0243,52.7681,354.904],[120.0272,52.7722,363.5615],[120.0364,52.776,368.6003],[120.0665,52.7792,357.2809],[120.0918,52.7922,361.3268],[120.1153,52.8069,443.779],[120.1307,52.8119,354.3651],[120.1413,52.8123,350.0],[120.1532,52.8083,419.1846],[120.1655,52.8065,369.0133],[120.1715,52.8088,413.8499],[120.1942,52.8352,453.571],[120.2192,52.8473,447.174],[120.2664,52.8603,410.7109],[120.2804,52.8663,429.9091],[120.2789,52.8836,442.9373],[120.2872,52.8944,442.3206],[120.2963,52.8974,430.573],[120.3276,52.8991,349.3502],[120.3303,52.9024,431.7008],[120.3298,52.9153,440.9581],[120.3396,52.9347,437.0206],[120.35,52.9362,349.1111],[120.3595,52.9419,350.1742],[120.382,52.9457,344.9903],[120.3945,52.9532,341.7168],[120.4037,52.9616,357.4521],[120.4168,52.9863,376.6054],[120.4258,52.9962,374.844],[120.4598,53.0178,419.436],[120.4902,53.0297,345.5908],[120.4984,53.0372,336.532],[120.5077,53.0421,408.8722],[120.5157,53.0488,368.4254],[120.525,53.0652,432.3877],[120.5235,53.0652,432.3877],[120.5293,53.0714,429.9135],[120.5436,53.0789,433.7053],[120.5721,53.0861,336.5969],[120.595,53.0974,427.8275],[120.6189,53.0996,337.6564],[120.6272,53.1044,414.1239],[120.639,53.1316,421.7328],[120.6529,53.1352,333.0549],[120.6752,53.1446,430.4913],[120.686,53.1562,397.3058],[120.6839,53.1627,398.455],[120.6824,53.1628,420.1296],[120.6809,53.1737,354.2061],[120.6944,53.1803,360.8452],[120.7087,53.1922,413.7061],[120.7265,53.202,327.6557],[120.7491,53.2077,371.1762],[120.7641,53.2138,327.7911],[120.7875,53.2301,346.7665],[120.8002,53.2353,329.7125],[120.8092,53.2375,338.6546],[120.8194,53.237,356.4256],[120.8256,53.2403,380.2701],[120.8274,53.2428,393.1526],[120.8185,53.2537,338.3192],[120.8118,53.2584,334.2542],[120.8139,53.2636,323.3332],[120.8342,53.2741,334.0405],[120.8521,53.2767,328.0147],[120.8658,53.2814,342.0391],[120.8708,53.2864,347.4027],[120.8767,53.287,322.94],[120.9023,53.2815,418.6812],[120.9112,53.282,417.7327],[120.9369,53.2887,343.3571],[120.9693,53.2907,335.5362],[121.0038,53.2865,387.9791],[121.0404,53.2866,320.5766],[121.0701,53.3019,358.1365],[121.0831,53.3004,342.5779],[121.0884,53.2958,344.4007],[121.1037,53.2898,421.4963],[121.1136,53.2762,365.8431],[121.1219,53.2732,391.4128],[121.1309,53.2745,321.8309],[121.1403,53.2793,313.2206],[121.1685,53.2824,336.2281],[121.1931,53.2803,334.4116],[121.2185,53.2813,350.4563],[121.2402,53.2904,328.2917],[121.262,53.2901,320.4891],[121.2802,53.2941,345.2677],[121.2926,53.2996,407.6895],[121.3084,53.3152,330.6961],[121.3183,53.322,319.0571],[121.3361,53.3251,307.3199],[121.3556,53.3249,308.1694],[121.3713,53.3203,318.3378],[121.3889,53.3182,307.1158],[121.4125,53.3216,308.4144],[121.4388,53.3231,308.5516],[121.4465,53.3281,357.0323],[121.4687,53.3326,307.117],[121.4758,53.3315,305.4919],[121.5824,53.3553,312.3167],[121.6122,53.3685,327.3206],[121.6556,53.3759,306.6802],[121.6656,53.3841,308.0887],[121.6764,53.3879,300.5604],[121.6898,53.389,300.5797],[121.7169,53.3841,311.3881],[121.73779999999999,53.3865,299.1031],[121.8153,53.4149,298.174],[121.836,53.4156,297.7827],[121.8591,53.4231,302.1813],[121.9044,53.4216,294.6815],[121.9212,53.426,306.4753],[121.9687,53.4296,298.7357],[122.0332,53.4191,356.8582],[122.0517,53.4211,291.4872],[122.0419,53.4438,304.5389],[122.0276,53.4901,449.0885],[122.0045,53.5333,541.5952],[121.9522,53.5535,515.506],[121.9476,53.591,420.3896],[121.9646,53.6358,555.9319],[121.9307,53.6705,510.2269],[121.9666,53.7134,666.8135],[121.9297,53.7612,587.923],[121.9448,53.8199,660.3289],[121.8913,53.8499,602.296],[121.8387,53.9104,546.8954],[121.797,53.9736,739.1948],[121.7544,53.9878,565.4736],[121.7272,53.9547,542.3739],[121.6259,54.0439,611.0874],[121.6344,54.0846,679.7369],[121.6346,54.123,807.5254],[121.6598,54.1469,869.637],[121.723,54.1778,969.3394],[121.7319,54.1992,932.8913],[121.7009,54.261,776.3802],[121.7004,54.2948,864.2222],[121.6685,54.3357,1342.4099],[121.6583,54.3733,1377.0399],[121.7012,54.4187,1188.6313],[121.7918,54.4529,1199.1704],[121.8271,54.4008,1163.5165],[121.895,54.3999,1311.1951],[121.9239,54.4182,1384.9485],[121.9703,54.4245,1104.4399],[122.0792,54.451,1133.5688],[122.093,54.4896,979.2077],[122.0652,54.5019,854.2648],[121.9835,54.5249,878.5604],[121.9853,54.5486,898.5972],[121.9297,54.5769,1004.4042],[121.9113,54.6228,768.7031],[121.863,54.6698,754.041],[121.8842,54.7089,704.9844],[121.8962,54.7479,833.1128],[121.8643,54.7916,795.4503],[121.8074,54.7883,830.4497],[121.7452,54.7773,863.9858],[121.6814,54.7388,912.6047],[121.672,54.7838,859.3774],[121.6774,54.8337,899.725],[121.7102,54.8734,650.3166],[121.7643,54.912,648.9741],[121.8083,54.9361,660.3741],[121.8992,54.9675,737.4299],[121.9527,55.0224,821.5862],[121.9551,55.0699,797.0613],[121.9536,55.1452,769.5437],[121.9844,55.1747,829.8613],[122.0421,55.1953,872.7202],[121.9144,55.2123,762.481],[121.9226,55.2663,714.3815],[121.9629,55.3325,568.3],[121.9868,55.3913,608.9433],[121.9654,55.4683,561.4581],[121.9061,55.5419,743.0783],[121.8273,55.5923,829.9904],[121.7504,55.6125,1135.3445],[121.6813,55.6092,852.8676],[121.6574,55.5649,757.9475],[121.6286,55.5177,957.3886],[121.5516,55.4853,937.0389],[121.5045,55.5008,834.8715],[121.3717,55.5083,932.7542],[121.311,55.5567,734.8381],[121.3432,55.6081,626.0781],[121.3007,55.6779,516.6633],[121.2722,55.745,669.4705],[121.2967,55.7816,814.919],[121.3024,55.8282,948.3848],[121.2476,55.8676,825.2158],[121.2427,55.8981,808.3741],[121.2498,55.9825,1256.3787],[121.2047,56.0192,1259.8152],[121.1342,56.0346,1043.3037],[121.0256,56.0074,1040.9811],[120.9567,56.0291,1099.1199],[120.8316,56.0254,1566.6802],[120.7691,55.9813,1304.9174],[120.6892,55.98,1154.7881],[120.6124,55.9316,1138.7737],[120.5214,55.9322,1049.439],[120.4423,55.8974,921.561],[120.3556,55.8904,1150.2842],[120.3419,55.9089,1048.932],[120.2871,55.931399999999996,1008.405],[120.2184,55.9289,1073.9319],[120.1521,55.8984,738.5652],[120.1085,55.8906,726.2957],[120.0733,55.9107,842.6582],[120.0618,55.9533,799.3638],[120.0714,56.0122,920.9656],[120.0393,56.0772,1184.8684],[120.058,56.1564,1537.9424],[120.1362,56.1869,1550.005],[120.1796,56.2222,1549.0563],[120.46,56.2469,1643.8972],[120.49,56.276,1660.8682],[120.4477,56.3022,1543.8914],[120.3544,56.316,1325.1804],[120.3557,56.3688,1697.4044],[120.2561,56.3903,1554.9531],[120.2809,56.4571,1717.2786],[120.2427,56.4701,1688.7709],[120.122,56.4627,1615.0543],[120.097,56.481,1656.561],[120.0291,56.478,1583.8818],[119.9451,56.4956,1832.7957],[119.9286,56.5399,1492.0697],[119.7727,56.6058,1458.262],[119.7813,56.6507,1554.5892],[119.8389,56.6726,1990.6208],[119.8211,56.6981,1989.616],[119.6344,56.7536,1895.8872],[119.6233,56.7856,1824.5789],[119.6623,56.8087,1990.7694],[119.7915,56.8758,1420.9636],[119.7815,56.9058,1274.0415],[119.7135,56.9393,1571.8405],[119.6371,56.9807,1328.2716],[119.5954,57.0562,1127.9061],[119.6023,57.1202,1197.3925],[119.6626,57.1636,1372.8618],[119.5911,57.2107,1334.1726],[119.5245,57.2674,1441.6788],[119.5122,57.3297,849.1763],[119.4526,57.37,889.34],[119.3915,57.4182,1103.7621],[119.3971,57.4993,942.4703],[119.4297,57.5367,1438.3196],[119.4462,57.5795,1179.283],[119.3943,57.6063,1161.5841],[119.3123,57.616,1087.5173],[119.2452,57.6008,1205.635],[119.2391,57.5377,1199.9812],[119.1834,57.5132,1258.6671],[119.1274,57.5679,1227.4951],[119.1458,57.6489,1337.1731],[119.1131,57.6972,1117.7034],[119.0072,57.7272,972.8923],[119.0044,57.768,1021.5302],[119.0438,57.7923,1149.7571],[119.0813,57.9043,991.7827],[119.0783,57.9838,1055.9921],[119.1329,58.0481,1208.0822],[119.1069,58.0962,997.4681],[119.1371,58.1275,1044.1989],[119.0888,58.2241,1171.2656],[118.9722,58.214,1128.941],[118.8204,58.209,930.6439],[118.6365,58.1774,1142.4148],[118.4449,58.2264,528.5787],[118.3512,58.2791,337.6538],[118.297,58.3374,342.2609],[118.1877,58.3789,325.1682],[118.0841,58.3933,304.2919],[118.0032,58.3736,455.8469],[117.8502,58.4124,939.7939],[117.7855,58.424,774.8444],[117.7005,58.4215,896.6607],[117.6218,58.3648,736.8829],[117.5388,58.3544,805.4785],[117.4632,58.33,1252.2749],[117.427,58.2881,1293.7711],[117.5303,58.2481,1167.8472],[117.5739,58.1441,1659.5129],[117.5115,58.131,1565.3168],[117.4371,58.1737,1797.9232],[117.3847,58.1303,1307.8912],[117.4074,58.0712,1646.4114],[117.3722,58.0479,1862.4506],[117.3811,58.0111,1571.2059],[117.3525,57.9851,1226.9246],[117.3446,57.9375,1484.4662],[117.3787,57.9302,1454.0387],[117.3735,57.8982,1314.6173],[117.3238,57.8908,1457.1135],[117.2936,57.8482,1520.7849],[117.1976,57.8489,1205.4906],[117.1207,57.8525,1532.026],[117.0722,57.8225,1549.3326],[117.1329,57.8005,1497.3008],[117.169,57.735,1426.2065],[117.1136,57.6788,1392.0159],[117.1673,57.6325,1401.7389],[117.2856,57.6268,1281.7385],[117.2602,57.563,1159.9464],[117.2037,57.5304,1236.324],[117.2384,57.4846,1686.8215],[117.3222,57.4536,1232.9376],[117.31,57.3851,1332.6669],[117.3217,57.3471,1192.4967],[117.4032,57.3509,1809.1659],[117.4208,57.3139,1498.2812],[117.3652,57.2682,1318.598],[117.4284,57.2389,945.2689],[117.5433,57.2829,2028.562],[117.5587,57.3257,1919.0432],[117.6223,57.33,1962.4769],[117.72,57.3098,1784.4894],[117.7931,57.2827,1790.3345],[117.7259,57.264,1936.4248],[117.6844,57.1912,1215.4482],[117.5773,57.1659,2057.6157],[117.6205,57.1177,1886.5503],[117.6638,57.0798,1781.7749],[117.6352,57.007,1787.5435],[117.6088,56.9629,2226.8801],[117.5559,56.9479,2334.957],[117.5806,56.8976,2048.4583],[117.5366,56.8495,2145.7185],[117.4716,56.8735,2176.833],[117.403,56.8541,2280.9529],[117.3242,56.894,1953.5458],[117.3188,56.9378,1749.1555],[117.2621,56.9653,1614.139],[117.207,56.9176,1804.7059],[117.1482,56.9042,1835.3881],[117.1223,56.8712,1916.1354],[117.096,56.8299,2170.3774],[117.055,56.8159,1865.2219],[116.9991,56.8375,1716.5066],[116.9607,56.8334,2041.6396],[116.9767,56.7939,2114.0461],[116.9271,56.7996,2171.1404],[116.871,56.8016,1779.8862],[116.812,56.7675,1859.0724],[116.7652,56.7598,1616.2186],[116.716,56.7841,1767.0187],[116.5418,56.7829,1660.0834],[116.465,56.7921,1883.7299],[116.4385,56.8217,1620.7656],[116.3407,56.8363,1986.8246],[116.3068,56.8696,1752.0275],[116.2489,56.8753,1382.193],[116.205,56.8539,1751.0184],[116.138,56.8327,1353.1472],[116.0743,56.8455,1248.9819],[116.0249,56.8909,1906.8375],[115.9621,56.8933,1568.1821],[115.8029,56.9581,1016.3368],[115.7539,56.9502,895.0875],[115.7271,56.9213,1124.8356],[115.6543,56.8976,825.672],[115.596,56.869,474.7821],[115.5938,56.8235,452.3629],[115.6234,56.7735,693.6987],[115.6255,56.7263,1277.9895],[115.5961,56.6964,995.1086],[115.5643,56.6849,831.0426],[115.525,56.6657,647.4092],[115.4685,56.6583,992.2353],[115.462,56.6349,1105.458],[115.5242,56.5998,493.8718],[115.6902,56.5677,461.5598],[115.715,56.5411,469.2169],[115.7099,56.5101,542.7703],[115.7372,56.4785,501.6737],[115.7869,56.4598,470.0533],[115.7993,56.4255,463.5],[115.7536,56.4236,475.4011],[115.7145,56.4125,471.3016],[115.7139,56.3505,476.0068],[115.7923,56.2426,483.7227],[115.8356,56.1985,981.7019],[115.8571,56.162,1236.1281],[115.8639,56.1275,892.1626],[115.8129,56.0803,1068.8732],[115.7995,56.0503,1065.8214],[115.7992,56.0103,887.0383],[115.8416,55.9522,830.317],[115.8833,55.9055,587.7169],[115.8476,55.8356,652.3878],[115.8555,55.7756,586.244],[115.8832,55.7326,626.8835],[115.8721,55.7033,617.9846],[115.9273,55.656,653.1017],[115.9226,55.5084,626.4908],[115.925,55.4603,697.4109],[115.9603,55.3721,722.5142],[116.0983,55.349,636.0988],[116.1838,55.3286,666.501],[116.4126,55.3372,581.5472],[116.4972,55.2875,831.3376],[116.5367,55.2499,1047.3982],[116.5852,55.2072,903.7822],[116.62,55.1618,699.1847],[116.6758,55.1349,638.4521],[116.7447,55.1079,774.9421],[116.825,55.0801,840.5298],[116.8659,55.0392,648.1115],[116.865,54.9943,742.8752],[116.8877,54.9467,620.6373],[116.9326,54.9108,712.0072],[116.9503,54.8743,742.019],[116.9324,54.799,641.4773],[116.8816,54.752,693.6945],[116.8672,54.6959,704.5814],[116.8118,54.6722,629.0932],[116.8122,54.6138,674.7438],[116.776,54.5995,653.748],[116.7527,54.5701,683.4352],[116.712,54.5376,672.6411],[116.5397,54.5256,695.7682],[116.4961,54.5011,685.6356],[116.3981,54.4986,680.9715],[116.2817,54.5138,719.8521],[116.0644,54.4747,695.5093],[115.8371,54.443,712.3552],[115.7048,54.4305,695.9706],[115.5676,54.3907,697.2291],[115.5148,54.3335,712.7377],[115.4592,54.2701,768.4451],[115.3671,54.2305,912.0233],[115.2239,54.1943,722.9684],[115.1576,54.1519,731.6106],[114.9411,54.0496,801.7625],[114.8557,54.0013,765.4092],[114.823,53.9908,838.1999],[114.7683,53.9823,851.1871],[114.617,53.9483,902.9124],[114.5238,53.8403,751.1589],[114.4967,53.815,760.2312],[114.4488,53.8101,770.5623],[114.3512,53.8146,821.4532],[114.3215,53.7821,819.8391],[114.0766,53.7382,774.0704],[113.9865,53.7155,830.9894],[113.9834,53.7136,830.6442],[113.8868,53.6388,832.9484],[113.8445,53.6153,872.408],[113.8555,53.572,988.2695],[113.86,53.5229,1030.7749],[113.8364,53.497,1094.5571],[113.8473,53.45,1149.8406],[113.846,53.411,1142.046],[113.9069,53.3714,1096.1736],[113.9433,53.3545,1202.2561],[113.944,53.276,1140.4484],[114.0114,53.2626,1033.1898],[114.0468,53.2308,1110.1215],[114.1023,53.202,1106.3003],[114.1763,53.2072,1228.756],[114.1957,53.1457,1131.946],[114.1307,53.1066,1123.47],[114.1681,53.0811,1190.7837],[114.2624,53.0778,1202.1953],[114.325,53.0657,1218.479],[114.3014,53.0436,1259.2072],[114.2921,52.9398,1151.5999],[114.2814,52.9291,1159.2197],[114.2497,52.9268,1323.4814],[114.234,52.822,1250.6899],[114.1179,52.7269,1323.0946],[114.0659,52.6775,1293.2495],[114.0285,52.6572,1241.541],[113.9002,52.648,1150.3347],[113.774,52.6271,1136.5017],[113.6934,52.5748,1117.1749],[113.6523,52.5426,1171.3622],[113.6146,52.5006,1035.0168],[113.5659,52.4759,1039.6881],[113.4824,52.483,1098.0652],[113.3706,52.4749,951.1299],[113.2336,52.4606,1039.1248],[113.1245,52.4472,1048.4624],[113.0607,52.4271,1107.179],[112.9826,52.3853,1106.3796],[112.9256,52.3445,1160.2701],[112.8235,52.3495,1143.0579],[112.7135,52.3637,1050.3964],[112.6018,52.3554,1206.4092],[112.5186,52.3334,1158.5703],[112.481,52.289,1108.8679],[112.4534,52.2452,1175.2367],[112.4075,52.2318,1177.6591],[112.3279,52.2299,1204.8441],[112.2598,52.2557,1101.2329],[112.1929,52.2597,1155.9598],[112.1679,52.2767,1180.9092],[112.1505,52.2946,1226.7161],[112.057,52.2791,1154.9242],[112.0356,52.2383,1141.8999],[111.9631,52.2156,1142.8457],[111.9043,52.1781,1198.3848],[111.8395,52.112,1110.5226],[111.744,52.0465,1476.2981],[111.6699,51.9756,1424.4127],[111.6214,51.9404,1132.4473],[111.5431,51.9256,1376.3318],[111.4607,51.893,1359.8158],[111.4332,51.8858,1191.9973],[111.2777,51.867,1356.9456],[111.222,51.8362,1222.8315],[111.1097,51.8219,1386.3885],[111.0418,51.7999,1190.9103],[111.0071,51.7771,1214.1345],[110.9951,51.7462,1114.2451],[110.9713,51.7204,1310.1985],[110.9094,51.691,1390.8081],[110.8414,51.6631,1240.1705],[110.8217,51.6358,1216.1118],[110.8281,51.5981,1045.6296],[110.8109,51.5695,1093.3867],[110.7615,51.5567,1221.0488],[110.727,51.5404,1222.9377],[110.7121,51.5134,1441.6494],[110.6572,51.4973,1164.4653],[110.5353,51.4928,1201.9209],[110.4133,51.5149,1211.9221],[110.377,51.5452,1035.0845],[110.3523,51.5867,1209.9163],[110.2295,51.5839,1104.17],[110.065,51.5927,1082.2422],[109.9657,51.5939,1095.7455],[109.8978,51.5835,1112.0638],[109.803,51.5423,1301.9626],[109.7374,51.5068,1282.3708],[109.6741,51.4558,1120.2633],[109.6316,51.4274,1189.1355],[109.5109,51.4055,1145.1808],[109.436,51.3954,931.3371],[109.2466,51.3499,1173.2531],[109.1983,51.3763,1189.7479],[109.1118,51.3917,1029.4929],[109.0687,51.408,1042.5452],[109.0565,51.4452,990.5465],[108.9519,51.4269,1128.0896],[108.829,51.432,1051.2109],[108.7125,51.4335,954.2839],[108.657,51.4554,1100.9575],[108.5952,51.4835,1215.3652],[108.5988,51.4318,1082.9247],[108.5845,51.3949,1184.3215],[108.5379,51.376,1052.1533],[108.5153,51.3874,1237.7061],[108.4853,51.3918,1270.4612],[108.4579,51.3474,903.7924],[108.4563,51.2788,946.6665],[108.4332,51.2407,821.617],[108.3889,51.2205,832.0936],[108.3722,51.1817,914.1414],[108.4412,51.1482,1029.0596],[108.4987,51.1377,952.9476],[108.537,51.1134,838.7587],[108.5492,51.0941,1005.9921],[108.4886,51.0514,889.4312],[108.4418,51.0323,878.2327],[108.3895,51.0204,1091.2369],[108.3238,51.0182,1194.7151],[108.2951,51.0081,1031.0016],[108.2835,50.9324,1037.8774],[108.2582,50.8432,673.2033],[108.2469,50.7489,745.862],[108.1997,50.7317,700.2713],[108.1513,50.7222,759.6251],[108.1145,50.705,743.3357],[108.0985,50.6851,798.5638],[108.0903,50.6588,771.6844],[108.1929,50.5926,921.0876],[108.2723,50.5917,953.6075],[108.298,50.578,1021.127],[108.3204,50.554,977.6144],[108.3783,50.5491,927.7641],[108.4314,50.5407,1142.4048],[108.4538,50.5301,956.8516],[108.4715,50.4929,1085.3243],[108.512,50.4682,1153.7627],[108.6017,50.4633,1231.0262],[108.6555,50.4586,1396.062],[108.6253,50.4275,1439.4596],[108.6071,50.3855,1098.507],[108.569,50.4014,1141.1532],[108.4593,50.4108,1051.3971],[108.3061,50.3436,1202.7076],[108.1945,50.3316,1403.4386],[108.1408,50.2945,1230.7568],[108.1042,50.2714,1381.582],[108.0658,50.2581,1304.5934],[108.0277,50.2689,1097.7336],[107.9839,50.2657,1234.7576],[107.944,50.2254,1386.2673],[107.9049,50.1462,1432.6793],[107.8478,50.1266,1239.1959],[107.7837,50.1142,1257.2053],[107.7649,50.0789,1222.3086],[107.7202,50.0669,1205.5658],[107.7034,50.042,934.7345],[107.7179,50.0098,746.3649],[107.7445,49.9914,740.3804],[107.7423,49.9828,684.9562],[107.7532,49.9806,754.5084],[107.821,49.934,714.5694],[107.8551,49.9216,682.1573],[107.8707,49.9188,665.1348],[107.8869,49.9202,679.1648],[107.8974,49.9189,687.4868],[107.938,49.9257,832.78],[107.9642,49.9237,779.0709],[107.9757,49.9203,909.9089],[107.9781,49.9125,947.9644],[107.9771,49.9025,1109.2164],[107.9529,49.8747,1009.6018],[107.947,49.8555,1118.2201],[107.9475,49.8441,1180.3899],[107.9521,49.8311,1132.5142],[107.9516,49.8254,1023.9754],[107.9629,49.7974,1142.4221],[107.9629,49.7895,1265.2882],[107.9673,49.7747,1133.9572],[107.9823,49.7441,1133.6199],[107.9774,49.7302,1332.5638],[107.9533,49.7135,1435.7434],[107.939,49.7012,1505.8265],[107.9373,49.6903,1398.0773],[107.9395,49.6847,1376.5712],[107.9455,49.6768,1238.2662],[107.9589,49.667,1190.696],[107.9706,49.6638,1219.0797],[107.9839,49.6647,1104.1725],[108.0028,49.6735,1181.2698],[108.0129,49.6751,1076.6838],[108.0198,49.6659,991.9677],[108.0135,49.632,1231.5264],[108.0253,49.6153,913.9445],[108.0527,49.6001,1175.5947],[108.1015,49.5795,1150.6715],[108.1383,49.5595,1373.7275],[108.1515,49.5549,1212.7163],[108.1943,49.5483,1364.5784],[108.2107,49.5473,1198.2566],[108.2843,49.5287,1314.3809],[108.2921,49.5223,1368.4307],[108.2991,49.5073,1356.8464],[108.3073,49.4959,1484.3606],[108.3483,49.4749,1401.1189],[108.3553,49.4633,1563.5476],[108.3544,49.4596,1616.1675],[108.3683,49.4428,1547.394],[108.4033,49.4235,1322.2356],[108.4373,49.4107,1288.4453],[108.4567,49.4009,1319.8732],[108.5031,49.3597,1426.1428],[108.5229,49.3467,1385.7865],[108.5435,49.3367,1050.3356],[108.5556,49.3343,1034.6404],[108.6063,49.3383,1171.8508],[108.6248,49.3414,1051.7708],[108.6885,49.3403,969.77],[108.6941,49.3425,969.816],[108.6978,49.338,1019.3647],[108.7132,49.3381,990.2007],[108.7595,49.3492,1213.7028],[108.7863,49.3515,1256.2607],[108.8351,49.3475,1020.1372],[108.8459,49.3425,1134.7151],[108.8789,49.3424,1370.9072],[108.8933,49.3453,1366.2139],[108.9209,49.354,1455.135],[108.9493,49.3587,1450.0554],[108.9655,49.3595,1464.4329],[108.9835,49.3555,1562.2919],[109.0154,49.3396,1518.1764],[109.0425,49.3361,1681.214],[109.1069,49.3421,1342.4268],[109.1451,49.3487,1563.7419],[109.1845,49.3603,1420.2002],[109.2035,49.3623,1363.3749],[109.2187,49.3611,1438.4457],[109.2303,49.3545,1388.9835],[109.2473,49.3503,1334.7542]]],
[[[107.7083,49.9579,796.5367],[107.7141,49.9606,843.9602],[107.693,49.9549,770.8632],[107.7045,49.9561,817.595],[107.7083,49.9579,796.5367]]]]}}