{"type":"Feature","properties":{"GID_3":"RUS.83.24.1_1","GID_0":"RUS","country":"Russia","GID_1":"RUS.83_1","province":"Zabaykal'ye","NL_NAME_1":"Забайкальскийкрай","GID_2":"RUS.83.24_1","county":"Nerchinsko-Zavodskiyrayon","NL_NAME_2":"Нерчинско-Заводскийрайон","city":"NA","VARNAME_3":"NA","NL_NAME_3":"NA","TYPE_3":"NA","ENGTYPE_3":"NA","CC_3":"NA","HASC_3":"NA","name":"N_A.city"},
"geometry":{"type": "MultiPolygon","coordinates": [[[[120.3962,52.6197,452.3587],[120.3748,52.5761,632.2242],[120.3966,52.5518,773.949],[120.4605,52.5244,749.5687],[120.5354,52.4496,751.1788],[120.5207,52.4054,763.1661],[120.4754,52.4093,1009.4006],[120.4042,52.4247,674.5049],[120.346,52.3974,838.506],[120.3248,52.3438,669.8666],[120.3356,52.3005,685.6826],[120.2504,52.2054,871.2059],[120.2752,52.1642,933.5569],[120.2623,52.1245,796.2625],[120.1676,52.0608,889.5082],[120.0301,51.984,747.266],[119.8994,51.9336,980.7863],[119.7922,51.8817,901.1211],[119.7451,51.9114,1029.98],[119.7656,51.9489,865.59],[119.758,51.9742,840.8707],[119.6992,51.9908,1094.7656],[119.5918,51.9109,844.4929],[119.4793,51.8845,833.9264],[119.4555,51.8524,1079.0997],[119.4333,51.8172,1026.2518],[119.3789,51.8299,1148.5624],[119.3085,51.7976,1051.9312],[119.3036,51.765,875.92],[119.2636,51.7243,787.4747],[119.194,51.6957,914.6498],[119.1525,51.6552,792.1185],[119.0677,51.6503,975.9011],[118.9662,51.586,940.4052],[118.9498,51.5036,952.8368],[118.9096,51.459,847.3068],[118.8793,51.3751,922.3123],[118.8351,51.3014,864.2413],[118.8039,51.279,824.243],[118.8739,51.2637,905.1177],[118.9335,51.2406,704.1644],[118.9047,51.2054,733.9998],[118.8849,51.1955,706.3986],[118.9059,51.1562,828.958],[118.9609,51.1656,827.6556],[118.9929,51.1945,723.2898],[119.0135,51.2187,654.2507],[119.0699,51.2181,681.7043],[119.0961,51.1923,810.6786],[119.1401,51.1824,912.919],[119.1497,51.1547,804.8455],[119.1001,51.1204,753.7107],[119.0437,51.0921,606.9698],[118.993,51.0627,716.3525],[118.9975,51.0205,851.1102],[119.0346,50.9926,662.4042],[119.0185,50.959,619.3301],[119.0019,50.933,746.194],[119.0369,50.9046,648.816],[119.0873,50.8762,742.3148],[119.1859,50.892,650.1037],[119.3119,50.9433,733.0005],[119.3684,50.9435,623.5647],[119.4075,50.9363,564.6207],[119.4849,50.9437,521.3506],[119.5581,50.9389,485.1034],[119.5682,50.9511,484.8827],[119.5808,50.9756,500.7],[119.5923,50.9847,482.3518],[119.6047,50.9917,493.6197],[119.6157,51.0052,498.9917],[119.632,51.0118,483.2747],[119.6598,51.013,482.5924],[119.6676,51.015,480.0],[119.6739,51.019,482.6704],[119.6866,51.0191,481.5345],[119.6923,51.0278,482.017],[119.6936,51.0388,481.2011],[119.7113,51.0535,480.659],[119.711,51.0634,479.4513],[119.7073,51.07,478.4323],[119.7235,51.0745,478.9522],[119.7319,51.0847,479.152],[119.745,51.0903,477.5564],[119.7494,51.1006,478.3985],[119.7404,51.1077,478.0995],[119.7389,51.1162,477.5249],[119.7608,51.1246,477.6269],[119.7665,51.1376,477.2362],[119.768,51.1527,476.2984],[119.7595,51.1587,474.5811],[119.7644,51.1632,475.3879],[119.7719,51.163,473.6726],[119.7727,51.1714,476.0281],[119.7634,51.1841,473.8488],[119.7588,51.1984,473.3616],[119.7569,51.2108,474.1913],[119.7591,51.2183,473.3156],[119.7672,51.2237,474.3361],[119.7793,51.2242,481.1357],[119.8027,51.2167,472.9765],[119.809,51.2202,506.3791],[119.8096,51.2259,480.2563],[119.8025,51.2309,507.3332],[119.7894,51.2361,511.1383],[119.7872,51.2437,471.1246],[119.7877,51.2494,510.6173],[119.8103,51.2646,484.6193],[119.8063,51.2704,500.6358],[119.806,51.2827,480.5766],[119.8205,51.2926,502.7456],[119.8677,51.2974,471.7225],[119.8734,51.3095,471.7358],[119.8776,51.3368,466.1501],[119.8796,51.3414,468.4893],[119.8922,51.3466,467.5623],[119.9121,51.3497,470.0414],[119.9277,51.3547,471.0382],[119.9298,51.3603,470.2997],[119.9213,51.3663,487.2054],[119.9068,51.3726,465.0582],[119.8998,51.3785,466.8234],[119.9005,51.3851,464.0631],[119.9056,51.3915,463.3907],[119.9166,51.3949,465.5651],[119.9363,51.396,463.5385],[119.9539,51.4057,497.5336],[119.9531,51.4124,499.4377],[119.9612,51.4178,480.9666],[119.9623,51.4291,474.075],[119.9694,51.4392,488.3634],[119.9874,51.4527,464.1617],[119.9884,51.4631,463.463],[119.9845,51.4689,467.8638],[119.9746,51.4759,463.2629],[119.9709,51.4908,462.0054],[119.9829,51.5043,460.9983],[120.0072,51.5144,463.9226],[120.0347,51.5401,458.3819],[120.0432,51.5526,456.7659],[120.0471,51.5632,457.4868],[120.0465,51.5705,456.1951],[120.0348,51.5803,454.8346],[120.0347,51.5883,454.2855],[120.0368,51.5965,451.9149],[120.0495,51.6122,453.8235],[120.0522,51.6253,497.7579],[120.0612,51.6357,462.4893],[120.0974,51.6481,513.809],[120.0963,51.6544,448.3364],[120.0864,51.6691,450.6861],[120.0925,51.6772,451.1495],[120.1033,51.6768,447.1557],[120.1154,51.6729,459.0694],[120.1337,51.673,446.0248],[120.1481,51.6745,450.5538],[120.1745,51.6816,455.1915],[120.2002,51.7027,450.9082],[120.2193,51.7141,456.9025],[120.2254,51.7224,470.6932],[120.2484,51.7291,442.4065],[120.255,51.7336,457.9097],[120.2631,51.7463,458.0301],[120.2684,51.75,442.1528],[120.2834,51.7506,452.9425],[120.2898,51.7528,512.6715],[120.2954,51.7571,467.2405],[120.3117,51.7806,483.5807],[120.3187,51.7849,440.0062],[120.3513,51.7894,442.3155],[120.3667,51.8034,454.6473],[120.3747,51.8077,438.699],[120.3881,51.811,445.1546],[120.3994,51.8117,445.4525],[120.402,51.816,501.4844],[120.3981,51.8251,516.8809],[120.4004,51.8298,503.4601],[120.4134,51.835,490.7288],[120.4374,51.8414,432.41],[120.454,51.8435,436.9312],[120.4546,51.8461,440.7062],[120.4643,51.8507,461.4601],[120.4685,51.8545,475.847],[120.4706,51.863,441.5146],[120.4693,51.8746,447.0616],[120.471,51.8798,440.5981],[120.474,51.8829,438.5595],[120.4956,51.8879,503.6217],[120.5257,51.8802,429.903],[120.5385,51.8791,426.5],[120.5446,51.882,530.4454],[120.5477,51.8915,426.0],[120.5476,51.904,437.9185],[120.5501,51.9076,430.278],[120.5572,51.9122,428.2696],[120.5819,51.9102,424.0],[120.5928,51.9124,425.352],[120.5981,51.9175,492.2966],[120.6069,51.9217,488.9133],[120.636,51.9246,481.3029],[120.6464,51.9282,459.7787],[120.652,51.9341,434.9381],[120.6515,51.9493,470.4733],[120.6559,51.9574,426.0013],[120.6929,51.9827,463.646],[120.7078,51.9979,426.8984],[120.7069,52.0065,462.51],[120.7104,52.0105,421.8188],[120.7061,52.0169,422.4671],[120.6881,52.0236,418.3188],[120.6806,52.0316,418.0768],[120.6797,52.0431,418.3428],[120.6863,52.0536,541.4429],[120.7014,52.0633,422.3984],[120.7112,52.0745,447.5687],[120.7183,52.0771,413.683],[120.7408,52.0784,436.3542],[120.7308,52.0895,497.7085],[120.7612,52.1124,414.3],[120.7517,52.1398,424.496],[120.7552,52.1438,486.5724],[120.7707,52.1501,408.2303],[120.7782,52.1584,408.6269],[120.7743,52.1652,414.7208],[120.7469,52.1876,465.0435],[120.7366,52.207,407.8888],[120.7354,52.2174,405.8286],[120.7383,52.2237,407.5637],[120.7563,52.2445,403.1517],[120.7536,52.2499,404.9124],[120.7425,52.2534,452.1765],[120.716,52.2557,440.5736],[120.7064,52.2583,408.4609],[120.7011,52.2628,482.9314],[120.6963,52.2774,399.1882],[120.6875,52.2838,446.9355],[120.6479,52.2985,463.6638],[120.6206,52.313,480.0577],[120.6181,52.315,472.5012],[120.6147,52.337,399.2587],[120.61,52.3477,401.7735],[120.6164,52.3568,397.4008],[120.6208,52.3591,399.7929],[120.6348,52.3577,446.9674],[120.6443,52.3648,396.4784],[120.6413,52.3827,395.196],[120.6575,52.4053,391.4505],[120.6697,52.4134,423.1129],[120.6796,52.4297,398.3839],[120.675,52.4593,391.2329],[120.6796,52.4671,419.9612],[120.6764,52.4721,394.6741],[120.6765,52.476,402.4758],[120.6932,52.4831,386.9869],[120.6945,52.4898,402.585],[120.6912,52.4961,407.0076],[120.6818,52.5033,390.8575],[120.6793,52.5077,424.7554],[120.6806,52.5118,386.0208],[120.687,52.5157,387.564],[120.7197,52.5288,384.9558],[120.7229,52.535,391.5196],[120.721,52.5431,400.9692],[120.7059,52.5496,389.1647],[120.6997,52.5493,382.4267],[120.6896,52.5441,396.9487],[120.6818,52.5426,461.7868],[120.6582,52.5573,414.3632],[120.6478,52.5619,420.8996],[120.6195,52.5674,425.7592],[120.612,52.5707,393.6859],[120.6022,52.578,394.3209],[120.5961,52.5891,378.8643],[120.5837,52.5941,463.2192],[120.5617,52.5929,379.9349],[120.5408,52.5972,463.473],[120.5211,52.6079,388.7848],[120.4816,52.6234,468.3356],[120.4619,52.6368,439.2065],[120.4525,52.6413,405.0552],[120.4379,52.6413,377.9424],[120.428,52.6375,383.6504],[120.3962,52.6197,452.3587]]]]}}