{"type":"Feature","properties":{"GID_2":"RUS.28.2_1","GID_0":"RUS","country":"Russia","GID_1":"RUS.28_1","province":"Khabarovsk","NL_NAME_1":"Хабаровскийкрай","county":"Amurskiyrayon","VARNAME_2":"NA","NL_NAME_2":"Амурскийрайон","TYPE_2":"Raion","ENGTYPE_2":"District","CC_2":"R67090","HASC_2":"RU.KH.AR","name":"Amurskiyrayon.county"},
"geometry":{"type": "MultiPolygon","coordinates": [[[[136.1203,50.5184,707.2546],[136.0555,50.4403,819.079],[135.9704,50.4281,721.7351],[135.9515,50.3886,771.4165],[135.9219,50.3202,751.0709],[135.8243,50.2423,999.7764],[135.6926,50.2011,468.4261],[135.4905,50.1809,452.3524],[135.3275,50.1694,639.6003],[135.2056,50.165,534.9229],[135.1912,50.1066,639.3353],[134.9788,50.0213,952.8293],[134.8478,49.9655,778.8492],[134.7571,49.933,626.9474],[134.6751,49.9463,322.3059],[134.6221,49.8364,411.3152],[134.4792,49.6955,363.2437],[134.4817,49.6578,206.8348],[134.7691,49.54,145.7772],[134.868,49.5192,116.9327],[134.8623,49.4608,106.6668],[134.8302,49.3863,102.8756],[134.8418,49.2537,69.1685],[134.8865,49.2413,69.3278],[134.9697,49.2249,94.4238],[134.9275,49.1963,91.519],[134.9252,49.1602,147.3461],[134.8407,49.1729,120.1953],[134.9029,49.0694,183.7583],[135.0471,49.0586,349.4822],[135.1221,49.0025,124.9176],[135.3444,49.0851,34.0533],[135.3798,49.1243,30.5698],[135.3902,49.1708,30.6535],[135.437,49.246,27.164],[135.4756,49.2592,26.1823],[135.5494,49.2684,25.8187],[135.6574,49.2935,26.4886],[135.6912,49.3405,23.4763],[135.7473,49.381,22.8895],[135.7855,49.3912,22.5418],[135.8508,49.3869,23.0869],[135.9264,49.4013,22.297],[135.9833,49.4496,20.8538],[136.0498,49.5241,30.177],[136.1186,49.5668,23.3792],[136.1911,49.5915,23.1973],[136.2794,49.6823,21.3707],[136.3714,49.7572,27.2559],[136.4576,49.8167,22.9998],[136.5439,49.867,30.14],[136.5587,49.9099,17.0],[136.6321,49.9133,168.7248],[136.6605,49.9479,20.2987],[136.7173,49.9795,18.8292],[136.7658,49.9719,17.0],[136.8175,49.9516,23.8378],[136.8815,49.9231,155.5076],[136.952,49.9358,140.6164],[137.0383,49.9473,115.3096],[137.1267,49.9547,36.6108],[137.2359,49.9433,44.0082],[137.3479,49.9191,74.1016],[137.4136,49.8958,105.3232],[137.4767,49.9183,70.6446],[137.4082,49.9627,105.8925],[137.3208,49.9759,51.351],[137.1645,50.0125,41.7449],[137.037,50.0238,41.1193],[137.0381,50.0535,31.3209],[137.1658,50.1006,60.1631],[137.0645,50.1451,35.5667],[136.9601,50.1229,25.115],[136.9935,50.2264,18.6368],[136.973,50.2699,18.2805],[136.9174,50.2981,90.3516],[136.8306,50.3041,41.9886],[136.7875,50.3096,71.0303],[136.6655,50.3344,101.2762],[136.5088,50.3287,388.7969],[136.4379,50.3426,254.3549],[136.3767,50.387,427.5761],[136.2897,50.4755,507.9201],[136.1935,50.5372,718.5739],[136.1203,50.5184,707.2546]],
[[136.9158,50.2384,86.2325],[136.8997,50.2312,50.0967],[136.8725,50.2343,25.9396],[136.8647,50.2441,55.286],[136.872,50.2656,46.2496],[136.9023,50.2698,103.0342],[136.9158,50.2645,128.0237],[136.9227,50.2525,76.5561],[136.9158,50.2384,86.2325]]]]}}