{"type":"Feature","properties":{"GID_3":"RUS.56.19.1_1","GID_0":"RUS","country":"Russia","GID_1":"RUS.56_1","province":"Primor'ye","NL_NAME_1":"Приморскийкрай","GID_2":"RUS.56.19_1","county":"Mikhaylovskiyrayon","NL_NAME_2":"Михайловскийрайон","city":"NA","VARNAME_3":"NA","NL_NAME_3":"NA","TYPE_3":"NA","ENGTYPE_3":"NA","CC_3":"NA","HASC_3":"NA","name":"N_A.city"},
"geometry":{"type": "MultiPolygon","coordinates": [[[[132.9411,44.0991,246.3668],[132.8191,44.1294,303.9969],[132.749,44.1353,244.9268],[132.6508,44.0508,144.5551],[132.6249,44.0323,131.175],[132.5887,44.0366,127.4768],[132.5709,44.0708,109.243],[132.4722,44.1324,389.63],[132.4287,44.1342,170.6921],[132.3538,44.0678,138.8148],[132.2578,44.0892,79.8019],[132.1667,44.0948,98.3219],[132.1266,44.1181,98.4019],[132.1563,44.1868,147.3291],[132.1406,44.2325,110.9199],[132.109,44.2515,129.918],[132.0593,44.2248,182.3696],[132.0182,44.2158,175.4024],[132.0165,44.25,185.4104],[132.0424,44.2991,151.3099],[132.0179,44.3521,249.4202],[131.9607,44.3552,156.8139],[131.9745,44.2843,187.4907],[131.9493,44.26,182.6004],[131.8625,44.2466,111.9928],[131.8495,44.1791,115.0547],[131.8492,44.1225,110.8308],[131.9201,44.1029,96.2191],[131.9705,44.0529,101.0089],[132.0169,43.9504,43.9988],[132.0069,43.916,31.0725],[132.0585,43.8937,65.2999],[132.1348,43.915,79.3046],[132.4986,43.9149,181.5664],[132.4738,43.8716,140.9494],[132.5713,43.7856,309.1313],[132.6631,43.7715,420.1018],[132.7618,43.7354,524.6428],[132.802,43.7113,565.0107],[132.809,43.6831,556.5452],[132.8013,43.6246,776.5318],[132.8499,43.5908,757.4089],[132.9908,43.7287,451.4609],[132.9838,43.8056,493.7456],[132.9691,43.8283,469.5882],[132.987,43.8827,374.8825],[132.9207,43.9624,318.0832],[132.9578,44.0599,269.894],[132.9411,44.0991,246.3668]]]]}}