{"type":"Feature","properties":{"GID_2":"RUS.2.8_1","GID_0":"RUS","country":"Russia","GID_1":"RUS.2_1","province":"Altay","NL_NAME_1":"Алтайскийкрай","county":"Biyskiyrayon","VARNAME_2":"NA","NL_NAME_2":"Бийскийрайон","TYPE_2":"Raion","ENGTYPE_2":"District","CC_2":"R53090","HASC_2":"RU.AL.BR","name":"Biyskiyrayon.county"},
"geometry":{"type": "MultiPolygon","coordinates": [[[[85.1136,52.4444,166.5412],[85.1534,52.4572,165.6949],[85.2199,52.469,212.1894],[85.272,52.4825,212.0726],[85.3346,52.4928,192.8913],[85.3719,52.4718,188.0489],[85.3874,52.4469,180.2719],[85.4259,52.4186,184.4321],[85.4709,52.393,188.257],[85.516,52.3878,192.0736],[85.5627,52.3866,196.4926],[85.7388,52.3688,212.1429],[85.7876,52.3408,213.2413],[85.8663,52.3529,279.3245],[85.9077,52.3741,282.5805],[85.9879,52.4289,364.1295],[86.0063,52.4674,413.0947],[85.9766,52.4812,396.5842],[85.9399,52.5016,258.3977],[85.9119,52.5277,255.8029],[85.9062,52.5687,189.1298],[85.932,52.5914,219.4586],[85.9651,52.6068,194.7508],[86.0105,52.6181,203.2685],[86.0407,52.6201,197.2214],[86.0771,52.6136,197.4087],[86.088,52.6437,232.1372],[86.0768,52.6747,245.4527],[86.0522,52.6957,259.4721],[86.0417,52.7119,306.134],[86.0618,52.7339,322.5352],[86.1289,52.7544,284.0462],[86.1791,52.7746,271.983],[86.1691,52.7983,289.6678],[86.1451,52.8221,306.0976],[86.0352,52.7991,303.4724],[85.9225,52.7885,273.0294],[85.8089,52.7804,288.5439],[85.7751,52.7965,297.4842],[85.7437,52.8313,323.7479],[85.7175,52.8688,343.4484],[85.6918,52.858,303.7599],[85.6419,52.8413,298.5314],[85.648,52.8079,305.2672],[85.6509,52.7582,276.3401],[85.593,52.734,273.8783],[85.4906,52.7001,260.9951],[85.4164,52.6662,258.9656],[85.3592,52.6493,253.4226],[85.3566,52.6685,253.8373],[85.3643,52.714,253.9034],[85.3193,52.7303,264.5762],[85.273,52.6926,241.8316],[85.2305,52.6655,224.9878],[85.1192,52.6236,234.0569],[84.9674,52.575,209.14],[84.9541,52.5611,210.5583],[85.0147,52.5526,188.2183],[85.0202,52.5264,211.8759],[84.9574,52.5085,205.6656],[84.9718,52.4873,179.517],[85.0405,52.4734,198.7456],[85.0459,52.4472,168.0454],[85.0725,52.4546,167.8651],[85.1136,52.4444,166.5412]],
[[85.2264,52.5712,212.0126],[85.2196,52.5692,222.2672],[85.2121,52.5696,230.1978],[85.2085,52.5728,229.5818],[85.2066,52.578,232.5835],[85.208,52.5796,232.9377],[85.2179,52.5825,234.9437],[85.2262,52.5799,237.6347],[85.2275,52.5764,233.0355],[85.2264,52.5712,212.0126]]]]}}