{"type":"Feature","properties":{"GID_2":"RUS.35.22_1","GID_0":"RUS","country":"Russia","GID_1":"RUS.35_1","province":"Krasnoyarsk","NL_NAME_1":"Красноярскийкрай","county":"Ilanskiyrayon","VARNAME_2":"NA","NL_NAME_2":"Иланскийрайон","TYPE_2":"Raion","ENGTYPE_2":"District","CC_2":"R62091","HASC_2":"RU.KY.IL","name":"Ilanskiyrayon.county"},
"geometry":{"type": "MultiPolygon","coordinates": [[[[96.676,55.7888,369.0895],[96.6238,55.7781,374.2144],[96.5307,55.7799,441.2929],[96.4752,55.7646,383.6971],[96.3936,55.7666,461.0846],[96.3318,55.782,454.7633],[96.2882,55.8788,367.722],[96.2652,55.9199,295.513],[96.2717,55.9492,316.2979],[96.2989,55.9846,305.3205],[96.3185,56.0189,284.6147],[96.2992,56.0547,304.3599],[96.2493,56.0631,310.9052],[96.165,56.084,289.0703],[96.1308,56.1248,302.7358],[96.1368,56.1705,325.641],[96.1693,56.2044,299.9679],[96.2783,56.2289,349.325],[96.2858,56.2682,348.8138],[96.2184,56.2788,305.4716],[96.1494,56.2748,315.4023],[96.1159,56.3074,290.3878],[96.1965,56.3255,345.4477],[96.3157,56.3366,284.9568],[96.3512,56.3641,297.983],[96.3615,56.4036,266.4269],[96.3429,56.4386,271.2027],[96.2576,56.4614,291.5285],[96.1824,56.4918,295.4761],[96.1148,56.4768,303.5279],[96.0319,56.4704,291.8233],[95.9765,56.4348,339.5596],[95.9078,56.4416,320.0249],[95.8823,56.4589,326.6442],[95.8394,56.4848,338.1543],[95.7886,56.5049,291.4846],[95.7074,56.5056,259.4919],[95.7339,56.492,286.3302],[95.6877,56.4638,311.6251],[95.6867,56.4346,325.1425],[95.7495,56.4059,303.5674],[95.7428,56.3811,257.5003],[95.6963,56.3557,265.9549],[95.6994,56.3193,221.0202],[95.7166,56.2908,287.9486],[95.7651,56.2716,225.4208],[95.8013,56.2346,292.7812],[95.8191,56.1551,207.4624],[95.8272,56.0925,216.1078],[95.8134,56.0182,310.9761],[95.8223,55.9485,296.3085],[95.8341,55.8815,229.4162],[95.8282,55.8495,232.2372],[95.8181,55.81,243.9092],[95.7844,55.7696,237.1033],[95.8267,55.732,314.7775],[95.8889,55.7643,272.5424],[95.9357,55.7587,356.2374],[95.9434,55.7198,327.6263],[95.8832,55.7086,287.7922],[95.8605,55.706,301.3299],[95.8745,55.6582,447.9447],[95.9257,55.6519,373.7207],[95.9523,55.6201,478.9748],[96.0152,55.595,432.0897],[96.0748,55.5871,369.8365],[96.1226,55.5933,499.4725],[96.1658,55.6129,447.9426],[96.2558,55.6477,472.6711],[96.395,55.6921,424.44],[96.4539,55.6785,509.8445],[96.4554,55.6331,521.8196],[96.4844,55.6049,445.2262],[96.5286,55.5845,439.7943],[96.5932,55.5892,491.2866],[96.6486,55.6162,495.2986],[96.662,55.6421,399.2149],[96.6491,55.6571,446.5808],[96.6913,55.6902,446.871],[96.6563,55.7473,438.0387],[96.676,55.7888,369.0895]]]]}}