{"type":"Feature","properties":{"GID_3":"RUS.12.6.1_1","GID_0":"RUS","country":"Russia","GID_1":"RUS.12_1","province":"Chukot","NL_NAME_1":"ЧукотскийАОк","GID_2":"RUS.12.6_1","county":"Iyul'tinskiyrayon","NL_NAME_2":"Иультинскийрайон","city":"NA","VARNAME_3":"NA","NL_NAME_3":"NA","TYPE_3":"NA","ENGTYPE_3":"NA","CC_3":"NA","HASC_3":"NA","name":"N_A.city"},
"geometry":{"type": "MultiPolygon","coordinates": [[[[179.8896,64.9896,0.0],[179.8911,64.9912,0.0],[179.888,64.9912,0.0],[179.888,64.9901,0.0],[179.8896,64.9896,0.0]]],
[[[179.6847,64.9264,35.2765],[179.7085,64.9084,0.0],[179.7141,64.9109,0.0],[179.713,64.9141,39.1206],[179.7224,64.9151,0.0],[179.7266,64.9172,0.0],[179.7255,64.9203,32.368],[179.7339,64.9245,25.025],[179.7432,64.9255,0.0],[179.7422,64.9287,17.3324],[179.7516,64.9297,0.0],[179.7505,64.9328,0.0],[179.7536,64.9349,0.0],[179.7505,64.937,24.1874],[179.7536,64.938,0.0],[179.7526,64.9411,17.1092],[179.7682,64.9484,0.0],[179.7693,64.9516,6.6614],[179.7766,64.9526,0.0],[179.7776,64.9557,0.0],[179.7807,64.9568,0.0],[179.7797,64.9599,33.1356],[179.7891,64.9609,0.0],[179.8016,64.9672,0.0],[179.8005,64.9703,0.0],[179.8161,64.9776,0.0],[179.8172,64.9807,0.0],[179.8245,64.9818,0.0],[179.8255,64.9849,0.0],[179.8313,64.9854,0.0],[179.8411,64.9901,0.0],[179.8422,64.9932,0.0],[179.8495,64.9964,0.0],[179.8484,64.9995,21.1065],[179.8562,65.0,0.0],[179.8604,65.0021,0.0],[179.8708,65.0021,0.0],[179.8792,65.0062,0.0],[179.8875,65.0062,0.0],[179.8901,65.0099,0.0],[179.8958,65.0125,0.0],[179.9016,65.013,0.0],[179.9125,65.0188,0.0],[179.9229,65.0188,0.0],[179.9271,65.0208,6.3495],[179.9479,65.0208,0.0],[179.9578,65.0234,0.0],[179.9646,65.0271,12.4045],[179.9703,65.0276,0.0],[179.9771,65.0313,5.3649],[179.9875,65.0313,0.0],[179.9979,65.0271,0.0],[180.0,65.9841,224.2054],[180.0,67.4987,361.4061],[179.8055,67.4638,246.938],[179.6801,67.4227,500.8774],[179.4241,67.3815,1143.0375],[179.0579,67.3489,803.005],[178.8853,67.3359,687.3596],[178.8279,67.3581,760.2656],[178.7421,67.3621,789.0704],[178.5909,67.3357,379.9807],[178.4737,67.3509,364.8432],[178.3989,67.3673,400.0812],[178.3001,67.3941,658.1682],[178.1771,67.3935,839.7967],[178.0679,67.3959,767.7093],[178.0331,67.4151,1395.7653],[177.9413,67.4213,1145.5742],[177.7477,67.4139,504.3309],[177.5155,67.3769,723.588],[177.3177,67.3323,664.9231],[177.2481,67.3207,729.3694],[177.1531,67.3239,813.0731],[177.0905,67.3419,1072.3839],[176.9321,67.3565,668.5909],[176.8393,67.3841,1008.062],[176.7569,67.3929,714.0439],[176.6935,67.3871,1099.3821],[176.4106,67.3693,932.4268],[176.4018,67.3582,758.2343],[176.329,67.3199,617.9255],[176.3496,67.2815,770.1602],[176.4744,67.2653,937.2437],[176.5617,67.2829,1107.7465],[176.6841,67.2918,908.6523],[176.7345,67.2727,721.2451],[176.7428,67.198,477.6544],[176.734,67.1355,633.1984],[176.7672,67.0459,537.7929],[176.8445,66.9869,432.9006],[176.8673,66.9745,683.0135],[176.9669,66.9767,389.8591],[177.0384,66.9926,653.3105],[177.1116,66.9805,476.7951],[177.1629,66.9565,396.2782],[177.1079,66.9317,314.1533],[177.0375,66.9181,644.454],[176.977,66.8908,376.42],[176.9772,66.842,281.67],[177.0711,66.7877,220.2297],[177.1643,66.7813,355.3641],[177.3069,66.7824,388.5863],[177.3815,66.7536,567.5443],[177.4565,66.7463,755.0499],[177.5457,66.742,597.6526],[177.6238,66.7364,410.2381],[177.6484,66.7136,386.5238],[177.6606,66.684,355.7645],[177.7269,66.659,507.5114],[177.8307,66.6511,426.1702],[177.8968,66.6532,560.6435],[177.9342,66.6794,449.5129],[178.0165,66.679,431.6973],[178.0553,66.643,427.8741],[178.1057,66.6145,448.2807],[178.1733,66.5981,344.4924],[178.2065,66.6287,340.4934],[178.1761,66.6697,430.5037],[178.218,66.685,387.2979],[178.3381,66.7026,395.5461],[178.4187,66.7217,541.2719],[178.4442,66.7321,564.0675],[178.528,66.7095,352.803],[178.4844,66.6603,403.1049],[178.5691,66.6143,496.3423],[178.6243,66.6266,509.7064],[178.6845,66.6083,629.818],[178.6593,66.5745,467.2576],[178.7085,66.5417,547.9669],[178.6987,66.4927,540.2726],[178.6517,66.4577,595.0565],[178.5507,66.4253,628.8142],[178.5105,66.4019,376.4111],[178.5751,66.387,320.9571],[178.7233,66.4053,477.9887],[178.8191,66.3961,359.8701],[179.0064,66.43,278.8824],[179.0717,66.4125,420.2459],[179.1217,66.3879,273.1313],[179.0533,66.3563,473.3851],[179.0453,66.3081,281.7464],[179.0806,66.2648,139.5847],[179.1088,66.242,188.9144],[179.0463,66.2185,123.7983],[179.0175,66.1889,122.5227],[179.0368,66.1418,276.1556],[179.0705,66.0851,102.3764],[179.0765,66.0457,100.8481],[179.1718,65.963,160.1989],[179.2512,65.9192,151.0544],[179.3567,65.8925,129.4698],[179.3457,65.8585,140.5473],[179.3009,65.7935,140.8869],[179.2457,65.7377,163.6537],[179.1363,65.6717,124.6003],[179.0393,65.6294,181.4042],[178.8639,65.6014,153.2408],[178.7659,65.5877,193.2418],[178.6867,65.5021,208.721],[178.6745,65.4546,257.8077],[178.5241,65.4189,180.3196],[178.3515,65.3651,134.285],[178.2123,65.3315,91.5941],[178.1194,65.3066,76.5881],[178.0699,65.2819,62.6187],[178.1179,65.2508,52.5],[178.1382,65.2161,56.2133],[178.1087,65.1847,99.5949],[178.04,65.1494,54.7319],[178.0316,65.1125,74.3659],[178.1259,65.0718,44.1927],[178.2491,65.0481,35.4912],[178.3958,65.0478,63.0029],[178.486,64.999,98.4304],[178.6309,64.9906,187.237],[178.7603,64.9943,184.12],[178.8974,65.0047,104.321],[178.9995,65.0259,84.7852],[179.0033,65.0567,83.932],[179.0357,65.0719,62.7937],[179.0962,65.0469,76.4205],[179.0909,65.0149,105.4683],[179.1569,64.9779,142.7334],[179.1218,64.9497,144.3512],[179.1932,64.9258,125.167],[179.3621,64.9293,115.1992],[179.4707,64.9384,130.6793],[179.6847,64.9264,35.2765]]]]}}