{"type":"Feature","properties":{"GID_3":"RUS.28.15.1_1","GID_0":"RUS","country":"Russia","GID_1":"RUS.28_1","province":"Khabarovsk","NL_NAME_1":"Хабаровскийкрай","GID_2":"RUS.28.15_1","county":"Okhotskiyrayon","NL_NAME_2":"Охотскийрайон","city":"NA","VARNAME_3":"NA","NL_NAME_3":"NA","TYPE_3":"NA","ENGTYPE_3":"NA","CC_3":"NA","HASC_3":"NA","name":"N_A.city"},
"geometry":{"type": "MultiPolygon","coordinates": [[[[143.3875,56.4065,5.0954],[143.3829,56.4066,5.0562],[143.3829,56.404,8.6279],[143.3895,56.403,0.0],[143.3903,56.4044,0.0],[143.3875,56.4065,5.0954]]],
[[[144.3724,59.3748,0.2665],[144.371,59.3743,0.0],[144.3794,59.3744,0.0],[144.3775,59.3763,0.0],[144.3724,59.3748,0.2665]]],
[[[144.3053,59.3805,0.4525],[144.3084,59.3797,0.0],[144.3109,59.3803,0.0],[144.3068,59.3818,0.0],[144.3053,59.3805,0.4525]]],
[[[144.2847,59.3817,0.1426],[144.284,59.3806,0.1426],[144.2852,59.3802,0.4069],[144.2921,59.3816,0.0],[144.2892,59.3826,0.5823],[144.2847,59.3817,0.1426]]],
[[[146.2788,59.1939,0.0],[146.2781,59.1931,2.246],[146.2804,59.1934,1.425],[146.2802,59.1943,0.0],[146.2788,59.1939,0.0]]],
[[[144.9056,59.3699,1.3464],[144.9069,59.3683,0.5534],[144.9089,59.3716,2.0647],[144.907,59.3711,1.6125],[144.9056,59.3699,1.3464]]],
[[[144.5362,59.3716,0.0],[144.5375,59.3719,0.0],[144.5218,59.3716,0.0],[144.5291,59.3712,0.7109],[144.5362,59.3716,0.0]]],
[[[144.6817,59.3747,1.4258],[144.6688,59.3757,0.0],[144.6243,59.3725,2.4664],[144.7261,59.3729,2.3621],[144.8249,59.3705,0.9902],[144.7793,59.3725,0.4413],[144.7619,59.3751,1.5832],[144.7595,59.3735,3.9473],[144.7531,59.3754,1.8144],[144.7061,59.3737,2.277],[144.6817,59.3747,1.4258]]],
[[[144.7933,59.3767,0.0],[144.7956,59.3778,0.0],[144.7867,59.3772,1.4902],[144.7928,59.3769,0.0],[144.7933,59.3767,0.0]]],
[[[140.4846,57.9628,284.1719],[140.5376,57.9744,1.8575],[140.5443,57.9848,3.0339],[140.5525,58.0024,2.6169],[140.5581,58.0077,0.0],[140.5735,58.033,10.678],[140.584,58.0425,0.0],[140.5913,58.0527,5.6052],[140.6029,58.059,0.8293],[140.6075,58.0634,0.0],[140.6079,58.0728,1.8158],[140.6133,58.0841,1.6837],[140.6196,58.0936,0.0],[140.6301,58.1052,0.0],[140.6291,58.1084,3.4603],[140.6326,58.1147,0.0],[140.6358,58.1288,4.6672],[140.6524,58.1581,0.0],[140.6529,58.1612,2.5771],[140.6566,58.1653,0.0],[140.6609,58.177,1.5341],[140.6785,58.2026,4.0428],[140.6843,58.2075,2.9084],[140.6964,58.2238,3.8259],[140.7415,58.2724,2.7425],[140.7625,58.2922,6.5517],[140.7818,58.3063,0.0],[140.8039,58.3189,25.555],[140.8189,58.3231,0.0],[140.8391,58.3365,5.5103],[140.8597,58.3455,8.8294],[140.8707,58.354,3.7372],[140.8774,58.3566,0.0],[140.9039,58.3747,4.0506],[140.9468,58.3971,3.9655],[140.9689,58.4064,0.0],[141.0122,58.4306,4.2608],[141.0283,58.4378,4.175],[141.0422,58.4428,3.8368],[141.0827,58.4503,0.0],[141.1189,58.4608,2.1198],[141.1433,58.4697,3.9243],[141.1589,58.4703,0.0],[141.1694,58.4647,0.2552],[141.1883,58.4689,13.6357],[141.1956,58.4683,0.0],[141.211,58.4783,1.5279],[141.2251,58.4844,3.1399],[141.265,58.4981,9.1116],[141.2828,58.5031,2.2407],[141.2913,58.5027,0.3019],[141.3161,58.5061,0.3907],[141.3189,58.5094,0.6977],[141.3283,58.5153,2.2794],[141.4111,58.5499,0.0],[141.4283,58.5608,3.0686],[141.4363,58.5616,0.0],[141.463,58.5731,105.2072],[141.4789,58.5756,36.3845],[141.5005,58.5858,21.1973],[141.5089,58.5878,13.0472],[141.5203,58.594,14.3637],[141.5406,58.5996,0.0],[141.5544,58.6089,48.0546],[141.5632,58.6116,0.5291],[141.5722,58.62,0.2782],[141.5872,58.6272,1.7786],[141.5968,58.6344,0.0],[141.6189,58.6439,11.3454],[141.6267,58.6506,53.8816],[141.6328,58.6531,0.0],[141.6383,58.6578,0.0],[141.6383,58.6596,6.3683],[141.6467,58.6658,37.0325],[141.665,58.6753,0.0],[141.6675,58.6792,8.5091],[141.6729,58.681,6.6325],[141.681,58.6809,9.8886],[141.6893,58.6904,0.4218],[141.705,58.7008,0.0],[141.7342,58.7287,4.5362],[141.7616,58.7483,0.0],[141.7739,58.7625,0.0],[141.7956,58.7828,0.9479],[141.8067,58.7903,0.0],[141.8072,58.7931,0.0],[141.8183,58.8,0.0],[141.8278,58.8097,0.7956],[141.8399,58.8158,0.0],[141.8517,58.8256,0.0],[141.8611,58.8347,0.0],[141.8689,58.8456,2.0999],[141.8778,58.8525,1.1242],[141.8811,58.8567,0.9956],[141.8811,58.8597,2.2353],[141.925,58.9117,0.5641],[141.9572,58.9408,0.7188],[141.9611,58.9425,0.0],[141.9617,58.945,3.4782],[141.971,58.9511,0.0],[141.9811,58.9606,4.0865],[141.9946,58.969,0.0],[142.0196,58.99,4.884],[142.0467,59.0083,0.476],[142.0478,59.0106,4.9928],[142.0656,59.0203,0.0],[142.0802,59.0319,0.0],[142.1357,59.0612,0.0],[142.1438,59.0669,0.0],[142.1861,59.0872,3.2578],[142.1933,59.0886,0.0],[142.1972,59.0917,0.6647],[142.2011,59.0914,0.0],[142.2083,59.0972,3.1506],[142.2956,59.1367,0.0],[142.3356,59.1531,0.8533],[142.3433,59.1547,0.0],[142.3539,59.1606,0.6488],[142.3922,59.1764,3.3342],[142.4461,59.1961,2.7507],[142.4789,59.2056,2.3478],[142.5717,59.2278,3.8341],[142.6245,59.2364,0.668],[142.6939,59.2503,0.8353],[142.8389,59.2725,1.9643],[142.8467,59.2722,1.8414],[142.9183,59.2942,2.7902],[142.9767,59.31,1.8552],[143.0361,59.3231,1.4351],[143.0595,59.3257,1.5362],[143.0628,59.3273,1.2587],[143.0522,59.3264,2.1251],[143.0691,59.3302,2.9326],[143.0658,59.3334,3.2103],[143.0703,59.3339,0.1579],[143.0714,59.3355,0.6687],[143.0703,59.3362,0.6687],[143.0734,59.3376,0.7465],[143.0771,59.3379,1.7611],[143.0779,59.3355,1.6173],[143.0853,59.3347,1.4655],[143.0876,59.3365,1.5629],[143.092,59.3349,1.6258],[143.1061,59.3394,1.813],[143.1334,59.3445,0.9782],[143.1266,59.3414,2.3599],[143.1006,59.3369,2.4515],[143.0913,59.3334,2.8418],[143.0905,59.3326,2.8418],[143.0917,59.3321,2.8418],[143.1553,59.3441,0.0],[143.1587,59.3452,0.0],[143.1583,59.3469,0.604],[143.1654,59.348,1.1102],[143.1661,59.3458,0.9305],[143.2229,59.3575,3.1854],[143.2713,59.3619,0.0],[143.3035,59.3621,5.6631],[143.3244,59.3585,0.0],[143.3382,59.3504,0.0],[143.353,59.3445,1.0782],[143.3585,59.3369,0.0],[143.3716,59.3331,0.0],[143.3756,59.3289,3.2366],[143.3828,59.3253,0.0],[143.3916,59.3258,4.1745],[143.3976,59.3238,4.6727],[143.4056,59.3253,0.0],[143.4218,59.3244,0.0],[143.4349,59.3258,3.2095],[143.4425,59.3242,0.8603],[143.4561,59.3261,1.0699],[143.4715,59.3244,7.377],[143.4774,59.3186,0.0],[143.4819,59.3184,0.0],[143.5021,59.3251,0.3133],[143.5067,59.3248,0.0],[143.548,59.3358,3.8346],[143.5552,59.3342,0.0],[143.5678,59.3367,0.0],[143.623,59.3527,0.5088],[143.7521,59.3843,1.6197],[143.7948,59.3919,0.0],[143.8396,59.3977,1.7995],[143.9148,59.4019,0.0],[144.025,59.4017,0.6007],[144.1361,59.3953,0.0],[144.2111,59.3847,0.0],[144.2789,59.3788,1.2979],[144.2858,59.3762,0.0],[144.3822,59.3692,0.307],[144.409,59.3695,1.4401],[144.3874,59.3722,0.0],[144.3656,59.3714,1.9625],[144.3117,59.3772,0.0],[144.2906,59.3775,2.0913],[144.2877,59.3797,0.0],[144.2818,59.3799,0.46],[144.2806,59.3815,0.0],[144.2706,59.3819,1.3348],[144.2823,59.3823,0.3128],[144.2765,59.3855,0.9555],[144.28,59.3885,0.0],[144.2761,59.391,0.7316],[144.2791,59.3913,0.6959],[144.2852,59.3893,0.5426],[144.3013,59.3899,0.0],[144.3428,59.3869,0.4528],[144.3539,59.3819,0.0],[144.3989,59.3718,0.3337],[144.4124,59.3745,2.042],[144.4166,59.3722,1.171],[144.4305,59.3713,0.6612],[144.4131,59.3707,0.0],[144.4118,59.3691,2.4799],[144.5239,59.3681,0.0],[144.5889,59.3703,0.0],[144.6206,59.3733,1.7737],[144.5305,59.3703,3.8712],[144.5109,59.3711,0.0],[144.5176,59.374,1.8371],[144.5425,59.3737,0.0],[144.5523,59.3766,0.0],[144.572,59.3783,0.0],[144.6994,59.3814,0.0],[144.7091,59.383,1.2735],[144.7081,59.387,0.486],[144.7131,59.3879,0.9754],[144.7258,59.3871,1.4665],[144.7265,59.3839,1.9708],[144.7294,59.3822,0.5681],[144.7759,59.3831,0.7418],[144.784,59.3875,1.6827],[144.7855,59.3853,1.9882],[144.7796,59.3821,0.1544],[144.7797,59.3802,0.0],[144.7841,59.3782,0.0],[144.7982,59.3792,1.8064],[144.7982,59.3775,0.7895],[144.8029,59.3764,0.3781],[144.8043,59.3741,0.395],[144.8115,59.374,1.6306],[144.819,59.3773,1.6003],[144.8214,59.3749,0.9244],[144.8282,59.3748,1.3947],[144.8367,59.3714,0.3646],[144.846,59.3722,1.5746],[144.8485,59.3739,1.7279],[144.8496,59.3735,0.7826],[144.8483,59.3707,0.9495],[144.8626,59.3695,1.403],[144.8813,59.3707,1.224],[144.8838,59.3729,1.9222],[144.8886,59.3736,1.6049],[144.8879,59.3708,0.6562],[144.8943,59.3718,1.5289],[144.8955,59.3688,1.3457],[144.8985,59.3679,0.6813],[144.9101,59.3737,1.5379],[144.9172,59.3741,2.1483],[144.9206,59.3722,1.9275],[144.9269,59.3749,0.7381],[144.9278,59.3729,1.0184],[144.9262,59.3693,1.1388],[144.9471,59.3704,0.3491],[144.9652,59.3682,2.8064],[144.8797,59.3667,1.6315],[144.8344,59.3695,1.4572],[144.8192,59.3682,0.0],[144.8944,59.3653,0.0],[144.9854,59.3669,0.0],[145.0061,59.3686,0.0],[145.0809,59.382,0.0],[145.1939,59.4064,2.4345],[145.2566,59.4161,5.2293],[145.2965,59.4149,1.3559],[145.3193,59.4083,7.9735],[145.3252,59.402,1.7414],[145.3299,59.3996,16.4232],[145.3321,59.3956,35.9644],[145.3313,59.3932,39.9653],[145.3208,59.3918,3.9598],[145.321,59.388,40.7065],[145.3161,59.3864,0.0],[145.3194,59.3847,0.0],[145.3595,59.3872,11.5705],[145.3722,59.3917,6.3198],[145.4087,59.3999,3.285],[145.4471,59.4063,0.7804],[145.4581,59.4066,0.0],[145.4683,59.4097,2.3325],[145.5086,59.4124,10.1981],[145.5347,59.4167,0.0],[145.5743,59.4206,44.6892],[145.6186,59.4147,0.0],[145.6517,59.4141,67.3068],[145.6813,59.4099,0.3225],[145.6826,59.4106,0.0],[145.6808,59.4122,0.0],[145.6741,59.4148,26.7756],[145.6761,59.4177,1.2435],[145.6817,59.4208,0.0],[145.6806,59.4225,5.2638],[145.6833,59.4239,0.4656],[145.695,59.4258,1.945],[145.7039,59.4253,14.0629],[145.7117,59.4197,2.1164],[145.7056,59.4158,0.0],[145.7056,59.4133,0.0],[145.7078,59.4114,21.3647],[145.7072,59.4068,0.0],[145.7151,59.4025,20.9191],[145.7151,59.4012,2.9033],[145.7287,59.3988,59.6147],[145.7445,59.393,0.0],[145.7655,59.3894,4.2465],[145.7668,59.3871,0.0],[145.7626,59.3847,9.8551],[145.7623,59.3816,14.7673],[145.7664,59.3784,0.0],[145.7718,59.3775,49.0412],[145.7714,59.3752,0.0],[145.7733,59.3731,3.2751],[145.7902,59.3667,0.0],[145.8043,59.3651,0.0],[145.816,59.3718,4.0599],[145.811,59.3767,8.857],[145.8121,59.385,7.7659],[145.8136,59.3895,14.2954],[145.8233,59.3968,0.0],[145.8237,59.4012,8.4915],[145.8189,59.4094,0.0],[145.8222,59.4114,0.0],[145.8372,59.4136,0.0],[145.8411,59.4111,0.0],[145.8433,59.4069,0.0],[145.8683,59.3994,1.7338],[145.8772,59.3983,0.0],[145.8822,59.4022,48.5714],[145.8961,59.405,4.6588],[145.895,59.4061,50.6571],[145.8967,59.4075,41.0814],[145.9033,59.4094,0.0],[145.9022,59.4131,0.0],[145.9122,59.4161,3.1574],[145.9189,59.4214,8.0665],[145.9228,59.4225,10.8053],[145.9356,59.42,1.1794],[145.9556,59.4133,1.1365],[145.9706,59.4044,3.5281],[145.9695,59.4017,50.1098],[145.965,59.4,6.5038],[145.9683,59.3925,4.7443],[145.9672,59.3892,22.6981],[145.9594,59.3875,21.0268],[145.955,59.3833,19.4588],[145.9539,59.3708,0.0],[145.9452,59.3693,2.9531],[145.9457,59.3673,7.1057],[145.943,59.3632,0.0],[145.9487,59.3524,61.8134],[145.9477,59.3479,19.8263],[145.9422,59.3436,10.1404],[145.9346,59.3426,4.336],[145.9284,59.3387,13.008],[145.9233,59.3378,1.0347],[145.9212,59.3344,1.4641],[145.9149,59.331,9.6874],[145.9055,59.3288,1.1666],[145.9063,59.326,0.0],[145.9032,59.3223,1.6442],[145.9021,59.3177,13.379],[145.8917,59.3118,30.1837],[145.8723,59.305,28.6606],[145.8656,59.3068,18.3085],[145.8602,59.3029,1.978],[145.8519,59.3023,0.0],[145.8548,59.2944,13.5763],[145.8535,59.2907,0.0],[145.8477,59.2884,6.8569],[145.85,59.278,15.6753],[145.8495,59.273,0.0],[145.8475,59.2709,0.0],[145.8415,59.2695,0.0],[145.843,59.2634,17.9732],[145.83,59.2525,6.2309],[145.8267,59.246,0.0],[145.8291,59.2419,0.0],[145.8356,59.2424,14.013],[145.8432,59.2402,0.0],[145.8458,59.2386,9.585],[145.8461,59.2356,3.6512],[145.8524,59.2344,14.6816],[145.857,59.2298,11.1825],[145.88,59.2199,8.9019],[145.8786,59.2171,23.0235],[145.8806,59.2157,14.9246],[145.8883,59.2155,39.2334],[145.8932,59.2123,3.5397],[145.9007,59.2168,1.5454],[145.9115,59.2183,1.0613],[145.9272,59.2158,37.0931],[145.9292,59.2146,0.0],[145.9297,59.2115,0.0],[145.9436,59.205,0.0],[145.9534,59.2025,11.0351],[145.9543,59.2014,0.0],[145.9509,59.1981,1.3363],[145.9562,59.1991,16.1306],[145.959,59.198,18.7458],[145.9675,59.1916,6.1118],[145.968,59.1881,0.0],[145.9746,59.1875,6.6121],[145.9901,59.1812,8.734],[145.9905,59.1744,7.54],[145.9888,59.1669,0.0],[145.9829,59.1582,0.0],[145.9857,59.1518,4.6075],[145.9802,59.1486,17.9283],[145.9794,59.1444,2.8083],[145.9932,59.146,10.0399],[146.0,59.1439,63.853],[146.0039,59.1408,1.484],[146.0127,59.1442,57.991],[146.0235,59.1417,0.0],[146.0399,59.1427,11.6672],[146.0459,59.1408,6.1003],[146.0534,59.144,6.6701],[146.056,59.1476,3.3979],[146.0632,59.1514,0.6667],[146.063,59.1538,10.6628],[146.0761,59.1617,4.0252],[146.0875,59.1629,0.0],[146.0877,59.1646,0.0],[146.0838,59.1659,16.5291],[146.0857,59.1676,10.278],[146.0962,59.1688,17.0262],[146.1087,59.167,0.0],[146.1122,59.1686,0.0],[146.1195,59.1764,0.0],[146.126,59.1792,11.3806],[146.1285,59.1784,8.8403],[146.127,59.1766,0.0],[146.1287,59.1715,0.0],[146.1407,59.1671,2.263],[146.1425,59.1689,0.0],[146.1416,59.1731,3.7018],[146.1391,59.1765,4.4631],[146.1296,59.18,12.8076],[146.1289,59.1828,10.7087],[146.1304,59.1848,0.0],[146.1358,59.1859,5.9738],[146.138,59.1843,3.0737],[146.1462,59.1838,0.0],[146.1452,59.1863,0.0],[146.1498,59.1888,5.0558],[146.1495,59.1908,6.5277],[146.1529,59.1936,0.0],[146.1635,59.1937,0.0],[146.1689,59.1967,1.0868],[146.1755,59.1946,0.0],[146.1771,59.1963,0.0],[146.174,59.1986,8.7213],[146.1748,59.1994,9.618],[146.1845,59.1997,0.4395],[146.1876,59.2013,0.0],[146.1895,59.2045,2.2393],[146.1985,59.2062,0.0],[146.2011,59.2088,5.5271],[146.2064,59.2085,0.0],[146.2114,59.2042,0.7043],[146.2195,59.204,3.6388],[146.2212,59.2052,2.0232],[146.2202,59.2073,3.8458],[146.2271,59.2126,0.0],[146.2287,59.2113,30.2161],[146.2242,59.2078,0.0],[146.2255,59.2064,7.1233],[146.2245,59.2039,9.2276],[146.2302,59.2019,0.3204],[146.2352,59.2038,12.6479],[146.2403,59.1984,0.0],[146.2477,59.1973,2.8273],[146.2518,59.1999,0.0],[146.2598,59.2011,5.4697],[146.2615,59.1999,12.4818],[146.2581,59.1972,0.6095],[146.262,59.1972,5.0919],[146.2677,59.1986,0.0],[146.2676,59.2011,0.0],[146.271,59.2017,1.5693],[146.2711,59.1989,0.0],[146.2694,59.1972,0.0],[146.2778,59.1992,1.5576],[146.2811,59.1981,0.0],[146.2794,59.1954,0.0],[146.2909,59.1946,0.0],[146.2905,59.1931,1.5853],[146.2958,59.1916,5.5628],[146.2972,59.1888,15.0129],[146.3009,59.1883,0.6977],[146.3037,59.1857,3.9206],[146.3107,59.1849,4.2048],[146.3237,59.1905,16.6203],[146.3416,59.2042,3.7093],[146.3521,59.2064,1.921],[146.3518,59.2156,14.925],[146.3493,59.2196,13.3883],[146.3508,59.224,3.9067],[146.3406,59.225,9.4824],[146.336,59.2282,3.8627],[146.3288,59.2292,2.6852],[146.3246,59.234,2.4272],[146.3176,59.2354,9.2593],[146.3126,59.2427,8.2724],[146.3131,59.2495,1.7454],[146.3197,59.261,0.9432],[146.3253,59.2624,4.3768],[146.3331,59.2619,0.0],[146.3375,59.2651,2.1025],[146.329,59.2666,4.5848],[146.3229,59.2633,0.8921],[146.3156,59.2639,0.7646],[146.3055,59.2703,7.4736],[146.3028,59.2756,0.0],[146.3046,59.2819,0.0],[146.3261,59.3057,0.0],[146.3252,59.3132,0.0],[146.3274,59.3226,0.0],[146.3258,59.3242,18.911],[146.3276,59.3262,0.0],[146.3262,59.3278,19.6483],[146.3247,59.3403,44.9045],[146.321,59.3538,0.0],[146.3116,59.3689,28.9182],[146.3139,59.3756,21.8047],[146.3137,59.3788,4.8091],[146.3117,59.3808,67.2293],[146.3125,59.3831,60.9524],[146.3087,59.3877,0.0],[146.3038,59.3891,2.7599],[146.3033,59.3907,13.9841],[146.31,59.4008,1.2073],[146.3539,59.4267,0.0],[146.3922,59.4442,2.0746],[146.4433,59.4624,11.9288],[146.4663,59.4619,0.0],[146.5118,59.4655,98.0268],[146.5229,59.4616,0.0],[146.5335,59.4628,25.4736],[146.5466,59.4567,0.0],[146.5714,59.456,3.05],[146.5768,59.4513,68.2033],[146.5746,59.4471,0.0],[146.6159,59.448,30.3048],[146.6347,59.441,19.6358],[146.6768,59.4329,0.0],[146.6905,59.4258,45.1624],[146.6991,59.4176,2.324],[146.6999,59.4145,30.3164],[146.6959,59.4097,0.0],[146.6912,59.3941,0.0],[146.7009,59.3895,0.0],[146.7253,59.3883,0.0],[146.7339,59.3911,3.795],[146.7383,59.3891,16.4939],[146.7358,59.3839,0.0],[146.7428,59.3825,0.0],[146.7435,59.3836,7.8001],[146.7582,59.3834,0.0],[146.7691,59.3755,61.3228],[146.7819,59.3721,103.9228],[146.8146,59.3728,54.5415],[146.8317,59.3705,47.5817],[146.844,59.3625,133.4475],[146.8525,59.3595,6.8482],[146.861,59.3609,12.6167],[146.8652,59.3638,176.5396],[146.8739,59.3659,109.8223],[146.8895,59.3677,34.2034],[146.9061,59.3684,16.9892],[146.9205,59.3661,13.2849],[146.9421,59.3687,17.1108],[146.9575,59.3681,0.0],[146.9576,59.3692,104.7668],[146.9628,59.3697,47.97],[147.03,59.3962,354.8717],[147.1961,59.4161,217.3719],[147.1996,59.5453,55.9878],[147.2791,59.6448,42.6759],[147.2526,59.6916,43.9844],[147.2713,59.7336,53.9373],[147.2572,59.7632,77.556],[147.1949,59.7941,182.6058],[147.247,59.8221,131.4521],[147.231,59.8679,147.2236],[147.1144,59.8917,613.9728],[147.1068,59.954,252.3171],[147.027,59.9504,757.9438],[146.9062,59.8894,325.9494],[146.8591,59.897,709.8881],[146.8267,59.9315,612.4365],[146.7465,59.9915,439.8806],[146.8097,60.0422,304.4261],[146.8066,60.0647,278.0603],[146.7731,60.0959,329.4068],[146.6575,60.0995,559.3228],[146.5728,60.1186,601.2945],[146.5402,60.1704,480.0031],[146.4712,60.2263,614.7446],[146.353,60.2444,686.8463],[146.2147,60.2039,1244.2236],[146.1532,60.2039,1143.4105],[146.081,60.2221,784.3315],[146.0376,60.216,732.6289],[145.9849,60.1869,792.5502],[145.937,60.1838,753.939],[145.7099,60.2938,541.8858],[145.6207,60.3541,1015.234],[145.694,60.3719,737.8124],[145.6636,60.4184,635.5195],[145.5992,60.4434,715.5887],[145.6318,60.485,498.1487],[145.7267,60.498,598.3875],[145.7261,60.5583,697.9056],[145.7975,60.5712,669.9605],[145.8766,60.6122,1077.3748],[145.9458,60.6119,816.1994],[145.9933,60.6363,1077.9847],[146.0213,60.6937,744.3113],[146.0924,60.6973,847.0291],[146.1575,60.7346,800.3347],[146.2271,60.7434,650.4881],[146.3276,60.6877,842.7149],[146.4271,60.6625,967.8824],[146.5334,60.6637,903.7233],[146.5833,60.7079,842.2621],[146.559,60.7361,879.0858],[146.5311,60.7542,733.946],[146.5535,60.815,823.8958],[146.5463,60.8724,752.8348],[146.534,60.8982,837.9487],[146.5792,60.9292,1063.5272],[146.6664,60.9286,1002.3583],[146.7392,60.9383,1301.8444],[146.7753,60.9636,1230.609],[146.8069,61.0336,957.5198],[146.7858,61.057,992.074],[146.8436,61.0923,1164.4261],[146.8327,61.1291,1335.4078],[146.851,61.1752,1125.3433],[146.789,61.2481,1119.0701],[146.7474,61.3269,1107.9343],[146.7805,61.3949,886.2761],[146.73,61.4435,1228.1619],[146.6708,61.4607,1032.5573],[146.659,61.5128,1415.058],[146.6899,61.5783,1299.1195],[146.6509,61.6133,1414.012],[146.5698,61.6414,1262.7119],[146.5312,61.6727,1215.3643],[146.5353,61.7199,1109.894],[146.4147,61.8049,1617.5754],[146.3349,61.8473,1578.6365],[146.2867,61.8646,1261.7993],[146.2453,61.906,1229.2988],[146.16,61.9293,1302.4048],[146.1236,61.9327,1443.4988],[146.0543,61.974,1379.874],[145.9765,61.9931,1274.748],[145.8314,62.0048,1596.1506],[145.7727,62.0672,1226.9061],[145.7146,62.045,1152.7876],[145.7332,61.9885,1138.3401],[145.6851,61.9569,1212.9824],[145.6026,61.9508,1093.6196],[145.5731,61.9192,1143.1387],[145.4917,61.9196,1075.0275],[145.5279,61.9705,1047.4781],[145.4597,61.9624,1283.5734],[145.4242,61.971,1187.3068],[145.4214,61.9927,1383.6915],[145.3672,61.9978,1133.6676],[145.2952,61.9462,1132.6639],[145.2672,61.9645,1081.0408],[145.1592,61.9847,1291.7916],[145.1157,61.996,1256.2783],[145.1015,62.0264,1161.8326],[145.0381,62.0552,1325.9877],[144.9592,62.0552,1363.9271],[144.8916,62.0431,1438.0525],[144.8382,62.0361,1325.4949],[144.7892,62.0412,1528.5566],[144.7453,62.0103,1522.5801],[144.6693,61.9851,1646.1333],[144.6423,61.9299,1371.8735],[144.6071,61.8695,1388.6615],[144.5953,61.8396,1318.2192],[144.5272,61.822,1482.5345],[144.4365,61.8135,1452.8612],[144.3985,61.7702,1218.7456],[144.3298,61.7448,1552.1908],[144.2458,61.7395,1798.5863],[144.1786,61.7419,1771.0065],[144.1135,61.7196,1622.1514],[144.0053,61.7478,1800.8556],[143.9871,61.7893,1599.1609],[144.049,61.8366,1332.6438],[144.0161,61.8833,1387.0355],[144.0231,61.9148,1516.5284],[144.0598,61.945,1359.2159],[144.0031,61.957,1351.8182],[143.9325,61.9296,1469.8601],[143.8495,61.9191,1302.1978],[143.7694,61.842,1145.8107],[143.6896,61.9138,1527.4309],[143.6489,61.9438,1594.2822],[143.6857,61.9682,1685.1337],[143.6403,62.019,1802.7687],[143.5489,62.028,1558.5457],[143.4817,61.9982,1435.3082],[143.4288,61.9938,1530.9008],[143.4347,62.0188,1772.3529],[143.3401,62.0501,1514.979],[143.3351,62.1025,1715.9506],[143.2612,62.1007,2135.9651],[143.2063,62.0767,1932.6852],[143.2176,62.0313,1625.3768],[143.2129,61.9958,1462.8138],[143.1476,61.9608,2086.582],[143.1024,61.9335,2190.4194],[143.0916,61.8788,1489.0778],[143.0032,61.8641,1666.3646],[142.9666,61.9135,2227.9956],[142.7167,61.9475,1715.6929],[142.5885,61.8787,1392.3602],[142.4818,61.8721,1569.4636],[142.452,61.8898,1758.9376],[142.4,61.9128,1861.5214],[142.3274,61.9235,1568.1919],[142.2976,61.9557,1603.0735],[142.2757,62.0041,1639.7083],[142.264,62.0469,1783.4714],[142.1634,62.0456,1647.6049],[142.1042,62.0073,1395.2819],[142.0377,62.0058,1326.9519],[141.9639,61.9845,1486.0222],[141.8915,62.0525,1659.2135],[141.7703,62.0676,1698.502],[141.7507,62.1005,1769.0621],[141.6588,62.1225,1332.193],[141.5927,62.1681,1833.3865],[141.5973,62.2351,1757.6794],[141.4785,62.2698,1992.7419],[141.3752,62.3424,2503.2644],[141.3515,62.3983,2693.7527],[141.2587,62.3771,2451.156],[141.2027,62.3738,1820.7737],[141.1443,62.3812,1671.5708],[141.1469,62.4232,1968.9265],[141.1501,62.4464,1899.3718],[141.1112,62.4542,1807.6198],[141.0242,62.443,2193.9524],[140.9954,62.4608,2469.0085],[140.9641,62.4935,1919.8745],[140.8229,62.4926,2239.6907],[140.7794,62.4438,1863.5498],[140.7243,62.4051,1697.645],[140.6378,62.3926,1878.5219],[140.5222,62.4021,2084.9792],[140.4308,62.3692,1681.4121],[140.3967,62.3165,1484.3979],[140.3676,62.2263,1431.618],[140.3506,62.1541,1514.4159],[140.3347,62.0762,1443.412],[140.3941,62.0337,1895.5018],[140.3318,62.0039,1897.4172],[140.2984,61.9838,1468.0107],[140.2852,61.9486,1515.8228],[140.2555,61.9415,1712.8981],[140.0966,61.9539,1941.272],[140.0047,61.9323,1360.1329],[140.0545,61.8569,1425.1857],[139.9968,61.7637,1365.798],[139.8981,61.6724,1260.5741],[139.8834,61.616,1391.5033],[139.7947,61.5958,994.5338],[139.6824,61.5077,922.7103],[139.6531,61.4766,1089.2858],[139.5295,61.4662,1551.9036],[139.4603,61.4562,1363.1118],[139.3936,61.4281,1247.2888],[139.3268,61.4098,1405.2526],[139.1966,61.4306,1318.6453],[139.1321,61.3985,1225.453],[139.1344,61.3414,1458.994],[139.0817,61.3112,1361.9597],[138.9906,61.3199,1268.0583],[138.8907,61.3106,1222.6514],[138.8235,61.286,924.4287],[138.8133,61.3086,1348.3463],[138.7732,61.3231,1271.8881],[138.7135,61.2723,996.8607],[138.7588,61.214,1998.5649],[138.7153,61.1766,1624.0078],[138.6113,61.1245,1546.3741],[138.533,61.1065,1329.5061],[138.4761,61.0754,1485.1149],[138.3844,61.0864,1708.5842],[138.3533,61.0647,1407.3119],[138.3893,61.0148,1137.0005],[138.2827,60.9203,1139.9794],[138.2423,60.8518,1024.2954],[138.358,60.7724,1053.2997],[138.4964,60.7074,1754.5745],[138.5481,60.6748,900.0031],[138.4972,60.5985,1163.8203],[138.4321,60.5539,1297.8473],[138.4393,60.5169,1192.7053],[138.418,60.4889,1149.2491],[138.352,60.4446,1012.4404],[138.3909,60.4084,945.7131],[138.4152,60.3692,859.1499],[138.3743,60.3138,1116.812],[138.3067,60.2593,1038.967],[138.2664,60.2319,807.7016],[138.2588,60.1813,793.2361],[138.2651,60.1403,773.6672],[138.227,60.1091,938.5012],[138.271,60.0497,745.701],[138.2724,59.9995,864.1583],[138.2488,59.9542,970.8674],[138.3159,59.9199,944.2368],[138.3283,59.9041,749.6247],[138.2237,59.8223,979.1929],[138.2448,59.7812,514.5434],[138.2495,59.7379,386.6364],[138.3216,59.718,436.3518],[138.3252,59.6954,786.3312],[138.2838,59.6797,537.809],[138.246,59.6468,697.0771],[138.1322,59.6446,837.0509],[138.153,59.7011,664.5125],[138.1125,59.7473,716.3319],[138.0451,59.7184,731.3843],[137.8796,59.7293,352.6407],[137.6804,59.7209,353.0714],[137.5977,59.6862,387.575],[137.5179,59.638,379.5521],[137.5281,59.5965,565.2421],[137.5379,59.5731,373.2719],[137.4962,59.5396,636.7535],[137.4,59.4934,397.5724],[137.2481,59.4278,400.1126],[137.2188,59.4095,361.7556],[137.2164,59.3795,402.8081],[137.1593,59.3213,684.6018],[137.1004,59.2415,953.0009],[137.1208,59.1664,909.3372],[137.22,59.1731,1046.0415],[137.2663,59.2008,643.5291],[137.2903,59.1752,903.6125],[137.3181,59.1707,1012.1831],[137.3824,59.1884,609.5215],[137.4624,59.2255,539.2724],[137.4984,59.2173,630.256],[137.5063,59.1925,1012.2593],[137.541,59.1677,882.3724],[137.6054,59.1662,968.3409],[137.6902,59.2177,1137.0505],[137.7387,59.2054,807.6577],[137.7023,59.166,919.7745],[137.7228,59.1467,1005.6967],[137.8024,59.1541,1001.6179],[137.8649,59.133,745.644],[137.9224,59.1347,812.1025],[138.0293,59.1791,834.6288],[138.0796,59.2493,732.7629],[138.131,59.2647,780.5481],[138.2023,59.2182,611.5328],[138.2712,59.2034,867.6492],[138.3644,59.2331,653.4565],[138.389,59.192,530.4509],[138.3726,59.1438,517.8797],[138.3402,59.1063,714.9515],[138.2555,59.0665,605.4607],[138.1895,58.9994,538.8059],[138.1477,58.9607,774.7913],[138.0892,58.936,685.0901],[138.0714,58.8863,791.5294],[138.1399,58.8417,544.3514],[138.1727,58.7873,420.312],[138.1391,58.7183,539.0541],[138.3526,58.6268,737.7979],[138.3924,58.603,674.8791],[138.4357,58.5171,690.7081],[138.6325,58.4624,726.1868],[139.0529,58.3729,869.1614],[139.0766,58.3283,898.3568],[139.1667,58.3107,924.6614],[139.2277,58.3353,762.101],[139.2843,58.3193,870.42],[139.3924,58.2673,884.9045],[139.4379,58.2052,570.2504],[139.4332,58.1473,685.3101],[139.4815,58.1361,628.682],[139.572,58.1449,447.805],[139.5946,58.1285,609.9657],[139.6131,58.1036,765.1015],[139.6217,58.0518,767.6044],[139.7804,57.9389,952.795],[139.9225,57.8889,515.5999],[140.0224,57.895,557.9037],[140.2473,57.9432,784.051],[140.2821,57.9198,225.7898],[140.2732,57.889,181.8192],[140.3022,57.8764,537.3644],[140.3945,57.9016,531.8979],[140.4846,57.9628,284.1719]]]]}}