{"type":"Feature","properties":{"GID_2":"RUS.60.12_1","GID_0":"RUS","country":"Russia","GID_1":"RUS.60_1","province":"Sakha","NL_NAME_1":"РеспубликаСаха","county":"Lenskiyrayon","VARNAME_2":"NA","NL_NAME_2":"Ленскийрайон","TYPE_2":"Raion","ENGTYPE_2":"District","CC_2":"R65001","HASC_2":"RU.SK.LE","name":"Lenskiyrayon.county"},
"geometry":{"type": "MultiPolygon","coordinates": [[[[116.9303,60.169,431.0938],[116.9467,60.2691,374.53],[116.9554,60.3341,152.4212],[117.0105,60.3813,310.6961],[117.1047,60.4172,375.5665],[117.2116,60.4476,325.1846],[117.2867,60.4941,307.6249],[117.2925,60.5493,295.0364],[117.3092,60.6449,318.2356],[117.3327,60.6643,311.4707],[117.4078,60.7024,347.8659],[117.4748,60.7536,343.1825],[117.5953,60.8315,348.1848],[117.6033,60.8742,330.7776],[117.5708,60.9407,308.3126],[117.5243,60.9847,358.4677],[117.4476,61.0417,320.4569],[117.391,61.0933,254.901],[117.3583,61.1633,317.381],[117.3562,61.2324,318.7694],[117.3366,61.3082,333.4682],[117.2757,61.363,335.3661],[117.1968,61.3939,303.3812],[117.0535,61.4149,314.6905],[117.032,61.4333,284.1841],[117.0573,61.4553,297.2769],[117.0266,61.4785,315.0766],[116.9428,61.4718,288.3998],[116.8768,61.4629,342.8332],[116.8524,61.4807,306.589],[116.8934,61.5278,310.2111],[116.8548,61.5629,265.2879],[116.7848,61.5545,296.6242],[116.7516,61.5408,292.4845],[116.681,61.5398,302.5124],[116.626,61.5592,341.6826],[116.644,61.5859,323.5714],[116.6446,61.6256,292.038],[116.5814,61.6524,289.2051],[116.4562,61.6845,302.1967],[116.476,61.7221,198.4552],[116.4245,61.7567,270.7585],[116.3672,61.7198,331.1733],[116.3141,61.7074,328.2447],[116.2855,61.7282,284.5689],[116.2767,61.7736,267.8786],[116.2122,61.7957,233.1681],[116.1363,61.7729,340.8603],[116.0422,61.7298,379.7496],[115.9907,61.731,370.8683],[115.9911,61.7735,365.9474],[115.9508,61.789,253.3172],[115.8792,61.7896,354.8553],[115.8198,61.7676,349.7899],[115.6817,61.7994,346.3745],[115.5738,61.7715,321.6176],[115.5065,61.7124,320.0411],[115.4389,61.6856,341.9327],[115.4126,61.6321,340.5224],[115.3408,61.5864,323.9933],[115.2425,61.5924,343.816],[115.1873,61.6176,357.8425],[115.1597,61.6141,373.6419],[115.124,61.5644,365.3527],[115.0854,61.551,348.2533],[115.0329,61.587,377.2087],[115.0468,61.6519,354.081],[115.0558,61.7246,320.6062],[114.9973,61.7897,344.5531],[114.8624,61.7946,361.0954],[114.8122,61.8283,378.132],[114.8374,61.926,356.7987],[114.7968,61.9421,366.1228],[114.7443,61.8832,363.6718],[114.6537,61.8216,366.8724],[114.5191,61.7525,364.683],[114.4254,61.6875,342.4992],[114.3587,61.6345,340.2165],[114.2799,61.6129,379.6914],[114.1151,61.6394,349.3914],[114.0042,61.6926,351.5289],[113.8912,61.7064,375.2523],[113.7701,61.6841,387.2434],[113.6807,61.6477,380.2729],[113.5843,61.5807,377.8334],[113.5014,61.5041,370.4981],[113.4712,61.4299,383.2957],[113.3246,61.3896,400.2851],[113.1325,61.3396,406.3192],[113.0474,61.2906,353.6],[112.9807,61.2334,373.6573],[112.9167,61.1824,434.5747],[112.9066,61.1613,423.2591],[112.79,61.1389,471.3671],[112.6895,61.1122,497.4994],[112.6295,61.0635,457.6265],[112.6195,61.013,424.9919],[112.5597,60.9468,439.741],[112.4167,60.9164,475.1863],[112.1173,60.9224,484.6579],[111.9384,60.935,464.5838],[111.8018,60.9154,507.4285],[111.5279,60.9427,508.5813],[111.3905,60.9905,457.5579],[111.3531,60.9669,477.2867],[111.2576,60.9526,490.2616],[111.1339,60.9625,482.6733],[111.0627,60.9808,464.8839],[110.9965,61.0226,464.7457],[110.8443,60.9804,489.6492],[110.784,60.9777,482.7864],[110.6289,61.0004,440.4753],[110.5635,61.0118,437.405],[110.511,61.0156,440.5152],[110.4968,60.9988,445.7554],[110.5014,60.9503,433.6689],[110.3935,60.8918,416.6524],[110.3228,60.8324,437.241],[110.2674,60.7918,450.5562],[110.3187,60.7445,443.791],[110.2581,60.6752,468.7077],[110.0718,60.6594,405.4511],[110.0592,60.6312,367.4907],[110.1372,60.602,447.306],[110.1317,60.5724,432.4362],[110.0383,60.5517,437.1218],[110.024,60.5082,433.0561],[109.9173,60.463,472.4694],[109.912,60.4406,460.5673],[109.9311,60.391,452.3577],[109.8366,60.3594,417.6953],[109.8007,60.3291,467.791],[109.8007,60.28,460.7486],[109.7525,60.2579,464.1221],[109.7189,60.2274,459.0656],[109.6851,60.1633,438.8415],[109.6578,60.096,426.3249],[109.7303,60.0191,433.4474],[109.6727,59.9812,437.4206],[109.6122,59.928,432.8295],[109.6107,59.8598,452.6127],[109.5016,59.7789,451.0844],[109.4448,59.7463,432.2143],[109.416,59.7118,454.8208],[109.4303,59.6826,444.7179],[109.4599,59.6505,479.1336],[109.4225,59.5829,487.1014],[109.309,59.5203,470.7249],[109.2496,59.4788,455.2875],[109.2234,59.4285,425.2353],[109.2815,59.4055,462.8835],[109.2143,59.369,463.3962],[109.1965,59.3173,421.1973],[109.2788,59.2834,436.2213],[109.3484,59.2896,436.9731],[109.387,59.2706,415.202],[109.4158,59.2084,404.599],[109.48779999999999,59.1806,478.2524],[109.5371,59.1333,466.4601],[109.5403,59.081,415.4956],[109.5251,59.0574,399.1374],[109.5697,59.035,501.5285],[109.6786,59.0602,585.6244],[109.7291,59.0137,467.006],[109.7233,58.9684,470.6713],[109.7625,58.9655,437.2685],[109.8483,58.9923,562.8375],[109.954,58.9864,514.9024],[110.1349,58.9711,580.2981],[110.225,58.9827,542.3461],[110.3457,59.0211,547.6567],[110.4453,59.0253,500.6377],[110.5293,59.0719,520.116],[110.5993,59.1928,475.1006],[110.664,59.2353,535.1797],[110.7607,59.2396,357.4248],[110.8607,59.2317,461.4076],[110.9279,59.2135,459.7502],[111.0519,59.2328,492.4757],[111.1116,59.1922,489.866],[111.1948,59.1881,443.7063],[111.2422,59.2309,505.4327],[111.3676,59.2553,425.42],[111.4321,59.2554,340.3849],[111.4963,59.2398,306.2162],[111.5129,59.2118,317.6664],[111.5839,59.1994,352.1151],[111.6387,59.2157,451.5396],[111.6827,59.2532,416.9402],[111.8895,59.2765,358.9843],[111.9637,59.2893,461.8135],[112.0001,59.3182,444.8716],[112.0589,59.3588,362.2535],[112.0873,59.3976,418.694],[112.2317,59.4801,428.5878],[112.2522,59.4443,407.9955],[112.3153,59.4092,362.8828],[112.2969,59.3549,402.45],[112.2562,59.2989,385.3594],[112.2713,59.2746,382.6476],[112.3585,59.2905,402.569],[112.4061,59.3055,334.2681],[112.4847,59.2936,191.7445],[112.6092,59.3059,377.8808],[112.6072,59.2206,361.949],[112.482,59.19,445.468],[112.4323,59.1652,414.0168],[112.3798,59.1323,315.0641],[112.4062,59.0343,376.6957],[112.3676,58.9974,294.7774],[112.3627,58.9482,338.3401],[112.402,58.8857,456.85],[112.4003,58.8454,266.0797],[112.471,58.8443,434.0514],[112.5396,58.8692,453.082],[112.5484,58.9383,541.1942],[112.5322,59.0079,316.1002],[112.5397,59.0577,228.895],[112.6101,59.0861,338.0698],[112.612,59.0307,479.478],[112.6589,58.9996,265.0183],[112.72,58.9911,510.0244],[112.7683,59.0086,464.0964],[112.7852,59.0594,703.2614],[112.8393,59.08,668.8925],[112.8515,59.1027,685.6537],[112.9029,59.1181,682.8376],[112.9647,59.1112,575.5238],[113.0113,59.1232,415.5757],[113.0384,59.1372,529.0934],[113.0949,59.1446,593.7979],[113.1409,59.1585,737.6909],[113.2523,59.1521,868.229],[113.3452,59.1871,987.1528],[113.3939,59.2182,1038.2314],[113.453,59.2464,1123.9482],[113.4738,59.2986,1019.5216],[113.4224,59.3508,624.6108],[113.4203,59.4007,530.7987],[113.5613,59.4566,567.9332],[113.601,59.5364,556.4266],[113.7138,59.5932,496.2182],[113.7579,59.5859,505.0603],[113.8228,59.5987,592.8329],[113.8262,59.6389,610.5972],[113.8752,59.6754,610.0343],[113.97,59.6795,563.4659],[113.9597,59.722,762.3767],[114.0127,59.7442,549.046],[114.0837,59.7267,558.3848],[114.1554,59.7405,759.0862],[114.1539,59.7996,672.5449],[114.2376,59.8582,602.3314],[114.3598,59.9053,610.3756],[114.4377,59.9405,666.9064],[114.5459,59.9512,444.1806],[114.5667,60.0016,469.878],[114.5261,60.0178,510.9637],[114.5192,60.0564,436.5746],[114.6053,60.1192,442.6463],[114.6947,60.1817,464.6584],[114.7927,60.1841,443.4419],[114.8907,60.1782,486.1017],[114.9691,60.2002,489.5983],[115.0459,60.2676,446.8701],[115.0605,60.3352,432.8345],[115.082,60.3735,514.1403],[115.1743,60.4271,458.0023],[115.224,60.4752,497.7518],[115.2957,60.4452,489.6469],[115.4034,60.4454,445.0719],[115.5515,60.4853,473.4653],[115.6744,60.5242,515.6298],[115.7515,60.5248,474.8433],[115.7713,60.5059,488.2106],[115.8748,60.4812,434.7945],[115.8676,60.4432,417.7126],[115.9603,60.4354,392.1061],[116.0345,60.4426,400.4601],[116.1404,60.4156,453.4688],[116.1453,60.3826,543.6093],[116.2579,60.3815,524.9758],[116.299,60.3452,385.796],[116.3889,60.3551,461.2756],[116.4956,60.3545,427.9669],[116.5729,60.3212,269.6839],[116.5982,60.2876,424.3523],[116.7184,60.275,295.7176],[116.7234,60.2596,285.8565],[116.7309,60.2225,318.001],[116.7761,60.2087,372.4262],[116.8774,60.1983,437.0706],[116.9303,60.169,431.0938]]]]}}