{"type":"Feature","properties":{"GID_2":"RUS.16.9_1","GID_0":"RUS","country":"Russia","GID_1":"RUS.16_1","province":"Gorno-Altay","NL_NAME_1":"РеспубликаАлтай","county":"Ulaganskiyrayon","VARNAME_2":"NA","NL_NAME_2":"Улаганскийрайон","TYPE_2":"Raion","ENGTYPE_2":"District","CC_2":"R53010","HASC_2":"RU.GA.UL","name":"Ulaganskiyrayon.county"},
"geometry":{"type": "MultiPolygon","coordinates": [[[[87.0917,51.2241,2039.5056],[87.1444,51.1587,2249.2053],[87.2013,51.0752,2382.1392],[87.2814,51.0056,1787.0503],[87.3258,50.9773,1992.0703],[87.3538,50.894,2249.1436],[87.4002,50.7979,1936.8521],[87.4233,50.7241,2006.6815],[87.4585,50.6573,1703.3516],[87.4855,50.5979,1968.5298],[87.4722,50.546,1870.9613],[87.4392,50.5159,2119.7466],[87.3977,50.4895,2077.5735],[87.3985,50.4298,2044.0706],[87.376,50.3504,1079.8099],[87.4311,50.3504,1642.7711],[87.4679,50.3436,1200.4073],[87.5237,50.3071,1458.6417],[87.5577,50.2606,1394.8574],[87.553,50.2226,2127.7012],[87.5337,50.1848,2333.1873],[87.5803,50.1585,2638.4883],[87.6283,50.1566,2839.3818],[87.7495,50.166,1833.1033],[87.7814,50.1856,1840.6775],[87.8028,50.2217,1486.5088],[87.8306,50.296,2194.8545],[87.8848,50.3135,2790.0737],[87.9386,50.3177,2972.9187],[87.9585,50.3387,2442.3748],[88.0153,50.3273,2848.199],[88.0545,50.3009,2751.0427],[88.0704,50.2699,2506.8298],[88.1103,50.2557,2360.6936],[88.2085,50.2657,2342.9578],[88.3239,50.2597,2429.5781],[88.3693,50.2197,2733.2227],[88.4288,50.1419,3001.4565],[88.5567,50.1192,2533.3389],[88.5955,50.1299,2762.2412],[88.6886,50.0911,2214.9387],[88.7587,50.0572,2387.3164],[88.7905,50.0615,2248.6721],[88.8458,50.086,2973.5527],[88.8827,50.1274,2458.5398],[88.9381,50.1462,2547.5498],[89.0726,50.1291,2599.8665],[89.1172,50.128,2512.5659],[89.1173,50.1683,2730.4116],[89.1312,50.1818,2357.2505],[89.1685,50.1931,2771.5984],[89.2186,50.1757,2492.0144],[89.3318,50.1992,2925.3889],[89.3271,50.2361,2941.1294],[89.3668,50.2616,2764.1355],[89.3885,50.2787,2769.3472],[89.4023,50.311,2873.4783],[89.4473,50.3266,2560.0229],[89.5115,50.3403,2446.7361],[89.5274,50.3578,2497.0549],[89.4847,50.4154,2248.7666],[89.4855,50.4594,2216.5659],[89.5409,50.4508,2288.4509],[89.5913,50.3734,2222.9255],[89.6342,50.356,2439.2686],[89.7104,50.3502,2457.9219],[89.7967,50.3743,2307.5493],[89.8508,50.4196,2416.1082],[89.8659,50.4593,2276.7915],[89.8428,50.502,2570.436],[89.7737,50.531,2722.1851],[89.706,50.5563,2686.1924],[89.6554,50.586,2874.1577],[89.6438,50.6101,3069.5559],[89.6186,50.6236,2663.469],[89.5593,50.6468,2657.6636],[89.5413,50.6842,2414.0376],[89.5417,50.7234,2523.2744],[89.4966,50.7526,2536.2039],[89.4271,50.7859,2523.0588],[89.3918,50.816,2784.9905],[89.386,50.8499,2736.1455],[89.3662,50.8647,2563.9062],[89.2913,50.861,2360.3223],[89.2007,50.9172,2254.1785],[89.1881,50.9811,2696.3865],[89.141,51.0042,2594.5488],[89.0853,51.0256,2335.6379],[89.037,51.0579,2307.2556],[89.0352,51.1024,2783.6838],[89.0451,51.1415,2738.1318],[88.9969,51.1886,2339.9998],[88.9358,51.2864,2120.7625],[88.9563,51.3247,2158.5256],[88.977,51.3566,2399.4146],[88.9939,51.3917,2104.7273],[88.9704,51.4172,1935.5819],[88.9272,51.4341,2071.3787],[88.8654,51.4686,2648.3169],[88.8477,51.5104,2529.0005],[88.81,51.538,2332.5381],[88.7416,51.5486,2359.2905],[88.6907,51.508,2013.9929],[88.6711,51.4058,2573.4949],[88.624,51.3683,2200.7034],[88.5961,51.3366,2548.1172],[88.5152,51.3039,2220.3435],[88.4061,51.2922,2028.6613],[88.3304,51.3277,2281.8311],[88.333,51.354,2297.6475],[88.2597,51.3758,2365.9602],[88.1713,51.393,1811.8674],[88.1222,51.4322,2135.4614],[88.0681,51.4681,2001.8096],[87.9963,51.4787,1860.4255],[87.9357,51.4914,2001.5159],[87.9024,51.536,1991.4182],[87.904,51.5649,1728.1155],[87.8444,51.5545,1928.1594],[87.7865,51.5387,1547.6031],[87.7477,51.5622,1557.9645],[87.6925,51.5569,433.5],[87.6802,51.5341,433.5],[87.689,51.5017,433.5],[87.737,51.4114,437.044],[87.7427,51.3693,590.5955],[87.7201,51.3463,765.652],[87.6953,51.35,1836.2913],[87.6763,51.3673,1924.5782],[87.6287,51.3721,1942.0054],[87.5737,51.3527,1790.34],[87.5458,51.3281,1678.0542],[87.5418,51.2942,1934.2063],[87.52,51.2693,1659.3242],[87.4874,51.2692,1938.7766],[87.3813,51.2568,2099.1965],[87.2983,51.2423,1801.5037],[87.1952,51.2077,1904.2426],[87.1785,51.2224,2062.9668],[87.1669,51.2443,2174.9763],[87.1261,51.2459,2187.3223],[87.1002,51.2615,2194.4885],[87.0917,51.2241,2039.5056]]]]}}