{"type":"Feature","properties":{"GID_3":"RUS.56.32.1_1","GID_0":"RUS","country":"Russia","GID_1":"RUS.56_1","province":"Primor'ye","NL_NAME_1":"Приморскийкрай","GID_2":"RUS.56.32_1","county":"Vladivostokgorsovet","NL_NAME_2":"Владивосток(горсовет)","city":"NA","VARNAME_3":"NA","NL_NAME_3":"NA","TYPE_3":"NA","ENGTYPE_3":"NA","CC_3":"NA","HASC_3":"NA","name":"N_A.city"},
"geometry":{"type": "MultiPolygon","coordinates": [[[[131.6193,42.8307,0.0],[131.6174,42.8304,0.0],[131.6179,42.8285,9.3956],[131.6124,42.8293,0.0],[131.609,42.8282,0.0],[131.609,42.8268,0.0],[131.611,42.8249,0.0],[131.6182,42.8238,15.0042],[131.621,42.8279,0.0],[131.6193,42.8307,0.0]]],
[[[131.6313,42.8401,25.6868],[131.6254,42.8407,0.0],[131.6268,42.8371,8.7629],[131.629,42.836,0.0],[131.6299,42.8379,3.9998],[131.6351,42.8371,0.0],[131.6354,42.8382,0.0],[131.6313,42.8401,25.6868]]],
[[[131.6218,42.8435,9.2142],[131.621,42.8465,0.0],[131.6168,42.8418,0.0],[131.6221,42.841,0.0],[131.6218,42.8435,9.2142]]],
[[[131.6212,42.8543,0.0],[131.616,42.854,0.0],[131.6143,42.851,3.1223],[131.619,42.8493,0.0],[131.6224,42.8515,0.0],[131.6212,42.8543,0.0]]],
[[[131.6554,42.8715,28.5797],[131.6524,42.8715,16.6745],[131.6487,42.8679,12.2401],[131.6421,42.8682,0.9964],[131.639,42.8629,6.5176],[131.6512,42.8596,0.0],[131.6576,42.8607,0.0],[131.6582,42.8632,0.0],[131.661,42.864,0.0],[131.6582,42.8674,28.9531],[131.6588,42.8696,3.3841],[131.6554,42.8715,28.5797]]],
[[[131.6735,42.894,0.0],[131.6687,42.8946,0.0],[131.666,42.8913,4.0462],[131.6621,42.8899,0.0],[131.6613,42.886,0.0],[131.6554,42.881,0.0],[131.6546,42.8726,4.8205],[131.6585,42.8726,0.0],[131.6624,42.8763,13.6946],[131.6668,42.8768,0.0],[131.6704,42.8737,0.0],[131.6788,42.8715,0.0],[131.6812,42.8751,9.9874],[131.6812,42.8829,0.0],[131.6779,42.8865,3.4364],[131.6776,42.8901,27.9045],[131.6735,42.894,0.0]]],
[[[131.6479,42.8993,4.0717],[131.6449,42.9001,3.4339],[131.6432,42.899,3.4339],[131.641,42.8946,0.0],[131.6421,42.894,0.0],[131.644,42.8971,5.6535],[131.6479,42.8949,0.0],[131.651,42.8954,0.0],[131.6499,42.8988,0.0],[131.6479,42.8993,4.0717]]],
[[[131.6901,42.8415,26.1164],[131.6899,42.8454,12.6664],[131.6879,42.8457,0.0],[131.686,42.8413,0.0],[131.6896,42.8387,0.0],[131.6901,42.8415,26.1164]]],
[[[131.7329,42.9232,4.4855],[131.7315,42.9243,0.0],[131.726,42.9221,0.0],[131.721,42.9232,3.3414],[131.7171,42.9215,26.9582],[131.7135,42.9238,0.0],[131.7079,42.9218,0.0],[131.7079,42.9204,0.0],[131.7165,42.9179,0.0],[131.7179,42.916,14.7447],[131.7179,42.9129,7.5592],[131.7126,42.9065,0.0],[131.7115,42.9024,5.8204],[131.7218,42.901,14.7054],[131.7226,42.8985,0.0],[131.7263,42.8963,0.0],[131.7265,42.9001,0.0],[131.7363,42.904,17.6528],[131.7465,42.9032,0.0],[131.7446,42.9051,0.0],[131.7446,42.9085,1.7094],[131.7421,42.9129,20.8996],[131.7429,42.9165,18.0001],[131.741,42.9196,12.5761],[131.7343,42.9212,0.5705],[131.7329,42.9232,4.4855]]],
[[[131.7479,42.9218,16.6901],[131.7449,42.9226,0.0],[131.744,42.9207,15.0505],[131.7496,42.9207,2.2034],[131.7479,42.9218,16.6901]]],
[[[131.6879,42.9329,5.6942],[131.6882,42.9368,16.7616],[131.6868,42.9371,0.0],[131.6854,42.9326,4.3362],[131.6879,42.9329,5.6942]]],
[[[131.7818,42.9371,0.0],[131.7768,42.936,0.0],[131.7768,42.9338,0.0],[131.7851,42.9324,0.0],[131.7818,42.9371,0.0]]],
[[[131.7815,42.9407,0.0],[131.781,42.9421,0.0],[131.7799,42.9418,2.4287],[131.7801,42.9401,0.0],[131.7815,42.9407,0.0]]],
[[[131.8304,42.9526,0.0],[131.8288,42.949,0.4711],[131.8237,42.9476,0.0],[131.8237,42.9449,0.7824],[131.8282,42.941,0.0],[131.8249,42.9396,0.0],[131.8243,42.9362,27.6901],[131.8215,42.9362,0.0],[131.8212,42.9318,0.0],[131.829,42.9326,25.5205],[131.8304,42.9315,0.0],[131.8315,42.9329,13.7315],[131.8365,42.9332,0.0],[131.8393,42.9343,0.0],[131.8415,42.9379,1.8755],[131.8501,42.9407,0.0],[131.8446,42.9449,15.4857],[131.8346,42.9474,0.0],[131.8304,42.9526,0.0]]],
[[[131.8051,42.9679,1.1856],[131.799,42.9688,0.0],[131.7957,42.9657,4.0864],[131.796,42.9629,10.7413],[131.7988,42.9626,3.3523],[131.8004,42.966,0.0],[131.8062,42.9646,0.0],[131.811,42.9665,0.0],[131.809,42.9682,1.0245],[131.8051,42.9679,1.1856]]],
[[[131.7668,42.9482,21.2683],[131.7643,42.9482,0.0],[131.7637,42.9457,0.0],[131.7704,42.944,4.154],[131.7715,42.9463,0.0],[131.7668,42.9482,21.2683]]],
[[[131.7276,42.9938,0.0],[131.7263,42.9946,0.0],[131.7221,42.9912,0.0],[131.7238,42.9885,0.0],[131.7271,42.9879,6.2576],[131.7301,42.9835,8.1236],[131.7307,42.9804,3.3585],[131.7293,42.9785,3.4873],[131.7249,42.9793,15.9159],[131.7196,42.9849,0.0],[131.716,42.9854,17.5818],[131.7085,42.9818,0.0],[131.7065,42.9774,0.0],[131.7088,42.9757,0.0],[131.7115,42.9676,3.9557],[131.7204,42.9596,0.6537],[131.719,42.9549,13.5926],[131.716,42.954,0.0],[131.7157,42.9515,29.4383],[131.7115,42.9521,0.0],[131.7099,42.9493,0.0],[131.7115,42.9488,14.4648],[131.7121,42.9463,0.0],[131.7176,42.9468,3.5971],[131.724,42.9404,0.0],[131.7265,42.9365,3.117],[131.7249,42.9335,0.0],[131.7254,42.929,0.0],[131.7304,42.9285,0.0],[131.7312,42.9343,25.7244],[131.7271,42.9374,0.0],[131.7301,42.9437,0.0],[131.7421,42.9524,4.4781],[131.7476,42.9526,13.2663],[131.7549,42.949,0.0],[131.754,42.9565,0.0],[131.7621,42.9618,0.0],[131.7568,42.9635,9.6835],[131.7482,42.9699,0.0],[131.7437,42.9707,19.3038],[131.7451,42.9765,0.0],[131.7388,42.9824,2.2356],[131.734,42.984,0.0],[131.7307,42.9907,29.941],[131.7326,42.9935,13.9618],[131.7276,42.9938,0.0]]],
[[[131.7496,42.9868,0.7529],[131.7501,42.9885,0.0],[131.7451,42.9879,4.0455],[131.7451,42.9863,2.411],[131.7474,42.9851,0.0],[131.7496,42.9868,0.7529]]],
[[[131.8301,43.0682,41.2377],[131.8262,43.0687,7.1862],[131.8226,43.0663,2.3396],[131.826,43.064,7.0552],[131.8232,43.0593,4.2146],[131.8279,43.0579,3.7367],[131.8349,43.0596,13.6061],[131.8368,43.0576,6.3941],[131.8435,43.059,2.0478],[131.8474,43.0571,4.8493],[131.8474,43.054,0.0],[131.8551,43.0551,1.8668],[131.8574,43.0488,19.7071],[131.8629,43.0479,2.3421],[131.8665,43.0457,20.7055],[131.8663,43.0438,5.914],[131.8749,43.0401,0.6803],[131.8737,43.0393,0.6803],[131.8685,43.0407,0.0],[131.8668,43.0382,18.4342],[131.8646,43.0388,0.0],[131.8651,43.0343,0.0],[131.8687,43.031,9.0483],[131.8679,43.0257,0.0],[131.8732,43.0285,1.4325],[131.8726,43.0257,0.0],[131.8763,43.0249,20.11],[131.8757,43.0218,0.0],[131.8782,43.0213,11.1673],[131.8799,43.0168,0.0],[131.8815,43.0165,0.0],[131.8837,43.019,14.864],[131.8887,43.0174,8.3389],[131.8846,43.014,1.8009],[131.8885,43.0115,5.811],[131.8885,43.0077,3.6262],[131.896,43.0101,1.9134],[131.8987,43.009,4.9718],[131.8968,43.0062,7.1324],[131.8932,43.0065,5.8436],[131.8904,43.0043,0.0],[131.8971,43.0043,4.5794],[131.8929,43.0015,12.4348],[131.8963,42.9954,0.0],[131.9029,42.9957,7.2962],[131.9021,42.9932,15.3925],[131.8985,42.9918,0.0],[131.9024,42.9879,12.9723],[131.901,42.9832,7.9486],[131.8949,42.9832,0.8965],[131.8938,42.9918,0.0],[131.8918,42.9951,33.083],[131.8879,42.9974,0.0],[131.8835,42.9946,3.3233],[131.8813,42.9957,7.6759],[131.8837,43.0032,23.0455],[131.881,43.0051,18.6662],[131.8799,43.0088,0.0],[131.8774,43.009,4.0363],[131.8763,43.0137,0.0],[131.8726,43.0163,17.9166],[131.8726,43.0196,3.9755],[131.8654,43.0163,8.9275],[131.8668,43.019,0.0],[131.8632,43.0232,26.5505],[131.8643,43.0243,0.0],[131.8624,43.0257,2.2924],[131.8635,43.0282,0.875],[131.859,43.0307,1.0613],[131.8565,43.0368,9.1176],[131.8568,43.0382,7.4155],[131.8596,43.0376,0.0],[131.8596,43.0396,0.0],[131.8482,43.0435,12.6762],[131.8321,43.0438,0.9089],[131.8288,43.0457,3.8479],[131.8282,43.0488,0.0],[131.8154,43.0446,8.844],[131.8149,43.0465,1.2161],[131.8115,43.0479,13.6022],[131.8099,43.0574,0.0],[131.8051,43.0626,0.0],[131.8015,43.0576,0.0],[131.7929,43.0563,0.0],[131.791,43.0518,0.0],[131.7949,43.0513,3.3668],[131.7965,43.0493,2.5247],[131.8007,43.0493,1.3109],[131.804,43.0451,3.656],[131.8082,43.0432,7.9292],[131.7982,43.0432,8.3532],[131.7949,43.0465,0.0],[131.7904,43.0449,0.0],[131.7968,43.0404,5.9458],[131.7971,43.0376,6.0777],[131.794,43.0349,0.0],[131.796,43.0321,28.5697],[131.8001,43.0315,7.7866],[131.7993,43.0276,0.0],[131.8004,43.026,1.9139],[131.8032,43.0265,1.2943],[131.8049,43.0229,8.9401],[131.799,43.0199,1.7329],[131.7921,43.0201,10.6102],[131.7899,43.0296,0.0],[131.7865,43.0313,0.0],[131.781,43.0268,3.0329],[131.784,43.0251,0.6812],[131.784,43.0215,1.6946],[131.7746,43.0168,0.0],[131.7749,43.0121,19.0202],[131.7732,43.0104,10.5992],[131.7746,43.0065,0.0],[131.781,43.0021,0.2571],[131.7824,43.0032,0.2571],[131.7799,43.0062,2.4146],[131.7824,43.0085,1.1693],[131.7893,43.0085,11.8541],[131.7888,43.0054,0.0],[131.791,43.0035,1.522],[131.7879,42.999,4.6483],[131.7904,42.9987,0.0],[131.7932,43.0024,10.9291],[131.8018,43.0046,12.0364],[131.8035,43.0035,0.1654],[131.8021,42.9949,4.607],[131.7946,42.9912,2.4468],[131.7849,42.9918,30.4859],[131.7804,42.9971,0.0],[131.7774,42.996,8.522],[131.7718,43.001,0.0],[131.7632,43.0013,5.0243],[131.7565,43.0049,4.1825],[131.7551,43.0015,2.3795],[131.756,42.9987,2.244],[131.7496,42.9957,0.0],[131.7504,42.9932,0.0],[131.7535,42.9926,8.4305],[131.7521,42.9907,0.0],[131.7551,42.9896,3.2468],[131.7557,42.9874,0.0],[131.7538,42.9851,10.3096],[131.7515,42.9851,1.253],[131.7499,42.9824,0.0],[131.7565,42.979,0.0],[131.7593,42.9793,0.0],[131.764,42.9754,0.0],[131.7765,42.9785,0.0],[131.779,42.9826,0.0],[131.7826,42.984,7.9002],[131.7868,42.9832,0.0],[131.7865,42.9796,0.0],[131.7882,42.9796,0.0],[131.7885,42.9824,3.5664],[131.791,42.9824,5.6324],[131.7951,42.9796,0.0],[131.8015,42.979,27.7878],[131.8013,42.9763,0.0],[131.8054,42.9771,6.6001],[131.8054,42.9732,0.0],[131.8074,42.9718,0.0],[131.8096,42.9738,5.2377],[131.8135,42.9729,0.0],[131.8129,42.9674,0.0],[131.8149,42.9651,0.0],[131.8218,42.9657,4.3991],[131.8243,42.9621,9.7261],[131.8304,42.9588,38.2145],[131.8321,42.9549,0.0],[131.8379,42.9535,0.0],[131.8443,42.9546,0.0],[131.8457,42.9532,0.0],[131.8463,42.9571,10.7644],[131.849,42.9596,7.1998],[131.8532,42.9562,0.0],[131.8568,42.9599,6.6504],[131.8571,42.9621,0.0],[131.8593,42.9618,0.0],[131.8601,42.9637,0.0],[131.8624,42.9626,0.0],[131.8668,42.969,2.2175],[131.8693,42.969,1.7529],[131.8757,42.9651,2.393],[131.8768,42.9615,10.2229],[131.8763,42.9601,19.131],[131.8726,42.9601,0.0],[131.8746,42.9582,29.4322],[131.8707,42.9557,0.0],[131.8718,42.9535,8.4871],[131.8665,42.9532,0.0],[131.8676,42.9515,0.0],[131.874,42.9504,8.1663],[131.8735,42.9474,0.0],[131.8704,42.9449,0.3497],[131.8746,42.9463,0.0],[131.8829,42.9657,4.1392],[131.8887,42.9651,2.2753],[131.8876,42.9618,0.0],[131.889,42.9593,0.0],[131.9007,42.964,10.7632],[131.9032,42.9624,19.0982],[131.9046,42.9576,1.0117],[131.9071,42.9579,3.0947],[131.9068,42.9632,0.0],[131.9035,42.9668,0.0],[131.906,42.9671,8.548],[131.9076,42.9726,14.5409],[131.9212,42.9799,0.0],[131.924,42.9826,0.0],[131.9263,42.9885,2.908],[131.9315,42.991,0.0],[131.9354,42.9957,0.0],[131.936,43.0015,0.0],[131.931,43.004,0.0],[131.929,43.0071,7.5679],[131.9304,43.0093,5.4139],[131.9318,43.0074,0.0],[131.9374,43.0157,0.0],[131.9354,43.0218,0.0],[131.931,43.0251,22.7258],[131.9288,43.0249,2.1114],[131.9265,43.0226,0.0],[131.9268,43.0201,0.0],[131.929,43.0224,4.7332],[131.9321,43.0218,0.7439],[131.9337,43.0171,5.9812],[131.9312,43.0154,7.5839],[131.9274,43.0157,1.9489],[131.9274,43.0132,22.385],[131.924,43.0115,0.0],[131.9235,43.0082,9.3182],[131.9132,43.0076,2.6383],[131.9104,43.0099,0.4013],[131.9129,43.0168,0.0],[131.9101,43.0221,0.0],[131.9071,43.0221,1.2516],[131.9063,43.0235,15.6843],[131.9079,43.026,16.0554],[131.9126,43.0265,0.0],[131.9138,43.031,3.8213],[131.9035,43.0318,14.1668],[131.9015,43.029,7.2017],[131.8993,43.0288,0.0],[131.8938,43.0313,2.0232],[131.8926,43.0332,0.0],[131.894,43.0365,10.4859],[131.8915,43.0379,9.0713],[131.8926,43.044,7.9056],[131.8968,43.0446,0.0],[131.8996,43.0482,4.9582],[131.8985,43.0526,7.274],[131.9018,43.0563,3.4602],[131.9012,43.0582,8.9637],[131.8907,43.0621,0.3523],[131.8788,43.0599,6.4968],[131.8657,43.0624,0.0],[131.8435,43.0601,2.0478],[131.8412,43.0629,0.0],[131.841,43.0674,0.0],[131.8301,43.0682,41.2377]]],
[[[131.9532,43.0301,0.0],[131.9518,43.0307,0.0],[131.9518,43.0276,0.0],[131.9549,43.0282,0.0],[131.9532,43.0301,0.0]]],
[[[132.1612,43.2517,121.739],[132.0926,43.2849,76.9773],[132.0998,43.3077,11.3546],[132.0876,43.3176,23.4025],[132.0638,43.3188,-0.0416],[132.064,43.3154,0.0],[132.0704,43.3165,0.0633],[132.0718,43.3118,1.8503],[132.0665,43.3112,0.0],[132.0529,43.2976,0.2086],[132.0551,43.2918,0.5436],[132.0543,43.289,0.0],[132.0571,43.2871,1.2649],[132.056,43.2851,2.7025],[132.0435,43.2788,0.0],[132.0418,43.2762,2.7307],[132.0351,43.2749,6.3804],[132.029,43.2679,7.4651],[132.0157,43.2676,0.0],[132.0135,43.2632,8.4259],[132.0029,43.2615,0.0],[132.0068,43.254,7.6529],[132.0049,43.2499,0.0],[132.0132,43.246,0.0],[132.0096,43.2371,0.7711],[132.0015,43.234,0.8004],[131.9996,43.2349,0.0565],[131.9974,43.2324,0.9764],[131.9924,43.234,0.0],[131.9857,43.2335,1.5423],[131.9857,43.2321,1.5423],[131.981,43.2329,0.1304],[131.9526,43.2188,0.0],[131.939,43.214,0.0],[131.9362,43.2099,15.0419],[131.9315,43.2071,0.0],[131.921,43.2038,0.0],[131.9179,43.1935,3.4108],[131.9079,43.1876,0.0],[131.9088,43.1818,12.5288],[131.9032,43.1751,9.6406],[131.8979,43.174,0.0],[131.8963,43.1704,0.9433],[131.8974,43.1679,0.0],[131.9015,43.1671,12.9565],[131.9065,43.1604,2.2044],[131.9068,43.1546,9.133],[131.9012,43.149,1.3463],[131.9026,43.1479,4.8576],[131.9015,43.144,1.668],[131.8993,43.1415,2.1238],[131.8907,43.1404,0.0],[131.8907,43.1376,6.0023],[131.8854,43.1357,0.0],[131.8837,43.1299,0.0],[131.8757,43.1268,4.451],[131.8737,43.1201,0.0],[131.8757,43.1185,1.8429],[131.876,43.1201,3.9801],[131.8774,43.1179,1.8429],[131.871,43.1132,4.4],[131.8721,43.1074,0.9466],[131.8654,43.104,15.8489],[131.861,43.1046,0.9132],[131.8613,43.1018,10.4839],[131.8579,43.096,4.0791],[131.8546,43.0943,0.0],[131.854,43.0904,4.6565],[131.8476,43.0879,0.0],[131.846,43.0846,0.0],[131.8418,43.0821,0.0],[131.841,43.0793,7.2533],[131.849,43.0796,5.0657],[131.8529,43.0774,0.0],[131.8565,43.0785,0.0],[131.8601,43.0865,1.8658],[131.864,43.0863,0.0],[131.874,43.0935,0.0],[131.874,43.0965,0.0],[131.871,43.099,1.4272],[131.8763,43.1021,0.0],[131.8774,43.1046,2.7092],[131.8804,43.104,0.0],[131.8818,43.1063,0.0],[131.8835,43.1057,0.0],[131.8826,43.1096,3.6483],[131.8851,43.1129,0.3994],[131.8887,43.1101,0.0],[131.8899,43.1121,2.5817],[131.8935,43.111,0.0],[131.9018,43.1118,0.0],[131.9035,43.1101,0.0],[131.9085,43.1107,0.0],[131.9132,43.1079,0.0],[131.9162,43.1093,1.7215],[131.9193,43.1071,0.0],[131.9224,43.1085,0.0],[131.931,43.1079,1.0038],[131.9324,43.1074,1.3658],[131.9318,43.1057,0.4545],[131.9249,43.1046,1.8984],[131.9185,43.1057,0.0],[131.9115,43.1043,4.0263],[131.9113,43.1057,0.0],[131.9063,43.1054,6.6453],[131.9026,43.1076,0.0],[131.9001,43.1063,1.7332],[131.899,43.1074,0.0],[131.8899,43.1068,0.0],[131.8821,43.1001,2.7854],[131.8818,43.0949,4.8386],[131.8785,43.0929,0.0],[131.8788,43.0876,0.6123],[131.8807,43.0854,0.0],[131.884,43.0857,0.0],[131.889,43.0874,0.0],[131.8904,43.0904,0.0],[131.8929,43.0904,0.0],[131.8932,43.0887,10.8468],[131.8901,43.0882,0.0],[131.8882,43.0851,1.0184],[131.8885,43.0826,0.6361],[131.899,43.0793,8.2077],[131.8996,43.0771,0.0],[131.904,43.079,10.946],[131.9074,43.0774,5.3886],[131.9151,43.0779,0.559],[131.9165,43.0793,25.8651],[131.919,43.0785,0.0],[131.9221,43.0832,0.0],[131.9224,43.0801,0.0],[131.9271,43.0754,0.0],[131.9304,43.076,10.621],[131.9315,43.074,0.6448],[131.9249,43.0726,2.721],[131.9243,43.0746,0.0],[131.9162,43.0751,0.0],[131.9154,43.0729,0.6949],[131.9126,43.0732,0.0],[131.9124,43.0713,0.0],[131.9146,43.0704,0.0],[131.9151,43.0668,0.0],[131.9263,43.0643,2.5724],[131.9279,43.0657,16.812],[131.9332,43.0654,0.0],[131.9407,43.0718,1.0071],[131.9449,43.071,2.1696],[131.951,43.0746,5.9985],[131.9593,43.0738,7.0491],[131.9624,43.0713,0.4668],[131.9629,43.0679,8.8857],[131.9593,43.0657,0.0],[131.9563,43.0579,3.4906],[131.9624,43.0579,0.0],[131.9651,43.0696,0.0],[131.9624,43.0757,1.7765],[131.9696,43.0801,2.7466],[131.9735,43.0868,0.0],[131.9871,43.0915,0.0],[131.9932,43.0962,0.0],[131.9954,43.101,1.3774],[132.0085,43.1057,4.0704],[132.0112,43.1143,2.236],[132.0179,43.1154,2.6359],[132.0201,43.1126,0.0],[132.0254,43.1165,6.5366],[132.0307,43.116,0.0],[132.0335,43.1188,1.2149],[132.0324,43.1221,14.2022],[132.0363,43.1235,4.3887],[132.0388,43.1221,11.6783],[132.0393,43.1265,25.7717],[132.0432,43.1288,0.0],[132.0435,43.1312,3.53],[132.0462,43.1321,24.8284],[132.0474,43.1365,16.1667],[132.0535,43.1407,0.0],[132.0535,43.1432,2.0519],[132.0557,43.1451,4.3026],[132.0585,43.1454,0.2591],[132.0568,43.1482,7.2374],[132.0604,43.1518,0.9304],[132.0651,43.1521,7.3811],[132.0818,43.1671,12.7946],[132.0965,43.174,5.5151],[132.0979,43.1787,0.0],[132.1087,43.1824,8.4171],[132.1099,43.186,27.8874],[132.1129,43.1871,0.0],[132.1107,43.1901,3.9017],[132.1118,43.1929,2.6022],[132.1271,43.1976,3.9157],[132.1337,43.1943,0.0],[132.139,43.1982,0.0],[132.1404,43.2015,0.7376],[132.1438,43.2021,14.5941],[132.1493,43.1996,0.0],[132.1582,43.204,3.6738],[132.1588,43.2065,3.2139],[132.1629,43.2068,0.0],[132.1612,43.2517,121.739]]]]}}