{"type":"Feature","properties":{"GID_2":"RUS.83.28_1","GID_0":"RUS","country":"Russia","GID_1":"RUS.83_1","province":"Zabaykal'ye","NL_NAME_1":"Забайкальскийкрай","county":"Priargunskiyrayon","VARNAME_2":"NA","NL_NAME_2":"Приаргунскийрайон","TYPE_2":"Raion","ENGTYPE_2":"District","CC_2":"R64091","HASC_2":"RU.CT.PI","name":"Priargunskiyrayon.county"},
"geometry":{"type": "MultiPolygon","coordinates": [[[[119.3488,50.1585,517.9264],[119.3606,50.168,517.616],[119.3638,50.1749,517.6754],[119.3527,50.2082,516.7274],[119.3598,50.2184,527.2212],[119.3599,50.229,518.2454],[119.3369,50.238,517.7944],[119.3315,50.2438,515.4677],[119.3303,50.2566,516.2277],[119.3229,50.2606,515.5203],[119.3245,50.2732,515.4098],[119.3164,50.2772,515.1166],[119.3249,50.2835,514.7202],[119.3327,50.2967,540.257],[119.3423,50.3029,517.2571],[119.3489,50.3029,515.0606],[119.3586,50.3057,514.9678],[119.3676,50.3119,514.048],[119.3688,50.3144,514.7509],[119.368,50.3169,512.5],[119.3565,50.3184,536.2808],[119.3516,50.3224,514.8292],[119.3511,50.3251,513.0984],[119.3555,50.3308,513.2244],[119.3557,50.3335,514.6827],[119.3524,50.3398,513.3353],[119.3456,50.3468,513.9587],[119.3209,50.3499,512.1876],[119.3051,50.3455,515.1936],[119.2974,50.3408,553.5188],[119.2921,50.3405,553.7462],[119.2873,50.3463,535.2246],[119.2838,50.3462,534.5634],[119.2813,50.3456,522.7643],[119.2795,50.3417,515.5641],[119.2769,50.3399,535.6844],[119.2689,50.3398,510.8044],[119.2589,50.3423,511.7862],[119.2472,50.3367,511.3522],[119.2331,50.3396,510.9841],[119.2302,50.3428,510.7934],[119.2277,50.3515,509.4328],[119.2214,50.3568,510.251],[119.2065,50.3555,509.535],[119.1837,50.3459,527.1295],[119.1785,50.3457,507.4953],[119.1752,50.353,508.5402],[119.164,50.3522,508.9062],[119.1583,50.355,509.0668],[119.1558,50.3597,509.2486],[119.1611,50.3739,508.0779],[119.1591,50.3755,507.7599],[119.1505,50.3774,506.8192],[119.1407,50.3831,507.2236],[119.1354,50.3821,507.2496],[119.132,50.3786,508.2366],[119.1243,50.3751,507.8498],[119.1179,50.3784,507.1749],[119.1161,50.3818,508.0463],[119.1163,50.3848,508.0189],[119.1198,50.3896,506.3215],[119.1295,50.3955,509.2029],[119.1392,50.4078,505.2806],[119.1496,50.4149,506.9938],[119.1579,50.4178,506.724],[119.1675,50.4192,504.7401],[119.1856,50.4173,504.0958],[119.2039,50.4097,504.4162],[119.2103,50.4273,505.5477],[119.2206,50.4397,504.6336],[119.2324,50.4429,504.7831],[119.241,50.4505,503.682],[119.236,50.4606,503.5275],[119.2475,50.4716,503.7069],[119.2521,50.481,502.2383],[119.2473,50.4931,502.6156],[119.2307,50.5028,502.734],[119.2529,50.5096,501.9884],[119.259,50.5167,502.7517],[119.2569,50.5276,502.0681],[119.2703,50.5495,501.1285],[119.2586,50.5642,501.1984],[119.2619,50.5682,499.7387],[119.2742,50.5729,500.8662],[119.2823,50.5783,499.855],[119.283,50.5847,499.428],[119.2816,50.5847,500.6367],[119.2837,50.5888,499.2567],[119.2768,50.5949,499.8427],[119.2735,50.6018,499.6063],[119.2747,50.6038,497.0],[119.2803,50.6097,507.6943],[119.289,50.6142,497.8773],[119.3021,50.6164,499.4258],[119.3063,50.6185,498.6876],[119.2255,50.6416,530.2848],[119.1541,50.6565,610.3344],[119.0557,50.6387,554.1245],[118.8561,50.6504,598.3918],[118.7639,50.6427,603.5847],[118.7205,50.6505,592.2865],[118.6761,50.6776,657.8746],[118.664,50.7165,660.6387],[118.6042,50.7338,713.1234],[118.5375,50.7619,684.3648],[118.5111,50.8042,612.8303],[118.501,50.8416,627.8574],[118.4712,50.8854,707.6356],[118.4163,50.9075,744.7504],[118.3444,50.9277,881.8785],[118.3539,50.9626,861.7356],[118.2636,50.93,1272.6255],[118.2125,50.907,1158.6049],[118.1571,50.8664,1318.7367],[118.0357,50.8062,798.6252],[117.9846,50.7695,1007.1263],[117.9729,50.7262,950.3422],[117.9668,50.6954,791.0399],[117.9367,50.6706,835.3206],[117.9031,50.655,721.4031],[117.8687,50.6589,765.9376],[117.8693,50.7042,775.7858],[117.8313,50.7067,953.7713],[117.7807,50.6863,851.6589],[117.7703,50.6388,797.7692],[117.739,50.5706,1008.5737],[117.7583,50.5529,822.5402],[117.7551,50.5283,738.5019],[117.6573,50.5128,788.2733],[117.6444,50.482,686.2156],[117.5826,50.4497,660.2025],[117.5359,50.4169,658.9304],[117.5398,50.3745,679.9589],[117.5877,50.3753,687.4393],[117.6066,50.3499,760.1935],[117.6678,50.3474,698.8668],[117.718,50.3331,721.498],[117.7218,50.3044,775.6879],[117.7561,50.2782,793.3432],[117.8016,50.2696,778.2514],[117.8178,50.293,870.297],[117.8288,50.3047,830.8267],[117.8716,50.3149,738.4859],[117.9081,50.2835,795.8244],[117.974,50.2771,772.2642],[118.0321,50.2545,691.7459],[118.0565,50.2183,659.0172],[118.0707,50.1741,628.396],[118.147,50.1561,614.2552],[118.1951,50.1536,629.6088],[118.2704,50.1696,629.3502],[118.2986,50.1502,645.8638],[118.3056,50.1256,720.8675],[118.3904,50.1302,744.0849],[118.4435,50.1063,709.0403],[118.4834,50.1129,743.8363],[118.5218,50.1391,805.9806],[118.5897,50.1543,832.0375],[118.6394,50.1232,696.2905],[118.6444,50.0717,630.9034],[118.6574,50.0285,578.9484],[118.7042,50.0017,544.7958],[118.7501,49.972,526.2921],[118.7471,49.9503,526.7179],[118.7513,49.9524,525.8785],[118.7706,49.9544,526.2031],[118.7989,49.9652,525.5452],[118.8345,49.962,524.2434],[118.8447,49.9652,524.9454],[118.8618,49.9657,525.0737],[118.8746,49.9736,523.6456],[118.8857,49.9677,524.2306],[118.9142,49.9782,523.9996],[118.9332,49.9817,523.8782],[118.9487,49.9802,523.5813],[118.9698,49.9819,523.2991],[118.9711,49.9719,523.976],[118.9797,49.9733,524.2347],[118.9892,49.97,557.0806],[118.9961,49.9758,523.1848],[119.0335,49.9807,522.605],[119.0413,49.9772,522.5727],[119.0605,49.9842,522.5366],[119.0736,49.9838,522.9161],[119.0837,49.9928,522.1836],[119.0974,49.995,521.8053],[119.1061,50.0,521.2723],[119.1173,50.0132,521.0587],[119.1336,50.013,521.1573],[119.1489,50.0089,521.6056],[119.17,50.0071,532.0978],[119.1868,50.0087,521.6708],[119.1975,50.0121,522.3572],[119.2231,50.0403,520.4222],[119.2493,50.056399999999996,531.9456],[119.2607,50.0598,520.4064],[119.2772,50.0721,519.4529],[119.2812,50.08,522.8545],[119.293,50.0793,518.8796],[119.3007,50.0881,518.7323],[119.3018,50.0961,519.8139],[119.3219,50.1046,518.6519],[119.3214,50.1108,519.6559],[119.3146,50.1207,517.7115],[119.3187,50.132,517.9859],[119.3311,50.1386,518.2376],[119.3301,50.1423,518.131],[119.3372,50.1557,517.7799],[119.3488,50.1585,517.9264]]]]}}