{"type":"Feature","properties":{"GID_2":"RUS.30.17_1","GID_0":"RUS","country":"Russia","GID_1":"RUS.30_1","province":"Khanty-Mansiy","NL_NAME_1":"Ханты-МансийскийАОк","county":"Pyt'-Yakh","VARNAME_2":"NA","NL_NAME_2":"Пыть-Ях","TYPE_2":"Gorsovet","ENGTYPE_2":"District","CC_2":"NA","HASC_2":"RU.KM.PY","name":"Pyt'-Yakh.county"},
"geometry":{"type": "MultiPolygon","coordinates": [[[[73.0153,60.7069,58.9625],[72.9764,60.7512,62.4775],[72.9125,60.756,60.3465],[72.8836,60.7321,66.5121],[72.8915,60.7103,60.8793],[72.9089,60.6905,60.6717],[72.949,60.6871,62.5924],[73.0153,60.7069,58.9625]]]]}}