{"type":"Feature","properties":{"GID_2":"RUS.30.12_1","GID_0":"RUS","country":"Russia","GID_1":"RUS.30_1","province":"Khanty-Mansiy","NL_NAME_1":"Ханты-МансийскийАОк","county":"Nizhnevartovski","VARNAME_2":"NA","NL_NAME_2":"Нижневартовск","TYPE_2":"Raion","ENGTYPE_2":"District","CC_2":"NA","HASC_2":"RU.KM.NV","name":"Nizhnevartovski.county"},
"geometry":{"type": "MultiPolygon","coordinates": [[[[76.8415,60.9242,44.4802],[76.8816,60.9471,43.2135],[76.867,60.9667,44.6485],[76.8346,60.9718,57.7215],[76.7629,60.9488,60.0731],[76.7642,60.9322,47.5774],[76.8002,60.9201,45.5623],[76.8415,60.9242,44.4802]]]]}}