{"type":"Feature","properties":{"featurecla":"River","scalerank":7,"rivernum":553,"dissolve":"553River","name":"Ussuri1","name_alt":null,"note":null,"min_zoom":6.0,"strokeweig":0.2,"name_en":"Ussuri","min_label":7.0},
"geometry":{"type": "LineString","coordinates": [[133.987060546875,43.67743561405662,477.9341],[133.84677734375003,43.74664948124412,398.3292],[133.836669921875,43.75446198124412,435.1625],[133.8349609375,43.769647528119116,673.7292],[133.86728515625003,43.83234284061912,357.1474],[133.8701171875,43.85809967655662,349.9213],[133.87412109375003,43.867059637494116,376.6733],[133.88027343750002,43.873163153119116,345.2501],[133.88710937500002,43.87531159061912,343.2849],[133.89443359375002,43.87677643436912,349.2623],[133.90214843750005,43.880731512494116,339.9494],[133.931640625,43.915545965619117,441.1864],[133.943115234375,43.92169830936912,330.9165],[133.931396484375,43.93598053593162,317.9471],[133.90830078125003,43.983758856244116,303.1017],[133.918212890625,44.00861237186912,489.2132],[133.90869140625,44.02655670780662,291.4674],[133.862060546875,44.06183502811912,277.1017],[133.84423828125,44.07037994999412,358.8437],[133.836669921875,44.07599518436912,305.2443],[133.83144531250002,44.087762762494116,391.7513],[133.83515625,44.09955475468162,363.2682],[133.84248046875,44.11078522343162,277.4795],[133.84736328125,44.12091705936912,261.8902],[133.849609375,44.13495514530662,258.6039],[133.848876953125,44.14240143436912,259.1386],[133.822265625,44.197284246869117,239.298],[133.819580078125,44.206317449994117,236.7377],[133.82177734375,44.22858307499412,230.2967],[133.82861328125,44.24140045780662,228.2214],[133.86044921875003,44.26434967655662,221.7228],[133.89306640625,44.298944403119116,214.4447],[133.908935546875,44.320672918744116,208.056],[133.91572265625,44.336297918744116,208.3221],[133.92519531250002,44.35224030155662,205.3591],[133.947021484375,44.36627838749412,199.403],[133.991455078125,44.387225653119117,202.3987],[134.01123046875,44.40570709843162,195.0949],[134.01816406250003,44.408954168744117,185.3076],[134.03037109375003,44.40790436405662,188.9655],[134.04697265625003,44.39728424686912,239.2999],[134.056396484375,44.394647528119116,371.8105],[134.06396484375,44.40570709843162,185.5291],[134.0625,44.43085358280662,187.092],[134.052978515625,44.47662994999412,187.4409],[134.05009765625005,44.48505280155662,174.8414],[134.04736328125,44.489276434369117,171.6837],[134.045654296875,44.49408600468162,170.9618],[134.046142578125,44.504510809369116,168.2168],[134.048095703125,44.50653717655662,168.3315],[134.05839843750005,44.52765534061912,163.9034],[134.059814453125,44.531854559369116,165.3686],[134.07236328125003,44.543719793744117,162.6306],[134.11376953125,44.57343170780662,157.1025],[134.125244140625,44.58490631718162,155.4467],[134.13144531250003,44.59650299686912,153.6013],[134.12890625,44.61005280155662,154.5577],[134.11376953125,44.627460028119117,149.8987],[134.101318359375,44.63641998905662,159.518],[134.0859375,44.64264557499412,152.467],[134.07089843750003,44.64130280155662,147.5866],[134.059814453125,44.627460028119117,207.623],[134.022216796875,44.64594147343162,139.5],[133.98769531250002,44.67182037968162,136.5],[133.96738281250003,44.68231842655662,136.134],[133.9541015625,44.67523834843162,445.2832],[133.94189453125,44.66229889530662,466.803],[133.92568359375002,44.65534088749412,370.0055],[133.84736328125,44.66840241093162,129.2963],[133.81005859375,44.667010809369117,369.3008],[133.79140625000002,44.66852448124412,124.7899],[133.7716796875,44.67523834843162,124.9949],[133.6984375,44.74188873905662,115.7102],[133.66396484375002,44.754657293744117,117.7607],[133.657470703125,44.761981512494117,112.5383],[133.648193359375,44.77826569218162,110.5528],[133.64912109375,44.78095123905662,109.0175],[133.65224609375002,44.784930731244117,110.203],[133.654052734375,44.789911199994116,110.9468],[133.6513671875,44.795672918744117,107.284],[133.647216796875,44.798602606244117,108.377],[133.63388671875003,44.80621979374412,105.9377],[133.63046875000003,44.81220123905662,107.8792],[133.62841796875,44.817499090619116,110.4092],[133.62548828125,44.82221100468162,107.8067],[133.620361328125,44.826678778119117,106.3808],[133.59218750000002,44.84247467655662,100.7704],[133.586181640625,44.847186590619117,100.8262]]}}