{"type":"Feature","properties":{"featurecla":"River","scalerank":8,"rivernum":847,"dissolve":"847River","name":"Bikin","name_alt":null,"note":null,"min_zoom":7.0,"strokeweig":0.2,"name_en":"Bikin","min_label":8.0},
"geometry":{"type": "LineString","coordinates": [[136.999267578125,47.06732819218162,986.3595],[137.0109375,47.09870026249412,897.4979],[137.04042968750002,47.12567780155662,895.1528],[137.142333984375,47.185419012494116,907.2007],[137.16201171875002,47.19415924686912,848.2985],[137.18271484375003,47.19953034061912,851.6414],[137.20615234375003,47.19928619999412,823.925],[137.23125,47.193622137494117,905.8161],[137.27685546875,47.17536041874412,846.9059]]}}