{"type":"Feature","properties":{"featurecla":"River","scalerank":7,"rivernum":553,"dissolve":"553River","name":"Ussuri","name_alt":null,"note":null,"min_zoom":6.0,"strokeweig":0.15,"name_en":"Ussuri","min_label":7.0},
"geometry":{"type": "LineString","coordinates": [[134.31601562500003,43.648797918744116,734.425],[134.29208984375003,43.61261627811912,687.7175],[134.279541015625,43.606317449994116,678.5259],[134.155029296875,43.59796784061912,605.1279],[134.132080078125,43.60150787968162,573.0507],[134.1123046875,43.61017487186912,551.5011],[134.03359375000002,43.65790436405662,493.2385],[133.987060546875,43.67743561405662,477.9341]]}}