{"type":"Feature","properties":{"featurecla":"River","scalerank":7,"rivernum":553,"dissolve":"553River","name":"Ussuri2","name_alt":null,"note":null,"min_zoom":6.0,"strokeweig":0.25,"name_en":"Ussuri","min_label":7.0},
"geometry":{"type": "LineString","coordinates": [[133.586181640625,44.847186590619117,100.8262],[133.57998046875002,44.86688873905662,99.2834],[133.579833984375,44.93305084843162,95.353],[133.56904296875,44.96015045780662,90.6984],[133.556396484375,44.97382233280662,91.8247],[133.544677734375,44.98944733280662,91.5175],[133.54013671875003,45.005731512494116,88.5898],[133.548583984375,45.02155182499412,88.6206],[133.54550781250003,45.03034088749412,89.9868],[133.52255859375003,45.067157293744117,88.7411],[133.5109375,45.07990143436912,99.8843],[133.568115234375,45.098407293744117,81.0],[133.5908203125,45.11176178593162,82.8929],[133.586181640625,45.134540106244117,85.2406],[133.5947265625,45.14935944218162,80.6936],[133.5958984375,45.16815827030662,83.4512],[133.59140625000003,45.18646881718162,85.0009],[133.582763671875,45.199725653119117,78.9813],[133.58134765625005,45.20722077030662,76.8391],[133.58642578125,45.226825262494117,77.767],[133.582763671875,45.230731512494117,78.2726],[133.56982421875,45.233417059369117,77.4408],[133.56162109375003,45.239618231244116,75.8158],[133.5546875,45.246454168744116,75.6221],[133.5451171875,45.25116608280662,75.9242],[133.5068359375,45.247333074994117,75.6898],[133.4873046875,45.25177643436912,75.3047],[133.500244140625,45.283710028119117,75.4522],[133.478759765625,45.30939362186912,72.4237],[133.484375,45.32636139530662,78.7077],[133.45751953125,45.348651434369117,69.2472],[133.44970703125,45.360614324994117,71.1124],[133.45654296875,45.374774481244117,71.024],[133.43710937500003,45.412616278119117,117.16],[133.42324218750002,45.433710028119116,66.3228],[133.40712890625002,45.44623444218162,64.1978],[133.39931640625002,45.453973699994116,65.7365],[133.391796875,45.46320221561912,85.085],[133.38818359375,45.47089264530662,68.712],[133.388671875,45.478876043744116,67.8512],[133.392822265625,45.48541901249412,64.8676],[133.4013671875,45.49164459843162,65.4405],[133.414794921875,45.49823639530662,63.6964],[133.39492187500002,45.51837799686912,61.5834],[133.40781250000003,45.53668854374412,60.5],[133.42431640625,45.55451080936912,60.5],[133.414794921875,45.57330963749412,61.7494]]}}