{"type":"Feature","properties":{"GID_2":"RUS.24.2_1","GID_0":"RUS","country":"Russia","GID_1":"RUS.24_1","province":"Kamchatka","NL_NAME_1":"Камчатскаякрай","county":"Bystrinskiyrayon","VARNAME_2":"NA","NL_NAME_2":"Быстринскийрайон","TYPE_2":"Raion","ENGTYPE_2":"District","CC_2":"R69090","HASC_2":"RU.KA.BY","name":"Bystrinskiyrayon.county"},
"geometry":{"type": "MultiPolygon","coordinates": [[[[156.2416,55.6548,80.6254],[156.229,55.5554,86.8166],[156.2571,55.4316,101.8451],[156.2276,55.3185,133.6372],[156.2094,55.2039,99.1933],[156.2336,55.0927,165.4227],[156.2538,55.0435,240.9955],[156.3357,55.0075,369.464],[156.4477,55.009,339.581],[156.5719,55.0508,323.5067],[156.6819,55.0681,311.1835],[156.8226,55.0363,490.5492],[157.0387,54.991,522.3546],[157.1608,54.9506,756.0486],[157.2876,54.9391,1231.1769],[157.3775,54.9286,1238.2611],[157.4586,54.901,919.0496],[157.5135,54.8521,961.9779],[157.5499,54.7681,1302.451],[157.5596,54.7292,1349.6372],[157.5606,54.6771,1414.8429],[157.6408,54.7095,642.8467],[157.6987,54.7262,1072.8077],[157.8324,54.7805,619.6658],[157.9233,54.9,707.9083],[158.0206,54.9523,564.4908],[158.2511,55.0483,937.1311],[158.3917,55.156,677.4555],[158.4716,55.2108,690.7615],[158.5231,55.2879,844.1803],[158.5932,55.3076,936.8419],[158.6583,55.3039,692.0717],[158.7375,55.2785,243.3472],[158.869,55.2412,137.4109],[158.9523,55.2371,132.9045],[159.0292,55.2645,136.9605],[159.0642,55.304,126.8842],[159.1014,55.3554,121.159],[159.2078,55.4693,106.6248],[159.3158,55.667,77.4671],[159.3722,55.7401,87.3654],[159.4356,55.7626,67.6561],[159.4588,55.8256,86.6726],[159.4071,55.8265,107.6095],[159.2972,55.8562,154.2942],[159.1283,55.8965,734.954],[159.1032,55.973,411.7298],[159.1356,56.0226,564.961],[159.2123,56.0597,510.4827],[159.2578,56.0894,827.8001],[159.2433,56.1316,853.972],[159.1826,56.1567,878.6477],[159.1474,56.2157,1166.188],[159.1994,56.2468,1051.7979],[159.3085,56.2699,1072.2151],[159.4369,56.3148,909.8436],[159.4514,56.357,562.3815],[159.4735,56.4027,1010.2528],[159.5532,56.4699,883.2911],[159.5829,56.5329,1058.5759],[159.5885,56.6205,1560.8574],[159.562,56.6913,1023.7434],[159.4661,56.6728,706.0236],[159.3272,56.6619,746.5248],[159.2241,56.6615,743.075],[158.4421,56.5267,579.8502],[158.2812,56.7362,302.1508],[158.0835,56.7046,180.0351],[157.9645,56.7098,118.8178],[157.8407,56.7513,129.8099],[157.6614,56.7634,72.6542],[157.4613,56.677,118.9154],[157.4974,56.6151,109.4244],[157.414,56.5575,145.0462],[157.3551,56.4986,125.6496],[157.4606,56.394,283.7239],[157.5531,56.2919,269.8461],[157.6937,56.2085,425.4814],[157.825,56.1849,473.3147],[157.9905,56.1805,585.4561],[158.044,56.1747,597.6327],[158.1824,56.148,1148.5165],[158.1922,56.1275,729.0277],[157.8466,55.94,764.3477],[157.7343,55.829,1428.1654],[157.5526,55.7309,858.7853],[157.5952,55.6524,1364.0916],[157.5074,55.6392,1411.1018],[157.3865,55.679,764.5557],[157.0247,55.681399999999996,306.6275],[156.4544,55.7266,100.288],[156.2416,55.6548,80.6254]]]]}}