{"type":"Feature","properties":{"GID_2":"RUS.35.54_1","GID_0":"RUS","country":"Russia","GID_1":"RUS.35_1","province":"Krasnoyarsk","NL_NAME_1":"Красноярскийкрай","county":"Tyukhtetskiyrayon","VARNAME_2":"NA","NL_NAME_2":"Тюхтетскийрайон","TYPE_2":"Raion","ENGTYPE_2":"District","CC_2":"R62093","HASC_2":"RU.KY.TY","name":"Tyukhtetskiyrayon.county"},
"geometry":{"type": "MultiPolygon","coordinates": [[[[88.6241,56.4363,233.4389],[88.6666,56.4265,246.177],[88.719,56.3576,242.7132],[88.7869,56.3493,225.3363],[88.8749,56.3593,245.0302],[88.8975,56.3321,259.9425],[88.915,56.3316,247.5456],[89.0302,56.3434,263.8532],[89.1629,56.3908,236.0008],[89.2508,56.4054,221.1611],[89.3122,56.4027,219.0887],[89.3783,56.417,248.2625],[89.4903,56.429,222.7682],[89.5552,56.4431,228.3875],[89.5891,56.507,236.276],[89.6946,56.5615,251.1652],[89.7497,56.5424,235.8595],[89.7683,56.5044,272.6303],[89.7949,56.4616,269.4002],[89.8294,56.448,270.1387],[89.8926,56.4498,253.0677],[89.9523,56.4614,249.883],[89.9717,56.5046,271.2909],[89.9568,56.542,278.7789],[89.9481,56.5762,270.5534],[89.9509,56.6124,240.6484],[89.9578,56.6434,235.558],[89.9783,56.6875,230.2857],[90.0184,56.7444,214.1028],[89.9945,56.7783,233.6482],[89.9593,56.8158,221.8319],[89.9101,56.878,207.514],[89.8395,56.9254,202.1607],[89.7771,56.9448,195.3314],[89.7122,56.9503,204.9344],[89.6362,56.9805,182.6342],[89.582,57.0274,205.9082],[89.6015,57.0586,218.5273],[89.6608,57.0813,210.4705],[89.7219,57.1162,222.2075],[89.7746,57.1614,187.2246],[89.7791,57.2226,218.6846],[89.7783,57.2788,198.4355],[89.7712,57.3585,180.8665],[89.7851,57.4113,173.7852],[89.7742,57.4741,156.5193],[89.7418,57.5331,169.3998],[89.7051,57.5881,213.6752],[89.6776,57.6485,195.7599],[89.6737,57.7146,176.7858],[89.6959,57.7654,164.4809],[89.7636,57.8053,164.727],[89.7892,57.8389,181.8109],[89.5952,57.8186,175.7856],[89.452,57.8172,184.6824],[89.3835,57.8001,186.925],[89.3841,57.7916,187.1325],[89.3539,57.7327,167.6132],[89.3571,57.7053,176.7449],[89.385,57.6542,184.3579],[89.3798,57.6316,189.6296],[89.3624,57.6107,188.3384],[89.3043,57.5946,201.187],[89.213,57.5922,198.2173],[89.1394,57.582,196.7883],[89.096,57.5717,190.5701],[89.0488,57.5564,176.3181],[89.0525,57.5282,174.2707],[89.0688,57.4991,161.2745],[89.0906,57.4742,145.1886],[89.0615,57.4606,155.3715],[88.9988,57.4615,145.3946],[88.9642,57.4565,145.674],[88.9512,57.4313,157.1667],[88.9168,57.4153,152.3865],[88.8805,57.4194,147.7399],[88.8427,57.3929,155.8759],[88.7029,57.2119,185.8349],[88.6932,57.1879,178.108],[88.6298,57.1719,156.2954],[88.5864,57.1512,151.9771],[88.5347,57.1048,159.378],[88.5152,57.0641,169.58],[88.5712,57.0611,161.3725],[88.6822,57.0742,171.0945],[88.7078,57.0645,177.7213],[88.7275,57.0192,192.6545],[88.6898,56.9677,213.954],[88.6413,56.9124,197.7426],[88.6135,56.8719,213.6426],[88.6457,56.8463,204.7933],[88.6373,56.7781,209.7273],[88.6461,56.7392,215.8494],[88.6864,56.7051,225.9315],[88.6745,56.68,230.5227],[88.6726,56.643,213.7155],[88.627,56.6165,223.8734],[88.5741,56.6162,213.3821],[88.5344,56.6124,204.5566],[88.5097,56.5962,212.233],[88.4994,56.5546,203.0481],[88.5203,56.5317,216.5501],[88.5855,56.5249,221.5753],[88.6152,56.5019,217.0174],[88.5983,56.4597,231.9397],[88.6241,56.4363,233.4389]]]]}}