{"type":"Feature","properties":{"GID_2":"RUS.30.3_1","GID_0":"RUS","country":"Russia","GID_1":"RUS.30_1","province":"Khanty-Mansiy","NL_NAME_1":"Ханты-МансийскийАОк","county":"Berezovskiyrayon","VARNAME_2":"NA","NL_NAME_2":"Березовскийрайон","TYPE_2":"Raion","ENGTYPE_2":"District","CC_2":"R58010","HASC_2":"RU.KM.BE","name":"Berezovskiyrayon.county"},
"geometry":{"type": "MultiPolygon","coordinates": [[[[65.7257,64.5001,11.3103],[65.6469,64.493,12.7501],[65.5588,64.4949,11.7705],[65.4377,64.4792,11.1444],[65.3621,64.4661,10.161],[65.2479,64.4434,10.94],[65.1108,64.4288,25.9966],[65.0648,64.4302,27.6],[65.0011,64.4357,36.1613],[64.9066,64.4239,75.6317],[64.6881,64.377,137.1353],[64.6278,64.3853,143.6645],[64.5826,64.3878,151.5376],[64.4892,64.3537,165.5409],[64.3221,64.352,164.3286],[64.2057,64.3598,163.361],[64.102,64.3548,142.1668],[64.0146,64.3325,130.614],[63.9424,64.2958,139.7647],[63.8635,64.2712,122.3919],[63.7686,64.2564,102.3891],[63.6838,64.2537,128.7186],[63.5834,64.2867,151.4005],[63.5082,64.3209,139.808],[63.495,64.3443,135.0053],[63.4938,64.3838,102.9805],[63.4787,64.4067,100.1975],[63.4345,64.4415,101.8098],[63.1881,64.4958,86.578],[63.0676,64.5139,77.3661],[63.0223,64.5107,82.2505],[62.9863,64.4958,91.0736],[62.8859,64.4736,76.8407],[62.7815,64.4958,85.1232],[62.67,64.5226,89.293],[62.5921,64.5572,106.1434],[62.5669,64.583,111.3068],[62.5619,64.6088,127.7721],[62.6005,64.6202,129.134],[62.697,64.6436,128.4354],[62.7842,64.6753,138.045],[62.8376,64.7163,138.0706],[62.8742,64.7726,124.7551],[62.8491,64.8158,152.0835],[62.7929,64.8629,141.3439],[62.747,64.8855,134.1681],[62.7423,64.906,129.9591],[62.8183,64.9822,120.6988],[62.8176,65.0796,127.3446],[62.8545,65.1846,148.2038],[62.8723,65.2574,149.9648],[62.8746,65.2906,154.2867],[62.8132,65.3094,151.0487],[62.6916,65.3236,160.2027],[62.5504,65.3663,105.3652],[62.4578,65.4021,151.7098],[62.4327,65.4358,131.49],[62.4361,65.4868,217.3475],[62.4138,65.5136,258.2026],[62.3461,65.5462,366.919],[62.3011,65.6031,498.2043],[62.1255,65.6818,859.9639],[62.0625,65.7016,1091.5206],[61.9933,65.6877,1026.9427],[61.9028,65.6654,834.9056],[61.8325,65.6225,788.5333],[61.777,65.6044,719.7454],[61.7395,65.5951,734.1314],[61.7325,65.572,769.989],[61.6633,65.5633,793.2537],[61.6259,65.554,1129.8842],[61.561,65.5078,967.1512],[61.4608,65.4441,916.6686],[61.3872,65.4041,710.8221],[61.3498,65.3604,1210.2993],[61.3273,65.3205,1187.4913],[61.3519,65.2625,1366.0884],[61.3737,65.2338,1018.8818],[61.298,65.1888,1278.198],[61.2262,65.1619,926.5178],[61.1684,65.1599,1159.4624],[61.1216,65.1435,1022.3679],[61.0878,65.1047,788.2509],[61.0786,65.0767,835.9562],[60.9809,65.047,807.2826],[60.8332,65.0171,729.9869],[60.7895,65.0056,940.6402],[60.7623,64.9899,837.5835],[60.7648,64.9476,867.1481],[60.6968,64.9254,958.1567],[60.598,64.9036,1001.0549],[60.588,64.944,1068.9902],[60.5723,64.9614,1096.0703],[60.5346,64.973,825.7715],[60.4825,64.9807,857.6085],[60.4645,65.0061,953.6608],[60.463,65.0273,896.8484],[60.416,65.0451,804.5269],[60.3491,65.0489,1018.2397],[60.2538,65.0581,983.1805],[60.192,65.0719,1603.8047],[60.1221,65.0576,1416.437],[60.037,65.0131,1237.5734],[60.0393,64.9315,924.0689],[59.9368,64.9255,1068.6233],[59.9216,64.8954,1416.5111],[59.7808,64.8745,722.1639],[59.7583,64.8163,751.4185],[59.6394,64.8012,978.2217],[59.6313,64.7337,1166.2925],[59.7088,64.7029,633.5964],[59.7461,64.6785,1113.929],[59.6774,64.664,567.7405],[59.627,64.611,615.1716],[59.6101,64.5759,736.5365],[59.546,64.5321,1370.4233],[59.4965,64.5053,1283.2499],[59.5103,64.4831,1060.511],[59.5781,64.4715,1095.6536],[59.6364,64.4399,1050.9242],[59.6635,64.3823,735.7482],[59.643,64.2638,438.4406],[59.6397,64.1935,533.5475],[59.6784,64.1479,630.0716],[59.778,64.141,679.5156],[59.8407,64.1454,494.1481],[59.897,64.0745,528.9575],[59.7897,64.0273,526.75],[59.7568,63.9964,513.4666],[59.754,63.9653,478.4529],[59.6662,63.945,551.3858],[59.599,63.9174,560.3924],[59.5664,63.8735,563.0207],[59.5383,63.8265,701.6259],[59.4762,63.8089,620.5449],[59.51,63.7403,552.8907],[59.4958,63.6842,850.7593],[59.4931,63.6401,606.4119],[59.4698,63.564,672.8594],[59.4195,63.4932,531.9188],[59.4145,63.418,533.2202],[59.3714,63.3752,512.9384],[59.3893,63.324,383.8664],[59.3486,63.3122,507.1403],[59.3125,63.2974,541.0501],[59.3328,63.2642,632.1516],[59.3552,63.236,506.3275],[59.3282,63.2022,657.6754],[59.272,63.1815,771.6063],[59.2653,63.1404,763.1169],[59.2989,63.1112,712.0513],[59.3191,63.0781,404.5438],[59.2609,63.0524,472.3194],[59.2341,63.0185,437.0785],[59.2343,62.9795,641.9413],[59.2766,62.9442,326.6963],[59.3122,62.92,615.99],[59.3944,62.8965,407.8377],[59.4588,62.8721,531.8448],[59.4852,62.8409,437.5044],[59.4982,62.7928,566.9026],[59.4825,62.7579,450.93],[59.4492,62.7352,503.3006],[59.3696,62.6987,497.8327],[59.4288,62.5994,493.5076],[59.4331,62.5574,728.486],[59.4484,62.5274,596.7051],[59.4877,62.5002,361.9308],[59.5601,62.4957,467.9001],[59.5862,62.4645,602.1725],[59.6318,62.4263,603.2525],[59.6183,62.3834,818.5245],[59.6093,62.3636,642.2789],[59.635,62.306399999999996,563.8654],[59.5694,62.287,371.256],[59.4866,62.2666,602.8453],[59.4885,62.1937,490.0809],[59.447,62.1641,599.1913],[59.4447,62.1072,532.8751],[59.4402,62.0583,759.7758],[59.4509,62.0054,835.3174],[59.4647,61.9473,757.1547],[59.5222,61.9744,562.5009],[59.6527,61.9366,531.2345],[59.7348,61.9316,474.1255],[59.8299,61.9176,292.6583],[59.9511,61.8855,289.0555],[59.9902,61.8585,275.1125],[59.9779,61.8156,267.8526],[59.9873,61.7576,251.4937],[60.0693,61.7135,275.2984],[60.1892,61.7203,253.5718],[60.4248,61.7494,185.8094],[60.562,61.7438,154.5228],[60.7034,61.7351,153.8056],[60.7944,61.7224,125.373],[60.8347,61.7566,133.0169],[60.8986,61.7785,118.8305],[61.0198,61.8091,98.6988],[61.1375,61.8505,59.1975],[61.2474,61.8762,42.616],[61.3351,61.8702,38.7287],[61.3862,61.9063,38.3374],[61.4087,61.9478,38.5199],[61.4617,62.0006,41.5385],[61.5285,62.0325,47.7321],[61.8216,62.1336,56.8195],[61.9365,62.1631,59.6179],[62.0088,62.168,71.5557],[62.086,62.1561,84.6655],[62.1948,62.105,98.2731],[62.2687,62.0985,74.383],[62.3053,62.1124,73.6082],[62.3557,62.1614,94.287],[62.3838,62.1696,99.6052],[62.4784,62.1818,157.434],[62.5787,62.1732,211.6646],[62.7511,62.1658,222.1035],[63.1127,62.1587,162.1658],[63.3233,62.1617,140.7514],[63.4842,62.1399,113.3294],[63.5371,62.1673,133.6868],[63.5929,62.1893,118.5941],[63.6491,62.2197,102.6686],[63.8979,62.2631,92.7103],[64.0505,62.2975,43.5576],[64.1653,62.3362,65.1104],[64.2485,62.3693,34.8753],[64.3189,62.3789,46.0563],[64.4116,62.3787,72.2363],[64.6138,62.3669,96.0812],[64.6797,62.35,123.5952],[64.7441,62.3588,150.8432],[64.7924,62.3801,126.4135],[64.7959,62.4041,93.9265],[64.8263,62.4321,82.3657],[64.8841,62.4516,54.4776],[64.9505,62.4609,43.3151],[64.9384,62.5059,34.4269],[64.8551,62.577,39.0602],[64.7991,62.6554,39.5],[64.732,62.7845,35.3993],[64.6868,62.9038,30.6963],[64.7224,62.9531,27.4754],[64.7698,63.0505,49.0569],[64.7639,63.1739,37.4357],[64.7546,63.2502,41.8555],[64.8148,63.2816,39.3386],[64.8437,63.308,39.1507],[64.9329,63.3498,43.6499],[64.9815,63.3507,48.8922],[65.0837,63.3559,14.9349],[65.1893,63.3765,14.8633],[65.3428,63.4112,14.2577],[65.365,63.4304,14.2351],[65.3649,63.4575,13.3991],[65.35,63.4851,13.6547],[65.3682,63.5201,14.0083],[65.4092,63.5649,14.1495],[65.4563,63.6069,13.6111],[65.4292,63.6493,13.0686],[65.3736,63.6951,13.8288],[65.3458,63.7416,7.9713],[65.3715,63.771,14.2057],[65.4274,63.7996,11.7174],[65.5295,63.8459,13.1159],[65.5889,63.8993,12.0737],[65.6324,63.9541,11.3713],[65.6814,63.9975,13.7379],[65.7417,64.0343,12.2623],[65.7964,64.0718,15.2222],[65.8097,64.1096,11.973],[65.7877,64.1672,12.4036],[65.7629,64.2232,12.1758],[65.7598,64.2719,10.8525],[65.801,64.2997,10.7574],[65.8871,64.3342,10.2527],[65.9129,64.374,13.3009],[65.8483,64.4215,14.7972],[65.7257,64.5001,11.3103]]]]}}