{"type":"Feature","properties":{"GID_1":"RUS.9_1","GID_0":"RUS","country":"Russia","province":"Buryat","VARNAME_1":"Buryatiya|Buryat-MongolA.S.S.R.","NL_NAME_1":"РеспубликаБурятия","TYPE_1":"Respublika","ENGTYPE_1":"Republic","CC_1":"NA","HASC_1":"RU.BU","ISO_1":"NA","name":"Buryat.province"},
"geometry":{"type": "MultiPolygon","coordinates": [[[[107.2301,50.0016,646.3741],[107.2547,49.9926,623.381],[107.2711,49.9922,626.072],[107.2772,49.9942,623.8641],[107.3021,50.0135,625.692],[107.315,50.0193,624.4283],[107.3265,50.0215,630.2853],[107.3547,50.0095,631.7397],[107.3623,49.9973,628.6334],[107.3781,49.9865,630.2278],[107.3814,49.981,631.1736],[107.3989,49.9754,690.8962],[107.4295,49.9737,629.8217],[107.4399,49.9823,631.0527],[107.4517,49.9775,632.2008],[107.4607,49.9813,632.9142],[107.4751,49.9822,634.5189],[107.58,49.9587,754.9797],[107.5965,49.9579,682.6699],[107.6069,49.9597,646.5147],[107.6363,49.9585,651.2944],[107.6589,49.9539,684.3661],[107.6789,49.9535,666.9854],[107.693,49.9549,770.8632],[107.7141,49.9606,843.9602],[107.719,49.971,650.0983],[107.7283,49.9814,649.9978],[107.7313,49.9831,649.6824],[107.7423,49.9829,684.9562],[107.7446,49.9891,717.8705],[107.7445,49.9914,740.3804],[107.7179,50.0098,746.3649],[107.7034,50.042,934.7345],[107.7202,50.0669,1205.5658],[107.7649,50.0789,1222.3086],[107.7837,50.1142,1257.2053],[107.8478,50.1266,1239.1959],[107.9049,50.1462,1432.6793],[107.944,50.2254,1386.2673],[107.9839,50.2657,1234.7576],[108.0277,50.2689,1097.7336],[108.0658,50.2581,1304.5934],[108.1042,50.2714,1381.582],[108.1408,50.2945,1230.7568],[108.1945,50.3316,1403.4386],[108.3061,50.3436,1202.7076],[108.4593,50.4108,1051.3971],[108.569,50.4014,1141.1532],[108.6071,50.3855,1098.507],[108.6253,50.4275,1439.4596],[108.6555,50.4586,1396.062],[108.6017,50.4633,1231.0262],[108.512,50.4682,1153.7627],[108.4715,50.4929,1085.3243],[108.4538,50.5301,956.8516],[108.4314,50.5407,1142.4048],[108.3783,50.5491,927.7641],[108.3204,50.554,977.6144],[108.298,50.578,1021.127],[108.2723,50.5917,953.6075],[108.1929,50.5926,921.0876],[108.0903,50.6588,771.6844],[108.0985,50.6851,798.5638],[108.1145,50.705,743.3357],[108.1513,50.7222,759.6251],[108.1997,50.7317,700.2713],[108.2469,50.7489,745.862],[108.2582,50.8432,673.2033],[108.2835,50.9324,1037.8774],[108.2951,51.0081,1031.0016],[108.3238,51.0182,1194.7151],[108.3895,51.0204,1091.2369],[108.4418,51.0323,878.2327],[108.4886,51.0514,889.4312],[108.5492,51.0941,1005.9921],[108.537,51.1134,838.7587],[108.4987,51.1377,952.9476],[108.4412,51.1482,1029.0596],[108.3722,51.1817,914.1414],[108.3889,51.2205,832.0936],[108.4332,51.2407,821.617],[108.4563,51.2788,946.6665],[108.4579,51.3474,903.7924],[108.4853,51.3918,1270.4612],[108.5153,51.3874,1237.7061],[108.5379,51.376,1052.1533],[108.5845,51.3949,1184.3215],[108.5988,51.4318,1082.9247],[108.5952,51.4835,1215.3652],[108.657,51.4554,1100.9575],[108.7125,51.4335,954.2839],[108.829,51.432,1051.2109],[108.9519,51.4269,1128.0896],[109.0565,51.4452,990.5465],[109.0687,51.408,1042.5452],[109.1118,51.3917,1029.4929],[109.1983,51.3763,1189.7479],[109.2466,51.3499,1173.2531],[109.436,51.3954,931.3371],[109.5109,51.4055,1145.1808],[109.6316,51.4274,1189.1355],[109.6741,51.4558,1120.2633],[109.7374,51.5068,1282.3708],[109.803,51.5423,1301.9626],[109.8978,51.5835,1112.0638],[109.9657,51.5939,1095.7455],[110.065,51.5927,1082.2422],[110.2295,51.5839,1104.17],[110.3523,51.5867,1209.9163],[110.377,51.5452,1035.0845],[110.4133,51.5149,1211.9221],[110.5353,51.4928,1201.9209],[110.6572,51.4973,1164.4653],[110.7121,51.5134,1441.6494],[110.727,51.5404,1222.9377],[110.7615,51.5567,1221.0488],[110.8109,51.5695,1093.3867],[110.8281,51.5981,1045.6296],[110.8217,51.6358,1216.1118],[110.8414,51.6631,1240.1705],[110.9094,51.691,1390.8081],[110.9713,51.7204,1310.1985],[110.9951,51.7462,1114.2451],[111.0071,51.7771,1214.1345],[111.0418,51.7999,1190.9103],[111.1097,51.8219,1386.3885],[111.222,51.8362,1222.8315],[111.2777,51.867,1356.9456],[111.4332,51.8858,1191.9973],[111.4607,51.893,1359.8158],[111.5431,51.9256,1376.3318],[111.6214,51.9404,1132.4473],[111.6699,51.9756,1424.4127],[111.744,52.0465,1476.2981],[111.8395,52.112,1110.5226],[111.9043,52.1781,1198.3848],[111.9631,52.2156,1142.8457],[112.0356,52.2383,1141.8999],[112.057,52.2791,1154.9242],[112.1505,52.2946,1226.7161],[112.1679,52.2767,1180.9092],[112.1929,52.2597,1155.9598],[112.2598,52.2557,1101.2329],[112.3279,52.2299,1204.8441],[112.4075,52.2318,1177.6591],[112.4534,52.2452,1175.2367],[112.481,52.289,1108.8679],[112.5186,52.3334,1158.5703],[112.6018,52.3554,1206.4092],[112.7135,52.3637,1050.3964],[112.8235,52.3495,1143.0579],[112.9256,52.3445,1160.2701],[112.9826,52.3853,1106.3796],[113.0607,52.4271,1107.179],[113.1245,52.4472,1048.4624],[113.2336,52.4606,1039.1248],[113.3706,52.4749,951.1299],[113.4824,52.483,1098.0652],[113.5659,52.4759,1039.6881],[113.6146,52.5006,1035.0168],[113.6523,52.5426,1171.3622],[113.6934,52.5748,1117.1749],[113.774,52.6271,1136.5017],[113.9002,52.648,1150.3347],[114.0285,52.6572,1241.541],[114.0659,52.6775,1293.2495],[114.1179,52.7269,1323.0946],[114.234,52.822,1250.6899],[114.2497,52.9268,1323.4814],[114.2814,52.9291,1159.2197],[114.2921,52.9398,1151.5999],[114.3014,53.0436,1259.2072],[114.325,53.0657,1218.479],[114.2624,53.0778,1202.1953],[114.1681,53.0811,1190.7837],[114.1307,53.1066,1123.47],[114.1957,53.1457,1131.946],[114.1763,53.2072,1228.756],[114.1023,53.202,1106.3003],[114.0468,53.2308,1110.1215],[114.0114,53.2626,1033.1898],[113.944,53.276,1140.4484],[113.9433,53.3545,1202.2561],[113.9069,53.3714,1096.1736],[113.846,53.411,1142.046],[113.8473,53.45,1149.8406],[113.8364,53.497,1094.5571],[113.86,53.5229,1030.7749],[113.8555,53.572,988.2695],[113.8445,53.6153,872.408],[113.8868,53.6388,832.9484],[113.9834,53.7136,830.6442],[113.9865,53.7155,830.9894],[114.0766,53.7382,774.0704],[114.3215,53.7821,819.8391],[114.3512,53.8146,821.4532],[114.4488,53.8101,770.5623],[114.4967,53.815,760.2312],[114.5238,53.8403,751.1589],[114.617,53.9483,902.9124],[114.7683,53.9823,851.1871],[114.823,53.9908,838.1999],[114.8557,54.0013,765.4092],[114.9411,54.0496,801.7625],[115.1576,54.1519,731.6106],[115.2239,54.1943,722.9684],[115.3671,54.2305,912.0233],[115.4592,54.2701,768.4451],[115.5148,54.3335,712.7377],[115.5676,54.3907,697.2291],[115.7048,54.4305,695.9706],[115.8371,54.443,712.3552],[116.0644,54.4747,695.5093],[116.2817,54.5138,719.8521],[116.3981,54.4986,680.9715],[116.4961,54.5011,685.6356],[116.5397,54.5256,695.7682],[116.712,54.5376,672.6411],[116.7527,54.5701,683.4352],[116.776,54.5995,653.748],[116.8122,54.6138,674.7438],[116.8118,54.6722,629.0932],[116.8672,54.6959,704.5814],[116.8816,54.752,693.6945],[116.9324,54.799,641.4773],[116.9503,54.8743,742.019],[116.9326,54.9108,712.0072],[116.8877,54.9467,620.6373],[116.865,54.9943,742.8752],[116.8659,55.0392,648.1115],[116.825,55.0801,840.5298],[116.7447,55.1079,774.9421],[116.6758,55.1349,638.4521],[116.62,55.1618,699.1847],[116.5852,55.2072,903.7822],[116.5367,55.2499,1047.3982],[116.4972,55.2875,831.3376],[116.4126,55.3372,581.5472],[116.1838,55.3286,666.501],[116.0983,55.349,636.0988],[115.9603,55.3721,722.5142],[115.925,55.4603,697.4109],[115.9226,55.5084,626.4908],[115.9273,55.656,653.1017],[115.8721,55.7033,617.9846],[115.8832,55.7326,626.8835],[115.8555,55.7756,586.244],[115.8476,55.8356,652.3878],[115.8833,55.9055,587.7169],[115.8416,55.9522,830.317],[115.7992,56.0103,887.0383],[115.7995,56.0503,1065.8214],[115.8129,56.0803,1068.8732],[115.8639,56.1275,892.1626],[115.8571,56.162,1236.1281],[115.8356,56.1985,981.7019],[115.7923,56.2426,483.7227],[115.7139,56.3505,476.0068],[115.7145,56.4125,471.3016],[115.7536,56.4236,475.4011],[115.7993,56.4255,463.5],[115.7869,56.4598,470.0533],[115.7372,56.4785,501.6737],[115.7099,56.5101,542.7703],[115.715,56.5411,469.2169],[115.6902,56.5677,461.5598],[115.5242,56.5998,493.8718],[115.462,56.6349,1105.458],[115.4685,56.6583,992.2353],[115.525,56.6657,647.4092],[115.5643,56.6849,831.0426],[115.5961,56.6964,995.1086],[115.6255,56.7263,1277.9895],[115.6234,56.7735,693.6987],[115.5938,56.8235,452.3629],[115.596,56.869,474.7821],[115.6543,56.8976,825.672],[115.7271,56.9213,1124.8356],[115.7539,56.9502,895.0875],[115.7581,56.9508,923.161],[115.7648,56.9604,566.4534],[115.8174,56.9706,1312.5566],[115.8405,56.9796,1228.7339],[115.8657,57.0053,522.2032],[115.9181,57.0314,440.9282],[115.9367,57.038,588.2592],[115.9811,57.0447,404.1138],[116.0756,57.0993,924.4146],[116.1222,57.1201,888.9406],[116.1706,57.1201,443.1603],[116.242,57.1451,607.6035],[116.1551,57.2155,1855.4985],[116.1045,57.2372,1417.2614],[116.0404,57.2242,1395.8174],[116.0175,57.2319,1495.5662],[115.909,57.236,1519.9812],[115.8094,57.2286,1304.6906],[115.7149,57.167,1422.2319],[115.6824,57.1482,1614.0732],[115.6272,57.1228,1446.9402],[115.5503,57.1306,1265.4276],[115.4788,57.1285,1231.288],[115.3973,57.1114,1534.217],[115.3193,57.1111,1247.7749],[115.1694,57.132,1362.286],[115.0759,57.1175,1661.0831],[115.0843,57.0915,1194.8016],[115.0591,57.0398,1182.0459],[115.075,57.0127,1052.7188],[115.0476,56.978,1349.7805],[114.986,56.9551,1240.3519],[114.9257,56.8948,1593.0634],[114.8766,56.8494,1423.7828],[114.8428,56.7945,1683.2716],[114.8208,56.7432,2092.2529],[114.7655,56.7168,1530.2249],[114.6906,56.7225,1658.6206],[114.6478,56.7155,1107.9973],[114.5988,56.7141,1366.4283],[114.5441,56.7152,1183.9479],[114.5008,56.6796,1486.5879],[114.4558,56.6758,1301.6875],[114.3779,56.6871,1362.0641],[114.2453,56.6993,1354.1409],[114.1571,56.7015,2054.0742],[114.0645,56.6373,1807.3292],[114.0172,56.6216,1420.064],[113.999,56.5969,1629.0314],[113.9799,56.5574,1977.1871],[113.9243,56.55,1828.7283],[113.8605,56.5528,1618.3435],[113.806,56.5629,1861.0363],[113.7677,56.6201,1891.6611],[113.6589,56.6483,1751.5713],[113.6235,56.6681,1800.4877],[113.5681,56.6799,1585.3499],[113.4815,56.6749,1580.2491],[113.4157,56.6638,1638.1134],[113.3363,56.6431,1631.2595],[113.2409,56.6454,1333.0881],[113.1633,56.654,1465.9447],[113.0928,56.6765,1599.0298],[112.8803,56.7144,1259.1901],[112.8009,56.7414,1515.7007],[112.7259,56.7817,1514.5952],[112.6916,56.8158,1472.1786],[112.6768,56.8654,1569.9347],[112.6842,56.9007,1387.6582],[112.707,56.9213,1336.5385],[112.7013,56.9441,1342.2205],[112.6801,56.9556,1452.6836],[112.5972,56.9606,1215.4896],[112.5498,56.9397,1319.777],[112.4248,56.8549,1342.27],[112.3558,56.874,1214.8467],[112.2122,56.8758,1124.1017],[112.0828,56.9452,965.637],[111.9075,56.959,941.119],[111.8523,56.9211,1389.7388],[111.7995,56.9282,1328.3193],[111.6027,57.0838,1171.4536],[111.6011,57.1107,1213.6403],[111.5336,57.1264,1229.7932],[111.3854,57.0549,1089.1907],[111.37,57.0121,1230.2651],[111.2952,56.962,1117.9248],[111.3044,56.9151,1193.1929],[111.2817,56.8988,1510.9622],[111.2112,56.8769,1830.2397],[111.1192,56.8201,1588.5671],[111.0769,56.8213,1563.7419],[110.9835,56.8622,877.8594],[110.9152,56.8537,1047.6653],[110.815,56.8518,1093.7164],[110.7246,56.8737,1367.1729],[110.6408,56.8537,1306.9432],[110.556,56.8437,1332.0298],[110.5191,56.859,988.7979],[110.4265,56.9048,1029.5641],[110.3664,56.9294,980.4155],[110.3001,56.937,802.594],[110.1885,56.9429,1044.1797],[110.0621,56.9739,1262.9094],[109.9869,56.9692,1232.0347],[109.9565,56.9525,1161.5051],[109.9363,56.9184,1281.9718],[109.8936,56.9008,1504.3137],[109.8734,56.8712,1382.9114],[109.8579,56.8293,1268.6744],[109.8572,56.7844,1352.0779],[109.7904,56.7467,1395.1001],[109.7428,56.7249,1234.2137],[109.6818,56.7006,1304.3159],[109.6278,56.7078,1201.4672],[109.5596,56.7198,1267.8175],[109.4804,56.7234,1208.2815],[109.3988,56.707,1254.5204],[109.3116,56.6791,1315.4332],[109.2019,56.6629,1222.3289],[109.1387,56.6679,1226.8981],[109.0819,56.6668,1647.2268],[109.0544,56.6451,1224.3953],[109.0056,56.6213,1092.5007],[108.9648,56.6218,1234.5514],[108.9263,56.5825,1223.2823],[108.895,56.5803,1370.4727],[108.8461,56.5804,1086.594],[108.8106,56.5693,1006.918],[108.7828,56.565,1125.9656],[108.7291,56.5672,1135.8702],[108.6896,56.5647,1285.0247],[108.6609,56.5393,1010.0522],[108.6914,56.5324,1182.929],[108.714,56.5206,1045.4006],[108.7136,56.5051,1090.2014],[108.7046,56.47,715.0363],[108.6907,56.4481,529.0745],[108.6414,56.4399,772.8668],[108.5679,56.3738,1170.2268],[108.5532,56.3392,1544.614],[108.5778,56.3162,1354.8672],[108.6279,56.2804,1228.9041],[108.6862,56.2512,1204.2708],[108.7499,56.2428,1337.6047],[108.8282,56.2203,1613.1844],[108.8652,56.1863,1612.215],[108.8904,56.1531,1490.8148],[108.8826,56.1097,1299.7874],[108.8892,56.0871,1349.1958],[108.9346,56.0698,1654.5536],[108.9642,56.0529,1532.5723],[108.9599,56.0239,1555.3899],[108.9919,56.0168,1580.5016],[109.0327,56.0274,1532.5732],[109.0772,56.012,1652.1897],[109.1136,55.9907,1546.2725],[109.1898,55.9865,1951.9279],[109.2082,55.9676,1656.9819],[109.1955,55.9512,1564.9055],[109.1545,55.9205,1703.6483],[109.0915,55.9218,1673.8262],[108.981,55.9332,1522.7378],[108.9245,55.9284,1500.9575],[108.8778,55.9146,1465.818],[108.8397,55.8818,1480.153],[108.8091,55.83,1377.4803],[108.7864,55.7776,1434.6755],[108.7768,55.7196,1109.8527],[108.7552,55.6571,1235.9775],[108.7281,55.6133,1640.2705],[108.6973,55.6074,1783.8186],[108.6601,55.5845,1317.5354],[108.6574,55.5581,1703.0211],[108.6838,55.5167,1418.8225],[108.6522,55.4953,1832.3551],[108.6249,55.4634,1359.1296],[108.6258,55.4304,1623.4216],[108.6468,55.394,1227.4601],[108.652,55.3477,1593.7048],[108.6362,55.3004,1620.719],[108.6507,55.2644,1464.6282],[108.7346,55.2324,1654.0569],[108.7305,55.1805,1135.0433],[108.701,55.104,1620.1875],[108.6726,55.0658,1914.9941],[108.6696,54.969,1750.2598],[108.7017,54.9464,1108.3335],[108.6952,54.9111,1670.4937],[108.6637,54.8788,1031.5552],[108.6611,54.7636,1178.6604],[108.6735,54.6784,1150.7083],[108.6388,54.6591,1470.2048],[108.6054,54.6461,1179.4862],[108.5702,54.5774,1187.7659],[108.5267,54.5404,1507.7915],[108.598,54.5423,1414.2828],[108.5601,54.5104,1060.9558],[108.5361,54.4932,1372.6202],[108.499,54.0233,455.0],[108.0907,53.2941,455.0],[107.5511,52.9733,455.0],[106.5011,52.5941,455.0],[106.0636,52.2733,455.0],[105.3636,51.7775,455.0],[104.6928,51.5442,455.0],[104.6304,51.4506,476.6343],[104.6131,51.4541,480.9863],[104.6094,51.4222,498.9394],[104.6145,51.3812,892.3277],[104.6154,51.3291,951.2148],[104.5486,51.285,1216.074],[104.4885,51.3096,1359.7098],[104.4448,51.2946,1497.9921],[104.3997,51.273,1252.5231],[104.2817,51.2633,1553.9429],[104.2041,51.2592,1686.0742],[104.1403,51.2109,1688.4453],[104.0894,51.197,1661.2983],[103.9911,51.1908,2059.3516],[103.9568,51.1705,1925.0621],[103.9111,51.1383,1824.2693],[103.8323,51.1188,1841.2693],[103.8078,51.1208,1922.0348],[103.7934,51.1612,1974.9225],[103.7949,51.2057,1886.7983],[103.8013,51.266,1967.156],[103.8152,51.326,1453.6665],[103.8085,51.3763,1360.2472],[103.7546,51.4163,1247.1141],[103.6636,51.4435,1248.6647],[103.5652,51.4549,1154.0111],[103.4857,51.4503,1361.3265],[103.3968,51.4376,2055.8442],[103.3332,51.4437,1942.3264],[103.3018,51.4835,1762.7858],[103.2445,51.4959,1678.068],[103.2391,51.5224,1800.3154],[103.2425,51.5562,1701.399],[103.2038,51.5876,1578.3453],[103.2025,51.6215,1307.4014],[103.2274,51.6507,1145.8118],[103.2242,51.6978,900.6854],[103.19,51.728,712.1303],[103.1935,51.7504,760.5853],[103.1744,51.8045,663.0],[103.1271,51.8575,874.9163],[103.0462,51.8742,998.7372],[103.0066,51.8999,1375.8381],[102.9122,51.9187,1003.4214],[102.8498,51.9375,1417.6876],[102.8346,51.9707,1364.0393],[102.8084,51.9901,1298.5955],[102.7565,52.0103,1552.0193],[102.6974,52.0755,889.2444],[102.6537,52.1084,882.5129],[102.5879,52.1252,1545.2874],[102.5651,52.1556,1641.2761],[102.5584,52.1921,1598.6014],[102.5641,52.2281,1384.2142],[102.5379,52.2437,1240.8236],[102.4695,52.24,1374.1243],[102.4221,52.2655,1271.5803],[102.3753,52.2602,1421.6233],[102.3103,52.2452,1572.3665],[102.2139,52.2569,1446.0848],[102.1706,52.2737,1548.8704],[102.1271,52.2748,1522.5647],[102.0958,52.2486,1450.7126],[102.0176,52.2338,1913.2808],[101.9474,52.2576,1729.3335],[101.9064,52.304,1619.4532],[101.8515,52.3293,1338.449],[101.6963,52.3715,911.3181],[101.6473,52.403,1732.944],[101.6137,52.4934,1133.0039],[101.4566,52.585,1639.8145],[101.3833,52.6361,1296.0117],[101.3177,52.6501,1359.7242],[101.2302,52.6912,1605.7191],[101.1332,52.7175,1380.9512],[101.0965,52.7585,1041.8741],[101.0219,52.7844,1592.6536],[100.9632,52.7981,1484.7683],[100.8885,52.822,1776.8842],[100.8268,52.8531,1543.8428],[100.7825,52.9014,1626.67],[100.7618,52.9328,1922.2251],[100.6574,52.9604,1329.9812],[100.6031,53.0022,1283.2837],[100.5134,53.0268,1250.0062],[100.4469,53.0621,1154.3993],[100.3651,53.1432,904.1453],[100.3486,53.1927,1481.1702],[100.3593,53.2411,1114.7861],[100.3597,53.2803,2024.0804],[100.3275,53.328,1757.6168],[100.2814,53.363,2025.5881],[100.28,53.3894,1648.2662],[100.269,53.4104,1653.8536],[100.2278,53.4143,1352.0046],[100.185,53.4045,1817.5378],[100.1465,53.3884,1624.9873],[100.1112,53.3557,1915.8706],[100.1019,53.3238,2050.7703],[100.0422,53.3222,1810.9749],[99.9991,53.337,1820.1842],[99.9393,53.3445,1827.417],[99.8645,53.3383,1883.2368],[99.8406,53.2956,1818.7656],[99.8574,53.2635,1650.8562],[99.8561,53.237,1747.2356],[99.8197,53.218,1815.1576],[99.7789,53.2144,1790.1807],[99.7113,53.1926,1504.0278],[99.6144,53.1461,2001.0288],[99.557,53.1361,1997.6674],[99.4836,53.1434,1963.1708],[99.4283,53.1461,2055.6394],[99.3676,53.125,1862.3691],[99.3641,53.1021,2054.2407],[99.3692,53.0711,2238.801],[99.348,53.056399999999996,2103.2336],[99.2995,53.0343,1739.3064],[99.2486,53.0177,2031.8523],[99.2417,52.9884,2558.1904],[99.2318,52.9609,2364.3059],[99.2092,52.937,1987.6465],[99.2206,52.8967,2230.4912],[99.1967,52.8784,2082.7617],[99.1573,52.8801,2082.0918],[99.0967,52.8927,2100.0029],[99.0477,52.91,1698.2959],[99.0071,52.9437,2036.1392],[98.9815,52.9436,2227.8281],[98.9289,52.9268,2155.4336],[98.8948,52.8992,2322.6216],[98.8705,52.8633,2412.2827],[98.8626,52.8201,2428.8596],[98.8891,52.7983,2060.1191],[98.9325,52.8003,2211.2222],[98.9644,52.806,2330.6445],[98.9557,52.7353,2220.0667],[98.9331,52.6855,2388.7832],[98.8827,52.6531,2355.9922],[98.831,52.6243,2215.8936],[98.8152,52.5405,2323.5205],[98.7218,52.4957,2157.5264],[98.6908,52.444,2537.7168],[98.6475,52.4354,2265.772],[98.6501,52.3985,2318.0623],[98.6562,52.3515,2149.916],[98.6289,52.3126,1944.6259],[98.6479,52.2785,2484.9658],[98.7471,52.2958,2453.7036],[98.8177,52.2934,2105.1704],[98.8243,52.2565,2572.0793],[98.8001,52.2277,2135.7646],[98.8331,52.2076,2435.5381],[98.8959,52.2042,2896.541],[98.9356,52.2284,2164.5811],[98.9712,52.2165,1890.2657],[98.9897,52.1861,1951.4617],[98.9801,52.1536,2356.5237],[98.9891,52.1236,2352.4478],[99.0273,52.0869,2357.5044],[99.0383,52.0777,2291.4751],[99.0485,52.0721,2328.8291],[99.0967,52.0571,2500.4958],[99.1364,52.0497,2510.5042],[99.1841,52.0367,2512.3596],[99.2391,52.0301,2269.6187],[99.2732,52.0201,2826.8518],[99.2818,52.0138,2863.9985],[99.2871,52.0053,2544.7495],[99.2896,51.9851,2442.2949],[99.2948,51.9752,2361.6011],[99.3081,51.9661,2507.5083],[99.3212,51.9615,2742.064],[99.3617,51.9548,2788.9341],[99.4031,51.9532,2821.9922],[99.4595,51.9479,2831.1624],[99.4836,51.9427,2703.731],[99.5595,51.9199,2527.9277],[99.6144,51.9148,2485.4324],[99.6672,51.9139,2147.7598],[99.6999,51.9097,2102.3716],[99.7276,51.9015,2187.6379],[99.7706,51.8818,2070.3096],[99.7845,51.8721,2108.2112],[99.7975,51.8581,2275.0081],[99.8121,51.8467,2473.6321],[99.8331,51.8239,2547.4773],[99.8459,51.8153,2562.1875],[99.8971,51.7874,2350.207],[99.9329,51.7719,2560.5305],[99.9501,51.7683,2370.564],[99.9761,51.7583,2802.7532],[99.9935,51.7533,2697.8926],[100.0277,51.7519,2459.7793],[100.0483,51.7526,2338.8101],[100.1023,51.7603,2403.7554],[100.1247,51.7605,2487.6279],[100.2295,51.7519,2579.615],[100.2789,51.7451,2586.3726],[100.3127,51.7445,2411.5093],[100.3723,51.7494,2582.3354],[100.4002,51.748,2777.988],[100.4307,51.7411,2546.3823],[100.4477,51.7405,2898.3289],[100.4716,51.7472,2643.4419],[100.5156,51.7504,2888.6572],[100.5291,51.7475,3015.7437],[100.5463,51.7411,2837.0469],[100.5845,51.7221,2977.5417],[100.5942,51.7189,3375.1726],[100.6135,51.7156,3164.9126],[100.6505,51.7171,2859.3738],[100.6765,51.7145,2559.4346],[100.7001,51.7053,2644.0359],[100.7363,51.6811,2200.7134],[100.7513,51.6755,2151.9968],[100.8058,51.6661,1887.9373],[100.8224,51.6609,1801.8074],[100.8517,51.6445,1875.8878],[100.8657,51.6401,1823.3843],[100.913,51.6329,1845.1727],[100.9434,51.6263,1795.2671],[100.9812,51.6116,1970.7872],[101.0332,51.5804,1962.5632],[101.0475,51.5765,1926.3101],[101.0865,51.5743,1974.343],[101.1036,51.5697,1986.0227],[101.1231,51.5589,2112.374],[101.1345,51.5463,2157.8726],[101.143,51.5431,2146.2778],[101.1609,51.5423,2153.7432],[101.1843,51.5461,2038.6169],[101.2061,51.5475,1859.1847],[101.2289,51.5477,2156.7178],[101.2405,51.5462,2280.1404],[101.2586,51.5394,2287.8137],[101.2797,51.5243,2223.1982],[101.3327,51.4805,2218.7681],[101.3479,51.4705,2297.0596],[101.3773,51.4584,2284.4592],[101.3921,51.4554,2379.4792],[101.4029,51.4571,2228.5447],[101.4138,51.4615,2165.9434],[101.4247,51.4687,2069.9795],[101.4355,51.4817,1799.8486],[101.4465,51.4886,2023.0907],[101.4787,51.4987,2162.5776],[101.5042,51.5022,2226.8079],[101.5413,51.5032,2256.5225],[101.5777,51.4999,2258.8252],[101.5995,51.4937,2159.395],[101.6117,51.4869,2320.4016],[101.6277,51.4743,2308.7966],[101.642,51.4566,2234.1377],[101.6569,51.4517,2357.5659],[101.6745,51.4513,2629.5059],[101.7119,51.4595,2633.9629],[101.7447,51.4611,2539.7578],[101.7595,51.4587,2314.144],[101.7792,51.451,2115.4319],[101.8026,51.4382,2492.7559],[101.8327,51.4274,2239.9075],[101.8556,51.4216,2203.3643],[101.8773,51.4196,2270.2881],[101.9119,51.4249,2150.1494],[101.9345,51.4245,2231.1667],[101.947,51.4211,2164.1431],[101.9958,51.3959,2334.4304],[102.015,51.3935,2343.5505],[102.0381,51.3974,2088.5],[102.0688,51.3971,2230.3684],[102.0833,51.3926,2284.4766],[102.1011,51.3835,2254.9583],[102.1366,51.358,2234.832],[102.1481,51.3521,2402.97],[102.1773,51.3445,2246.52],[102.1971,51.3375,1839.8917],[102.2086,51.3295,1968.2018],[102.2131,51.3227,2171.2744],[102.2145,51.3151,2205.0671],[102.2105,51.3049,1923.6801],[102.1911,51.2925,2296.793],[102.1623,51.2815,2243.6165],[102.1555,51.2763,2090.0659],[102.1519,51.2701,1997.3231],[102.1513,51.2641,1894.6829],[102.1785,51.2199,2113.7678],[102.1805,51.2105,2260.9507],[102.1705,51.187,2151.958],[102.1711,51.1483,2137.8821],[102.1858,51.1076,2081.3652],[102.1942,51.0718,2132.9734],[102.2017,51.0593,1954.3733],[102.2499,51.0013,2063.8896],[102.2637,50.9803,1772.3459],[102.2669,50.9655,1808.4131],[102.2601,50.9343,1817.9133],[102.2555,50.9251,1763.116],[102.2421,50.9101,1800.1814],[102.2282,50.884,1798.4963],[102.2219,50.8651,1769.7753],[102.2246,50.8413,1745.7512],[102.2309,50.8289,1765.1544],[102.2407,50.8185,1669.9169],[102.2548,50.8076,1748.1294],[102.2714,50.797,1775.353],[102.3355,50.7665,1647.6538],[102.3479,50.7579,1716.6825],[102.355,50.7502,1751.2313],[102.3582,50.7397,1917.9246],[102.354,50.7267,1913.3027],[102.3416,50.7105,1963.1284],[102.3113,50.6795,1962.7808],[102.2933,50.6503,1887.6382],[102.2889,50.6319,1959.6915],[102.2942,50.6104,1733.9048],[102.3017,50.5998,1776.8778],[102.3206,50.5841,1755.2888],[102.3357,50.5765,1763.7517],[102.4038,50.551,1675.1758],[102.449,50.5429,1788.9161],[102.5052,50.5409,1736.1958],[102.5303,50.5329,1761.6874],[102.5451,50.5207,1734.4325],[102.5535,50.5023,1730.6359],[102.5679,50.4829,1770.8171],[102.5837,50.4696,1758.3936],[102.6109,50.4556,1603.7673],[102.6421,50.4294,1595.6331],[102.6603,50.4213,1482.6726],[102.7055,50.4064,1572.7371],[102.8246,50.3786,1569.6382],[102.8507,50.3651,1573.8284],[102.8611,50.3557,1410.9836],[102.8813,50.3317,1688.2524],[102.8907,50.3245,1658.4833],[102.9157,50.3143,1735.3984],[102.9407,50.3074,1861.7568],[102.9807,50.3043,1898.5552],[103.0983,50.3089,1668.3765],[103.1583,50.3143,1638.2625],[103.2046,50.3127,1556.0374],[103.2258,50.3075,1555.4152],[103.2367,50.3031,1494.2881],[103.2452,50.2962,1494.8481],[103.2491,50.2905,1545.5383],[103.2587,50.255,1524.2667],[103.2675,50.2387,1769.0845],[103.2743,50.2305,1794.4133],[103.2872,50.2192,1709.5009],[103.3132,50.2041,1711.0117],[103.3205,50.2021,1545.6295],[103.3379,50.2015,1543.3262],[103.3495,50.2031,1593.0793],[103.3967,50.2153,1625.0554],[103.4393,50.2157,1711.2731],[103.4751,50.2053,1704.0762],[103.5872,50.1603,1523.6807],[103.6504,50.1422,1563.4215],[103.67,50.1386,1619.8306],[103.6905,50.1372,1676.8022],[103.6997,50.1389,1575.999],[103.7079,50.1423,1452.5839],[103.7201,50.1504,1297.2678],[103.7577,50.1941,1280.4532],[103.772,50.2034,1642.7114],[103.8035,50.2085,1309.9504],[103.8389,50.2065,1534.4611],[103.8548,50.2029,1489.5236],[103.9117,50.1839,1476.5106],[103.9544,50.1784,1457.7321],[104.0187,50.1559,1417.8359],[104.0313,50.1541,1502.6274],[104.0611,50.1545,1889.8842],[104.1287,50.1685,1328.7571],[104.1649,50.179,1325.5121],[104.1899,50.1837,1334.2961],[104.2285,50.1867,1514.0253],[104.2449,50.1949,1488.0917],[104.251,50.2019,1447.3245],[104.2678,50.2369,1279.3511],[104.2847,50.2529,1487.9934],[104.2992,50.2566,1363.5187],[104.3317,50.2562,1257.2759],[104.3408,50.2591,1406.0981],[104.3454,50.2639,1363.3745],[104.3541,50.2814,1468.1589],[104.3597,50.2881,1632.9929],[104.3677,50.2939,1534.5494],[104.3761,50.2975,1603.7817],[104.4051,50.305,1385.6084],[104.5068,50.3189,1369.4958],[104.5278,50.3183,1348.1146],[104.5701,50.3135,1268.5875],[104.5885,50.3137,1317.597],[104.6177,50.3193,1333.5402],[104.6375,50.325,1453.9973],[104.6719,50.3451,1323.03],[104.6985,50.3535,1377.8014],[104.7174,50.3548,1573.0822],[104.8171,50.3549,1325.9941],[104.8361,50.3587,1385.8263],[104.9119,50.3885,1218.7091],[104.9569,50.3983,1148.9686],[104.9975,50.3991,1143.5037],[105.0982,50.3908,1007.1546],[105.1195,50.3928,1196.6356],[105.1519,50.4001,1291.8595],[105.1802,50.4105,1339.4766],[105.2123,50.4304,1225.6414],[105.2869,50.4681,1472.5634],[105.3049,50.4748,1569.6174],[105.3194,50.4783,1545.4026],[105.3573,50.4805,1501.3265],[105.3877,50.4793,1157.188],[105.458,50.4587,878.2265],[105.5377,50.453,769.2115],[105.5499,50.4508,734.9189],[105.5972,50.4348,690.6716],[105.6118,50.4324,699.3226],[105.7117,50.4291,802.0448],[105.7567,50.4311,822.6687],[105.7901,50.4349,866.193],[105.8171,50.4349,904.0798],[105.8429,50.4305,863.9155],[105.9028,50.413,688.0421],[105.9189,50.4104,687.7809],[105.9375,50.4111,684.666],[105.9838,50.409,682.0777],[106.0,50.4056,747.7294],[106.0049,50.4079,704.4802],[106.0317,50.4133,641.4867],[106.0473,50.4117,615.252],[106.0693,50.4039,591.5994],[106.0801,50.3938,593.5326],[106.0881,50.3599,595.005],[106.0921,50.351,624.2877],[106.1675,50.3347,784.6548],[106.1953,50.3237,891.3526],[106.2241,50.3153,927.4835],[106.2465,50.3039,939.4215],[106.2793,50.2957,923.6158],[106.3087,50.3043,976.4827],[106.4771,50.3371,738.269],[106.5079,50.3425,932.2282],[106.5673,50.3471,863.6064],[106.5975,50.3445,812.4097],[106.7579,50.3215,696.0234],[106.7819,50.315,658.8654],[106.8014,50.3076,604.8876],[106.9245,50.2475,601.0831],[106.9665,50.2222,597.1926],[106.9879,50.2052,598.5096],[106.9995,50.1885,599.5881],[107.0297,50.1314,605.6388],[107.0369,50.1105,606.3022],[107.0705,50.0707,610.4038],[107.0935,50.0513,614.2683],[107.1307,50.0269,616.2369],[107.1465,50.0197,617.0242],[107.1515,50.0183,617.6412],[107.1753,50.0181,619.9808],[107.2007,50.0127,620.4907],[107.2049,50.0135,620.4915],[107.226,50.0052,668.6207],[107.2301,50.0016,646.3741]]]]}}