{"type":"Feature","properties":{"ISO3166-1-Alpha-3":"RUS","country":"Russia","fill":"#F0F","id":"2606","name":"Buryat"},
"geometry":{"type": "Polygon","coordinates": [[[116.05579,57.23547,1525.2815],[115.97176,57.24348,1508.6572],[115.93518,57.24028,1442.7991],[115.8959,57.24049,1564.0127],[115.8741,57.24348,1501.2085],[115.86273,57.24328,1595.7119],[115.85218,57.24007,1293.8831],[115.8311,57.22586,1375.2655],[115.81053,57.21465,1590.1516],[115.79276,57.20788,1410.9817],[115.77477,57.18845,1166.1843],[115.76795,57.18364,1191.231],[115.74149,57.16971,1121.6492],[115.69778,57.13667,1317.8846],[115.6892,57.13321,1283.1631],[115.67928,57.13093,1419.0942],[115.66315,57.13109,1429.9888],[115.63163,57.13636,1570.5177],[115.62233,57.13589,1684.9705],[115.61365,57.13455,1382.0547],[115.53344,57.11093,1607.0553],[115.50151,57.10799,1435.3093],[115.4951,57.1085,1551.2601],[115.4858,57.10752,1535.7712],[115.44994,57.09703,1428.9988],[115.4397,57.09667,1634.4222],[115.42079,57.10049,1487.5338],[115.41149,57.10111,1442.0948],[115.40281,57.09993,1394.5023],[115.37893,57.09285,1612.5044],[115.37004,57.09166,1541.0342],[115.36043,57.09155,1335.5436],[115.33914,57.09398,1598.4408],[115.27496,57.11036,1374.2871],[115.26225,57.11228,1327.9905],[115.24881,57.11295,1560.8529],[115.21832,57.11145,1649.8339],[115.18504,57.11657,1314.1974],[115.15218,57.11331,1653.2081],[115.13213,57.11383,1450.704],[115.09233,57.11946,1354.5516],[115.08593,57.11858,1340.7996],[115.082,57.11233,1511.9417],[115.0758,57.10013,1295.9331],[115.06639,57.08913,1287.855],[115.06309,57.08385,1413.4993],[115.06298,57.07889,1399.3859],[115.06371,57.07398,1560.6058],[115.05967,57.06737,1874.6498],[115.05099,57.05895,1902.0399],[115.03291,57.04685,1569.54],[115.02505,57.03719,1240.7773],[115.02567,57.03122,1127.4236],[115.04076,57.02505,1089.2249],[115.04541,57.02112,1114.7113],[115.04841,57.01662,1226.9204],[115.05006,57.01174,1253.4805],[115.0512,57.00706,1022.6151],[115.05037,56.99073,1166.7644],[115.04655,56.98528,1297.9065],[115.03911,56.97973,1388.2979],[115.02402,56.97415,1353.4027],[115.01389,56.96872,1319.2013],[115.00583,56.96097,1419.4215],[114.99808,56.95138,1284.6521],[114.99363,56.94676,1258.7339],[114.98722,56.94216,1422.4829],[114.97906,56.93766,1181.5051],[114.96469,56.93218,1223.2374],[114.95188,56.92562,1358.9547],[114.93462,56.91107,1225.0886],[114.92986,56.90278,1468.4497],[114.92811,56.89565,1669.9583],[114.92873,56.89056,1625.6836],[114.92893,56.88542,1672.127],[114.92563,56.87999,1643.5183],[114.91777,56.87338,1562.7817],[114.89803,56.86588,1390.6249],[114.8507,56.83669,1568.5422],[114.84573,56.83204,1598.8575],[114.84398,56.82689,1714.396],[114.84646,56.81612,1541.7546],[114.84697,56.8093,1702.59],[114.84139,56.80041,1888.8407],[114.83984,56.7939,1710.2825],[114.83953,56.78814,1776.741],[114.84119,56.77793,1764.811],[114.84139,56.77281,1882.606],[114.84015,56.76201,1984.6322],[114.83829,56.75623,1691.0323],[114.83437,56.75028,1789.3593],[114.82806,56.74364,2113.991],[114.80801,56.72832,1801.7305],[114.7953,56.70972,1609.0193],[114.78672,56.70352,1671.0516],[114.77928,56.69938,1457.2776],[114.77142,56.69729,1562.4346],[114.75416,56.70256,1546.108],[114.73628,56.7029,1767.1138],[114.66321,56.69303,1157.5521],[114.62456,56.68248,1526.3859],[114.61267,56.68124,1305.6432],[114.57691,56.6893,1264.6423],[114.55666,56.69628,1106.6941],[114.5458,56.69897,1089.2667],[114.51831,56.70248,1228.765],[114.50012,56.70109,1529.0947],[114.50167,56.68716,1356.4248],[114.50498,56.67964,1344.6345],[114.50446,56.67626,1454.1713],[114.50188,56.67282,1554.0623],[114.49847,56.67086,1520.4136],[114.44845,56.6552,1332.4727],[114.44059,56.65416,1580.7002],[114.43284,56.65458,1575.9192],[114.413,56.6676,1487.7393],[114.40576,56.67106,1650.972],[114.3976,56.67409,1528.5284],[114.28928,56.69202,1634.3342],[114.23709,56.69106,1364.7257],[114.1448,56.68114,2133.9351],[114.12723,56.67597,1732.3519],[114.12185,56.67065,2002.951],[114.11296,56.6584,1975.6078],[114.09839,56.62848,1975.9178],[114.09426,56.62259,2120.3086],[114.08929,56.61737,1841.7393],[114.08309,56.61288,1994.2015],[114.06893,56.60657,1939.8531],[114.00558,56.59045,1629.8094],[114.00062,56.58771,1770.1172],[113.9971,56.58497,1935.2324],[113.99369,56.58091,1981.7787],[113.99256,56.57644,1818.401],[113.99597,56.57298,1752.3962],[114.00051,56.57066,1864.676],[114.00672,56.56843,2101.1919],[114.01302,56.56528,2001.4028],[114.01726,56.5612,1875.7723],[114.01788,56.55613,2083.3218],[114.01488,56.5505,1975.7162],[114.01023,56.54533,1714.3317],[114.00496,56.5412,1711.6047],[114.0002,56.53859,1704.8761],[113.99535,56.53683,1761.199],[113.98842,56.53513,1861.9624],[113.89747,56.52544,1781.0132],[113.88207,56.52787,1929.6814],[113.86967,56.53262,1717.3718],[113.85696,56.54234,2058.3765],[113.85045,56.5488,1682.6007],[113.84611,56.55448,1902.9198],[113.83773,56.56311,1826.9778],[113.83153,56.56812,1820.667],[113.81582,56.58306,1670.446],[113.8152,56.59029,1694.0714],[113.81148,56.59727,1782.1317],[113.80301,56.60244,1825.5568],[113.75691,56.61138,1669.3955],[113.5468,56.67158,1758.2188],[113.51372,56.67879,1880.1526],[113.49729,56.6754,1979.7103],[113.47404,56.65825,1592.158],[113.46101,56.65039,1400.3719],[113.45378,56.64724,1505.3545],[113.44406,56.64579,1585.9926],[113.41275,56.64794,1683.5354],[113.39921,56.64466,1622.2372],[113.39053,56.64011,1646.3302],[113.37936,56.6289,1766.293],[113.36955,56.62605,1875.5638],[113.3558,56.62636,1702.9929],[113.25803,56.64895,1343.8005],[113.20232,56.64197,1536.9429],[113.1832,56.64156,1593.8232],[113.15933,56.64486,1721.8022],[113.14289,56.64998,1644.089],[113.12346,56.65809,1621.7346],[113.10403,56.66928,1501.0044],[113.09132,56.67287,1705.481],[113.01329,56.68016,1579.1398],[112.97308,56.6785,1492.521],[112.91324,56.68672,1607.5513],[112.89578,56.69171,1626.7441],[112.88554,56.69669,1442.4021],[112.88306,56.7014,1603.4746],[112.88213,56.70646,1483.254],[112.88141,56.71706,1331.2021],[112.87924,56.72186,1673.2585],[112.875,56.72615,1517.9492],[112.86715,56.72972,1571.4254],[112.76204,56.75253,1635.9529],[112.75305,56.75669,1829.9097],[112.74715,56.76103,1573.6302],[112.74395,56.76563,1479.3839],[112.74178,56.77039,1453.5341],[112.74002,56.77529,1466.1294],[112.73775,56.78,1392.2981],[112.73413,56.78454,1417.4497],[112.7301,56.78889,1549.4641],[112.7271,56.79343,1628.321],[112.72607,56.7985,1493.0435],[112.72793,56.81506,1606.332],[112.72648,56.82534,1444.2599],[112.72431,56.83017,1468.4097],[112.72266,56.83514,1453.2776],[112.71997,56.83981,1601.3163],[112.7146,56.84382,1529.3201],[112.70788,56.84743,1473.2495],[112.70261,56.85141,1352.0394],[112.6992,56.85596,1443.0728],[112.69848,56.86108,1478.3845],[112.7022,56.87803,1680.2715],[112.70561,56.88382,1670.1755],[112.71026,56.88924,1532.8961],[112.7394,56.9125,1273.4709],[112.74395,56.91795,1301.626],[112.74653,56.92361,1483.1852],[112.74746,56.92903,1593.5122],[112.74591,56.93394,1453.933],[112.74281,56.93844,1358.4556],[112.73682,56.94221,1500.1265],[112.72907,56.94572,1502.2938],[112.6621,56.95965,1594.0293],[112.65124,56.95916,1614.6707],[112.62489,56.94717,1164.8474],[112.56598,56.93518,1019.5017],[112.55151,56.92903,1095.1465],[112.53352,56.91557,1222.8152],[112.5267,56.91213,1255.7373],[112.50273,56.90387,1237.9862],[112.49807,56.90004,1139.0358],[112.4896,56.88345,1017.0864],[112.48505,56.87792,983.0923],[112.47968,56.87286,986.293],[112.47327,56.86888,1080.1141],[112.46603,56.86588,1123.3383],[112.45777,56.86371,1098.4982],[112.44392,56.86299,1213.9137],[112.23494,56.87772,1214.0452],[112.2185,56.88175,973.1802],[112.20858,56.8863,954.1278],[112.20083,56.89503,963.675],[112.19163,56.90345,909.4344],[112.17551,56.91539,799.5809],[112.1629,56.92288,837.1702],[112.11763,56.94218,1126.0455],[112.10957,56.94438,1080.3523],[111.91609,56.94549,1066.1218],[111.90162,56.94371,1166.8331],[111.88664,56.93875,1111.541],[111.87754,56.93379,1071.9396],[111.87041,56.92862,1057.8562],[111.85429,56.91327,1249.0546],[111.84829,56.90877,1255.8418],[111.83992,56.90583,1366.2361],[111.82948,56.90516,1244.6284],[111.81367,56.90841,1333.9753],[111.8054,56.91229,1575.2399],[111.79972,56.91689,1431.2581],[111.7961,56.92144,1352.557],[111.78835,56.93539,1120.0016],[111.78153,56.94443,1085.2466],[111.77626,56.94836,1168.2689],[111.759,56.95394,1232.3264],[111.75176,56.9572,1261.4164],[111.74649,56.96117,1275.0215],[111.72572,56.98265,909.6535],[111.71352,56.99032,810.574],[111.69864,56.99678,723.3151],[111.64531,57.0051,608.2134],[111.63725,57.00799,733.1112],[111.63177,57.01197,708.2075],[111.62805,57.01631,786.4169],[111.62588,57.02122,759.3895],[111.62516,57.02634,807.4104],[111.6264,57.04282,830.2605],[111.62578,57.04804,819.0247],[111.62268,57.05791,1031.9774],[111.62144,57.06303,1003.9215],[111.6203,57.07362,921.9617],[111.62019,57.09499,1169.3915],[111.61782,57.09982,1199.4244],[111.61286,57.10401,1255.1907],[111.58692,57.10716,1266.4768],[111.48408,57.10752,1217.5898],[111.47385,57.10605,1123.2964],[111.46248,57.10246,1067.4679],[111.45349,57.09592,1051.0426],[111.44915,57.08985,1028.2295],[111.44605,57.08391,1178.9988],[111.44108,57.07853,1218.2737],[111.43426,57.07355,1167.7947],[111.42475,57.06866,1056.6311],[111.41907,57.06417,1145.3743],[111.41783,57.05941,1139.1208],[111.41824,57.05445,1047.9771],[111.41917,57.04939,1132.3143],[111.41814,57.04381,1188.7408],[111.41473,57.0382,1073.0674],[111.40956,57.03311,1113.9573],[111.39034,57.02169,1264.6395],[111.38569,57.01706,1353.7529],[111.38403,57.01187,1274.8881],[111.38372,57.00701,1270.4041],[111.38434,57.0029,1294.8129],[111.38496,56.99988,1265.5913],[111.38682,56.99575,1180.4117],[111.38817,56.99141,1129.7769],[111.38786,56.98644,1234.5894],[111.38538,56.98128,1056.1422],[111.3799,56.97725,1001.2333],[111.34042,56.96071,1616.103],[111.33608,56.95508,1565.0933],[111.3367,56.95001,1405.9557],[111.34889,56.94231,1646.3552],[111.35975,56.93399,1650.3263],[111.37649,56.91686,1281.8811],[111.37887,56.91203,1249.6079],[111.37794,56.90645,1385.1382],[111.37215,56.90035,1408.551],[111.36316,56.89482,1433.683],[111.32161,56.88428,1344.3962],[111.25164,56.87353,1579.218],[111.24368,56.87139,1537.7355],[111.23748,56.8672,1375.7174],[111.23241,56.86196,1382.9191],[111.21908,56.84369,1485.2324],[111.21329,56.83888,1608.3662],[111.17743,56.82346,1380.9832],[111.16503,56.81529,1571.4615],[111.15232,56.81343,1339.6077],[111.13371,56.81475,1366.7379],[110.99811,56.85772,923.0372],[110.98923,56.85875,885.3068],[110.95977,56.85632,868.7615],[110.93786,56.85054,901.6451],[110.90871,56.83886,914.7007],[110.89238,56.83477,905.025],[110.88308,56.83405,915.4785],[110.83998,56.84449,1141.4926],[110.79203,56.86309,1276.6411],[110.75255,56.8741,1410.8735],[110.66211,56.83343,1290.3518],[110.6524,56.83126,1285.5227],[110.6402,56.82981,1323.5259],[110.6001,56.83028,1502.7527],[110.53189,56.84671,1245.6217],[110.52714,56.85085,1166.3564],[110.52569,56.85586,1087.3972],[110.526,56.86139,989.3264],[110.53086,56.87353,954.5972],[110.5322,56.87937,931.7425],[110.52817,56.88335,957.0216],[110.5198,56.88524,1048.3456],[110.49034,56.88015,1081.7687],[110.48197,56.87968,1054.9309],[110.47215,56.88113,966.6953],[110.4306,56.89723,1022.2643],[110.42451,56.90092,1011.0511],[110.41892,56.91033,1007.4444],[110.41479,56.91461,953.9468],[110.40797,56.91818,981.5092],[110.39908,56.92123,1091.5535],[110.34771,56.93415,958.4535],[110.33924,56.93735,893.2704],[110.32746,56.93952,838.8939],[110.31371,56.94035,765.218],[110.28953,56.93699,749.8738],[110.26534,56.93053,684.6772],[110.25852,56.92717,738.0038],[110.24798,56.92485,821.7547],[110.23434,56.92448,913.5465],[110.20953,56.92862,986.1936],[110.19723,56.93275,1003.7211],[110.18886,56.9374,1032.2417],[110.18018,56.94588,1150.3679],[110.1747,56.94981,1227.1387],[110.1684,56.95337,1266.8594],[110.16044,56.95634,1301.7633],[110.10752,56.96598,1102.0865],[110.10008,56.96942,1136.0833],[110.0945,56.97316,1163.8309],[110.08334,56.97533,1152.741],[110.06608,56.9752,1222.547],[110.03052,56.96991,1226.3712],[110.00076,56.9697,1276.2806],[109.9958,56.97022,1267.5221],[109.98898,56.96903,1240.3018],[109.98185,56.96598,1240.64],[109.97544,56.96143,1155.0526],[109.97079,56.95254,1201.5243],[109.96862,56.94593,1310.6946],[109.96521,56.93906,1292.1072],[109.96117,56.93337,1287.1011],[109.95642,56.92784,1285.0745],[109.94309,56.92051,1307.3151],[109.91756,56.92216,1308.3486],[109.90516,56.91327,1372.6001],[109.8911,56.89715,1462.2439],[109.88686,56.89087,1416.4019],[109.88366,56.88376,1360.4729],[109.88056,56.87384,1362.9553],[109.8756,56.8641,1411.3513],[109.86578,56.8495,1186.8694],[109.86082,56.8402,1310.5825],[109.85958,56.83095,1273.4977],[109.86123,56.82516,1345.1697],[109.86847,56.81028,1359.1523],[109.8725,56.80594,1449.7834],[109.87808,56.80211,1497.8215],[109.88469,56.7985,1548.2876],[109.88862,56.79436,1618.5217],[109.88841,56.78976,1585.9675],[109.88097,56.7848,1539.8391],[109.87291,56.78175,1484.1479],[109.85555,56.77793,1440.6149],[109.8478,56.7755,1344.873],[109.8416,56.7707,1311.6775],[109.83023,56.75581,1391.3215],[109.82465,56.74982,1229.9973],[109.78041,56.71111,1229.6865],[109.77421,56.70713,1275.354],[109.76708,56.70408,1298.8203],[109.75922,56.70202,1272.876],[109.68533,56.69419,1279.3125],[109.66528,56.69427,1279.2703],[109.5981,56.70532,1303.0818],[109.58879,56.70817,1287.7535],[109.57401,56.71488,1180.4843],[109.56244,56.72251,1319.208],[109.55779,56.72662,1298.8389],[109.54642,56.7339,1244.1368],[109.53836,56.73592,1303.0636],[109.52957,56.73633,1354.946],[109.46219,56.73258,1352.5144],[109.4102,56.73494,1556.1733],[109.40214,56.73369,1455.5496],[109.37206,56.72375,1434.4276],[109.31367,56.67173,1324.7368],[109.30809,56.66848,1294.3422],[109.30013,56.66693,1211.1973],[109.28091,56.666,1341.4789],[109.2283,56.6583,1264.3928],[109.21032,56.65794,1151.8524],[109.18985,56.66119,1178.6392],[109.17094,56.66662,971.9177],[109.15058,56.67577,1252.4005],[109.14314,56.67608,1285.7505],[109.0958,56.663,1610.2976],[109.09022,56.65851,1554.1797],[109.08516,56.65236,1542.8981],[109.06666,56.62455,1491.4454],[109.05859,56.61944,1392.738],[109.0496,56.61791,1314.9663],[109.03999,56.61892,1240.4871],[109.03193,56.62166,1198.3328],[109.02645,56.62548,1162.7101],[109.02449,56.63034,1148.2656],[109.02356,56.64073,1150.7242],[109.02118,56.6446,1163.3911],[109.01591,56.64574,1214.4758],[109.00909,56.64522,1177.5281],[108.97695,56.63644,1159.7787],[108.96847,56.63065,1257.3864],[108.95989,56.62125,1291.7421],[108.94883,56.60099,1355.7739],[108.93953,56.59257,1290.5123],[108.92961,56.58817,1167.8245],[108.80548,56.59143,1160.5804],[108.7969,56.58998,1214.4507],[108.75846,56.57799,1185.634],[108.74998,56.57675,1179.3147],[108.74109,56.57665,1153.854],[108.71515,56.58357,1251.1929],[108.70637,56.58471,1359.9535],[108.69903,56.5829,1471.4609],[108.69241,56.57967,1351.1632],[108.67991,56.57184,1248.798],[108.67485,56.56781,1415.9612],[108.67236,56.56399,1499.5985],[108.67609,56.56042,1371.9102],[108.70089,56.55159,1231.7458],[108.70802,56.54812,1288.2122],[108.71391,56.54435,1129.5188],[108.71856,56.54017,1129.3821],[108.72259,56.53588,1130.6199],[108.72538,56.53123,1094.6666],[108.72776,56.52642,1131.2842],[108.72807,56.52032,1089.7238],[108.72714,56.51386,1007.7676],[108.72042,56.50162,1160.894],[108.71856,56.49945,1199.8892],[108.67712,56.4702,460.042],[108.65138,56.45573,638.3549],[108.64756,56.45079,676.2994],[108.64673,56.44498,820.8295],[108.64787,56.43723,921.3907],[108.64704,56.43041,819.9467],[108.64146,56.42265,911.0554],[108.63485,56.418,1065.9565],[108.62668,56.41485,1122.4751],[108.6179,56.41379,1141.6157],[108.60994,56.41165,1022.2428],[108.60394,56.40762,986.8068],[108.59929,56.40229,1089.0361],[108.59712,56.39599,1038.8625],[108.59754,56.38979,1094.7946],[108.6025,56.38302,1103.282],[108.60498,56.37718,1152.1781],[108.60177,56.36989,1487.468],[108.59712,56.36426,1488.7883],[108.58513,56.35527,1404.3433],[108.57831,56.35201,1356.4272],[108.57087,56.34948,1340.6322],[108.56281,56.34798,1648.4048],[108.55702,56.34566,1620.7793],[108.55599,56.3416,1511.0026],[108.56095,56.33377,1255.8163],[108.56415,56.32442,1460.6299],[108.57118,56.29362,1330.4896],[108.57635,56.28504,1357.9983],[108.58389,56.28166,1496.4838],[108.59929,56.28432,1413.4441],[108.60653,56.28452,1351.7595],[108.61335,56.28225,1302.0251],[108.63733,56.26781,1221.3992],[108.65159,56.26106,1348.9517],[108.65945,56.25858,1334.8805],[108.66864,56.25791,1207.3846],[108.68384,56.26065,1010.2272],[108.69024,56.26075,966.6361],[108.69686,56.25858,1013.2445],[108.71825,56.24876,1020.8989],[108.72714,56.24613,1085.3152],[108.73717,56.24463,1073.288],[108.74688,56.24473,1198.8832],[108.75556,56.24602,1403.0964],[108.76342,56.2483,1527.9324],[108.78471,56.25688,1402.5072],[108.79163,56.25848,1389.2266],[108.79897,56.25739,1266.299],[108.81199,56.25119,1375.7772],[108.82956,56.23972,1410.3215],[108.86987,56.20778,1444.6982],[108.87793,56.19915,1384.1514],[108.88351,56.1899,1438.8435],[108.88806,56.18019,1582.1204],[108.89116,56.17559,1579.4934],[108.89612,56.17146,1429.417],[108.90181,56.16763,1405.993],[108.92238,56.1573,1347.1567],[108.92703,56.15301,1341.4198],[108.92889,56.1482,1303.7668],[108.92403,56.14133,1266.6859],[108.91431,56.12996,1230.2322],[108.91132,56.12422,1202.4622],[108.90946,56.11738,1246.0045],[108.90884,56.10986,1285.1608],[108.91121,56.09983,1322.0496],[108.91566,56.09384,1355.1056],[108.92279,56.08939,1564.8479],[108.95379,56.08278,1695.8994],[108.97136,56.0773,1403.8435],[108.97684,56.07332,1403.3799],[108.98056,56.068,1387.2373],[108.98242,56.06107,1348.8147],[108.98397,56.05092,1305.916],[108.98687,56.04449,1417.6678],[108.99121,56.03968,1617.9927],[108.997,56.03673,1738.0134],[109.00206,56.03508,1587.5624],[109.01012,56.0332,1503.8154],[109.105,56.02167,1567.316],[109.11213,56.01865,1574.2692],[109.1174,56.01488,1544.4515],[109.12092,56.01043,1542.6433],[109.1267,56.00077,1569.6311],[109.12743,55.99986,1574.423],[109.13539,55.99255,1664.6248],[109.14097,55.98883,1799.4839],[109.1483,55.98552,1878.1742],[109.1573,55.98278,1619.066],[109.16753,55.9809,1674.5522],[109.17776,55.9802,1726.8634],[109.18655,55.98121,1743.7793],[109.1944,55.98346,1929.6521],[109.21838,55.99754,1990.4398],[109.22572,56.00066,1936.1431],[109.23419,56.00258,1893.4403],[109.23967,56.00211,1919.8632],[109.24339,56.00095,1895.4053],[109.24494,56.0003,1799.4803],[109.24597,55.99932,1799.4803],[109.24721,55.99767,1728.3309],[109.25145,55.9895,1721.2864],[109.25507,55.97953,1650.2417],[109.25631,55.97431,1750.0051],[109.25579,55.96813,1805.6827],[109.25362,55.96113,1754.6597],[109.24587,55.95085,1771.8542],[109.23316,55.9385,1759.7531],[109.22117,55.93033,1799.3264],[109.19512,55.91648,1928.8849],[109.18799,55.914,1940.4437],[109.18003,55.91302,1949.1344],[109.17032,55.91385,1818.3323],[109.14035,55.92067,2001.2075],[109.11906,55.92351,1743.6646],[109.07069,55.92351,1719.7255],[109.06118,55.92532,1498.4445],[109.05425,55.92845,1451.751],[109.04278,55.93602,1435.1525],[109.03596,55.93943,1416.0229],[109.0157,55.94351,1402.8855],[108.98191,55.94687,1488.8575],[108.97074,55.94563,1553.3843],[108.96,55.94134,1583.6235],[108.94883,55.92796,1459.0104],[108.92775,55.91101,1742.3456],[108.9138,55.8947,1627.7672],[108.90801,55.89034,1621.1349],[108.9015,55.88692,1608.4617],[108.86698,55.87354,1643.6008],[108.85406,55.86625,1681.6323],[108.84817,55.85964,1535.3838],[108.84269,55.85106,1482.3523],[108.81344,55.79349,1476.2079],[108.81013,55.78383,1426.6567],[108.80765,55.77194,1362.2256],[108.80703,55.75096,988.1567],[108.80889,55.73422,1260.1118],[108.80972,55.73081,1330.9851],[108.81034,55.72616,1403.0868],[108.80972,55.71903,1733.4266],[108.80724,55.71014,1648.0642],[108.7875,55.67185,1750.392],[108.77138,55.62327,1880.1722],[108.76249,55.61387,1625.1443],[108.75226,55.60958,1636.5325],[108.71918,55.61361,1873.8993],[108.70926,55.61366,1689.5946],[108.70048,55.61247,1582.8888],[108.69366,55.60945,1638.3503],[108.68807,55.60487,1681.0623],[108.68384,55.59836,1749.5341],[108.68012,55.59097,1701.9287],[108.67702,55.58152,1528.2715],[108.67671,55.57415,1887.2672],[108.6795,55.56638,1671.4611],[108.69428,55.54757,1592.0756],[108.69593,55.54188,1842.9087],[108.69562,55.5346,2181.9617],[108.69066,55.52131,1773.9807],[108.68508,55.51372,1531.7999],[108.67888,55.50798,1478.8323],[108.67205,55.50478,1767.5446],[108.6551,55.49873,1731.3354],[108.65045,55.49584,1665.2709],[108.64549,55.49062,1736.2095],[108.64105,55.48323,1880.71],[108.63702,55.47258,1758.9678],[108.63185,55.46597,1639.7593],[108.62224,55.45589,1504.0103],[108.62162,55.45075,1571.3652],[108.62658,55.44463,1602.5061],[108.64766,55.4331,1582.9019],[108.65293,55.42928,1457.2755],[108.65696,55.42499,1482.8557],[108.66275,55.41569,1373.2563],[108.66503,55.41091,1313.6716],[108.66658,55.40592,1373.9771],[108.66771,55.40075,1541.5554],[108.66802,55.39316,1633.3956],[108.6674,55.3837,1888.0632],[108.65128,55.31319,1656.1116],[108.65066,55.30699,1534.1647],[108.652,55.30102,1910.1742],[108.65728,55.29502,1937.2998],[108.66503,55.29254,1971.5121],[108.67298,55.29301,1783.9541],[108.68043,55.29451,1784.9849],[108.68745,55.29482,1650.7151],[108.69252,55.29236,1763.9769],[108.69562,55.28825,1763.0094],[108.69748,55.28324,1538.3593],[108.70017,55.27311,1532.1592],[108.70244,55.26831,1572.197],[108.70523,55.26371,1894.8386],[108.71298,55.25492,1841.3042],[108.71763,55.25084,1816.6827],[108.72373,55.24727,2030.4879],[108.7319,55.24441,1908.3173],[108.77272,55.23727,1754.8984],[108.77892,55.23296,1689.0587],[108.78109,55.22671,1623.3169],[108.77675,55.21632,1463.625],[108.76859,55.20211,1349.6388],[108.76745,55.19573,1695.8429],[108.76993,55.18847,1832.6503],[108.77427,55.18335,1647.0098],[108.77913,55.1788,1590.2053],[108.78202,55.1742,1679.1035],[108.78223,55.1695,1771.4685],[108.77076,55.15617,1780.2361],[108.76497,55.14356,1799.6785],[108.75587,55.11653,1347.2473],[108.74978,55.1033,1688.3431],[108.74326,55.09444,1631.7629],[108.73737,55.09036,1534.1273],[108.73024,55.08775,1651.5323],[108.70513,55.08338,1580.63],[108.69831,55.08036,1427.7782],[108.69345,55.07307,1443.2946],[108.69035,55.06232,2032.5916],[108.69086,55.04181,2019.0345],[108.69397,55.01246,1916.8025],[108.698,55.00026,1833.1948],[108.69986,54.98765,1841.1704],[108.70337,54.97757,1591.0958],[108.70668,54.97277,1620.673],[108.7104,54.96832,1462.1479],[108.71908,54.95995,1143.9783],[108.75908,54.93375,2088.5347],[108.76269,54.93008,1774.3636],[108.76238,54.92657,1664.6865],[108.75722,54.92404,1927.5642],[108.72683,54.91567,1685.847],[108.72011,54.91251,1534.634],[108.70265,54.90063,1360.3191],[108.69769,54.89562,1540.9456],[108.6949,54.88998,1599.4048],[108.69469,54.88389,1590.5208],[108.70151,54.87799,1470.4971],[108.71505,54.8696,1756.7234],[108.71825,54.86378,1695.1931],[108.71753,54.85577,1516.6167],[108.70668,54.8318,1551.499],[108.70482,54.82273,1889.8904],[108.70699,54.81293,1763.4613],[108.71329,54.8011,1900.0513],[108.71567,54.7941,1537.176],[108.71608,54.78508,1407.2354],[108.69862,54.681,1414.8252],[108.69552,54.67444,1537.7925],[108.68973,54.66721,1688.8884],[108.67619,54.6577,1387.8649],[108.66689,54.65237,1555.1628],[108.65821,54.64855,1632.8942],[108.65283,54.64395,1596.5874],[108.64787,54.63641,1526.2017],[108.64818,54.62535,1405.2711],[108.64043,54.60106,1488.4994],[108.63247,54.59052,1388.5408],[108.62596,54.58602,1519.7424],[108.59836,54.5722,1542.5022],[108.55785,54.54298,1613.0358],[108.67092,54.54688,455.0],[109.02211,54.49362,455.0],[109.03844,54.48856,455.0],[109.04071,54.48089,455.0],[109.03534,54.46779,455.0],[109.00733,54.42495,455.0],[108.42349,53.78318,455.0],[108.06083,53.20512,455.0],[108.04098,53.19272,455.0],[106.1983,52.44018,455.0],[106.19117,52.43644,455.0],[105.9916,52.22095,455.0],[105.75151,52.03098,455.0],[105.46119,51.86335,455.0],[105.12312,51.73108,455.0],[104.89947,51.66868,455.0],[104.64987,51.62243,455.0],[104.63737,51.59788,455.0],[104.63013,51.48381,455.0],[104.63199,51.46128,465.4711],[104.6293,51.45221,478.7743],[104.62868,51.44337,484.9754],[104.63085,51.43474,483.0227],[104.63364,51.43045,475.4395],[104.64253,51.4226,514.9512],[104.65948,51.41149,502.1358],[104.66362,51.4079,492.0718],[104.66754,51.40379,502.4834],[104.67002,51.39916,500.5462],[104.67127,51.39294,504.9459],[104.67127,51.38539,750.5561],[104.66765,51.35893,683.0696],[104.66765,51.35278,579.7794],[104.66889,51.33831,543.7998],[104.6599,51.31857,814.8483],[104.60936,51.26829,767.4732],[104.5213,51.29118,1490.1987],[104.51448,51.29429,1499.4935],[104.50414,51.301,1372.4098],[104.49422,51.30896,1263.5483],[104.48843,51.31033,1359.7098],[104.4812,51.30901,1385.155],[104.46208,51.29976,1553.9464],[104.45061,51.29615,1530.6985],[104.43645,51.29325,1480.7324],[104.21238,51.28111,1783.9939],[104.19863,51.2769,1766.9137],[104.18117,51.26956,1692.2256],[104.14727,51.25124,1725.3868],[104.12256,51.23336,1939.5188],[104.11295,51.22494,1999.9778],[104.10717,51.22147,2024.2212],[104.09807,51.21817,1942.2728],[104.08546,51.21569,1894.849],[104.06252,51.21403,1745.6771],[104.01766,51.21853,2021.5646],[104.00691,51.21677,2077.8428],[103.99627,51.21227,2135.054],[103.98087,51.20155,2197.7087],[103.97425,51.19377,2100.2754],[103.96537,51.18117,2161.7339],[103.96113,51.17639,2209.134],[103.94924,51.17042,1894.606],[103.84289,51.13455,2066.0093],[103.81375,51.13187,2085.6311],[103.81871,51.38782,1369.1583],[103.81809,51.39531,1291.3898],[103.81674,51.40126,1233.598],[103.80972,51.40839,1263.5377],[103.79731,51.41702,1298.2064],[103.68972,51.46017,1503.9373],[103.65438,51.46926,1400.2095],[103.57634,51.47924,1661.7755],[103.56859,51.47885,1874.2694],[103.56126,51.47763,1764.3264],[103.52798,51.46456,1567.9225],[103.50048,51.45825,1571.859],[103.47134,51.45596,1409.9597],[103.43341,51.44766,1598.6641],[103.39682,51.44704,1702.0815],[103.38938,51.44554,1898.6057],[103.38287,51.44317,1976.8347],[103.37233,51.43665,2083.292],[103.36644,51.43381,2168.0537],[103.35972,51.43211,2164.9766],[103.35197,51.43154,1942.174],[103.34328,51.43221,1975.4805],[103.33502,51.4342,1906.9932],[103.32778,51.43805,1856.0209],[103.31817,51.44575,1808.295],[103.3068,51.45924,1719.2797],[103.24665,51.51525,1825.5813],[103.24324,51.52164,1826.2472],[103.242,51.53238,1759.5802],[103.24386,51.5399,1777.6774],[103.24665,51.54652,1709.7058],[103.24975,51.55174,1693.4446],[103.25171,51.55665,1690.239],[103.24975,51.56264,1643.254],[103.24396,51.56884,1660.2532],[103.19435,51.59639,1488.3579],[103.18908,51.60011,1384.5624],[103.18433,51.60502,1360.178],[103.18143,51.61106,1512.1174],[103.18143,51.62083,1432.3524],[103.18453,51.62729,1356.3445],[103.18856,51.63302,1300.355],[103.19787,51.64209,1345.8289],[103.20179,51.64724,1343.3176],[103.20489,51.65302,1396.7372],[103.20717,51.65922,1280.3108],[103.20831,51.66522,1146.4868],[103.20841,51.67685,910.8848],[103.20738,51.68801,831.3588],[103.20427,51.69824,799.3156],[103.19621,51.71829,786.1504],[103.19508,51.7241,732.9644],[103.19539,51.73105,713.4968],[103.19838,51.73674,699.1829],[103.20221,51.74211,693.9122],[103.20655,51.74697,698.5607],[103.21399,51.75772,753.6232],[103.21678,51.76356,747.8012],[103.21926,51.76966,730.9886],[103.22143,51.77966,714.5293],[103.22174,51.78345,671.5253],[103.22164,51.78826,669.1181],[103.22081,51.79338,668.1466],[103.21926,51.79854,664.4562],[103.21678,51.80325,664.7421],[103.20893,51.80914,666.3826],[103.19621,51.81544,666.7479],[103.16593,51.82511,666.4421],[103.11456,51.83663,698.1946],[103.10588,51.83963,725.705],[103.09937,51.84371,728.8235],[103.09472,51.85038,824.037],[103.08976,51.86143,794.5123],[103.08697,51.86619,792.4347],[103.08387,51.87063,846.5623],[103.07994,51.87487,903.3121],[103.07333,51.879,996.0675],[103.06475,51.88267,1051.2465],[102.94496,51.9066,1142.6497],[102.93473,51.91001,1062.7782],[102.92419,51.91528,1060.1331],[102.89587,51.93647,1488.0125],[102.87696,51.945,1136.5442],[102.85432,51.96218,1430.1864],[102.81929,51.97693,1473.0497],[102.79665,51.98096,1483.0649],[102.78683,51.98184,1409.3723],[102.77701,51.98455,1231.0878],[102.76885,51.98964,1329.0115],[102.75531,52.00675,1509.6212],[102.73671,52.03576,1485.8317],[102.72275,52.04804,1365.6096],[102.70601,52.05817,1044.7457],[102.69464,52.07059,843.4745],[102.68865,52.07858,815.2487],[102.68338,52.09217,758.5566],[102.67976,52.09537,770.0676],[102.67294,52.09842,779.0453],[102.63738,52.10271,1109.718],[102.62891,52.10581,1223.1125],[102.62229,52.114,1221.1816],[102.6194,52.12049,1247.6862],[102.61568,52.12643,1266.1584],[102.6102,52.13103,1371.2585],[102.58932,52.13795,1686.214],[102.58044,52.14219,1781.244],[102.57351,52.14907,1828.4751],[102.56917,52.16384,1808.974],[102.56338,52.19852,1599.3307],[102.54209,52.22761,1428.584],[102.45352,52.23676,1467.2471],[102.42623,52.25702,1326.7208],[102.41983,52.26017,1329.141],[102.41269,52.26218,1350.7448],[102.40267,52.26123,1460.2908],[102.39481,52.25903,1503.1353],[102.34552,52.2333,1424.7343],[102.33838,52.23123,1503.51],[102.32981,52.23051,1630.5707],[102.3204,52.23133,1681.7317],[102.22397,52.25645,1434.2454],[102.19762,52.27169,1562.8198],[102.18801,52.27583,1796.3608],[102.17653,52.27712,1636.9835],[102.16672,52.27691,1598.0774],[102.13416,52.27136,1527.0167],[102.1045,52.2634,1431.8212],[102.09209,52.25728,1412.217],[102.08154999999999,52.24932,1457.0072],[102.07752,52.24415,1469.9199],[102.06853,52.22617,1737.8701],[102.0645,52.2211,1770.694],[102.05902,52.21733,1877.9401],[102.05272,52.21438,2023.1333],[102.04569,52.21219,1946.9341],[102.03732,52.21103,1830.271],[102.0184,52.21118,1843.4323],[102.00166,52.21335,2128.2405],[101.96321,52.22245,1919.3947],[101.95277,52.22658,1829.6775],[101.94285,52.23614,1636.2661],[101.9321,52.25381,1752.1451],[101.92239,52.26296,1811.2313],[101.89738,52.28084,1968.4807],[101.89386,52.28503,1830.0762],[101.89242,52.28916,1860.7002],[101.89448,52.29391,1708.6376],[101.89893,52.29815,1850.292],[101.91133,52.3059,1580.2495],[101.91526,52.31143,1519.7332],[101.9104,52.31709,1348.2784],[101.8178,52.35768,1101.2688],[101.74297,52.40236,1027.1929],[101.73387,52.40554,973.4806],[101.71796,52.40827,886.3339],[101.69749,52.40729,1306.3799],[101.68943,52.40585,1530.7817],[101.68106,52.40636,1740.239],[101.67362,52.40902,1673.6547],[101.66959,52.41659,1382.5227],[101.67145,52.42202,1371.6141],[101.67579,52.42667,1363.4907],[101.68127,52.43052,1209.687],[101.68623,52.43486,1251.1343],[101.69005,52.43959,1287.6787],[101.69212,52.44533,1509.2325],[101.69212,52.45091,1591.6293],[101.69057,52.45605,1619.5845],[101.68757,52.46062,1740.5333],[101.68282,52.46445,1730.9727],[101.67641,52.46729,1660.0201],[101.65408,52.47313,1085.1748],[101.53967,52.54305,1339.2996],[101.53089,52.54708,1469.5712],[101.49658,52.55488,1819.0417],[101.48882,52.55783,1716.2319],[101.48211,52.56243,1559.4298],[101.47559,52.57111,1687.8008],[101.47394,52.57829,1672.6045],[101.47373,52.58519,1781.0029],[101.47497,52.59746,1841.261],[101.47435,52.60304,1775.4517],[101.47301,52.60831,1745.1185],[101.46939,52.61276,1669.9061],[101.46526,52.61684,1526.1884],[101.45999,52.62097,1296.564],[101.43622,52.63121,1124.6099],[101.40118,52.63834,990.6625],[101.32015,52.64139,1622.1836],[101.30971,52.64449,1528.6343],[101.29969,52.65149,1374.2832],[101.29349,52.65676,1617.7114],[101.28667,52.66123,1563.1462],[101.2786,52.66392,1682.968],[101.25525,52.66588,1320.2307],[101.24563,52.66826,1415.7952],[101.23096,52.68043,1424.8428],[101.22662,52.68557,1383.3317],[101.2199,52.69048,1356.9384],[101.21008,52.69523,1412.1425],[101.12306,52.71244,1179.2722],[101.09608,52.7249,1289.2583],[101.03087,52.7691,1159.9161],[101.00916,52.77611,1224.8784],[100.90509,52.78897,1322.3357],[100.8717,52.79797,1661.4631],[100.86561,52.80029,1718.4429],[100.85878,52.80458,1593.3472],[100.85248,52.81065,1895.0392],[100.84566,52.82194,1811.7354],[100.84204,52.82939,1986.1456],[100.83646,52.84631,1774.5652],[100.83274,52.85155,1720.4116],[100.82685,52.85646,1538.3896],[100.73517,52.8976,1474.0444],[100.72742,52.90018,1266.6671],[100.67947,52.90752,1624.0022],[100.63275,52.93031,1298.1279],[100.62138,52.93406,1340.9238],[100.6064,52.94359,1212.3206],[100.59048,52.95775,1259.1989],[100.54594,53.00772,1242.4369],[100.53446,53.01728,1315.064],[100.50284,53.02643,1281.574],[100.49757,53.03098,1282.9861],[100.49012,53.03857,1208.5588],[100.47752,53.05521,1105.6105],[100.46935,53.06358,987.1769],[100.46108,53.0694,976.4263],[100.43566,53.07661,979.3842],[100.42119,53.08244,956.193],[100.41519,53.0858,999.8516],[100.39514,53.10118,975.2413],[100.38708,53.10958,958.2256],[100.37292,53.12751,921.9675],[100.36269,53.13676,901.9648],[100.37127,53.1519,908.1381],[100.36434,53.15262,965.035],[100.3598,53.15479,956.1502],[100.35587,53.15735,895.0721],[100.35081,53.15937,921.5585],[100.36434,53.17247,898.8412],[100.39928,53.18776,949.3693],[100.41282,53.20094,1089.8914],[100.39855,53.20094,877.8408],[100.39855,53.20714,973.5608],[100.40879,53.21686,858.474],[100.40414,53.22518,832.7046],[100.40103,53.23422,838.2566],[100.37716,53.25091,1247.0955],[100.34026,53.27117,1692.889],[100.33106,53.27902,1864.0901],[100.32734,53.28347,1907.1232],[100.32424,53.28812,1932.3441],[100.31939,53.29788,2099.2012],[100.31412,53.30282,2110.6631],[100.30595,53.30734,2056.5518],[100.29138,53.31279,2330.6519],[100.28642,53.31855,2215.864],[100.28394,53.32455,2243.0867],[100.28115,53.34703,1861.8707],[100.27939,53.3523,2001.3904],[100.27505,53.36227,1846.7347],[100.27195,53.36708,2038.8062],[100.26719,53.37126,2025.024],[100.26047,53.37483,1981.9501],[100.24787,53.37654,1820.9404],[100.20787,53.37571,1831.9434],[100.19888,53.37426,1809.9033],[100.19113,53.37111,2219.1294],[100.18585,53.36411,2159.3076],[100.18286,53.35736,2387.5635],[100.17934,53.34403,1986.6212],[100.17686,53.33783,2393.8435],[100.17097,53.33287,2018.5756],[100.16177,53.3292,1734.7922],[100.14224,53.32602,2072.5674],[100.12684,53.32202,2327.7673],[100.1072,53.31272,1939.3276],[100.09718,53.30682,2148.1167],[100.08684,53.30243,2124.5872],[100.07981,53.30031,1882.0204],[100.05067,53.30078,2228.313],[99.99217,53.31127,1666.7053],[99.98483,53.31034,1816.0038],[99.96964,53.30669,2213.8511],[99.87817,53.29938,2023.1941],[99.86939,53.29752,1959.6821],[99.86246,53.29362,1969.3245],[99.85637,53.28636,2035.3054],[99.842,53.26466,1656.613],[99.8421,53.26011,1701.0902],[99.84386,53.25551,1726.9966],[99.8513,53.24678,1680.9272],[99.85564,53.24264,1620.9246],[99.85947,53.2383,1848.5063],[99.8637,53.23422,1757.9011],[99.87879,53.21678,2026.2563],[99.88138,53.2121,1897.8762],[99.88138,53.20771,1695.6304],[99.87766,53.20419,1695.9677],[99.80521,53.19016,1987.8868],[99.77554,53.1797,1991.7998],[99.72965,53.15673,1883.3405],[99.70795,53.14226,2008.2744],[99.70309,53.13787,2345.3804],[99.697,53.13448,2187.0371],[99.69017,53.13195,1898.9854],[99.65875,53.13583,2177.4851],[99.63994,53.13554,1896.525],[99.63075,53.13417,1956.4272],[99.53597,53.10544,2427.5864],[99.52646,53.10534,2297.564],[99.43407,53.11673,2059.7024],[99.37898,53.11278,1869.2119],[99.3703,53.10927,2096.2583],[99.36296,53.10275,2054.2407],[99.35655,53.08859,2557.0244],[99.35407,53.07965,2471.7268],[99.3549,53.07255,2175.7017],[99.358,53.06787,2148.0181],[99.36544,53.05919,2196.8071],[99.36647,53.05382,2104.1077],[99.36327,53.04617,1766.6901],[99.35624,53.03588,1758.6819],[99.33919,53.01532,2347.0574],[99.33133,53.00886,2374.1956],[99.32244,53.00374,2268.3088],[99.29578,52.99333,2714.3354],[99.26364,52.98444,2445.1616],[99.25671,52.98033,2127.9724],[99.25165,52.97666,2217.9868],[99.24979,52.95382,2416.3386],[99.24483,52.94028,2061.5317],[99.23987,52.93486,2039.7175],[99.22302,52.91992,2427.2168],[99.21744,52.91315,2232.3962],[99.21413,52.90308,2374.7104],[99.21341,52.89574,2157.5703],[99.21382,52.88923,2497.6797],[99.22033,52.86525,2388.0308],[99.21961,52.86142,2237.1321],[99.21589,52.85685,2061.5747],[99.20669,52.85344,2019.2153],[99.1977,52.85305,2153.9243],[99.18933,52.85468,2189.8926],[99.15863,52.87119,2223.3164],[99.15088,52.87362,2188.1167],[99.08174,52.88096,2141.1587],[99.04505,52.88879,2105.3633],[99.03006,52.89424,1963.7612],[99.01693,52.90049,1694.002],[99.00608,52.90737,1707.8438],[98.99533,52.91597,1943.4487],[98.9851,52.92276,2166.6235],[98.97766,52.92545,2249.2922],[98.96836,52.92734,2233.0342],[98.95792,52.92829,2136.4609],[98.948,52.92829,2109.7908],[98.93807,52.92486,2128.9275],[98.92867,52.91848,2213.6267],[98.85632,52.84659,2028.2483],[98.85271,52.84132,2005.5085],[98.85074,52.83553,2356.0576],[98.85333,52.82768,2527.3032],[98.85674,52.82303,2430.7104],[98.85818,52.81864,2152.1924],[98.8588,52.81249,2043.7163],[98.85818,52.80277,2241.9902],[98.86108,52.79673,2101.3374],[98.86645,52.79285,2126.7778],[98.8742,52.79182,2099.9526],[98.88226,52.79259,2088.3672],[98.91399,52.79926,2240.6045],[98.92278,52.79988,2271.3413],[98.93146,52.79936,2211.2222],[98.93776,52.7975,2198.0244],[98.9389,52.79228,2317.6213],[98.93745,52.7822,2225.9487],[98.93094,52.76148,2351.5789],[98.9297,52.75037,2439.5063],[98.93032,52.7421,2383.9829],[98.93901,52.72283,2076.8264],[98.93994,52.71838,2300.8618],[98.93963,52.70521,2300.7468],[98.93745,52.69097,2347.6187],[98.93714,52.6727,2439.5569],[98.93404,52.66562,2376.5435],[98.92805,52.65761,2650.6826],[98.91368,52.64723,2151.3447],[98.90407,52.64521,2054.6885],[98.89756,52.64604,2254.9241],[98.89384,52.6496,2450.4526],[98.88981,52.6527,2326.2305],[98.88505,52.65524,2399.4932],[98.87792,52.65288,2459.198],[98.86986,52.64681,2375.876],[98.85674,52.63405,2252.0583],[98.84702,52.62826,2214.5422],[98.83834,52.62423,2260.4355],[98.81643,52.61767,2044.4475],[98.81012,52.61472,2130.0527],[98.80465,52.61095,2248.8247],[98.80041,52.60614,2249.8008],[98.79658,52.5987,2201.0051],[98.79379,52.5895,2148.7795],[98.79286,52.57292,2364.2585],[98.79576,52.5646,2215.1216],[98.80072,52.5586,2249.2012],[98.81819,52.54829,2432.9106],[98.82253,52.54486,2476.0535],[98.82563,52.54132,2609.4197],[98.82511,52.53736,2494.3794],[98.82232,52.5308,2518.7302],[98.80558,52.514,2717.9675],[98.79814,52.50972,2678.5762],[98.79131,52.50723,2748.249],[98.76506,52.50398,2679.2576],[98.74749,52.5045,2358.4128],[98.73819,52.50811,2143.2031],[98.732919999999993,52.50718,2072.0957],[98.72848,52.50491,2057.644],[98.72052,52.49654,2123.0662],[98.71886,52.49287,2155.8638],[98.71855,52.48806,2284.707],[98.72072,52.47866,2210.1094],[98.72269,52.47313,2182.3989],[98.7232,52.46879,2190.3567],[98.72165,52.46411,2215.752],[98.71545,52.45845,2377.0808],[98.67339,52.43396,2386.4348],[98.65851,52.42987,2272.8511],[98.63318,52.42724,2454.6602],[98.62926,52.42429,2432.5835],[98.62915,52.42062,2623.3892],[98.63442,52.41277,2515.2085],[98.67618,52.37556,2189.5889],[98.67711,52.3697,2448.512],[98.67597,52.36228,2549.5142],[98.66998,52.34619,2390.1138],[98.66099,52.32957,2084.501],[98.64641,52.309,1962.719],[98.64362,52.30296,1980.0002],[98.64063,52.28906,2249.563],[98.64083,52.27154,2164.0923],[98.6461,52.26275,2254.0479],[98.66016,52.25686,2305.2036],[98.67277,52.26306,2517.3755],[98.67587,52.26746,2417.0657],[98.68486,52.27722,2344.3252],[98.68951,52.28156,2311.1755],[98.70057,52.28875,2124.4834],[98.70718,52.29149,2053.1201],[98.71463,52.29342,1988.0339],[98.7263,52.29247,2036.8003],[98.7415,52.28901,2468.9009],[98.76568,52.27934,2420.5698],[98.77984,52.27665,2429.4263],[98.791,52.27572,2260.2754],[98.79948,52.27423,2519.2251],[98.80702,52.26963,2360.2505],[98.81384,52.25924,2592.9126],[98.81643,52.25345,2388.3301],[98.81757,52.24797,2290.5068],[98.81664,52.2364,2272.437],[98.80899,52.20451,2281.9419],[98.80868,52.201,2317.9062],[98.80899,52.1964,2336.5176],[98.81353,52.1918,2396.1824],[98.82191,52.18767,2478.7588],[98.83999,52.18493,2529.6506],[98.85116,52.1855,2490.1797],[98.86046,52.18746,2525.0754],[98.88733,52.19769,2528.5081],[98.89498,52.1996,2696.9565],[98.90314,52.20048,2727.1326],[98.91203,52.20002,2539.9192],[98.91978,52.19803,2439.3335],[98.92681,52.19537,2411.5334],[98.93239,52.19185,2563.5088],[98.93683,52.18607,2608.4556],[98.94056,52.17868,2163.7578],[98.94758,52.15279,2080.3787],[98.94727,52.14609,2122.0947],[98.9418,52.14049,2117.8149],[98.93766,52.12473,2217.7319],[98.93765,52.12469,2217.7319],[98.96247,52.11256,2315.8979],[98.97445,52.08039,2545.8633],[98.99471,52.0583,2215.4412],[99.0251,52.04553,2260.1868],[99.19873,52.00659,2299.2004],[99.23284,51.99424,2225.3027],[99.25599,51.97791,2790.6616],[99.27469,51.95949,2584.4309],[99.29537,51.94355,2945.6936],[99.32389,51.93422,2440.2791],[99.55685,51.89146,2519.0474],[99.67932,51.88867,2333.4573],[99.70965,51.88058,2179.0825],[99.78397,51.83761,2294.6816],[99.84866,51.78935,2697.063],[99.91791,51.74948,2652.6687],[100.00597,51.73173,2542.6062],[100.09826,51.73865,2411.1716],[100.2103,51.72622,2568.0771],[100.5109,51.7269,2542.6333],[100.5711,51.7048,2466.3235],[100.6389,51.69204,2485.7646],[101.06947,51.55344,1919.5631],[101.11701,51.52784,2096.7515],[101.15877,51.52122,2209.0779],[101.20073,51.52091,2144.8386],[101.24155,51.51518,2162.6912],[101.27969,51.49259,2270.4792],[101.31545,51.4636,2156.7656],[101.35018,51.45045,2346.574],[101.3878,51.45056,2353.0728],[101.48205,51.47288,2131.6147],[101.52639,51.47583,2193.394],[101.56985,51.47009,2613.5784],[101.6437,51.45009,2300.5576],[101.69661,51.45244,2788.0374],[101.72369,51.45058,2888.0293],[101.74219,51.44485,2604.1938],[101.79532,51.41939,2401.5266],[101.82177,51.41358,2590.9475],[101.90187,51.41707,2050.4761],[101.92068,51.41304,2444.918],[101.95562,51.39379,2177.657],[101.97422,51.38723,2343.459],[102.05122,51.38361,2321.8457],[102.07468,51.37482,2284.8931],[102.09127,51.36464,2189.3257],[102.18387,51.3239,2128.3511],[102.19338,51.30721,2067.0217],[102.17927,51.28643,2274.1389],[102.1353,51.24028,2128.9292],[102.1338,51.23085,2218.5967],[102.13969,51.22093,2315.6089],[102.14765,51.20264,2115.5857],[102.15002,51.1854,2064.5308],[102.14878,51.16879,2096.5378],[102.14217,51.13484,2213.2886],[102.14651,51.09763,2413.4297],[102.16537,51.05756,2442.6558],[102.19198,51.02058,1940.918],[102.21937,50.99265,2022.9227],[102.22966,50.97927,2014.7208],[102.23105,50.9649,1946.4438],[102.22557,50.95074,1877.5054],[102.21524,50.93818,1816.2383],[102.23947,50.91229,1772.7177],[102.23188,50.88475,1806.8972],[102.21276,50.85674,1799.0627],[102.20304,50.82935,1767.9437],[102.21679,50.79886,1650.4031],[102.24568,50.77876,1642.0773],[102.30753,50.74822,1624.5649],[102.32939,50.71882,1984.2617],[102.32024,50.69613,1903.6809],[102.29684,50.67494,1944.4841],[102.27591,50.65019,1947.6257],[102.27157,50.62094,1863.5691],[102.28242,50.59061,1779.1588],[102.30293,50.56389,1777.1963],[102.32763,50.54555,1605.3959],[102.3727,50.53366,1606.155],[102.47186,50.52493,1737.7812],[102.5131,50.50369,1633.5952],[102.58659,50.41527,1481.0995],[102.6178,50.3993,1439.4927],[102.61953,50.39901,1462.51],[102.7626,50.37481,1632.8953],[102.88714,50.31497,1632.4912],[102.92739,50.30298,1819.4277],[102.97411,50.29564,1776.0338],[103.13001,50.30913,1644.3784],[103.20169,50.29698,1432.2349],[103.24019,50.24438,1730.6593],[103.25311,50.21497,1871.3269],[103.27678,50.19756,1686.8474],[103.30659,50.19043,1734.7086],[103.4071,50.1973,1546.017],[103.43873,50.1926,1544.1344],[103.47397,50.182,1569.4545],[103.53392,50.15379,1628.3208],[103.60141,50.13353,1592.0552],[103.66807,50.1312,1597.6583],[103.78527,50.18614,1446.665],[103.84542,50.18469,1436.3994],[103.97399,50.14872,1479.4044],[104.03952,50.14118,1762.8],[104.12169,50.14826,1745.2998],[104.19811,50.17001,1395.5519],[104.24747,50.2066,1315.5381],[104.26896,50.22887,1441.583],[104.32136,50.2543,1277.1423],[104.3495,50.27187,1542.8901],[104.37723,50.28918,1667.6302],[104.4058,50.30055,1413.7358],[104.47412,50.31326,1317.5962],[104.57695,50.30949,1366.6802],[104.61044,50.31419,1304.9817],[104.63246,50.32375,1452.0118],[104.67188,50.3483,1385.5541],[104.69705,50.35321,1377.8014],[104.78955,50.35264,1191.3733],[104.81849,50.35832,1213.2025],[104.879,50.3839,1259.7216],[104.90159,50.38979,1087.5386],[104.93425,50.39326,1199.2815],[105.0501,50.38349,800.1589],[105.07822,50.38514,812.694],[105.10576,50.39005,1105.2556],[105.13134,50.39806,1219.876],[105.24074,50.45801,1451.7375],[105.27846,50.47258,1357.3629],[105.32864,50.47645,1504.8877],[105.63937,50.42194,800.8828],[105.77926,50.42891,812.7075],[105.80654,50.42437,912.8978],[105.85471,50.41093,935.4594],[105.90421,50.4038,690.1157],[105.95806,50.40359,637.8035],[105.98488,50.39977,744.0188],[106.03893,50.3714,768.7621],[106.04327,50.36478,665.8102],[106.04327,50.35553,634.978],[106.04446,50.34602,621.4169],[106.04818,50.33812,610.2278],[106.05593,50.33357,617.2076],[106.13531,50.32711,665.4446],[106.16094,50.31962,796.207],[106.2012,50.29972,899.7052],[106.22228,50.29238,779.7907],[106.24486,50.29026,870.1351],[106.43979,50.32794,839.0286],[106.5482,50.33579,846.2329],[106.65652,50.32701,636.1467],[106.74618,50.30742,663.1209],[106.78829,50.29151,684.5372],[106.93645,50.20913,684.1927],[106.97366,50.19637,614.795],[106.9827,50.18712,599.8284],[106.998,50.14981,613.5622],[107.00606,50.1402,618.1661],[107.02621,50.12573,605.2349],[107.0336,50.1188,606.4933],[107.03923,50.10826,607.8286],[107.04843,50.08464,634.2496],[107.05711,50.0741,729.5246],[107.07029,50.06625,656.0216],[107.10073,50.05679,613.1265],[107.11463,50.05049,613.677],[107.1645,50.01886,616.8339],[107.1922,50.00604,621.302],[107.22491,49.99705,622.9662],[107.25488,49.99891,644.2583],[107.28041,50.00759,681.3127],[107.30485,50.01002,625.5754],[107.36407,49.97612,797.7362],[107.72932,49.97194,651.5221],[107.7446,49.96735,652.7669],[107.74467,49.96744,652.7669],[107.75345,49.97938,726.1538],[107.7919,50.01994,1001.034],[107.79552,50.02573,926.0446],[107.79707,50.03369,878.9362],[107.79769,50.03958,888.2786],[107.79748,50.04764,921.8911],[107.7981,50.0525,981.8247],[107.7981,50.05759,996.8099],[107.8011,50.08066,1031.9905],[107.8011,50.08609,1070.5299],[107.79934,50.09084,1141.2855],[107.79531,50.09441,1207.229],[107.7702,50.10206,1326.6423],[107.76462,50.10557,1371.8696],[107.76307,50.11048,1463.3],[107.76307,50.11596,1396.2117],[107.76968,50.14722,1098.6279],[107.77237,50.15208,1073.0509],[107.77702,50.15658,1104.8579],[107.8012,50.16541,1101.3344],[107.8073,50.16929,1077.1016],[107.81257,50.17435,1143.2754],[107.81598,50.18208,1201.4302],[107.81671,50.18831,1311.575],[107.81598,50.19378,1399.3927],[107.81702,50.19872,1435.5087],[107.82094,50.20319,1456.7332],[107.84182,50.2097,1559.2714],[107.85092,50.2111,1532.7847],[107.85877,50.21117,1553.8828],[107.86611,50.2098,1607.3203],[107.87241,50.20696,1653.2029],[107.88688,50.19624,1591.0535],[107.89308,50.19469,1559.465],[107.8996,50.19655,1468.1377],[107.90642,50.20004,1364.4547],[107.92626,50.21482,1431.9231],[107.93091,50.22086,1415.2488],[107.93463,50.22856,1396.7485],[107.9368,50.25363,1311.6598],[107.94755,50.27657,1465.6398],[107.98062,50.2976,1493.804],[107.98869,50.31083,1413.7197],[107.989,50.31646,1377.4021],[107.98807,50.32721,1451.2743],[107.98817,50.3315,1437.5571],[107.99024,50.33476,1437.3514],[108.01411,50.33476,1395.3134],[108.02155,50.33574,1372.532],[108.05804,50.34649,1300.8809],[108.07075,50.34587,1261.2622],[108.0753,50.34225,1206.8159],[108.07695,50.33693,1328.0933],[108.07933,50.33228,1388.4156],[108.0846,50.32861,1454.7117],[108.11529,50.31773,1471.9172],[108.12335,50.31693,1535.1011],[108.13173,50.31822,1479.3923],[108.13875,50.32437,1496.5308],[108.14351,50.33049,1323.0217],[108.14682,50.33708,1468.8669],[108.14899,50.34328,1584.1919],[108.15436,50.35052,1479.1057],[108.16242,50.35843,1419.8735],[108.17978,50.36897,1266.3397],[108.18516,50.37594,1355.5419],[108.18609,50.38163,1355.3887],[108.18392,50.38643,1411.9014],[108.18268,50.39129,1455.3772],[108.1834,50.39633,1443.3156],[108.18702,50.40095,1400.8],[108.19177,50.40504,1383.6447],[108.20097,50.40829,1327.8068],[108.21348,50.4108,1291.0708],[108.23694,50.41266,1360.4109],[108.26453,50.4116,1406.1658],[108.31518,50.40266,1239.3544],[108.32985,50.40475,1287.3018],[108.35011,50.41052,1212.0092],[108.40106,50.43206,1323.5472],[108.41233,50.43896,1339.2441],[108.41739,50.44423,1320.8876],[108.42142,50.44974,1298.7633],[108.42607,50.45465,1284.1277],[108.43217,50.45806,1215.485],[108.43961,50.45966,1207.1244],[108.45047,50.45764,1176.0459],[108.46752,50.45217,1194.8856],[108.47589,50.45031,1171.756],[108.48426,50.44984,1139.944],[108.55361,50.46509,1224.7756],[108.57118,50.46695,1256.0974],[108.58286,50.46571,1224.2024],[108.59247,50.45826,1287.1727],[108.59774,50.45511,1345.5354],[108.60467,50.45377,1369.0776],[108.61304,50.45452,1395.0981],[108.64043,50.46028,1371.9308],[108.64983,50.46558,1398.7659],[108.66007,50.47506,1343.3708],[108.67578,50.49475,1305.9603],[108.68477,50.51663,1384.9376],[108.65976,50.5335,1315.5013],[108.64384,50.53402,1347.088],[108.62947,50.5303,1276.8817],[108.61397,50.5281,1313.3845],[108.58658,50.52989,1257.5927],[108.578,50.52963,1207.0127],[108.56219,50.52767,1108.7136],[108.55413,50.52746,1170.8904],[108.54576,50.52865,1199.9125],[108.53873,50.53133,1226.2158],[108.53242,50.53454,1243.9565],[108.51651,50.54524,1174.4204],[108.49418,50.57025,1281.626],[108.47217,50.58994,1180.0737],[108.46256,50.59345,1233.719],[108.45274,50.59549,1215.1887],[108.44364,50.5966,1172.6416],[108.43445,50.59919,1264.2814],[108.42628,50.60322,1269.8054],[108.41677,50.60988,1157.7913],[108.40809,50.61229,1067.6458],[108.39941,50.61314,1067.2278],[108.37409,50.6119,1074.0189],[108.35569,50.61407,1061.6426],[108.33874,50.61887,1045.8882],[108.24748,50.6537,926.0055],[108.23901,50.65598,919.977],[108.22991,50.6573,898.2515],[108.18733,50.65758,864.6703],[108.17978,50.6596,845.5989],[108.14216,50.67949,791.8112],[108.12087,50.69417,769.5056],[108.10206,50.70988,739.2441],[108.07695,50.73566,672.0582],[108.06971,50.74652,645.2465],[108.06806,50.74972,644.8015],[108.06703,50.75349,645.9301],[108.06858,50.75907,686.1202],[108.07374,50.76571,690.0751],[108.08594,50.77507,662.7892],[108.13348,50.79938,652.02],[108.18857,50.81757,678.9736],[108.21275,50.82858,653.5684],[108.22681,50.83325,680.8599],[108.23477,50.83457,684.2944],[108.24273,50.83819,706.8793],[108.24965,50.84351,686.225],[108.26009,50.88981,841.7233],[108.26319,50.89922,898.6607],[108.26856,50.91152,881.6689],[108.29699,50.96314,1085.0665],[108.30308,50.97963,1076.9097],[108.30846,51.01105,1079.6782],[108.33574,51.04583,1208.4417],[108.35269,51.05539,1126.8021],[108.48395,51.05668,883.6832],[108.49749,51.05885,789.5048],[108.50132,51.05996,804.4547],[108.50659,51.06226,873.233],[108.51175,51.06536,880.4189],[108.5318,51.08303,1019.9385],[108.56508,51.10569,945.4337],[108.57005,51.11078,927.7129],[108.57242,51.11848,905.4603],[108.5718,51.12949,866.5611],[108.56529,51.14339,932.03],[108.56012,51.1513,987.1266],[108.55475,51.15708,977.6119],[108.54235,51.16393,1039.9807],[108.46307,51.19783,909.1011],[108.45667,51.20313,912.0301],[108.45047,51.20979,867.2346],[108.44344,51.22194,903.4044],[108.43558,51.22623,903.265],[108.42762,51.2286,879.938],[108.40768,51.22987,845.8755],[108.3992,51.23165,833.0057],[108.38453,51.23749,803.0228],[108.37274,51.24447,794.8269],[108.36262,51.25212,789.7784],[108.35879,51.25635,788.7474],[108.35569,51.26132,799.953],[108.35424,51.26731,831.4525],[108.35548,51.27558,881.061],[108.36014,51.28317,867.4885],[108.36778,51.29015,948.4348],[108.38205,51.29832,969.1391],[108.42907,51.31351,839.2691],[108.44158,51.31971,843.3619],[108.45336,51.32736,853.0585],[108.46618,51.33847,872.2609],[108.48509,51.36229,950.2723],[108.49191,51.37712,1077.6853],[108.4978,51.40477,1374.4023],[108.52002,51.41392,1377.3336],[108.5256,51.41738,1345.7876],[108.5318,51.42283,1325.1531],[108.53491,51.42849,1310.5975],[108.53646,51.43433,1216.1504],[108.53625,51.43981,1168.0623],[108.53398,51.44999,986.7584],[108.53346,51.455,969.0948],[108.5347,51.46006,1021.6793],[108.53801,51.46531,1028.7615],[108.54235,51.47019,929.6554],[108.5471,51.47469,891.5275],[108.58286,51.4998,1033.2128],[108.58327,51.50027,1033.2128],[108.58689,51.50314,1093.9758],[108.59154,51.50616,1085.3204],[108.59754,51.50916,1133.0934],[108.60674,51.5105,1209.8419],[108.618,51.50998,1174.7128],[108.63619,51.50554,1148.5408],[108.64911,51.50063,1235.7429],[108.64952,51.50022,1235.2209],[108.65355,51.49582,1186.5077],[108.65748,51.49226,1174.2544],[108.66244,51.48851,1150.0868],[108.66844,51.48497,1129.2058],[108.69593,51.47216,1118.1378],[108.72714,51.46254,1238.8347],[108.73314,51.45913,1192.3392],[108.73748,51.455,1098.1499],[108.74089,51.45076,1076.7634],[108.74699,51.44836,1179.4512],[108.75711,51.44885,1140.266],[108.78853,51.45738,1161.7046],[108.7999,51.45851,1108.5795],[108.81137,51.45598,1174.8828],[108.83701,51.44761,1036.9615],[108.85861,51.44373,923.3411],[108.94201,51.44048,1110.8589],[108.95989,51.44327,1219.9557],[109.00382,51.45619,1115.8427],[109.01126,51.46037,1093.9193],[109.01994,51.46683,1105.9069],[109.03327,51.48115,1102.671],[109.04474,51.49644,967.637],[109.04712,51.50042,1031.5525],[109.04991,51.50135,1043.0594],[109.05301,51.50342,1058.407],[109.07389,51.50662,1050.2169],[109.09756,51.49846,1016.7098],[109.11151,51.49143,1023.298],[109.11627,51.48756,1056.1559],[109.11999,51.48316,1153.1281],[109.12329,51.47872,1159.4318],[109.12484,51.47381,1156.7495],[109.12701,51.46363,1162.2599],[109.12856,51.45867,1169.8665],[109.13177,51.45422,1108.4451],[109.13601,51.45004,1064.3397],[109.15368,51.43944,1002.5006],[109.17435,51.4243,973.1063],[109.20556,51.39609,1101.7147],[109.24721,51.36596,1154.896],[109.25672,51.36436,1112.0332],[109.27026,51.36534,1031.6926],[109.29538,51.37392,1055.2186],[109.31739,51.38498,1079.8535],[109.32442,51.38772,1051.4397],[109.33217,51.38878,1081.3687],[109.34209,51.38699,1046.1295],[109.34654,51.38322,1020.4706],[109.34953,51.37847,1090.0377],[109.35088,51.37345,1016.3971],[109.35491,51.36387,1093.7986],[109.3577,51.35924,1193.7034],[109.36131,51.3549,1195.2375],[109.36679,51.35278,1257.4763],[109.37299,51.35314,1260.1979],[109.38147,51.36108,1263.6595],[109.3854,51.36772,1219.1089],[109.38829,51.37459,1226.4651],[109.39005,51.38053,1243.6451],[109.39263,51.38642,1180.0381],[109.39656,51.39185,1081.6561],[109.40121,51.39645,1020.098],[109.41816,51.40772,1109.4537],[109.44854,51.41973,1043.3724],[109.53732,51.44027,1226.2395],[109.62869,51.44911,1203.1887],[109.6968,51.47681,1242.5206],[109.71871,51.489,1237.9746],[109.80087,51.51882,1332.9316],[109.81224,51.52502,1360.2679],[109.82826,51.53753,1414.2809],[109.83426,51.54089,1451.2922],[109.89234,51.55753,1271.452],[109.92728,51.57261,1158.3782],[109.94536,51.58569,1146.8546],[109.97606,51.60241,1080.4247],[109.9836,51.60486,1151.991],[110.01223,51.60455,1128.5338],[110.02236,51.60739,1176.265],[110.03869,51.61359,1262.0209],[110.04923,51.61607,1214.2295],[110.06039,51.61424,1158.7571],[110.07528,51.6075,1088.6976],[110.09357,51.60285,1104.4514],[110.20839,51.59179,1363.4275],[110.27712,51.59365,1122.3367],[110.31474,51.59088,1248.7338],[110.33335,51.58636,1216.2273],[110.35567,51.57768,1245.317],[110.36539,51.5767,1300.0037],[110.38916,51.57701,1184.6447],[110.3965,51.57442,1207.1351],[110.40032,51.57024,1129.572],[110.40218,51.56538,1050.5378],[110.40921,51.54058,1081.5206],[110.41365,51.53102,1148.8988],[110.41737,51.52688,1189.8118],[110.42254,51.52332,1271.2808],[110.49561,51.51329,1225.4644],[110.5077,51.50972,1226.7379],[110.53334,51.49908,1252.0277],[110.54481,51.49593,1181.1288],[110.55277,51.49593,1217.8511],[110.6216,51.50763,1126.1062],[110.63917,51.50781,1229.8877],[110.677,51.50445,1248.9883],[110.6925,51.50776,1324.5757],[110.71183,51.51567,1415.24],[110.74821,51.53851,1249.0107],[110.76268,51.55045,1215.0387],[110.77094,51.55959,1207.5551],[110.77311,51.56491,1175.7432],[110.77901,51.57055,1173.9452],[110.78779,51.57556,1217.6453],[110.81497,51.5845,1168.4785],[110.84815,51.58995,1155.3591],[110.8558,51.59194,1081.1008],[110.86241,51.59499,1046.6519],[110.86675,51.60166,1076.1436],[110.86758,51.60729,1089.542],[110.86644,51.61266,1118.3895],[110.86303,51.62233,1099.8259],[110.86076,51.63246,1146.0132],[110.8589,51.63737,1140.0604],[110.85435,51.64677,1159.7502],[110.84474,51.66,1182.7144],[110.84495,51.66462,1259.3557],[110.85022,51.66915,1300.1345],[110.89083,51.68191,1371.1512],[110.94313,51.71829,1369.8933],[110.95016,51.72144,1444.8442],[110.95863,51.72366,1468.7214],[110.99129,51.72263,1229.1467],[110.99811,51.72315,1293.2573],[111.00245,51.72527,1303.46],[111.00721,51.73131,1313.0337],[111.01672,51.75033,1333.2322],[111.01889,51.75638,1279.568],[111.02013,51.76769,1236.5222],[111.01889,51.77265,1272.0194],[111.03139,51.78201,1340.6873],[111.05506,51.79369,1180.036],[111.12503,51.8179,1383.6116],[111.15655,51.82511,1268.8837],[111.17888,51.82774,1360.5896],[111.18818,51.82573,1416.2404],[111.19717,51.8249,1392.3715],[111.20503,51.82586,1320.6266],[111.33825,51.86174,1336.6975],[111.37432,51.86722,1451.7964],[111.38321,51.86709,1472.4972],[111.39964,51.86846,1505.521],[111.4293,51.87534,1349.3281],[111.45369,51.87776,1275.4749],[111.46713,51.88143,1393.0435],[111.48439,51.88794,1441.4678],[111.51746,51.90422,1449.4385],[111.54733,51.91528,1461.1648],[111.58599,51.92169,1448.4237],[111.59467,51.92551,1384.4581],[111.60366,51.93125,1335.7925],[111.62433,51.95182,1148.0471],[111.63549,51.95698,1170.912],[111.65906,51.96288,1370.2566],[111.66577,51.96572,1358.4279],[111.68996,51.98037,1494.2473],[111.72365,52.00566,1468.6965],[111.74536,52.02675,1520.5667],[111.79641,52.08995,1171.8145],[111.81502,52.10132,1077.2041],[111.87899,52.12746,1130.8823],[111.88457,52.13299,1174.9436],[111.88581,52.13816,1227.7833],[111.88519,52.14276,1226.819],[111.88674,52.14736,1197.8265],[111.89346,52.15118,1206.0498],[111.90504,52.1564,1220.0508],[111.9195,52.16565,1174.6799],[111.92395,52.17061,1167.6224],[111.92757,52.17635,1201.8043],[111.92912,52.18203,1237.9983],[111.93015,52.19309,1228.2815],[111.93191,52.19836,1254.6514],[111.93997,52.20395,1224.9258],[111.95506,52.20823,1191.4985],[111.9994,52.21599,1141.3793],[112.00405,52.21748,1147.4277],[112.00932,52.22053,1154.7399],[112.01924,52.22984,1143.408],[112.02503,52.23392,1168.0581],[112.04301,52.24425,1178.2947],[112.04746,52.24924,1174.9836],[112.05045,52.25498,1172.9197],[112.05758,52.27237,1166.4771],[112.06182,52.27722,1177.652],[112.06957,52.28038,1195.3661],[112.07991,52.28239,1203.0208],[112.129,52.28079,1144.0168],[112.13624,52.28156,1158.1494],[112.13985,52.28435,1185.9374],[112.14244,52.29366,1209.8624],[112.14667,52.29831,1240.7827],[112.15505,52.30022,1255.4839],[112.16714,52.29955,1224.1107],[112.1783,52.29327,1235.6667],[112.1845,52.28807,1265.6073],[112.19101,52.27815,1241.0176],[112.19339,52.2735,1213.6152],[112.1969,52.26379,1138.076],[112.19866,52.25361,1190.3031],[112.20031,52.2487,1176.7015],[112.20621,52.24477,1153.4038],[112.21633,52.24239,1172.9087],[112.24755,52.24389,1178.582],[112.27979,52.25082,1152.4587],[112.29023,52.2504,1152.3214],[112.30325,52.24679,1173.7367],[112.37415,52.21273,1279.9924],[112.40537,52.20839,1299.496],[112.43513,52.2288,1210.9243],[112.44412,52.23353,1202.7903],[112.47234,52.24146,1152.0037],[112.48216,52.24583,1111.8438],[112.49218,52.25423,1067.8882],[112.49673,52.26043,1062.0216],[112.49952,52.26534,1072.189],[112.50076,52.26926,1096.4479],[112.50324,52.28508,1116.8363],[112.50231,52.30084,1117.7996],[112.50304,52.30632,1112.2466],[112.50696,52.31283,1155.2334],[112.52991,52.33079,1213.502],[112.54045,52.34363,1196.0447],[112.54479,52.34704,1209.2588],[112.56856,52.34828,1201.7748],[112.60205,52.35471,1206.4092],[112.61435,52.35448,1197.791],[112.62447,52.35257,1193.1019],[112.68049,52.33143,1146.8479],[112.68959,52.33019,1106.8047],[112.69827,52.33014,1079.5286],[112.76204,52.33991,1104.9392],[112.79904,52.33763,1073.4608],[112.81609,52.3383,1132.5782],[112.84761,52.34332,1157.0544],[112.88058,52.34394,1154.4524],[112.90528,52.33665,1155.8329],[112.91386,52.33541,1179.5095],[112.92203,52.33577,1189.2788],[112.93061,52.33717,1202.3156],[112.94993,52.34332,1180.7028],[113.09122,52.40745,1109.8879],[113.13018,52.43453,1084.4723],[113.14661,52.43985,1099.8201],[113.15716,52.44161,1067.4934],[113.23612,52.46879,1010.809],[113.26609,52.47545,965.1321],[113.27384,52.47623,953.3586],[113.29792,52.47189,965.6266],[113.43517,52.4685,1018.8689],[113.49243,52.4737,1113.5193],[113.53129,52.4861,1093.6084],[113.53997,52.48527,1083.7419],[113.54504,52.48222,1061.4419],[113.56168,52.46036,1108.7761],[113.56664,52.45638,1115.7417],[113.57253,52.45349,1114.0956],[113.58059,52.45447,1126.1138],[113.58979,52.46036,1081.5848],[113.61997,52.49258,1090.9908],[113.63558,52.49943,1072.2397],[113.63837,52.50026,1073.3307],[113.64002,52.50098,1087.3508],[113.64457,52.50341,1091.1418],[113.64922,52.5077,1088.3866],[113.65645,52.52134,1080.3608],[113.66265,52.52793,1128.9146],[113.67123,52.53411,1183.4647],[113.70927,52.55142,1372.9114],[113.7442,52.57364,1243.7043],[113.75795,52.57901,1419.1857],[113.76993,52.58149,1484.4069],[113.77903,52.58113,1537.29],[113.78864,52.58335,1538.9634],[113.7996,52.58769,1358.5803],[113.81386,52.59901,1264.3435],[113.82792,52.6034,1405.0278],[113.85127,52.6047,1569.1984],[113.86368,52.60842,1476.9417],[113.90088,52.62764,1162.4036],[113.91504,52.63077,1142.7377],[113.92713,52.63095,1168.2605],[113.94615,52.62759,1248.8134],[113.95514,52.62852,1339.3123],[113.96527,52.63317,1273.4629],[114.01261,52.66526,1258.105],[114.01943,52.66831,1266.0125],[114.04754,52.67777,1222.5358],[114.06036,52.68417,1207.2891],[114.08785,52.69461,1273.4619],[114.10294,52.70464,1290.365],[114.13033,52.73001,1264.4858],[114.17167,52.77771,1207.7837],[114.2159,52.81362,1334.3408],[114.2219,52.81734,1324.4788],[114.22923,52.81931,1277.3182],[114.23513,52.82153,1247.8079],[114.23802,52.82546,1236.0052],[114.23575,52.83156,1227.1407],[114.22303,52.85062,1349.2693],[114.219,52.86003,1370.8589],[114.2159,52.86985,1314.6296],[114.21477,52.88013,1304.0834],[114.21632,52.88641,1271.2706],[114.22004,52.89357,1255.7114],[114.23678,52.91145,1388.345],[114.24071,52.91848,1332.1935],[114.24071,52.92581,1227.8715],[114.23854,52.93134,1240.2623],[114.22934,52.94535,1183.2214],[114.22748,52.9501,1169.734],[114.2283,52.95537,1139.2391],[114.23296,52.96051,1087.3979],[114.24525,52.96524,1112.0879],[114.2558,52.96659,1108.3994],[114.30324,52.96431,1186.3237],[114.30995,52.96659,1199.9541],[114.31285,52.97181,1225.6962],[114.31006,52.98271,1254.7919],[114.30665,52.98948,1296.4392],[114.30231,52.9948,1316.5392],[114.29238,53.00405,1290.2308],[114.28629,53.01217,1271.8026],[114.28463,53.01806,1252.5137],[114.28784,53.0263,1298.6533],[114.29786,53.04033,1292.7412],[114.31378,53.05242,1232.4729],[114.32515,53.06772,1207.5522],[114.26851,53.08358,1218.2192],[114.2558,53.09092,1189.288],[114.25125,53.095,1156.5243],[114.24598,53.09867,1119.446],[114.23978,53.10126,1117.1064],[114.23213,53.10162,1074.7548],[114.22562,53.09908,1066.2415],[114.21962,53.09511,1075.601],[114.20298,53.08167,1145.2548],[114.19678,53.0781,1165.6698],[114.19048,53.07557,1160.234],[114.18345,53.07565,1159.9501],[114.17797,53.07829,1168.501],[114.17332,53.08198,1180.9575],[114.16826,53.08531,1192.2351],[114.16185,53.08694,1163.5222],[114.15585,53.08482,1177.7799],[114.15027,53.08105,1206.901],[114.14469,53.07645,1257.6892],[114.13859,53.07309,1274.3451],[114.13291,53.07286,1270.9001],[114.12898,53.07635,1222.9675],[114.12816,53.0856,1198.0303],[114.12929,53.09268,1153.765],[114.13208,53.09955,1125.2886],[114.14076,53.11063,1162.8091],[114.14624,53.11521,1192.0353],[114.16526,53.12539,1179.7683],[114.17105,53.12988,1133.9517],[114.18541,53.14629,1126.1868],[114.19792,53.16471,1141.9736],[114.2004,53.17058,1173.9348],[114.20174,53.17619,1203.896],[114.20195,53.18156,1214.8804],[114.20081,53.18709,1188.589],[114.19771,53.19252,1148.0358],[114.18996,53.19825,1157.2485],[114.18097,53.20182,1177.0068],[114.17105,53.20414,1309.2399],[114.16185,53.20461,1192.2285],[114.11069,53.20177,1117.1898],[114.1018,53.20285,1100.0797],[114.09333,53.20523,1102.8483],[114.07266,53.21562,1040.9055],[114.0494,53.2245,1091.5311],[114.0464,53.22869,1108.8673],[114.04795,53.2337,1126.6696],[114.05105,53.23959,1125.8064],[114.05281,53.24507,1117.0081],[114.05167,53.24928,1150.6104],[114.04692,53.25107,1118.7297],[114.03989,53.25076,1097.0238],[113.98884,53.23623,1103.8975],[113.98284,53.23623,1119.5984],[113.97757,53.2398,1097.1398],[113.96372,53.25897,1055.701],[113.95008,53.27132,1098.0193],[113.94636,53.27659,1132.1199],[113.94491,53.28321,1103.6598],[113.94739,53.2939,1147.4636],[113.95142,53.30129,1210.1814],[113.95607,53.30801,1196.2314],[113.95938,53.31442,1166.606],[113.96062,53.3215,1224.5094],[113.95514,53.33731,1164.2571],[113.94946,53.34749,1190.1837],[113.94615,53.35183,1193.6459],[113.94202,53.35561,1210.86],[113.93592,53.35824,1224.5165],[113.91111,53.35881,1148.3508],[113.9013,53.36057,1125.7845],[113.8489,53.37824,1115.4818],[113.84249,53.38181,1144.8386],[113.83866,53.39018,1145.0818],[113.83598,53.40196,1134.1492],[113.83784,53.42775,1188.2954],[113.83463,53.43943,1188.179],[113.83071,53.44775,1210.6188],[113.82998,53.45472,1188.2422],[113.83381,53.46418,1156.7386],[113.8458,53.48082,1140.7563],[113.85479,53.48862,1155.3667],[113.86409,53.49283,1156.9222],[113.87174,53.49454,1159.1293],[113.87804,53.49663,1149.48],[113.88517,53.50009,1131.6353],[113.88569,53.50077,1123.1401],[113.88858,53.51539,1070.8999],[113.88941,53.53539,1002.2076],[113.88786,53.54562,952.2476],[113.88486,53.55327,932.5267],[113.87763,53.562,936.8078],[113.82843,53.602,1066.9559],[113.82223,53.6082,876.9204],[113.80611,53.61616,804.0181],[113.79577,53.62567,856.0828],[113.79267,53.6297,857.9948],[113.80611,53.64313,921.2704],[113.81448,53.64903,989.7723],[113.82709,53.6545,991.0685],[113.84052,53.65864,930.6426],[113.85107,53.66024,926.8694],[113.88476,53.65662,794.1472],[113.89851,53.66024,933.7892],[113.89954,53.66236,915.5038],[113.90037,53.66649,895.0585],[113.90212,53.67104,893.1653],[113.90595,53.6745,917.606],[113.91566,53.67879,907.2369],[113.92,53.68013,898.9249],[113.92651,53.68132,885.4202],[113.96537,53.6774,829.8301],[113.98222,53.68137,806.8828],[113.99535,53.70117,836.826],[113.97674,53.71383,777.9115],[113.97282,53.7299,939.9142],[113.98346,53.74375,918.7351],[114.00868,53.74959,827.5229],[114.09395,53.75636,785.5704],[114.11761,53.76385,776.6089],[114.12526,53.7701,772.3734],[114.1389,53.78664,789.7065],[114.14562,53.79057,835.2299],[114.1603,53.78705,824.8487],[114.188,53.76806,771.1151],[114.19988,53.76698,768.1954],[114.22458,53.77455,764.5544],[114.2776,53.77925,769.709],[114.32608,53.79002,806.8907],[114.34571,53.79809,788.6435],[114.35956,53.81194,763.6871],[114.36473,53.83558,831.6716],[114.37755,53.84369,773.1184],[114.40648,53.84405,909.4722],[114.45403,53.83899,808.4131],[114.4809,53.84018,790.2848],[114.50074,53.84493,771.7951],[114.51687,53.85439,770.1677],[114.56699,53.89702,746.6628],[114.58828,53.92658,852.2817],[114.59748,53.93456,788.0976],[114.60596,53.93909,781.9793],[114.61329,53.94079,846.3763],[114.6195,53.9394,887.744],[114.62477,53.93456,920.3972],[114.6475,53.94472,843.0118],[114.67189,53.95102,918.5887],[114.7244,53.95505,786.4112],[114.73339,53.95702,744.3435],[114.7459,53.96177,832.7585],[114.75716,53.96746,864.8473],[114.76192,53.97242,922.5031],[114.76739,53.98146,863.2437],[114.78052,53.98185,842.2389],[114.80977,53.97552,761.6071],[114.83313,53.97611,870.7034],[114.8601,53.98053,754.7106],[114.88511,53.98854,819.5521],[114.90248,53.99975,819.8093],[114.94413,54.01774,747.2697],[114.95756,54.01924,729.6745],[114.96645,54.02337,728.998],[114.98164,54.03696,727.5875],[114.98381,54.04022,728.7827],[114.98547,54.04766,754.378],[114.98846,54.05122,742.2797],[114.99363,54.05386,730.0649],[115.00479,54.05673,730.0249],[115.02702,54.06786,801.784],[115.0326,54.07623,731.6393],[115.02598,54.08879,766.8663],[115.02329,54.0984,853.4109],[115.03125,54.10616,888.2234],[115.04355,54.11143,947.5156],[115.06949,54.11551,996.8506],[115.08014,54.12073,964.5875],[115.09833,54.13318,899.6909],[115.14411,54.14832,731.4497],[115.16447,54.16171,723.1679],[115.17285,54.1847,716.0241],[115.17915,54.21059,810.2153],[115.19538,54.21964,770.4415],[115.2176,54.22227,768.6433],[115.24168,54.22878,772.7093],[115.24912,54.23452,747.293],[115.26132,54.25007,770.1637],[115.26907,54.25669,734.2206],[115.28137,54.2602,775.7941],[115.31051,54.26227,856.8823],[115.32085,54.26723,820.796],[115.34317,54.28449,714.9146],[115.49107,54.32867,716.4017],[115.50244,54.33555,696.6685],[115.50616,54.345,726.4979],[115.5135,54.35487,785.6556],[115.51773,54.36536,739.1017],[115.50771,54.38831,773.5158],[115.51432,54.3972,767.252],[115.52611,54.4036,753.0798],[115.53655,54.40753,768.8354],[115.54833,54.41009,801.9199],[115.57262,54.41151,702.5056],[115.58429,54.41435,717.676],[115.61819,54.43869,785.064],[115.62936,54.44228,959.9935],[115.79658,54.47233,765.9368],[115.82335,54.48133,814.2028],[115.86014,54.48618,747.2365],[115.90924,54.49977,842.4368],[115.93383,54.50375,870.408],[115.9852,54.50014,722.0347],[116.01083,54.502,744.8137],[116.03336,54.51368,738.168],[116.04535,54.51791,835.6064],[116.09176,54.51678,916.7682],[116.1054,54.51822,931.9588],[116.13982,54.53042,787.261],[116.19046,54.53848,794.5571],[116.45794,54.51678,938.6935],[116.4691,54.51368,845.9496],[116.47902,54.50685,763.2346],[116.48677,54.50001,716.4485],[116.49215,54.49691,691.0121],[116.50817,54.49755,648.5693],[116.51664,54.50039,692.9752],[116.52263,54.50639,687.8658],[116.5309,54.51678,651.0708],[116.52667,54.52411,761.9894],[116.52594,54.53063,836.531],[116.5309,54.53786,738.3792],[116.53824,54.54163,753.2396],[116.54372,54.54055,774.0771],[116.54971,54.53812,773.4365],[116.55819,54.53786,827.6771],[116.58661,54.5428,778.0142],[116.67322,54.54783,694.7899],[116.70361,54.55403,644.1589],[116.72335,54.5652,694.7727],[116.72676,54.57471,673.5402],[116.72407,54.58199,664.9155],[116.72335,54.59026,830.0552],[116.73265,54.60274,694.1781],[116.74133,54.60894,669.4783],[116.7773,54.62664,683.1243],[116.77223,54.63165,687.4608],[116.77027,54.63506,683.229],[116.7681,54.6377,678.6113],[116.76303,54.64028,643.2975],[116.76975,54.65909,680.9613],[116.77016,54.67695,674.9993],[116.77409,54.69031,693.258],[116.8114,54.70085,666.6083],[116.84251,54.72436,679.3716],[116.86546,54.72968,625.5994],[116.88365,54.73754,681.3127],[116.88168,54.75578,722.2032],[116.86608,54.79113,722.2699],[116.87341,54.80327,789.7556],[116.89016,54.81237,654.0574],[116.92747,54.82588,743.9042],[116.91806,54.8411,673.851],[116.92344,54.88549,749.3901],[116.88489,54.90489,629.376],[116.87972,54.92864,684.3556],[116.88458,54.95592,670.4475],[116.89274,54.9767,793.2101],[116.87517,54.97628,723.642],[116.873,54.98455,737.507],[116.87569,54.99571,775.4473],[116.87228,55.00401,814.7928],[116.8605,55.00491,770.3354],[116.84448,55.00352,709.4549],[116.83052,55.00486,607.4882],[116.82443,55.01395,622.5392],[116.82908,55.02352,620.9952],[116.83807,55.03401,609.4623],[116.84458,55.04475,619.0961],[116.84158,55.05522,650.9873],[116.81595,55.07385,752.5435],[116.81078,55.07912,748.6392],[116.81027,55.08511,775.0269],[116.81295,55.09157,731.1056],[116.8176,55.09958,697.0704],[116.81461,55.10418,676.0491],[116.8081,55.10878,687.3602],[116.79177,55.13353,667.7102],[116.78246,55.14366,673.7925],[116.77389,55.148,617.3839],[116.72841,55.14237,743.4974],[116.7159,55.14459,739.2235],[116.66743,55.16849,952.035],[116.63074,55.17614,802.0441],[116.61906,55.18216,805.9756],[116.61472,55.18816,807.7678],[116.60986,55.1973,821.6714],[116.60356,55.20578,793.4137],[116.59509,55.20945,824.0526],[116.57586,55.21343,952.2513],[116.5092,55.24361,760.3932],[116.47592,55.25317,767.7139],[116.46879,55.25787,651.2788],[116.46507,55.26975,672.6354],[116.46734,55.29445,689.0577],[116.46507,55.30195,597.1268],[116.45701,55.31053,606.5031],[116.45659,55.316,620.5844],[116.45938,55.32122,581.9816],[116.46135,55.32892,795.2095],[116.45825,55.34042,684.7368],[116.45018,55.34463,624.9683],[116.43923,55.34716,628.1008],[116.42724,55.35347,793.6198],[116.41577,55.3684,851.2322],[116.40554,55.3867,724.0133],[116.39334,55.4022,593.8999],[116.37598,55.40871,715.5045],[116.17775,55.39057,1067.0443],[116.13144,55.3744,633.9662],[116.1084,55.38515,856.1376],[116.0716,55.41491,1084.7073],[116.04814,55.41548,976.0627],[115.99667,55.39889,988.7642],[115.97166,55.3944,792.0057],[115.9637,55.39786,901.5652],[115.945,55.41378,705.8635],[115.94127,55.41832,723.7499],[115.93879,55.42814,583.0354],[115.93456,55.43225,663.0096],[115.93373,55.43724,690.2541],[115.94127,55.44964,655.0172],[115.94944,55.456,586.7444],[115.95874,55.45987,878.6161],[115.96608,55.4653,995.308],[115.96794,55.47636,1001.237],[115.96308,55.48282,1010.2263],[115.95223,55.49217,909.5514],[115.94003,55.50059,866.5186],[115.91027,55.51031,593.6671],[115.89518,55.5254,568.8079],[115.8867,55.54534,546.1396],[115.88598,55.56573,564.5051],[115.89022,55.57661,546.8495],[115.90303,55.59614,552.5814],[115.90644,55.60668,553.214],[115.90438,55.61697,545.7047],[115.89828,55.62208,548.0778],[115.8928,55.62823,537.2032],[115.89218,55.64146,546.2365],[115.89663,55.64678,546.1088],[115.90489,55.65376,535.241],[115.91213,55.66296,558.2739],[115.91327,55.67495,664.8223],[115.90686,55.68461,596.9213],[115.89549,55.69123,631.762],[115.88185,55.6949,666.5195],[115.86893,55.69608,625.9255],[115.84485,55.70482,533.1748],[115.84598,55.72564,526.9041],[115.86552,55.77117,630.6964],[115.86283,55.79045,895.5172],[115.84795,55.83473,660.182],[115.84443,55.85685,534.6096],[115.85301,55.87767,736.0812],[115.89105,55.90576,570.329],[115.89962,55.92511,518.7531],[115.89704,55.94808,763.0199],[115.88929,55.96516,836.2878],[115.87627,55.97857,908.791],[115.85808,55.99028,1179.9663],[115.81436,56.00671,666.4985],[115.79689,56.01932,918.6451],[115.78552,56.05337,794.5636],[115.76671,56.06803,498.4106],[115.76247,56.07596,621.7809],[115.76485,56.08567,723.7418],[115.77126,56.09244,523.0317],[115.78976,56.10696,1273.1016],[115.77498,56.11859,995.7353],[115.77012,56.13699,571.1931],[115.77756,56.15409,778.1717],[115.79999,56.16159,639.6262],[115.8096,56.1628,537.4011],[115.82211,56.16629,623.6375],[115.83296,56.17179,795.2017],[115.83761,56.17895,1164.8748],[115.83337,56.18877,1260.0791],[115.82294,56.19306,1258.881],[115.79658,56.19636,973.3636],[115.77364,56.20567,933.7654],[115.75999,56.21889,490.6244],[115.71907,56.26871,483.8033],[115.69436,56.30966,483.1899],[115.68796,56.32669,469.5072],[115.68765,56.337649999999996,472.9189],[115.69292,56.35713,477.8906],[115.69354,56.36767,480.2755],[115.69075,56.37811,474.1547],[115.68238,56.39366,474.878],[115.68052,56.39806,480.253],[115.68382,56.42451,471.8699],[115.69436,56.43919,472.1816],[115.71349,56.44441,472.2203],[115.74201,56.44276,477.9645],[115.76516,56.43625,470.0469],[115.77798,56.43415,471.6851],[115.78976,56.43656,463.375],[115.79689,56.44415,465.9429],[115.80113,56.45565,471.0569],[115.80051,56.46611,470.5371],[115.78697,56.47381,471.763],[115.76857,56.48746,614.1758],[115.70439,56.50787,524.2817],[115.69467,56.51319,474.8853],[115.6863,56.51926,478.2046],[115.68052,56.52534,465.8681],[115.67256,56.53986,462.1927],[115.67338,56.54725,469.1334],[115.67793,56.55293,472.0291],[115.68796,56.58378,473.2784],[115.68785,56.59536,467.7833],[115.6771,56.60042,468.3418],[115.66129,56.60233,467.1257],[115.6123,56.61406,734.3563],[115.49045,56.6199,711.6904],[115.43557,56.64109,556.8079],[115.43412,56.6898,1212.558],[115.44942,56.70039,1622.0952],[115.47608,56.7091,1146.833],[115.55081,56.72119,850.9749],[115.57127,56.73189,554.741],[115.58729,56.74718,445.7571],[115.59866,56.76491,439.786],[115.60579,56.78682,452.5209],[115.60724,56.80746,449.6784],[115.60486,56.84371,811.4949],[115.59959,56.8679,599.9097],[115.59081,56.88552,460.2018],[115.58905,56.90195,709.97],[115.60486,56.92257,1088.5114],[115.62202,56.93368,1131.6061],[115.6708,56.95332,1264.8452],[115.69075,56.95668,705.2839],[115.7108,56.9635,658.854],[115.76247,57.0113,1153.7805],[115.80485,57.0313,738.428],[116.04762,57.0822,1038.9532],[116.0901,57.09894,649.2524],[116.12617,57.12116,873.4511],[116.1703,57.14137,968.0983],[116.23841,57.14933,638.1559],[116.22694,57.16276,883.8231],[116.20793,57.17729,1332.8016],[116.19821,57.19082,1380.6047],[116.19015,57.19958,1663.088],[116.18519,57.20369,1893.2474],[116.17816,57.20736,1718.4744],[116.161,57.21418,1628.0004],[116.15677,57.21842,1856.1918],[116.15573,57.22855,1687.7661],[116.15036,57.23271,1692.4841],[116.13103,57.23857,1643.6826],[116.11925,57.24049,1471.1132],[116.10685,57.24074,1607.9031],[116.05579,57.23547,1525.2815]]]}}