{"type":"Feature","properties":{"featurecla":"Plateau","name":"STANOVOY UPLAND","namealt":null,"region":"Asia","subregion":null,"min_label":5.3,"max_label":9.0,"scalerank":4},
"geometry":{"type": "Polygon","coordinates": [[[113.65306410250261,59.415919208742963,983.7247],[113.17628014414626,59.090643621869049,586.5574],[112.82340120318767,58.988607871911626,298.7577],[111.5857039722712,58.351141668744134,441.2657],[111.1735945972712,58.0340640320253,475.793],[110.9621688160212,57.945929266400384,484.681],[110.7142440113337,57.901434637494077,645.493],[109.9210311207087,57.886297918744106,358.3017],[109.76526940195876,57.850165106244106,448.8469],[109.65723717539626,57.794134832806577,462.9907],[108.7824813160212,57.1556460632753,643.2622],[108.48084557383376,56.726935125775356,432.9729],[108.3805037769587,56.481390692181549,682.4127],[108.32300865977126,56.216009832806577,896.1668],[108.3103133472712,56.001776434369134,767.4235],[108.3498641285212,55.708197332806606,527.5677],[108.5363875660212,55.221258856244106,844.6891],[108.56019127695876,55.101568914837856,1323.6489],[108.5588485035212,55.034491278119077,1222.7513],[108.3513289722712,54.4870669617128,1314.5286],[108.3515731128962,54.401800848431549,1265.562],[108.38367760508376,54.331488348431606,1408.6588],[108.4154158863337,54.306219793744106,1847.8149],[108.44202721445876,54.309149481244077,1406.4075],[108.4641219410212,54.333441473431577,1366.4255],[108.53589928477126,54.5406558289003,1605.6041],[108.5760604175837,54.602301336712827,1049.3616],[109.06763756602126,55.103216864056634,738.0945],[109.1577254566462,55.231634832806577,720.7165],[109.29175865977126,55.516546942181634,455.0],[109.3774520191462,55.639349676556606,455.0],[109.4367781910212,55.691595770306577,486.4898],[109.5113631519587,55.736151434369106,455.0],[109.6899520191462,55.789862371869134,455.052],[109.8025008472712,55.756170965619106,455.1326],[109.85987389414626,55.656195379681577,455.0],[109.8730574878962,55.510809637494106,471.9952],[109.8527938160212,55.341009832806577,615.6053],[109.75574791758376,55.011847235150356,510.5437],[109.5706893238337,54.644537664837827,522.0471],[109.5495711597712,54.567450262494134,707.2637],[109.54737389414626,54.492560125775356,507.002],[109.56873619883376,54.419378973431577,494.2895],[109.61841881602126,54.347418524212856,741.4883],[109.7009383472712,54.276068426556606,928.6718],[109.88428795664626,54.172186590619077,1245.3658],[110.3214217457087,54.0432193054628,543.3278],[110.53394615977126,54.029120184369049,640.6024],[110.6222029957087,53.940985418744049,811.114],[111.06104576914626,53.928656317181606,1849.993],[111.1087752613337,53.943609930462856,2481.5195],[111.1200057300837,53.952276922650327,2090.366],[111.1264754566462,53.9643618835878,2313.0981],[111.1339217457087,54.023443914837856,1976.2526],[111.1384383472712,54.034979559369106,2161.5847],[111.1469832691462,54.042792059369106,1987.0823],[111.2651473316462,54.086615301556549,1843.5042],[112.4588729175837,54.107123114056549,1287.5258],[112.63135826914626,54.055365301556577,1243.2007],[112.71375573008376,54.011053778119106,1131.3154],[112.9522811207087,53.780462957806606,1094.9575],[112.99537194102126,53.7515933289003,1060.6433],[113.0431014332087,53.732001043744106,1138.2881],[113.18189537852126,53.710821844525356,1026.5334],[113.31714928477126,53.722723699994077,1046.097],[113.44825280039626,53.761725164837827,1004.4028],[113.6938582691462,53.897406317181549,864.3231],[114.4712020191462,54.622381903119134,1182.5409],[114.5344344410212,54.733587957806549,1020.5417],[114.56434166758376,54.842108465619134,1085.7074],[114.5506697925837,54.944159246869049,1148.027],[114.4572860035212,54.944952703900327,1108.458],[114.3665877613337,54.962347723431606,1044.2913],[114.50074303477126,56.006781317181577,1991.5449],[114.57056725352126,56.186285711712856,1115.4907],[114.6269637378962,56.271185614056634,598.4008],[114.7006942066462,56.3530337585878,516.1566],[115.0398055347712,56.5700747742128,1208.7129],[115.06836998789626,56.607550360150384,1048.9197],[115.08326256602126,56.651007391400356,1205.9067],[115.08631432383376,56.702032782025356,1518.3954],[115.01380455820876,57.014471746869134,1055.5203],[115.00294030039626,57.220160223431606,1581.615],[115.04444420664626,57.389227606244077,924.7682],[115.12891686289626,57.529181219525384,596.4651],[115.24659264414626,57.647711492962884,280.0249],[115.9661971363337,58.146307684369049,951.946],[116.13257897227126,58.326788641400327,991.5859],[116.24634850352126,58.526678778119077,385.3079],[116.39405358164626,59.224432684369134,595.529],[116.39588463633376,59.441839910931606,955.0579],[116.37012780039626,59.540899969525327,1126.5745],[116.3189803394587,59.629584051556577,849.8095],[116.2370711597712,59.705023504681577,1034.8975],[116.05445397227126,59.802069403119134,542.3573],[115.85201089076784,59.850494514875294,523.8716],[115.01408632679713,59.891014292341765,621.1785],[114.32459557383376,59.761786199994106,584.7853],[113.65306410250261,59.415919208742963,983.7247]]]}}