{"type":"Feature","properties":{"GID_3":"RUS.2.38.1_1","GID_0":"RUS","country":"Russia","GID_1":"RUS.2_1","province":"Altay","NL_NAME_1":"Алтайскийкрай","GID_2":"RUS.2.38_1","county":"Rodinskiyrayon","NL_NAME_2":"Родинскийрайон","city":"NA","VARNAME_3":"NA","NL_NAME_3":"NA","TYPE_3":"NA","ENGTYPE_3":"NA","CC_3":"NA","HASC_3":"NA","name":"N_A.city"},
"geometry":{"type": "MultiPolygon","coordinates": [[[[79.6672,52.5397,134.821],[79.6805,52.506,138.7065],[79.697,52.4749,140.659],[79.7394,52.4305,140.5904],[79.7343,52.4076,139.3117],[79.6851,52.3764,136.4755],[79.7536,52.377,139.4994],[79.8099,52.3858,141.2464],[79.8505,52.3354,142.9787],[79.8552,52.3087,144.8249],[79.8346,52.2915,143.0067],[79.8757,52.2431,148.984],[79.9717,52.2413,170.0971],[80.0003,52.2191,188.8933],[80.0388,52.1692,235.3592],[80.082,52.1907,239.1974],[80.1586,52.2079,247.0605],[80.1831,52.2267,256.4914],[80.1918,52.255,248.3856],[80.3536,52.2793,276.5564],[80.4168,52.2283,298.7119],[80.482,52.2346,292.4053],[80.5013,52.2609,291.0604],[80.5449,52.2424,281.9952],[80.6219,52.2745,269.0227],[80.7329,52.307,245.6676],[80.8368,52.3418,228.4962],[80.832,52.3732,248.168],[80.8359,52.3966,256.2624],[80.8087,52.4229,274.8215],[80.7625,52.4251,284.9536],[80.719,52.4371,261.5114],[80.6916,52.4701,222.3511],[80.6788,52.5047,226.5916],[80.6756,52.5515,216.2302],[80.6435,52.5874,198.2478],[80.5934,52.6182,180.5586],[80.5607,52.6426,168.3928],[80.5304,52.6248,170.5591],[80.5005,52.6127,176.6768],[80.4507,52.6397,171.547],[80.4307,52.6635,200.9642],[80.4296,52.724,214.509],[80.4215,52.7368,209.0367],[80.4456,52.7544,204.7419],[80.484,52.75,215.5438],[80.5174,52.7153,210.2719],[80.5503,52.725,208.6362],[80.5174,52.7835,209.04],[80.5192,52.8355,189.8853],[80.4651,52.8148,186.9695],[80.4009,52.7861,188.5941],[80.3545,52.7691,180.6403],[80.2518,52.7788,155.0106],[80.2755,52.7452,161.9667],[80.2884,52.7049,177.9846],[80.1899,52.6792,148.94],[80.1385,52.6964,137.4778],[80.0813,52.6763,124.0469],[80.0749,52.6342,134.4913],[79.9629,52.6229,125.9716],[79.8757,52.5942,122.4258],[79.8388,52.6016,111.6456],[79.7354,52.5859,112.6867],[79.7305,52.5536,128.1334],[79.6672,52.5397,134.821]]]]}}