{"type":"Feature","properties":{"GID_3":"RUS.9.15.1_1","GID_0":"RUS","country":"Russia","GID_1":"RUS.9_1","province":"Buryat","NL_NAME_1":"РеспубликаБурятия","GID_2":"RUS.9.15_1","county":"Pribaykal'skiyrayon","NL_NAME_2":"Прибайкальскийрайон","city":"NA","VARNAME_3":"NA","NL_NAME_3":"NA","TYPE_3":"NA","ENGTYPE_3":"NA","CC_3":"NA","HASC_3":"NA","name":"N_A.city"},
"geometry":{"type": "MultiPolygon","coordinates": [[[[108.3506,53.1478,455.0],[108.3177,53.1245,455.0],[108.2879,53.1213,455.0],[108.2705,53.0959,455.0],[108.2859,53.0819,455.0],[108.2807,53.0509,455.0],[108.2655,53.0152,455.0],[108.2246,52.975,455.0],[108.2212,52.9522,459.4089],[108.2063,52.9238,460.1089],[108.1345,52.8887,548.2518],[108.0354,52.8528,481.8098],[107.9814,52.8153,486.4653],[107.8795,52.7628,455.0],[107.7425,52.7174,455.0],[107.603,52.7339,455.0],[107.5422,52.7271,455.0],[107.4873,52.7264,455.0],[107.429,52.7,455.0],[107.4118,52.642,828.0621],[107.4224,52.5913,1133.4852],[107.4164,52.5519,1426.9548],[107.3936,52.5219,1326.6841],[107.3832,52.4911,1020.9008],[107.4053,52.4386,1197.8301],[107.401,52.4082,1107.6831],[107.3343,52.3757,1264.1626],[107.2076,52.3667,1330.5685],[107.089,52.3655,1312.7332],[107.0189,52.3702,1017.278],[106.9524,52.3672,586.8513],[106.9205,52.3405,580.2852],[106.9046,52.3099,470.3648],[106.9137,52.2441,619.7667],[106.9125,52.1947,675.825],[106.8913,52.1503,559.2096],[106.8805,52.1071,562.8812],[106.9047,52.0512,473.506],[107.0273,51.9849,676.9262],[107.0897,51.9609,1036.6252],[107.1097,51.9135,1124.7347],[107.1784,51.9059,843.7297],[107.2295,51.9249,1197.9346],[107.3118,51.921,991.7758],[107.3467,51.9543,1192.1594],[107.3822,51.9941,1007.2738],[107.4297,52.0151,871.9962],[107.472,52.0271,939.0132],[107.5184,52.0031,552.6093],[107.534,51.9597,1072.1638],[107.5366,51.9294,704.1505],[107.5505,51.9086,628.9287],[107.6329,51.9118,925.6651],[107.684,51.9355,980.5043],[107.7,51.9795,1242.3792],[107.7859,52.021,1061.6448],[107.8767,52.0413,1291.4277],[107.975,52.0685,1063.9167],[108.0627,52.1432,1451.7789],[108.1404,52.1577,1193.9414],[108.1922,52.1555,1356.5441],[108.2457,52.1727,1476.1144],[108.272,52.2463,847.0923],[108.3628,52.3052,1097.5103],[108.4067,52.3213,1300.7236],[108.4352,52.3693,1436.1854],[108.4725,52.4072,1354.0516],[108.5757,52.4509,1422.7583],[108.6357,52.4822,1426.2905],[108.6834,52.5535,1142.8607],[108.7599,52.601,1641.7755],[108.7635,52.6508,1469.7108],[108.8211,52.6776,1308.5304],[108.8598,52.7327,1682.7637],[108.891,52.7699,1474.8652],[109.008,52.7795,1192.0466],[109.1119,52.8002,1207.3164],[109.212,52.8537,1293.1713],[109.2934,52.9039,1497.0308],[109.4066,52.9227,973.1721],[109.4581,52.9246,1141.3103],[109.5208,52.894,1352.3429],[109.585,52.9234,1141.5684],[109.6459,52.9087,1163.1544],[109.7238,52.9313,1333.8428],[109.8002,52.9771,1505.3298],[109.8768,52.9811,1507.8909],[109.9173,52.97,1115.7145],[109.9452,52.984,1071.4846],[109.9364,52.9904,999.1824],[110.0011,53.0196,1055.3357],[110.1076,53.0327,1093.0708],[110.1943,53.0393,1093.5737],[110.278,53.0582,1288.0276],[110.379,53.0697,1419.1603],[110.4452,53.0864,1482.4655],[110.4501,53.098,1581.0236],[110.4381,53.1223,1583.2443],[110.4477,53.1473,1506.8317],[110.4856,53.1635,1389.4404],[110.7332,53.2248,1506.9998],[110.7715,53.2459,1619.4407],[110.7742,53.2715,1529.4674],[110.7288,53.2973,1301.7238],[110.4995,53.2736,1784.3336],[110.4203,53.2748,1579.0439],[110.216,53.2435,1435.4117],[110.1158,53.2751,1217.0669],[110.1721,53.3123,1117.5695],[110.1953,53.3692,1594.5079],[110.1749,53.3979,1402.5208],[110.0316,53.3752,1610.5219],[109.8956,53.3019,1129.9692],[109.7527,53.3739,1049.5564],[109.6874,53.3862,1139.6611],[109.6034,53.3753,1303.8337],[109.4519,53.3277,1068.3982],[109.2665,53.2092,1245.7832],[109.2311,53.1726,1215.0046],[109.0707,53.153,1137.9667],[108.9826,53.0922,917.3274],[108.8565,53.0732,807.2312],[108.7727,53.0385,801.8755],[108.6645,53.0362,572.5119],[108.5091,53.0551,632.2397],[108.4284,53.0883,554.7461],[108.3506,53.1478,455.0]]]]}}