{"type":"Feature","properties":{"GID_2":"RUS.16.11_1","GID_0":"RUS","country":"Russia","GID_1":"RUS.16_1","province":"Gorno-Altay","NL_NAME_1":"РеспубликаАлтай","county":"Ust'-Koksinskiyrayon","VARNAME_2":"NA","NL_NAME_2":"Усть-Коксинскийрайон","TYPE_2":"Raion","ENGTYPE_2":"District","CC_2":"R53010","HASC_2":"RU.GA.UK","name":"Ust'-Koksinskiyrayon.county"},
"geometry":{"type": "MultiPolygon","coordinates": [[[[86.612,49.8015,3555.2173],[86.6087,49.8349,3324.1216],[86.6264,49.8709,3128.9956],[86.6487,49.9103,3148.0085],[86.6461,49.9559,2686.9082],[86.6465,50.0057,2548.825],[86.6607,50.0571,2341.8682],[86.703,50.1018,2278.9246],[86.7383,50.155,1771.8289],[86.7572,50.1733,943.5447],[86.7497,50.2061,1759.4681],[86.7305,50.243899999999996,1423.3845],[86.527,50.2723,2467.73],[86.4695,50.2658,2508.7017],[86.399,50.237,2521.2749],[86.3744,50.2722,2764.4656],[86.2772,50.3241,2065.0708],[86.2195,50.3446,2315.1416],[86.1384,50.3469,1920.0378],[86.1275,50.3707,2105.1924],[86.112,50.3949,2180.4749],[86.0655,50.4112,2213.335],[86.0369,50.4776,2195.3218],[85.9844,50.4855,2354.6748],[85.9194,50.4534,2396.9124],[85.8306,50.4142,1730.5243],[85.8028,50.3889,2454.1021],[85.7673,50.34,1502.335],[85.7496,50.3947,2097.1455],[85.7176,50.4315,2279.8643],[85.696,50.4679,2152.7471],[85.7072,50.4985,2307.8901],[85.7059,50.5311,2191.0449],[85.6591,50.5593,2030.907],[85.5984,50.5603,1573.2582],[85.559,50.5351,1620.0601],[85.5089,50.5273,1577.5654],[85.4625,50.5133,1681.4929],[85.3571,50.4919,1826.2399],[85.3138,50.498,1631.5833],[85.3067,50.5335,1708.2804],[85.3523,50.5578,1528.9532],[85.3793,50.5925,1494.46],[85.3825,50.636,1533.6796],[85.4457,50.6889,1695.3129],[85.4389,50.7076,1687.1741],[85.3984,50.7132,1779.9457],[85.356,50.7279,1478.5087],[85.2934,50.7013,1624.7424],[85.2388,50.6851,1573.4088],[85.181,50.6422,1712.4294],[85.1087,50.63,1543.4147],[85.0285,50.6354,1229.257],[84.9841,50.659,1480.9824],[84.9545,50.694,1320.3054],[84.8704,50.7053,1656.0793],[84.8537,50.6869,1841.4756],[84.8487,50.6458,1512.1675],[84.8363,50.6046,1364.0085],[84.7626,50.5928,1720.6378],[84.7457,50.5753,1912.5928],[84.8244,50.5428,1333.2001],[84.844,50.5381,1408.9723],[84.8558,50.5146,1500.8254],[84.755,50.5082,1418.2654],[84.6943,50.4898,1555.7737],[84.5329,50.5108,1299.9559],[84.4939,50.5124,1161.8733],[84.4436,50.4785,1659.4006],[84.4153,50.4414,1544.3784],[84.41,50.4133,1561.4121],[84.3984,50.3749,1536.1643],[84.3746,50.3487,1530.0219],[84.3759,50.3226,1996.0203],[84.3886,50.2897,1574.6453],[84.423,50.2276,2123.437],[84.4305,50.2302,2195.0249],[84.4597,50.2493,2075.1904],[84.4641,50.2509,2055.884],[84.4776,50.2502,2193.2432],[84.4924,50.2422,2101.6528],[84.5191,50.2226,2237.6201],[84.5593,50.2024,2309.0308],[84.5924,50.1926,2077.823],[84.6159,50.1887,1914.5197],[84.6477,50.1863,1753.0858],[84.6668,50.1824,1911.2096],[84.6937,50.1714,1796.6327],[84.7355,50.1442,1897.4351],[84.7554,50.1382,1977.8799],[84.7773,50.1364,1845.0966],[84.7977,50.137,1929.8469],[84.8145,50.1346,2023.4847],[84.8221,50.1296,1927.5991],[84.8293,50.121,1987.7095],[84.8307,50.1033,1867.5676],[84.8342,50.0967,1715.3765],[84.8474,50.0937,1842.3042],[84.9068,50.0958,1718.9497],[84.9321,50.0906,1901.3928],[84.998,50.0561,1686.1855],[85.0139,50.0436,1496.571],[85.0258,50.0274,1653.7443],[85.0323,50.0144,1673.4559],[85.0341,50.0029,1713.4824],[85.0329,49.999,1628.2577],[85.0223,49.9936,1468.866],[84.999,50.0035,1653.0874],[84.9928,50.0025,1613.6118],[84.9881,49.9956,1664.5562],[84.9912,49.9808,1733.375],[84.9806,49.9692,1817.9646],[84.9772,49.9591,1906.3862],[84.981,49.9208,1741.9199],[84.9956,49.9013,2026.5612],[85.0158,49.892,1853.6774],[85.0516,49.8835,1892.2727],[85.0919,49.8795,1710.326],[85.1048,49.8747,1792.9064],[85.1137,49.8639,1831.0981],[85.1179,49.8525,1968.8285],[85.118,49.8302,2179.5378],[85.1659,49.7693,2353.4775],[85.1965,49.7376,2460.8684],[85.2053,49.7179,2227.1838],[85.2082,49.6934,2211.0303],[85.1955,49.6677,2097.3596],[85.1942,49.655,2110.6616],[85.1989,49.6423,2061.4507],[85.2123,49.6268,2505.6802],[85.2344,49.6184,1949.9491],[85.2476,49.6196,1920.7029],[85.2547,49.6148,1939.7981],[85.271,49.5938,1934.8492],[85.2783,49.5897,1832.7019],[85.2879,49.588,1799.2159],[85.3162,49.5938,2062.2188],[85.3259,49.5928,2093.0085],[85.3536,49.5807,1473.354],[85.3584,49.5715,1377.0466],[85.3645,49.5669,1453.1796],[85.3705,49.5672,1464.2012],[85.3882,49.5733,1432.9563],[85.3982,49.5739,1445.0013],[85.4208,49.5637,1408.6154],[85.4311,49.5666,1415.6671],[85.4401,49.5739,1357.2537],[85.4452,49.5858,1522.9723],[85.453,49.5913,1458.198],[85.4914,49.602,1598.7805],[85.5257,49.6048,1479.4058],[85.5752,49.6006,1745.2073],[85.6142,49.5895,1612.134],[85.6242,49.5822,1795.287],[85.6375,49.5689,1747.8137],[85.6513,49.5612,1732.8873],[85.6747,49.5568,2227.2378],[85.6923,49.557,2044.901],[85.7537,49.5706,2126.0491],[85.7681,49.5702,2295.1948],[85.7861,49.5652,2027.4435],[85.8268,49.5481,1819.6052],[85.8429,49.5476,1942.8306],[85.8981,49.5544,2052.0073],[85.9193,49.5543,1960.4692],[85.9313,49.5524,2028.8123],[85.9433,49.5425,2195.8135],[85.9436,49.5322,2043.3545],[85.93,49.5055,2060.4255],[85.9297,49.5009,2167.2676],[85.9351,49.4974,2287.7253],[85.9503,49.4948,2256.2432],[85.9723,49.4864,2232.1182],[85.9797,49.4862,2191.5229],[86.012,49.5053,2103.9258],[86.0339,49.5129,2134.7043],[86.0621,49.5181,2047.0411],[86.0847,49.5185,2391.4023],[86.1056,49.5168,2156.0906],[86.1147,49.5114,2074.8901],[86.1236,49.498,1818.6521],[86.1606,49.4622,2097.3818],[86.1693,49.4612,2132.6497],[86.1926,49.4716,2391.3567],[86.2043,49.4814,2193.489],[86.203,49.487,2080.4534],[86.1937,49.5005,1972.1012],[86.1918,49.5068,1898.1123],[86.1939,49.5138,1840.0544],[86.2017,49.5213,1842.8467],[86.2276,49.5389,1794.4304],[86.2354,49.5488,1829.8751],[86.2363,49.5551,1807.7068],[86.2325,49.577,1763.2783],[86.2387,49.583,1769.0526],[86.25,49.5878,1863.913],[86.2998,49.595,1978.0052],[86.3201,49.6033,1734.5173],[86.3598,49.6113,1668.7915],[86.3704,49.6161,1654.9983],[86.3777,49.6221,1626.9216],[86.4265,49.6387,1671.9259],[86.47,49.6758,2115.0071],[86.4703,49.6779,2105.6384],[86.4864,49.6924,1718.2487],[86.4984,49.699,2071.0576],[86.5321,49.711,2042.5499],[86.5422,49.717,2112.5002],[86.5628,49.7382,2230.7664],[86.5853,49.7415,2834.6804],[86.5963,49.7461,2731.9136],[86.6084,49.7556,2967.2783],[86.6236,49.7732,2602.3511],[86.6213,49.7809,2743.7314],[86.6082,49.7901,2966.373],[86.607,49.7961,3444.0449],[86.612,49.8015,3555.2173]]]]}}