{"type":"Feature","properties":{"GID_2":"RUS.60.25_1","GID_0":"RUS","country":"Russia","GID_1":"RUS.60_1","province":"Sakha","NL_NAME_1":"РеспубликаСаха","county":"Srednekolymskiyrayon","VARNAME_2":"NA","NL_NAME_2":"Среднеколымскийрайон","TYPE_2":"Raion","ENGTYPE_2":"District","CC_2":"R65002","HASC_2":"RU.SK.SR","name":"Srednekolymskiyrayon.county"},
"geometry":{"type": "MultiPolygon","coordinates": [[[[158.3844,68.024,66.4423],[158.3018,68.0855,85.7037],[158.2775,68.1433,54.9971],[158.3141,68.1948,82.2496],[158.3709,68.238,70.7684],[158.3851,68.268,78.2946],[158.3362,68.3048,71.2633],[158.2614,68.3559,78.9413],[158.2355,68.435,86.1607],[158.1312,68.5237,46.2754],[158.0429,68.5527,20.8544],[157.905,68.5673,8.907],[157.7126,68.5818,4.9515],[157.6059,68.6087,42.9662],[157.3469,68.611,76.0162],[157.1904,68.6102,59.3007],[157.0625,68.6286,52.6265],[156.9072,68.6688,46.9594],[156.7359,68.6398,56.0956],[156.561,68.6282,44.2071],[156.4917,68.6467,31.72],[156.5027,68.6907,49.6299],[156.4447,68.738,40.073],[156.3719,68.7482,45.2602],[156.2369,68.7226,32.7418],[156.1294,68.7332,34.8772],[156.0024,68.7325,28.9839],[155.8538,68.7244,37.9068],[155.7611,68.7141,32.6105],[155.6581,68.7489,24.5889],[155.6604,68.7905,22.6305],[155.7139,68.8211,34.2821],[155.7731,68.8473,37.8997],[155.767,68.8865,28.045],[155.687,68.9015,21.418],[155.534,68.8735,41.5662],[155.3553,68.8366,30.8529],[155.1873,68.8353,52.7222],[154.922,68.857,40.8775],[154.7509,68.8848,40.8868],[154.6758,68.9102,32.7735],[154.4297,68.858,27.2672],[154.2955,68.8442,18.1704],[154.2086,68.8516,13.8887],[154.1744,68.8916,13.9778],[154.1543,68.9479,12.0634],[154.0978,68.996,13.6253],[154.0251,69.0317,16.4693],[153.8556,69.0701,23.7789],[153.732,69.1006,21.4832],[153.7021,69.1319,27.9591],[153.6637,69.2076,37.681],[153.5976,69.2698,36.4455],[153.5144,69.2892,18.0381],[153.3825,69.2746,17.7004],[153.2485,69.2492,30.915],[153.1314,69.2552,30.1711],[153.0703,69.3134,15.178],[153.0372,69.3529,15.599],[152.9478,69.4108,24.5794],[152.7605,69.3987,25.1015],[152.5379,69.3722,21.0815],[152.4408,69.3751,17.5086],[152.3734,69.3935,16.0758],[152.305,69.4208,17.5341],[152.2116,69.47,16.2973],[152.1046,69.5064,19.1985],[151.9874,69.5565,24.2176],[151.9436,69.6187,28.3102],[152.0426,69.6596,45.381],[152.0873,69.6882,32.9882],[152.0094,69.7033,39.7074],[151.9418,69.7133,40.7889],[151.7736,69.7046,60.3087],[151.6196,69.7159,69.7746],[151.3386,69.8038,223.4355],[151.2069,69.8292,471.8436],[151.0905,69.8092,343.3011],[151.0046,69.7898,332.5479],[150.8344,69.7747,280.5932],[150.6746,69.7502,335.5742],[150.5219,69.7068,350.5929],[150.2619,69.6643,265.906],[150.0571,69.6074,405.3843],[149.8022,69.5667,522.2926],[149.44,69.5342,334.813],[149.1858,69.5219,355.5826],[149.2012,69.4796,394.9149],[149.1589,69.4441,318.2741],[149.1033,69.4172,327.7505],[149.0829,69.4007,229.8385],[149.143,69.3648,164.7393],[149.2449,69.3399,151.7229],[149.211,69.262,236.0144],[149.1709,69.2035,192.273],[149.0908,69.1635,108.6868],[148.9538,69.1609,199.8985],[148.862,69.1405,135.8119],[148.8087,69.1016,93.1694],[148.7776,69.0609,105.9115],[148.6516,69.0115,207.965],[148.5567,68.9774,272.8381],[148.5363,68.9349,75.5422],[148.6288,68.913,87.4559],[148.7532,68.906,112.0216],[148.8405,68.8937,109.4149],[148.8648,68.8438,93.5489],[148.8641,68.7742,81.1015],[148.9283,68.7219,72.014],[148.8795,68.6856,80.7291],[148.7318,68.6595,50.8263],[148.475,68.6468,44.0588],[148.2224,68.6477,72.6992],[148.0283,68.6434,89.9864],[147.832,68.6367,119.9451],[147.7855,68.5586,156.8793],[147.79,68.512,149.6836],[147.8396,68.4698,262.5793],[147.9151,68.4448,360.9728],[147.855,68.3972,316.5139],[147.8899,68.3564,233.0921],[147.8982,68.324,207.299],[147.8411,68.2873,252.3472],[147.8349,68.2512,182.221],[147.9209,68.2047,372.1852],[148.0325,68.1655,395.5881],[148.0536,68.1468,389.6441],[148.0109,68.1091,287.0587],[147.9879,68.0712,304.345],[148.0394,68.0439,228.6748],[148.1415,68.0324,206.9815],[148.2706,68.036,331.0068],[148.3766,67.986,119.3283],[148.4047,67.936,339.8599],[148.3883,67.8947,192.9875],[148.4754,67.848,339.2509],[148.4875,67.8032,347.7526],[148.3997,67.7601,260.6608],[148.2751,67.7399,312.9485],[148.1637,67.7095,494.2711],[148.0777,67.6671,488.1402],[148.0044,67.6433,610.417],[148.166,67.6382,500.6035],[148.3145,67.6227,461.4431],[148.437,67.6242,477.3002],[148.5865,67.6863,389.3755],[148.7598,67.7045,364.6289],[148.9058,67.6907,378.3394],[149.0439,67.614,347.3321],[149.0618,67.5656,319.3979],[149.109,67.5314,319.4356],[149.291,67.5096,207.8444],[149.3777,67.458,184.7495],[149.4914,67.4032,139.4504],[149.7017,67.3768,202.0051],[149.8831,67.3712,190.0364],[150.0547,67.3553,97.9803],[150.1128,67.3288,132.7991],[150.1779,67.2739,59.2722],[150.2178,67.2339,59.9116],[150.3621,67.195,53.2643],[150.5844,67.1514,45.517],[150.733,67.1128,45.7052],[150.7895,67.0563,40.3606],[150.9086,66.9819,35.7149],[151.14,66.9146,64.9166],[151.5548,66.797,58.2885],[151.6917,66.7519,56.3566],[151.8344,66.6803,50.1207],[151.9136,66.63,47.4787],[152.0437,66.5524,27.7945],[152.1822,66.494,176.1342],[152.3375,66.4441,130.6493],[152.497,66.3985,286.6873],[152.5739,66.3415,506.1992],[152.6196,66.2837,529.6299],[152.6314,66.2522,344.621],[152.7542,66.2498,369.5318],[152.9454,66.251,145.373],[153.058,66.2331,125.9916],[153.1414,66.201,124.0601],[153.1604,66.1649,126.553],[153.2641,66.1191,159.3096],[153.4193,66.0925,226.0828],[153.5541,66.0623,366.5783],[153.6183,66.006,481.5429],[153.6676,65.9439,495.5763],[153.7219,65.9071,417.834],[153.7748,65.8682,603.5908],[153.8602,65.8694,676.5622],[153.957,65.8606,501.8148],[154.088,65.8742,656.3727],[154.1423,65.8475,575.5007],[154.1221,65.7914,668.098],[154.2506,65.794,575.6915],[154.3498,65.8419,523.5449],[154.4319,65.9064,536.2126],[154.4105,65.9484,936.0225],[154.4414,65.9803,939.6115],[154.3952,66.0118,817.084],[154.3116,66.0282,625.9437],[154.2838,66.0728,827.981],[154.3745,66.093,720.3492],[154.458,66.1173,731.5638],[154.4626,66.1644,596.4544],[154.5548,66.1798,750.9302],[154.6178,66.2035,872.6072],[154.7078,66.1926,463.9585],[154.7711,66.1632,481.6477],[154.8754,66.1603,510.7744],[154.9197,66.1084,675.7053],[155.0537,66.1231,641.5026],[155.1226,66.1752,553.4371],[155.235,66.185,673.2101],[155.2961,66.1371,720.6965],[155.4309,66.1354,847.0913],[155.5192,66.1512,690.0829],[155.7338,66.1242,475.3543],[155.9059,66.1692,399.3238],[155.9579,66.1011,511.0543],[156.0534,66.0836,487.2262],[156.0902,66.0577,565.8629],[156.2113,66.0667,677.8256],[156.3226,66.0623,694.5239],[156.4229,66.0412,703.6747],[156.5256,66.0689,486.7309],[156.5477,66.1257,424.1204],[156.6166,66.1589,456.5069],[156.6868,66.1904,545.9456],[156.7308,66.1831,533.6984],[156.7647,66.1027,532.5237],[157.0154,66.0362,493.2681],[157.0269,65.9942,667.6999],[156.9491,65.9662,712.2538],[157.1351,65.9057,637.4823],[157.2522,65.8959,682.5165],[157.4411,65.8991,693.833],[157.4858,65.9237,552.2418],[157.4639,65.9627,708.4215],[157.4887,65.9802,473.5731],[157.5481,65.9893,448.6143],[157.6091,66.0118,453.1602],[157.6701,66.049,368.7161],[157.7247,66.0887,418.5438],[157.8021,66.0954,494.9088],[157.9195,66.0994,416.6776],[158.0248,66.1242,423.8297],[158.1465,66.1413,420.1855],[158.2839,66.1268,473.8868],[158.3557,66.0725,342.6857],[158.4353,66.0849,525.983],[158.5577,66.0731,403.2389],[158.6169,66.0996,509.985],[158.4587,66.2243,331.9386],[158.487,66.26,366.189],[158.5754,66.3175,420.7224],[158.496,66.3599,494.3034],[158.4982,66.3842,403.2107],[158.456,66.426,495.5153],[158.575,66.4594,520.4689],[158.6126,66.5244,324.2857],[158.6846,66.5783,369.1854],[158.7884,66.6278,283.7454],[158.7785,66.6767,365.6547],[158.8444,66.7297,448.9199],[158.9966,66.7639,445.1129],[158.9762,66.7984,324.2272],[158.8171,66.878,478.0057],[158.8314,66.9161,339.0389],[158.8595,66.9705,269.2098],[158.8251,67.0324,262.557],[158.665,67.0683,397.1821],[158.5216,67.0919,413.7739],[158.3474,67.1028,591.5999],[158.285,67.1477,621.6122],[158.2075,67.162,412.091],[158.1546,67.2039,747.1468],[157.9698,67.2269,298.0723],[157.9402,67.2554,437.673],[157.9573,67.3028,270.1368],[157.9683,67.3709,247.0995],[157.8513,67.4528,289.2339],[157.8305,67.5441,193.4529],[157.8715,67.6032,243.6628],[157.882,67.6797,236.9794],[158.043,67.6944,224.2295],[158.1691,67.6862,282.5328],[158.3071,67.7092,191.8681],[158.3614,67.7449,239.7099],[158.352,67.7644,193.2564],[158.2256,67.7897,162.9043],[158.1702,67.8416,161.9115],[158.2582,67.8816,118.5229],[158.3189,67.9145,98.02],[158.3237,67.9623,53.3715],[158.3844,68.024,66.4423]]]]}}