{"type":"Feature","properties":{"GID_2":"RUS.51.28_1","GID_0":"RUS","country":"Russia","GID_1":"RUS.51_1","province":"Omsk","NL_NAME_1":"Омскаяобласть","county":"Sedel'nikovskiyrayon","VARNAME_2":"NA","NL_NAME_2":"Седельниковскийрайон","TYPE_2":"Raion","ENGTYPE_2":"District","CC_2":"R56002","HASC_2":"RU.OM.SE","name":"Sedel'nikovskiyrayon.county"},
"geometry":{"type": "MultiPolygon","coordinates": [[[[76.1044,57.2295,139.5626],[76.0035,57.3482,149.442],[75.956,57.3873,134.7955],[75.9068,57.3745,147.8863],[75.8463,57.3701,136.0186],[75.8216,57.4722,137.9783],[75.7886,57.5027,138.0975],[75.7169,57.4296,136.075],[75.7146,57.4019,135.2896],[75.6787,57.3859,137.8231],[75.6664,57.3571,150.1801],[75.6851,57.3307,143.8078],[75.6779,57.3049,143.7313],[75.6283,57.2929,134.216],[75.4993,57.2801,138.826],[75.4875,57.2407,135.0305],[75.4503,57.2369,137.9322],[75.3753,57.2731,138.7547],[75.3236,57.2741,135.752],[75.2242,57.2555,134.4471],[75.1497,57.278,136.6684],[75.0345,57.2462,140.0762],[74.9706,57.224,140.4078],[74.9929,57.1935,116.704],[75.0486,57.1769,128.7865],[75.0757,57.1621,142.2846],[75.082,57.1409,139.0488],[75.0659,57.1181,141.6608],[75.0025,57.0979,139.6725],[74.966,57.0833,140.4012],[74.9191,57.0979,127.6091],[74.878,57.0921,131.9638],[74.8176,57.0656,71.424],[74.7851,57.0382,92.513],[74.7874,57.0103,102.706],[74.8165,56.9853,110.4708],[74.8405,56.9698,114.8483],[74.9139,56.9659,107.8112],[74.9585,56.9617,108.8786],[74.8882,56.9341,123.295],[74.8681,56.9171,127.0071],[74.8885,56.899,128.2656],[74.9265,56.8915,126.8982],[74.9309,56.8582,143.9014],[74.8466,56.85,147.5847],[74.85,56.7834,155.9121],[74.9198,56.7593,138.0094],[74.9616,56.7213,147.9255],[74.9694,56.6782,150.5718],[75.0312,56.6845,151.9097],[75.1113,56.7053,144.7275],[75.1584,56.7221,146.0872],[75.1874,56.7117,145.8422],[75.2153,56.6903,144.0269],[75.3676,56.6901,148.7966],[75.4594,56.6918,143.0778],[75.5001,56.6798,142.2635],[75.5329,56.6662,142.9487],[75.7398,56.6692,137.0395],[75.9275,56.6611,144.6733],[76.033,56.6632,133.7883],[76.1696,56.6405,142.6088],[76.2406,56.6878,134.0451],[76.2443,56.7398,133.2955],[76.2328,56.7956,132.5198],[76.2455,56.8582,137.1073],[76.2405,56.9125,121.9247],[76.2145,56.9373,130.2911],[76.1732,56.9581,131.9817],[76.179,57.0436,129.7795],[76.1506,57.1369,133.8891],[76.1044,57.2295,139.5626]]]]}}