{"type":"Feature","properties":{"GID_3":"RUS.2.49.1_1","GID_0":"RUS","country":"Russia","GID_1":"RUS.2_1","province":"Altay","NL_NAME_1":"Алтайскийкрай","GID_2":"RUS.2.49_1","county":"Sovetskiyrayon","NL_NAME_2":"Советскийрайон","city":"NA","VARNAME_3":"NA","NL_NAME_3":"NA","TYPE_3":"NA","ENGTYPE_3":"NA","CC_3":"NA","HASC_3":"NA","name":"N_A.city"},
"geometry":{"type": "MultiPolygon","coordinates": [[[[85.7844,52.0384,368.7087],[85.8055,52.0477,408.7713],[85.8977,52.0625,268.2852],[85.8728,52.1094,274.5578],[85.8539,52.1525,266.8746],[85.8268,52.201,249.2459],[85.8121,52.241,239.7552],[85.7876,52.3408,213.2413],[85.7388,52.3688,212.1429],[85.5627,52.3866,196.4926],[85.516,52.3878,192.0736],[85.4709,52.393,188.257],[85.4259,52.4186,184.4321],[85.3874,52.4469,180.2719],[85.3719,52.4718,188.0489],[85.3346,52.4928,192.8913],[85.272,52.4825,212.0726],[85.2199,52.469,212.1894],[85.1534,52.4572,165.6949],[85.1136,52.4444,166.5412],[85.1499,52.4381,162.0],[85.1751,52.4165,169.025],[85.196,52.3821,170.1781],[85.2047,52.3554,188.105],[85.2635,52.3504,177.3952],[85.3004,52.3386,204.1404],[85.3308,52.3195,203.5974],[85.3323,52.2871,203.5277],[85.3149,52.268,213.4596],[85.2849,52.2742,212.7117],[85.258,52.2882,196.3655],[85.1938,52.2832,187.8721],[85.1801,52.2627,194.6217],[85.1769,52.2269,197.9448],[85.1794,52.1965,224.2478],[85.1315,52.1574,254.8993],[85.1084,52.1216,273.3894],[85.1171,52.0874,281.029],[85.1686,52.0852,251.5292],[85.2017,52.0906,237.4704],[85.2478,52.1183,215.9788],[85.2813,52.1266,285.1659],[85.3502,52.1229,232.3926],[85.3864,52.1166,239.9943],[85.4172,52.1161,221.7125],[85.4576,52.1346,218.0441],[85.5284,52.1096,294.9922],[85.5654,52.0643,358.7552],[85.598,52.01,461.9745],[85.671,52.0067,422.1913],[85.733,52.0288,535.9167],[85.7844,52.0384,368.7087]]]]}}