{"type":"Feature","properties":{"featurecla":"Plateau","name":"Aldan Upland","namealt":null,"region":"Asia","subregion":null,"min_label":5.0,"max_label":8.0,"scalerank":3},
"geometry":{"type": "Polygon","coordinates": [[[129.78385037005827,56.7696954184681,1179.2407],[130.02236903761994,56.77502123703897,1116.4918],[130.55042565195876,56.841742254681606,1356.5551],[131.5810653003962,57.192206121869106,1092.9603],[131.9067488941462,57.246405340619134,966.1238],[131.9243270191462,57.266730047650384,904.3091],[131.8899031910212,57.299322821087856,812.6295],[130.9433699878962,57.7829653992128,862.2613],[130.89771569102126,57.830511785931606,578.2995],[130.86939537852126,57.888128973431606,643.1373],[130.86414635508376,57.982306219525327,860.8993],[130.90040123789626,58.053168035931577,849.9995],[131.10670006602126,58.205755926556577,695.1188],[131.1574813160212,58.263128973431634,449.0022],[131.1740828785212,58.336981512494077,232.0713],[131.1413680347712,58.435370184369049,210.1548],[131.0535994800837,58.549689032025356,341.4976],[130.94483483164626,58.624884344525327,533.9393],[130.8204451832087,58.669562078900356,207.4165],[130.1467391285212,58.737005926556634,208.5976],[130.1163436207087,58.747381903119106,216.1562],[129.95301354258376,58.843756414837827,222.7126],[129.89332115977126,58.863470770306549,333.4708],[129.6930037769587,58.877264715619106,318.4159],[129.1777449878962,59.041815496869049,514.3577],[128.5825301441462,59.089300848431549,508.8417],[128.23145592539626,59.058172918744106,491.2931],[127.26356041758376,58.701910711712884,347.6064],[126.9240828785212,58.332464910931549,987.8997],[126.81202233164626,58.251532293744077,944.6188],[126.76966393320876,58.210394598431549,1029.8259],[126.6639510425837,57.998480535931634,1152.8458],[126.5676375660212,57.640631414837856,1153.6067],[126.5676375660212,57.577032782025356,682.0618],[126.59925377695876,57.506415106244077,839.2145],[126.6668807300837,57.456854559369106,843.1089],[126.7607528003962,57.423346258587827,1488.0812],[127.2115584644587,57.350897528119106,636.1703],[128.2522078785212,56.889593817181577,1014.6578],[128.5058699878962,56.825628973431606,1112.8318],[129.78385037005827,56.7696954184681,1179.2407]]]}}