{"type":"Feature","properties":{"featurecla":"Range/mtn","name":"CHERSKIY RANGE","namealt":null,"region":"Asia","subregion":null,"min_label":4.7,"max_label":9.0,"scalerank":4},
"geometry":{"type": "Polygon","coordinates": [[[146.7282820972712,64.083319403119049,1160.7662],[146.91260826914626,64.125067449994134,1185.0564],[146.9990340503962,64.219855047650356,1248.0376],[147.0229598316462,64.365423895306549,1308.584],[147.0199080738337,64.5595767273378,1405.5022],[146.86585533945876,64.992315985150356,686.4064],[146.4995223316462,65.3151309265566,570.801],[146.03357994883376,65.537787176556577,1062.1597],[145.5808211597712,65.670294500775356,918.9474],[144.55091393320876,65.8971011414003,420.2048],[144.23914635508376,66.0017764343691,602.3972],[143.92530358164626,66.088324285931549,285.4223],[143.2845565113337,66.1596133484316,243.3357],[142.9824324878962,66.226263739056577,449.6217],[142.9035750660212,66.248724676556549,302.7322],[142.6659041675837,66.2969424499941,338.6101],[142.5264998707087,66.338202215619077,310.2053],[140.4605819019587,67.1113345398378,527.3426],[140.18995201914626,67.253119207806634,731.0968],[140.0144149097712,67.380438543744134,558.9388],[139.6796981128962,67.6937320007753,306.7563],[138.51246178477126,68.586554266400384,806.918],[138.3115340503962,68.697577215619049,848.1255],[138.0610457691462,68.7648989929628,579.5341],[137.68018639414626,68.820013739056634,616.7468],[137.4409285816462,68.833929754681634,608.8748],[137.3166610035212,68.832709051556549,511.8681],[137.2038680347712,68.8207461609316,640.0643],[136.96827233164626,68.6673037781191,435.6726],[136.93592369883376,68.3970401062441,402.3044],[137.03052819102126,68.098700262494077,523.3316],[137.1755477222712,67.861090399212884,412.6642],[137.20142662852126,67.833929754681549,325.8112],[137.2981063160212,67.756048895306577,404.539],[137.32837975352126,67.729315496869049,330.1596],[137.37501061289626,67.674261785931634,491.7657],[137.45167076914626,67.555792547650356,593.8447],[137.4929305347712,67.5015322937441,536.5438],[137.82874596445876,67.1527774109316,399.21],[138.0090438160212,66.995245672650384,770.545],[138.2048445972712,66.850531317181577,525.3927],[139.2171736988337,66.2480532898378,783.5989],[139.6182967457087,66.056524969525356,1208.1957],[141.02393639414626,65.6452090515566,1272.8877],[141.30079186289626,65.5928408874941,1123.519],[141.35657799570876,65.5736148132753,1221.7554],[141.4723006519587,65.516852117962856,1519.6544],[141.53541100352126,65.492254949994134,1840.7736],[142.17054283945876,65.335028387494077,1471.943],[142.55420983164626,65.2018496765566,988.1111],[144.4730330738337,64.7427432312441,820.6047],[144.5991317066462,64.728583074994049,799.2956],[144.86085045664626,64.7147891296816,1017.7925],[144.9835311207087,64.6925723328066,1259.7589],[145.0691024097712,64.660223699994077,1249.7561],[145.24097740977126,64.569891668744049,1201.0299],[145.9675399097712,64.255499578900356,968.4429],[146.0608016285212,64.2244326843691,1119.6437],[146.33448326914626,64.1655337585878,1256.2877],[146.3751326832087,64.146551824994049,1103.9329],[146.4148055347712,64.121344305462856,1233.8988],[146.4602156910212,64.097357489056577,1348.4905],[146.5185653003962,64.081915594525327,1333.0745],[146.56934655039626,64.078192449994077,1332.7045],[146.7282820972712,64.083319403119049,1160.7662]]]}}