{"type":"Feature","properties":{"featurecla":"Lowland","name":"KOLYMA LOWLAND","namealt":null,"region":"Asia","subregion":null,"min_label":4.7,"max_label":9.0,"scalerank":4},
"geometry":{"type": "Polygon","coordinates": [[[159.58607018320876,70.380072332806577,5.5949],[159.5587264332087,70.474859930462827,3.2795],[159.51929772227126,70.563177801556577,1.7554],[159.46485436289626,70.6361148132753,2.1532],[159.38672936289626,70.696478582806549,4.3585],[159.2945662769587,70.7446963562441,0.5],[159.1970320972712,70.7830264343691,1.9575],[159.1032820972712,70.813849188275356,3.9279],[158.90467369883376,70.865668035931549,2.2122],[157.87134850352126,70.991278387494077,15.4558],[156.27088463633376,71.0603701843691,4.6172],[156.1010848316462,71.053229071087884,10.8344],[155.9433699878962,71.0210635437441,15.4208],[155.8343611988337,70.9783389343691,16.2572],[155.1611434253962,70.6151187195253,10.4193],[154.69837487070876,70.449713446087856,12.0186],[154.57068932383376,70.3587710632753,4.933],[154.47999108164626,70.203802801556549,4.6725],[154.3986922535212,70.032904364056549,26.7846],[154.28943932383376,69.901434637494077,44.0944],[154.1545516285212,69.806280828900356,54.6537],[153.9959822925837,69.744452215619077,42.0377],[153.9456893238337,69.732184149212856,30.7113],[153.8398543628962,69.715155340619049,25.0297],[153.7844344410212,69.7101504578066,42.7801],[153.65088951914626,69.7144839539003,56.9813],[153.60804283945876,69.7101504578066,52.1623],[153.5138045582087,69.6861636414003,40.6989],[153.46729576914626,69.677740789837884,65.218],[152.3609725269587,69.673285223431549,22.0493],[151.83716881602126,69.638373114056549,38.5417],[151.32313073008376,69.5570742859316,54.1399],[150.06934655039626,69.231268621869077,47.8059],[149.8864852222712,69.1438662781191,65.0305],[149.7795516285212,69.0221621765566,62.3389],[149.7718611988337,68.936773992962827,36.5],[149.79957115977126,68.859869696087884,29.8117],[149.88709557383376,68.717962957806634,81.8745],[149.9715682300837,68.546454168744077,57.7639],[150.02186119883376,68.472235418744077,140.6413],[150.0944930347712,68.3995425476503,53.5066],[150.15967858164626,68.353216864056577,43.6364],[150.2108260425837,68.3223941101503,50.0786],[150.25342858164626,68.284186102337827,43.2832],[150.29297936289626,68.215765692181634,46.5816],[150.3293563160212,68.075384832806634,49.0192],[150.3298445972712,67.930792547650356,122.2688],[150.2920028003962,67.6287905945253,117.7714],[150.2935897144587,67.5419986023378,114.5043],[150.31226647227126,67.455023504681549,98.9156],[150.3447371753962,67.371893621869077,98.6417],[150.3879500660212,67.2965762390566,224.2561],[150.44642174570876,67.2294375671816,122.6013],[150.5095320972712,67.187079168744077,51.1417],[151.2855330738337,66.823736883587827,43.9851],[151.3852645191462,66.7926089539003,48.8181],[151.4886580738337,66.772406317181577,54.5289],[151.5981551441462,66.763983465619134,56.2514],[151.79151451914626,66.764654852337884,53.0],[151.88648522227126,66.775336004681634,53.0521],[151.98145592539626,66.7991397156191,52.0376],[152.18592369883376,66.8846499695253,60.2668],[152.57789147227126,67.075506903119077,18.6101],[152.79151451914626,67.1397158874941,73.8726],[152.9921981128962,67.166205145306577,25.2698],[153.60364830820876,67.1701724304628,11.0],[153.7771102222712,67.1863467468691,45.7936],[154.1145125660212,67.273260809369049,137.7431],[154.8835555347712,67.426703192181549,79.3271],[155.1761580738337,67.504950262494077,20.0012],[155.6027938160212,67.660589910931577,14.2049],[156.03956139414626,67.7512881531191,17.7779],[156.57618248789626,67.8942935242128,32.3698],[157.0732528003962,67.971869207806577,60.4792],[157.2233992847712,68.015692449994049,51.0877],[157.2879744800837,68.051153875775384,-0.2984],[157.48170006602126,68.200628973431577,11.6339],[157.7334090503962,68.347967840619049,11.0441],[158.5503035816462,68.736761785931549,8.3581],[158.83790123789626,68.841864324994049,5.4057],[159.13611901133376,68.909979559369077,10.1234],[159.3359481128962,68.927618719525327,16.6244],[159.4298201832087,68.9507510437441,21.0896],[159.51490319102126,69.0034854187441,17.9453],[159.59083092539626,69.094855047650384,18.3753],[159.64966881602126,69.2070986999941,12.7232],[159.6900740894587,69.327948309369049,14.1049],[159.71119225352126,69.4451358093691,12.5675],[159.7109481128962,69.556769110150327,0.9852],[159.58607018320876,70.380072332806577,5.5949]]]}}