{"type":"Feature","properties":{"featurecla":"Delta","name":"Lena Delta","namealt":null,"region":"Asia","subregion":null,"min_label":5.3,"max_label":9.0,"scalerank":4},
"geometry":{"type": "Polygon","coordinates": [[[124.0638533863337,73.715521551556549,0.0],[124.0695906910212,73.742499090619134,0.0],[124.06104576914626,73.766241766400384,7.9309],[124.0412703785212,73.786017157025327,0.0],[124.01392662852126,73.801520086712884,0.0],[123.9821883472712,73.812140203900327,0.0],[123.94947350352126,73.8173281921816,0.0],[123.91932213633376,73.816595770306634,0.0],[123.89490807383376,73.809393621869077,0.0],[123.86390221445876,73.787482000775356,0.0],[123.84913170664626,73.763861395306634,3.6922],[123.84693444102126,73.7388369812441,0.0],[123.8545028003962,73.712958074994077,1.7806],[123.9130965503962,73.6085269226503,0.0],[123.6872664722712,73.5884463562441,0.8544],[123.6571151050837,73.5914981140566,10.8348],[123.63685143320876,73.5997988953066,10.1774],[123.6244002613337,73.6132876648378,0.0],[123.61768639414626,73.6320254578066,8.2492],[123.6118270191462,73.719916082806549,0.0],[123.45850670664626,73.722845770306634,0.0],[123.4181014332087,73.7148501648378,0.0],[123.40137780039626,73.705145574994077,0.0],[123.38697350352126,73.691412664837827,0.0],[123.32325280039626,73.6045596374941,4.2954],[123.3068953785212,73.591803289837856,0.0],[123.28357994883376,73.579840399212827,0.0],[123.24183190195876,73.5692202820253,0.0],[123.23487389414626,73.564764715619077,0.0],[123.2302352222712,73.555121160931549,0.0],[123.22486412852126,73.509161688275327,0.0],[123.2307235035212,73.444220282025327,0.0],[123.2298690113337,73.430548407025384,0.0],[123.22523033945876,73.416083074994077,0.0],[123.2154647144587,73.399847723431549,0.0],[123.1993514332087,73.3809268249941,0.0],[123.4633895191462,73.242071844525356,0.0],[123.4817000660212,73.220404364056577,0.0],[123.4870711597712,73.210821844525384,0.0],[123.4892684253962,73.201605535931577,0.0],[123.49158776133376,73.175482489056577,0.737],[123.49512780039626,73.1669375671816,0.5396],[123.50208580820876,73.1581485046816,6.424],[123.51392662852126,73.149298407025356,0.5858],[123.34205162852126,73.1398379578066,0.0],[123.32252037852126,73.1302554382753,0.0],[123.3127547535212,73.114386297650356,0.0],[123.31421959727126,73.0966861023378,0.0],[123.3227645191462,73.079718328900327,0.0],[123.34522545664626,73.048407293744134,0.0],[123.35084069102126,73.0343692078066,0.0],[123.3474227222712,73.021551824994077,0.0],[123.3305770191462,73.010199285931577,0.0],[123.29639733164626,73.000250555462884,0.0],[123.3444930347712,72.952521063275327,0.0],[123.4016219410212,72.912054754681549,1.7076],[123.53565514414626,72.851568914837884,0.0911],[125.01612389414626,72.633124090619077,15.3169],[125.38587487070876,72.488287664837856,11.2311],[125.5094100269587,72.461859442181577,8.0955],[125.56031334727126,72.414618231244049,6.131],[125.6254988941462,72.379828192181577,2.4732],[125.78223717539626,72.340643621869077,11.0408],[126.6020613941462,72.374945379681549,0.0],[126.61011803477126,72.462103582806549,0.0],[126.62134850352126,72.4933535828066,0.0],[126.6377059253962,72.516546942181634,3.531],[126.6605330738337,72.531744696087827,5.2526],[126.68995201914626,72.539007879681577,5.0239],[126.72693932383376,72.538336492962827,6.1102],[126.9088240894587,72.507635809369077,4.819],[127.6953231128962,72.4885928406191,0.0],[127.7472029957087,72.469549871869049,21.8433],[127.82899010508376,72.414984442181634,3.0543],[128.2334090503962,72.267157293744134,5.7213],[128.2363387378962,72.268744207806577,5.8487],[128.7207137378962,72.0996157898378,3.023],[129.1419783863337,72.052435614056577,1.443],[129.54017174570876,72.0656192078066,0.0],[129.5709334644587,72.077704168744077,0.0],[129.5949813160212,72.096869207806577,0.0],[129.61036217539626,72.1245181335878,0.0],[129.61744225352126,72.162787176556577,0.0],[129.6146346363337,72.198919989056577,0.0],[129.60377037852126,72.232977606244077,0.0],[129.58643639414626,72.265021063275327,0.0],[129.4881697925837,72.373785711712884,0.155],[129.37806237070876,72.462897039837827,0.0],[129.2487899097712,72.531012274212856,0.0],[129.1677352222712,72.548041082806549,0.6748],[128.90626061289626,72.5651919617128,0.0],[128.94068444102126,72.5765445007753,1.8899],[129.26124108164626,72.590704657025327,0.0],[129.28650963633376,72.598150946087856,0.0],[129.3127547535212,72.612250067181577,0.6988],[129.3398543628962,72.632757879681577,0.5499],[129.3747664722712,72.674994207806577,0.9086],[129.38538658945876,72.683233953900356,0.0],[129.3986922535212,72.689276434369049,0.0],[129.4156600269587,72.692633367962827,0.0],[129.41211998789626,72.710699774212856,0.4917],[129.4052840503962,72.726385809369077,0.0],[129.3952742847712,72.739813543744049,0.5375],[129.3827010425837,72.750738836712856,0.0],[129.36793053477126,72.7592837585878,0.0],[129.3513289722712,72.7653872742128,1.6837],[129.3149520191462,72.770392157025356,1.7352],[129.32911217539626,72.769171453900384,1.3472],[129.37110436289626,72.773749090619134,1.016],[129.35792076914626,72.8216006531191,0.9876],[129.3110457691462,72.855902410931577,1.4499],[128.8515731128962,72.9380557312441,0.0],[128.8759871753962,72.965399481244077,0.869],[128.90284264414626,72.980536199994077,-0.7492],[128.9314070972712,72.987005926556549,1.5615],[129.0225936207087,72.987982489056577,1.5907],[129.0525008472712,72.993597723431549,1.5931],[129.08118737070876,73.007513739056549,0.0],[129.10596764414626,73.0330264343691,0.8715],[129.11609948008376,73.0626895203066,0.4884],[129.11390221445876,73.094732977337856,0.9505],[129.1021834644587,73.127508856244077,0.0],[129.08326256602126,73.159125067181634,0.0],[129.0339461597712,73.211981512494049,0.0],[129.00867760508376,73.2296817078066,0.0],[128.9370223316462,73.259833074994134,0.0],[128.8581649097712,73.2758853210878,0.0],[128.35254967539626,73.3011538757753,0.9619],[128.3719588550837,73.341986395306577,0.7837],[128.35352623789626,73.368231512494077,0.0],[128.30738365977126,73.383246160931634,0.0],[128.05884850352126,73.399054266400356,0.3864],[128.03309166758376,73.408758856244077,0.0],[128.02295983164626,73.431708074994049,0.5628],[128.02308190195876,73.453497625775356,0.5734],[128.04053795664626,73.5142886414003,0.0],[128.0376082691462,73.533819891400356,0.0],[128.02308190195876,73.553290106244134,0.0],[127.9926863941462,73.573065496869077,0.0],[127.96253502695876,73.584662176556634,0.0],[127.8929549488337,73.5958316101503,0.0],[126.8667098316462,73.561651922650356,0.0],[126.8366805347712,73.551214910931577,0.0],[126.8239852222712,73.539435125775356,0.0],[126.82496178477126,73.525763250775327,0.0],[126.88648522227126,73.440314032025327,1.7824],[126.86683190195876,73.421148992962827,0.0],[126.84717858164626,73.410711981244134,0.0],[126.8275252613337,73.4071719421816,0.0],[126.8077498707087,73.408697821087856,0.96],[126.73304283945876,73.4284732117128,0.0],[126.69031823008376,73.429632879681577,0.0],[126.64966881602126,73.424261785931549,0.7481],[126.6108504566462,73.410834051556577,1.2152],[126.57435143320876,73.387762762494077,2.3849],[126.5968123707087,73.3660952820253,2.4146],[126.6120711597712,73.3417422546816,0.1091],[126.6193953785212,73.316107489056634,0.0],[126.61915123789626,73.290350653119134,2.4388],[126.61133873789626,73.265753485150384,0.0],[126.5955916675837,73.243658758587827,0.0],[126.5720320972712,73.2252871765566,3.6948],[126.54078209727126,73.211981512494049,1.3376999999999999],[126.52991783945876,73.237189032025327,1.7584],[126.51990807383376,73.343207098431549,2.4621],[126.51368248789626,73.367132879681634,0.0],[126.5012313160212,73.3883731140566,0.0],[126.4798690113337,73.406256414837827,0.0],[126.46717369883376,73.410834051556577,0.0],[126.45399010508376,73.4110781921816,0.0],[126.41431725352126,73.405218817181577,0.0],[126.40259850352126,73.407416082806577,0.0],[126.3922225269587,73.414862371869077,-0.104],[126.3836776050837,73.429571844525356,4.6354],[126.38257897227126,73.438360907025384,6.4227],[126.3848983082087,73.448309637494049,1.6634],[126.39686119883376,73.469549871869134,2.9981],[126.42603600352126,73.502936102337884,3.6209],[126.3989363941462,73.5217959656191,0.0],[126.3718367847712,73.534247137494077,0.0],[126.34461510508376,73.541266180462884,0.0],[126.0479842457087,73.536932684369077,0.0],[126.03077233164626,73.529486395306577,0.0],[126.01929772227126,73.5200259460878,0.0],[125.98975670664626,73.467291571087827,6.6861],[125.9791365894587,73.455572821087827,1.1107],[125.96436608164626,73.446478582806634,0.308],[125.9441024097712,73.4411074890566,4.7181],[125.9353133472712,73.4960391296816,5.4973],[125.9161483082087,73.5261904968691,0.0],[125.88856041758376,73.536444403119077,0.0],[125.8543807300837,73.531683660931577,0.0],[125.5835067066462,73.426520086712856,0.0],[125.5605574878962,73.425604559369049,0.0],[125.5409041675837,73.4302432312441,1.0583],[125.5261336597712,73.442084051556634,7.6988],[125.5183211597712,73.459784246869077,5.6716],[125.52149498789626,73.4755313171816,8.9349],[125.53284752695876,73.489813543744077,7.5288],[125.60425865977126,73.5418154968691,0.0],[125.6145125660212,73.556097723431577,0.0],[125.5700789722712,73.573492742962856,0.0],[125.5178328785212,73.582159735150356,0.0],[125.17359459727126,73.565130926556549,11.9548],[125.2009383472712,73.597418524212856,0.0],[125.20667565195876,73.630682684369077,7.4195],[125.1952010425837,73.661078192181577,0.0],[125.1711531910212,73.6848208679628,0.0],[125.13904869883376,73.698004461712827,0.0],[125.1032820972712,73.696844793744077,0.0],[125.0683699878962,73.677496649212827,0.0],[125.03882897227126,73.636114813275327,0.0],[124.9627791675837,73.637945867962856,18.7615],[124.9379988941462,73.6438052429628,1.4537],[124.9179793628962,73.6530215515566,2.0108],[124.80250084727126,73.738226629681549,0.0],[124.74537194102126,73.757757879681634,0.0],[124.3580428394587,73.8100039734316,0.0],[124.32691490977126,73.802740789837856,0.0],[124.31605065195876,73.797369696087827,0.0],[124.3067733082087,73.790167547650356,0.0],[124.26685631602126,73.7449404968691,0.0],[124.25721276133376,73.737738348431549,5.4634],[124.23572838633376,73.726752020306634,0.0],[124.21314537852126,73.719183660931577,0.0],[124.1650496753962,73.711981512494134,0.0],[124.0638533863337,73.715521551556549,0.0]]]}}