{"type":"Feature","properties":{"featurecla":"Range/mtn","name":"VERKHOYANSK RANGE","namealt":null,"region":"Asia","subregion":null,"min_label":4.0,"max_label":8.0,"scalerank":3},
"geometry":{"type": "Polygon","coordinates": [[[139.21253502695876,62.724859930462856,1546.5566],[139.31885826914626,62.774481512494134,1486.6759],[139.41346276133376,62.884283758587827,2076.1768],[139.4648543628962,62.981329657025384,1501.5386],[139.5023299488337,63.086493231244106,1452.8149],[139.5208846363337,63.196234442181577,1857.3375],[139.5149031910212,63.307257391400327,1782.9255],[139.4216414722712,63.540228582806577,1816.382],[139.25440514414626,63.719794012494077,1337.2278],[139.0406600269587,63.853399969525327,1491.9493],[138.80787194102126,63.948492742962827,1370.8219],[138.66846764414626,63.986395574994106,1047.6395],[138.3740340503962,64.042792059369049,1059.413],[137.33265221445876,64.3132388367128,870.2421],[135.8728133472712,64.569159246869077,995.7751],[134.74915612070876,64.667975164837856,1210.1942],[131.6823836597712,65.2432315124941,893.7598],[131.5893660816462,65.272528387494134,923.7106],[131.4983016285212,65.309576727337827,768.8575],[130.8619490894587,65.6621768249941,1017.5068],[130.70118248789626,65.789862371869077,692.1645],[130.4403182300837,66.1126162781191,1072.9541],[130.2509871753962,66.489020086712856,776.2756],[130.11475670664626,66.898443914837856,763.4213],[130.01319420664626,67.320013739056577,900.2644],[129.9951278003962,67.576666571087827,782.8934],[130.0426131519587,67.812018133587827,576.8013],[130.1314803394587,68.038824774212856,891.2177],[130.2380477222712,68.269842840619049,864.8541],[130.3186141285212,68.506537176556634,711.72],[130.3584090503962,68.747381903119077,777.0131],[130.37940514414626,69.3993594421816,381.3022],[130.3718367847712,69.561529852337827,772.5577],[130.34449303477126,69.7201602234316,689.3511],[130.2868758472712,69.866034246869077,525.1499],[130.18189537852126,69.9913394226503,722.0165],[130.0439559253962,70.088446356244077,855.5696],[129.89466393320876,70.1762149109316,649.1757],[129.54371178477126,70.423895574994134,215.1525],[129.3015242847712,70.5397403015566,512.3077],[129.04322350352126,70.607611395306577,323.5974],[128.7837020191462,70.614142157025356,625.2906],[128.28541100352126,70.560797430462827,456.0264],[128.03736412852126,70.509833074994049,377.5762],[127.80640709727126,70.421332098431549,283.0443],[127.63550865977126,70.317145086712827,159.5412],[127.4804793628962,70.192572332806577,237.4135],[127.3388778003962,70.0514590515566,315.0112],[127.20862877695876,69.897528387494077,439.6161],[127.02857506602126,69.6303164734316,430.0622],[126.8835555347712,69.344244696087884,605.2064],[126.4812117847712,68.216559149212827,782.4319],[126.40992272227126,67.949835516400327,520.0646],[126.3552352222712,67.6798159851503,788.627],[126.29871666758376,67.1531436218691,268.6774],[126.30665123789626,66.5999209656191,939.9886],[126.39600670664626,66.057867742962856,142.9877],[126.58436119883376,65.564764715619049,813.9709],[126.74878990977126,65.2981631531191,469.7704],[126.94141686289626,65.057623602337827,512.7458],[127.1618758472712,64.840277410931577,624.4189],[127.40967858164626,64.643255926556577,817.3594],[127.63502037852126,64.5152041687441,843.9462],[127.8685408863337,64.431219793744049,583.8835],[128.7478133472712,64.177191473431577,243.1145],[130.34766686289626,63.923407293744077,211.078],[132.16077721445876,63.830755926556606,492.6667],[133.84400475352126,63.618353582806606,299.8257],[134.50672448008376,63.578131414837856,381.7964],[136.8955184253962,63.2412173523378,428.9025],[138.1377059253962,62.955572821087856,1171.8469],[138.2462264332087,62.923346258587884,683.0751],[138.4528914722712,62.845465399212827,1342.4114],[138.84937584727126,62.739691473431549,1564.5215],[138.95008385508376,62.725043035931606,1306.4503],[139.09083092539626,62.715094305462827,1190.809],[139.21253502695876,62.724859930462856,1546.5566]]]}}